{
"type": "FeatureCollection",
"name": "AIA_GAUL2008_ADM2",
"crs": { "type": "name", "properties": { "name": "urn:ogc:def:crs:OGC:1.3:CRS84" } },
"features": [
{ "type": "Feature", "properties": { "POLYGON_ID": "AIA_GAUL2008_ADM2_4373", "ADM0_ISO3": "AIA", "ADM0_NAME": "Anguilla", "ADM0_CODE": 9, "ADM1_NAME": "Name Unknown", "ADM1_CODE": 424, "ADM2_NAME": "Administrative unit not available", "ADM2_CODE": 4373, "GEOSET": "GAUL", "GEOSET_YEAR": 2008.0, "GEOSET_VERSION": "GAUL_v1", "GEOSET_UNIT": "ADM2", "CENTROID_LONG": -62.948537988188072, "CENTROID_LAT": 18.286341822216819 }, "geometry": { "type": "MultiPolygon", "coordinates": [ [ [ [ -62.9446034, 18.2958973 ], [ -62.9386382, 18.2865662 ], [ -62.9560189, 18.2747896 ], [ -62.9545598, 18.2910077 ], [ -62.9446034, 18.2958973 ] ] ] ] } },
{ "type": "Feature", "properties": { "POLYGON_ID": "AIA_GAUL2008_ADM2_4374", "ADM0_ISO3": "AIA", "ADM0_NAME": "Anguilla", "ADM0_CODE": 9, "ADM1_NAME": "Name Unknown", "ADM1_CODE": 425, "ADM2_NAME": "Administrative unit not available", "ADM2_CODE": 4374, "GEOSET": "GAUL", "GEOSET_YEAR": 2008.0, "GEOSET_VERSION": "GAUL_v1", "GEOSET_UNIT": "ADM2", "CENTROID_LONG": -63.254568999672294, "CENTROID_LAT": 18.279499477184938 }, "geometry": { "type": "MultiPolygon", "coordinates": [ [ [ [ -63.2475857, 18.2829803 ], [ -63.2526927, 18.2729966 ], [ -63.2626061, 18.2791092 ], [ -63.2554822, 18.2845695 ], [ -63.2475857, 18.2829803 ] ] ] ] } },
{ "type": "Feature", "properties": { "POLYGON_ID": "AIA_GAUL2008_ADM2_4372", "ADM0_ISO3": "AIA", "ADM0_NAME": "Anguilla", "ADM0_CODE": 9, "ADM1_NAME": "Name Unknown", "ADM1_CODE": 423, "ADM2_NAME": "Administrative unit not available", "ADM2_CODE": 4372, "GEOSET": "GAUL", "GEOSET_YEAR": 2008.0, "GEOSET_VERSION": "GAUL_v1", "GEOSET_UNIT": "ADM2", "CENTROID_LONG": -63.4253523, "CENTROID_LAT": 18.588636866666668 }, "geometry": { "type": "MultiPolygon", "coordinates": [ [ [ [ -63.4266302, 18.5832796 ], [ -63.4272347, 18.5896309 ], [ -63.422192, 18.5930001 ], [ -63.4266302, 18.5832796 ] ] ] ] } },
{ "type": "Feature", "properties": { "POLYGON_ID": "AIA_GAUL2008_ADM2_4365", "ADM0_ISO3": "AIA", "ADM0_NAME": "Anguilla", "ADM0_CODE": 9, "ADM1_NAME": "Name Unknown", "ADM1_CODE": 416, "ADM2_NAME": "Administrative unit not available", "ADM2_CODE": 4365, "GEOSET": "GAUL", "GEOSET_YEAR": 2008.0, "GEOSET_VERSION": "GAUL_v1", "GEOSET_UNIT": "ADM2", "CENTROID_LONG": -63.0225063, "CENTROID_LAT": 18.23251826666667 }, "geometry": { "type": "MultiPolygon", "coordinates": [ [ [ [ -63.0137416, 18.2098774 ], [ -63.0280755, 18.231307 ], [ -63.0257018, 18.2563704 ], [ -63.0137416, 18.2098774 ] ] ] ] } },
{ "type": "Feature", "properties": { "POLYGON_ID": "AIA_GAUL2008_ADM2_4370", "ADM0_ISO3": "AIA", "ADM0_NAME": "Anguilla", "ADM0_CODE": 9, "ADM1_NAME": "Name Unknown", "ADM1_CODE": 421, "ADM2_NAME": "Administrative unit not available", "ADM2_CODE": 4370, "GEOSET": "GAUL", "GEOSET_YEAR": 2008.0, "GEOSET_VERSION": "GAUL_v1", "GEOSET_UNIT": "ADM2", "CENTROID_LONG": -63.128994588671503, "CENTROID_LAT": 18.178272543540896 }, "geometry": { "type": "MultiPolygon", "coordinates": [ [ [ [ -63.1132865, 18.1921166 ], [ -63.0988009, 18.1694616 ], [ -63.1170756, 18.1762597 ], [ -63.1493656, 18.1611266 ], [ -63.1540937, 18.1733898 ], [ -63.1330528, 18.1903612 ], [ -63.1132865, 18.1921166 ] ] ] ] } },
{ "type": "Feature", "properties": { "POLYGON_ID": "AIA_GAUL2008_ADM2_4371", "ADM0_ISO3": "AIA", "ADM0_NAME": "Anguilla", "ADM0_CODE": 9, "ADM1_NAME": "Name Unknown", "ADM1_CODE": 422, "ADM2_NAME": "Administrative unit not available", "ADM2_CODE": 4371, "GEOSET": "GAUL", "GEOSET_YEAR": 2008.0, "GEOSET_VERSION": "GAUL_v1", "GEOSET_UNIT": "ADM2", "CENTROID_LONG": -63.0842056, "CENTROID_LAT": 18.180248833333334 }, "geometry": { "type": "MultiPolygon", "coordinates": [ [ [ [ -63.072097, 18.1835481 ], [ -63.0988009, 18.1694616 ], [ -63.0817189, 18.1877368 ], [ -63.072097, 18.1835481 ] ] ] ] } },
{ "type": "Feature", "properties": { "POLYGON_ID": "AIA_GAUL2008_ADM2_4368", "ADM0_ISO3": "AIA", "ADM0_NAME": "Anguilla", "ADM0_CODE": 9, "ADM1_NAME": "Name Unknown", "ADM1_CODE": 419, "ADM2_NAME": "Administrative unit not available", "ADM2_CODE": 4368, "GEOSET": "GAUL", "GEOSET_YEAR": 2008.0, "GEOSET_VERSION": "GAUL_v1", "GEOSET_UNIT": "ADM2", "CENTROID_LONG": -63.091690275765181, "CENTROID_LAT": 18.19221697647453 }, "geometry": { "type": "MultiPolygon", "coordinates": [ [ [ [ -63.0700713, 18.204887 ], [ -63.0817189, 18.1877368 ], [ -63.0988009, 18.1694616 ], [ -63.1132865, 18.1921166 ], [ -63.0759086, 18.2123711 ], [ -63.0700713, 18.204887 ] ] ] ] } },
{ "type": "Feature", "properties": { "POLYGON_ID": "AIA_GAUL2008_ADM2_4369", "ADM0_ISO3": "AIA", "ADM0_NAME": "Anguilla", "ADM0_CODE": 9, "ADM1_NAME": "Name Unknown", "ADM1_CODE": 420, "ADM2_NAME": "Administrative unit not available", "ADM2_CODE": 4369, "GEOSET": "GAUL", "GEOSET_YEAR": 2008.0, "GEOSET_VERSION": "GAUL_v1", "GEOSET_UNIT": "ADM2", "CENTROID_LONG": -63.063574389644373, "CENTROID_LAT": 18.197120139622953 }, "geometry": { "type": "MultiPolygon", "coordinates": [ [ [ [ -63.0444518, 18.1975185 ], [ -63.072097, 18.1835481 ], [ -63.0817189, 18.1877368 ], [ -63.0700713, 18.204887 ], [ -63.0585362, 18.2121459 ], [ -63.0444518, 18.1975185 ] ] ] ] } },
{ "type": "Feature", "properties": { "POLYGON_ID": "AIA_GAUL2008_ADM2_4366", "ADM0_ISO3": "AIA", "ADM0_NAME": "Anguilla", "ADM0_CODE": 9, "ADM1_NAME": "Name Unknown", "ADM1_CODE": 417, "ADM2_NAME": "Administrative unit not available", "ADM2_CODE": 4366, "GEOSET": "GAUL", "GEOSET_YEAR": 2008.0, "GEOSET_VERSION": "GAUL_v1", "GEOSET_UNIT": "ADM2", "CENTROID_LONG": -63.047499351502445, "CENTROID_LAT": 18.228394404338797 }, "geometry": { "type": "MultiPolygon", "coordinates": [ [ [ [ -63.0257018, 18.2563704 ], [ -63.0280755, 18.231307 ], [ -63.0585362, 18.2121459 ], [ -63.0700713, 18.204887 ], [ -63.0759086, 18.2123711 ], [ -63.0257018, 18.2563704 ] ] ] ] } },
{ "type": "Feature", "properties": { "POLYGON_ID": "AIA_GAUL2008_ADM2_4367", "ADM0_ISO3": "AIA", "ADM0_NAME": "Anguilla", "ADM0_CODE": 9, "ADM1_NAME": "Name Unknown", "ADM1_CODE": 418, "ADM2_NAME": "Administrative unit not available", "ADM2_CODE": 4367, "GEOSET": "GAUL", "GEOSET_YEAR": 2008.0, "GEOSET_VERSION": "GAUL_v1", "GEOSET_UNIT": "ADM2", "CENTROID_LONG": -63.035645171809826, "CENTROID_LAT": 18.213249834737834 }, "geometry": { "type": "MultiPolygon", "coordinates": [ [ [ [ -63.0137416, 18.2098774 ], [ -63.0444518, 18.1975185 ], [ -63.0585362, 18.2121459 ], [ -63.0280755, 18.231307 ], [ -63.0137416, 18.2098774 ] ] ] ] } }
]
}
