{
"type": "FeatureCollection",
"name": "ASM_GAUL2012_ADM1",
"crs": { "type": "name", "properties": { "name": "urn:ogc:def:crs:OGC:1.3:CRS84" } },
"features": [
{ "type": "Feature", "properties": { "POLYGON_ID": "ASM_GAUL2012_ADM1_389", "ADM0_ISO3": "ASM", "ADM0_NAME": "American Samoa", "ADM0_CODE": 5, "ADM1_NAME": "Administrative unit not available", "ADM1_CODE": 389, "GEOSET": "GAUL", "GEOSET_YEAR": 2012.0, "GEOSET_VERSION": "GAUL_v1", "GEOSET_UNIT": "ADM1", "CENTROID_LONG": -170.39037863158222, "CENTROID_LAT": -14.282544213514635 }, "geometry": { "type": "MultiPolygon", "coordinates": [ [ [ [ -169.4243698, -14.2136993 ], [ -169.4230311, -14.2557231 ], [ -169.4967163, -14.2656615 ], [ -169.5185381, -14.2204578 ], [ -169.4243698, -14.2136993 ] ] ], [ [ [ -170.6713203, -14.2389807 ], [ -170.6468671, -14.2559682 ], [ -170.563843100000014, -14.2494462 ], [ -170.6018918, -14.2839175 ], [ -170.6829332, -14.2912536 ], [ -170.740307300000012, -14.3649851 ], [ -170.784647400000011, -14.3573437 ], [ -170.8087401, -14.2938996 ], [ -170.7543406, -14.2946149 ], [ -170.6713203, -14.2389807 ] ] ] ] } }
]
}
