{
"type": "FeatureCollection",
"name": "ATG_GAUL2013_ADM1",
"crs": { "type": "name", "properties": { "name": "urn:ogc:def:crs:OGC:1.3:CRS84" } },
"features": [
{ "type": "Feature", "properties": { "POLYGON_ID": "ATG_GAUL2013_ADM1_40206", "ADM0_ISO3": "ATG", "ADM0_NAME": "Antigua and Barbuda", "ADM0_CODE": 11, "ADM1_NAME": "Barbuda", "ADM1_CODE": 40206, "GEOSET": "GAUL", "GEOSET_YEAR": 2013.0, "GEOSET_VERSION": "GAUL_v1", "GEOSET_UNIT": "ADM1", "CENTROID_LONG": -61.805616032073175, "CENTROID_LAT": 17.640827184914372 }, "geometry": { "type": "MultiPolygon", "coordinates": [ [ [ [ -61.8437406, 17.7291471 ], [ -61.7949378, 17.7010696 ], [ -61.7397291, 17.6374699 ], [ -61.7355163, 17.5491537 ], [ -61.8213144, 17.5923058 ], [ -61.8598801, 17.5903239 ], [ -61.8560421, 17.6577924 ], [ -61.8860946, 17.6958467 ], [ -61.8437406, 17.7291471 ] ] ] ] } },
{ "type": "Feature", "properties": { "POLYGON_ID": "ATG_GAUL2013_ADM1_40207", "ADM0_ISO3": "ATG", "ADM0_NAME": "Antigua and Barbuda", "ADM0_CODE": 11, "ADM1_NAME": "Name Unknown", "ADM1_CODE": 40207, "GEOSET": "GAUL", "GEOSET_YEAR": 2013.0, "GEOSET_VERSION": "GAUL_v1", "GEOSET_UNIT": "ADM1", "CENTROID_LONG": -62.346277733333324, "CENTROID_LAT": 16.939433 }, "geometry": { "type": "MultiPolygon", "coordinates": [ [ [ [ -62.3454019, 16.9339708 ], [ -62.3499161, 16.9423628 ], [ -62.3435152, 16.9419654 ], [ -62.3454019, 16.9339708 ] ] ] ] } },
{ "type": "Feature", "properties": { "POLYGON_ID": "ATG_GAUL2013_ADM1_40208", "ADM0_ISO3": "ATG", "ADM0_NAME": "Antigua and Barbuda", "ADM0_CODE": 11, "ADM1_NAME": "St. George", "ADM1_CODE": 40208, "GEOSET": "GAUL", "GEOSET_YEAR": 2013.0, "GEOSET_VERSION": "GAUL_v1", "GEOSET_UNIT": "ADM1", "CENTROID_LONG": -61.797447746030322, "CENTROID_LAT": 17.123888694485803 }, "geometry": { "type": "MultiPolygon", "coordinates": [ [ [ [ -61.7778951, 17.1143454 ], [ -61.7986882, 17.0782597 ], [ -61.8151181, 17.1423695 ], [ -61.8002472, 17.1673819 ], [ -61.7778951, 17.1143454 ] ] ] ] } },
{ "type": "Feature", "properties": { "POLYGON_ID": "ATG_GAUL2013_ADM1_40209", "ADM0_ISO3": "ATG", "ADM0_NAME": "Antigua and Barbuda", "ADM0_CODE": 11, "ADM1_NAME": "St. John", "ADM1_CODE": 40209, "GEOSET": "GAUL", "GEOSET_YEAR": 2013.0, "GEOSET_VERSION": "GAUL_v1", "GEOSET_UNIT": "ADM1", "CENTROID_LONG": -61.832240694860907, "CENTROID_LAT": 17.114705693334525 }, "geometry": { "type": "MultiPolygon", "coordinates": [ [ [ [ -61.8002472, 17.1673819 ], [ -61.8151181, 17.1423695 ], [ -61.7986882, 17.0782597 ], [ -61.7978833, 17.0653069 ], [ -61.8217634, 17.052604 ], [ -61.8404401, 17.0844834 ], [ -61.8780887, 17.1051179 ], [ -61.8473813, 17.1657887 ], [ -61.8002472, 17.1673819 ] ] ] ] } },
{ "type": "Feature", "properties": { "POLYGON_ID": "ATG_GAUL2013_ADM1_40210", "ADM0_ISO3": "ATG", "ADM0_NAME": "Antigua and Barbuda", "ADM0_CODE": 11, "ADM1_NAME": "St. Mary", "ADM1_CODE": 40210, "GEOSET": "GAUL", "GEOSET_YEAR": 2013.0, "GEOSET_VERSION": "GAUL_v1", "GEOSET_UNIT": "ADM1", "CENTROID_LONG": -61.856399098577974, "CENTROID_LAT": 17.05231735731229 }, "geometry": { "type": "MultiPolygon", "coordinates": [ [ [ [ -61.8217634, 17.052604 ], [ -61.8101965, 17.00963 ], [ -61.8874459, 17.0247327 ], [ -61.8964106, 17.0506148 ], [ -61.8780887, 17.1051179 ], [ -61.8404401, 17.0844834 ], [ -61.8217634, 17.052604 ] ] ] ] } },
{ "type": "Feature", "properties": { "POLYGON_ID": "ATG_GAUL2013_ADM1_40211", "ADM0_ISO3": "ATG", "ADM0_NAME": "Antigua and Barbuda", "ADM0_CODE": 11, "ADM1_NAME": "St. Paul", "ADM1_CODE": 40211, "GEOSET": "GAUL", "GEOSET_YEAR": 2013.0, "GEOSET_VERSION": "GAUL_v1", "GEOSET_UNIT": "ADM1", "CENTROID_LONG": -61.784564484572861, "CENTROID_LAT": 17.042376143923139 }, "geometry": { "type": "MultiPolygon", "coordinates": [ [ [ [ -61.7538503, 17.0660031 ], [ -61.7422261, 17.0366675 ], [ -61.8101965, 17.00963 ], [ -61.8217634, 17.052604 ], [ -61.7978833, 17.0653069 ], [ -61.7538503, 17.0660031 ] ] ] ] } },
{ "type": "Feature", "properties": { "POLYGON_ID": "ATG_GAUL2013_ADM1_40212", "ADM0_ISO3": "ATG", "ADM0_NAME": "Antigua and Barbuda", "ADM0_CODE": 11, "ADM1_NAME": "St. Peter", "ADM1_CODE": 40212, "GEOSET": "GAUL", "GEOSET_YEAR": 2013.0, "GEOSET_VERSION": "GAUL_v1", "GEOSET_UNIT": "ADM1", "CENTROID_LONG": -61.766454998468099, "CENTROID_LAT": 17.089075258541712 }, "geometry": { "type": "MultiPolygon", "coordinates": [ [ [ [ -61.7286947, 17.1087411 ], [ -61.7538503, 17.0660031 ], [ -61.7978833, 17.0653069 ], [ -61.7986882, 17.0782597 ], [ -61.7778951, 17.1143454 ], [ -61.7286947, 17.1087411 ] ] ] ] } },
{ "type": "Feature", "properties": { "POLYGON_ID": "ATG_GAUL2013_ADM1_40213", "ADM0_ISO3": "ATG", "ADM0_NAME": "Antigua and Barbuda", "ADM0_CODE": 11, "ADM1_NAME": "St. Philip", "ADM1_CODE": 40213, "GEOSET": "GAUL", "GEOSET_YEAR": 2013.0, "GEOSET_VERSION": "GAUL_v1", "GEOSET_UNIT": "ADM1", "CENTROID_LONG": -61.713442647833773, "CENTROID_LAT": 17.070521873061097 }, "geometry": { "type": "MultiPolygon", "coordinates": [ [ [ [ -61.7422261, 17.0366675 ], [ -61.7538503, 17.0660031 ], [ -61.7286947, 17.1087411 ], [ -61.6812584, 17.0997747 ], [ -61.6773684, 17.0430449 ], [ -61.7422261, 17.0366675 ] ] ] ] } }
]
}
