{
"type": "FeatureCollection",
"name": "BDI_GAUL2008_ADM0",
"crs": { "type": "name", "properties": { "name": "urn:ogc:def:crs:OGC:1.3:CRS84" } },
"features": [
{ "type": "Feature", "properties": { "POLYGON_ID": "BDI_GAUL2008_ADM0_43", "ADM0_ISO3": "BDI", "ADM0_NAME": "Burundi", "ADM0_CODE": 43, "GEOSET": "GAUL", "GEOSET_YEAR": 2008.0, "GEOSET_VERSION": "GAUL_v1", "GEOSET_UNIT": "ADM0", "CENTROID_LONG": 29.890239396665695, "CENTROID_LAT": -3.3666457748020013 }, "geometry": { "type": "MultiPolygon", "coordinates": [ [ [ [ 30.5432535, -2.4132367 ], [ 30.5133127, -2.4837962 ], [ 30.5071838, -2.5048698 ], [ 30.4972448, -2.5177722 ], [ 30.495601, -2.519906 ], [ 30.4959688, -2.5219374 ], [ 30.495487, -2.5235101 ], [ 30.4848739, -2.5243375 ], [ 30.4829712, -2.5317464 ], [ 30.4828569, -2.5321918 ], [ 30.483761, -2.540082 ], [ 30.4838654, -2.5409935 ], [ 30.4844155, -2.5569161 ], [ 30.4792695, -2.5612244 ], [ 30.4760416, -2.5715856 ], [ 30.4738389, -2.5732432 ], [ 30.4704902, -2.5757632 ], [ 30.4660175, -2.5869886 ], [ 30.457338, -2.5960959 ], [ 30.4551987, -2.6019026 ], [ 30.4508118, -2.6078086 ], [ 30.4465498, -2.6135466 ], [ 30.443394, -2.6215694 ], [ 30.4378703, -2.635612 ], [ 30.434809, -2.6392747 ], [ 30.4306671, -2.6442304 ], [ 30.4252505, -2.6507111 ], [ 30.4223145, -2.654224 ], [ 30.4203891, -2.6594194 ], [ 30.4292836, -2.6768716 ], [ 30.4311162, -2.6798345 ], [ 30.4331638, -2.6801707 ], [ 30.4350028, -2.6790673 ], [ 30.4371368, -2.6777869 ], [ 30.4431574, -2.6785204 ], [ 30.4521731, -2.6888807 ], [ 30.4591106, -2.6919369 ], [ 30.4696237, -2.6852134 ], [ 30.4710845, -2.6830039 ], [ 30.4720687, -2.6815154 ], [ 30.4786673, -2.6789806 ], [ 30.4867076, -2.6758921 ], [ 30.494769, -2.6704372 ], [ 30.4999408, -2.6669376 ], [ 30.5045556, -2.6653789 ], [ 30.5125627, -2.6565466 ], [ 30.5242775, -2.6543847 ], [ 30.5268044, -2.6539184 ], [ 30.5293197, -2.6643554 ], [ 30.5282418, -2.6678991 ], [ 30.5265671, -2.6719411 ], [ 30.5258213, -2.673741 ], [ 30.5252104, -2.6752155 ], [ 30.5245122, -2.6769006 ], [ 30.5209671, -2.6817599 ], [ 30.5210159, -2.6827946 ], [ 30.5212422, -2.6875972 ], [ 30.5141824, -2.6915702 ], [ 30.5102706, -2.6927926 ], [ 30.5044333, -2.6972852 ], [ 30.503761, -2.703153 ], [ 30.4974347, -2.7087763 ], [ 30.4915669, -2.7146136 ], [ 30.483896, -2.7223151 ], [ 30.4809091, -2.7190324 ], [ 30.4777225, -2.7155304 ], [ 30.4741515, -2.7157764 ], [ 30.4663231, -2.7192895 ], [ 30.4621056, -2.7264714 ], [ 30.463542, -2.7306584 ], [ 30.4622278, -2.7350287 ], [ 30.4539151, -2.7417522 ], [ 30.4403458, -2.7452668 ], [ 30.4406339, -2.746344 ], [ 30.4422414, -2.7523556 ], [ 30.4404353, -2.7531373 ], [ 30.4372256, -2.7545266 ], [ 30.4366267, -2.7564356 ], [ 30.4366818, -2.7565246 ], [ 30.4388726, -2.7600665 ], [ 30.4406921, -2.7609235 ], [ 30.4440382, -2.7624995 ], [ 30.4425035, -2.7778465 ], [ 30.4420917, -2.7850708 ], [ 30.4400704, -2.7953271 ], [ 30.4398861, -2.7962099 ], [ 30.4384608, -2.803038 ], [ 30.4336696, -2.8046102 ], [ 30.4321727, -2.8068646 ], [ 30.4289813, -2.8116712 ], [ 30.4275308, -2.8138558 ], [ 30.42521, -2.8174118 ], [ 30.4272688, -2.818909 ], [ 30.4242742, -2.8267697 ], [ 30.4212423, -2.8319727 ], [ 30.4207557, -2.835641 ], [ 30.4191087, -2.8428279 ], [ 30.4134565, -2.8502393 ], [ 30.4070931, -2.8580626 ], [ 30.4099932, -2.8625922 ], [ 30.4112831, -2.8640189 ], [ 30.4119218, -2.8647254 ], [ 30.4178948, -2.8738706 ], [ 30.4185472, -2.8748694 ], [ 30.4197881, -2.8740094 ], [ 30.426595, -2.8692921 ], [ 30.4346802, -2.8746822 ], [ 30.4391346, -2.8993123 ], [ 30.4376955, -2.9024721 ], [ 30.4374127, -2.9030929 ], [ 30.4444499, -2.9090071 ], [ 30.4459269, -2.9094005 ], [ 30.4530217, -2.9112904 ], [ 30.4578504, -2.9100551 ], [ 30.4630909, -2.9154079 ], [ 30.4640267, -2.9188141 ], [ 30.463278, -2.9201617 ], [ 30.4586696, -2.9205431 ], [ 30.4578504, -2.9206109 ], [ 30.4578504, -2.9220333 ], [ 30.461369, -2.9248406 ], [ 30.4648876, -2.9224076 ], [ 30.4694542, -2.9249904 ], [ 30.4719247, -2.9271988 ], [ 30.4794485, -2.9351718 ], [ 30.4823391, -2.9456364 ], [ 30.4883116, -2.9489289 ], [ 30.4938971, -2.948722 ], [ 30.5025452, -2.9529912 ], [ 30.5049938, -2.9542 ], [ 30.5259914, -2.9399146 ], [ 30.5320714, -2.9318645 ], [ 30.5342459, -2.9325976 ], [ 30.5394791, -2.9343618 ], [ 30.5490751, -2.918956 ], [ 30.5518534, -2.9144956 ], [ 30.5571785, -2.9094042 ], [ 30.5656371, -2.8975956 ], [ 30.5658832, -2.8963129 ], [ 30.566566, -2.8960065 ], [ 30.5702605, -2.8943487 ], [ 30.577079, -2.8950502 ], [ 30.5794523, -2.8978313 ], [ 30.5870402, -2.906723 ], [ 30.5885274, -2.9135977 ], [ 30.5956545, -2.914692 ], [ 30.5982902, -2.9213629 ], [ 30.6246963, -2.9345302 ], [ 30.63115, -2.9380937 ], [ 30.636807, -2.9453027 ], [ 30.6406622, -2.9502155 ], [ 30.6431454, -2.9516219 ], [ 30.6467933, -2.9536879 ], [ 30.6470247, -2.9609904 ], [ 30.6452149, -2.9671565 ], [ 30.648561, -2.9751114 ], [ 30.6559898, -2.9785207 ], [ 30.666407, -2.9916947 ], [ 30.6701916, -2.9935291 ], [ 30.6859141, -2.9830544 ], [ 30.6865222, -2.9795924 ], [ 30.7047679, -2.9713117 ], [ 30.709189, -2.9725983 ], [ 30.7120428, -2.9755222 ], [ 30.7134931, -2.9802942 ], [ 30.7183495, -2.9844489 ], [ 30.7196452, -2.9855574 ], [ 30.7264288, -2.9908907 ], [ 30.7317154, -2.9897913 ], [ 30.7388031, -2.9914755 ], [ 30.7432172, -2.9964954 ], [ 30.7435751, -2.9969024 ], [ 30.7473879, -2.997651 ], [ 30.7843196, -2.9904888 ], [ 30.7996579, -2.9891749 ], [ 30.8111047, -2.9858899 ], [ 30.8242698, -2.9814931 ], [ 30.8443635, -2.978757 ], [ 30.8459506, -2.9794716 ], [ 30.8457232, -2.9814426 ], [ 30.8398355, -2.9884168 ], [ 30.8373844, -2.9919292 ], [ 30.8372075, -2.9981959 ], [ 30.8339226, -3.0035276 ], [ 30.8253059, -3.0107545 ], [ 30.8246741, -3.0162632 ], [ 30.8211365, -3.0242734 ], [ 30.8178263, -3.0253095 ], [ 30.8161838, -3.0279122 ], [ 30.8173461, -3.0329912 ], [ 30.8140612, -3.0429725 ], [ 30.8073902, -3.0455752 ], [ 30.8006434, -3.0513618 ], [ 30.7944272, -3.0534085 ], [ 30.8012933, -3.0641148 ], [ 30.8020106, -3.0683067 ], [ 30.8134644, -3.0815399 ], [ 30.8156598, -3.0819416 ], [ 30.8299126, -3.0845496 ], [ 30.8333184, -3.0881138 ], [ 30.8360378, -3.0945558 ], [ 30.8356418, -3.097856 ], [ 30.8337299, -3.1006684 ], [ 30.8315495, -3.1038756 ], [ 30.8328432, -3.1088655 ], [ 30.8335561, -3.1147795 ], [ 30.8294902, -3.1296436 ], [ 30.8249227, -3.1389897 ], [ 30.8198536, -3.1435572 ], [ 30.8178207, -3.1472006 ], [ 30.8210153, -3.1508968 ], [ 30.8339257, -3.1433196 ], [ 30.8410277, -3.1564676 ], [ 30.845186, -3.1622099 ], [ 30.8455556, -3.1666718 ], [ 30.8385856, -3.1858394 ], [ 30.8379255, -3.1927038 ], [ 30.8404337, -3.1986441 ], [ 30.8412525, -3.1996068 ], [ 30.8473509, -3.2067758 ], [ 30.8414105, -3.2066702 ], [ 30.837703, -3.2085767 ], [ 30.8351669, -3.2098809 ], [ 30.8274969, -3.2138251 ], [ 30.820078, -3.2128218 ], [ 30.812844, -3.2239105 ], [ 30.8252263, -3.2464574 ], [ 30.8368055, -3.2532612 ], [ 30.8367616, -3.2542701 ], [ 30.8365542, -3.2547253 ], [ 30.8351005, -3.2579157 ], [ 30.8284209, -3.2635657 ], [ 30.8182808, -3.2654802 ], [ 30.8014994, -3.2737934 ], [ 30.7980063, -3.2785882 ], [ 30.7894522, -3.2791426 ], [ 30.7742977, -3.2853734 ], [ 30.7548397, -3.2910761 ], [ 30.7532302, -3.2899386 ], [ 30.7483248, -3.2864714 ], [ 30.7463296, -3.2817497 ], [ 30.7451326, -3.2681829 ], [ 30.7413419, -3.2672851 ], [ 30.7355561, -3.2708763 ], [ 30.7301693, -3.2743677 ], [ 30.730269, -3.2861389 ], [ 30.7196238, -3.3022471 ], [ 30.7189302, -3.3032968 ], [ 30.7142084, -3.3041614 ], [ 30.7072255, -3.3094817 ], [ 30.70267, -3.3095814 ], [ 30.6844148, -3.3170631 ], [ 30.6743062, -3.3195902 ], [ 30.6671903, -3.3189917 ], [ 30.6668582, -3.3194925 ], [ 30.6609057, -3.3284684 ], [ 30.6594427, -3.3331902 ], [ 30.6487356, -3.3436313 ], [ 30.6475053, -3.3476547 ], [ 30.6442133, -3.3500821 ], [ 30.6427835, -3.3495168 ], [ 30.6383278, -3.3534738 ], [ 30.6345789, -3.3594965 ], [ 30.6460388, -3.3773167 ], [ 30.6474055, -3.3799422 ], [ 30.6465077, -3.3856948 ], [ 30.6621278, -3.3867992 ], [ 30.6677224, -3.3889867 ], [ 30.6736744, -3.3929104 ], [ 30.6776647, -3.3983305 ], [ 30.6767004, -3.4029192 ], [ 30.6727766, -3.4076077 ], [ 30.674007, -3.4135266 ], [ 30.6717458, -3.4193789 ], [ 30.6660265, -3.4233359 ], [ 30.6609723, -3.4318483 ], [ 30.6551532, -3.4350072 ], [ 30.6488353, -3.4422894 ], [ 30.6454104, -3.4427217 ], [ 30.6388598, -3.4474102 ], [ 30.6367982, -3.4534952 ], [ 30.6178779, -3.4666297 ], [ 30.6166595, -3.4667405 ], [ 30.6087337, -3.467461 ], [ 30.5970623, -3.472881 ], [ 30.5960315, -3.4751422 ], [ 30.5846594, -3.4824908 ], [ 30.5836618, -3.4844194 ], [ 30.5683327, -3.4897397 ], [ 30.5350477, -3.5031734 ], [ 30.5270007, -3.5099236 ], [ 30.5238085, -3.513149 ], [ 30.5212149, -3.5208302 ], [ 30.5143318, -3.5294091 ], [ 30.5107256, -3.5298305 ], [ 30.5104413, -3.522659 ], [ 30.4915474, -3.5198571 ], [ 30.4891745, -3.5270976 ], [ 30.4850371, -3.528862 ], [ 30.4788614, -3.5365284 ], [ 30.4652626, -3.5491537 ], [ 30.461399, -3.5559987 ], [ 30.4539151, -3.559193 ], [ 30.4471708, -3.5657356 ], [ 30.4467963, -3.5660989 ], [ 30.4457011, -3.5673462 ], [ 30.4495039, -3.5769596 ], [ 30.4528199, -3.5773551 ], [ 30.4525461, -3.5745867 ], [ 30.4563793, -3.5758644 ], [ 30.456714, -3.5786937 ], [ 30.4566531, -3.5828615 ], [ 30.4549799, -3.5854474 ], [ 30.4536413, -3.5875161 ], [ 30.454554, -3.5912276 ], [ 30.4573528, -3.5933876 ], [ 30.457292, -3.5954259 ], [ 30.4525157, -3.6101503 ], [ 30.4429935, -3.6177863 ], [ 30.435388, -3.6180905 ], [ 30.428543, -3.6240837 ], [ 30.4321632, -3.6277648 ], [ 30.4331672, -3.631598 ], [ 30.4306421, -3.6364959 ], [ 30.4265351, -3.6373782 ], [ 30.4244664, -3.6393252 ], [ 30.4223673, -3.6418503 ], [ 30.4189904, -3.6539887 ], [ 30.4164653, -3.6523459 ], [ 30.4158873, -3.657974 ], [ 30.4156135, -3.665032 ], [ 30.4118412, -3.6646365 ], [ 30.4109285, -3.6656709 ], [ 30.4081601, -3.6694432 ], [ 30.4091032, -3.6729722 ], [ 30.4091336, -3.6843501 ], [ 30.4088598, -3.6876662 ], [ 30.4059392, -3.6848673 ], [ 30.4044181, -3.6852932 ], [ 30.4032012, -3.6898261 ], [ 30.4034142, -3.6935072 ], [ 30.3986987, -3.7029381 ], [ 30.3972385, -3.7046418 ], [ 30.3938446, -3.7073158 ], [ 30.3912149, -3.7093876 ], [ 30.3889332, -3.7130079 ], [ 30.3885681, -3.7197616 ], [ 30.3887182, -3.7229347 ], [ 30.3887811, -3.7242641 ], [ 30.3909411, -3.7285232 ], [ 30.3929711, -3.7292614 ], [ 30.3954901, -3.7301774 ], [ 30.3979686, -3.7310787 ], [ 30.4006458, -3.7429129 ], [ 30.4042595, -3.7522 ], [ 30.4041164, -3.7565795 ], [ 30.40383, -3.7569299 ], [ 30.4026423, -3.7583828 ], [ 30.4047339, -3.7621404 ], [ 30.405104, -3.7628052 ], [ 30.4096122, -3.7647945 ], [ 30.4098412, -3.7748558 ], [ 30.4094405, -3.7843733 ], [ 30.4040592, -3.7875362 ], [ 30.4034008, -3.7892537 ], [ 30.4023561, -3.7922019 ], [ 30.4008974, -3.7956522 ], [ 30.4008676, -3.7957227 ], [ 30.3973898, -3.7969535 ], [ 30.3948995, -3.7945777 ], [ 30.3976617, -3.7941341 ], [ 30.3967171, -3.7896258 ], [ 30.3906202, -3.7880085 ], [ 30.386527, -3.7878654 ], [ 30.3853558, -3.784874 ], [ 30.3844088, -3.7824555 ], [ 30.3866129, -3.7795072 ], [ 30.3584326, -3.7756001 ], [ 30.3472407, -3.7734962 ], [ 30.3442952, -3.7755478 ], [ 30.339412, -3.7789491 ], [ 30.3388735, -3.7793771 ], [ 30.3318124, -3.7849887 ], [ 30.3308392, -3.7875935 ], [ 30.3275188, -3.7923307 ], [ 30.3236387, -3.79548 ], [ 30.3233397, -3.7957227 ], [ 30.3216223, -3.7989143 ], [ 30.3222043, -3.8026947 ], [ 30.3231823, -3.8090471 ], [ 30.3243988, -3.8103495 ], [ 30.321224, -3.8151704 ], [ 30.3193753, -3.8179778 ], [ 30.3160549, -3.8176343 ], [ 30.3124531, -3.8274294 ], [ 30.3104303, -3.8338211 ], [ 30.311289, -3.8383437 ], [ 30.3100725, -3.8416927 ], [ 30.3082119, -3.8451705 ], [ 30.2985084, -3.8567203 ], [ 30.2963044, -3.8591533 ], [ 30.2920251, -3.8619155 ], [ 30.2906082, -3.8597258 ], [ 30.2890768, -3.8601981 ], [ 30.2878746, -3.8616579 ], [ 30.2860284, -3.8654363 ], [ 30.2842108, -3.8684561 ], [ 30.2790442, -3.8736513 ], [ 30.2764251, -3.8730073 ], [ 30.2563024, -3.8839416 ], [ 30.2517656, -3.9086727 ], [ 30.2511644, -3.9138536 ], [ 30.2496125, -3.918493 ], [ 30.2482121, -3.9198452 ], [ 30.2311893, -3.9411107 ], [ 30.2281889, -3.9673489 ], [ 30.2271562, -3.973924 ], [ 30.2264404, -3.9750415 ], [ 30.220316, -3.9846036 ], [ 30.2149499, -3.9894165 ], [ 30.2152505, -3.9954123 ], [ 30.2181061, -4.0043134 ], [ 30.2186693, -4.0060689 ], [ 30.2229422, -4.0100131 ], [ 30.229865, -4.0112867 ], [ 30.2288173, -4.0150871 ], [ 30.2236611, -4.0242491 ], [ 30.2221204, -4.0259952 ], [ 30.2207646, -4.0249886 ], [ 30.2199823, -4.0254201 ], [ 30.2167793, -4.0271869 ], [ 30.2157795, -4.0323669 ], [ 30.2150744, -4.0360199 ], [ 30.2117482, -4.0382211 ], [ 30.2080899, -4.040642 ], [ 30.2052881, -4.0440544 ], [ 30.2048853, -4.0445451 ], [ 30.204269, -4.0479757 ], [ 30.2017628, -4.0475238 ], [ 30.2001521, -4.0471423 ], [ 30.1986403, -4.0467842 ], [ 30.1961136, -4.0458187 ], [ 30.1909678, -4.050683 ], [ 30.1890675, -4.0536249 ], [ 30.1889237, -4.0562543 ], [ 30.1885539, -4.0589865 ], [ 30.1881437, -4.061674 ], [ 30.1879582, -4.0628896 ], [ 30.1873214, -4.0646152 ], [ 30.185945, -4.0667105 ], [ 30.1831923, -4.0728322 ], [ 30.1843633, -4.0753178 ], [ 30.183295, -4.0778446 ], [ 30.1774199, -4.0891224 ], [ 30.1746813, -4.0920281 ], [ 30.1713598, -4.0955522 ], [ 30.168073, -4.0983666 ], [ 30.1645397, -4.1028448 ], [ 30.163718, -4.1070355 ], [ 30.1621568, -4.1096239 ], [ 30.160082, -4.1126436 ], [ 30.1521525, -4.1181901 ], [ 30.1465444, -4.1209634 ], [ 30.1416964, -4.1241885 ], [ 30.1363759, -4.130187 ], [ 30.1318069, -4.1333428 ], [ 30.1279329, -4.1320563 ], [ 30.1163674, -4.1388765 ], [ 30.112526, -4.1453063 ], [ 30.1106448, -4.147528 ], [ 30.1077601, -4.1509349 ], [ 30.1038224, -4.1514113 ], [ 30.094446, -4.1584594 ], [ 30.0913466, -4.1592547 ], [ 30.0867862, -4.1600558 ], [ 30.0780145, -4.1676976 ], [ 30.0750564, -4.171991 ], [ 30.0745951, -4.1733287 ], [ 30.0721155, -4.1805197 ], [ 30.0715641, -4.1821185 ], [ 30.0725913, -4.1866584 ], [ 30.0688525, -4.1940743 ], [ 30.0628746, -4.2029487 ], [ 30.0608204, -4.2100153 ], [ 30.0563832, -4.2172052 ], [ 30.0522861, -4.2227988 ], [ 30.0547794, -4.2267925 ], [ 30.0561915, -4.2304992 ], [ 30.0555957, -4.2342722 ], [ 30.0544268, -4.2403998 ], [ 30.0511721, -4.2416898 ], [ 30.0510133, -4.2438133 ], [ 30.0536925, -4.2536965 ], [ 30.0534345, -4.2564947 ], [ 30.0525613, -4.2584991 ], [ 30.0508148, -4.2587174 ], [ 30.0458469, -4.2547297 ], [ 30.0432338, -4.2555818 ], [ 30.0466274, -4.2597692 ], [ 30.0431347, -4.2726451 ], [ 30.042285, -4.2757114 ], [ 30.0365958, -4.276635 ], [ 30.0305371, -4.2765241 ], [ 30.0247371, -4.2763394 ], [ 30.0233943, -4.2756187 ], [ 30.0197128, -4.2736426 ], [ 30.0151174, -4.2781509 ], [ 30.0158338, -4.2817331 ], [ 30.0137492, -4.2838503 ], [ 30.0134695, -4.2841344 ], [ 30.0107812, -4.2825598 ], [ 30.0019432, -4.2841714 ], [ 30.0021401, -4.2868322 ], [ 30.0055144, -4.287915 ], [ 30.0071773, -4.2896307 ], [ 30.0053863, -4.2942202 ], [ 29.9966737, -4.2995373 ], [ 29.9932694, -4.2988633 ], [ 29.9896335, -4.2981434 ], [ 29.9863998, -4.2986436 ], [ 29.9846917, -4.2989079 ], [ 29.9726628, -4.3007686 ], [ 29.9690994, -4.3029514 ], [ 29.9678494, -4.3116454 ], [ 29.9656853, -4.3188468 ], [ 29.961189, -4.3255631 ], [ 29.9582016, -4.328398 ], [ 29.9523645, -4.3298728 ], [ 29.9511892, -4.3288653 ], [ 29.9424643, -4.339186 ], [ 29.9276164, -4.3463129 ], [ 29.9178012, -4.349345 ], [ 29.9138626, -4.3490637 ], [ 29.9114592, -4.3486493 ], [ 29.9093301, -4.3482822 ], [ 29.9010779, -4.3528772 ], [ 29.8961077, -4.3534086 ], [ 29.8936889, -4.3545771 ], [ 29.8924192, -4.3551904 ], [ 29.8903562, -4.3567846 ], [ 29.8854485, -4.3616609 ], [ 29.8742892, -4.3701633 ], [ 29.8736015, -4.3707572 ], [ 29.8717885, -4.3727577 ], [ 29.8711008, -4.3752584 ], [ 29.8736953, -4.3772902 ], [ 29.8753208, -4.3781967 ], [ 29.8740079, -4.3807912 ], [ 29.8676937, -4.3833857 ], [ 29.8640051, -4.3813538 ], [ 29.8601916, -4.3801035 ], [ 29.8564624, -4.3807154 ], [ 29.8514975, -4.3814289 ], [ 29.8492381, -4.3786937 ], [ 29.8491611, -4.3777261 ], [ 29.84903, -4.3760775 ], [ 29.8456705, -4.3687639 ], [ 29.8406885, -4.3691962 ], [ 29.8391596, -4.3693288 ], [ 29.8340164, -4.367991 ], [ 29.8316974, -4.3648396 ], [ 29.8313602, -4.3644311 ], [ 29.8295866, -4.3622828 ], [ 29.8266433, -4.3606477 ], [ 29.8241511, -4.3611239 ], [ 29.8219758, -4.3615396 ], [ 29.8211433, -4.3648099 ], [ 29.8205807, -4.3652037 ], [ 29.8187649, -4.3664747 ], [ 29.8142162, -4.3639477 ], [ 29.8018189, -4.3831235 ], [ 29.8019675, -4.3871073 ], [ 29.7996189, -4.3904073 ], [ 29.7960899, -4.3977657 ], [ 29.7957303, -4.3994847 ], [ 29.7952783, -4.4016452 ], [ 29.7903566, -4.4067271 ], [ 29.7888864, -4.4082453 ], [ 29.7830593, -4.4136264 ], [ 29.7800269, -4.4141318 ], [ 29.773962, -4.4174615 ], [ 29.7706199, -4.4199815 ], [ 29.7684025, -4.4216534 ], [ 29.7645873, -4.428022 ], [ 29.7632777, -4.4328385 ], [ 29.7638833, -4.4362904 ], [ 29.7639436, -4.4366341 ], [ 29.7656477, -4.4409771 ], [ 29.764948, -4.4444923 ], [ 29.7639904, -4.4493032 ], [ 29.7656908, -4.4502135 ], [ 29.767897, -4.4513946 ], [ 29.7681052, -4.4525401 ], [ 29.768844, -4.4566033 ], [ 29.7615353, -4.4660373 ], [ 29.757628, -4.4685781 ], [ 29.7490038, -4.4700436 ], [ 29.7386429, -4.4580229 ], [ 29.7347701, -4.4562626 ], [ 29.7327462, -4.4596239 ], [ 29.7319536, -4.4609401 ], [ 29.6954279, -4.4560893 ], [ 29.6909628, -4.4513336 ], [ 29.6733091, -4.4474609 ], [ 29.6709596, -4.4484524 ], [ 29.6678269, -4.4497745 ], [ 29.6619469, -4.4487173 ], [ 29.6562928, -4.4486884 ], [ 29.423334, -4.4475006 ], [ 29.4074975, -4.3691671 ], [ 29.3975001, -4.2958331 ], [ 29.3930543, -4.1952786 ], [ 29.3783319, -4.1336115 ], [ 29.3462496, -4.0548615 ], [ 29.3130539, -4.0050004 ], [ 29.2386101, -3.9208332 ], [ 29.2237469, -3.7896525 ], [ 29.2401382, -3.6929172 ], [ 29.2446987, -3.6269406 ], [ 29.2469449, -3.5944441 ], [ 29.2419422, -3.4961115 ], [ 29.2319416, -3.4227787 ], [ 29.2136394, -3.342293 ], [ 29.2126214, -3.3378163 ], [ 29.2112877, -3.3054927 ], [ 29.2400022, -3.2762101 ], [ 29.2407229, -3.2683735 ], [ 29.2342149, -3.2618655 ], [ 29.2323895, -3.2581353 ], [ 29.2311196, -3.2507542 ], [ 29.2261989, -3.2293254 ], [ 29.2266751, -3.2234524 ], [ 29.2277862, -3.2042458 ], [ 29.2236592, -3.2004363 ], [ 29.2289767, -3.1880552 ], [ 29.2319926, -3.1839281 ], [ 29.2333419, -3.1686105 ], [ 29.23145, -3.1609061 ], [ 29.2351673, -3.1509119 ], [ 29.2397705, -3.1492452 ], [ 29.2447705, -3.1386896 ], [ 29.2446912, -3.1282926 ], [ 29.2475484, -3.1230545 ], [ 29.253104, -3.1253561 ], [ 29.2552468, -3.1228164 ], [ 29.2578659, -3.1156735 ], [ 29.2567548, -3.112975 ], [ 29.2518341, -3.1098004 ], [ 29.2511198, -3.1059908 ], [ 29.2547707, -3.1021019 ], [ 29.2521002, -3.0998621 ], [ 29.2473896, -3.0959114 ], [ 29.2540564, -3.0955145 ], [ 29.2556437, -3.0896415 ], [ 29.2555643, -3.0834509 ], [ 29.2499293, -3.0618634 ], [ 29.252469, -3.0563078 ], [ 29.25485, -3.052895 ], [ 29.2522309, -3.0491648 ], [ 29.2401673, -3.0406727 ], [ 29.2419927, -3.0363869 ], [ 29.234453, -3.0351171 ], [ 29.2323101, -3.0317043 ], [ 29.2363578, -3.0294027 ], [ 29.2087384, -3.0219423 ], [ 29.205006, -3.0230518 ], [ 29.1968335, -3.0167042 ], [ 29.1938176, -3.0083708 ], [ 29.1779445, -2.9914658 ], [ 29.1707222, -2.996704 ], [ 29.1665951, -2.9927357 ], [ 29.1724682, -2.9828943 ], [ 29.1667539, -2.9714656 ], [ 29.1667539, -2.9653545 ], [ 29.1292138, -2.9295604 ], [ 29.1008802, -2.9229731 ], [ 29.0963563, -2.9173381 ], [ 29.090642, -2.9039252 ], [ 29.0949277, -2.8820996 ], [ 29.0914356, -2.8714646 ], [ 29.0770704, -2.8659883 ], [ 29.0704037, -2.8641629 ], [ 29.068737, -2.8604327 ], [ 29.0697687, -2.8552739 ], [ 29.0621496, -2.8391627 ], [ 29.0577845, -2.8313848 ], [ 29.0521495, -2.826226 ], [ 29.0373081, -2.8242419 ], [ 29.0331017, -2.8255911 ], [ 29.0023871, -2.8097179 ], [ 29.0013553, -2.7992416 ], [ 29.0015141, -2.7855907 ], [ 29.0044506, -2.78067 ], [ 29.0123872, -2.773289 ], [ 29.0191333, -2.7698762 ], [ 29.0219111, -2.7651936 ], [ 29.0247655, -2.762725 ], [ 29.0277842, -2.7601142 ], [ 29.0328636, -2.7590825 ], [ 29.033396, -2.7592624 ], [ 29.0384986, -2.7609873 ], [ 29.0406414, -2.7438442 ], [ 29.0555971, -2.7101147 ], [ 29.0478377, -2.6648472 ], [ 29.0616649, -2.6498654 ], [ 29.053288, -2.61915 ], [ 29.087091, -2.5924084 ], [ 29.1493808, -2.5914418 ], [ 29.1743236, -2.6105315 ], [ 29.2232426, -2.6292721 ], [ 29.2646976, -2.6181566 ], [ 29.2934529, -2.6405756 ], [ 29.3250006, -2.6517717 ], [ 29.3274507, -2.68736 ], [ 29.3449084, -2.7024739 ], [ 29.3524462, -2.7349646 ], [ 29.3331699, -2.7470458 ], [ 29.3566727, -2.7913624 ], [ 29.3704947, -2.8398815 ], [ 29.4377134, -2.7973633 ], [ 29.4645312, -2.8105836 ], [ 29.4833554, -2.8018632 ], [ 29.521283, -2.8299031 ], [ 29.5824058, -2.8046788 ], [ 29.6122465, -2.8110482 ], [ 29.6390681, -2.7886871 ], [ 29.6613123, -2.7878301 ], [ 29.7237596, -2.8181188 ], [ 29.7625488, -2.7948743 ], [ 29.7696194, -2.7658953 ], [ 29.8074739, -2.7599834 ], [ 29.8331906, -2.7745968 ], [ 29.8780101, -2.7601866 ], [ 29.9183655, -2.7024452 ], [ 29.9287931, -2.6574463 ], [ 29.9316998, -2.5891758 ], [ 29.9207816, -2.557602 ], [ 29.9430998, -2.5008059 ], [ 29.9677506, -2.4849939 ], [ 29.9619702, -2.4143751 ], [ 29.9442008, -2.3638808 ], [ 29.9587719, -2.3272523 ], [ 30.0434724, -2.3579892 ], [ 30.0614749, -2.3906537 ], [ 30.0977348, -2.4234968 ], [ 30.1389671, -2.4372154 ], [ 30.1824689, -2.4291831 ], [ 30.2316315, -2.3508494 ], [ 30.2564584, -2.3734314 ], [ 30.2947388, -2.373509 ], [ 30.3723866, -2.3554947 ], [ 30.3804826, -2.3255858 ], [ 30.4090801, -2.3098621 ], [ 30.4586752, -2.3443559 ], [ 30.469387, -2.3626675 ], [ 30.5432535, -2.4132367 ] ] ] ] } }
]
}
