{
"type": "FeatureCollection",
"name": "BEL_GAUL1991_ADM0",
"crs": { "type": "name", "properties": { "name": "urn:ogc:def:crs:OGC:1.3:CRS84" } },
"features": [
{ "type": "Feature", "properties": { "POLYGON_ID": "BEL_GAUL1991_ADM0_27", "ADM0_ISO3": "BEL", "ADM0_NAME": "Belgium", "ADM0_CODE": 27, "GEOSET": "GAUL", "GEOSET_YEAR": 1991.0, "GEOSET_VERSION": "GAUL_v1", "GEOSET_UNIT": "ADM0", "CENTROID_LONG": 4.6612414487053488, "CENTROID_LAT": 50.641773312234157 }, "geometry": { "type": "MultiPolygon", "coordinates": [ [ [ [ 6.02534, 50.75424 ], [ 6.05751, 50.72521 ], [ 6.11258, 50.72306 ], [ 6.16404, 50.67307 ], [ 6.17204, 50.64316 ], [ 6.27286, 50.61971 ], [ 6.17867, 50.55861 ], [ 6.2279, 50.49647 ], [ 6.28437, 50.50271 ], [ 6.34788, 50.4883697 ], [ 6.34531, 50.4623 ], [ 6.37691, 50.45009 ], [ 6.36912, 50.40913 ], [ 6.34265, 50.38021 ], [ 6.39941, 50.34478 ], [ 6.40387, 50.32674 ], [ 6.3605199, 50.3123901 ], [ 6.3333, 50.3237 ], [ 6.29995, 50.31006 ], [ 6.2780098, 50.2688 ], [ 6.21192, 50.25747 ], [ 6.16825, 50.22567 ], [ 6.19094, 50.18169 ], [ 6.15077, 50.18168 ], [ 6.15735, 50.14582 ], [ 6.13802, 50.1329 ], [ 6.1225687, 50.1666387 ], [ 6.08299, 50.17461 ], [ 6.06267, 50.15778 ], [ 6.02025, 50.18468 ], [ 5.96264, 50.17207 ], [ 5.9583, 50.13461 ], [ 5.90462, 50.12 ], [ 5.89081, 50.08399 ], [ 5.85954, 50.06978 ], [ 5.86923, 50.04769 ], [ 5.82109, 50.01297 ], [ 5.83386, 49.97971 ], [ 5.78014, 49.9607 ], [ 5.7627488, 49.9177894 ], [ 5.77229, 49.88724 ], [ 5.74789, 49.84403 ], [ 5.7539699, 49.7956318 ], [ 5.78875, 49.801 ], [ 5.82983, 49.72845 ], [ 5.8875894, 49.7106796 ], [ 5.85975, 49.67912 ], [ 5.90005, 49.66941 ], [ 5.87601, 49.60818 ], [ 5.8745667, 49.5763983 ], [ 5.8166199, 49.5466285 ], [ 5.76118, 49.56256 ], [ 5.7529, 49.54145 ], [ 5.64993, 49.55022 ], [ 5.59991, 49.51882 ], [ 5.54001, 49.51699 ], [ 5.48013, 49.50302 ], [ 5.44486, 49.55016 ], [ 5.43353, 49.594 ], [ 5.36486, 49.62412 ], [ 5.31738, 49.61438 ], [ 5.33204, 49.65212 ], [ 5.30738, 49.67376 ], [ 5.24609, 49.68709 ], [ 5.16399, 49.69553 ], [ 5.15813, 49.71873 ], [ 5.12677, 49.72988 ], [ 5.09561, 49.76108 ], [ 5.06661, 49.7619 ], [ 4.95695, 49.80402 ], [ 4.89461, 49.78867 ], [ 4.87632, 49.79546 ], [ 4.85928, 49.86504 ], [ 4.8846393, 49.903688 ], [ 4.85063, 49.94772 ], [ 4.79905, 49.95711 ], [ 4.82014, 50.00152 ], [ 4.82375, 50.05531 ], [ 4.8439, 50.09969 ], [ 4.8965172, 50.1394815 ], [ 4.81775, 50.16652 ], [ 4.76466, 50.13768 ], [ 4.75541, 50.12003 ], [ 4.70506, 50.09898 ], [ 4.68163, 50.06292 ], [ 4.70212, 50.05491 ], [ 4.68064, 49.99947 ], [ 4.57592, 49.98503 ], [ 4.51045, 49.94998 ], [ 4.45671, 49.9417 ], [ 4.34858, 49.9561 ], [ 4.30763, 49.97069 ], [ 4.19476, 49.96088 ], [ 4.14632, 49.98236 ], [ 4.14256, 50.02888 ], [ 4.2311492, 50.0789408 ], [ 4.19909, 50.11119 ], [ 4.20179, 50.13391 ], [ 4.13022, 50.13475 ], [ 4.16374, 50.19838 ], [ 4.15375, 50.21368 ], [ 4.2103599, 50.2467799 ], [ 4.2176, 50.26119 ], [ 4.16847, 50.28914 ], [ 4.14195, 50.25936 ], [ 4.12026, 50.30091 ], [ 4.08527, 50.31104 ], [ 4.02081, 50.35538 ], [ 3.90731, 50.32868 ], [ 3.84986, 50.35347 ], [ 3.7438989, 50.3485989 ], [ 3.7281998, 50.3118901 ], [ 3.69488, 50.31094 ], [ 3.65969, 50.36564 ], [ 3.67498, 50.39328 ], [ 3.65959, 50.45372 ], [ 3.60292, 50.49418 ], [ 3.56317, 50.49625 ], [ 3.49694, 50.4852 ], [ 3.51696, 50.5169 ], [ 3.46936, 50.52841 ], [ 3.45173, 50.50585 ], [ 3.35444, 50.50284 ], [ 3.29298, 50.52228 ], [ 3.27288, 50.60974 ], [ 3.23946, 50.65855 ], [ 3.26808, 50.67885 ], [ 3.24251, 50.70984 ], [ 3.21469, 50.71265 ], [ 3.13994, 50.79072 ], [ 3.0882176, 50.7734499 ], [ 3.05715, 50.77823 ], [ 2.95118, 50.75062 ], [ 2.92449, 50.70497 ], [ 2.8721773, 50.7056121 ], [ 2.8467, 50.72533 ], [ 2.79544, 50.72651 ], [ 2.78376, 50.75266 ], [ 2.73563, 50.78712 ], [ 2.71751, 50.81601 ], [ 2.66896, 50.82593 ], [ 2.6358491, 50.8169326 ], [ 2.6149784, 50.85143 ], [ 2.61332, 50.90062 ], [ 2.59021, 50.91969 ], [ 2.62959, 50.9516 ], [ 2.60806, 50.99249 ], [ 2.57793, 51.00077 ], [ 2.56223, 51.06775 ], [ 2.546947, 51.0928116 ], [ 2.7033238, 51.1457253 ], [ 2.8667619, 51.2108955 ], [ 2.908972, 51.2321663 ], [ 3.0478861, 51.288063 ], [ 3.0768201, 51.3043251 ], [ 3.178196, 51.3320007 ], [ 3.369472, 51.3746109 ], [ 3.38674, 51.33909 ], [ 3.36463, 51.29887 ], [ 3.43266, 51.24867 ], [ 3.53006, 51.25071 ], [ 3.54387, 51.2898 ], [ 3.60403, 51.30357 ], [ 3.65895, 51.28348 ], [ 3.7576, 51.27247 ], [ 3.79091, 51.26237 ], [ 3.80322, 51.21457 ], [ 3.91303, 51.20975 ], [ 3.97139, 51.22157 ], [ 3.99633, 51.24084 ], [ 4.05494, 51.2468 ], [ 4.11788, 51.26965 ], [ 4.19205, 51.31517 ], [ 4.2388864, 51.3521805 ], [ 4.2488206, 51.37622 ], [ 4.33964, 51.37969 ], [ 4.38829, 51.35889 ], [ 4.432968, 51.3772486 ], [ 4.3991, 51.40623 ], [ 4.37813, 51.44446 ], [ 4.48539, 51.47761 ], [ 4.54037, 51.4824 ], [ 4.5567, 51.4275 ], [ 4.57747, 51.43353 ], [ 4.64752, 51.42315 ], [ 4.68587, 51.42754 ], [ 4.76137, 51.50019 ], [ 4.81674, 51.49555 ], [ 4.83415, 51.48007 ], [ 4.81544, 51.44777 ], [ 4.82978, 51.42371 ], [ 4.89104, 51.41549 ], [ 4.92944, 51.39631 ], [ 5.01399, 51.44835 ], [ 5.01498, 51.47104 ], [ 5.07991, 51.46885 ], [ 5.09593, 51.42497 ], [ 5.07653, 51.39228 ], [ 5.12923, 51.35262 ], [ 5.13837, 51.31714 ], [ 5.20733, 51.32182 ], [ 5.2428173, 51.3057412 ], [ 5.22476, 51.27026 ], [ 5.34051, 51.26421 ], [ 5.35038, 51.2773 ], [ 5.41849, 51.26728 ], [ 5.48516, 51.30214 ], [ 5.5572199, 51.2679978 ], [ 5.55906, 51.22794 ], [ 5.60471, 51.19892 ], [ 5.71137, 51.1838 ], [ 5.74951, 51.18998 ], [ 5.79426, 51.17695 ], [ 5.81839, 51.12906 ], [ 5.80574, 51.08273 ], [ 5.761, 51.03897 ], [ 5.76064, 50.99276 ], [ 5.73656, 50.98 ], [ 5.75702, 50.95518 ], [ 5.72155, 50.91246 ], [ 5.6465, 50.87315 ], [ 5.65202, 50.83855 ], [ 5.69761, 50.8054 ], [ 5.69163, 50.75709 ], [ 5.72827, 50.7602 ], [ 5.7662, 50.78457 ], [ 5.81688, 50.75759 ], [ 5.88498, 50.77099 ], [ 5.89542, 50.75393 ], [ 5.95929, 50.76381 ], [ 6.02534, 50.75424 ] ] ] ] } }
]
}
