{
"type": "FeatureCollection",
"name": "BEL_GAUL2004_ADM2",
"crs": { "type": "name", "properties": { "name": "urn:ogc:def:crs:OGC:1.3:CRS84" } },
"features": [
{ "type": "Feature", "properties": { "POLYGON_ID": "BEL_GAUL2004_ADM2_5844", "ADM0_ISO3": "BEL", "ADM0_NAME": "Belgium", "ADM0_CODE": 27, "ADM1_NAME": "Region de Bruxelles-Capitale \/ Brussels Hoofdstedelijk Gewes", "ADM1_CODE": 600, "ADM2_NAME": "Area without administration at 2nd level", "ADM2_CODE": 5844, "GEOSET": "GAUL", "GEOSET_YEAR": 2004.0, "GEOSET_VERSION": "GAUL_v1", "GEOSET_UNIT": "ADM2", "CENTROID_LONG": 4.3771275337724704, "CENTROID_LAT": 50.834909482684125 }, "geometry": { "type": "MultiPolygon", "coordinates": [ [ [ [ 4.425173, 50.900336 ], [ 4.4804534, 50.7960515 ], [ 4.397221, 50.769173 ], [ 4.324685, 50.778791 ], [ 4.283191, 50.839321 ], [ 4.297109, 50.890196 ], [ 4.425173, 50.900336 ] ] ] ] } },
{ "type": "Feature", "properties": { "POLYGON_ID": "BEL_GAUL2004_ADM2_5846", "ADM0_ISO3": "BEL", "ADM0_NAME": "Belgium", "ADM0_CODE": 27, "ADM1_NAME": "Vlaams Gewest", "ADM1_CODE": 601, "ADM2_NAME": "Oost-Vlaanderen", "ADM2_CODE": 5846, "GEOSET": "GAUL", "GEOSET_YEAR": 2004.0, "GEOSET_VERSION": "GAUL_v1", "GEOSET_UNIT": "ADM2", "CENTROID_LONG": 3.776230554217606, "CENTROID_LAT": 51.032953328070036 }, "geometry": { "type": "MultiPolygon", "coordinates": [ [ [ [ 3.3679997, 51.3037338 ], [ 3.3668658, 51.3030823 ], [ 3.45982, 51.24467 ], [ 3.4778008, 51.2454381 ], [ 3.60403, 51.30357 ], [ 3.6800623, 51.2820942 ], [ 3.69201, 51.28131 ], [ 3.79091, 51.26237 ], [ 3.7929039, 51.2188712 ], [ 3.80322, 51.21457 ], [ 3.8456616, 51.2119806 ], [ 3.86403, 51.21397 ], [ 3.8693379, 51.2187316 ], [ 3.87901, 51.22743 ], [ 3.88528, 51.22794 ], [ 3.91303, 51.20975 ], [ 3.92325, 51.22085 ], [ 3.97139, 51.22157 ], [ 3.98746, 51.23144 ], [ 4.05494, 51.2468 ], [ 4.08101, 51.25866 ], [ 4.11788, 51.26965 ], [ 4.1677607, 51.300263 ], [ 4.159814, 51.210409 ], [ 4.318308, 51.129477 ], [ 4.219436, 51.122351 ], [ 4.17125, 51.089385 ], [ 4.240799, 51.036492 ], [ 4.226357, 50.994213 ], [ 4.093434, 50.931775 ], [ 4.052186, 50.841712 ], [ 4.054195, 50.785309 ], [ 3.930694, 50.761266 ], [ 3.892412, 50.73363 ], [ 3.678712, 50.770822 ], [ 3.643892, 50.737336 ], [ 3.563618, 50.729263 ], [ 3.5378583, 50.764135 ], [ 3.460264, 50.766441 ], [ 3.508882, 50.81482 ], [ 3.475779, 50.89421 ], [ 3.433803, 50.916545 ], [ 3.453683, 51.003747 ], [ 3.420818, 51.060323 ], [ 3.331521, 51.098834 ], [ 3.405282, 51.144697 ], [ 3.379323, 51.190748 ], [ 3.249705, 51.248381 ], [ 3.28134, 51.300081 ], [ 3.33418, 51.30207 ], [ 3.34971, 51.299929 ], [ 3.357907, 51.30376 ], [ 3.363041, 51.302263 ], [ 3.3679922, 51.3037316 ], [ 3.3679997, 51.3037338 ] ] ] ] } },
{ "type": "Feature", "properties": { "POLYGON_ID": "BEL_GAUL2004_ADM2_5847", "ADM0_ISO3": "BEL", "ADM0_NAME": "Belgium", "ADM0_CODE": 27, "ADM1_NAME": "Vlaams Gewest", "ADM1_CODE": 601, "ADM2_NAME": "Vlaams-Brabant", "ADM2_CODE": 5847, "GEOSET": "GAUL", "GEOSET_YEAR": 2004.0, "GEOSET_VERSION": "GAUL_v1", "GEOSET_UNIT": "ADM2", "CENTROID_LONG": 4.5775208497889492, "CENTROID_LAT": 50.871643363619903 }, "geometry": { "type": "MultiPolygon", "coordinates": [ [ [ [ 5.104051, 50.709765 ], [ 5.016987, 50.751957 ], [ 4.946684, 50.750649 ], [ 4.809376, 50.777787 ], [ 4.745584, 50.807484 ], [ 4.634694, 50.773893 ], [ 4.632958, 50.742654 ], [ 4.459896, 50.754938 ], [ 4.338768, 50.733381 ], [ 4.246239, 50.688703 ], [ 4.141791, 50.728012 ], [ 4.1024302, 50.7095559 ], [ 3.994291, 50.691105 ], [ 3.914427, 50.693774 ], [ 3.892412, 50.73363 ], [ 3.930694, 50.761266 ], [ 4.054195, 50.785309 ], [ 4.052186, 50.841712 ], [ 4.093434, 50.931775 ], [ 4.226357, 50.994213 ], [ 4.240799, 51.036492 ], [ 4.300814, 51.038641 ], [ 4.394865, 50.995487 ], [ 4.537173, 50.999731 ], [ 4.787864, 51.037415 ], [ 4.84308, 51.011814 ], [ 4.98173, 51.037481 ], [ 5.065523, 51.017137 ], [ 5.055684, 50.919498 ], [ 5.171151, 50.913748 ], [ 5.173172, 50.875502 ], [ 5.106158, 50.780884 ], [ 5.104051, 50.709765 ] ], [ [ 4.425173, 50.900336 ], [ 4.297109, 50.890196 ], [ 4.283191, 50.839321 ], [ 4.324685, 50.778791 ], [ 4.397221, 50.769173 ], [ 4.4804534, 50.7960515 ], [ 4.425173, 50.900336 ] ] ] ] } },
{ "type": "Feature", "properties": { "POLYGON_ID": "BEL_GAUL2004_ADM2_5848", "ADM0_ISO3": "BEL", "ADM0_NAME": "Belgium", "ADM0_CODE": 27, "ADM1_NAME": "Vlaams Gewest", "ADM1_CODE": 601, "ADM2_NAME": "Limburg", "ADM2_CODE": 5848, "GEOSET": "GAUL", "GEOSET_YEAR": 2004.0, "GEOSET_VERSION": "GAUL_v1", "GEOSET_UNIT": "ADM2", "CENTROID_LONG": 5.4158164028276587, "CENTROID_LAT": 50.996965558443257 }, "geometry": { "type": "MultiPolygon", "coordinates": [ [ [ [ 5.55906, 51.22794 ], [ 5.5697305, 51.2240734 ], [ 5.5740895, 51.2224938 ], [ 5.60471, 51.19892 ], [ 5.74951, 51.18998 ], [ 5.80607, 51.15926 ], [ 5.81401, 51.12035 ], [ 5.8141362, 51.1149518 ], [ 5.78323, 51.06614 ], [ 5.77564, 51.06414 ], [ 5.7749784, 51.0294844 ], [ 5.76795, 51.00535 ], [ 5.73021, 50.93084 ], [ 5.72155, 50.91246 ], [ 5.6465, 50.87315 ], [ 5.65202, 50.83855 ], [ 5.6622016, 50.8332891 ], [ 5.6793923, 50.8220914 ], [ 5.6847766, 50.817607 ], [ 5.684848, 50.805479 ], [ 5.67727, 50.808447 ], [ 5.650817, 50.804063 ], [ 5.642111, 50.789608 ], [ 5.608732, 50.777119 ], [ 5.521096, 50.757073 ], [ 5.522824, 50.741142 ], [ 5.418168, 50.720858 ], [ 5.351727, 50.745219 ], [ 5.308453, 50.725769 ], [ 5.104051, 50.709765 ], [ 5.106158, 50.780884 ], [ 5.173172, 50.875502 ], [ 5.171151, 50.913748 ], [ 5.055684, 50.919498 ], [ 5.065523, 51.017137 ], [ 4.98173, 51.037481 ], [ 5.010754, 51.073829 ], [ 5.095199, 51.086312 ], [ 5.143152, 51.116078 ], [ 5.26021, 51.14885 ], [ 5.212355, 51.213453 ], [ 5.2385786, 51.2615125 ], [ 5.2406708, 51.2609857 ], [ 5.41849, 51.26728 ], [ 5.48516, 51.30214 ], [ 5.5572199, 51.2679978 ], [ 5.55906, 51.22794 ] ] ] ] } },
{ "type": "Feature", "properties": { "POLYGON_ID": "BEL_GAUL2004_ADM2_5849", "ADM0_ISO3": "BEL", "ADM0_NAME": "Belgium", "ADM0_CODE": 27, "ADM1_NAME": "Vlaams Gewest", "ADM1_CODE": 601, "ADM2_NAME": "West-Vlaanderen", "ADM2_CODE": 5849, "GEOSET": "GAUL", "GEOSET_YEAR": 2004.0, "GEOSET_VERSION": "GAUL_v1", "GEOSET_UNIT": "ADM2", "CENTROID_LONG": 3.0512370533910347, "CENTROID_LAT": 51.008056266880821 }, "geometry": { "type": "MultiPolygon", "coordinates": [ [ [ [ 3.3725249, 51.3033069 ], [ 3.36808, 51.30378 ], [ 3.3679997, 51.3037338 ], [ 3.3679922, 51.3037316 ], [ 3.363041, 51.302263 ], [ 3.357907, 51.30376 ], [ 3.34971, 51.299929 ], [ 3.33418, 51.30207 ], [ 3.28134, 51.300081 ], [ 3.249705, 51.248381 ], [ 3.379323, 51.190748 ], [ 3.405282, 51.144697 ], [ 3.331521, 51.098834 ], [ 3.420818, 51.060323 ], [ 3.453683, 51.003747 ], [ 3.433803, 50.916545 ], [ 3.475779, 50.89421 ], [ 3.508882, 50.81482 ], [ 3.460264, 50.766441 ], [ 3.355823, 50.711658 ], [ 3.307269, 50.752877 ], [ 3.226617, 50.765806 ], [ 3.197215, 50.756432 ], [ 3.188418, 50.75581 ], [ 3.182425, 50.75752 ], [ 3.1793427, 50.7540118 ], [ 3.1741132, 50.7567313 ], [ 3.1107, 50.78586 ], [ 3.0989205, 50.7793595 ], [ 3.071242, 50.854223 ], [ 2.957704, 50.796994 ], [ 2.903489, 50.752272 ], [ 2.854011, 50.756814 ], [ 2.843697, 50.735023 ], [ 2.862483, 50.722124 ], [ 2.869837, 50.711655 ], [ 2.8666356, 50.7100534 ], [ 2.8647764, 50.7115434 ], [ 2.79544, 50.72651 ], [ 2.72139, 50.81417 ], [ 2.71751, 50.81601 ], [ 2.6358491, 50.8169326 ], [ 2.6078967, 50.9075323 ], [ 2.60577, 50.91568 ], [ 2.6093521, 50.9837959 ], [ 2.6104996, 50.9896078 ], [ 2.57442, 51.02286 ], [ 2.56223, 51.06775 ], [ 2.546947, 51.0928116 ], [ 2.8667619, 51.2108955 ], [ 3.0768201, 51.3043251 ], [ 3.369472, 51.3746109 ], [ 3.3725249, 51.3033069 ] ] ] ] } },
{ "type": "Feature", "properties": { "POLYGON_ID": "BEL_GAUL2004_ADM2_40442", "ADM0_ISO3": "BEL", "ADM0_NAME": "Belgium", "ADM0_CODE": 27, "ADM1_NAME": "Vlaams Gewest", "ADM1_CODE": 601, "ADM2_NAME": "Antwerpen", "ADM2_CODE": 40442, "GEOSET": "GAUL", "GEOSET_YEAR": 2004.0, "GEOSET_VERSION": "GAUL_v1", "GEOSET_UNIT": "ADM2", "CENTROID_LONG": 4.6895817684385248, "CENTROID_LAT": 51.228834567374271 }, "geometry": { "type": "MultiPolygon", "coordinates": [ [ [ [ 4.8516, 51.41398 ], [ 4.8672, 51.41264 ], [ 4.89853, 51.41387 ], [ 4.9005196, 51.413448 ], [ 4.92944, 51.39631 ], [ 5.0533298, 51.4688301 ], [ 5.0565157, 51.4688324 ], [ 5.09593, 51.42497 ], [ 5.07653, 51.39228 ], [ 5.13837, 51.31714 ], [ 5.2428173, 51.3057412 ], [ 5.23538, 51.26232 ], [ 5.2385786, 51.2615125 ], [ 5.212355, 51.213453 ], [ 5.26021, 51.14885 ], [ 5.143152, 51.116078 ], [ 5.095199, 51.086312 ], [ 5.010754, 51.073829 ], [ 4.98173, 51.037481 ], [ 4.84308, 51.011814 ], [ 4.787864, 51.037415 ], [ 4.537173, 50.999731 ], [ 4.394865, 50.995487 ], [ 4.300814, 51.038641 ], [ 4.240799, 51.036492 ], [ 4.17125, 51.089385 ], [ 4.219436, 51.122351 ], [ 4.318308, 51.129477 ], [ 4.159814, 51.210409 ], [ 4.1677607, 51.300263 ], [ 4.19205, 51.31517 ], [ 4.2388864, 51.3521805 ], [ 4.2488179, 51.3762245 ], [ 4.2794894, 51.377393 ], [ 4.3779588, 51.3615675 ], [ 4.38098, 51.36153 ], [ 4.3910868, 51.3591787 ], [ 4.4159, 51.36174 ], [ 4.38659, 51.42166 ], [ 4.3850258, 51.4303618 ], [ 4.48539, 51.47761 ], [ 4.54061, 51.46081 ], [ 4.54704, 51.44076 ], [ 4.549348, 51.4375918 ], [ 4.65505, 51.42498 ], [ 4.68587, 51.42754 ], [ 4.76137, 51.50019 ], [ 4.83415, 51.48007 ], [ 4.8516, 51.41398 ] ] ], [ [ [ 4.9259036, 51.4413972 ], [ 4.9355186, 51.446329 ], [ 4.93811, 51.4447194 ], [ 4.93967, 51.43073 ], [ 4.92055, 51.43624 ], [ 4.92211, 51.44571 ], [ 4.9259036, 51.4413972 ] ] ] ] } },
{ "type": "Feature", "properties": { "POLYGON_ID": "BEL_GAUL2004_ADM2_5850", "ADM0_ISO3": "BEL", "ADM0_NAME": "Belgium", "ADM0_CODE": 27, "ADM1_NAME": "Region wallonne", "ADM1_CODE": 602, "ADM2_NAME": "Hainaut", "ADM2_CODE": 5850, "GEOSET": "GAUL", "GEOSET_YEAR": 2004.0, "GEOSET_VERSION": "GAUL_v1", "GEOSET_UNIT": "ADM2", "CENTROID_LONG": 3.9512410532035354, "CENTROID_LAT": 50.475092094771398 }, "geometry": { "type": "MultiPolygon", "coordinates": [ [ [ [ 3.892412, 50.73363 ], [ 3.914427, 50.693774 ], [ 3.994291, 50.691105 ], [ 4.1024302, 50.7095559 ], [ 4.089454, 50.652175 ], [ 4.131033, 50.631368 ], [ 4.251685, 50.616659 ], [ 4.310013, 50.567825 ], [ 4.408524, 50.567816 ], [ 4.521922, 50.529429 ], [ 4.575863, 50.54291 ], [ 4.606823, 50.386738 ], [ 4.592686, 50.339577 ], [ 4.519693, 50.314537 ], [ 4.402399, 50.311796 ], [ 4.285242, 50.251856 ], [ 4.397475, 50.23232 ], [ 4.365967, 50.158287 ], [ 4.386545, 50.112656 ], [ 4.41965, 49.992568 ], [ 4.447223, 49.95616 ], [ 4.437684, 49.948106 ], [ 4.432225, 49.945847 ], [ 4.4337443, 49.9447145 ], [ 4.4337549, 49.9447066 ], [ 4.40208, 49.95019 ], [ 4.3142328, 49.9692063 ], [ 4.30763, 49.97069 ], [ 4.2377692, 49.9627716 ], [ 4.14632, 49.98236 ], [ 4.14256, 50.02888 ], [ 4.20016, 50.05812 ], [ 4.22773, 50.0685 ], [ 4.2010981, 50.1238774 ], [ 4.20016, 50.1274 ], [ 4.13022, 50.13475 ], [ 4.15658, 50.21698 ], [ 4.17162, 50.21864 ], [ 4.20611, 50.27346 ], [ 4.19958, 50.27565 ], [ 4.04498, 50.34111 ], [ 4.0425981, 50.3425142 ], [ 3.90731, 50.32868 ], [ 3.86999, 50.33976 ], [ 3.8581903, 50.3477964 ], [ 3.84986, 50.35347 ], [ 3.8247292, 50.350838 ], [ 3.7438989, 50.3485989 ], [ 3.6696566, 50.3856352 ], [ 3.6749778, 50.3932768 ], [ 3.66899, 50.42096 ], [ 3.66932, 50.43068 ], [ 3.65959, 50.45372 ], [ 3.6546929, 50.4575145 ], [ 3.62848, 50.47743 ], [ 3.60914, 50.49241 ], [ 3.49694, 50.4852 ], [ 3.51054, 50.52124 ], [ 3.49287, 50.52654 ], [ 3.4819371, 50.5274096 ], [ 3.37473, 50.48987 ], [ 3.33691, 50.50617 ], [ 3.316156, 50.5137809 ], [ 3.2774116, 50.5551544 ], [ 3.27609, 50.55607 ], [ 3.2790529, 50.5778539 ], [ 3.27481, 50.58518 ], [ 3.24323, 50.64961 ], [ 3.23946, 50.65855 ], [ 3.24251, 50.70984 ], [ 3.2387298, 50.7106889 ], [ 3.1797458, 50.7538022 ], [ 3.1793427, 50.7540118 ], [ 3.182425, 50.75752 ], [ 3.188418, 50.75581 ], [ 3.197215, 50.756432 ], [ 3.226617, 50.765806 ], [ 3.307269, 50.752877 ], [ 3.355823, 50.711658 ], [ 3.460264, 50.766441 ], [ 3.5378583, 50.764135 ], [ 3.563618, 50.729263 ], [ 3.643892, 50.737336 ], [ 3.678712, 50.770822 ], [ 3.892412, 50.73363 ] ] ], [ [ [ 3.0989205, 50.7793595 ], [ 3.0882176, 50.7734499 ], [ 2.95118, 50.75062 ], [ 2.8683285, 50.7086967 ], [ 2.8666356, 50.7100534 ], [ 2.869837, 50.711655 ], [ 2.862483, 50.722124 ], [ 2.843697, 50.735023 ], [ 2.854011, 50.756814 ], [ 2.903489, 50.752272 ], [ 2.957704, 50.796994 ], [ 3.071242, 50.854223 ], [ 3.0989205, 50.7793595 ] ] ] ] } },
{ "type": "Feature", "properties": { "POLYGON_ID": "BEL_GAUL2004_ADM2_5851", "ADM0_ISO3": "BEL", "ADM0_NAME": "Belgium", "ADM0_CODE": 27, "ADM1_NAME": "Region wallonne", "ADM1_CODE": 602, "ADM2_NAME": "Liege", "ADM2_CODE": 5851, "GEOSET": "GAUL", "GEOSET_YEAR": 2004.0, "GEOSET_VERSION": "GAUL_v1", "GEOSET_UNIT": "ADM2", "CENTROID_LONG": 5.7338801699801882, "CENTROID_LAT": 50.528702474181237 }, "geometry": { "type": "MultiPolygon", "coordinates": [ [ [ [ 6.0035544, 50.755622 ], [ 6.0253384, 50.7542448 ], [ 6.05751, 50.72521 ], [ 6.0607157, 50.7253464 ], [ 6.11258, 50.72306 ], [ 6.21816, 50.63131 ], [ 6.23797, 50.62593 ], [ 6.20358, 50.57087 ], [ 6.17867, 50.55861 ], [ 6.19594, 50.52899 ], [ 6.2057702, 50.520703 ], [ 6.27114, 50.50196 ], [ 6.28437, 50.50271 ], [ 6.34788, 50.48837 ], [ 6.37691, 50.45009 ], [ 6.34265, 50.38021 ], [ 6.4014, 50.32353 ], [ 6.3095, 50.31604 ], [ 6.30423, 50.31274 ], [ 6.29568, 50.28032 ], [ 6.1794387, 50.2392279 ], [ 6.17596, 50.23349 ], [ 6.13802, 50.1329 ], [ 6.1225687, 50.1666387 ], [ 6.02558, 50.18495 ], [ 6.0213819, 50.1847412 ], [ 6.00881, 50.316279 ], [ 5.861295, 50.3481 ], [ 5.834144, 50.265923 ], [ 5.722029, 50.262836 ], [ 5.717491, 50.352147 ], [ 5.591313, 50.400099 ], [ 5.496363, 50.420555 ], [ 5.390402, 50.381732 ], [ 5.294511, 50.369022 ], [ 5.195906, 50.480601 ], [ 5.163565, 50.46984 ], [ 5.052896, 50.542539 ], [ 4.982833, 50.642528 ], [ 5.016987, 50.751957 ], [ 5.104051, 50.709765 ], [ 5.308453, 50.725769 ], [ 5.351727, 50.745219 ], [ 5.418168, 50.720858 ], [ 5.522824, 50.741142 ], [ 5.521096, 50.757073 ], [ 5.608732, 50.777119 ], [ 5.642111, 50.789608 ], [ 5.650817, 50.804063 ], [ 5.67727, 50.808447 ], [ 5.684848, 50.805479 ], [ 5.6847766, 50.817607 ], [ 5.6902, 50.81309 ], [ 5.81688, 50.75759 ], [ 5.88498, 50.77099 ], [ 6.0035544, 50.755622 ] ] ] ] } },
{ "type": "Feature", "properties": { "POLYGON_ID": "BEL_GAUL2004_ADM2_5852", "ADM0_ISO3": "BEL", "ADM0_NAME": "Belgium", "ADM0_CODE": 27, "ADM1_NAME": "Region wallonne", "ADM1_CODE": 602, "ADM2_NAME": "Luxembourg", "ADM2_CODE": 5852, "GEOSET": "GAUL", "GEOSET_YEAR": 2004.0, "GEOSET_VERSION": "GAUL_v1", "GEOSET_UNIT": "ADM2", "CENTROID_LONG": 5.51483915345987, "CENTROID_LAT": 49.963379475561943 }, "geometry": { "type": "MultiPolygon", "coordinates": [ [ [ [ 6.0213819, 50.1847412 ], [ 6.02025, 50.18468 ], [ 5.89732, 50.1124 ], [ 5.8971715, 50.1111522 ], [ 5.8688101, 50.0511091 ], [ 5.86923, 50.04769 ], [ 5.85774, 50.03822 ], [ 5.83386, 49.97971 ], [ 5.78014, 49.9607 ], [ 5.74879, 49.91011 ], [ 5.73455, 49.89968 ], [ 5.785285, 49.8750285 ], [ 5.7852894, 49.875021 ], [ 5.75091, 49.85046 ], [ 5.74789, 49.84403 ], [ 5.7621049, 49.7967232 ], [ 5.77049, 49.79785 ], [ 5.82007, 49.75602 ], [ 5.8302029, 49.7500465 ], [ 5.8875894, 49.7106796 ], [ 5.887583, 49.7106758 ], [ 5.88558, 49.62985 ], [ 5.8761, 49.62053 ], [ 5.85235, 49.59769 ], [ 5.85535, 49.5888 ], [ 5.8745667, 49.5763983 ], [ 5.8166199, 49.5466285 ], [ 5.74452, 49.53999 ], [ 5.73817, 49.54153 ], [ 5.73528, 49.54516 ], [ 5.7314357, 49.5455091 ], [ 5.64993, 49.55022 ], [ 5.63569, 49.54481 ], [ 5.5340767, 49.5152399 ], [ 5.52472, 49.51248 ], [ 5.4785177, 49.4969023 ], [ 5.44133, 49.56758 ], [ 5.43173, 49.58815 ], [ 5.3938821, 49.6169418 ], [ 5.38021, 49.62177 ], [ 5.3722749, 49.6240805 ], [ 5.30738, 49.67376 ], [ 5.16399, 49.69553 ], [ 5.15813, 49.71873 ], [ 5.1545713, 49.7186764 ], [ 5.09561, 49.76108 ], [ 4.96508, 49.80093 ], [ 4.9577501, 49.8037159 ], [ 5.0, 49.858656 ], [ 5.058296, 49.885272 ], [ 5.101859, 49.958497 ], [ 5.021631, 49.978854 ], [ 4.990118, 50.029525 ], [ 5.073512, 50.094706 ], [ 5.20098, 50.09893 ], [ 5.281989, 50.149474 ], [ 5.23276, 50.224124 ], [ 5.393665, 50.290662 ], [ 5.390402, 50.381732 ], [ 5.496363, 50.420555 ], [ 5.591313, 50.400099 ], [ 5.717491, 50.352147 ], [ 5.722029, 50.262836 ], [ 5.834144, 50.265923 ], [ 5.861295, 50.3481 ], [ 6.00881, 50.316279 ], [ 6.0213819, 50.1847412 ] ] ] ] } },
{ "type": "Feature", "properties": { "POLYGON_ID": "BEL_GAUL2004_ADM2_5853", "ADM0_ISO3": "BEL", "ADM0_NAME": "Belgium", "ADM0_CODE": 27, "ADM1_NAME": "Region wallonne", "ADM1_CODE": 602, "ADM2_NAME": "Namur", "ADM2_CODE": 5853, "GEOSET": "GAUL", "GEOSET_YEAR": 2004.0, "GEOSET_VERSION": "GAUL_v1", "GEOSET_UNIT": "ADM2", "CENTROID_LONG": 4.8521266607817486, "CENTROID_LAT": 50.258413728179676 }, "geometry": { "type": "MultiPolygon", "coordinates": [ [ [ [ 4.982833, 50.642528 ], [ 5.052896, 50.542539 ], [ 5.163565, 50.46984 ], [ 5.195906, 50.480601 ], [ 5.294511, 50.369022 ], [ 5.390402, 50.381732 ], [ 5.393665, 50.290662 ], [ 5.23276, 50.224124 ], [ 5.281989, 50.149474 ], [ 5.20098, 50.09893 ], [ 5.073512, 50.094706 ], [ 4.990118, 50.029525 ], [ 5.021631, 49.978854 ], [ 5.101859, 49.958497 ], [ 5.058296, 49.885272 ], [ 5.0, 49.858656 ], [ 4.9577501, 49.8037159 ], [ 4.956946, 49.8040184 ], [ 4.87632, 49.79546 ], [ 4.85928, 49.86504 ], [ 4.8784433, 49.9223651 ], [ 4.8766469, 49.9261914 ], [ 4.79905, 49.95711 ], [ 4.8404, 50.04267 ], [ 4.84017, 50.04784 ], [ 4.8797415, 50.153272 ], [ 4.8777, 50.15532 ], [ 4.85863, 50.15368 ], [ 4.79924, 50.15258 ], [ 4.76466, 50.13768 ], [ 4.73276, 50.10924 ], [ 4.7170151, 50.1034081 ], [ 4.68064, 49.99947 ], [ 4.61791, 49.98849 ], [ 4.58782, 49.98787 ], [ 4.57592, 49.98503 ], [ 4.56744, 49.97385 ], [ 4.43853, 49.94388 ], [ 4.4337549, 49.9447066 ], [ 4.4337443, 49.9447145 ], [ 4.432225, 49.945847 ], [ 4.437684, 49.948106 ], [ 4.447223, 49.95616 ], [ 4.41965, 49.992568 ], [ 4.386545, 50.112656 ], [ 4.365967, 50.158287 ], [ 4.397475, 50.23232 ], [ 4.285242, 50.251856 ], [ 4.402399, 50.311796 ], [ 4.519693, 50.314537 ], [ 4.592686, 50.339577 ], [ 4.606823, 50.386738 ], [ 4.575863, 50.54291 ], [ 4.655471, 50.601968 ], [ 4.753345, 50.594624 ], [ 4.982833, 50.642528 ] ] ] ] } },
{ "type": "Feature", "properties": { "POLYGON_ID": "BEL_GAUL2004_ADM2_5854", "ADM0_ISO3": "BEL", "ADM0_NAME": "Belgium", "ADM0_CODE": 27, "ADM1_NAME": "Region wallonne", "ADM1_CODE": 602, "ADM2_NAME": "Brabant wallon", "ADM2_CODE": 5854, "GEOSET": "GAUL", "GEOSET_YEAR": 2004.0, "GEOSET_VERSION": "GAUL_v1", "GEOSET_UNIT": "ADM2", "CENTROID_LONG": 4.5756241301910912, "CENTROID_LAT": 50.670534971653979 }, "geometry": { "type": "MultiPolygon", "coordinates": [ [ [ [ 5.016987, 50.751957 ], [ 4.982833, 50.642528 ], [ 4.753345, 50.594624 ], [ 4.655471, 50.601968 ], [ 4.575863, 50.54291 ], [ 4.521922, 50.529429 ], [ 4.408524, 50.567816 ], [ 4.310013, 50.567825 ], [ 4.251685, 50.616659 ], [ 4.131033, 50.631368 ], [ 4.089454, 50.652175 ], [ 4.1024302, 50.7095559 ], [ 4.141791, 50.728012 ], [ 4.246239, 50.688703 ], [ 4.338768, 50.733381 ], [ 4.459896, 50.754938 ], [ 4.632958, 50.742654 ], [ 4.634694, 50.773893 ], [ 4.745584, 50.807484 ], [ 4.809376, 50.777787 ], [ 4.946684, 50.750649 ], [ 5.016987, 50.751957 ] ] ] ] } }
]
}
