{
"type": "FeatureCollection",
"name": "BEN_GAUL1997_ADM2",
"crs": { "type": "name", "properties": { "name": "urn:ogc:def:crs:OGC:1.3:CRS84" } },
"features": [
{ "type": "Feature", "properties": { "POLYGON_ID": "BEN_GAUL1997_ADM2_5861", "ADM0_ISO3": "BEN", "ADM0_NAME": "Benin", "ADM0_CODE": 29, "ADM1_NAME": "Borgou", "ADM1_CODE": 112865, "ADM2_NAME": "Banikoara", "ADM2_CODE": 5861, "GEOSET": "GAUL", "GEOSET_YEAR": 1997.0, "GEOSET_VERSION": "GAUL_v1", "GEOSET_UNIT": "ADM2", "CENTROID_LONG": 2.4040173870020625, "CENTROID_LAT": 11.34412173408426 }, "geometry": { "type": "MultiPolygon", "coordinates": [ [ [ [ 2.841846, 11.4305944 ], [ 2.8847129, 11.3817844 ], [ 2.905221, 11.313796 ], [ 2.6722081, 11.2764578 ], [ 2.636729, 11.1836863 ], [ 2.6309321, 11.161747 ], [ 2.5556719, 11.1463423 ], [ 2.552912, 11.0645866 ], [ 2.5065551, 11.0604 ], [ 2.4674981, 11.0202856 ], [ 2.4078491, 11.021451 ], [ 2.3355939, 10.9492378 ], [ 2.2904921, 10.981451 ], [ 2.2032559, 11.0103922 ], [ 2.01925, 11.42771 ], [ 2.0832618, 11.4924364 ], [ 2.18544, 11.59724 ], [ 2.21878, 11.60971 ], [ 2.30959, 11.68081 ], [ 2.341255, 11.6574354 ], [ 2.3837459, 11.6837559 ], [ 2.42524, 11.6639366 ], [ 2.4973209, 11.6759014 ], [ 2.574343, 11.6105375 ], [ 2.636447, 11.5866661 ], [ 2.633409, 11.5180178 ], [ 2.724524, 11.4678059 ], [ 2.772599, 11.4156351 ], [ 2.841846, 11.4305944 ] ] ] ] } },
{ "type": "Feature", "properties": { "POLYGON_ID": "BEN_GAUL1997_ADM2_5862", "ADM0_ISO3": "BEN", "ADM0_NAME": "Benin", "ADM0_CODE": 29, "ADM1_NAME": "Borgou", "ADM1_CODE": 112865, "ADM2_NAME": "Gogounou", "ADM2_CODE": 5862, "GEOSET": "GAUL", "GEOSET_YEAR": 1997.0, "GEOSET_VERSION": "GAUL_v1", "GEOSET_UNIT": "ADM2", "CENTROID_LONG": 2.6993914391764888, "CENTROID_LAT": 10.769488975755648 }, "geometry": { "type": "MultiPolygon", "coordinates": [ [ [ [ 3.1936209, 10.9046497 ], [ 3.1813309, 10.8133802 ], [ 3.197361, 10.7889042 ], [ 3.2096, 10.695899 ], [ 3.16501, 10.6262999 ], [ 3.1524129, 10.5718746 ], [ 3.1063294, 10.5378656 ], [ 3.103864, 10.5378141 ], [ 2.8564329, 10.535655 ], [ 2.8132291, 10.5815878 ], [ 2.701726, 10.5637302 ], [ 2.6882329, 10.5299797 ], [ 2.5450101, 10.5299702 ], [ 2.4842539, 10.5615683 ], [ 2.4179189, 10.5647449 ], [ 2.4184561, 10.5317068 ], [ 2.241478, 10.5284929 ], [ 2.240351, 10.5444708 ], [ 2.2406859, 10.8619614 ], [ 2.2571771, 10.8931751 ], [ 2.3355939, 10.9492378 ], [ 2.4078491, 11.021451 ], [ 2.4674981, 11.0202856 ], [ 2.5065551, 11.0604 ], [ 2.552912, 11.0645866 ], [ 2.5556719, 11.1463423 ], [ 2.6309321, 11.161747 ], [ 2.636729, 11.1836863 ], [ 2.6359429, 11.1387711 ], [ 2.6147449, 11.1227636 ], [ 2.6526539, 11.0552206 ], [ 2.6827481, 10.9605961 ], [ 2.7367311, 10.9058743 ], [ 2.819792, 10.9364767 ], [ 2.8559251, 10.9897776 ], [ 2.9932261, 10.9926968 ], [ 2.9935651, 10.9544477 ], [ 3.1936209, 10.9046497 ] ] ] ] } },
{ "type": "Feature", "properties": { "POLYGON_ID": "BEN_GAUL1997_ADM2_5863", "ADM0_ISO3": "BEN", "ADM0_NAME": "Benin", "ADM0_CODE": 29, "ADM1_NAME": "Borgou", "ADM1_CODE": 112865, "ADM2_NAME": "Kandi", "ADM2_CODE": 5863, "GEOSET": "GAUL", "GEOSET_YEAR": 1997.0, "GEOSET_VERSION": "GAUL_v1", "GEOSET_UNIT": "ADM2", "CENTROID_LONG": 2.9667798614505272, "CENTROID_LAT": 11.210511565222561 }, "geometry": { "type": "MultiPolygon", "coordinates": [ [ [ [ 3.258462, 11.2988214 ], [ 3.2582879, 11.2072105 ], [ 3.2342539, 11.1747427 ], [ 3.2255211, 11.0381699 ], [ 3.24507, 10.9983873 ], [ 3.232542, 10.9198093 ], [ 3.1936209, 10.9046497 ], [ 2.9935651, 10.9544477 ], [ 2.9932261, 10.9926968 ], [ 2.8559251, 10.9897776 ], [ 2.819792, 10.9364767 ], [ 2.7367311, 10.9058743 ], [ 2.6827481, 10.9605961 ], [ 2.6526539, 11.0552206 ], [ 2.6147449, 11.1227636 ], [ 2.6359429, 11.1387711 ], [ 2.636729, 11.1836863 ], [ 2.6722081, 11.2764578 ], [ 2.905221, 11.313796 ], [ 2.8847129, 11.3817844 ], [ 2.841846, 11.4305944 ], [ 2.8763421, 11.4733086 ], [ 2.8558331, 11.5611639 ], [ 2.866091, 11.6285114 ], [ 2.9150801, 11.6526327 ], [ 2.9609301, 11.6197672 ], [ 3.1143169, 11.4788933 ], [ 3.1965539, 11.3620253 ], [ 3.258462, 11.2988214 ] ] ] ] } },
{ "type": "Feature", "properties": { "POLYGON_ID": "BEN_GAUL1997_ADM2_5864", "ADM0_ISO3": "BEN", "ADM0_NAME": "Benin", "ADM0_CODE": 29, "ADM1_NAME": "Borgou", "ADM1_CODE": 112865, "ADM2_NAME": "Karimama", "ADM2_CODE": 5864, "GEOSET": "GAUL", "GEOSET_YEAR": 1997.0, "GEOSET_VERSION": "GAUL_v1", "GEOSET_UNIT": "ADM2", "CENTROID_LONG": 2.7498171245798306, "CENTROID_LAT": 11.947954103388605 }, "geometry": { "type": "MultiPolygon", "coordinates": [ [ [ [ 3.3036511, 11.9159629 ], [ 3.260016, 11.8994551 ], [ 3.1244349, 11.9410143 ], [ 3.0740981, 11.9789352 ], [ 3.0257721, 11.959156 ], [ 3.0205009, 11.8561907 ], [ 2.9926851, 11.7635441 ], [ 2.9150801, 11.6526327 ], [ 2.866091, 11.6285114 ], [ 2.8558331, 11.5611639 ], [ 2.8763421, 11.4733086 ], [ 2.841846, 11.4305944 ], [ 2.772599, 11.4156351 ], [ 2.724524, 11.4678059 ], [ 2.633409, 11.5180178 ], [ 2.636447, 11.5866661 ], [ 2.574343, 11.6105375 ], [ 2.4973209, 11.6759014 ], [ 2.42524, 11.6639366 ], [ 2.3837459, 11.6837559 ], [ 2.341255, 11.6574354 ], [ 2.30959, 11.68081 ], [ 2.29922, 11.72081 ], [ 2.34038, 11.78537 ], [ 2.3723699, 11.7931426 ], [ 2.37923, 11.85407 ], [ 2.4050759, 11.8997802 ], [ 2.4067598, 11.953027 ], [ 2.4655081, 11.9801894 ], [ 2.436203, 12.048683 ], [ 2.3914161, 12.1125458 ], [ 2.3822929, 12.1679766 ], [ 2.3998518, 12.2577333 ], [ 2.4642188, 12.2530921 ], [ 2.5803724, 12.2783137 ], [ 2.5933191, 12.2990772 ], [ 2.6650144, 12.3064055 ], [ 2.6950604, 12.2832603 ], [ 2.7342058, 12.3634442 ], [ 2.8430103, 12.4034966 ], [ 2.884444, 12.377222 ], [ 2.963056, 12.2875 ], [ 2.993582, 12.2766175 ], [ 3.082222, 12.176667 ], [ 3.1752252, 12.1069968 ], [ 3.220278, 12.060833 ], [ 3.3036511, 11.9159629 ] ] ] ] } },
{ "type": "Feature", "properties": { "POLYGON_ID": "BEN_GAUL1997_ADM2_5865", "ADM0_ISO3": "BEN", "ADM0_NAME": "Benin", "ADM0_CODE": 29, "ADM1_NAME": "Borgou", "ADM1_CODE": 112865, "ADM2_NAME": "Malanville", "ADM2_CODE": 5865, "GEOSET": "GAUL", "GEOSET_YEAR": 1997.0, "GEOSET_VERSION": "GAUL_v1", "GEOSET_UNIT": "ADM2", "CENTROID_LONG": 3.2641800902268985, "CENTROID_LAT": 11.657116001430898 }, "geometry": { "type": "MultiPolygon", "coordinates": [ [ [ [ 3.3036511, 11.9159629 ], [ 3.321389, 11.881667 ], [ 3.383611, 11.886389 ], [ 3.486667, 11.856944 ], [ 3.558611, 11.779167 ], [ 3.556389, 11.724167 ], [ 3.6050696, 11.6969703 ], [ 3.6046864, 11.696578 ], [ 3.60052, 11.69232 ], [ 3.6001319, 11.6919151 ], [ 3.60006, 11.69184 ], [ 3.5963015, 11.6841988 ], [ 3.59159, 11.67462 ], [ 3.5750186, 11.6535596 ], [ 3.55796, 11.63188 ], [ 3.47113, 11.44857 ], [ 3.5023441, 11.4032688 ], [ 3.3870709, 11.393219 ], [ 3.3480411, 11.3385048 ], [ 3.279422, 11.3317318 ], [ 3.258462, 11.2988214 ], [ 3.1965539, 11.3620253 ], [ 3.1143169, 11.4788933 ], [ 2.9609301, 11.6197672 ], [ 2.9150801, 11.6526327 ], [ 2.9926851, 11.7635441 ], [ 3.0205009, 11.8561907 ], [ 3.0257721, 11.959156 ], [ 3.0740981, 11.9789352 ], [ 3.1244349, 11.9410143 ], [ 3.260016, 11.8994551 ], [ 3.3036511, 11.9159629 ] ] ] ] } },
{ "type": "Feature", "properties": { "POLYGON_ID": "BEN_GAUL1997_ADM2_5866", "ADM0_ISO3": "BEN", "ADM0_NAME": "Benin", "ADM0_CODE": 29, "ADM1_NAME": "Borgou", "ADM1_CODE": 112865, "ADM2_NAME": "Segbana", "ADM2_CODE": 5866, "GEOSET": "GAUL", "GEOSET_YEAR": 1997.0, "GEOSET_VERSION": "GAUL_v1", "GEOSET_UNIT": "ADM2", "CENTROID_LONG": 3.468458312675657, "CENTROID_LAT": 10.935151956716975 }, "geometry": { "type": "MultiPolygon", "coordinates": [ [ [ [ 3.8491267, 10.6477527 ], [ 3.497381, 10.6122561 ], [ 3.17977, 10.5393896 ], [ 3.1063294, 10.5378656 ], [ 3.1524129, 10.5718746 ], [ 3.16501, 10.6262999 ], [ 3.2096, 10.695899 ], [ 3.197361, 10.7889042 ], [ 3.1813309, 10.8133802 ], [ 3.1936209, 10.9046497 ], [ 3.232542, 10.9198093 ], [ 3.24507, 10.9983873 ], [ 3.2255211, 11.0381699 ], [ 3.2342539, 11.1747427 ], [ 3.2582879, 11.2072105 ], [ 3.258462, 11.2988214 ], [ 3.279422, 11.3317318 ], [ 3.3480411, 11.3385048 ], [ 3.3870709, 11.393219 ], [ 3.5023441, 11.4032688 ], [ 3.6919271, 11.1281443 ], [ 3.70846, 11.12807 ], [ 3.7138896, 11.1279147 ], [ 3.7209044, 11.1263174 ], [ 3.72591, 11.12409 ], [ 3.7272805, 11.1186081 ], [ 3.72402, 11.05742 ], [ 3.72117, 11.04295 ], [ 3.71718, 11.03469 ], [ 3.716992, 11.027741 ], [ 3.7169, 11.02434 ], [ 3.71899, 11.02318 ], [ 3.73016, 11.02153 ], [ 3.7362, 11.01898 ], [ 3.7413653, 11.0162099 ], [ 3.7666019, 10.9598556 ], [ 3.76758, 10.95079 ], [ 3.77118, 10.91904 ], [ 3.769, 10.89882 ], [ 3.76404, 10.88137 ], [ 3.760242, 10.8709236 ], [ 3.75486, 10.85612 ], [ 3.7492, 10.83752 ], [ 3.74938, 10.82556 ], [ 3.7506653, 10.8218825 ], [ 3.75284, 10.81566 ], [ 3.7566614, 10.8103166 ], [ 3.75746, 10.8092 ], [ 3.7582688, 10.8073696 ], [ 3.76092, 10.80137 ], [ 3.77248, 10.78454 ], [ 3.77848, 10.77256 ], [ 3.78445, 10.7546 ], [ 3.7952865, 10.7382812 ], [ 3.8032655, 10.730644 ], [ 3.81269, 10.72321 ], [ 3.8168432, 10.720992 ], [ 3.8331, 10.71231 ], [ 3.8409791, 10.7049209 ], [ 3.8423734, 10.6993041 ], [ 3.84395, 10.69295 ], [ 3.8463956, 10.669712 ], [ 3.84802, 10.66764 ], [ 3.8491267, 10.6477527 ] ] ] ] } },
{ "type": "Feature", "properties": { "POLYGON_ID": "BEN_GAUL1997_ADM2_5867", "ADM0_ISO3": "BEN", "ADM0_NAME": "Benin", "ADM0_CODE": 29, "ADM1_NAME": "Atakora", "ADM1_CODE": 112863, "ADM2_NAME": "Boukoumbe", "ADM2_CODE": 5867, "GEOSET": "GAUL", "GEOSET_YEAR": 1997.0, "GEOSET_VERSION": "GAUL_v1", "GEOSET_UNIT": "ADM2", "CENTROID_LONG": 1.1355729739767331, "CENTROID_LAT": 10.249934861027134 }, "geometry": { "type": "MultiPolygon", "coordinates": [ [ [ [ 1.204942, 10.4055214 ], [ 1.230364, 10.3178673 ], [ 1.200007, 10.2894106 ], [ 1.2188669, 10.2074776 ], [ 1.27077, 10.1883726 ], [ 1.308621, 10.1333923 ], [ 1.3023191, 10.0808392 ], [ 1.370833, 10.0642672 ], [ 1.378666, 10.017334 ], [ 1.3797961, 10.0003004 ], [ 1.3552, 9.9999999 ], [ 1.173311, 10.1076543 ], [ 0.9983433, 10.2208295 ], [ 0.9096875, 10.285734 ], [ 0.962906, 10.3276711 ], [ 1.007392, 10.4237804 ], [ 1.08157, 10.4350176 ], [ 1.156855, 10.4118214 ], [ 1.201201, 10.4400806 ], [ 1.204942, 10.4055214 ] ] ] ] } },
{ "type": "Feature", "properties": { "POLYGON_ID": "BEN_GAUL1997_ADM2_5868", "ADM0_ISO3": "BEN", "ADM0_NAME": "Benin", "ADM0_CODE": 29, "ADM1_NAME": "Atakora", "ADM1_CODE": 112863, "ADM2_NAME": "Kerou", "ADM2_CODE": 5868, "GEOSET": "GAUL", "GEOSET_YEAR": 1997.0, "GEOSET_VERSION": "GAUL_v1", "GEOSET_UNIT": "ADM2", "CENTROID_LONG": 2.0056587272201529, "CENTROID_LAT": 10.937472230371936 }, "geometry": { "type": "MultiPolygon", "coordinates": [ [ [ [ 2.3355939, 10.9492378 ], [ 2.2571771, 10.8931751 ], [ 2.2406859, 10.8619614 ], [ 2.240351, 10.5444708 ], [ 2.124455, 10.5296288 ], [ 2.0839829, 10.5100622 ], [ 2.0089321, 10.525156 ], [ 1.96767, 10.5483294 ], [ 1.8668081, 10.5005426 ], [ 1.835014, 10.5364113 ], [ 1.855992, 10.59165 ], [ 1.9226, 10.6158323 ], [ 1.981632, 10.7796869 ], [ 1.937574, 10.7755508 ], [ 1.808097, 10.8701649 ], [ 1.75971, 10.8447437 ], [ 1.659012, 10.9022112 ], [ 1.756447, 11.0762672 ], [ 1.743691, 11.1330366 ], [ 1.75669, 11.1745682 ], [ 1.828867, 11.2018614 ], [ 1.828967, 11.2452478 ], [ 1.870549, 11.2717953 ], [ 1.900012, 11.3648567 ], [ 1.9529703, 11.4215618 ], [ 2.01925, 11.42771 ], [ 2.2032559, 11.0103922 ], [ 2.2904921, 10.981451 ], [ 2.3355939, 10.9492378 ] ] ] ] } },
{ "type": "Feature", "properties": { "POLYGON_ID": "BEN_GAUL1997_ADM2_5869", "ADM0_ISO3": "BEN", "ADM0_NAME": "Benin", "ADM0_CODE": 29, "ADM1_NAME": "Atakora", "ADM1_CODE": 112863, "ADM2_NAME": "Kobli", "ADM2_CODE": 5869, "GEOSET": "GAUL", "GEOSET_YEAR": 1997.0, "GEOSET_VERSION": "GAUL_v1", "GEOSET_UNIT": "ADM2", "CENTROID_LONG": 0.90530064385526055, "CENTROID_LAT": 10.472220353707922 }, "geometry": { "type": "MultiPolygon", "coordinates": [ [ [ [ 1.041175, 10.5375748 ], [ 1.076583, 10.4870768 ], [ 1.08157, 10.4350176 ], [ 1.007392, 10.4237804 ], [ 0.962906, 10.3276711 ], [ 0.9096875, 10.285734 ], [ 0.77457, 10.38476 ], [ 0.78323, 10.51218 ], [ 0.80626, 10.57808 ], [ 0.8057406, 10.6436655 ], [ 0.875639, 10.6547537 ], [ 0.948571, 10.5813169 ], [ 1.041175, 10.5375748 ] ] ] ] } },
{ "type": "Feature", "properties": { "POLYGON_ID": "BEN_GAUL1997_ADM2_5870", "ADM0_ISO3": "BEN", "ADM0_NAME": "Benin", "ADM0_CODE": 29, "ADM1_NAME": "Atakora", "ADM1_CODE": 112863, "ADM2_NAME": "Kouande", "ADM2_CODE": 5870, "GEOSET": "GAUL", "GEOSET_YEAR": 1997.0, "GEOSET_VERSION": "GAUL_v1", "GEOSET_UNIT": "ADM2", "CENTROID_LONG": 1.721444769929082, "CENTROID_LAT": 10.429059957983538 }, "geometry": { "type": "MultiPolygon", "coordinates": [ [ [ [ 2.0089321, 10.525156 ], [ 1.9888051, 10.4929523 ], [ 1.9223551, 10.4602222 ], [ 1.896418, 10.3772612 ], [ 1.856626, 10.3311548 ], [ 1.818432, 10.1547298 ], [ 1.813154, 10.1009216 ], [ 1.769385, 10.0394306 ], [ 1.74728, 10.0366526 ], [ 1.655377, 9.94034 ], [ 1.544036, 9.9408331 ], [ 1.5046999, 9.973383 ], [ 1.3797961, 10.0003004 ], [ 1.378666, 10.017334 ], [ 1.42436, 10.0409632 ], [ 1.472062, 10.0271168 ], [ 1.555306, 10.0857859 ], [ 1.57572, 10.1304903 ], [ 1.543251, 10.1691122 ], [ 1.548335, 10.2875881 ], [ 1.573941, 10.3550224 ], [ 1.627809, 10.3994112 ], [ 1.608909, 10.4412861 ], [ 1.649186, 10.4806128 ], [ 1.620319, 10.5830383 ], [ 1.637681, 10.6741066 ], [ 1.55387, 10.7366362 ], [ 1.561425, 10.8226786 ], [ 1.589257, 10.8651514 ], [ 1.6338871, 10.8710041 ], [ 1.659012, 10.9022112 ], [ 1.75971, 10.8447437 ], [ 1.808097, 10.8701649 ], [ 1.937574, 10.7755508 ], [ 1.981632, 10.7796869 ], [ 1.9226, 10.6158323 ], [ 1.855992, 10.59165 ], [ 1.835014, 10.5364113 ], [ 1.8668081, 10.5005426 ], [ 1.96767, 10.5483294 ], [ 2.0089321, 10.525156 ] ] ] ] } },
{ "type": "Feature", "properties": { "POLYGON_ID": "BEN_GAUL1997_ADM2_5871", "ADM0_ISO3": "BEN", "ADM0_NAME": "Benin", "ADM0_CODE": 29, "ADM1_NAME": "Atakora", "ADM1_CODE": 112863, "ADM2_NAME": "Materi", "ADM2_CODE": 5871, "GEOSET": "GAUL", "GEOSET_YEAR": 1997.0, "GEOSET_VERSION": "GAUL_v1", "GEOSET_UNIT": "ADM2", "CENTROID_LONG": 1.0288057551304426, "CENTROID_LAT": 10.791624613274285 }, "geometry": { "type": "MultiPolygon", "coordinates": [ [ [ [ 1.1101743, 11.030406 ], [ 1.1215039, 10.9853497 ], [ 1.107572, 10.9275427 ], [ 1.189103, 10.8559847 ], [ 1.224522, 10.840497 ], [ 1.2643451, 10.7660561 ], [ 1.233802, 10.6947966 ], [ 1.198765, 10.6951303 ], [ 1.162554, 10.6002483 ], [ 1.123189, 10.6021042 ], [ 1.041175, 10.5375748 ], [ 0.948571, 10.5813169 ], [ 0.875639, 10.6547537 ], [ 0.8057406, 10.6436655 ], [ 0.8046074, 10.7241821 ], [ 0.87382, 10.80496 ], [ 0.9009795, 10.8867413 ], [ 0.89052, 10.92094 ], [ 0.9121553, 10.9964901 ], [ 0.92157, 11.01746 ], [ 1.00917, 11.08572 ], [ 1.1101743, 11.030406 ] ] ] ] } },
{ "type": "Feature", "properties": { "POLYGON_ID": "BEN_GAUL1997_ADM2_5872", "ADM0_ISO3": "BEN", "ADM0_NAME": "Benin", "ADM0_CODE": 29, "ADM1_NAME": "Atakora", "ADM1_CODE": 112863, "ADM2_NAME": "Natitingou", "ADM2_CODE": 5872, "GEOSET": "GAUL", "GEOSET_YEAR": 1997.0, "GEOSET_VERSION": "GAUL_v1", "GEOSET_UNIT": "ADM2", "CENTROID_LONG": 1.4076954783533573, "CENTROID_LAT": 10.24307523537569 }, "geometry": { "type": "MultiPolygon", "coordinates": [ [ [ [ 1.378666, 10.017334 ], [ 1.370833, 10.0642672 ], [ 1.3023191, 10.0808392 ], [ 1.308621, 10.1333923 ], [ 1.27077, 10.1883726 ], [ 1.2188669, 10.2074776 ], [ 1.200007, 10.2894106 ], [ 1.230364, 10.3178673 ], [ 1.204942, 10.4055214 ], [ 1.306574, 10.393137 ], [ 1.438159, 10.4095736 ], [ 1.447118, 10.3634586 ], [ 1.501448, 10.3717823 ], [ 1.511148, 10.425293 ], [ 1.608909, 10.4412861 ], [ 1.627809, 10.3994112 ], [ 1.573941, 10.3550224 ], [ 1.548335, 10.2875881 ], [ 1.543251, 10.1691122 ], [ 1.57572, 10.1304903 ], [ 1.555306, 10.0857859 ], [ 1.472062, 10.0271168 ], [ 1.42436, 10.0409632 ], [ 1.378666, 10.017334 ] ] ] ] } },
{ "type": "Feature", "properties": { "POLYGON_ID": "BEN_GAUL1997_ADM2_5873", "ADM0_ISO3": "BEN", "ADM0_NAME": "Benin", "ADM0_CODE": 29, "ADM1_NAME": "Atakora", "ADM1_CODE": 112863, "ADM2_NAME": "Pehonko", "ADM2_CODE": 5873, "GEOSET": "GAUL", "GEOSET_YEAR": 1997.0, "GEOSET_VERSION": "GAUL_v1", "GEOSET_UNIT": "ADM2", "CENTROID_LONG": 2.0329458395943347, "CENTROID_LAT": 10.25723138330093 }, "geometry": { "type": "MultiPolygon", "coordinates": [ [ [ [ 2.241478, 10.5284929 ], [ 2.1565771, 10.4178066 ], [ 2.1567631, 10.3553486 ], [ 2.234329, 10.2785769 ], [ 2.2621911, 10.1508102 ], [ 2.235698, 10.0946646 ], [ 2.1089859, 10.070055 ], [ 2.0695651, 10.0349464 ], [ 2.0209551, 10.0215483 ], [ 1.9746979, 10.039216 ], [ 1.769385, 10.0394306 ], [ 1.813154, 10.1009216 ], [ 1.818432, 10.1547298 ], [ 1.856626, 10.3311548 ], [ 1.896418, 10.3772612 ], [ 1.9223551, 10.4602222 ], [ 1.9888051, 10.4929523 ], [ 2.0089321, 10.525156 ], [ 2.0839829, 10.5100622 ], [ 2.124455, 10.5296288 ], [ 2.240351, 10.5444708 ], [ 2.241478, 10.5284929 ] ] ] ] } },
{ "type": "Feature", "properties": { "POLYGON_ID": "BEN_GAUL1997_ADM2_5874", "ADM0_ISO3": "BEN", "ADM0_NAME": "Benin", "ADM0_CODE": 29, "ADM1_NAME": "Atakora", "ADM1_CODE": 112863, "ADM2_NAME": "Tanguieta", "ADM2_CODE": 5874, "GEOSET": "GAUL", "GEOSET_YEAR": 1997.0, "GEOSET_VERSION": "GAUL_v1", "GEOSET_UNIT": "ADM2", "CENTROID_LONG": 1.4384270429131876, "CENTROID_LAT": 11.028909846076719 }, "geometry": { "type": "MultiPolygon", "coordinates": [ [ [ [ 1.9529703, 11.4215618 ], [ 1.900012, 11.3648567 ], [ 1.870549, 11.2717953 ], [ 1.828967, 11.2452478 ], [ 1.828867, 11.2018614 ], [ 1.75669, 11.1745682 ], [ 1.743691, 11.1330366 ], [ 1.756447, 11.0762672 ], [ 1.659012, 10.9022112 ], [ 1.6338871, 10.8710041 ], [ 1.589257, 10.8651514 ], [ 1.561425, 10.8226786 ], [ 1.55387, 10.7366362 ], [ 1.201201, 10.4400806 ], [ 1.156855, 10.4118214 ], [ 1.08157, 10.4350176 ], [ 1.076583, 10.4870768 ], [ 1.041175, 10.5375748 ], [ 1.123189, 10.6021042 ], [ 1.162554, 10.6002483 ], [ 1.198765, 10.6951303 ], [ 1.233802, 10.6947966 ], [ 1.2643451, 10.7660561 ], [ 1.224522, 10.840497 ], [ 1.189103, 10.8559847 ], [ 1.107572, 10.9275427 ], [ 1.1215039, 10.9853497 ], [ 1.1101743, 11.030406 ], [ 1.0640921, 11.1456361 ], [ 1.15047, 11.17561 ], [ 1.15357, 11.22758 ], [ 1.12925, 11.25649 ], [ 1.27393, 11.25986 ], [ 1.32512, 11.28988 ], [ 1.31796, 11.35907 ], [ 1.38826, 11.39946 ], [ 1.4156636, 11.4517469 ], [ 1.44313, 11.47223 ], [ 1.57889, 11.44347 ], [ 1.59972, 11.39475 ], [ 1.66313, 11.39643 ], [ 1.71414, 11.42913 ], [ 1.77361, 11.41928 ], [ 1.87268, 11.44577 ], [ 1.9529703, 11.4215618 ] ] ] ] } },
{ "type": "Feature", "properties": { "POLYGON_ID": "BEN_GAUL1997_ADM2_5875", "ADM0_ISO3": "BEN", "ADM0_NAME": "Benin", "ADM0_CODE": 29, "ADM1_NAME": "Atakora", "ADM1_CODE": 112863, "ADM2_NAME": "Toukountouna", "ADM2_CODE": 5875, "GEOSET": "GAUL", "GEOSET_YEAR": 1997.0, "GEOSET_VERSION": "GAUL_v1", "GEOSET_UNIT": "ADM2", "CENTROID_LONG": 1.4633304364256501, "CENTROID_LAT": 10.526426505050559 }, "geometry": { "type": "MultiPolygon", "coordinates": [ [ [ [ 1.608909, 10.4412861 ], [ 1.511148, 10.425293 ], [ 1.501448, 10.3717823 ], [ 1.447118, 10.3634586 ], [ 1.438159, 10.4095736 ], [ 1.306574, 10.393137 ], [ 1.204942, 10.4055214 ], [ 1.201201, 10.4400806 ], [ 1.55387, 10.7366362 ], [ 1.637681, 10.6741066 ], [ 1.620319, 10.5830383 ], [ 1.649186, 10.4806128 ], [ 1.608909, 10.4412861 ] ] ] ] } },
{ "type": "Feature", "properties": { "POLYGON_ID": "BEN_GAUL1997_ADM2_5876", "ADM0_ISO3": "BEN", "ADM0_NAME": "Benin", "ADM0_CODE": 29, "ADM1_NAME": "Atlantique", "ADM1_CODE": 112864, "ADM2_NAME": "Abomey-calavi", "ADM2_CODE": 5876, "GEOSET": "GAUL", "GEOSET_YEAR": 1997.0, "GEOSET_VERSION": "GAUL_v1", "GEOSET_UNIT": "ADM2", "CENTROID_LONG": 2.3214558369069564, "CENTROID_LAT": 6.5003686480014791 }, "geometry": { "type": "MultiPolygon", "coordinates": [ [ [ [ 2.410883, 6.6854692 ], [ 2.415396, 6.6333961 ], [ 2.3958449, 6.5672898 ], [ 2.4002349, 6.4969702 ], [ 2.3847996, 6.4706474 ], [ 2.3647717, 6.3962692 ], [ 2.3591526, 6.3492223 ], [ 2.2702724, 6.343933 ], [ 2.208797, 6.4044032 ], [ 2.2187369, 6.4558439 ], [ 2.253124, 6.549684 ], [ 2.3059311, 6.5782552 ], [ 2.354382, 6.6999722 ], [ 2.410883, 6.6854692 ] ] ] ] } },
{ "type": "Feature", "properties": { "POLYGON_ID": "BEN_GAUL1997_ADM2_5877", "ADM0_ISO3": "BEN", "ADM0_NAME": "Benin", "ADM0_CODE": 29, "ADM1_NAME": "Atlantique", "ADM1_CODE": 112864, "ADM2_NAME": "Allada", "ADM2_CODE": 5877, "GEOSET": "GAUL", "GEOSET_YEAR": 1997.0, "GEOSET_VERSION": "GAUL_v1", "GEOSET_UNIT": "ADM2", "CENTROID_LONG": 2.1186099327025185, "CENTROID_LAT": 6.6805321671716946 }, "geometry": { "type": "MultiPolygon", "coordinates": [ [ [ [ 2.227695, 6.7779632 ], [ 2.20749, 6.733027 ], [ 2.2356999, 6.6170049 ], [ 2.191622, 6.6215029 ], [ 2.0881701, 6.6107678 ], [ 2.0176301, 6.5861478 ], [ 1.986587, 6.6270881 ], [ 2.033108, 6.7232609 ], [ 2.0336421, 6.732244 ], [ 2.0754099, 6.7294569 ], [ 2.1571081, 6.7826848 ], [ 2.227695, 6.7779632 ] ] ] ] } },
{ "type": "Feature", "properties": { "POLYGON_ID": "BEN_GAUL1997_ADM2_5878", "ADM0_ISO3": "BEN", "ADM0_NAME": "Benin", "ADM0_CODE": 29, "ADM1_NAME": "Atlantique", "ADM1_CODE": 112864, "ADM2_NAME": "Kpomasse", "ADM2_CODE": 5878, "GEOSET": "GAUL", "GEOSET_YEAR": 1997.0, "GEOSET_VERSION": "GAUL_v1", "GEOSET_UNIT": "ADM2", "CENTROID_LONG": 2.0115252790115994, "CENTROID_LAT": 6.4548979017487618 }, "geometry": { "type": "MultiPolygon", "coordinates": [ [ [ [ 2.0176301, 6.5861478 ], [ 2.081085, 6.4834929 ], [ 2.0554359, 6.4216099 ], [ 2.0716, 6.3731189 ], [ 2.042798, 6.3425379 ], [ 1.960806, 6.3451838 ], [ 1.943691, 6.41677 ], [ 1.974679, 6.4872961 ], [ 1.986587, 6.6270881 ], [ 2.0176301, 6.5861478 ] ] ] ] } },
{ "type": "Feature", "properties": { "POLYGON_ID": "BEN_GAUL1997_ADM2_5879", "ADM0_ISO3": "BEN", "ADM0_NAME": "Benin", "ADM0_CODE": 29, "ADM1_NAME": "Atlantique", "ADM1_CODE": 112864, "ADM2_NAME": "Ouidah", "ADM2_CODE": 5879, "GEOSET": "GAUL", "GEOSET_YEAR": 1997.0, "GEOSET_VERSION": "GAUL_v1", "GEOSET_UNIT": "ADM2", "CENTROID_LONG": 2.124261774299915, "CENTROID_LAT": 6.3854187094844681 }, "geometry": { "type": "MultiPolygon", "coordinates": [ [ [ [ 2.2187369, 6.4558439 ], [ 2.208797, 6.4044032 ], [ 2.2702724, 6.343933 ], [ 2.1000255, 6.3244697 ], [ 1.9714431, 6.3017365 ], [ 1.9720451, 6.3027238 ], [ 1.9722607, 6.3030786 ], [ 1.9744558, 6.3069729 ], [ 1.975974, 6.3101403 ], [ 1.960806, 6.3451838 ], [ 2.042798, 6.3425379 ], [ 2.0716, 6.3731189 ], [ 2.0554359, 6.4216099 ], [ 2.081085, 6.4834929 ], [ 2.1546559, 6.4689121 ], [ 2.178339, 6.4358072 ], [ 2.2187369, 6.4558439 ] ] ] ] } },
{ "type": "Feature", "properties": { "POLYGON_ID": "BEN_GAUL1997_ADM2_5880", "ADM0_ISO3": "BEN", "ADM0_NAME": "Benin", "ADM0_CODE": 29, "ADM1_NAME": "Atlantique", "ADM1_CODE": 112864, "ADM2_NAME": "So-ava", "ADM2_CODE": 5880, "GEOSET": "GAUL", "GEOSET_YEAR": 1997.0, "GEOSET_VERSION": "GAUL_v1", "GEOSET_UNIT": "ADM2", "CENTROID_LONG": 2.4326949013990391, "CENTROID_LAT": 6.536975768038805 }, "geometry": { "type": "MultiPolygon", "coordinates": [ [ [ [ 2.5006471, 6.5172248 ], [ 2.4961573, 6.4890487 ], [ 2.435134, 6.511108 ], [ 2.3847996, 6.4706474 ], [ 2.4002349, 6.4969702 ], [ 2.3958449, 6.5672898 ], [ 2.415396, 6.6333961 ], [ 2.435303, 6.548737 ], [ 2.5006471, 6.5172248 ] ] ] ] } },
{ "type": "Feature", "properties": { "POLYGON_ID": "BEN_GAUL1997_ADM2_5881", "ADM0_ISO3": "BEN", "ADM0_NAME": "Benin", "ADM0_CODE": 29, "ADM1_NAME": "Atlantique", "ADM1_CODE": 112864, "ADM2_NAME": "Toffo", "ADM2_CODE": 5881, "GEOSET": "GAUL", "GEOSET_YEAR": 1997.0, "GEOSET_VERSION": "GAUL_v1", "GEOSET_UNIT": "ADM2", "CENTROID_LONG": 2.1767951375612586, "CENTROID_LAT": 6.8522237367437171 }, "geometry": { "type": "MultiPolygon", "coordinates": [ [ [ [ 2.3364589, 6.9300871 ], [ 2.2955911, 6.899137 ], [ 2.3184409, 6.864234 ], [ 2.227695, 6.7779632 ], [ 2.1571081, 6.7826848 ], [ 2.0754099, 6.7294569 ], [ 2.0336421, 6.732244 ], [ 2.0686851, 6.8674331 ], [ 2.099669, 6.893425 ], [ 2.0843091, 6.9316669 ], [ 2.2531829, 6.9366579 ], [ 2.3180101, 6.9629879 ], [ 2.3364589, 6.9300871 ] ] ] ] } },
{ "type": "Feature", "properties": { "POLYGON_ID": "BEN_GAUL1997_ADM2_5882", "ADM0_ISO3": "BEN", "ADM0_NAME": "Benin", "ADM0_CODE": 29, "ADM1_NAME": "Atlantique", "ADM1_CODE": 112864, "ADM2_NAME": "Tori-bossito", "ADM2_CODE": 5882, "GEOSET": "GAUL", "GEOSET_YEAR": 1997.0, "GEOSET_VERSION": "GAUL_v1", "GEOSET_UNIT": "ADM2", "CENTROID_LONG": 2.146136862600494, "CENTROID_LAT": 6.5404590795651156 }, "geometry": { "type": "MultiPolygon", "coordinates": [ [ [ [ 2.253124, 6.549684 ], [ 2.2187369, 6.4558439 ], [ 2.178339, 6.4358072 ], [ 2.1546559, 6.4689121 ], [ 2.081085, 6.4834929 ], [ 2.0176301, 6.5861478 ], [ 2.0881701, 6.6107678 ], [ 2.191622, 6.6215029 ], [ 2.253124, 6.549684 ] ] ] ] } },
{ "type": "Feature", "properties": { "POLYGON_ID": "BEN_GAUL1997_ADM2_5883", "ADM0_ISO3": "BEN", "ADM0_NAME": "Benin", "ADM0_CODE": 29, "ADM1_NAME": "Atlantique", "ADM1_CODE": 112864, "ADM2_NAME": "Ze", "ADM2_CODE": 5883, "GEOSET": "GAUL", "GEOSET_YEAR": 1997.0, "GEOSET_VERSION": "GAUL_v1", "GEOSET_UNIT": "ADM2", "CENTROID_LONG": 2.3218031186457315, "CENTROID_LAT": 6.7562359968829533 }, "geometry": { "type": "MultiPolygon", "coordinates": [ [ [ [ 2.4009681, 6.9757829 ], [ 2.41011, 6.9551792 ], [ 2.418793, 6.7966919 ], [ 2.4362991, 6.7465072 ], [ 2.410883, 6.6854692 ], [ 2.354382, 6.6999722 ], [ 2.3059311, 6.5782552 ], [ 2.253124, 6.549684 ], [ 2.191622, 6.6215029 ], [ 2.2356999, 6.6170049 ], [ 2.20749, 6.733027 ], [ 2.227695, 6.7779632 ], [ 2.3184409, 6.864234 ], [ 2.2955911, 6.899137 ], [ 2.3364589, 6.9300871 ], [ 2.4009681, 6.9757829 ] ] ] ] } },
{ "type": "Feature", "properties": { "POLYGON_ID": "BEN_GAUL1997_ADM2_5884", "ADM0_ISO3": "BEN", "ADM0_NAME": "Benin", "ADM0_CODE": 29, "ADM1_NAME": "Borgou", "ADM1_CODE": 112865, "ADM2_NAME": "Bembereke", "ADM2_CODE": 5884, "GEOSET": "GAUL", "GEOSET_YEAR": 1997.0, "GEOSET_VERSION": "GAUL_v1", "GEOSET_UNIT": "ADM2", "CENTROID_LONG": 2.7498139636411212, "CENTROID_LAT": 10.271685937912965 }, "geometry": { "type": "MultiPolygon", "coordinates": [ [ [ [ 3.103864, 10.5378141 ], [ 3.0809159, 10.4386616 ], [ 3.012717, 10.4225454 ], [ 2.9841509, 10.369523 ], [ 3.0549071, 10.3020535 ], [ 3.0185449, 10.238842 ], [ 2.9254761, 10.1424408 ], [ 2.8101959, 10.1235447 ], [ 2.8108661, 10.0391464 ], [ 2.851999, 10.0289011 ], [ 2.842653, 9.9362659 ], [ 2.76405, 9.9161758 ], [ 2.6834421, 9.9041338 ], [ 2.5245581, 9.9778337 ], [ 2.561621, 10.0094423 ], [ 2.5153739, 10.0861864 ], [ 2.4604061, 10.1293888 ], [ 2.4853549, 10.1504221 ], [ 2.4675331, 10.2348251 ], [ 2.5239041, 10.3397036 ], [ 2.5450101, 10.5299702 ], [ 2.6882329, 10.5299797 ], [ 2.701726, 10.5637302 ], [ 2.8132291, 10.5815878 ], [ 2.8564329, 10.535655 ], [ 3.103864, 10.5378141 ] ] ] ] } },
{ "type": "Feature", "properties": { "POLYGON_ID": "BEN_GAUL1997_ADM2_5885", "ADM0_ISO3": "BEN", "ADM0_NAME": "Benin", "ADM0_CODE": 29, "ADM1_NAME": "Borgou", "ADM1_CODE": 112865, "ADM2_NAME": "Kalale", "ADM2_CODE": 5885, "GEOSET": "GAUL", "GEOSET_YEAR": 1997.0, "GEOSET_VERSION": "GAUL_v1", "GEOSET_UNIT": "ADM2", "CENTROID_LONG": 3.3928070060273461, "CENTROID_LAT": 10.365916310635052 }, "geometry": { "type": "MultiPolygon", "coordinates": [ [ [ [ 3.6169201, 10.077784 ], [ 3.5447221, 10.1017399 ], [ 3.4531429, 10.1473379 ], [ 3.3774819, 10.1584501 ], [ 3.335336, 10.1067228 ], [ 3.251497, 10.1233139 ], [ 3.153656, 10.1024084 ], [ 3.1003439, 10.0738001 ], [ 3.04953, 10.0805597 ], [ 3.0460081, 10.1540327 ], [ 3.0185449, 10.238842 ], [ 3.0549071, 10.3020535 ], [ 2.9841509, 10.369523 ], [ 3.012717, 10.4225454 ], [ 3.0809159, 10.4386616 ], [ 3.103864, 10.5378141 ], [ 3.1063294, 10.5378656 ], [ 3.17977, 10.5393896 ], [ 3.497381, 10.6122561 ], [ 3.8491267, 10.6477527 ], [ 3.8494164, 10.6425466 ], [ 3.85104, 10.61337 ], [ 3.8517, 10.60579 ], [ 3.85097, 10.59981 ], [ 3.8280609, 10.5594795 ], [ 3.82003, 10.53972 ], [ 3.80617, 10.503 ], [ 3.80098, 10.48532 ], [ 3.7998461, 10.4461238 ], [ 3.79917, 10.4428 ], [ 3.786, 10.40538 ], [ 3.76932, 10.4158 ], [ 3.7662732, 10.4167907 ], [ 3.7563525, 10.4209246 ], [ 3.74984, 10.42439 ], [ 3.7306, 10.43389 ], [ 3.72407, 10.4379522 ], [ 3.7164652, 10.4426825 ], [ 3.69513, 10.4538 ], [ 3.68771, 10.45636 ], [ 3.67907, 10.45113 ], [ 3.64604, 10.43514 ], [ 3.63765, 10.42759 ], [ 3.6345424, 10.4220932 ], [ 3.63181, 10.41726 ], [ 3.6322919, 10.4158144 ], [ 3.63273, 10.4145 ], [ 3.6335684, 10.4063178 ], [ 3.63452, 10.39703 ], [ 3.6338, 10.39036 ], [ 3.63006, 10.38302 ], [ 3.62631, 10.37361 ], [ 3.6144, 10.35572 ], [ 3.6077816, 10.3391122 ], [ 3.60315, 10.32749 ], [ 3.58417, 10.27837 ], [ 3.59221, 10.25328 ], [ 3.59774, 10.24177 ], [ 3.6029806, 10.2346656 ], [ 3.62318, 10.21409 ], [ 3.6463, 10.18941 ], [ 3.67806, 10.17826 ], [ 3.6788288, 10.170909 ], [ 3.6759841, 10.1526647 ], [ 3.67609, 10.1493 ], [ 3.67328, 10.14219 ], [ 3.6681, 10.12244 ], [ 3.66293, 10.10706 ], [ 3.6606178, 10.1051257 ], [ 3.65828, 10.10317 ], [ 3.6528632, 10.1024563 ], [ 3.64086, 10.09795 ], [ 3.6374764, 10.0969604 ], [ 3.63621, 10.09659 ], [ 3.62924, 10.09317 ], [ 3.6270329, 10.0910893 ], [ 3.624221, 10.0884384 ], [ 3.62365, 10.0879 ], [ 3.6169201, 10.077784 ] ] ] ] } },
{ "type": "Feature", "properties": { "POLYGON_ID": "BEN_GAUL1997_ADM2_5886", "ADM0_ISO3": "BEN", "ADM0_NAME": "Benin", "ADM0_CODE": 29, "ADM1_NAME": "Borgou", "ADM1_CODE": 112865, "ADM2_NAME": "Ndali", "ADM2_CODE": 5886, "GEOSET": "GAUL", "GEOSET_YEAR": 1997.0, "GEOSET_VERSION": "GAUL_v1", "GEOSET_UNIT": "ADM2", "CENTROID_LONG": 2.4673134319086261, "CENTROID_LAT": 9.7246463951839814 }, "geometry": { "type": "MultiPolygon", "coordinates": [ [ [ [ 2.5245581, 9.9778337 ], [ 2.6834421, 9.9041338 ], [ 2.76405, 9.9161758 ], [ 2.7935131, 9.8732853 ], [ 2.7714679, 9.7804861 ], [ 2.761116, 9.6686983 ], [ 2.8094211, 9.5324879 ], [ 2.7511029, 9.424613 ], [ 2.6760161, 9.3800402 ], [ 2.6196179, 9.4342642 ], [ 2.556402, 9.448699 ], [ 2.473475, 9.4891062 ], [ 2.293952, 9.5302601 ], [ 2.1989591, 9.6675758 ], [ 2.15974, 9.685915 ], [ 2.1042991, 9.718524 ], [ 2.0854449, 9.7866669 ], [ 2.0513051, 9.8490953 ], [ 2.091639, 9.8955841 ], [ 2.0822041, 9.956027 ], [ 2.124624, 9.9825048 ], [ 2.201575, 9.9604216 ], [ 2.294543, 9.9647102 ], [ 2.386977, 9.9244184 ], [ 2.4068151, 9.9858847 ], [ 2.5245581, 9.9778337 ] ] ] ] } },
{ "type": "Feature", "properties": { "POLYGON_ID": "BEN_GAUL1997_ADM2_5887", "ADM0_ISO3": "BEN", "ADM0_NAME": "Benin", "ADM0_CODE": 29, "ADM1_NAME": "Borgou", "ADM1_CODE": 112865, "ADM2_NAME": "Nikki", "ADM2_CODE": 5887, "GEOSET": "GAUL", "GEOSET_YEAR": 1997.0, "GEOSET_VERSION": "GAUL_v1", "GEOSET_UNIT": "ADM2", "CENTROID_LONG": 3.1896137892864163, "CENTROID_LAT": 9.9491164868685189 }, "geometry": { "type": "MultiPolygon", "coordinates": [ [ [ [ 3.6169201, 10.077784 ], [ 3.61572, 10.07598 ], [ 3.6150212, 10.0737362 ], [ 3.6115, 10.06243 ], [ 3.6111854, 10.0522039 ], [ 3.6113468, 10.0367775 ], [ 3.61205, 10.02106 ], [ 3.61109, 10.01256 ], [ 3.6112124, 10.0074353 ], [ 3.61139, 10.0 ], [ 3.61149, 9.99601 ], [ 3.6105724, 9.9906598 ], [ 3.60889, 9.98085 ], [ 3.6052292, 9.9678256 ], [ 3.5957787, 9.9457389 ], [ 3.57112, 9.92537 ], [ 3.56268, 9.89552 ], [ 3.5510389, 9.8819996 ], [ 3.54802, 9.88087 ], [ 3.54755, 9.87903 ], [ 3.5426947, 9.8734689 ], [ 3.5366411, 9.8674192 ], [ 3.52964, 9.86208 ], [ 3.5283242, 9.8618435 ], [ 3.51712, 9.85983 ], [ 3.49996, 9.85804 ], [ 3.48119, 9.86178 ], [ 3.45639, 9.86117 ], [ 3.4239, 9.85069 ], [ 3.4005564, 9.8420567 ], [ 3.39002, 9.83816 ], [ 3.37076, 9.83086 ], [ 3.3592793, 9.8267197 ], [ 3.3554701, 9.8247076 ], [ 3.34686, 9.81759 ], [ 3.32966, 9.7988 ], [ 3.327065, 9.7897502 ], [ 3.32334, 9.77676 ], [ 3.32423, 9.76135 ], [ 3.3257611, 9.7559542 ], [ 3.35027, 9.70522 ], [ 3.3503975, 9.7046781 ], [ 3.35211, 9.6974 ], [ 3.3485991, 9.6852293 ], [ 3.33653, 9.67607 ], [ 3.3304128, 9.6708205 ], [ 3.31517, 9.65774 ], [ 3.3130166, 9.6576587 ], [ 3.30961, 9.65753 ], [ 3.29178, 9.66194 ], [ 3.27997, 9.66174 ], [ 3.27162, 9.659 ], [ 3.2635, 9.65236 ], [ 3.256058, 9.6397352 ], [ 3.164784, 9.6664076 ], [ 3.1267691, 9.7013664 ], [ 3.114506, 9.7778387 ], [ 3.019423, 9.8078146 ], [ 2.9711981, 9.8432722 ], [ 2.8341119, 9.8136358 ], [ 2.7714679, 9.7804861 ], [ 2.7935131, 9.8732853 ], [ 2.76405, 9.9161758 ], [ 2.842653, 9.9362659 ], [ 2.851999, 10.0289011 ], [ 2.8108661, 10.0391464 ], [ 2.8101959, 10.1235447 ], [ 2.9254761, 10.1424408 ], [ 3.0185449, 10.238842 ], [ 3.0460081, 10.1540327 ], [ 3.04953, 10.0805597 ], [ 3.1003439, 10.0738001 ], [ 3.153656, 10.1024084 ], [ 3.251497, 10.1233139 ], [ 3.335336, 10.1067228 ], [ 3.3774819, 10.1584501 ], [ 3.4531429, 10.1473379 ], [ 3.5447221, 10.1017399 ], [ 3.6169201, 10.077784 ] ] ] ] } },
{ "type": "Feature", "properties": { "POLYGON_ID": "BEN_GAUL1997_ADM2_5888", "ADM0_ISO3": "BEN", "ADM0_NAME": "Benin", "ADM0_CODE": 29, "ADM1_NAME": "Borgou", "ADM1_CODE": 112865, "ADM2_NAME": "Parakou", "ADM2_CODE": 5888, "GEOSET": "GAUL", "GEOSET_YEAR": 1997.0, "GEOSET_VERSION": "GAUL_v1", "GEOSET_UNIT": "ADM2", "CENTROID_LONG": 2.6033919378166113, "CENTROID_LAT": 9.3461917828722889 }, "geometry": { "type": "MultiPolygon", "coordinates": [ [ [ [ 2.7511029, 9.424613 ], [ 2.7376721, 9.3936415 ], [ 2.7428429, 9.2978086 ], [ 2.683135, 9.2822475 ], [ 2.618475, 9.2456236 ], [ 2.5751359, 9.2489223 ], [ 2.492007, 9.3069649 ], [ 2.4636459, 9.3470392 ], [ 2.467365, 9.3867073 ], [ 2.556402, 9.448699 ], [ 2.6196179, 9.4342642 ], [ 2.6760161, 9.3800402 ], [ 2.7511029, 9.424613 ] ] ] ] } },
{ "type": "Feature", "properties": { "POLYGON_ID": "BEN_GAUL1997_ADM2_5889", "ADM0_ISO3": "BEN", "ADM0_NAME": "Benin", "ADM0_CODE": 29, "ADM1_NAME": "Borgou", "ADM1_CODE": 112865, "ADM2_NAME": "Perere", "ADM2_CODE": 5889, "GEOSET": "GAUL", "GEOSET_YEAR": 1997.0, "GEOSET_VERSION": "GAUL_v1", "GEOSET_UNIT": "ADM2", "CENTROID_LONG": 2.9863425555098053, "CENTROID_LAT": 9.5907067087250262 }, "geometry": { "type": "MultiPolygon", "coordinates": [ [ [ [ 3.256058, 9.6397352 ], [ 3.2551319, 9.6291586 ], [ 3.25344, 9.60987 ], [ 3.24972, 9.60253 ], [ 3.23229, 9.57591 ], [ 3.22696, 9.57133 ], [ 3.21604, 9.55389 ], [ 3.2016203, 9.530297 ], [ 3.19489, 9.51511 ], [ 3.1863, 9.50708 ], [ 3.1835173, 9.5058896 ], [ 3.18097, 9.5048 ], [ 3.1727491, 9.5015744 ], [ 3.1629, 9.49771 ], [ 3.15456, 9.4929 ], [ 3.14922, 9.4851 ], [ 3.13622, 9.46284 ], [ 3.1311029, 9.4413997 ], [ 3.15179, 9.37574 ], [ 3.15362, 9.36471 ], [ 3.1515134, 9.33949 ], [ 2.9362259, 9.341794 ], [ 2.890934, 9.3865118 ], [ 2.858618, 9.3909874 ], [ 2.8094211, 9.5324879 ], [ 2.761116, 9.6686983 ], [ 2.7714679, 9.7804861 ], [ 2.8341119, 9.8136358 ], [ 2.9711981, 9.8432722 ], [ 3.019423, 9.8078146 ], [ 3.114506, 9.7778387 ], [ 3.1267691, 9.7013664 ], [ 3.164784, 9.6664076 ], [ 3.256058, 9.6397352 ] ] ] ] } },
{ "type": "Feature", "properties": { "POLYGON_ID": "BEN_GAUL1997_ADM2_5890", "ADM0_ISO3": "BEN", "ADM0_NAME": "Benin", "ADM0_CODE": 29, "ADM1_NAME": "Borgou", "ADM1_CODE": 112865, "ADM2_NAME": "Sinende", "ADM2_CODE": 5890, "GEOSET": "GAUL", "GEOSET_YEAR": 1997.0, "GEOSET_VERSION": "GAUL_v1", "GEOSET_UNIT": "ADM2", "CENTROID_LONG": 2.3471503194714218, "CENTROID_LAT": 10.244259432351429 }, "geometry": { "type": "MultiPolygon", "coordinates": [ [ [ [ 2.5450101, 10.5299702 ], [ 2.5239041, 10.3397036 ], [ 2.4675331, 10.2348251 ], [ 2.4853549, 10.1504221 ], [ 2.4604061, 10.1293888 ], [ 2.5153739, 10.0861864 ], [ 2.561621, 10.0094423 ], [ 2.5245581, 9.9778337 ], [ 2.4068151, 9.9858847 ], [ 2.386977, 9.9244184 ], [ 2.294543, 9.9647102 ], [ 2.201575, 9.9604216 ], [ 2.124624, 9.9825048 ], [ 2.0822041, 9.956027 ], [ 2.0695651, 10.0349464 ], [ 2.1089859, 10.070055 ], [ 2.235698, 10.0946646 ], [ 2.2621911, 10.1508102 ], [ 2.234329, 10.2785769 ], [ 2.1567631, 10.3553486 ], [ 2.1565771, 10.4178066 ], [ 2.241478, 10.5284929 ], [ 2.4184561, 10.5317068 ], [ 2.4179189, 10.5647449 ], [ 2.4842539, 10.5615683 ], [ 2.5450101, 10.5299702 ] ] ] ] } },
{ "type": "Feature", "properties": { "POLYGON_ID": "BEN_GAUL1997_ADM2_5891", "ADM0_ISO3": "BEN", "ADM0_NAME": "Benin", "ADM0_CODE": 29, "ADM1_NAME": "Borgou", "ADM1_CODE": 112865, "ADM2_NAME": "Tchaourou", "ADM2_CODE": 5891, "GEOSET": "GAUL", "GEOSET_YEAR": 1997.0, "GEOSET_VERSION": "GAUL_v1", "GEOSET_UNIT": "ADM2", "CENTROID_LONG": 2.4948412260747794, "CENTROID_LAT": 9.1623591913676385 }, "geometry": { "type": "MultiPolygon", "coordinates": [ [ [ [ 2.556402, 9.448699 ], [ 2.467365, 9.3867073 ], [ 2.4636459, 9.3470392 ], [ 2.492007, 9.3069649 ], [ 2.5751359, 9.2489223 ], [ 2.618475, 9.2456236 ], [ 2.683135, 9.2822475 ], [ 2.7428429, 9.2978086 ], [ 2.7376721, 9.3936415 ], [ 2.7511029, 9.424613 ], [ 2.8094211, 9.5324879 ], [ 2.858618, 9.3909874 ], [ 2.890934, 9.3865118 ], [ 2.9362259, 9.341794 ], [ 3.1515134, 9.33949 ], [ 3.15149, 9.33921 ], [ 3.15192, 9.32152 ], [ 3.15375, 9.30957 ], [ 3.15835, 9.29141 ], [ 3.1572601, 9.2831431 ], [ 3.12635, 9.25219 ], [ 3.1250232, 9.2478296 ], [ 3.12216, 9.23842 ], [ 3.1220682, 9.2314495 ], [ 3.1219, 9.21867 ], [ 3.1237, 9.19224 ], [ 3.12092, 9.18811 ], [ 3.1097625, 9.1678845 ], [ 3.10143, 9.15278 ], [ 3.09214, 9.12982 ], [ 3.0886326, 9.1048706 ], [ 3.0881693, 9.1015795 ], [ 3.0859559, 9.099825 ], [ 3.08354, 9.09791 ], [ 3.0589106, 9.0904914 ], [ 3.0562496, 9.0896898 ], [ 3.05139, 9.08671 ], [ 3.0426, 9.08351 ], [ 3.03543, 9.08283 ], [ 3.0308214, 9.0811222 ], [ 3.01878, 9.07666 ], [ 2.98411, 9.07235 ], [ 2.9689741, 9.077724 ], [ 2.964, 9.07949 ], [ 2.9538486, 9.0925626 ], [ 2.95338, 9.0926 ], [ 2.91292, 9.0876 ], [ 2.89146, 9.08021 ], [ 2.88193, 9.07293 ], [ 2.87915, 9.06466 ], [ 2.8105676, 9.0647006 ], [ 2.78092, 9.0652 ], [ 2.77827, 9.0538 ], [ 2.782706, 9.0365389 ], [ 2.7825, 9.03181 ], [ 2.77416, 9.02609 ], [ 2.7755388, 9.0237921 ], [ 2.78268, 9.01619 ], [ 2.7796864, 9.0146496 ], [ 2.77203, 9.01071 ], [ 2.7808, 9.00563 ], [ 2.78241, 9.0031 ], [ 2.7804315, 8.9995822 ], [ 2.77777, 8.99485 ], [ 2.7798376, 8.9916237 ], [ 2.78677, 8.99068 ], [ 2.7871469, 8.9900676 ], [ 2.78861, 8.98769 ], [ 2.7879332, 8.9863653 ], [ 2.78879, 8.97024 ], [ 2.7857658, 8.9640474 ], [ 2.7766186, 8.9582799 ], [ 2.77489, 8.95719 ], [ 2.77118, 8.95283 ], [ 2.7759187, 8.9514057 ], [ 2.7817796, 8.9452291 ], [ 2.77061, 8.91885 ], [ 2.7687673, 8.9172199 ], [ 2.76853, 8.91701 ], [ 2.7640759, 8.9161423 ], [ 2.75974, 8.91222 ], [ 2.75811, 8.90786 ], [ 2.75828, 8.90466 ], [ 2.75833, 8.90373 ], [ 2.76156, 8.90303 ], [ 2.77035, 8.90484 ], [ 2.7719125, 8.8998987 ], [ 2.77355, 8.89472 ], [ 2.76816, 8.86718 ], [ 2.75799, 8.86491 ], [ 2.75707, 8.86354 ], [ 2.7569413, 8.8615269 ], [ 2.75682, 8.85963 ], [ 2.7590731, 8.8554874 ], [ 2.761043, 8.8505564 ], [ 2.75812, 8.83001 ], [ 2.75879, 8.81967 ], [ 2.74488, 8.79996 ], [ 2.7436077, 8.7986511 ], [ 2.73932, 8.79424 ], [ 2.7384067, 8.7903793 ], [ 2.73769, 8.78735 ], [ 2.73028, 8.77819 ], [ 2.72841, 8.77268 ], [ 2.185246, 8.7641821 ], [ 2.2268119, 8.8688192 ], [ 2.186981, 8.9508886 ], [ 2.2203259, 9.0530682 ], [ 2.182869, 9.0729303 ], [ 2.072207, 9.0740404 ], [ 1.9876159, 9.1266975 ], [ 1.963434, 9.2595596 ], [ 1.972545, 9.3533192 ], [ 2.0494111, 9.3547182 ], [ 2.101994, 9.3702936 ], [ 2.15974, 9.685915 ], [ 2.1989591, 9.6675758 ], [ 2.293952, 9.5302601 ], [ 2.473475, 9.4891062 ], [ 2.556402, 9.448699 ] ] ] ] } },
{ "type": "Feature", "properties": { "POLYGON_ID": "BEN_GAUL1997_ADM2_5892", "ADM0_ISO3": "BEN", "ADM0_NAME": "Benin", "ADM0_CODE": 29, "ADM1_NAME": "Zou", "ADM1_CODE": 112868, "ADM2_NAME": "Bante", "ADM2_CODE": 5892, "GEOSET": "GAUL", "GEOSET_YEAR": 1997.0, "GEOSET_VERSION": "GAUL_v1", "GEOSET_UNIT": "ADM2", "CENTROID_LONG": 1.8653921813647059, "CENTROID_LAT": 8.3379995008360197 }, "geometry": { "type": "MultiPolygon", "coordinates": [ [ [ [ 2.12325, 8.4779835 ], [ 2.0968111, 8.3301926 ], [ 2.088587, 8.2182617 ], [ 2.1189461, 8.1264772 ], [ 2.0607531, 8.0822992 ], [ 1.97789, 8.0677366 ], [ 1.814834, 8.0712051 ], [ 1.792539, 8.1231699 ], [ 1.6338878, 8.2082871 ], [ 1.63177, 8.34125 ], [ 1.6215034, 8.3659592 ], [ 1.6302, 8.44951 ], [ 1.6301632, 8.5936966 ], [ 1.733802, 8.605072 ], [ 1.762561, 8.6271238 ], [ 1.817044, 8.6217794 ], [ 1.91164, 8.5514231 ], [ 1.992833, 8.5078039 ], [ 2.0930669, 8.4995937 ], [ 2.12325, 8.4779835 ] ] ] ] } },
{ "type": "Feature", "properties": { "POLYGON_ID": "BEN_GAUL1997_ADM2_5893", "ADM0_ISO3": "BEN", "ADM0_NAME": "Benin", "ADM0_CODE": 29, "ADM1_NAME": "Zou", "ADM1_CODE": 112868, "ADM2_NAME": "Dassa", "ADM2_CODE": 5893, "GEOSET": "GAUL", "GEOSET_YEAR": 1997.0, "GEOSET_VERSION": "GAUL_v1", "GEOSET_UNIT": "ADM2", "CENTROID_LONG": 2.2699877086576863, "CENTROID_LAT": 7.696854362583017 }, "geometry": { "type": "MultiPolygon", "coordinates": [ [ [ [ 2.3742459, 7.9141531 ], [ 2.394938, 7.8208861 ], [ 2.4526639, 7.7762342 ], [ 2.4871359, 7.6856012 ], [ 2.462033, 7.6097932 ], [ 2.465976, 7.5584888 ], [ 2.4055099, 7.4427691 ], [ 2.272562, 7.5201278 ], [ 2.133904, 7.5607882 ], [ 2.0463829, 7.671814 ], [ 2.054852, 7.7815218 ], [ 2.077729, 7.861115 ], [ 2.115881, 7.89821 ], [ 2.1189222, 7.9448686 ], [ 2.1488011, 7.937706 ], [ 2.210542, 7.829555 ], [ 2.2483699, 7.845942 ], [ 2.2970641, 7.8972511 ], [ 2.3742459, 7.9141531 ] ] ] ] } },
{ "type": "Feature", "properties": { "POLYGON_ID": "BEN_GAUL1997_ADM2_5894", "ADM0_ISO3": "BEN", "ADM0_NAME": "Benin", "ADM0_CODE": 29, "ADM1_NAME": "Zou", "ADM1_CODE": 112868, "ADM2_NAME": "Glazoue", "ADM2_CODE": 5894, "GEOSET": "GAUL", "GEOSET_YEAR": 1997.0, "GEOSET_VERSION": "GAUL_v1", "GEOSET_UNIT": "ADM2", "CENTROID_LONG": 2.2286992493031734, "CENTROID_LAT": 8.1810203490008639 }, "geometry": { "type": "MultiPolygon", "coordinates": [ [ [ [ 2.3669081, 8.141964 ], [ 2.33883, 8.104805 ], [ 2.372596, 8.0564651 ], [ 2.3581369, 8.0233631 ], [ 2.3742459, 7.9141531 ], [ 2.2970641, 7.8972511 ], [ 2.2483699, 7.845942 ], [ 2.210542, 7.829555 ], [ 2.1488011, 7.937706 ], [ 2.1189222, 7.9448686 ], [ 2.1051641, 8.0130587 ], [ 2.1282611, 8.1000137 ], [ 2.1189461, 8.1264772 ], [ 2.088587, 8.2182617 ], [ 2.0968111, 8.3301926 ], [ 2.12325, 8.4779835 ], [ 2.156275, 8.5094233 ], [ 2.222868, 8.5099058 ], [ 2.3195651, 8.4519262 ], [ 2.3409569, 8.4254961 ], [ 2.330384, 8.249383 ], [ 2.3690109, 8.1727943 ], [ 2.3669081, 8.141964 ] ] ] ] } },
{ "type": "Feature", "properties": { "POLYGON_ID": "BEN_GAUL1997_ADM2_5895", "ADM0_ISO3": "BEN", "ADM0_NAME": "Benin", "ADM0_CODE": 29, "ADM1_NAME": "Zou", "ADM1_CODE": 112868, "ADM2_NAME": "Ouesse", "ADM2_CODE": 5895, "GEOSET": "GAUL", "GEOSET_YEAR": 1997.0, "GEOSET_VERSION": "GAUL_v1", "GEOSET_UNIT": "ADM2", "CENTROID_LONG": 2.4854729383527068, "CENTROID_LAT": 8.5249662800481225 }, "geometry": { "type": "MultiPolygon", "coordinates": [ [ [ [ 2.69563, 8.3241698 ], [ 2.6176839, 8.3311176 ], [ 2.4986711, 8.3009806 ], [ 2.497499, 8.1575871 ], [ 2.4127951, 8.12784 ], [ 2.3669081, 8.141964 ], [ 2.3690109, 8.1727943 ], [ 2.330384, 8.249383 ], [ 2.3409569, 8.4254961 ], [ 2.3195651, 8.4519262 ], [ 2.222868, 8.5099058 ], [ 2.2094409, 8.5580797 ], [ 2.224417, 8.6464796 ], [ 2.185246, 8.7641821 ], [ 2.72841, 8.77268 ], [ 2.73368, 8.75774 ], [ 2.7365658, 8.7539601 ], [ 2.74609, 8.7352 ], [ 2.74512, 8.7173 ], [ 2.74602, 8.70995 ], [ 2.75038, 8.70029 ], [ 2.7479342, 8.6951916 ], [ 2.74411, 8.68722 ], [ 2.7439846, 8.6867971 ], [ 2.74132, 8.67781 ], [ 2.7458528, 8.667199 ], [ 2.74613, 8.66655 ], [ 2.7379306, 8.6560495 ], [ 2.73756, 8.65486 ], [ 2.73893, 8.65073 ], [ 2.74654, 8.64611 ], [ 2.74906, 8.64036 ], [ 2.75039, 8.62084 ], [ 2.75014, 8.61327 ], [ 2.7496878, 8.5999148 ], [ 2.74919, 8.58521 ], [ 2.74913, 8.58342 ], [ 2.75004, 8.57768 ], [ 2.7527241, 8.5727243 ], [ 2.75876, 8.56158 ], [ 2.755615, 8.5511347 ], [ 2.7496486, 8.536927 ], [ 2.74946, 8.53314 ], [ 2.76188, 8.52255 ], [ 2.75003, 8.48975 ], [ 2.7509892, 8.4887588 ], [ 2.74906, 8.47277 ], [ 2.7475467, 8.4694203 ], [ 2.74254, 8.45403 ], [ 2.74068, 8.44502 ], [ 2.7295713, 8.4336779 ], [ 2.72612, 8.43197 ], [ 2.71459, 8.43154 ], [ 2.70695, 8.42032 ], [ 2.71129, 8.40607 ], [ 2.712966, 8.3944677 ], [ 2.71401, 8.38724 ], [ 2.70866, 8.36958 ], [ 2.7044346, 8.3651463 ], [ 2.6971, 8.35745 ], [ 2.69698, 8.3547201 ], [ 2.69644, 8.34257 ], [ 2.69563, 8.3241698 ] ] ] ] } },
{ "type": "Feature", "properties": { "POLYGON_ID": "BEN_GAUL1997_ADM2_5896", "ADM0_ISO3": "BEN", "ADM0_NAME": "Benin", "ADM0_CODE": 29, "ADM1_NAME": "Zou", "ADM1_CODE": 112868, "ADM2_NAME": "Savalou", "ADM2_CODE": 5896, "GEOSET": "GAUL", "GEOSET_YEAR": 1997.0, "GEOSET_VERSION": "GAUL_v1", "GEOSET_UNIT": "ADM2", "CENTROID_LONG": 1.860146245356288, "CENTROID_LAT": 7.8739210915201916 }, "geometry": { "type": "MultiPolygon", "coordinates": [ [ [ [ 2.1189461, 8.1264772 ], [ 2.1282611, 8.1000137 ], [ 2.1051641, 8.0130587 ], [ 2.1189222, 7.9448686 ], [ 2.115881, 7.89821 ], [ 2.077729, 7.861115 ], [ 2.054852, 7.7815218 ], [ 2.0463829, 7.671814 ], [ 2.133904, 7.5607882 ], [ 2.047123, 7.5587349 ], [ 1.986654, 7.5803609 ], [ 1.939971, 7.6411929 ], [ 1.862102, 7.655159 ], [ 1.7386301, 7.6418099 ], [ 1.63145, 7.6611107 ], [ 1.6336839, 7.9315584 ], [ 1.6338878, 8.2082871 ], [ 1.792539, 8.1231699 ], [ 1.814834, 8.0712051 ], [ 1.97789, 8.0677366 ], [ 2.0607531, 8.0822992 ], [ 2.1189461, 8.1264772 ] ] ] ] } },
{ "type": "Feature", "properties": { "POLYGON_ID": "BEN_GAUL1997_ADM2_5897", "ADM0_ISO3": "BEN", "ADM0_NAME": "Benin", "ADM0_CODE": 29, "ADM1_NAME": "Zou", "ADM1_CODE": 112868, "ADM2_NAME": "Save", "ADM2_CODE": 5897, "GEOSET": "GAUL", "GEOSET_YEAR": 1997.0, "GEOSET_VERSION": "GAUL_v1", "GEOSET_UNIT": "ADM2", "CENTROID_LONG": 2.5657981411181447, "CENTROID_LAT": 7.9961642831154514 }, "geometry": { "type": "MultiPolygon", "coordinates": [ [ [ [ 2.69563, 8.3241698 ], [ 2.7122954, 8.2710658 ], [ 2.7146, 8.26054 ], [ 2.7184986, 8.2536425 ], [ 2.7197124, 8.252596 ], [ 2.72678, 8.24651 ], [ 2.73207, 8.23797 ], [ 2.73736, 8.22943 ], [ 2.75105, 8.18998 ], [ 2.7501966, 8.1823959 ], [ 2.74821, 8.16474 ], [ 2.73254, 8.11684 ], [ 2.73054, 8.1049 ], [ 2.7059495, 7.9829896 ], [ 2.7057183, 7.9805298 ], [ 2.69955, 7.95268 ], [ 2.698665, 7.9483726 ], [ 2.6839053, 7.9067697 ], [ 2.67582, 7.8932 ], [ 2.7108516, 7.8140613 ], [ 2.71132, 7.81317 ], [ 2.7203, 7.81085 ], [ 2.7213097, 7.810106 ], [ 2.7265933, 7.8014425 ], [ 2.72946, 7.79222 ], [ 2.7309629, 7.7820358 ], [ 2.7294527, 7.6897569 ], [ 2.4871359, 7.6856012 ], [ 2.4526639, 7.7762342 ], [ 2.394938, 7.8208861 ], [ 2.3742459, 7.9141531 ], [ 2.3581369, 8.0233631 ], [ 2.372596, 8.0564651 ], [ 2.33883, 8.104805 ], [ 2.3669081, 8.141964 ], [ 2.4127951, 8.12784 ], [ 2.497499, 8.1575871 ], [ 2.4986711, 8.3009806 ], [ 2.6176839, 8.3311176 ], [ 2.69563, 8.3241698 ] ] ] ] } },
{ "type": "Feature", "properties": { "POLYGON_ID": "BEN_GAUL1997_ADM2_5898", "ADM0_ISO3": "BEN", "ADM0_NAME": "Benin", "ADM0_CODE": 29, "ADM1_NAME": "Mono", "ADM1_CODE": 112866, "ADM2_NAME": "Aplahoue", "ADM2_CODE": 5898, "GEOSET": "GAUL", "GEOSET_YEAR": 1997.0, "GEOSET_VERSION": "GAUL_v1", "GEOSET_UNIT": "ADM2", "CENTROID_LONG": 1.6959380746554986, "CENTROID_LAT": 7.1730916218793483 }, "geometry": { "type": "MultiPolygon", "coordinates": [ [ [ [ 1.831633, 7.199296 ], [ 1.791346, 7.1228561 ], [ 1.745448, 7.0705929 ], [ 1.731872, 6.9655328 ], [ 1.705196, 6.9238029 ], [ 1.6066884, 6.8834747 ], [ 1.587613, 6.9130445 ], [ 1.55783, 6.99749 ], [ 1.6420299, 6.9945732 ], [ 1.6358894, 7.4009067 ], [ 1.64388, 7.48555 ], [ 1.6756765, 7.4947 ], [ 1.713136, 7.4349771 ], [ 1.757107, 7.3107071 ], [ 1.7960401, 7.2756839 ], [ 1.831633, 7.199296 ] ] ] ] } },
{ "type": "Feature", "properties": { "POLYGON_ID": "BEN_GAUL1997_ADM2_5899", "ADM0_ISO3": "BEN", "ADM0_NAME": "Benin", "ADM0_CODE": 29, "ADM1_NAME": "Mono", "ADM1_CODE": 112866, "ADM2_NAME": "Djakotome", "ADM2_CODE": 5899, "GEOSET": "GAUL", "GEOSET_YEAR": 1997.0, "GEOSET_VERSION": "GAUL_v1", "GEOSET_UNIT": "ADM2", "CENTROID_LONG": 1.6895833167287779, "CENTROID_LAT": 6.8653163316860839 }, "geometry": { "type": "MultiPolygon", "coordinates": [ [ [ [ 1.7604181, 6.9554791 ], [ 1.770023, 6.8528848 ], [ 1.758509, 6.8264818 ], [ 1.700232, 6.8221221 ], [ 1.6748821, 6.7917552 ], [ 1.60791, 6.78162 ], [ 1.6066884, 6.8834747 ], [ 1.705196, 6.9238029 ], [ 1.731872, 6.9655328 ], [ 1.7604181, 6.9554791 ] ] ] ] } },
{ "type": "Feature", "properties": { "POLYGON_ID": "BEN_GAUL1997_ADM2_5900", "ADM0_ISO3": "BEN", "ADM0_NAME": "Benin", "ADM0_CODE": 29, "ADM1_NAME": "Mono", "ADM1_CODE": 112866, "ADM2_NAME": "Dogbo-tota", "ADM2_CODE": 5900, "GEOSET": "GAUL", "GEOSET_YEAR": 1997.0, "GEOSET_VERSION": "GAUL_v1", "GEOSET_UNIT": "ADM2", "CENTROID_LONG": 1.7498003420507271, "CENTROID_LAT": 6.7782216007693297 }, "geometry": { "type": "MultiPolygon", "coordinates": [ [ [ [ 1.851033, 6.8324628 ], [ 1.921119, 6.778563 ], [ 1.902344, 6.7670612 ], [ 1.839896, 6.771348 ], [ 1.75212, 6.7247958 ], [ 1.5915549, 6.7129045 ], [ 1.6260999, 6.7602401 ], [ 1.60791, 6.78162 ], [ 1.6748821, 6.7917552 ], [ 1.700232, 6.8221221 ], [ 1.758509, 6.8264818 ], [ 1.770023, 6.8528848 ], [ 1.851033, 6.8324628 ] ] ] ] } },
{ "type": "Feature", "properties": { "POLYGON_ID": "BEN_GAUL1997_ADM2_5901", "ADM0_ISO3": "BEN", "ADM0_NAME": "Benin", "ADM0_CODE": 29, "ADM1_NAME": "Mono", "ADM1_CODE": 112866, "ADM2_NAME": "Klouekanme", "ADM2_CODE": 5901, "GEOSET": "GAUL", "GEOSET_YEAR": 1997.0, "GEOSET_VERSION": "GAUL_v1", "GEOSET_UNIT": "ADM2", "CENTROID_LONG": 1.8288432369175109, "CENTROID_LAT": 7.0370686945244856 }, "geometry": { "type": "MultiPolygon", "coordinates": [ [ [ [ 1.855858, 7.1443658 ], [ 1.877274, 7.0916781 ], [ 1.933471, 7.0284228 ], [ 1.914251, 6.9621701 ], [ 1.865193, 6.9358521 ], [ 1.7604181, 6.9554791 ], [ 1.731872, 6.9655328 ], [ 1.745448, 7.0705929 ], [ 1.791346, 7.1228561 ], [ 1.831633, 7.199296 ], [ 1.855858, 7.1443658 ] ] ] ] } },
{ "type": "Feature", "properties": { "POLYGON_ID": "BEN_GAUL1997_ADM2_5902", "ADM0_ISO3": "BEN", "ADM0_NAME": "Benin", "ADM0_CODE": 29, "ADM1_NAME": "Mono", "ADM1_CODE": 112866, "ADM2_NAME": "Lalo", "ADM2_CODE": 5902, "GEOSET": "GAUL", "GEOSET_YEAR": 1997.0, "GEOSET_VERSION": "GAUL_v1", "GEOSET_UNIT": "ADM2", "CENTROID_LONG": 1.9674858333410534, "CENTROID_LAT": 6.8649217271411702 }, "geometry": { "type": "MultiPolygon", "coordinates": [ [ [ [ 1.967306, 6.9975562 ], [ 1.99022, 6.924367 ], [ 2.030247, 6.9135871 ], [ 2.0843091, 6.9316669 ], [ 2.099669, 6.893425 ], [ 2.0686851, 6.8674331 ], [ 2.0336421, 6.732244 ], [ 2.033108, 6.7232609 ], [ 1.921119, 6.778563 ], [ 1.851033, 6.8324628 ], [ 1.873243, 6.9073982 ], [ 1.865193, 6.9358521 ], [ 1.914251, 6.9621701 ], [ 1.933471, 7.0284228 ], [ 1.967306, 6.9975562 ] ] ] ] } },
{ "type": "Feature", "properties": { "POLYGON_ID": "BEN_GAUL1997_ADM2_5903", "ADM0_ISO3": "BEN", "ADM0_NAME": "Benin", "ADM0_CODE": 29, "ADM1_NAME": "Mono", "ADM1_CODE": 112866, "ADM2_NAME": "Toviklin", "ADM2_CODE": 5903, "GEOSET": "GAUL", "GEOSET_YEAR": 1997.0, "GEOSET_VERSION": "GAUL_v1", "GEOSET_UNIT": "ADM2", "CENTROID_LONG": 1.8152364820681839, "CENTROID_LAT": 6.8959951355506544 }, "geometry": { "type": "MultiPolygon", "coordinates": [ [ [ [ 1.865193, 6.9358521 ], [ 1.873243, 6.9073982 ], [ 1.851033, 6.8324628 ], [ 1.770023, 6.8528848 ], [ 1.7604181, 6.9554791 ], [ 1.865193, 6.9358521 ] ] ] ] } },
{ "type": "Feature", "properties": { "POLYGON_ID": "BEN_GAUL1997_ADM2_5904", "ADM0_ISO3": "BEN", "ADM0_NAME": "Benin", "ADM0_CODE": 29, "ADM1_NAME": "Atakora", "ADM1_CODE": 112863, "ADM2_NAME": "Bassila", "ADM2_CODE": 5904, "GEOSET": "GAUL", "GEOSET_YEAR": 1997.0, "GEOSET_VERSION": "GAUL_v1", "GEOSET_UNIT": "ADM2", "CENTROID_LONG": 1.8603747305019664, "CENTROID_LAT": 8.9668538132593643 }, "geometry": { "type": "MultiPolygon", "coordinates": [ [ [ [ 1.539355, 9.4594812 ], [ 1.591668, 9.3981133 ], [ 1.6605181, 9.3903408 ], [ 1.773716, 9.4382124 ], [ 1.865309, 9.3931923 ], [ 1.922603, 9.3882256 ], [ 1.972545, 9.3533192 ], [ 1.963434, 9.2595596 ], [ 1.9876159, 9.1266975 ], [ 2.072207, 9.0740404 ], [ 2.182869, 9.0729303 ], [ 2.2203259, 9.0530682 ], [ 2.186981, 8.9508886 ], [ 2.2268119, 8.8688192 ], [ 2.185246, 8.7641821 ], [ 2.224417, 8.6464796 ], [ 2.2094409, 8.5580797 ], [ 2.222868, 8.5099058 ], [ 2.156275, 8.5094233 ], [ 2.12325, 8.4779835 ], [ 2.0930669, 8.4995937 ], [ 1.992833, 8.5078039 ], [ 1.91164, 8.5514231 ], [ 1.817044, 8.6217794 ], [ 1.762561, 8.6271238 ], [ 1.733802, 8.605072 ], [ 1.6301632, 8.5936966 ], [ 1.63311, 8.79376 ], [ 1.62974, 8.99912 ], [ 1.6175996, 9.0709208 ], [ 1.5591198, 9.1701502 ], [ 1.52597, 9.1907 ], [ 1.4500817, 9.2789373 ], [ 1.4312335, 9.2978135 ], [ 1.40312, 9.35491 ], [ 1.401588, 9.4135214 ], [ 1.440695, 9.388011 ], [ 1.539355, 9.4594812 ] ] ] ] } },
{ "type": "Feature", "properties": { "POLYGON_ID": "BEN_GAUL1997_ADM2_5905", "ADM0_ISO3": "BEN", "ADM0_NAME": "Benin", "ADM0_CODE": 29, "ADM1_NAME": "Atakora", "ADM1_CODE": 112863, "ADM2_NAME": "Djougou", "ADM2_CODE": 5905, "GEOSET": "GAUL", "GEOSET_YEAR": 1997.0, "GEOSET_VERSION": "GAUL_v1", "GEOSET_UNIT": "ADM2", "CENTROID_LONG": 1.852184379746096, "CENTROID_LAT": 9.6761458838960355 }, "geometry": { "type": "MultiPolygon", "coordinates": [ [ [ [ 2.0695651, 10.0349464 ], [ 2.0822041, 9.956027 ], [ 2.091639, 9.8955841 ], [ 2.0513051, 9.8490953 ], [ 2.0854449, 9.7866669 ], [ 2.1042991, 9.718524 ], [ 2.15974, 9.685915 ], [ 2.101994, 9.3702936 ], [ 2.0494111, 9.3547182 ], [ 1.972545, 9.3533192 ], [ 1.922603, 9.3882256 ], [ 1.865309, 9.3931923 ], [ 1.773716, 9.4382124 ], [ 1.6605181, 9.3903408 ], [ 1.591668, 9.3981133 ], [ 1.539355, 9.4594812 ], [ 1.536064, 9.5311022 ], [ 1.575809, 9.569726 ], [ 1.491797, 9.6338968 ], [ 1.462193, 9.7205076 ], [ 1.499076, 9.7469492 ], [ 1.539784, 9.7379837 ], [ 1.66601, 9.8001194 ], [ 1.737101, 9.8601933 ], [ 1.74728, 10.0366526 ], [ 1.769385, 10.0394306 ], [ 1.9746979, 10.039216 ], [ 2.0209551, 10.0215483 ], [ 2.0695651, 10.0349464 ] ] ] ] } },
{ "type": "Feature", "properties": { "POLYGON_ID": "BEN_GAUL1997_ADM2_5906", "ADM0_ISO3": "BEN", "ADM0_NAME": "Benin", "ADM0_CODE": 29, "ADM1_NAME": "Atakora", "ADM1_CODE": 112863, "ADM2_NAME": "Kopargo", "ADM2_CODE": 5906, "GEOSET": "GAUL", "GEOSET_YEAR": 1997.0, "GEOSET_VERSION": "GAUL_v1", "GEOSET_UNIT": "ADM2", "CENTROID_LONG": 1.5401043601602669, "CENTROID_LAT": 9.8752424401317818 }, "geometry": { "type": "MultiPolygon", "coordinates": [ [ [ [ 1.462193, 9.7205076 ], [ 1.409202, 9.8213911 ], [ 1.3619885, 9.8280792 ], [ 1.358724, 9.9138926 ], [ 1.3552, 9.9999999 ], [ 1.3797961, 10.0003004 ], [ 1.5046999, 9.973383 ], [ 1.544036, 9.9408331 ], [ 1.655377, 9.94034 ], [ 1.74728, 10.0366526 ], [ 1.737101, 9.8601933 ], [ 1.66601, 9.8001194 ], [ 1.539784, 9.7379837 ], [ 1.499076, 9.7469492 ], [ 1.462193, 9.7205076 ] ] ] ] } },
{ "type": "Feature", "properties": { "POLYGON_ID": "BEN_GAUL1997_ADM2_5907", "ADM0_ISO3": "BEN", "ADM0_NAME": "Benin", "ADM0_CODE": 29, "ADM1_NAME": "Atakora", "ADM1_CODE": 112863, "ADM2_NAME": "Ouake", "ADM2_CODE": 5907, "GEOSET": "GAUL", "GEOSET_YEAR": 1997.0, "GEOSET_VERSION": "GAUL_v1", "GEOSET_UNIT": "ADM2", "CENTROID_LONG": 1.4379141410679357, "CENTROID_LAT": 9.585876022637084 }, "geometry": { "type": "MultiPolygon", "coordinates": [ [ [ [ 1.462193, 9.7205076 ], [ 1.491797, 9.6338968 ], [ 1.575809, 9.569726 ], [ 1.536064, 9.5311022 ], [ 1.539355, 9.4594812 ], [ 1.440695, 9.388011 ], [ 1.401588, 9.4135214 ], [ 1.4013357, 9.4254088 ], [ 1.3623927, 9.4859798 ], [ 1.34159, 9.54626 ], [ 1.36606, 9.61139 ], [ 1.3619885, 9.8280792 ], [ 1.409202, 9.8213911 ], [ 1.462193, 9.7205076 ] ] ] ] } },
{ "type": "Feature", "properties": { "POLYGON_ID": "BEN_GAUL1997_ADM2_5908", "ADM0_ISO3": "BEN", "ADM0_NAME": "Benin", "ADM0_CODE": 29, "ADM1_NAME": "Atlantique", "ADM1_CODE": 112864, "ADM2_NAME": "Cotonou", "ADM2_CODE": 5908, "GEOSET": "GAUL", "GEOSET_YEAR": 1997.0, "GEOSET_VERSION": "GAUL_v1", "GEOSET_UNIT": "ADM2", "CENTROID_LONG": 2.412543105826165, "CENTROID_LAT": 6.3692810197364906 }, "geometry": { "type": "MultiPolygon", "coordinates": [ [ [ [ 2.4978774, 6.3600996 ], [ 2.4499117, 6.3546968 ], [ 2.4452479, 6.3961424 ], [ 2.4978774, 6.3600996 ] ] ], [ [ [ 2.3591526, 6.3492223 ], [ 2.3647717, 6.3962692 ], [ 2.4346867, 6.3888665 ], [ 2.428962, 6.3415228 ], [ 2.3591526, 6.3492223 ] ] ] ] } },
{ "type": "Feature", "properties": { "POLYGON_ID": "BEN_GAUL1997_ADM2_5909", "ADM0_ISO3": "BEN", "ADM0_NAME": "Benin", "ADM0_CODE": 29, "ADM1_NAME": "Mono", "ADM1_CODE": 112866, "ADM2_NAME": "Athieme", "ADM2_CODE": 5909, "GEOSET": "GAUL", "GEOSET_YEAR": 1997.0, "GEOSET_VERSION": "GAUL_v1", "GEOSET_UNIT": "ADM2", "CENTROID_LONG": 1.7037013261206682, "CENTROID_LAT": 6.5730171788268841 }, "geometry": { "type": "MultiPolygon", "coordinates": [ [ [ [ 1.7773041, 6.6120458 ], [ 1.760661, 6.5507269 ], [ 1.781095, 6.4771709 ], [ 1.7530231, 6.4500525 ], [ 1.69573, 6.50041 ], [ 1.70077, 6.53675 ], [ 1.6630089, 6.5838709 ], [ 1.6098, 6.60582 ], [ 1.6028349, 6.6662851 ], [ 1.661921, 6.6713409 ], [ 1.686591, 6.625535 ], [ 1.7773041, 6.6120458 ] ] ] ] } },
{ "type": "Feature", "properties": { "POLYGON_ID": "BEN_GAUL1997_ADM2_5910", "ADM0_ISO3": "BEN", "ADM0_NAME": "Benin", "ADM0_CODE": 29, "ADM1_NAME": "Mono", "ADM1_CODE": 112866, "ADM2_NAME": "Bopa", "ADM2_CODE": 5910, "GEOSET": "GAUL", "GEOSET_YEAR": 1997.0, "GEOSET_VERSION": "GAUL_v1", "GEOSET_UNIT": "ADM2", "CENTROID_LONG": 1.9294302416503926, "CENTROID_LAT": 6.664682614489073 }, "geometry": { "type": "MultiPolygon", "coordinates": [ [ [ [ 1.921119, 6.778563 ], [ 2.033108, 6.7232609 ], [ 1.986587, 6.6270881 ], [ 1.974679, 6.4872961 ], [ 1.944128, 6.502646 ], [ 1.95214, 6.5243888 ], [ 1.880053, 6.6229882 ], [ 1.823503, 6.6653681 ], [ 1.8249, 6.7207971 ], [ 1.902344, 6.7670612 ], [ 1.921119, 6.778563 ] ] ] ] } },
{ "type": "Feature", "properties": { "POLYGON_ID": "BEN_GAUL1997_ADM2_5911", "ADM0_ISO3": "BEN", "ADM0_NAME": "Benin", "ADM0_CODE": 29, "ADM1_NAME": "Mono", "ADM1_CODE": 112866, "ADM2_NAME": "Come", "ADM2_CODE": 5911, "GEOSET": "GAUL", "GEOSET_YEAR": 1997.0, "GEOSET_VERSION": "GAUL_v1", "GEOSET_UNIT": "ADM2", "CENTROID_LONG": 1.902325906116896, "CENTROID_LAT": 6.4261951435720013 }, "geometry": { "type": "MultiPolygon", "coordinates": [ [ [ [ 1.944128, 6.502646 ], [ 1.974679, 6.4872961 ], [ 1.943691, 6.41677 ], [ 1.960806, 6.3451838 ], [ 1.932925, 6.363399 ], [ 1.832715, 6.3748412 ], [ 1.8221231, 6.440392 ], [ 1.84428, 6.437748 ], [ 1.918761, 6.503262 ], [ 1.944128, 6.502646 ] ] ] ] } },
{ "type": "Feature", "properties": { "POLYGON_ID": "BEN_GAUL1997_ADM2_5912", "ADM0_ISO3": "BEN", "ADM0_NAME": "Benin", "ADM0_CODE": 29, "ADM1_NAME": "Mono", "ADM1_CODE": 112866, "ADM2_NAME": "Grand-popo", "ADM2_CODE": 5912, "GEOSET": "GAUL", "GEOSET_YEAR": 1997.0, "GEOSET_VERSION": "GAUL_v1", "GEOSET_UNIT": "ADM2", "CENTROID_LONG": 1.8348712216771117, "CENTROID_LAT": 6.3504212374570583 }, "geometry": { "type": "MultiPolygon", "coordinates": [ [ [ [ 1.960806, 6.3451838 ], [ 1.975974, 6.3101403 ], [ 1.8951495, 6.3168682 ], [ 1.847214, 6.283275 ], [ 1.6287392, 6.23453 ], [ 1.7699, 6.28216 ], [ 1.79933, 6.28056 ], [ 1.7731, 6.41973 ], [ 1.7530231, 6.4500525 ], [ 1.781095, 6.4771709 ], [ 1.8221231, 6.440392 ], [ 1.832715, 6.3748412 ], [ 1.932925, 6.363399 ], [ 1.960806, 6.3451838 ] ] ] ] } },
{ "type": "Feature", "properties": { "POLYGON_ID": "BEN_GAUL1997_ADM2_5913", "ADM0_ISO3": "BEN", "ADM0_NAME": "Benin", "ADM0_CODE": 29, "ADM1_NAME": "Mono", "ADM1_CODE": 112866, "ADM2_NAME": "Houeyogbe", "ADM2_CODE": 5913, "GEOSET": "GAUL", "GEOSET_YEAR": 1997.0, "GEOSET_VERSION": "GAUL_v1", "GEOSET_UNIT": "ADM2", "CENTROID_LONG": 1.8439593822079203, "CENTROID_LAT": 6.5458859265280465 }, "geometry": { "type": "MultiPolygon", "coordinates": [ [ [ [ 1.944128, 6.502646 ], [ 1.918761, 6.503262 ], [ 1.84428, 6.437748 ], [ 1.8221231, 6.440392 ], [ 1.781095, 6.4771709 ], [ 1.760661, 6.5507269 ], [ 1.7773041, 6.6120458 ], [ 1.823503, 6.6653681 ], [ 1.880053, 6.6229882 ], [ 1.95214, 6.5243888 ], [ 1.944128, 6.502646 ] ] ] ] } },
{ "type": "Feature", "properties": { "POLYGON_ID": "BEN_GAUL1997_ADM2_5914", "ADM0_ISO3": "BEN", "ADM0_NAME": "Benin", "ADM0_CODE": 29, "ADM1_NAME": "Mono", "ADM1_CODE": 112866, "ADM2_NAME": "Lokossa", "ADM2_CODE": 5914, "GEOSET": "GAUL", "GEOSET_YEAR": 1997.0, "GEOSET_VERSION": "GAUL_v1", "GEOSET_UNIT": "ADM2", "CENTROID_LONG": 1.7410167671122914, "CENTROID_LAT": 6.6883882634118326 }, "geometry": { "type": "MultiPolygon", "coordinates": [ [ [ [ 1.902344, 6.7670612 ], [ 1.8249, 6.7207971 ], [ 1.823503, 6.6653681 ], [ 1.7773041, 6.6120458 ], [ 1.686591, 6.625535 ], [ 1.661921, 6.6713409 ], [ 1.6028349, 6.6662851 ], [ 1.5915549, 6.7129045 ], [ 1.75212, 6.7247958 ], [ 1.839896, 6.771348 ], [ 1.902344, 6.7670612 ] ] ] ] } },
{ "type": "Feature", "properties": { "POLYGON_ID": "BEN_GAUL1997_ADM2_5915", "ADM0_ISO3": "BEN", "ADM0_NAME": "Benin", "ADM0_CODE": 29, "ADM1_NAME": "Oueme", "ADM1_CODE": 112867, "ADM2_NAME": "Adjara", "ADM2_CODE": 5915, "GEOSET": "GAUL", "GEOSET_YEAR": 1997.0, "GEOSET_VERSION": "GAUL_v1", "GEOSET_UNIT": "ADM2", "CENTROID_LONG": 2.6784778533301945, "CENTROID_LAT": 6.4836451433212634 }, "geometry": { "type": "MultiPolygon", "coordinates": [ [ [ [ 2.699121, 6.514307 ], [ 2.720289, 6.507771 ], [ 2.71833, 6.47661 ], [ 2.71743, 6.47075 ], [ 2.70628, 6.42561 ], [ 2.658622, 6.4436002 ], [ 2.6300869, 6.5117912 ], [ 2.657608, 6.5389228 ], [ 2.699121, 6.514307 ] ] ] ] } },
{ "type": "Feature", "properties": { "POLYGON_ID": "BEN_GAUL1997_ADM2_5916", "ADM0_ISO3": "BEN", "ADM0_NAME": "Benin", "ADM0_CODE": 29, "ADM1_NAME": "Oueme", "ADM1_CODE": 112867, "ADM2_NAME": "Adjohoun", "ADM2_CODE": 5916, "GEOSET": "GAUL", "GEOSET_YEAR": 1997.0, "GEOSET_VERSION": "GAUL_v1", "GEOSET_UNIT": "ADM2", "CENTROID_LONG": 2.4983027316645794, "CENTROID_LAT": 6.7091803448650973 }, "geometry": { "type": "MultiPolygon", "coordinates": [ [ [ [ 2.579742, 6.792254 ], [ 2.5727601, 6.6429009 ], [ 2.564182, 6.6337481 ], [ 2.529233, 6.6179481 ], [ 2.415396, 6.6333961 ], [ 2.410883, 6.6854692 ], [ 2.4362991, 6.7465072 ], [ 2.418793, 6.7966919 ], [ 2.579742, 6.792254 ] ] ] ] } },
{ "type": "Feature", "properties": { "POLYGON_ID": "BEN_GAUL1997_ADM2_5918", "ADM0_ISO3": "BEN", "ADM0_NAME": "Benin", "ADM0_CODE": 29, "ADM1_NAME": "Oueme", "ADM1_CODE": 112867, "ADM2_NAME": "Akpro-misserete", "ADM2_CODE": 5918, "GEOSET": "GAUL", "GEOSET_YEAR": 1997.0, "GEOSET_VERSION": "GAUL_v1", "GEOSET_UNIT": "ADM2", "CENTROID_LONG": 2.5875464515540476, "CENTROID_LAT": 6.5724990618035708 }, "geometry": { "type": "MultiPolygon", "coordinates": [ [ [ [ 2.6287811, 6.6252608 ], [ 2.6039701, 6.5762 ], [ 2.6101401, 6.5277519 ], [ 2.580482, 6.4960842 ], [ 2.5492539, 6.525105 ], [ 2.5758929, 6.5760779 ], [ 2.564182, 6.6337481 ], [ 2.5727601, 6.6429009 ], [ 2.6287811, 6.6252608 ] ] ] ] } },
{ "type": "Feature", "properties": { "POLYGON_ID": "BEN_GAUL1997_ADM2_5919", "ADM0_ISO3": "BEN", "ADM0_NAME": "Benin", "ADM0_CODE": 29, "ADM1_NAME": "Oueme", "ADM1_CODE": 112867, "ADM2_NAME": "Avrankou", "ADM2_CODE": 5919, "GEOSET": "GAUL", "GEOSET_YEAR": 1997.0, "GEOSET_VERSION": "GAUL_v1", "GEOSET_UNIT": "ADM2", "CENTROID_LONG": 2.6465324692119627, "CENTROID_LAT": 6.5654121763909217 }, "geometry": { "type": "MultiPolygon", "coordinates": [ [ [ [ 2.6558909, 6.6163869 ], [ 2.6922369, 6.5605402 ], [ 2.699121, 6.514307 ], [ 2.657608, 6.5389228 ], [ 2.6300869, 6.5117912 ], [ 2.6101401, 6.5277519 ], [ 2.6039701, 6.5762 ], [ 2.6287811, 6.6252608 ], [ 2.6558909, 6.6163869 ] ] ] ] } },
{ "type": "Feature", "properties": { "POLYGON_ID": "BEN_GAUL1997_ADM2_5920", "ADM0_ISO3": "BEN", "ADM0_NAME": "Benin", "ADM0_CODE": 29, "ADM1_NAME": "Oueme", "ADM1_CODE": 112867, "ADM2_NAME": "Bonou", "ADM2_CODE": 5920, "GEOSET": "GAUL", "GEOSET_YEAR": 1997.0, "GEOSET_VERSION": "GAUL_v1", "GEOSET_UNIT": "ADM2", "CENTROID_LONG": 2.4796148532157312, "CENTROID_LAT": 6.8669160364535013 }, "geometry": { "type": "MultiPolygon", "coordinates": [ [ [ [ 2.507843, 6.9607 ], [ 2.5057819, 6.8971481 ], [ 2.55441, 6.8642669 ], [ 2.579742, 6.792254 ], [ 2.418793, 6.7966919 ], [ 2.41011, 6.9551792 ], [ 2.507843, 6.9607 ] ] ] ] } },
{ "type": "Feature", "properties": { "POLYGON_ID": "BEN_GAUL1997_ADM2_5921", "ADM0_ISO3": "BEN", "ADM0_NAME": "Benin", "ADM0_CODE": 29, "ADM1_NAME": "Oueme", "ADM1_CODE": 112867, "ADM2_NAME": "Dangbo", "ADM2_CODE": 5921, "GEOSET": "GAUL", "GEOSET_YEAR": 1997.0, "GEOSET_VERSION": "GAUL_v1", "GEOSET_UNIT": "ADM2", "CENTROID_LONG": 2.4987834179756985, "CENTROID_LAT": 6.5786354378445102 }, "geometry": { "type": "MultiPolygon", "coordinates": [ [ [ [ 2.5492539, 6.525105 ], [ 2.5006471, 6.5172248 ], [ 2.435303, 6.548737 ], [ 2.415396, 6.6333961 ], [ 2.529233, 6.6179481 ], [ 2.564182, 6.6337481 ], [ 2.5758929, 6.5760779 ], [ 2.5492539, 6.525105 ] ] ] ] } },
{ "type": "Feature", "properties": { "POLYGON_ID": "BEN_GAUL1997_ADM2_5922", "ADM0_ISO3": "BEN", "ADM0_NAME": "Benin", "ADM0_CODE": 29, "ADM1_NAME": "Oueme", "ADM1_CODE": 112867, "ADM2_NAME": "Porto-novo", "ADM2_CODE": 5922, "GEOSET": "GAUL", "GEOSET_YEAR": 1997.0, "GEOSET_VERSION": "GAUL_v1", "GEOSET_UNIT": "ADM2", "CENTROID_LONG": 2.6158371827533271, "CENTROID_LAT": 6.4798851069572603 }, "geometry": { "type": "MultiPolygon", "coordinates": [ [ [ [ 2.6300869, 6.5117912 ], [ 2.658622, 6.4436002 ], [ 2.590838, 6.4502091 ], [ 2.580482, 6.4960842 ], [ 2.6101401, 6.5277519 ], [ 2.6300869, 6.5117912 ] ] ] ] } },
{ "type": "Feature", "properties": { "POLYGON_ID": "BEN_GAUL1997_ADM2_5923", "ADM0_ISO3": "BEN", "ADM0_NAME": "Benin", "ADM0_CODE": 29, "ADM1_NAME": "Oueme", "ADM1_CODE": 112867, "ADM2_NAME": "Seme-kpodji", "ADM2_CODE": 5923, "GEOSET": "GAUL", "GEOSET_YEAR": 1997.0, "GEOSET_VERSION": "GAUL_v1", "GEOSET_UNIT": "ADM2", "CENTROID_LONG": 2.602545959854055, "CENTROID_LAT": 6.4014448711739131 }, "geometry": { "type": "MultiPolygon", "coordinates": [ [ [ [ 2.70628, 6.42561 ], [ 2.7066004, 6.4230325 ], [ 2.7083, 6.40936 ], [ 2.7093835, 6.3756761 ], [ 2.4978774, 6.3600996 ], [ 2.4452479, 6.3961424 ], [ 2.499184, 6.384077 ], [ 2.5431363, 6.4264801 ], [ 2.590838, 6.4502091 ], [ 2.658622, 6.4436002 ], [ 2.70628, 6.42561 ] ] ] ] } },
{ "type": "Feature", "properties": { "POLYGON_ID": "BEN_GAUL1997_ADM2_5924", "ADM0_ISO3": "BEN", "ADM0_NAME": "Benin", "ADM0_CODE": 29, "ADM1_NAME": "Oueme", "ADM1_CODE": 112867, "ADM2_NAME": "Adja-ouere", "ADM2_CODE": 5924, "GEOSET": "GAUL", "GEOSET_YEAR": 1997.0, "GEOSET_VERSION": "GAUL_v1", "GEOSET_UNIT": "ADM2", "CENTROID_LONG": 2.5962939298619387, "CENTROID_LAT": 6.9928242509598846 }, "geometry": { "type": "MultiPolygon", "coordinates": [ [ [ [ 2.6010749, 7.1837969 ], [ 2.631217, 7.1722522 ], [ 2.5923431, 7.092648 ], [ 2.628159, 7.044579 ], [ 2.6540909, 6.957736 ], [ 2.7188938, 6.9533314 ], [ 2.72694, 6.93042 ], [ 2.7464315, 6.9284373 ], [ 2.7478728, 6.9282907 ], [ 2.7005579, 6.901598 ], [ 2.6624401, 6.852469 ], [ 2.610275, 6.8711548 ], [ 2.55441, 6.8642669 ], [ 2.5057819, 6.8971481 ], [ 2.507843, 6.9607 ], [ 2.5541019, 6.9989119 ], [ 2.551928, 7.056426 ], [ 2.518208, 7.1706729 ], [ 2.5371406, 7.1867294 ], [ 2.6010749, 7.1837969 ] ] ] ] } },
{ "type": "Feature", "properties": { "POLYGON_ID": "BEN_GAUL1997_ADM2_5925", "ADM0_ISO3": "BEN", "ADM0_NAME": "Benin", "ADM0_CODE": 29, "ADM1_NAME": "Oueme", "ADM1_CODE": 112867, "ADM2_NAME": "Ifangni", "ADM2_CODE": 5925, "GEOSET": "GAUL", "GEOSET_YEAR": 1997.0, "GEOSET_VERSION": "GAUL_v1", "GEOSET_UNIT": "ADM2", "CENTROID_LONG": 2.7184026688525793, "CENTROID_LAT": 6.6494470778502413 }, "geometry": { "type": "MultiPolygon", "coordinates": [ [ [ [ 2.720289, 6.507771 ], [ 2.699121, 6.514307 ], [ 2.6922369, 6.5605402 ], [ 2.6558909, 6.6163869 ], [ 2.6637349, 6.6945271 ], [ 2.7001481, 6.7319131 ], [ 2.77871, 6.7592 ], [ 2.7888375, 6.7494611 ], [ 2.7895, 6.74813 ], [ 2.78659, 6.69479 ], [ 2.73142, 6.63079 ], [ 2.7508427, 6.5740621 ], [ 2.75312, 6.57047 ], [ 2.751416, 6.5617503 ], [ 2.72933, 6.53443 ], [ 2.7257513, 6.5282021 ], [ 2.720289, 6.507771 ] ] ] ] } },
{ "type": "Feature", "properties": { "POLYGON_ID": "BEN_GAUL1997_ADM2_5926", "ADM0_ISO3": "BEN", "ADM0_NAME": "Benin", "ADM0_CODE": 29, "ADM1_NAME": "Oueme", "ADM1_CODE": 112867, "ADM2_NAME": "Ketou", "ADM2_CODE": 5926, "GEOSET": "GAUL", "GEOSET_YEAR": 1997.0, "GEOSET_VERSION": "GAUL_v1", "GEOSET_UNIT": "ADM2", "CENTROID_LONG": 2.6046814039128927, "CENTROID_LAT": 7.440755737796219 }, "geometry": { "type": "MultiPolygon", "coordinates": [ [ [ [ 2.7800867, 7.2018034 ], [ 2.635474, 7.2061248 ], [ 2.6010749, 7.1837969 ], [ 2.5371406, 7.1867294 ], [ 2.5021329, 7.2527852 ], [ 2.439755, 7.3139901 ], [ 2.427346, 7.4108572 ], [ 2.4055099, 7.4427691 ], [ 2.465976, 7.5584888 ], [ 2.462033, 7.6097932 ], [ 2.4871359, 7.6856012 ], [ 2.7294527, 7.6897569 ], [ 2.7287357, 7.6823744 ], [ 2.72539, 7.64797 ], [ 2.7293197, 7.5930797 ], [ 2.73029, 7.58017 ], [ 2.7477, 7.54704 ], [ 2.74607, 7.54015 ], [ 2.74949, 7.5275 ], [ 2.7520035, 7.524539 ], [ 2.7580186, 7.5202604 ], [ 2.76213, 7.51897 ], [ 2.795301, 7.4891245 ], [ 2.79819, 7.48255 ], [ 2.79968, 7.43797 ], [ 2.7995394, 7.4346725 ], [ 2.79919, 7.42648 ], [ 2.7583338, 7.4176499 ], [ 2.75702, 7.41718 ], [ 2.7474468, 7.3684591 ], [ 2.74744, 7.36596 ], [ 2.7493872, 7.2651086 ], [ 2.74946, 7.26115 ], [ 2.7500173, 7.259356 ], [ 2.76209, 7.24825 ], [ 2.7692538, 7.2401024 ], [ 2.7800867, 7.2018034 ] ] ] ] } },
{ "type": "Feature", "properties": { "POLYGON_ID": "BEN_GAUL1997_ADM2_5927", "ADM0_ISO3": "BEN", "ADM0_NAME": "Benin", "ADM0_CODE": 29, "ADM1_NAME": "Oueme", "ADM1_CODE": 112867, "ADM2_NAME": "Pobe", "ADM2_CODE": 5927, "GEOSET": "GAUL", "GEOSET_YEAR": 1997.0, "GEOSET_VERSION": "GAUL_v1", "GEOSET_UNIT": "ADM2", "CENTROID_LONG": 2.6944059440856485, "CENTROID_LAT": 7.0933139203163655 }, "geometry": { "type": "MultiPolygon", "coordinates": [ [ [ [ 2.7800867, 7.2018034 ], [ 2.78355, 7.18245 ], [ 2.783607, 7.1814763 ], [ 2.7848692, 7.1592273 ], [ 2.77534, 7.12822 ], [ 2.7703386, 7.1212626 ], [ 2.76712, 7.06526 ], [ 2.7785575, 7.0562812 ], [ 2.7874758, 7.0471932 ], [ 2.7925992, 7.0412795 ], [ 2.75295, 7.01932 ], [ 2.7493565, 7.0167696 ], [ 2.7188938, 6.9533314 ], [ 2.6540909, 6.957736 ], [ 2.628159, 7.044579 ], [ 2.5923431, 7.092648 ], [ 2.631217, 7.1722522 ], [ 2.6010749, 7.1837969 ], [ 2.635474, 7.2061248 ], [ 2.7800867, 7.2018034 ] ] ] ] } },
{ "type": "Feature", "properties": { "POLYGON_ID": "BEN_GAUL1997_ADM2_5928", "ADM0_ISO3": "BEN", "ADM0_NAME": "Benin", "ADM0_CODE": 29, "ADM1_NAME": "Oueme", "ADM1_CODE": 112867, "ADM2_NAME": "Sakete", "ADM2_CODE": 5928, "GEOSET": "GAUL", "GEOSET_YEAR": 1997.0, "GEOSET_VERSION": "GAUL_v1", "GEOSET_UNIT": "ADM2", "CENTROID_LONG": 2.6531489899154233, "CENTROID_LAT": 6.7760632242533676 }, "geometry": { "type": "MultiPolygon", "coordinates": [ [ [ [ 2.77871, 6.7592 ], [ 2.7001481, 6.7319131 ], [ 2.6637349, 6.6945271 ], [ 2.6558909, 6.6163869 ], [ 2.6287811, 6.6252608 ], [ 2.5727601, 6.6429009 ], [ 2.579742, 6.792254 ], [ 2.55441, 6.8642669 ], [ 2.610275, 6.8711548 ], [ 2.6624401, 6.852469 ], [ 2.7005579, 6.901598 ], [ 2.7478728, 6.9282907 ], [ 2.74788, 6.92829 ], [ 2.7506756, 6.9160677 ], [ 2.75087, 6.89472 ], [ 2.7507908, 6.8925335 ], [ 2.75052, 6.88506 ], [ 2.74377, 6.85657 ], [ 2.7441729, 6.8523008 ], [ 2.74466, 6.84714 ], [ 2.73915, 6.76529 ], [ 2.7420005, 6.7644535 ], [ 2.74467, 6.76367 ], [ 2.75179, 6.75905 ], [ 2.76237, 6.75764 ], [ 2.77871, 6.7592 ] ] ] ] } },
{ "type": "Feature", "properties": { "POLYGON_ID": "BEN_GAUL1997_ADM2_5929", "ADM0_ISO3": "BEN", "ADM0_NAME": "Benin", "ADM0_CODE": 29, "ADM1_NAME": "Zou", "ADM1_CODE": 112868, "ADM2_NAME": "Abomey", "ADM2_CODE": 5929, "GEOSET": "GAUL", "GEOSET_YEAR": 1997.0, "GEOSET_VERSION": "GAUL_v1", "GEOSET_UNIT": "ADM2", "CENTROID_LONG": 1.9736835127746339, "CENTROID_LAT": 7.1859997878715047 }, "geometry": { "type": "MultiPolygon", "coordinates": [ [ [ [ 2.034075, 7.2189441 ], [ 2.030576, 7.15202 ], [ 1.9737901, 7.11976 ], [ 1.95186, 7.1552219 ], [ 1.901523, 7.1627111 ], [ 1.932954, 7.2437639 ], [ 2.034075, 7.2189441 ] ] ] ] } },
{ "type": "Feature", "properties": { "POLYGON_ID": "BEN_GAUL1997_ADM2_5930", "ADM0_ISO3": "BEN", "ADM0_NAME": "Benin", "ADM0_CODE": 29, "ADM1_NAME": "Zou", "ADM1_CODE": 112868, "ADM2_NAME": "Agbangnizoun", "ADM2_CODE": 5930, "GEOSET": "GAUL", "GEOSET_YEAR": 1997.0, "GEOSET_VERSION": "GAUL_v1", "GEOSET_UNIT": "ADM2", "CENTROID_LONG": 1.9581177573840014, "CENTROID_LAT": 7.0916624368331691 }, "geometry": { "type": "MultiPolygon", "coordinates": [ [ [ [ 2.030576, 7.15202 ], [ 2.0574019, 7.1324029 ], [ 2.014065, 7.0297942 ], [ 1.967306, 6.9975562 ], [ 1.933471, 7.0284228 ], [ 1.877274, 7.0916781 ], [ 1.855858, 7.1443658 ], [ 1.901523, 7.1627111 ], [ 1.95186, 7.1552219 ], [ 1.9737901, 7.11976 ], [ 2.030576, 7.15202 ] ] ] ] } },
{ "type": "Feature", "properties": { "POLYGON_ID": "BEN_GAUL1997_ADM2_5931", "ADM0_ISO3": "BEN", "ADM0_NAME": "Benin", "ADM0_CODE": 29, "ADM1_NAME": "Zou", "ADM1_CODE": 112868, "ADM2_NAME": "Bohicon", "ADM2_CODE": 5931, "GEOSET": "GAUL", "GEOSET_YEAR": 1997.0, "GEOSET_VERSION": "GAUL_v1", "GEOSET_UNIT": "ADM2", "CENTROID_LONG": 2.1001867072091907, "CENTROID_LAT": 7.1768699968783833 }, "geometry": { "type": "MultiPolygon", "coordinates": [ [ [ [ 2.2004361, 7.123672 ], [ 2.0574019, 7.1324029 ], [ 2.030576, 7.15202 ], [ 2.034075, 7.2189441 ], [ 2.083585, 7.2742682 ], [ 2.107636, 7.1904831 ], [ 2.172981, 7.1885619 ], [ 2.2004361, 7.123672 ] ] ] ] } },
{ "type": "Feature", "properties": { "POLYGON_ID": "BEN_GAUL1997_ADM2_5932", "ADM0_ISO3": "BEN", "ADM0_NAME": "Benin", "ADM0_CODE": 29, "ADM1_NAME": "Zou", "ADM1_CODE": 112868, "ADM2_NAME": "Cove", "ADM2_CODE": 5932, "GEOSET": "GAUL", "GEOSET_YEAR": 1997.0, "GEOSET_VERSION": "GAUL_v1", "GEOSET_UNIT": "ADM2", "CENTROID_LONG": 2.2826868179371069, "CENTROID_LAT": 7.3356869660771666 }, "geometry": { "type": "MultiPolygon", "coordinates": [ [ [ [ 2.272562, 7.5201278 ], [ 2.305444, 7.4457622 ], [ 2.3280649, 7.330183 ], [ 2.3223529, 7.2669172 ], [ 2.370307, 7.2349191 ], [ 2.3650551, 7.1551809 ], [ 2.3346131, 7.0832052 ], [ 2.3131599, 7.1213021 ], [ 2.26265, 7.2499719 ], [ 2.2382801, 7.3387332 ], [ 2.201299, 7.4890962 ], [ 2.1734641, 7.5390382 ], [ 2.133904, 7.5607882 ], [ 2.272562, 7.5201278 ] ] ] ] } },
{ "type": "Feature", "properties": { "POLYGON_ID": "BEN_GAUL1997_ADM2_5933", "ADM0_ISO3": "BEN", "ADM0_NAME": "Benin", "ADM0_CODE": 29, "ADM1_NAME": "Zou", "ADM1_CODE": 112868, "ADM2_NAME": "Djidja", "ADM2_CODE": 5933, "GEOSET": "GAUL", "GEOSET_YEAR": 1997.0, "GEOSET_VERSION": "GAUL_v1", "GEOSET_UNIT": "ADM2", "CENTROID_LONG": 1.9242735516067497, "CENTROID_LAT": 7.4368675495601639 }, "geometry": { "type": "MultiPolygon", "coordinates": [ [ [ [ 2.133904, 7.5607882 ], [ 2.1734641, 7.5390382 ], [ 2.201299, 7.4890962 ], [ 2.2382801, 7.3387332 ], [ 2.122318, 7.3345141 ], [ 2.083585, 7.2742682 ], [ 2.034075, 7.2189441 ], [ 1.932954, 7.2437639 ], [ 1.901523, 7.1627111 ], [ 1.855858, 7.1443658 ], [ 1.831633, 7.199296 ], [ 1.7960401, 7.2756839 ], [ 1.757107, 7.3107071 ], [ 1.713136, 7.4349771 ], [ 1.6756765, 7.4947 ], [ 1.65293, 7.53402 ], [ 1.65051, 7.61399 ], [ 1.63145, 7.6611107 ], [ 1.7386301, 7.6418099 ], [ 1.862102, 7.655159 ], [ 1.939971, 7.6411929 ], [ 1.986654, 7.5803609 ], [ 2.047123, 7.5587349 ], [ 2.133904, 7.5607882 ] ] ] ] } },
{ "type": "Feature", "properties": { "POLYGON_ID": "BEN_GAUL1997_ADM2_5934", "ADM0_ISO3": "BEN", "ADM0_NAME": "Benin", "ADM0_CODE": 29, "ADM1_NAME": "Zou", "ADM1_CODE": 112868, "ADM2_NAME": "Ouinhi", "ADM2_CODE": 5934, "GEOSET": "GAUL", "GEOSET_YEAR": 1997.0, "GEOSET_VERSION": "GAUL_v1", "GEOSET_UNIT": "ADM2", "CENTROID_LONG": 2.475541734082197, "CENTROID_LAT": 7.0674950787430788 }, "geometry": { "type": "MultiPolygon", "coordinates": [ [ [ [ 2.518208, 7.1706729 ], [ 2.551928, 7.056426 ], [ 2.5541019, 6.9989119 ], [ 2.507843, 6.9607 ], [ 2.41011, 6.9551792 ], [ 2.4009681, 6.9757829 ], [ 2.403883, 6.9969091 ], [ 2.4298601, 7.0540218 ], [ 2.4092791, 7.1044192 ], [ 2.410466, 7.1597371 ], [ 2.445576, 7.1988959 ], [ 2.518208, 7.1706729 ] ] ] ] } },
{ "type": "Feature", "properties": { "POLYGON_ID": "BEN_GAUL1997_ADM2_5935", "ADM0_ISO3": "BEN", "ADM0_NAME": "Benin", "ADM0_CODE": 29, "ADM1_NAME": "Zou", "ADM1_CODE": 112868, "ADM2_NAME": "Za-kpota", "ADM2_CODE": 5935, "GEOSET": "GAUL", "GEOSET_YEAR": 1997.0, "GEOSET_VERSION": "GAUL_v1", "GEOSET_UNIT": "ADM2", "CENTROID_LONG": 2.1955358516648467, "CENTROID_LAT": 7.2339407050881013 }, "geometry": { "type": "MultiPolygon", "coordinates": [ [ [ [ 2.2382801, 7.3387332 ], [ 2.26265, 7.2499719 ], [ 2.3131599, 7.1213021 ], [ 2.2004361, 7.123672 ], [ 2.172981, 7.1885619 ], [ 2.107636, 7.1904831 ], [ 2.083585, 7.2742682 ], [ 2.122318, 7.3345141 ], [ 2.2382801, 7.3387332 ] ] ] ] } },
{ "type": "Feature", "properties": { "POLYGON_ID": "BEN_GAUL1997_ADM2_5936", "ADM0_ISO3": "BEN", "ADM0_NAME": "Benin", "ADM0_CODE": 29, "ADM1_NAME": "Zou", "ADM1_CODE": 112868, "ADM2_NAME": "Zangnanado", "ADM2_CODE": 5936, "GEOSET": "GAUL", "GEOSET_YEAR": 1997.0, "GEOSET_VERSION": "GAUL_v1", "GEOSET_UNIT": "ADM2", "CENTROID_LONG": 2.3934680970300337, "CENTROID_LAT": 7.2716128409652905 }, "geometry": { "type": "MultiPolygon", "coordinates": [ [ [ [ 2.4055099, 7.4427691 ], [ 2.427346, 7.4108572 ], [ 2.439755, 7.3139901 ], [ 2.5021329, 7.2527852 ], [ 2.5371406, 7.1867294 ], [ 2.518208, 7.1706729 ], [ 2.445576, 7.1988959 ], [ 2.410466, 7.1597371 ], [ 2.4092791, 7.1044192 ], [ 2.4298601, 7.0540218 ], [ 2.403883, 6.9969091 ], [ 2.3346131, 7.0832052 ], [ 2.3650551, 7.1551809 ], [ 2.370307, 7.2349191 ], [ 2.3223529, 7.2669172 ], [ 2.3280649, 7.330183 ], [ 2.305444, 7.4457622 ], [ 2.272562, 7.5201278 ], [ 2.4055099, 7.4427691 ] ] ] ] } },
{ "type": "Feature", "properties": { "POLYGON_ID": "BEN_GAUL1997_ADM2_5937", "ADM0_ISO3": "BEN", "ADM0_NAME": "Benin", "ADM0_CODE": 29, "ADM1_NAME": "Zou", "ADM1_CODE": 112868, "ADM2_NAME": "Zogbodome", "ADM2_CODE": 5937, "GEOSET": "GAUL", "GEOSET_YEAR": 1997.0, "GEOSET_VERSION": "GAUL_v1", "GEOSET_UNIT": "ADM2", "CENTROID_LONG": 2.179585572950725, "CENTROID_LAT": 7.0221478805792827 }, "geometry": { "type": "MultiPolygon", "coordinates": [ [ [ [ 2.2004361, 7.123672 ], [ 2.3131599, 7.1213021 ], [ 2.3346131, 7.0832052 ], [ 2.403883, 6.9969091 ], [ 2.4009681, 6.9757829 ], [ 2.3364589, 6.9300871 ], [ 2.3180101, 6.9629879 ], [ 2.2531829, 6.9366579 ], [ 2.0843091, 6.9316669 ], [ 2.030247, 6.9135871 ], [ 1.99022, 6.924367 ], [ 1.967306, 6.9975562 ], [ 2.014065, 7.0297942 ], [ 2.0574019, 7.1324029 ], [ 2.2004361, 7.123672 ] ] ] ] } },
{ "type": "Feature", "properties": { "POLYGON_ID": "BEN_GAUL1997_ADM2_5917", "ADM0_ISO3": "BEN", "ADM0_NAME": "Benin", "ADM0_CODE": 29, "ADM1_NAME": "Oueme", "ADM1_CODE": 112867, "ADM2_NAME": "Aguegue", "ADM2_CODE": 5917, "GEOSET": "GAUL", "GEOSET_YEAR": 1997.0, "GEOSET_VERSION": "GAUL_v1", "GEOSET_UNIT": "ADM2", "CENTROID_LONG": 2.5440337497713528, "CENTROID_LAT": 6.4796246983879593 }, "geometry": { "type": "MultiPolygon", "coordinates": [ [ [ [ 2.580482, 6.4960842 ], [ 2.590838, 6.4502091 ], [ 2.5431363, 6.4264801 ], [ 2.4961573, 6.4890487 ], [ 2.5006471, 6.5172248 ], [ 2.5492539, 6.525105 ], [ 2.580482, 6.4960842 ] ] ] ] } }
]
}
