{
"type": "FeatureCollection",
"name": "BEN_GAUL2014_ADM1",
"crs": { "type": "name", "properties": { "name": "urn:ogc:def:crs:OGC:1.3:CRS84" } },
"features": [
{ "type": "Feature", "properties": { "POLYGON_ID": "BEN_GAUL2014_ADM1_609", "ADM0_ISO3": "BEN", "ADM0_NAME": "Benin", "ADM0_CODE": 29, "ADM1_NAME": "Alibori", "ADM1_CODE": 609, "GEOSET": "GAUL", "GEOSET_YEAR": 2014.0, "GEOSET_VERSION": "GAUL_v1", "GEOSET_UNIT": "ADM1", "CENTROID_LONG": 2.8993168895418155, "CENTROID_LAT": 11.323964861680345 }, "geometry": { "type": "MultiPolygon", "coordinates": [ [ [ [ 2.8430103, 12.4034966 ], [ 2.884444, 12.377222 ], [ 2.963056, 12.2875 ], [ 3.009722, 12.269444 ], [ 3.082222, 12.176667 ], [ 3.1277779, 12.1544422 ], [ 3.220278, 12.060833 ], [ 3.278333, 11.965556 ], [ 3.283333, 11.935278 ], [ 3.321389, 11.881667 ], [ 3.383611, 11.886389 ], [ 3.441111, 11.876944 ], [ 3.486667, 11.856944 ], [ 3.521111, 11.814722 ], [ 3.522778, 11.787778 ], [ 3.558611, 11.779167 ], [ 3.556389, 11.724167 ], [ 3.6050696, 11.6969703 ], [ 3.6046864, 11.696578 ], [ 3.60052, 11.69232 ], [ 3.6001319, 11.6919151 ], [ 3.60006, 11.69184 ], [ 3.5963015, 11.6841988 ], [ 3.59159, 11.67462 ], [ 3.5750186, 11.6535596 ], [ 3.55796, 11.63188 ], [ 3.47113, 11.44857 ], [ 3.5023458, 11.403269 ], [ 3.69193, 11.12814 ], [ 3.70846, 11.12807 ], [ 3.7138896, 11.1279147 ], [ 3.7209044, 11.1263174 ], [ 3.72591, 11.12409 ], [ 3.7272805, 11.1186081 ], [ 3.72402, 11.05742 ], [ 3.72117, 11.04295 ], [ 3.71718, 11.03469 ], [ 3.716992, 11.027741 ], [ 3.7169, 11.02434 ], [ 3.71899, 11.02318 ], [ 3.73016, 11.02153 ], [ 3.7362, 11.01898 ], [ 3.7413653, 11.0162099 ], [ 3.7666019, 10.9598556 ], [ 3.76758, 10.95079 ], [ 3.77118, 10.91904 ], [ 3.769, 10.89882 ], [ 3.76404, 10.88137 ], [ 3.760242, 10.8709236 ], [ 3.75486, 10.85612 ], [ 3.7492, 10.83752 ], [ 3.74938, 10.82556 ], [ 3.7506653, 10.8218825 ], [ 3.75284, 10.81566 ], [ 3.7566614, 10.8103166 ], [ 3.75746, 10.8092 ], [ 3.7582688, 10.8073696 ], [ 3.76092, 10.80137 ], [ 3.77248, 10.78454 ], [ 3.77848, 10.77256 ], [ 3.78445, 10.7546 ], [ 3.7952865, 10.7382812 ], [ 3.8032655, 10.730644 ], [ 3.81269, 10.72321 ], [ 3.8168432, 10.720992 ], [ 3.8331, 10.71231 ], [ 3.8409791, 10.7049209 ], [ 3.8423734, 10.6993041 ], [ 3.84395, 10.69295 ], [ 3.8463956, 10.669712 ], [ 3.84802, 10.66764 ], [ 3.8491267, 10.6477527 ], [ 3.497381, 10.6122561 ], [ 3.17977, 10.5393896 ], [ 2.8564329, 10.535655 ], [ 2.8132291, 10.5815878 ], [ 2.701726, 10.5637302 ], [ 2.6882329, 10.5299797 ], [ 2.5450101, 10.5299702 ], [ 2.4842539, 10.5615683 ], [ 2.4179189, 10.5647449 ], [ 2.4184561, 10.5317068 ], [ 2.241478, 10.5284929 ], [ 2.2406859, 10.8619614 ], [ 2.2571771, 10.8931751 ], [ 2.3355939, 10.9492378 ], [ 2.2904921, 10.981451 ], [ 2.2032559, 11.0103922 ], [ 2.01925, 11.42771 ], [ 2.18544, 11.59724 ], [ 2.21878, 11.60971 ], [ 2.25746, 11.64792 ], [ 2.30573, 11.67442 ], [ 2.29922, 11.72081 ], [ 2.34038, 11.78537 ], [ 2.3723699, 11.7931426 ], [ 2.37923, 11.85407 ], [ 2.4050759, 11.8997802 ], [ 2.4067598, 11.953027 ], [ 2.4372398, 11.9530961 ], [ 2.4655081, 11.9801894 ], [ 2.436203, 12.048683 ], [ 2.3914161, 12.1125458 ], [ 2.3822929, 12.1679766 ], [ 2.3998518, 12.2577333 ], [ 2.4642188, 12.2530921 ], [ 2.5803724, 12.2783137 ], [ 2.5933191, 12.2990772 ], [ 2.6650144, 12.3064055 ], [ 2.6950604, 12.2832603 ], [ 2.7342058, 12.3634442 ], [ 2.7618091, 12.3514746 ], [ 2.78642, 12.3857344 ], [ 2.8430103, 12.4034966 ] ] ] ] } },
{ "type": "Feature", "properties": { "POLYGON_ID": "BEN_GAUL2014_ADM1_610", "ADM0_ISO3": "BEN", "ADM0_NAME": "Benin", "ADM0_CODE": 29, "ADM1_NAME": "Atakora", "ADM1_CODE": 610, "GEOSET": "GAUL", "GEOSET_YEAR": 2014.0, "GEOSET_VERSION": "GAUL_v1", "GEOSET_UNIT": "ADM1", "CENTROID_LONG": 1.5755360452727214, "CENTROID_LAT": 10.684965195439839 }, "geometry": { "type": "MultiPolygon", "coordinates": [ [ [ [ 2.01925, 11.42771 ], [ 2.2032559, 11.0103922 ], [ 2.2904921, 10.981451 ], [ 2.3355939, 10.9492378 ], [ 2.2571771, 10.8931751 ], [ 2.2406859, 10.8619614 ], [ 2.241478, 10.5284929 ], [ 2.1767731, 10.4570827 ], [ 2.1565771, 10.4178066 ], [ 2.1567631, 10.3553486 ], [ 2.2043109, 10.3194752 ], [ 2.234329, 10.2785769 ], [ 2.24698, 10.1878481 ], [ 2.2621911, 10.1508102 ], [ 2.235698, 10.0946646 ], [ 2.1089859, 10.070055 ], [ 2.0695651, 10.0349464 ], [ 2.0209551, 10.0215483 ], [ 1.9746979, 10.039216 ], [ 1.769385, 10.0394306 ], [ 1.735339, 10.0270128 ], [ 1.655377, 9.94034 ], [ 1.544036, 9.9408331 ], [ 1.488767, 9.9712496 ], [ 1.3552, 9.9999999 ], [ 1.08803, 10.15884 ], [ 0.9983433, 10.2208294 ], [ 0.77457, 10.38476 ], [ 0.78323, 10.51218 ], [ 0.80626, 10.57808 ], [ 0.79693, 10.68492 ], [ 0.80825, 10.73189 ], [ 0.87382, 10.80496 ], [ 0.9009795, 10.8867413 ], [ 0.89052, 10.92094 ], [ 0.9121553, 10.9964901 ], [ 0.92157, 11.01746 ], [ 1.00917, 11.08572 ], [ 1.02978, 11.05268 ], [ 1.09961, 11.05658 ], [ 1.08662, 11.11334 ], [ 1.1183381, 11.1716085 ], [ 1.15047, 11.17561 ], [ 1.15357, 11.22758 ], [ 1.12925, 11.25649 ], [ 1.27393, 11.25986 ], [ 1.25213, 11.30741 ], [ 1.32512, 11.28988 ], [ 1.34092, 11.3113 ], [ 1.31796, 11.35907 ], [ 1.38826, 11.39946 ], [ 1.3844392, 11.4422267 ], [ 1.44313, 11.47223 ], [ 1.49468, 11.46588 ], [ 1.53178, 11.44731 ], [ 1.57889, 11.44347 ], [ 1.59972, 11.39475 ], [ 1.66313, 11.39643 ], [ 1.71414, 11.42913 ], [ 1.77361, 11.41928 ], [ 1.87268, 11.44577 ], [ 1.98196, 11.42004 ], [ 2.01925, 11.42771 ] ] ] ] } },
{ "type": "Feature", "properties": { "POLYGON_ID": "BEN_GAUL2014_ADM1_611", "ADM0_ISO3": "BEN", "ADM0_NAME": "Benin", "ADM0_CODE": 29, "ADM1_NAME": "Atlantique", "ADM1_CODE": 611, "GEOSET": "GAUL", "GEOSET_YEAR": 2014.0, "GEOSET_VERSION": "GAUL_v1", "GEOSET_UNIT": "ADM1", "CENTROID_LONG": 2.2075965651877576, "CENTROID_LAT": 6.6231903047423097 }, "geometry": { "type": "MultiPolygon", "coordinates": [ [ [ [ 2.4961573, 6.4890487 ], [ 2.476405, 6.482794 ], [ 2.435134, 6.511108 ], [ 2.410525, 6.469533 ], [ 2.368805, 6.474809 ], [ 2.3484122, 6.4058456 ], [ 2.3647717, 6.3962692 ], [ 2.3591526, 6.3492223 ], [ 2.2481495, 6.3430088 ], [ 2.1000255, 6.3244697 ], [ 1.9714431, 6.3017365 ], [ 1.9720451, 6.3027238 ], [ 1.9722607, 6.3030786 ], [ 1.9744558, 6.3069729 ], [ 1.975974, 6.3101403 ], [ 1.942077, 6.38831 ], [ 1.943691, 6.41677 ], [ 1.984412, 6.5040398 ], [ 1.9802721, 6.6188798 ], [ 1.9978189, 6.672853 ], [ 2.0344329, 6.6982079 ], [ 2.033108, 6.7232609 ], [ 2.0325611, 6.7755418 ], [ 2.05178, 6.7889762 ], [ 2.0686851, 6.8674331 ], [ 2.099669, 6.893425 ], [ 2.0843091, 6.9316669 ], [ 2.2531829, 6.9366579 ], [ 2.3180101, 6.9629879 ], [ 2.3364589, 6.9300871 ], [ 2.3972831, 6.9761038 ], [ 2.41011, 6.9551792 ], [ 2.4145639, 6.8591242 ], [ 2.436434, 6.8246479 ], [ 2.418793, 6.7966919 ], [ 2.4362991, 6.7465072 ], [ 2.4069669, 6.6618719 ], [ 2.435303, 6.548737 ], [ 2.5006471, 6.5172248 ], [ 2.4961573, 6.4890487 ] ] ] ] } },
{ "type": "Feature", "properties": { "POLYGON_ID": "BEN_GAUL2014_ADM1_612", "ADM0_ISO3": "BEN", "ADM0_NAME": "Benin", "ADM0_CODE": 29, "ADM1_NAME": "Borgou", "ADM1_CODE": 612, "GEOSET": "GAUL", "GEOSET_YEAR": 2014.0, "GEOSET_VERSION": "GAUL_v1", "GEOSET_UNIT": "ADM1", "CENTROID_LONG": 2.7731701192640785, "CENTROID_LAT": 9.7987164399636431 }, "geometry": { "type": "MultiPolygon", "coordinates": [ [ [ [ 3.82003, 10.53972 ], [ 3.80617, 10.503 ], [ 3.80098, 10.48532 ], [ 3.7998461, 10.4461238 ], [ 3.79917, 10.4428 ], [ 3.786, 10.40538 ], [ 3.76932, 10.4158 ], [ 3.7662732, 10.4167907 ], [ 3.7563525, 10.4209246 ], [ 3.74984, 10.42439 ], [ 3.7306, 10.43389 ], [ 3.72407, 10.4379522 ], [ 3.7164652, 10.4426825 ], [ 3.69513, 10.4538 ], [ 3.68771, 10.45636 ], [ 3.67907, 10.45113 ], [ 3.64604, 10.43514 ], [ 3.63765, 10.42759 ], [ 3.6345424, 10.4220932 ], [ 3.63181, 10.41726 ], [ 3.6322919, 10.4158144 ], [ 3.63273, 10.4145 ], [ 3.6335684, 10.4063178 ], [ 3.63452, 10.39703 ], [ 3.6338, 10.39036 ], [ 3.63006, 10.38302 ], [ 3.62631, 10.37361 ], [ 3.6144, 10.35572 ], [ 3.6077816, 10.3391122 ], [ 3.60315, 10.32749 ], [ 3.58417, 10.27837 ], [ 3.59221, 10.25328 ], [ 3.59774, 10.24177 ], [ 3.6029806, 10.2346656 ], [ 3.62318, 10.21409 ], [ 3.6463, 10.18941 ], [ 3.67806, 10.17826 ], [ 3.6788288, 10.170909 ], [ 3.6759841, 10.1526647 ], [ 3.67609, 10.1493 ], [ 3.67328, 10.14219 ], [ 3.6681, 10.12244 ], [ 3.66293, 10.10706 ], [ 3.6606178, 10.1051257 ], [ 3.65828, 10.10317 ], [ 3.6528632, 10.1024563 ], [ 3.64086, 10.09795 ], [ 3.6374764, 10.0969604 ], [ 3.63621, 10.09659 ], [ 3.62924, 10.09317 ], [ 3.6270329, 10.0910893 ], [ 3.624221, 10.0884384 ], [ 3.62365, 10.0879 ], [ 3.6169201, 10.077784 ], [ 3.61572, 10.07598 ], [ 3.6150212, 10.0737362 ], [ 3.6115, 10.06243 ], [ 3.6111854, 10.0522039 ], [ 3.6113468, 10.0367775 ], [ 3.61205, 10.02106 ], [ 3.61109, 10.01256 ], [ 3.6112124, 10.0074353 ], [ 3.61139, 10.0 ], [ 3.61149, 9.99601 ], [ 3.6105724, 9.9906598 ], [ 3.60889, 9.98085 ], [ 3.6052292, 9.9678256 ], [ 3.5957787, 9.9457389 ], [ 3.57112, 9.92537 ], [ 3.56268, 9.89552 ], [ 3.5510389, 9.8819996 ], [ 3.54802, 9.88087 ], [ 3.54755, 9.87903 ], [ 3.5426947, 9.8734689 ], [ 3.5366411, 9.8674192 ], [ 3.52964, 9.86208 ], [ 3.5283242, 9.8618435 ], [ 3.51712, 9.85983 ], [ 3.49996, 9.85804 ], [ 3.48119, 9.86178 ], [ 3.45639, 9.86117 ], [ 3.4239, 9.85069 ], [ 3.4005564, 9.8420567 ], [ 3.39002, 9.83816 ], [ 3.37076, 9.83086 ], [ 3.3592793, 9.8267197 ], [ 3.3554701, 9.8247076 ], [ 3.34686, 9.81759 ], [ 3.32966, 9.7988 ], [ 3.327065, 9.7897502 ], [ 3.32334, 9.77676 ], [ 3.32423, 9.76135 ], [ 3.3257611, 9.7559542 ], [ 3.3502713, 9.7052146 ], [ 3.3503975, 9.7046781 ], [ 3.35211, 9.6974 ], [ 3.3485991, 9.6852293 ], [ 3.33653, 9.67607 ], [ 3.3304128, 9.6708205 ], [ 3.31517, 9.65774 ], [ 3.3130166, 9.6576587 ], [ 3.30961, 9.65753 ], [ 3.29178, 9.66194 ], [ 3.27997, 9.66174 ], [ 3.27162, 9.659 ], [ 3.2635, 9.65236 ], [ 3.25606, 9.63974 ], [ 3.2560595, 9.6397348 ], [ 3.2551319, 9.6291586 ], [ 3.25344, 9.60987 ], [ 3.24972, 9.60253 ], [ 3.23229, 9.57591 ], [ 3.22696, 9.57133 ], [ 3.21604, 9.55389 ], [ 3.2016203, 9.530297 ], [ 3.19489, 9.51511 ], [ 3.1863, 9.50708 ], [ 3.1835173, 9.5058896 ], [ 3.18097, 9.5048 ], [ 3.1727491, 9.5015744 ], [ 3.1629, 9.49771 ], [ 3.15456, 9.4929 ], [ 3.14922, 9.4851 ], [ 3.13622, 9.46284 ], [ 3.1311029, 9.4413997 ], [ 3.15179, 9.37574 ], [ 3.15362, 9.36471 ], [ 3.1515134, 9.33949 ], [ 3.15149, 9.33921 ], [ 3.15192, 9.32152 ], [ 3.15375, 9.30957 ], [ 3.15835, 9.29141 ], [ 3.1572601, 9.2831431 ], [ 3.12635, 9.25219 ], [ 3.1250232, 9.2478296 ], [ 3.12216, 9.23842 ], [ 3.1220682, 9.2314495 ], [ 3.1219, 9.21867 ], [ 3.1237, 9.19224 ], [ 3.12092, 9.18811 ], [ 3.1097625, 9.1678845 ], [ 3.10143, 9.15278 ], [ 3.09214, 9.12982 ], [ 3.0886326, 9.1048706 ], [ 3.0881693, 9.1015795 ], [ 3.0859559, 9.099825 ], [ 3.08354, 9.09791 ], [ 3.0589106, 9.0904914 ], [ 3.0562496, 9.0896898 ], [ 3.05139, 9.08671 ], [ 3.0426, 9.08351 ], [ 3.03543, 9.08283 ], [ 3.0308214, 9.0811222 ], [ 3.01878, 9.07666 ], [ 2.98411, 9.07235 ], [ 2.9689741, 9.077724 ], [ 2.964, 9.07949 ], [ 2.9538486, 9.0925626 ], [ 2.95338, 9.0926 ], [ 2.91292, 9.0876 ], [ 2.89146, 9.08021 ], [ 2.88193, 9.07293 ], [ 2.87915, 9.06466 ], [ 2.8105676, 9.0647006 ], [ 2.78092, 9.0652 ], [ 2.77827, 9.0538 ], [ 2.782706, 9.0365389 ], [ 2.7825, 9.03181 ], [ 2.77416, 9.02609 ], [ 2.7755388, 9.0237921 ], [ 2.78268, 9.01619 ], [ 2.7796864, 9.0146496 ], [ 2.77203, 9.01071 ], [ 2.7808, 9.00563 ], [ 2.78241, 9.0031 ], [ 2.7804315, 8.9995822 ], [ 2.77777, 8.99485 ], [ 2.7798376, 8.9916237 ], [ 2.78677, 8.99068 ], [ 2.7871469, 8.9900676 ], [ 2.78861, 8.98769 ], [ 2.7879332, 8.9863653 ], [ 2.78879, 8.97024 ], [ 2.78577, 8.96405 ], [ 2.7857658, 8.9640474 ], [ 2.7766186, 8.9582799 ], [ 2.77489, 8.95719 ], [ 2.77118, 8.95283 ], [ 2.7759187, 8.9514057 ], [ 2.7817796, 8.9452291 ], [ 2.77061, 8.91885 ], [ 2.7687673, 8.9172199 ], [ 2.76853, 8.91701 ], [ 2.7640759, 8.9161423 ], [ 2.75974, 8.91222 ], [ 2.75811, 8.90786 ], [ 2.75828, 8.90466 ], [ 2.75833, 8.90373 ], [ 2.76156, 8.90303 ], [ 2.77035, 8.90484 ], [ 2.7719125, 8.8998987 ], [ 2.77355, 8.89472 ], [ 2.76816, 8.86718 ], [ 2.75799, 8.86491 ], [ 2.75707, 8.86354 ], [ 2.7569413, 8.8615269 ], [ 2.75682, 8.85963 ], [ 2.7590731, 8.8554874 ], [ 2.761043, 8.8505564 ], [ 2.75812, 8.83001 ], [ 2.75879, 8.81967 ], [ 2.74488, 8.79996 ], [ 2.7436077, 8.7986511 ], [ 2.73932, 8.79424 ], [ 2.7384067, 8.7903793 ], [ 2.73769, 8.78735 ], [ 2.73028, 8.77819 ], [ 2.72841, 8.77268 ], [ 2.185246, 8.7641821 ], [ 2.2268119, 8.8688192 ], [ 2.186981, 8.9508886 ], [ 2.2125249, 9.0044079 ], [ 2.2203259, 9.0530682 ], [ 2.182869, 9.0729303 ], [ 2.1088099, 9.066968 ], [ 2.072207, 9.0740404 ], [ 1.9876159, 9.1266975 ], [ 1.963434, 9.2595596 ], [ 1.972545, 9.3533192 ], [ 2.0494111, 9.3547182 ], [ 2.101994, 9.3702936 ], [ 2.15974, 9.685915 ], [ 2.1386549, 9.7189646 ], [ 2.1042991, 9.718524 ], [ 2.0854449, 9.7866669 ], [ 2.0513051, 9.8490953 ], [ 2.091639, 9.8955841 ], [ 2.0939939, 9.9279051 ], [ 2.0701809, 9.9722099 ], [ 2.0695651, 10.0349464 ], [ 2.1089859, 10.070055 ], [ 2.235698, 10.0946646 ], [ 2.2621911, 10.1508102 ], [ 2.24698, 10.1878481 ], [ 2.234329, 10.2785769 ], [ 2.2043109, 10.3194752 ], [ 2.1567631, 10.3553486 ], [ 2.1565771, 10.4178066 ], [ 2.1767731, 10.4570827 ], [ 2.241478, 10.5284929 ], [ 2.4184561, 10.5317068 ], [ 2.4179189, 10.5647449 ], [ 2.4842539, 10.5615683 ], [ 2.5450101, 10.5299702 ], [ 2.6882329, 10.5299797 ], [ 2.701726, 10.5637302 ], [ 2.8132291, 10.5815878 ], [ 2.8564329, 10.535655 ], [ 3.17977, 10.5393896 ], [ 3.497381, 10.6122561 ], [ 3.8491267, 10.6477527 ], [ 3.8494164, 10.6425466 ], [ 3.85104, 10.61337 ], [ 3.8517, 10.60579 ], [ 3.85097, 10.59981 ], [ 3.8280609, 10.5594795 ], [ 3.82003, 10.53972 ] ] ] ] } },
{ "type": "Feature", "properties": { "POLYGON_ID": "BEN_GAUL2014_ADM1_613", "ADM0_ISO3": "BEN", "ADM0_NAME": "Benin", "ADM0_CODE": 29, "ADM1_NAME": "Collines", "ADM1_CODE": 613, "GEOSET": "GAUL", "GEOSET_YEAR": 2014.0, "GEOSET_VERSION": "GAUL_v1", "GEOSET_UNIT": "ADM1", "CENTROID_LONG": 2.2044137477951664, "CENTROID_LAT": 8.1359180566383955 }, "geometry": { "type": "MultiPolygon", "coordinates": [ [ [ [ 2.75003, 8.48975 ], [ 2.7509892, 8.4887588 ], [ 2.74906, 8.47277 ], [ 2.7475467, 8.4694203 ], [ 2.74254, 8.45403 ], [ 2.74068, 8.44502 ], [ 2.7295713, 8.4336779 ], [ 2.72612, 8.43197 ], [ 2.71459, 8.43154 ], [ 2.70695, 8.42032 ], [ 2.71129, 8.40607 ], [ 2.712966, 8.3944677 ], [ 2.71401, 8.38724 ], [ 2.70866, 8.36958 ], [ 2.7044346, 8.3651463 ], [ 2.6971, 8.35745 ], [ 2.69698, 8.3547201 ], [ 2.69644, 8.34257 ], [ 2.69563, 8.32417 ], [ 2.7122954, 8.2710658 ], [ 2.7146, 8.26054 ], [ 2.7184986, 8.2536425 ], [ 2.7197124, 8.252596 ], [ 2.72678, 8.24651 ], [ 2.73207, 8.23797 ], [ 2.73736, 8.22943 ], [ 2.75105, 8.18998 ], [ 2.7501966, 8.1823959 ], [ 2.74821, 8.16474 ], [ 2.73254, 8.11684 ], [ 2.73054, 8.1049 ], [ 2.7059495, 7.9829896 ], [ 2.7057183, 7.9805298 ], [ 2.69955, 7.95268 ], [ 2.698665, 7.9483726 ], [ 2.6839053, 7.9067697 ], [ 2.67582, 7.8932 ], [ 2.7108516, 7.8140613 ], [ 2.71132, 7.81317 ], [ 2.7203, 7.81085 ], [ 2.7213097, 7.810106 ], [ 2.7265933, 7.8014425 ], [ 2.72946, 7.79222 ], [ 2.7309629, 7.7820358 ], [ 2.7294527, 7.6897569 ], [ 2.4871359, 7.6856012 ], [ 2.462033, 7.6097932 ], [ 2.465976, 7.5584888 ], [ 2.4207289, 7.48839 ], [ 2.4055099, 7.4427691 ], [ 2.3504231, 7.46735 ], [ 2.253866, 7.529531 ], [ 2.1210971, 7.565258 ], [ 2.047123, 7.5587349 ], [ 1.986654, 7.5803609 ], [ 1.939971, 7.6411929 ], [ 1.862102, 7.655159 ], [ 1.7386301, 7.6418099 ], [ 1.63145, 7.6611107 ], [ 1.63625, 7.80307 ], [ 1.63052, 7.82697 ], [ 1.63626, 7.98842 ], [ 1.63177, 8.34125 ], [ 1.6215034, 8.3659592 ], [ 1.6302, 8.44951 ], [ 1.65019, 8.47767 ], [ 1.63112, 8.51869 ], [ 1.6301632, 8.5936966 ], [ 1.733802, 8.605072 ], [ 1.762561, 8.6271238 ], [ 1.817044, 8.6217794 ], [ 1.843721, 8.592576 ], [ 1.91164, 8.5514231 ], [ 1.985775, 8.5250788 ], [ 1.992833, 8.5078039 ], [ 2.0930669, 8.4995937 ], [ 2.12325, 8.4779835 ], [ 2.156275, 8.5094233 ], [ 2.219065, 8.5034037 ], [ 2.2094409, 8.5580797 ], [ 2.224417, 8.6464796 ], [ 2.203038, 8.6909647 ], [ 2.2041509, 8.7362547 ], [ 2.185246, 8.7641821 ], [ 2.72841, 8.77268 ], [ 2.73368, 8.75774 ], [ 2.7365658, 8.7539601 ], [ 2.74609, 8.7352 ], [ 2.74512, 8.7173 ], [ 2.74602, 8.70995 ], [ 2.75038, 8.70029 ], [ 2.7479342, 8.6951916 ], [ 2.74411, 8.68722 ], [ 2.7439846, 8.6867971 ], [ 2.74132, 8.67781 ], [ 2.7458528, 8.667199 ], [ 2.74613, 8.66655 ], [ 2.7379306, 8.6560495 ], [ 2.73756, 8.65486 ], [ 2.73893, 8.65073 ], [ 2.74654, 8.64611 ], [ 2.74906, 8.64036 ], [ 2.75039, 8.62084 ], [ 2.75014, 8.61327 ], [ 2.7496878, 8.5999148 ], [ 2.74919, 8.58521 ], [ 2.74913, 8.58342 ], [ 2.75004, 8.57768 ], [ 2.7527241, 8.5727243 ], [ 2.75876, 8.56158 ], [ 2.755615, 8.5511347 ], [ 2.7496486, 8.536927 ], [ 2.74946, 8.53314 ], [ 2.76188, 8.52255 ], [ 2.75003, 8.48975 ] ] ] ] } },
{ "type": "Feature", "properties": { "POLYGON_ID": "BEN_GAUL2014_ADM1_614", "ADM0_ISO3": "BEN", "ADM0_NAME": "Benin", "ADM0_CODE": 29, "ADM1_NAME": "Couffo", "ADM1_CODE": 614, "GEOSET": "GAUL", "GEOSET_YEAR": 2014.0, "GEOSET_VERSION": "GAUL_v1", "GEOSET_UNIT": "ADM1", "CENTROID_LONG": 1.7816352537323981, "CENTROID_LAT": 7.0000602808226331 }, "geometry": { "type": "MultiPolygon", "coordinates": [ [ [ [ 2.0843091, 6.9316669 ], [ 2.099669, 6.893425 ], [ 2.0686851, 6.8674331 ], [ 2.05178, 6.7889762 ], [ 2.0325611, 6.7755418 ], [ 2.033108, 6.7232609 ], [ 1.921119, 6.778563 ], [ 1.902344, 6.7670612 ], [ 1.839896, 6.771348 ], [ 1.75212, 6.7247958 ], [ 1.676236, 6.7129202 ], [ 1.5915549, 6.7129045 ], [ 1.6260999, 6.7602401 ], [ 1.59893, 6.79978 ], [ 1.6050689, 6.9057705 ], [ 1.587613, 6.9130445 ], [ 1.55783, 6.99749 ], [ 1.6420299, 6.9945732 ], [ 1.63522, 7.3794 ], [ 1.64388, 7.48555 ], [ 1.6756765, 7.4947 ], [ 1.713136, 7.4349771 ], [ 1.757107, 7.3107071 ], [ 1.7960401, 7.2756839 ], [ 1.817095, 7.217782 ], [ 1.84789, 7.191071 ], [ 1.858596, 7.1212358 ], [ 1.967306, 6.9975562 ], [ 1.99022, 6.924367 ], [ 2.030247, 6.9135871 ], [ 2.0843091, 6.9316669 ] ] ] ] } },
{ "type": "Feature", "properties": { "POLYGON_ID": "BEN_GAUL2014_ADM1_615", "ADM0_ISO3": "BEN", "ADM0_NAME": "Benin", "ADM0_CODE": 29, "ADM1_NAME": "Donga", "ADM1_CODE": 615, "GEOSET": "GAUL", "GEOSET_YEAR": 2014.0, "GEOSET_VERSION": "GAUL_v1", "GEOSET_UNIT": "ADM1", "CENTROID_LONG": 1.8075215242133227, "CENTROID_LAT": 9.3251180077134119 }, "geometry": { "type": "MultiPolygon", "coordinates": [ [ [ [ 2.0695651, 10.0349464 ], [ 2.0701809, 9.9722099 ], [ 2.0939939, 9.9279051 ], [ 2.091639, 9.8955841 ], [ 2.0513051, 9.8490953 ], [ 2.0854449, 9.7866669 ], [ 2.1042991, 9.718524 ], [ 2.1386549, 9.7189646 ], [ 2.15974, 9.685915 ], [ 2.101994, 9.3702936 ], [ 2.0494111, 9.3547182 ], [ 1.972545, 9.3533192 ], [ 1.963434, 9.2595596 ], [ 1.9876159, 9.1266975 ], [ 2.072207, 9.0740404 ], [ 2.1088099, 9.066968 ], [ 2.182869, 9.0729303 ], [ 2.2203259, 9.0530682 ], [ 2.2125249, 9.0044079 ], [ 2.186981, 8.9508886 ], [ 2.2268119, 8.8688192 ], [ 2.185246, 8.7641821 ], [ 2.2041509, 8.7362547 ], [ 2.203038, 8.6909647 ], [ 2.224417, 8.6464796 ], [ 2.2094409, 8.5580797 ], [ 2.219065, 8.5034037 ], [ 2.156275, 8.5094233 ], [ 2.12325, 8.4779835 ], [ 2.0930669, 8.4995937 ], [ 1.992833, 8.5078039 ], [ 1.985775, 8.5250788 ], [ 1.91164, 8.5514231 ], [ 1.843721, 8.592576 ], [ 1.817044, 8.6217794 ], [ 1.762561, 8.6271238 ], [ 1.733802, 8.605072 ], [ 1.6301632, 8.5936966 ], [ 1.63311, 8.79376 ], [ 1.62974, 8.99912 ], [ 1.6175996, 9.0709208 ], [ 1.5591198, 9.1701502 ], [ 1.52597, 9.1907 ], [ 1.4621, 9.25477 ], [ 1.4312335, 9.2978135 ], [ 1.40312, 9.35491 ], [ 1.40114, 9.43463 ], [ 1.3902091, 9.4972997 ], [ 1.3648, 9.48525 ], [ 1.34159, 9.54626 ], [ 1.36606, 9.61139 ], [ 1.36259, 9.80854 ], [ 1.3552, 9.9999999 ], [ 1.488767, 9.9712496 ], [ 1.544036, 9.9408331 ], [ 1.655377, 9.94034 ], [ 1.735339, 10.0270128 ], [ 1.769385, 10.0394306 ], [ 1.9746979, 10.039216 ], [ 2.0209551, 10.0215483 ], [ 2.0695651, 10.0349464 ] ] ] ] } },
{ "type": "Feature", "properties": { "POLYGON_ID": "BEN_GAUL2014_ADM1_616", "ADM0_ISO3": "BEN", "ADM0_NAME": "Benin", "ADM0_CODE": 29, "ADM1_NAME": "Littoral", "ADM1_CODE": 616, "GEOSET": "GAUL", "GEOSET_YEAR": 2014.0, "GEOSET_VERSION": "GAUL_v1", "GEOSET_UNIT": "ADM1", "CENTROID_LONG": 2.4124134001343229, "CENTROID_LAT": 6.3684438882804439 }, "geometry": { "type": "MultiPolygon", "coordinates": [ [ [ [ 2.4978774, 6.3600996 ], [ 2.4499117, 6.3546968 ], [ 2.4390228, 6.3679969 ], [ 2.4452479, 6.3961424 ], [ 2.4428329, 6.3787832 ], [ 2.494153, 6.371264 ], [ 2.4978774, 6.3600996 ] ] ], [ [ [ 2.3591526, 6.3492223 ], [ 2.3647717, 6.3962692 ], [ 2.4346867, 6.3888665 ], [ 2.428962, 6.3415228 ], [ 2.3591526, 6.3492223 ] ] ] ] } },
{ "type": "Feature", "properties": { "POLYGON_ID": "BEN_GAUL2014_ADM1_617", "ADM0_ISO3": "BEN", "ADM0_NAME": "Benin", "ADM0_CODE": 29, "ADM1_NAME": "Mono", "ADM1_CODE": 617, "GEOSET": "GAUL", "GEOSET_YEAR": 2014.0, "GEOSET_VERSION": "GAUL_v1", "GEOSET_UNIT": "ADM1", "CENTROID_LONG": 1.8325047239407328, "CENTROID_LAT": 6.560243125518511 }, "geometry": { "type": "MultiPolygon", "coordinates": [ [ [ [ 2.033108, 6.7232609 ], [ 2.0344329, 6.6982079 ], [ 1.9978189, 6.672853 ], [ 1.9802721, 6.6188798 ], [ 1.984412, 6.5040398 ], [ 1.943691, 6.41677 ], [ 1.942077, 6.38831 ], [ 1.975974, 6.3101403 ], [ 1.8951495, 6.3168682 ], [ 1.847214, 6.283275 ], [ 1.6287392, 6.23453 ], [ 1.64567, 6.24809 ], [ 1.70984, 6.25719 ], [ 1.7699, 6.28216 ], [ 1.79933, 6.28056 ], [ 1.78919, 6.35048 ], [ 1.77234, 6.3774 ], [ 1.7731, 6.41973 ], [ 1.73024, 6.48639 ], [ 1.69573, 6.50041 ], [ 1.70077, 6.53675 ], [ 1.6344, 6.59682 ], [ 1.6098, 6.60582 ], [ 1.5915549, 6.7129045 ], [ 1.676236, 6.7129202 ], [ 1.75212, 6.7247958 ], [ 1.839896, 6.771348 ], [ 1.902344, 6.7670612 ], [ 1.921119, 6.778563 ], [ 2.033108, 6.7232609 ] ] ] ] } },
{ "type": "Feature", "properties": { "POLYGON_ID": "BEN_GAUL2014_ADM1_618", "ADM0_ISO3": "BEN", "ADM0_NAME": "Benin", "ADM0_CODE": 29, "ADM1_NAME": "Oueme", "ADM1_CODE": 618, "GEOSET": "GAUL", "GEOSET_YEAR": 2014.0, "GEOSET_VERSION": "GAUL_v1", "GEOSET_UNIT": "ADM1", "CENTROID_LONG": 2.5432001268354307, "CENTROID_LAT": 6.6243287400521931 }, "geometry": { "type": "MultiPolygon", "coordinates": [ [ [ [ 2.507843, 6.9607 ], [ 2.5057819, 6.8971481 ], [ 2.5492361, 6.8793068 ], [ 2.577493, 6.8080831 ], [ 2.570493, 6.7207799 ], [ 2.5829079, 6.6460671 ], [ 2.6558909, 6.6163869 ], [ 2.6922369, 6.5605402 ], [ 2.699121, 6.514307 ], [ 2.720289, 6.507771 ], [ 2.71833, 6.47661 ], [ 2.71743, 6.47075 ], [ 2.7062806, 6.4256051 ], [ 2.7066004, 6.4230325 ], [ 2.7083, 6.40936 ], [ 2.7093835, 6.3756761 ], [ 2.611815, 6.364323 ], [ 2.4978774, 6.3600996 ], [ 2.494153, 6.371264 ], [ 2.4428329, 6.3787832 ], [ 2.4452479, 6.3961424 ], [ 2.499184, 6.384077 ], [ 2.50792, 6.411413 ], [ 2.549151, 6.414674 ], [ 2.522555, 6.469949 ], [ 2.4961573, 6.4890487 ], [ 2.5006471, 6.5172248 ], [ 2.435303, 6.548737 ], [ 2.4069669, 6.6618719 ], [ 2.4362991, 6.7465072 ], [ 2.418793, 6.7966919 ], [ 2.436434, 6.8246479 ], [ 2.4145639, 6.8591242 ], [ 2.41011, 6.9551792 ], [ 2.507843, 6.9607 ] ] ] ] } },
{ "type": "Feature", "properties": { "POLYGON_ID": "BEN_GAUL2014_ADM1_619", "ADM0_ISO3": "BEN", "ADM0_NAME": "Benin", "ADM0_CODE": 29, "ADM1_NAME": "Plateau", "ADM1_CODE": 619, "GEOSET": "GAUL", "GEOSET_YEAR": 2014.0, "GEOSET_VERSION": "GAUL_v1", "GEOSET_UNIT": "ADM1", "CENTROID_LONG": 2.6279745694111263, "CENTROID_LAT": 7.1979406076814589 }, "geometry": { "type": "MultiPolygon", "coordinates": [ [ [ [ 2.7294527, 7.6897569 ], [ 2.7287357, 7.6823744 ], [ 2.72539, 7.64797 ], [ 2.7293197, 7.5930797 ], [ 2.73029, 7.58017 ], [ 2.7477, 7.54704 ], [ 2.74607, 7.54015 ], [ 2.74949, 7.5275 ], [ 2.7520035, 7.524539 ], [ 2.7580186, 7.5202604 ], [ 2.76213, 7.51897 ], [ 2.795301, 7.4891245 ], [ 2.79819, 7.48255 ], [ 2.79968, 7.43797 ], [ 2.7995394, 7.4346725 ], [ 2.79919, 7.42648 ], [ 2.7583338, 7.4176499 ], [ 2.75702, 7.41718 ], [ 2.7474468, 7.3684591 ], [ 2.74744, 7.36596 ], [ 2.7493872, 7.2651086 ], [ 2.74946, 7.26115 ], [ 2.7500173, 7.259356 ], [ 2.76209, 7.24825 ], [ 2.7692538, 7.2401024 ], [ 2.78355, 7.18245 ], [ 2.783607, 7.1814763 ], [ 2.7848692, 7.1592273 ], [ 2.77534, 7.12822 ], [ 2.7703386, 7.1212626 ], [ 2.74509, 7.09268 ], [ 2.76712, 7.06526 ], [ 2.7785575, 7.0562812 ], [ 2.7874758, 7.0471932 ], [ 2.7925992, 7.0412795 ], [ 2.75295, 7.01932 ], [ 2.7493565, 7.0167696 ], [ 2.72064, 6.98653 ], [ 2.72694, 6.93042 ], [ 2.7464315, 6.9284373 ], [ 2.74788, 6.92829 ], [ 2.7506756, 6.9160677 ], [ 2.75087, 6.89472 ], [ 2.7507908, 6.8925335 ], [ 2.75052, 6.88506 ], [ 2.74377, 6.85657 ], [ 2.7441729, 6.8523008 ], [ 2.74466, 6.84714 ], [ 2.72983, 6.80855 ], [ 2.73915, 6.76529 ], [ 2.7420005, 6.7644535 ], [ 2.74467, 6.76367 ], [ 2.75179, 6.75905 ], [ 2.76237, 6.75764 ], [ 2.77871, 6.7592 ], [ 2.7888375, 6.7494611 ], [ 2.7895, 6.74813 ], [ 2.78659, 6.69479 ], [ 2.73142, 6.63079 ], [ 2.7508427, 6.5740621 ], [ 2.75312, 6.57047 ], [ 2.751416, 6.5617503 ], [ 2.72933, 6.53443 ], [ 2.7257513, 6.5282021 ], [ 2.720289, 6.507771 ], [ 2.699121, 6.514307 ], [ 2.6922369, 6.5605402 ], [ 2.6558909, 6.6163869 ], [ 2.5829079, 6.6460671 ], [ 2.570493, 6.7207799 ], [ 2.577493, 6.8080831 ], [ 2.5492361, 6.8793068 ], [ 2.5057819, 6.8971481 ], [ 2.507843, 6.9607 ], [ 2.5541019, 6.9989119 ], [ 2.551928, 7.056426 ], [ 2.518208, 7.1706729 ], [ 2.5371406, 7.1867294 ], [ 2.5021329, 7.2527852 ], [ 2.439755, 7.3139901 ], [ 2.4252591, 7.3637972 ], [ 2.427346, 7.4108572 ], [ 2.4055099, 7.4427691 ], [ 2.4207289, 7.48839 ], [ 2.465976, 7.5584888 ], [ 2.462033, 7.6097932 ], [ 2.4871359, 7.6856012 ], [ 2.7294527, 7.6897569 ] ] ] ] } },
{ "type": "Feature", "properties": { "POLYGON_ID": "BEN_GAUL2014_ADM1_620", "ADM0_ISO3": "BEN", "ADM0_NAME": "Benin", "ADM0_CODE": 29, "ADM1_NAME": "Zou", "ADM1_CODE": 620, "GEOSET": "GAUL", "GEOSET_YEAR": 2014.0, "GEOSET_VERSION": "GAUL_v1", "GEOSET_UNIT": "ADM1", "CENTROID_LONG": 2.1082720956576, "CENTROID_LAT": 7.2780118251348656 }, "geometry": { "type": "MultiPolygon", "coordinates": [ [ [ [ 1.63145, 7.6611107 ], [ 1.7386301, 7.6418099 ], [ 1.862102, 7.655159 ], [ 1.939971, 7.6411929 ], [ 1.986654, 7.5803609 ], [ 2.047123, 7.5587349 ], [ 2.1210971, 7.565258 ], [ 2.253866, 7.529531 ], [ 2.3504231, 7.46735 ], [ 2.4055099, 7.4427691 ], [ 2.427346, 7.4108572 ], [ 2.4252591, 7.3637972 ], [ 2.439755, 7.3139901 ], [ 2.5021329, 7.2527852 ], [ 2.5371406, 7.1867294 ], [ 2.518208, 7.1706729 ], [ 2.551928, 7.056426 ], [ 2.5541019, 6.9989119 ], [ 2.507843, 6.9607 ], [ 2.41011, 6.9551792 ], [ 2.3972831, 6.9761038 ], [ 2.3364589, 6.9300871 ], [ 2.3180101, 6.9629879 ], [ 2.2531829, 6.9366579 ], [ 2.0843091, 6.9316669 ], [ 2.030247, 6.9135871 ], [ 1.99022, 6.924367 ], [ 1.967306, 6.9975562 ], [ 1.858596, 7.1212358 ], [ 1.84789, 7.191071 ], [ 1.817095, 7.217782 ], [ 1.7960401, 7.2756839 ], [ 1.757107, 7.3107071 ], [ 1.713136, 7.4349771 ], [ 1.6756765, 7.4947 ], [ 1.65293, 7.53402 ], [ 1.65051, 7.61399 ], [ 1.63145, 7.6611107 ] ] ] ] } }
]
}
