{
"type": "FeatureCollection",
"name": "BGD_GAUL1999_ADM0",
"crs": { "type": "name", "properties": { "name": "urn:ogc:def:crs:OGC:1.3:CRS84" } },
"features": [
{ "type": "Feature", "properties": { "POLYGON_ID": "BGD_GAUL1999_ADM0_23", "ADM0_ISO3": "BGD", "ADM0_NAME": "Bangladesh", "ADM0_CODE": 23, "GEOSET": "GAUL", "GEOSET_YEAR": 1999.0, "GEOSET_VERSION": "GAUL_v1", "GEOSET_UNIT": "ADM0", "CENTROID_LONG": 90.279758814030103, "CENTROID_LAT": 23.838868844293405 }, "geometry": { "type": "MultiPolygon", "coordinates": [ [ [ [ 92.22077, 23.65182 ], [ 92.2220794, 23.6535469 ], [ 92.2308546, 23.6795539 ], [ 92.23324, 23.68462 ], [ 92.23718, 23.69298 ], [ 92.2395, 23.7077 ], [ 92.2548693, 23.7226899 ], [ 92.28808, 23.69794 ], [ 92.28722, 23.67496 ], [ 92.2828, 23.66203 ], [ 92.27951, 23.65751 ], [ 92.2777614, 23.6550934 ], [ 92.27773, 23.65505 ], [ 92.27283, 23.6412 ], [ 92.2876456, 23.622078 ], [ 92.28927, 23.61952 ], [ 92.2823, 23.60906 ], [ 92.30681, 23.56072 ], [ 92.30977, 23.52959 ], [ 92.3133839, 23.5224679 ], [ 92.31576, 23.51779 ], [ 92.3180303, 23.489126 ], [ 92.32118, 23.46607 ], [ 92.32851, 23.44994 ], [ 92.3271306, 23.4479284 ], [ 92.35928, 23.37647 ], [ 92.3593655, 23.3725517 ], [ 92.35944, 23.36914 ], [ 92.3614681, 23.3673417 ], [ 92.36694, 23.36676 ], [ 92.36711, 23.32587 ], [ 92.36695, 23.32319 ], [ 92.36976, 23.31957 ], [ 92.3711773, 23.3190103 ], [ 92.38562, 23.26526 ], [ 92.34839, 23.23428 ], [ 92.3535733, 23.2107569 ], [ 92.3531, 23.20226 ], [ 92.3523139, 23.1995726 ], [ 92.3526176, 23.1823776 ], [ 92.3556, 23.17937 ], [ 92.3568643, 23.1707065 ], [ 92.36305, 23.12492 ], [ 92.36366, 23.11989 ], [ 92.36066, 23.10997 ], [ 92.3591835, 23.1060156 ], [ 92.35873, 23.10481 ], [ 92.3628508, 23.0971957 ], [ 92.37435, 23.08615 ], [ 92.38331, 23.07348 ], [ 92.38502, 23.06545 ], [ 92.38835, 23.04849 ], [ 92.3885822, 23.0464234 ], [ 92.3877, 23.04198 ], [ 92.38683, 23.03844 ], [ 92.38533, 23.03527 ], [ 92.38234, 23.02895 ], [ 92.37811, 22.97564 ], [ 92.3775482, 22.9743016 ], [ 92.37434, 22.96662 ], [ 92.37222, 22.94042 ], [ 92.3747245, 22.9296005 ], [ 92.41601, 22.90916 ], [ 92.43257, 22.88837 ], [ 92.4362524, 22.8876937 ], [ 92.44052, 22.88691 ], [ 92.4594, 22.85486 ], [ 92.46033, 22.85334 ], [ 92.46098, 22.84528 ], [ 92.4609955, 22.8450637 ], [ 92.4597401, 22.8420433 ], [ 92.45913, 22.84069 ], [ 92.4551972, 22.839239 ], [ 92.4520121, 22.830103 ], [ 92.45598, 22.82617 ], [ 92.4561082, 22.8206635 ], [ 92.45614, 22.8193 ], [ 92.48408, 22.74135 ], [ 92.48998, 22.73746 ], [ 92.51639, 22.71503 ], [ 92.51695, 22.70847 ], [ 92.51961, 22.68855 ], [ 92.5233082, 22.6749773 ], [ 92.52552, 22.66686 ], [ 92.5256117, 22.6664943 ], [ 92.5271283, 22.6604447 ], [ 92.52732, 22.65968 ], [ 92.5273985, 22.6593672 ], [ 92.5255206, 22.6450628 ], [ 92.52595, 22.63543 ], [ 92.5268562, 22.6334618 ], [ 92.52752, 22.63202 ], [ 92.5300598, 22.6078868 ], [ 92.5311, 22.60316 ], [ 92.53185, 22.60056 ], [ 92.53336, 22.5953 ], [ 92.5356769, 22.5871648 ], [ 92.53645, 22.58445 ], [ 92.53503, 22.58166 ], [ 92.535435, 22.5800228 ], [ 92.53666, 22.57504 ], [ 92.53625, 22.57085 ], [ 92.52492, 22.55829 ], [ 92.5251471, 22.5553782 ], [ 92.53296, 22.54077 ], [ 92.5422, 22.52465 ], [ 92.54557, 22.51691 ], [ 92.54674, 22.51087 ], [ 92.5483379, 22.5026269 ], [ 92.5486295, 22.5011226 ], [ 92.54516, 22.4905 ], [ 92.54464, 22.48706 ], [ 92.54408, 22.48336 ], [ 92.5448994, 22.4702277 ], [ 92.5454115, 22.4647343 ], [ 92.54605, 22.4631 ], [ 92.5496396, 22.4538558 ], [ 92.55017, 22.45249 ], [ 92.5504979, 22.4512956 ], [ 92.55235, 22.44455 ], [ 92.55393, 22.43879 ], [ 92.55295, 22.42683 ], [ 92.55467, 22.41584 ], [ 92.5558453, 22.4093293 ], [ 92.55695, 22.40321 ], [ 92.56017, 22.38545 ], [ 92.5606375, 22.3828718 ], [ 92.56122, 22.37966 ], [ 92.56167, 22.37718 ], [ 92.5619276, 22.376367 ], [ 92.56321, 22.37232 ], [ 92.5652954, 22.3657742 ], [ 92.57174, 22.34454 ], [ 92.57803, 22.32744 ], [ 92.58006, 22.31324 ], [ 92.5800226, 22.3087092 ], [ 92.57999, 22.30475 ], [ 92.58112, 22.29811 ], [ 92.58141, 22.29471 ], [ 92.58145, 22.29422 ], [ 92.5794962, 22.2920045 ], [ 92.57712, 22.28931 ], [ 92.57858, 22.27855 ], [ 92.57676, 22.27117 ], [ 92.5806, 22.26341 ], [ 92.58468, 22.25846 ], [ 92.59018, 22.24272 ], [ 92.5891, 22.22411 ], [ 92.58953, 22.21585 ], [ 92.5900589, 22.2126094 ], [ 92.59468, 22.1898 ], [ 92.5964778, 22.1844317 ], [ 92.59897, 22.17699 ], [ 92.59899, 22.17268 ], [ 92.60743, 22.16582 ], [ 92.60897, 22.16415 ], [ 92.6086353, 22.1598227 ], [ 92.60648, 22.13196 ], [ 92.6027721, 22.1255623 ], [ 92.5965642, 22.1235014 ], [ 92.56797, 22.12387 ], [ 92.56885, 22.11768 ], [ 92.57858, 22.10134 ], [ 92.58741, 22.08062 ], [ 92.59628, 22.05829 ], [ 92.5945897, 22.0457822 ], [ 92.59247, 22.04076 ], [ 92.5948183, 22.0325264 ], [ 92.5998038, 22.0192599 ], [ 92.60043, 22.01543 ], [ 92.60429, 22.00769 ], [ 92.60685, 21.99213 ], [ 92.60854, 21.98252 ], [ 92.6085366, 21.9824981 ], [ 92.6067561, 21.9712009 ], [ 92.6098453, 21.9613306 ], [ 92.6118243, 21.9580851 ], [ 92.6120159, 21.9524405 ], [ 92.6108138, 21.9469247 ], [ 92.6122645, 21.9449904 ], [ 92.6155351, 21.9406297 ], [ 92.6145666, 21.9332451 ], [ 92.6165035, 21.9270711 ], [ 92.6209827, 21.9219867 ], [ 92.6244934, 21.9136336 ], [ 92.6275198, 21.8905115 ], [ 92.6304252, 21.8799794 ], [ 92.6334517, 21.8765898 ], [ 92.617593, 21.8486253 ], [ 92.6163825, 21.8468094 ], [ 92.6231617, 21.8217503 ], [ 92.6105717, 21.7972965 ], [ 92.609119, 21.7884592 ], [ 92.6096032, 21.7844643 ], [ 92.6083926, 21.7638844 ], [ 92.6080294, 21.7457256 ], [ 92.6058504, 21.7417307 ], [ 92.6058504, 21.7366462 ], [ 92.6058504, 21.7268405 ], [ 92.602945, 21.7140083 ], [ 92.601628, 21.7034345 ], [ 92.601008, 21.7028709 ], [ 92.6014617, 21.7016533 ], [ 92.6085137, 21.684349 ], [ 92.6043977, 21.6695799 ], [ 92.6045187, 21.6566266 ], [ 92.6037359, 21.6521968 ], [ 92.6103295, 21.622246 ], [ 92.6082716, 21.6089296 ], [ 92.60924, 21.5960974 ], [ 92.6087539, 21.594315 ], [ 92.6077873, 21.5907708 ], [ 92.6093419, 21.587856 ], [ 92.6156561, 21.574549 ], [ 92.6156561, 21.5602641 ], [ 92.6206195, 21.5262467 ], [ 92.619651, 21.5158357 ], [ 92.6275198, 21.4859343 ], [ 92.6244934, 21.4745548 ], [ 92.627762, 21.4618436 ], [ 92.6313937, 21.4538538 ], [ 92.6318779, 21.4511905 ], [ 92.6303042, 21.4497378 ], [ 92.6341781, 21.4387215 ], [ 92.6380519, 21.4378741 ], [ 92.6397467, 21.4185047 ], [ 92.6428943, 21.4096675 ], [ 92.6438627, 21.3997407 ], [ 92.6491893, 21.3915087 ], [ 92.6500367, 21.3855768 ], [ 92.648584, 21.3771027 ], [ 92.6511262, 21.3601546 ], [ 92.6533053, 21.3520437 ], [ 92.6562107, 21.3508331 ], [ 92.6639584, 21.3183894 ], [ 92.6715851, 21.3111259 ], [ 92.6727957, 21.3054362 ], [ 92.6801802, 21.2974463 ], [ 92.6806645, 21.2854615 ], [ 92.6725536, 21.2842509 ], [ 92.6640818, 21.2809666 ], [ 92.6550729, 21.2769528 ], [ 92.6177291, 21.2442759 ], [ 92.5971002, 21.2435423 ], [ 92.5927056, 21.2692994 ], [ 92.5902033, 21.2748309 ], [ 92.5911252, 21.2819428 ], [ 92.5837499, 21.2927425 ], [ 92.5838816, 21.2962984 ], [ 92.5786135, 21.3081517 ], [ 92.5716332, 21.3297509 ], [ 92.5736088, 21.3318581 ], [ 92.5733454, 21.3347556 ], [ 92.5674188, 21.3441065 ], [ 92.5661017, 21.3489795 ], [ 92.5666285, 21.3564865 ], [ 92.561097, 21.3809832 ], [ 92.5545119, 21.3841441 ], [ 92.551351, 21.3832221 ], [ 92.5439757, 21.3784808 ], [ 92.529225, 21.3684714 ], [ 92.5252739, 21.3715006 ], [ 92.5155279, 21.3742664 ], [ 92.5136841, 21.3771638 ], [ 92.5099964, 21.3770321 ], [ 92.5106549, 21.3649155 ], [ 92.503543, 21.3501648 ], [ 92.499792, 21.3512774 ], [ 92.4880021, 21.3547744 ], [ 92.4745684, 21.3539842 ], [ 92.4712759, 21.3610961 ], [ 92.4616616, 21.3663642 ], [ 92.455735, 21.3663642 ], [ 92.441743, 21.3640708 ], [ 92.438877, 21.3711055 ], [ 92.4333455, 21.3726859 ], [ 92.427814, 21.3796662 ], [ 92.4266287, 21.3978411 ], [ 92.4303164, 21.401002 ], [ 92.4315017, 21.4064018 ], [ 92.4255751, 21.4331374 ], [ 92.4217557, 21.4403811 ], [ 92.4146437, 21.4428834 ], [ 92.4035807, 21.4532879 ], [ 92.3980595, 21.457613 ], [ 92.3971273, 21.4625071 ], [ 92.3930445, 21.4681703 ], [ 92.3626212, 21.4729116 ], [ 92.3548508, 21.4660631 ], [ 92.3532703, 21.4652729 ], [ 92.3480022, 21.4668533 ], [ 92.3444463, 21.4613218 ], [ 92.3327247, 21.4179916 ], [ 92.312817, 21.4149242 ], [ 92.3057257, 21.4207574 ], [ 92.3016429, 21.4172014 ], [ 92.2997991, 21.4174648 ], [ 92.2940042, 21.4283961 ], [ 92.2720098, 21.4257621 ], [ 92.2670051, 21.4046897 ], [ 92.2672685, 21.4021873 ], [ 92.2717464, 21.3995533 ], [ 92.2572591, 21.3836172 ], [ 92.2552836, 21.3537208 ], [ 92.220119, 21.3433163 ], [ 92.2012855, 21.3263266 ], [ 92.2062902, 21.2980106 ], [ 92.2091877, 21.2864207 ], [ 92.215246, 21.2826014 ], [ 92.2176167, 21.2777284 ], [ 92.218802, 21.2602119 ], [ 92.2243335, 21.2521781 ], [ 92.216563, 21.2438808 ], [ 92.2159045, 21.2386127 ], [ 92.2216994, 21.2304471 ], [ 92.2036466, 21.2049254 ], [ 92.2024769, 21.2050554 ], [ 92.1954606, 21.2017143 ], [ 92.1938035, 21.1950521 ], [ 92.1851799, 21.1892493 ], [ 92.1818483, 21.1842385 ], [ 92.1734802, 21.1774351 ], [ 92.1727331, 21.169821 ], [ 92.1763146, 21.1599835 ], [ 92.1896627, 21.1629544 ], [ 92.1953671, 21.1612553 ], [ 92.2021364, 21.1507434 ], [ 92.1954346, 21.1269073 ], [ 92.2549667, 21.0615158 ], [ 92.251292, 21.0250403 ], [ 92.2630406, 20.9782265 ], [ 92.2693485, 20.9213458 ], [ 92.2996495, 20.8882547 ], [ 92.3351551, 20.789771 ], [ 92.2918019, 20.808653 ], [ 92.273136, 20.8462992 ], [ 92.2256802, 20.912656 ], [ 92.203522, 20.9569721 ], [ 92.1842849, 21.0163631 ], [ 92.0548431, 21.1687697 ], [ 92.0482347, 21.1934512 ], [ 92.0454789, 21.3015779 ], [ 92.0147984, 21.3701477 ], [ 91.958373, 21.4390671 ], [ 91.9512938, 21.4676021 ], [ 91.9794389, 21.4744704 ], [ 92.0024858, 21.5235291 ], [ 91.9949505, 21.5788399 ], [ 92.013138, 21.5963275 ], [ 91.9953497, 21.6406348 ], [ 91.9626402, 21.6705573 ], [ 91.9428882, 21.7539787 ], [ 91.8939856, 21.7698789 ], [ 91.909225, 21.8138769 ], [ 91.9170014, 21.8647741 ], [ 91.9038389, 21.9450126 ], [ 91.8895911, 21.949551 ], [ 91.8807123, 22.0402438 ], [ 91.8609295, 22.0967455 ], [ 91.8304988, 22.1354045 ], [ 91.7997493, 22.2259279 ], [ 91.7659439, 22.2754411 ], [ 91.7687093, 22.2993862 ], [ 91.7525519, 22.3589505 ], [ 91.7587882, 22.3731692 ], [ 91.7229259, 22.4641084 ], [ 91.6925454, 22.5139331 ], [ 91.6379378, 22.5730727 ], [ 91.5637879, 22.6802811 ], [ 91.4653897, 22.7608338 ], [ 91.4516989, 22.7935199 ], [ 91.425084, 22.8146227 ], [ 91.4800072, 22.8442416 ], [ 91.4849108, 22.890362 ], [ 91.5270198, 22.9141809 ], [ 91.5349136, 22.9294404 ], [ 91.5429028, 22.9359488 ], [ 91.5350988, 22.9380642 ], [ 91.5504628, 22.956738 ], [ 91.563582, 22.9514521 ], [ 91.5707633, 22.9557645 ], [ 91.58215, 22.9699 ], [ 91.60451, 22.96745 ], [ 91.61065, 22.96015 ], [ 91.6124563, 22.958007 ], [ 91.60834, 22.9547 ], [ 91.61674, 22.93768 ], [ 91.6146447, 22.9315159 ], [ 91.61399, 22.92959 ], [ 91.61688, 22.92935 ], [ 91.623472, 22.940846 ], [ 91.62273, 22.94494 ], [ 91.6248653, 22.9489789 ], [ 91.62531, 22.94982 ], [ 91.62496, 22.95178 ], [ 91.6244913, 22.9546254 ], [ 91.63012, 22.95522 ], [ 91.63297, 22.95964 ], [ 91.6336835, 22.9616755 ], [ 91.63804, 22.97017 ], [ 91.64245, 22.97524 ], [ 91.7121, 22.98285 ], [ 91.7167215, 22.9850335 ], [ 91.7321442, 23.0011969 ], [ 91.73651, 23.00545 ], [ 91.7429633, 23.0098111 ], [ 91.746, 23.01187 ], [ 91.7558614, 23.0214637 ], [ 91.75807, 23.02362 ], [ 91.7799, 23.03311 ], [ 91.7807048, 23.0369361 ], [ 91.7748811, 23.06239 ], [ 91.77557, 23.06417 ], [ 91.78637, 23.06855 ], [ 91.78936, 23.0677 ], [ 91.793735, 23.0639754 ], [ 91.7972286, 23.0610012 ], [ 91.8139529, 23.0708299 ], [ 91.81474, 23.07356 ], [ 91.81503, 23.07441 ], [ 91.81611, 23.07749 ], [ 91.818977, 23.0796443 ], [ 91.82146, 23.08151 ], [ 91.8247989, 23.0862134 ], [ 91.82792, 23.09061 ], [ 91.82179, 23.09735 ], [ 91.8174271, 23.0975519 ], [ 91.81509, 23.09766 ], [ 91.8140693, 23.1002769 ], [ 91.81376, 23.10107 ], [ 91.8129408, 23.1170301 ], [ 91.81201, 23.11982 ], [ 91.81159, 23.12108 ], [ 91.80987, 23.12622 ], [ 91.80836, 23.13424 ], [ 91.80785, 23.13696 ], [ 91.8084072, 23.1412834 ], [ 91.80405, 23.15866 ], [ 91.80532, 23.16718 ], [ 91.79187, 23.19715 ], [ 91.78832, 23.20006 ], [ 91.78913, 23.20696 ], [ 91.7887132, 23.2084215 ], [ 91.78378, 23.22572 ], [ 91.77983, 23.23955 ], [ 91.7752278, 23.2411833 ], [ 91.77389, 23.25201 ], [ 91.7749929, 23.2549176 ], [ 91.7756491, 23.2566523 ], [ 91.7746815, 23.2592206 ], [ 91.77041, 23.2676 ], [ 91.7725569, 23.2703355 ], [ 91.78554, 23.30775 ], [ 91.8164218, 23.3523874 ], [ 91.82796, 23.3638 ], [ 91.85303, 23.40374 ], [ 91.8561666, 23.4038988 ], [ 91.85707, 23.40452 ], [ 91.8641752, 23.4095164 ], [ 91.88271, 23.42492 ], [ 91.88912, 23.42875 ], [ 91.9392541, 23.4456532 ], [ 91.94035, 23.45379 ], [ 91.95138, 23.46869 ], [ 91.96133, 23.47763 ], [ 91.96655, 23.48715 ], [ 91.96649, 23.49271 ], [ 91.96636, 23.50388 ], [ 91.96142, 23.51203 ], [ 91.96043, 23.54021 ], [ 91.9602805, 23.5456591 ], [ 91.9600297, 23.5551011 ], [ 91.9527, 23.5781 ], [ 91.94408, 23.62318 ], [ 91.93874, 23.65413 ], [ 91.93828, 23.66702 ], [ 91.93781, 23.68024 ], [ 91.94645, 23.69213 ], [ 91.9469064, 23.6972377 ], [ 91.94834, 23.71284 ], [ 91.94896, 23.71947 ], [ 91.94946, 23.7202 ], [ 91.95375, 23.72646 ], [ 91.9577057, 23.7269717 ], [ 91.97953, 23.72154 ], [ 91.98923, 23.69355 ], [ 92.00436, 23.67647 ], [ 92.01598, 23.66068 ], [ 92.02236, 23.64523 ], [ 92.0666559, 23.6426429 ], [ 92.07411, 23.64523 ], [ 92.0766701, 23.6493109 ], [ 92.07746, 23.65057 ], [ 92.08457, 23.67412 ], [ 92.08797, 23.67717 ], [ 92.09285, 23.67739 ], [ 92.0946054, 23.6774696 ], [ 92.10223, 23.68436 ], [ 92.1058159, 23.6863487 ], [ 92.1091, 23.68817 ], [ 92.11415, 23.6923 ], [ 92.11544, 23.69336 ], [ 92.1166983, 23.6952073 ], [ 92.12288, 23.70429 ], [ 92.13183, 23.7148 ], [ 92.1340058, 23.7162524 ], [ 92.13574, 23.71741 ], [ 92.16891, 23.73485 ], [ 92.1777, 23.73206 ], [ 92.19565, 23.71113 ], [ 92.1982643, 23.7061759 ], [ 92.19984, 23.70319 ], [ 92.21146, 23.69633 ], [ 92.2102705, 23.6908086 ], [ 92.21014, 23.68009 ], [ 92.20859, 23.67128 ], [ 92.20889, 23.65944 ], [ 92.22077, 23.65182 ] ] ], [ [ [ 88.4547, 26.54554 ], [ 88.4624013, 26.5449201 ], [ 88.46439, 26.54476 ], [ 88.46505, 26.5447 ], [ 88.4719434, 26.5441416 ], [ 88.47937, 26.54354 ], [ 88.481432, 26.5394024 ], [ 88.48543, 26.53138 ], [ 88.48581, 26.53061 ], [ 88.48696, 26.51907 ], [ 88.48762, 26.51237 ], [ 88.49319, 26.51143 ], [ 88.49498, 26.51182 ], [ 88.50379, 26.51372 ], [ 88.5066515, 26.5133102 ], [ 88.5154497, 26.51205 ], [ 88.51709, 26.50649 ], [ 88.5234097, 26.4850312 ], [ 88.5252824, 26.4850548 ], [ 88.53246, 26.48515 ], [ 88.5560151, 26.4855883 ], [ 88.55609, 26.4838 ], [ 88.55634, 26.47821 ], [ 88.5589246, 26.4740824 ], [ 88.55871, 26.47028 ], [ 88.5589309, 26.4696071 ], [ 88.55936, 26.4683 ], [ 88.5599058, 26.4666625 ], [ 88.55992, 26.46662 ], [ 88.5751, 26.46548 ], [ 88.62138, 26.47237 ], [ 88.6214846, 26.4674475 ], [ 88.62163, 26.46061 ], [ 88.62509, 26.4374 ], [ 88.6464176, 26.4290049 ], [ 88.64691, 26.42737 ], [ 88.6513371, 26.4219838 ], [ 88.66435, 26.41223 ], [ 88.6831, 26.41436 ], [ 88.6835319, 26.4126263 ], [ 88.67707, 26.40303 ], [ 88.69167, 26.39902 ], [ 88.6956097, 26.39195 ], [ 88.68384, 26.39134 ], [ 88.68774, 26.3838 ], [ 88.6898327, 26.3743895 ], [ 88.70864, 26.34744 ], [ 88.74497, 26.3538076 ], [ 88.744955, 26.352947 ], [ 88.70403, 26.29318 ], [ 88.70429, 26.28999 ], [ 88.6872868, 26.2885453 ], [ 88.68571, 26.28919 ], [ 88.66442, 26.29828 ], [ 88.66526, 26.2928903 ], [ 88.68041, 26.2676 ], [ 88.7058, 26.27954 ], [ 88.712761, 26.2826294 ], [ 88.7452774, 26.2921906 ], [ 88.74147, 26.30593 ], [ 88.75255, 26.31231 ], [ 88.754062, 26.3076663 ], [ 88.758889, 26.3028202 ], [ 88.76218, 26.303 ], [ 88.80351, 26.30741 ], [ 88.8088689, 26.3010781 ], [ 88.80668, 26.25623 ], [ 88.8173571, 26.255138 ], [ 88.8234, 26.25452 ], [ 88.8234999, 26.252363 ], [ 88.82385, 26.24462 ], [ 88.8374559, 26.2373389 ], [ 88.83893, 26.23655 ], [ 88.84708, 26.2364 ], [ 88.8545586, 26.2329246 ], [ 88.857, 26.23179 ], [ 88.8600127, 26.2318872 ], [ 88.86163, 26.25123 ], [ 88.8615746, 26.2527723 ], [ 88.86156, 26.25318 ], [ 88.8594013, 26.2594361 ], [ 88.8609011, 26.2705278 ], [ 88.86222, 26.27338 ], [ 88.8630226, 26.2745091 ], [ 88.86861, 26.28237 ], [ 88.87028, 26.28472 ], [ 88.87866, 26.28869 ], [ 88.91155, 26.28851 ], [ 88.92083, 26.28163 ], [ 88.95865, 26.23568 ], [ 89.0161709, 26.234496 ], [ 89.0247619, 26.2382649 ], [ 89.02605, 26.23883 ], [ 89.03931, 26.24836 ], [ 89.0478, 26.24818 ], [ 89.05002, 26.24813 ], [ 89.05858, 26.25516 ], [ 89.064599, 26.2570297 ], [ 89.06463, 26.26486 ], [ 89.05994, 26.27037 ], [ 89.05464, 26.27659 ], [ 89.0547313, 26.277925 ], [ 89.05488, 26.2801 ], [ 89.0555036, 26.2892709 ], [ 89.04703, 26.29052 ], [ 89.04375, 26.28509 ], [ 89.0359891, 26.2857194 ], [ 89.02619, 26.30031 ], [ 89.02644, 26.30366 ], [ 89.02607, 26.30508 ], [ 89.02453, 26.31093 ], [ 89.0169, 26.30187 ], [ 89.00085, 26.30282 ], [ 88.9992982, 26.3025971 ], [ 88.9977, 26.30005 ], [ 88.99559, 26.2967 ], [ 88.9885305, 26.2976182 ], [ 88.98639, 26.2979 ], [ 88.98484, 26.30248 ], [ 88.98064, 26.31486 ], [ 88.9869821, 26.3182462 ], [ 88.98978, 26.31974 ], [ 88.99721, 26.32881 ], [ 88.99703, 26.33667 ], [ 88.98241, 26.33537 ], [ 88.98482, 26.34615 ], [ 88.9836151, 26.3477322 ], [ 88.9552, 26.34614 ], [ 88.94592, 26.34411 ], [ 88.94376, 26.35065 ], [ 88.95191, 26.35675 ], [ 88.95277, 26.35739 ], [ 88.9579063, 26.3612329 ], [ 88.94937, 26.36785 ], [ 88.9448446, 26.3644199 ], [ 88.93681, 26.35833 ], [ 88.91428, 26.37999 ], [ 88.91428, 26.3814024 ], [ 88.91428, 26.38286 ], [ 88.91216, 26.38595 ], [ 88.91498, 26.40352 ], [ 88.9052939, 26.4059065 ], [ 88.9288453, 26.416076 ], [ 88.9331888, 26.4187593 ], [ 88.932844, 26.4203427 ], [ 88.93185, 26.42489 ], [ 88.933364, 26.4328675 ], [ 88.9372262, 26.4302726 ], [ 88.93723, 26.43027 ], [ 88.94093, 26.43676 ], [ 88.9588, 26.45407 ], [ 88.97003, 26.45399 ], [ 88.9702014, 26.4538728 ], [ 88.97617, 26.44979 ], [ 88.97851, 26.42676 ], [ 88.98971, 26.43281 ], [ 88.99392, 26.42017 ], [ 88.9973575, 26.4196838 ], [ 89.00389, 26.41853 ], [ 89.0108058, 26.4177388 ], [ 89.01403, 26.41737 ], [ 89.0211007, 26.4125122 ], [ 89.02598, 26.40916 ], [ 89.03072, 26.4059 ], [ 89.0379863, 26.4024369 ], [ 89.04931, 26.39704 ], [ 89.05349, 26.39778 ], [ 89.06296, 26.39946 ], [ 89.0634729, 26.3994258 ], [ 89.07347, 26.39876 ], [ 89.0777, 26.39691 ], [ 89.0802465, 26.3958053 ], [ 89.08261, 26.39478 ], [ 89.10016, 26.39598 ], [ 89.09379, 26.3723 ], [ 89.085218, 26.3670276 ], [ 89.0841, 26.36634 ], [ 89.10357, 26.35499 ], [ 89.0989035, 26.3385282 ], [ 89.09723, 26.33721 ], [ 89.09053, 26.32983 ], [ 89.09057, 26.3257 ], [ 89.0913794, 26.3247087 ], [ 89.09275, 26.32303 ], [ 89.11476, 26.32649 ], [ 89.1304865, 26.3226446 ], [ 89.13632, 26.31889 ], [ 89.13122, 26.29914 ], [ 89.12527, 26.29889 ], [ 89.1071501, 26.3123743 ], [ 89.10255, 26.31127 ], [ 89.10598, 26.29608 ], [ 89.12195, 26.25692 ], [ 89.12873, 26.25088 ], [ 89.131507, 26.2484056 ], [ 89.15125, 26.20805 ], [ 89.14298, 26.20035 ], [ 89.14085, 26.19692 ], [ 89.13946, 26.19469 ], [ 89.1395514, 26.193768 ], [ 89.1405, 26.18439 ], [ 89.1554, 26.16226 ], [ 89.1573, 26.15759 ], [ 89.17699, 26.12892 ], [ 89.18766, 26.12431 ], [ 89.2031337, 26.1254328 ], [ 89.21733, 26.12646 ], [ 89.222729, 26.1238165 ], [ 89.22987, 26.12032 ], [ 89.23203, 26.11826 ], [ 89.25555, 26.09587 ], [ 89.26304, 26.09365 ], [ 89.26564, 26.09095 ], [ 89.2664903, 26.0900581 ], [ 89.259674, 26.0662635 ], [ 89.26244, 26.0603 ], [ 89.2795183, 26.0555999 ], [ 89.28072, 26.05319 ], [ 89.28372, 26.04716 ], [ 89.2902592, 26.0451279 ], [ 89.30261, 26.04563 ], [ 89.304465, 26.0445927 ], [ 89.30921, 26.04192 ], [ 89.32853, 26.03106 ], [ 89.33057, 26.02878 ], [ 89.3352453, 26.0235527 ], [ 89.33904, 26.01931 ], [ 89.35738, 26.00834 ], [ 89.3622835, 26.0077165 ], [ 89.36839, 26.00694 ], [ 89.3875, 26.00752 ], [ 89.3897021, 26.008983 ], [ 89.39133, 26.01108 ], [ 89.3954064, 26.0181484 ], [ 89.43035, 26.03977 ], [ 89.43317, 26.03413 ], [ 89.45021, 26.01849 ], [ 89.46915, 26.00043 ], [ 89.49509, 26.00556 ], [ 89.51812, 26.00785 ], [ 89.52372, 26.00761 ], [ 89.53229, 26.00381 ], [ 89.5362922, 26.0009371 ], [ 89.53835, 25.99946 ], [ 89.5401759, 25.9831487 ], [ 89.5410399, 25.9754311 ], [ 89.5415146, 25.9746582 ], [ 89.54711, 25.96556 ], [ 89.5826, 25.9782 ], [ 89.580551, 25.9993668 ], [ 89.57903, 26.01508 ], [ 89.58338, 26.03637 ], [ 89.59746, 26.04495 ], [ 89.60704, 26.0575 ], [ 89.6096, 26.05884 ], [ 89.61275, 26.06048 ], [ 89.63892, 26.06732 ], [ 89.6396752, 26.0695163 ], [ 89.64001, 26.07049 ], [ 89.6343057, 26.0832797 ], [ 89.63175, 26.08901 ], [ 89.6321, 26.09776 ], [ 89.62955, 26.10317 ], [ 89.62344, 26.10339 ], [ 89.6121439, 26.0919156 ], [ 89.5976315, 26.0942906 ], [ 89.59696, 26.10353 ], [ 89.5977737, 26.1051662 ], [ 89.59882, 26.10727 ], [ 89.6006736, 26.1090359 ], [ 89.60199, 26.11029 ], [ 89.62421, 26.11377 ], [ 89.62752, 26.11618 ], [ 89.6292051, 26.117401 ], [ 89.62988, 26.11789 ], [ 89.6287725, 26.1215504 ], [ 89.62775, 26.12493 ], [ 89.60938, 26.11715 ], [ 89.6060119, 26.1174537 ], [ 89.60195, 26.11782 ], [ 89.59782, 26.12689 ], [ 89.59912, 26.13302 ], [ 89.59744, 26.14146 ], [ 89.59014, 26.15037 ], [ 89.59037, 26.15635 ], [ 89.59676, 26.15822 ], [ 89.59941, 26.159 ], [ 89.6032801, 26.1582295 ], [ 89.60815, 26.15726 ], [ 89.6107987, 26.1670433 ], [ 89.61161, 26.17004 ], [ 89.6130482, 26.172027 ], [ 89.6151999, 26.1749999 ], [ 89.6155646, 26.1748776 ], [ 89.62994, 26.17005 ], [ 89.6379296, 26.1687995 ], [ 89.64941, 26.17838 ], [ 89.6396585, 26.1811756 ], [ 89.62926, 26.18415 ], [ 89.62747, 26.18466 ], [ 89.6281202, 26.196101 ], [ 89.62922, 26.19595 ], [ 89.6341, 26.19526 ], [ 89.6356021, 26.2011667 ], [ 89.63222, 26.21885 ], [ 89.64387, 26.22573 ], [ 89.6718921, 26.2297509 ], [ 89.67531, 26.22877 ], [ 89.67769, 26.21623 ], [ 89.6811703, 26.2150563 ], [ 89.68752, 26.21292 ], [ 89.68924, 26.21002 ], [ 89.68652, 26.18554 ], [ 89.68437, 26.18235 ], [ 89.69404, 26.15422 ], [ 89.7031266, 26.1592731 ], [ 89.70625, 26.16101 ], [ 89.7114952, 26.1617932 ], [ 89.71864, 26.16286 ], [ 89.7206984, 26.1625923 ], [ 89.73967, 26.1593 ], [ 89.7429649, 26.1573792 ], [ 89.75429, 26.14297 ], [ 89.7566075, 26.1398436 ], [ 89.75853, 26.13725 ], [ 89.7649866, 26.1189023 ], [ 89.76731, 26.1123 ], [ 89.78523, 26.09344 ], [ 89.78944, 26.07935 ], [ 89.7902308, 26.0761803 ], [ 89.79069, 26.07434 ], [ 89.77604, 26.04439 ], [ 89.7792992, 26.039911 ], [ 89.7829827, 26.0395662 ], [ 89.7873, 26.03916 ], [ 89.7906648, 26.0388486 ], [ 89.79342, 26.03856 ], [ 89.80067, 26.03428 ], [ 89.80914, 26.02149 ], [ 89.81512, 26.00703 ], [ 89.82056, 25.99389 ], [ 89.8345485, 25.9837408 ], [ 89.84095, 25.98525 ], [ 89.8423494, 25.9733259 ], [ 89.8416, 25.96792 ], [ 89.84101, 25.96365 ], [ 89.8408876, 25.9627656 ], [ 89.8238305, 25.9490834 ], [ 89.82454, 25.94579 ], [ 89.831742, 25.9413035 ], [ 89.83186, 25.94123 ], [ 89.840273, 25.9416495 ], [ 89.85011, 25.94214 ], [ 89.86182, 25.94165 ], [ 89.87728, 25.93693 ], [ 89.88033, 25.9313 ], [ 89.87833, 25.92479 ], [ 89.86139, 25.90412 ], [ 89.8563154, 25.8989155 ], [ 89.85552, 25.89821 ], [ 89.8489186, 25.8923367 ], [ 89.8360461, 25.8771157 ], [ 89.83193, 25.86726 ], [ 89.83122, 25.85937 ], [ 89.82974, 25.8426 ], [ 89.8286549, 25.8380208 ], [ 89.8276413, 25.8337435 ], [ 89.82633, 25.82823 ], [ 89.82034, 25.81491 ], [ 89.83075, 25.79102 ], [ 89.8344916, 25.7847299 ], [ 89.83467, 25.78443 ], [ 89.83709, 25.773 ], [ 89.83338, 25.7513 ], [ 89.82255, 25.73275 ], [ 89.82537, 25.72114 ], [ 89.83666, 25.71811 ], [ 89.8413301, 25.7153843 ], [ 89.84146, 25.70829 ], [ 89.85644, 25.67336 ], [ 89.8627543, 25.669082 ], [ 89.86899, 25.66486 ], [ 89.87276, 25.65421 ], [ 89.86864, 25.58262 ], [ 89.8578785, 25.5474828 ], [ 89.85584, 25.54081 ], [ 89.85252, 25.5373803 ], [ 89.85099, 25.5358 ], [ 89.843, 25.46613 ], [ 89.8347012, 25.4499013 ], [ 89.8286537, 25.4380774 ], [ 89.82325, 25.4275 ], [ 89.8221457, 25.4139886 ], [ 89.81568, 25.37164 ], [ 89.83219, 25.30267 ], [ 89.83448, 25.29678 ], [ 89.84232, 25.29104 ], [ 89.8745693, 25.2838703 ], [ 89.87746, 25.28482 ], [ 89.90254, 25.30595 ], [ 89.90678, 25.30557 ], [ 89.9094216, 25.3053372 ], [ 89.93377, 25.29885 ], [ 89.9342755, 25.2990152 ], [ 89.9522192, 25.30202 ], [ 89.9573138, 25.2995206 ], [ 89.9774494, 25.2878907 ], [ 89.99008, 25.27973 ], [ 89.9980523, 25.277536 ], [ 90.0, 25.277 ], [ 90.00849, 25.27466 ], [ 90.0124493, 25.2727313 ], [ 90.01588, 25.27106 ], [ 90.0250531, 25.2666045 ], [ 90.03093, 25.26375 ], [ 90.04939, 25.25752 ], [ 90.05913, 25.25235 ], [ 90.0852731, 25.2384615 ], [ 90.10777, 25.22651 ], [ 90.13193, 25.22253 ], [ 90.21022, 25.20344 ], [ 90.2687446, 25.1936176 ], [ 90.29272, 25.19155 ], [ 90.31838, 25.18736 ], [ 90.3604, 25.15915 ], [ 90.4140406, 25.152327 ], [ 90.44318, 25.14558 ], [ 90.44945, 25.14878 ], [ 90.4519033, 25.1500351 ], [ 90.45938, 25.15386 ], [ 90.4595, 25.15391 ], [ 90.4626989, 25.1536805 ], [ 90.47038, 25.15312 ], [ 90.4818881, 25.1617586 ], [ 90.49227, 25.16737 ], [ 90.50288, 25.17034 ], [ 90.51173, 25.17282 ], [ 90.51485, 25.17302 ], [ 90.53312, 25.1742 ], [ 90.54997, 25.169 ], [ 90.5612412, 25.1699871 ], [ 90.57429, 25.17298 ], [ 90.57662, 25.17309 ], [ 90.57907, 25.17321 ], [ 90.58939, 25.17369 ], [ 90.5987616, 25.1711137 ], [ 90.61489, 25.16668 ], [ 90.6298639, 25.1705705 ], [ 90.64353, 25.18342 ], [ 90.64923, 25.18568 ], [ 90.66042, 25.17683 ], [ 90.66583, 25.16712 ], [ 90.67476, 25.16145 ], [ 90.67617, 25.16056 ], [ 90.69449, 25.16049 ], [ 90.6984, 25.15999 ], [ 90.7037954, 25.1588313 ], [ 90.72499, 25.15678 ], [ 90.7338426, 25.1608274 ], [ 90.74111, 25.16415 ], [ 90.7609692, 25.1787836 ], [ 90.76224, 25.17972 ], [ 90.77079, 25.18044 ], [ 90.83887, 25.15332 ], [ 90.88929, 25.15412 ], [ 90.96607, 25.1653 ], [ 90.9668718, 25.1661363 ], [ 90.96956, 25.16894 ], [ 90.97556, 25.17521 ], [ 90.9797577, 25.1769268 ], [ 91.0024365, 25.1810755 ], [ 91.02602, 25.18485 ], [ 91.05605, 25.18966 ], [ 91.0639444, 25.1925296 ], [ 91.06975, 25.19464 ], [ 91.0739003, 25.1951601 ], [ 91.1262, 25.18909 ], [ 91.18872, 25.19791 ], [ 91.23593, 25.19711 ], [ 91.24212, 25.20072 ], [ 91.2473019, 25.2011668 ], [ 91.26149, 25.20239 ], [ 91.28239, 25.19605 ], [ 91.31958, 25.1766 ], [ 91.38919, 25.16308 ], [ 91.3962, 25.16228 ], [ 91.45727, 25.14454 ], [ 91.47647, 25.13515 ], [ 91.48371, 25.13448 ], [ 91.50545, 25.13587 ], [ 91.5187797, 25.1453798 ], [ 91.5253942, 25.1450122 ], [ 91.52726, 25.14491 ], [ 91.53595, 25.14443 ], [ 91.5991, 25.16638 ], [ 91.6033781, 25.1582236 ], [ 91.60338, 25.15822 ], [ 91.59804, 25.14249 ], [ 91.6221776, 25.135727 ], [ 91.62347, 25.13462 ], [ 91.6294806, 25.126848 ], [ 91.63239, 25.12265 ], [ 91.63668, 25.12337 ], [ 91.64996, 25.12559 ], [ 91.6885271, 25.1298571 ], [ 91.6904, 25.13091 ], [ 91.6944498, 25.1427377 ], [ 91.6944515, 25.1427427 ], [ 91.69808, 25.15334 ], [ 91.7005079, 25.1552543 ], [ 91.70079, 25.15548 ], [ 91.70938, 25.15498 ], [ 91.72403, 25.14963 ], [ 91.73537, 25.14549 ], [ 91.7387075, 25.1454424 ], [ 91.74373, 25.14632 ], [ 91.7443449, 25.1466014 ], [ 91.74744, 25.15285 ], [ 91.75272, 25.16539 ], [ 91.75533, 25.16661 ], [ 91.75993, 25.16877 ], [ 91.7714735, 25.1669425 ], [ 91.78526, 25.16476 ], [ 91.7944267, 25.1668996 ], [ 91.79829, 25.1678 ], [ 91.81733, 25.16858 ], [ 91.84762, 25.17166 ], [ 91.85459, 25.17181 ], [ 91.9301075, 25.1794028 ], [ 91.93793, 25.17967 ], [ 91.9602, 25.17732 ], [ 91.96513, 25.17215 ], [ 91.97894, 25.16464 ], [ 92.0178633, 25.1839888 ], [ 92.01953, 25.185 ], [ 92.0251698, 25.1850079 ], [ 92.05534, 25.18505 ], [ 92.0786136, 25.1785162 ], [ 92.1139, 25.16861 ], [ 92.12595, 25.16319 ], [ 92.13398, 25.15635 ], [ 92.13612, 25.14079 ], [ 92.13874, 25.13694 ], [ 92.1428174, 25.1351911 ], [ 92.1566777, 25.1457882 ], [ 92.16003, 25.13232 ], [ 92.1620201, 25.130089 ], [ 92.16317, 25.1288 ], [ 92.16728, 25.1242 ], [ 92.17621, 25.12002 ], [ 92.1826235, 25.1197658 ], [ 92.18403, 25.11971 ], [ 92.1832636, 25.1214035 ], [ 92.1871243, 25.1325282 ], [ 92.1900273, 25.1322203 ], [ 92.2026943, 25.1261983 ], [ 92.2108401, 25.1216999 ], [ 92.21106, 25.12126 ], [ 92.21131, 25.12076 ], [ 92.21545, 25.11252 ], [ 92.2146838, 25.1065075 ], [ 92.2221966, 25.0997965 ], [ 92.22939, 25.09801 ], [ 92.2354591, 25.0964958 ], [ 92.23929, 25.09554 ], [ 92.26078, 25.08195 ], [ 92.30337, 25.0706 ], [ 92.30791, 25.07138 ], [ 92.3124, 25.07214 ], [ 92.32761, 25.07954 ], [ 92.3305, 25.07901 ], [ 92.33443, 25.07829 ], [ 92.33588, 25.07708 ], [ 92.33427, 25.0519 ], [ 92.3589588, 25.0448853 ], [ 92.37273, 25.04458 ], [ 92.39942, 25.03336 ], [ 92.41804, 25.0 ], [ 92.4196972, 24.9851128 ], [ 92.42085, 24.97477 ], [ 92.42733, 24.96909 ], [ 92.4326334, 24.9660466 ], [ 92.43516, 24.96516 ], [ 92.4416603, 24.9656282 ], [ 92.44599, 24.96594 ], [ 92.4470368, 24.9660166 ], [ 92.452, 24.96638 ], [ 92.45861, 24.95548 ], [ 92.44915, 24.94636 ], [ 92.454311, 24.9391367 ], [ 92.45712, 24.93847 ], [ 92.48465, 24.93753 ], [ 92.4862934, 24.9365017 ], [ 92.49097, 24.92048 ], [ 92.49423, 24.89736 ], [ 92.4936664, 24.8954764 ], [ 92.49113, 24.887 ], [ 92.49139, 24.87689 ], [ 92.4909341, 24.8746895 ], [ 92.4787625, 24.8672522 ], [ 92.47531, 24.86843 ], [ 92.47257, 24.86937 ], [ 92.46915, 24.87054 ], [ 92.44696, 24.86476 ], [ 92.43381, 24.8534 ], [ 92.40732, 24.85367 ], [ 92.4014, 24.85213 ], [ 92.38562, 24.85727 ], [ 92.38315, 24.85845 ], [ 92.33264, 24.85683 ], [ 92.2965794, 24.8504203 ], [ 92.26969, 24.84169 ], [ 92.2656176, 24.8366986 ], [ 92.26034, 24.83023 ], [ 92.26826, 24.8193 ], [ 92.2756406, 24.809111 ], [ 92.27688, 24.8074 ], [ 92.27622, 24.80238 ], [ 92.2747266, 24.7909857 ], [ 92.2288, 24.67453 ], [ 92.20783, 24.63384 ], [ 92.19357, 24.57268 ], [ 92.17236, 24.54703 ], [ 92.1288, 24.51312 ], [ 92.13182, 24.46112 ], [ 92.14319, 24.43657 ], [ 92.14359, 24.4203 ], [ 92.13249, 24.39209 ], [ 92.11973, 24.38151 ], [ 92.11123, 24.37733 ], [ 92.1083, 24.3758912 ], [ 92.10563, 24.37458 ], [ 92.09898, 24.37427 ], [ 92.0887277, 24.3737885 ], [ 92.0871, 24.37391 ], [ 92.0618191, 24.3775676 ], [ 92.0328516, 24.3805158 ], [ 92.02354, 24.38274 ], [ 92.01051, 24.38316 ], [ 92.0003, 24.38088 ], [ 91.98019, 24.37655 ], [ 91.97059, 24.37749 ], [ 91.96969, 24.36639 ], [ 91.98142, 24.35548 ], [ 91.98559, 24.3494 ], [ 91.9877262, 24.3462916 ], [ 91.99027, 24.34259 ], [ 91.99644, 24.32644 ], [ 91.98811, 24.31915 ], [ 91.97788, 24.32765 ], [ 91.9759107, 24.3313579 ], [ 91.96721, 24.34774 ], [ 91.9663086, 24.3494205 ], [ 91.94222, 24.34454 ], [ 91.9391451, 24.3419937 ], [ 91.93661, 24.33989 ], [ 91.9205551, 24.32658 ], [ 91.93333, 24.27945 ], [ 91.91633, 24.20294 ], [ 91.91211, 24.17066 ], [ 91.8861161, 24.142307 ], [ 91.88316, 24.14282 ], [ 91.86198, 24.17812 ], [ 91.8561611, 24.1839389 ], [ 91.8537167, 24.1856562 ], [ 91.8436995, 24.1889505 ], [ 91.8434861, 24.2105535 ], [ 91.84693, 24.21746 ], [ 91.8451079, 24.2200998 ], [ 91.84205, 24.22453 ], [ 91.84147, 24.22536 ], [ 91.83401, 24.22359 ], [ 91.81684, 24.21174 ], [ 91.80984, 24.21135 ], [ 91.7826954, 24.2227696 ], [ 91.76548, 24.23197 ], [ 91.7466816, 24.2343561 ], [ 91.74402, 24.23163 ], [ 91.74718, 24.20303 ], [ 91.7540491, 24.1829958 ], [ 91.7550432, 24.1783724 ], [ 91.75459, 24.17501 ], [ 91.7563, 24.16948 ], [ 91.75953, 24.15907 ], [ 91.75794, 24.14435 ], [ 91.756543, 24.142287 ], [ 91.75515, 24.14023 ], [ 91.73393, 24.13577 ], [ 91.69279, 24.15935 ], [ 91.68794, 24.16456 ], [ 91.6847084, 24.1684619 ], [ 91.68173, 24.17534 ], [ 91.6761, 24.18835 ], [ 91.670781, 24.200652 ], [ 91.65884, 24.22827 ], [ 91.65212, 24.22696 ], [ 91.6479, 24.21699 ], [ 91.6509978, 24.1981732 ], [ 91.6525589, 24.1871902 ], [ 91.645724, 24.1750332 ], [ 91.63759, 24.14933 ], [ 91.63891, 24.12369 ], [ 91.6392897, 24.1163476 ], [ 91.6391376, 24.1151725 ], [ 91.63786, 24.1053 ], [ 91.632556, 24.099013 ], [ 91.59444, 24.07743 ], [ 91.59144, 24.07643 ], [ 91.58554, 24.07446 ], [ 91.55909, 24.07447 ], [ 91.508294, 24.0838512 ], [ 91.4886, 24.0927 ], [ 91.43596, 24.09849 ], [ 91.4200067, 24.1053056 ], [ 91.41267, 24.10844 ], [ 91.40442, 24.10905 ], [ 91.39665, 24.10963 ], [ 91.3862575, 24.1068383 ], [ 91.38091, 24.10224 ], [ 91.39199, 24.05814 ], [ 91.3942488, 24.0496143 ], [ 91.36826, 24.00615 ], [ 91.3707102, 23.9808654 ], [ 91.3702, 23.97757 ], [ 91.3551842, 23.9807564 ], [ 91.33965, 23.98406 ], [ 91.3259635, 23.9853849 ], [ 91.30246, 23.98766 ], [ 91.28934, 23.97144 ], [ 91.2810181, 23.966795 ], [ 91.28083, 23.96669 ], [ 91.26186, 23.95875 ], [ 91.26472, 23.9473 ], [ 91.2638001, 23.9431488 ], [ 91.26656, 23.92536 ], [ 91.2642733, 23.9243895 ], [ 91.26312, 23.9239 ], [ 91.24181, 23.91944 ], [ 91.2418626, 23.9114556 ], [ 91.2413, 23.90771 ], [ 91.24079, 23.90428 ], [ 91.2338371, 23.8972231 ], [ 91.22943, 23.89275 ], [ 91.2284, 23.88752 ], [ 91.246, 23.83336 ], [ 91.2297718, 23.8023606 ], [ 91.22601, 23.78698 ], [ 91.2266983, 23.7623518 ], [ 91.22311, 23.75427 ], [ 91.21933, 23.74576 ], [ 91.21331, 23.73918 ], [ 91.16267, 23.74195 ], [ 91.15128, 23.7118 ], [ 91.1512573, 23.706107 ], [ 91.1526342, 23.6981106 ], [ 91.15558, 23.6904 ], [ 91.19625, 23.6876 ], [ 91.1975242, 23.6555189 ], [ 91.1969986, 23.6479493 ], [ 91.16534, 23.66516 ], [ 91.1646955, 23.6658189 ], [ 91.16354, 23.667 ], [ 91.16126, 23.66098 ], [ 91.15757, 23.65125 ], [ 91.1544649, 23.6261559 ], [ 91.15762, 23.6102 ], [ 91.16258, 23.5952 ], [ 91.1641854, 23.5924534 ], [ 91.19282, 23.55932 ], [ 91.19652, 23.54452 ], [ 91.2078331, 23.539685 ], [ 91.20815, 23.53841 ], [ 91.2013282, 23.5268053 ], [ 91.19925, 23.52327 ], [ 91.1970527, 23.5195345 ], [ 91.24341, 23.48408 ], [ 91.24731, 23.45884 ], [ 91.25089, 23.43565 ], [ 91.28707, 23.37445 ], [ 91.28437, 23.36963 ], [ 91.28889, 23.35546 ], [ 91.28983, 23.34929 ], [ 91.29532, 23.35139 ], [ 91.30653, 23.35569 ], [ 91.31349, 23.35565 ], [ 91.3137382, 23.3533849 ], [ 91.3141698, 23.3494716 ], [ 91.31031, 23.34779 ], [ 91.30553, 23.344 ], [ 91.30356, 23.33887 ], [ 91.2942152, 23.3302932 ], [ 91.29022, 23.32843 ], [ 91.3073, 23.3013 ], [ 91.30606, 23.29788 ], [ 91.3026901, 23.296958 ], [ 91.31977, 23.24731 ], [ 91.32321, 23.17319 ], [ 91.3245, 23.1575 ], [ 91.32625, 23.1486 ], [ 91.34951, 23.08543 ], [ 91.36408, 23.0715 ], [ 91.3682918, 23.0674706 ], [ 91.40373, 23.05517 ], [ 91.4056603, 23.0607316 ], [ 91.40693, 23.06439 ], [ 91.3814125, 23.1647468 ], [ 91.37978, 23.17523 ], [ 91.3811892, 23.1822776 ], [ 91.38259, 23.1893 ], [ 91.3821767, 23.1930079 ], [ 91.38157, 23.19845 ], [ 91.38358, 23.21355 ], [ 91.38599, 23.22471 ], [ 91.3894578, 23.2310041 ], [ 91.39415, 23.24102 ], [ 91.39673, 23.24724 ], [ 91.39169, 23.25812 ], [ 91.4086144, 23.2590871 ], [ 91.41374, 23.25938 ], [ 91.41628, 23.25932 ], [ 91.42766, 23.25905 ], [ 91.44698, 23.24394 ], [ 91.45589, 23.23614 ], [ 91.46093, 23.22497 ], [ 91.4569222, 23.2218079 ], [ 91.45439, 23.21981 ], [ 91.45322, 23.21726 ], [ 91.45704, 23.21415 ], [ 91.46272, 23.21521 ], [ 91.46884, 23.21811 ], [ 91.47618, 23.21325 ], [ 91.47733, 23.19929 ], [ 91.4721662, 23.1942437 ], [ 91.4787412, 23.1896495 ], [ 91.48298, 23.18931 ], [ 91.4901094, 23.1887273 ], [ 91.49191, 23.15951 ], [ 91.4956302, 23.1560657 ], [ 91.50108, 23.15102 ], [ 91.50085, 23.14184 ], [ 91.5088196, 23.14112 ], [ 91.50884, 23.14029 ], [ 91.509058, 23.1328199 ], [ 91.50658, 23.12773 ], [ 91.50482, 23.12542 ], [ 91.51797, 23.0996 ], [ 91.51872, 23.09775 ], [ 91.5201, 23.09437 ], [ 91.5286202, 23.0879366 ], [ 91.52634, 23.07617 ], [ 91.52237, 23.05084 ], [ 91.53248, 23.04428 ], [ 91.5381789, 23.0391913 ], [ 91.54163, 23.03578 ], [ 91.5408171, 23.0283172 ], [ 91.53834, 23.02212 ], [ 91.538913, 23.0212216 ], [ 91.54218, 23.0161 ], [ 91.5432207, 23.0112769 ], [ 91.5435, 23.00104 ], [ 91.5437, 22.9996 ], [ 91.5439617, 22.9976662 ], [ 91.5745341, 22.9637269 ], [ 91.5657892, 22.9530164 ], [ 91.5532309, 22.9577928 ], [ 91.5463076, 22.9554129 ], [ 91.5318595, 22.9420246 ], [ 91.5359946, 22.9322816 ], [ 91.5256291, 22.9142962 ], [ 91.4770467, 22.8980085 ], [ 91.4494922, 22.8290186 ], [ 91.4350703, 22.839688 ], [ 91.4083864, 22.8059629 ], [ 91.3650052, 22.7770822 ], [ 91.3689464, 22.7490673 ], [ 91.3308953, 22.7517628 ], [ 91.297439, 22.7418864 ], [ 91.2436511, 22.6840382 ], [ 91.2605436, 22.6752144 ], [ 91.2663041, 22.6361549 ], [ 91.245086, 22.6148191 ], [ 91.2603206, 22.5828121 ], [ 91.246296, 22.5521595 ], [ 91.2193036, 22.5501903 ], [ 91.1646924, 22.5206211 ], [ 91.1530725, 22.540306 ], [ 91.1187184, 22.5401652 ], [ 91.0915519, 22.5210575 ], [ 91.0420696, 22.5333311 ], [ 90.8666859, 22.4354987 ], [ 90.8608643, 22.3999083 ], [ 90.8389942, 22.3466048 ], [ 90.8419158, 22.2645508 ], [ 90.8315045, 22.2224649 ], [ 90.8228413, 22.1479762 ], [ 90.7828873, 22.0885064 ], [ 90.7487847, 22.0624344 ], [ 90.6944315, 22.0093105 ], [ 90.6297998, 21.996165 ], [ 90.5982581, 22.0421527 ], [ 90.6174921, 22.0967289 ], [ 90.6260589, 22.1869161 ], [ 90.6480437, 22.2106514 ], [ 90.6622785, 22.2437941 ], [ 90.5952226, 22.2695764 ], [ 90.5554228, 22.2346713 ], [ 90.5255169, 22.1931383 ], [ 90.4955706, 22.1679792 ], [ 90.4893072, 22.1395797 ], [ 90.4342137, 22.0782577 ], [ 90.3912296, 22.088898 ], [ 90.3457568, 22.0625654 ], [ 90.3297275, 22.0415938 ], [ 90.3036421, 21.9763319 ], [ 90.2972318, 21.9360908 ], [ 90.2608082, 21.8580479 ], [ 90.2250319, 21.8125549 ], [ 90.1955224, 21.7999645 ], [ 90.1649342, 21.800471 ], [ 90.1028022, 21.8216448 ], [ 90.0918528, 21.8453762 ], [ 90.1104771, 21.8783749 ], [ 90.0809927, 21.9051227 ], [ 90.0542707, 21.8908833 ], [ 90.0313768, 21.898318 ], [ 90.0295573, 21.946131 ], [ 90.067067, 21.9658413 ], [ 90.0566796, 21.9787604 ], [ 90.0185349, 21.9832572 ], [ 89.9860909, 21.9721142 ], [ 89.9587967, 21.9445711 ], [ 89.938369, 21.9558755 ], [ 89.9374407, 21.9946233 ], [ 89.916398, 22.0244541 ], [ 89.9034503, 22.0782673 ], [ 89.9121737, 22.1334192 ], [ 89.8810146, 22.223494 ], [ 89.8093377, 22.2107276 ], [ 89.8315218, 22.1656157 ], [ 89.8172739, 22.1521022 ], [ 89.8110941, 22.1392234 ], [ 89.83444, 22.1185512 ], [ 89.8001077, 22.0722664 ], [ 89.7884348, 22.0846741 ], [ 89.7767618, 22.0913548 ], [ 89.7561624, 22.1350892 ], [ 89.7438028, 22.1382694 ], [ 89.747751, 22.182625 ], [ 89.7195985, 22.239043 ], [ 89.738138, 22.2722475 ], [ 89.7029474, 22.2754246 ], [ 89.7079256, 22.3073499 ], [ 89.6801164, 22.3338694 ], [ 89.6686151, 22.3648289 ], [ 89.6591737, 22.36975 ], [ 89.6299308, 22.3682255 ], [ 89.6238792, 22.4069158 ], [ 89.5997265, 22.4471851 ], [ 89.5515825, 22.4404925 ], [ 89.5420719, 22.4653424 ], [ 89.5433966, 22.4696954 ], [ 89.5359551, 22.4790751 ], [ 89.5359849, 22.488337 ], [ 89.5269148, 22.4843629 ], [ 89.5109526, 22.4820396 ], [ 89.4923851, 22.4887602 ], [ 89.4601086, 22.4720173 ], [ 89.4551211, 22.4324686 ], [ 89.43638, 22.421174 ], [ 89.4344606, 22.4618572 ], [ 89.3991247, 22.4434741 ], [ 89.3689197, 22.4578152 ], [ 89.3599963, 22.4212791 ], [ 89.3647961, 22.3941907 ], [ 89.3315714, 22.3681693 ], [ 89.3314839, 22.3462983 ], [ 89.3271732, 22.3365821 ], [ 89.3405126, 22.3320155 ], [ 89.3507445, 22.3153988 ], [ 89.3119814, 22.295885 ], [ 89.3265395, 22.2732896 ], [ 89.34655, 22.2629661 ], [ 89.3416181, 22.2490128 ], [ 89.3413622, 22.2169801 ], [ 89.2956803, 22.2521061 ], [ 89.3207684, 22.2731076 ], [ 89.3102528, 22.2916633 ], [ 89.2460695, 22.289734 ], [ 89.2409635, 22.2469587 ], [ 89.1966689, 22.2694376 ], [ 89.1994835, 22.2372318 ], [ 89.15594, 22.2277786 ], [ 89.1567502, 22.217474 ], [ 89.1685772, 22.213714 ], [ 89.1362446, 22.1957409 ], [ 89.1269466, 22.1838962 ], [ 89.1077652, 22.2132264 ], [ 89.0763543, 22.1986734 ], [ 89.0745568, 22.2010383 ], [ 89.0729651, 22.2027691 ], [ 89.03818, 22.25464 ], [ 89.0369857, 22.2549609 ], [ 89.0251254, 22.2551232 ], [ 89.0252539, 22.25935 ], [ 89.02538, 22.2635 ], [ 89.0221954, 22.2662816 ], [ 89.01023, 22.27674 ], [ 89.00762, 22.2813 ], [ 89.01104, 22.29354 ], [ 89.0148887, 22.2937631 ], [ 89.0234924, 22.2926605 ], [ 89.0267, 22.29179 ], [ 89.0225, 22.30811 ], [ 89.01161, 22.31506 ], [ 89.0043908, 22.3186531 ], [ 88.9992191, 22.323217 ], [ 88.9975065, 22.325008 ], [ 89.00155, 22.38397 ], [ 88.9973779, 22.3868183 ], [ 88.99531, 22.38823 ], [ 88.99212, 22.39041 ], [ 88.9883106, 22.3963316 ], [ 88.98386, 22.40325 ], [ 89.00664, 22.42264 ], [ 88.99993, 22.47125 ], [ 88.9992837, 22.4719284 ], [ 88.9926262, 22.4793104 ], [ 88.98745, 22.49013 ], [ 88.98298, 22.49947 ], [ 88.979, 22.52157 ], [ 88.96949, 22.54481 ], [ 88.9635415, 22.5480677 ], [ 88.9419632, 22.5613089 ], [ 88.94766, 22.55869 ], [ 88.95314, 22.55992 ], [ 88.94693, 22.57569 ], [ 88.94712, 22.57751 ], [ 88.9648, 22.61219 ], [ 88.9613098, 22.6134786 ], [ 88.9580426, 22.6146849 ], [ 88.9526957, 22.6179308 ], [ 88.9477976, 22.6210266 ], [ 88.93552, 22.64233 ], [ 88.96581, 22.6971 ], [ 88.94004, 22.72094 ], [ 88.9239, 22.75279 ], [ 88.94224, 22.76242 ], [ 88.96575, 22.79648 ], [ 88.9574639, 22.8015348 ], [ 88.9563318, 22.8022261 ], [ 88.95554, 22.80271 ], [ 88.95444, 22.80733 ], [ 88.9573405, 22.8090149 ], [ 88.9716187, 22.8445222 ], [ 88.95031, 22.87766 ], [ 88.93819, 22.86948 ], [ 88.9335, 22.87005 ], [ 88.93163, 22.87377 ], [ 88.92955, 22.87419 ], [ 88.92375, 22.87535 ], [ 88.91976, 22.88076 ], [ 88.91539, 22.91985 ], [ 88.9136047, 22.9225569 ], [ 88.87605, 22.9984 ], [ 88.8767037, 23.0050809 ], [ 88.87782, 23.01649 ], [ 88.8914, 23.03221 ], [ 88.87317, 23.07878 ], [ 88.88689, 23.1078 ], [ 88.89517, 23.11103 ], [ 88.8982313, 23.1131494 ], [ 88.90167, 23.11553 ], [ 88.93766, 23.14805 ], [ 88.94811, 23.17485 ], [ 88.97293, 23.19211 ], [ 88.9752684, 23.1921721 ], [ 88.9802651, 23.1922999 ], [ 88.9818737, 23.1923398 ], [ 88.99684, 23.19517 ], [ 88.99747, 23.19974 ], [ 88.9914093, 23.206479 ], [ 88.98843, 23.21305 ], [ 88.98705, 23.22501 ], [ 88.98039, 23.2261 ], [ 88.97787, 23.21653 ], [ 88.96896, 23.20873 ], [ 88.94472, 23.20315 ], [ 88.93935, 23.21453 ], [ 88.93044, 23.21522 ], [ 88.92703, 23.218 ], [ 88.91435, 23.23329 ], [ 88.91071, 23.23325 ], [ 88.88431, 23.2329 ], [ 88.8808261, 23.2332379 ], [ 88.86204, 23.23506 ], [ 88.819511, 23.2496001 ], [ 88.81828, 23.24946 ], [ 88.81459, 23.22432 ], [ 88.8061629, 23.2249298 ], [ 88.7772, 23.2445 ], [ 88.76227, 23.2428 ], [ 88.7568152, 23.2438773 ], [ 88.7279389, 23.2574027 ], [ 88.7021548, 23.3047004 ], [ 88.7038, 23.30891 ], [ 88.71242, 23.31513 ], [ 88.7219815, 23.309065 ], [ 88.7280199, 23.3048901 ], [ 88.7290683, 23.3196676 ], [ 88.7329998, 23.3231098 ], [ 88.74438, 23.31274 ], [ 88.74866, 23.31493 ], [ 88.74902, 23.31835 ], [ 88.7486671, 23.3217016 ], [ 88.74053, 23.32614 ], [ 88.7383896, 23.3294026 ], [ 88.7369988, 23.3395619 ], [ 88.73707, 23.34048 ], [ 88.73729, 23.34342 ], [ 88.7371083, 23.3452421 ], [ 88.73651, 23.35124 ], [ 88.74508, 23.35562 ], [ 88.7493, 23.35695 ], [ 88.75558, 23.35974 ], [ 88.75966, 23.36192 ], [ 88.7647125, 23.3639712 ], [ 88.77299, 23.3765 ], [ 88.7711436, 23.3788387 ], [ 88.76299, 23.39188 ], [ 88.77709, 23.44314 ], [ 88.77909, 23.44309 ], [ 88.78926, 23.44261 ], [ 88.79191, 23.44419 ], [ 88.7930105, 23.4448422 ], [ 88.79407, 23.44547 ], [ 88.80334, 23.48609 ], [ 88.8033067, 23.4881102 ], [ 88.80124, 23.4926 ], [ 88.7973, 23.49814 ], [ 88.78945, 23.50177 ], [ 88.78746, 23.50182 ], [ 88.78036, 23.49672 ], [ 88.75172, 23.47724 ], [ 88.748487, 23.4855343 ], [ 88.74477, 23.49507 ], [ 88.73249, 23.50935 ], [ 88.72691, 23.50833 ], [ 88.7225, 23.50753 ], [ 88.7161735, 23.5131215 ], [ 88.68225, 23.54404 ], [ 88.6774974, 23.5445076 ], [ 88.67605, 23.54465 ], [ 88.66759, 23.54961 ], [ 88.64917, 23.60697 ], [ 88.63998, 23.60719 ], [ 88.618679, 23.600929 ], [ 88.61707, 23.60347 ], [ 88.6112457, 23.6064937 ], [ 88.6048, 23.60324 ], [ 88.5985014, 23.602024 ], [ 88.59704, 23.60178 ], [ 88.5957643, 23.6392314 ], [ 88.58084, 23.63701 ], [ 88.58045, 23.6372 ], [ 88.57617, 23.63919 ], [ 88.58614, 23.67655 ], [ 88.58047, 23.7246 ], [ 88.58784, 23.73933 ], [ 88.59032, 23.76655 ], [ 88.57488, 23.78491 ], [ 88.57492, 23.7864 ], [ 88.5804776, 23.7872534 ], [ 88.61318, 23.81049 ], [ 88.60069, 23.82706 ], [ 88.59843, 23.86332 ], [ 88.6049942, 23.8673272 ], [ 88.60857, 23.86951 ], [ 88.62042, 23.87473 ], [ 88.62987, 23.87451 ], [ 88.63332, 23.87305 ], [ 88.63429, 23.86294 ], [ 88.6431598, 23.8633468 ], [ 88.64702, 23.86559 ], [ 88.64859, 23.8665 ], [ 88.65545, 23.86732 ], [ 88.6682091, 23.8639703 ], [ 88.71113, 23.90214 ], [ 88.73765, 23.90585 ], [ 88.74802, 23.92921 ], [ 88.74352, 23.9637 ], [ 88.7453, 23.97396 ], [ 88.75054, 23.983 ], [ 88.7533979, 23.9839961 ], [ 88.7605, 23.98276 ], [ 88.76221, 23.98135 ], [ 88.77391, 23.98061 ], [ 88.7658577, 24.0010424 ], [ 88.76116, 24.00451 ], [ 88.76037, 24.00509 ], [ 88.7526143, 24.0063021 ], [ 88.74138, 24.00244 ], [ 88.7423506, 24.0020151 ], [ 88.7390527, 23.9964391 ], [ 88.7384596, 23.9965908 ], [ 88.74453, 24.03331 ], [ 88.7412589, 24.0344687 ], [ 88.732563, 24.0471935 ], [ 88.74032, 24.04808 ], [ 88.72687, 24.07092 ], [ 88.72182, 24.07411 ], [ 88.70331, 24.0921 ], [ 88.7032975, 24.0935552 ], [ 88.70319, 24.10605 ], [ 88.7026575, 24.1064227 ], [ 88.69785, 24.16702 ], [ 88.7152291, 24.200407 ], [ 88.73197, 24.20008 ], [ 88.73374, 24.20918 ], [ 88.73337, 24.21193 ], [ 88.7327694, 24.216491 ], [ 88.72987, 24.23851 ], [ 88.72515, 24.29085 ], [ 88.71758, 24.30211 ], [ 88.67947, 24.32672 ], [ 88.66545, 24.3143 ], [ 88.66077, 24.31015 ], [ 88.6481184, 24.3033912 ], [ 88.64383, 24.30658 ], [ 88.6394143, 24.3098522 ], [ 88.6348395, 24.311518 ], [ 88.62318, 24.30854 ], [ 88.62134, 24.30808 ], [ 88.6178284, 24.3171901 ], [ 88.59997, 24.31113 ], [ 88.58303, 24.31719 ], [ 88.58165, 24.32414 ], [ 88.5767809, 24.325089 ], [ 88.54739, 24.31124 ], [ 88.5435736, 24.3120357 ], [ 88.49134, 24.33078 ], [ 88.4677, 24.35534 ], [ 88.4661815, 24.3563842 ], [ 88.41388, 24.37744 ], [ 88.3872727, 24.391517 ], [ 88.3386245, 24.4390977 ], [ 88.32841, 24.44249 ], [ 88.27621, 24.46062 ], [ 88.20373, 24.47477 ], [ 88.17141, 24.49561 ], [ 88.13955, 24.50942 ], [ 88.11395, 24.5337 ], [ 88.1077714, 24.5466429 ], [ 88.10646, 24.54939 ], [ 88.10516, 24.57837 ], [ 88.08386, 24.6238 ], [ 88.02834, 24.68834 ], [ 88.0420884, 24.7043027 ], [ 88.06706, 24.74916 ], [ 88.06889, 24.75362 ], [ 88.07021, 24.75684 ], [ 88.07054, 24.7683 ], [ 88.0740471, 24.7712257 ], [ 88.07971, 24.77595 ], [ 88.085614, 24.778904 ], [ 88.09001, 24.78057 ], [ 88.09266, 24.78091 ], [ 88.1005161, 24.7819016 ], [ 88.10529, 24.79922 ], [ 88.1088, 24.80894 ], [ 88.11115, 24.81057 ], [ 88.1115798, 24.8123442 ], [ 88.11108, 24.81412 ], [ 88.13452, 24.8152 ], [ 88.1348385, 24.8200887 ], [ 88.1630032, 24.8512216 ], [ 88.16392, 24.8539 ], [ 88.16824, 24.85969 ], [ 88.16367, 24.8668 ], [ 88.16166, 24.87138 ], [ 88.1614, 24.87858 ], [ 88.15879, 24.88445 ], [ 88.15869, 24.88466 ], [ 88.16117, 24.89374 ], [ 88.15842, 24.8989 ], [ 88.15433, 24.90219 ], [ 88.15116, 24.90473 ], [ 88.1423657, 24.9159818 ], [ 88.13814, 24.92148 ], [ 88.1365, 24.92808 ], [ 88.1391247, 24.9313958 ], [ 88.1428024, 24.9342038 ], [ 88.1515, 24.93594 ], [ 88.1567661, 24.9398356 ], [ 88.15784, 24.94063 ], [ 88.16353, 24.94484 ], [ 88.17153, 24.94551 ], [ 88.17303, 24.9461 ], [ 88.1743682, 24.9478397 ], [ 88.1748794, 24.9481124 ], [ 88.17929, 24.9489 ], [ 88.22133, 24.95993 ], [ 88.2370959, 24.9487769 ], [ 88.24151, 24.94056 ], [ 88.25147, 24.93319 ], [ 88.25493, 24.92973 ], [ 88.26598, 24.90588 ], [ 88.2646532, 24.9026053 ], [ 88.25917, 24.88345 ], [ 88.2626, 24.88313 ], [ 88.27314, 24.89788 ], [ 88.295, 24.88751 ], [ 88.29974, 24.8772 ], [ 88.30902, 24.88139 ], [ 88.3166157, 24.8809916 ], [ 88.3178, 24.87936 ], [ 88.3268, 24.87028 ], [ 88.33507, 24.88022 ], [ 88.343208, 24.8996399 ], [ 88.3398635, 24.8995038 ], [ 88.32429, 24.89887 ], [ 88.3238, 24.91358 ], [ 88.3262683, 24.9158047 ], [ 88.32988, 24.91906 ], [ 88.33306, 24.92393 ], [ 88.33952, 24.93953 ], [ 88.3403675, 24.9401608 ], [ 88.35052, 24.94272 ], [ 88.3542023, 24.9465697 ], [ 88.35687, 24.9477 ], [ 88.35951, 24.94706 ], [ 88.3722644, 24.9439478 ], [ 88.37746, 24.94268 ], [ 88.39289, 24.96061 ], [ 88.3926306, 24.9632314 ], [ 88.39232, 24.96637 ], [ 88.39639, 24.97193 ], [ 88.40378, 24.97577 ], [ 88.40495, 24.97637 ], [ 88.4090697, 24.9809587 ], [ 88.41129, 24.9958 ], [ 88.41345, 25.0 ], [ 88.42204, 25.01328 ], [ 88.427142, 25.0122198 ], [ 88.44, 25.0412 ], [ 88.43628, 25.04388 ], [ 88.44638, 25.07696 ], [ 88.44012, 25.10135 ], [ 88.43761, 25.12949 ], [ 88.45507, 25.14297 ], [ 88.4590371, 25.1480562 ], [ 88.45888, 25.14852 ], [ 88.4578591, 25.1515451 ], [ 88.45534, 25.15901 ], [ 88.44145, 25.1784 ], [ 88.4395431, 25.1965829 ], [ 88.4422, 25.20072 ], [ 88.47366, 25.21164 ], [ 88.48064, 25.21599 ], [ 88.4965426, 25.21006 ], [ 88.49711, 25.20791 ], [ 88.50665, 25.20603 ], [ 88.51833, 25.20373 ], [ 88.527, 25.19502 ], [ 88.5317871, 25.190212 ], [ 88.53389, 25.1881 ], [ 88.54388, 25.19546 ], [ 88.5492659, 25.1949285 ], [ 88.55084, 25.19282 ], [ 88.55457, 25.18785 ], [ 88.55792, 25.17989 ], [ 88.57251, 25.179 ], [ 88.5773755, 25.1824489 ], [ 88.6135941, 25.20537 ], [ 88.6414, 25.20509 ], [ 88.65825, 25.20492 ], [ 88.66939, 25.20096 ], [ 88.68144, 25.2089 ], [ 88.69013, 25.21079 ], [ 88.70824, 25.2095 ], [ 88.7149311, 25.205869 ], [ 88.7172162, 25.2046308 ], [ 88.72037, 25.20293 ], [ 88.73004, 25.19769 ], [ 88.7434485, 25.1839334 ], [ 88.74506, 25.18228 ], [ 88.75377, 25.18706 ], [ 88.7726153, 25.1908739 ], [ 88.77249, 25.18512 ], [ 88.77453, 25.18112 ], [ 88.79267, 25.17621 ], [ 88.8399596, 25.2108512 ], [ 88.8436, 25.21025 ], [ 88.84795, 25.20682 ], [ 88.85067, 25.2070102 ], [ 88.8578278, 25.2074999 ], [ 88.86291, 25.19922 ], [ 88.87385, 25.1964 ], [ 88.8750345, 25.1935565 ], [ 88.87717, 25.18843 ], [ 88.8948, 25.18759 ], [ 88.9112943, 25.1771241 ], [ 88.91792, 25.17292 ], [ 88.94026, 25.18379 ], [ 88.9421502, 25.1923812 ], [ 88.9433589, 25.1978814 ], [ 88.93828, 25.20452 ], [ 88.93679, 25.20647 ], [ 88.93369, 25.21397 ], [ 88.9397954, 25.2128526 ], [ 88.95068, 25.21085 ], [ 88.94648, 25.25126 ], [ 89.0, 25.27955 ], [ 89.0112989, 25.2988316 ], [ 88.9891219, 25.3177132 ], [ 88.97208, 25.31739 ], [ 88.926, 25.32026 ], [ 88.90956, 25.32013 ], [ 88.9040094, 25.3245315 ], [ 88.89853, 25.33904 ], [ 88.86777, 25.34465 ], [ 88.8642812, 25.3495894 ], [ 88.86005, 25.35558 ], [ 88.854734, 25.3588101 ], [ 88.85401, 25.35925 ], [ 88.8511132, 25.3610069 ], [ 88.84448, 25.36503 ], [ 88.839368, 25.3681309 ], [ 88.83416, 25.37129 ], [ 88.8343, 25.39564 ], [ 88.83302, 25.40063 ], [ 88.83161, 25.4061 ], [ 88.82022, 25.40595 ], [ 88.81884, 25.40791 ], [ 88.8170211, 25.4105061 ], [ 88.81671, 25.41095 ], [ 88.81044, 25.41607 ], [ 88.82848, 25.4352 ], [ 88.82506, 25.4418 ], [ 88.8381014, 25.4585159 ], [ 88.83898, 25.45952 ], [ 88.8364637, 25.4634512 ], [ 88.83537, 25.46516 ], [ 88.82764, 25.48753 ], [ 88.82482, 25.49489 ], [ 88.80918, 25.4989 ], [ 88.8083596, 25.4991106 ], [ 88.80031, 25.51714 ], [ 88.80373, 25.53311 ], [ 88.7643399, 25.5270923 ], [ 88.7609462, 25.5286339 ], [ 88.7587395, 25.5146941 ], [ 88.7667474, 25.5107113 ], [ 88.76747, 25.5044 ], [ 88.76759, 25.50333 ], [ 88.74524, 25.49748 ], [ 88.74266, 25.4979 ], [ 88.74108, 25.50457 ], [ 88.74004, 25.50852 ], [ 88.71029, 25.50164 ], [ 88.70838, 25.4992 ], [ 88.70761, 25.495 ], [ 88.6988995, 25.4791899 ], [ 88.66131, 25.48116 ], [ 88.65503, 25.48145 ], [ 88.64822, 25.48245 ], [ 88.64102, 25.48508 ], [ 88.64177, 25.49679 ], [ 88.6450777, 25.5032655 ], [ 88.6288151, 25.5025455 ], [ 88.61971, 25.50213 ], [ 88.60876, 25.5099 ], [ 88.6035449, 25.5136028 ], [ 88.60138, 25.51514 ], [ 88.58951, 25.50995 ], [ 88.5652851, 25.5140094 ], [ 88.5590919, 25.5150469 ], [ 88.54813, 25.51688 ], [ 88.54049, 25.51149 ], [ 88.53602, 25.51307 ], [ 88.5354553, 25.532908 ], [ 88.53413, 25.53517 ], [ 88.5321704, 25.5385275 ], [ 88.52956, 25.543 ], [ 88.5229546, 25.5380135 ], [ 88.52295, 25.53801 ], [ 88.5184223, 25.5457051 ], [ 88.517968, 25.5463112 ], [ 88.51374, 25.54774 ], [ 88.50392, 25.55104 ], [ 88.4945979, 25.5605972 ], [ 88.49361, 25.56161 ], [ 88.49242, 25.56943 ], [ 88.489248, 25.5801357 ], [ 88.4825, 25.58555 ], [ 88.46979, 25.58743 ], [ 88.46182, 25.58716 ], [ 88.45164, 25.59565 ], [ 88.44357, 25.60566 ], [ 88.4488, 25.6461 ], [ 88.44924, 25.66354 ], [ 88.4480539, 25.6659692 ], [ 88.44695, 25.66823 ], [ 88.4354926, 25.6707396 ], [ 88.41664, 25.67486 ], [ 88.40215, 25.67413 ], [ 88.3997738, 25.6763421 ], [ 88.3987365, 25.6847402 ], [ 88.39881, 25.68737 ], [ 88.39759, 25.68745 ], [ 88.3882, 25.68806 ], [ 88.3863986, 25.692281 ], [ 88.37365, 25.70138 ], [ 88.3685699, 25.7050103 ], [ 88.3721283, 25.7147374 ], [ 88.36726, 25.7185 ], [ 88.35825, 25.72545 ], [ 88.34911, 25.73029 ], [ 88.32697, 25.7429 ], [ 88.31975, 25.74069 ], [ 88.31951, 25.74231 ], [ 88.31882, 25.74693 ], [ 88.31261, 25.75555 ], [ 88.273408, 25.7806031 ], [ 88.26801, 25.78888 ], [ 88.268778, 25.8068757 ], [ 88.26759, 25.8098 ], [ 88.26501, 25.81177 ], [ 88.26027, 25.8154 ], [ 88.2388736, 25.8125574 ], [ 88.23325, 25.81335 ], [ 88.2204081, 25.8017119 ], [ 88.21726, 25.80153 ], [ 88.2160222, 25.8014594 ], [ 88.2113, 25.80119 ], [ 88.18656, 25.80362 ], [ 88.17592, 25.79902 ], [ 88.16789, 25.79073 ], [ 88.16062, 25.78772 ], [ 88.15938, 25.78618 ], [ 88.1575854, 25.7839786 ], [ 88.15466, 25.78039 ], [ 88.15206, 25.77912 ], [ 88.144, 25.78015 ], [ 88.1425743, 25.7825352 ], [ 88.14189, 25.78368 ], [ 88.14363, 25.7928 ], [ 88.14135, 25.79692 ], [ 88.14038, 25.79868 ], [ 88.13734, 25.79908 ], [ 88.1316221, 25.7998291 ], [ 88.11467, 25.80205 ], [ 88.11478, 25.814 ], [ 88.1091734, 25.8177293 ], [ 88.1081497, 25.8184108 ], [ 88.1075, 25.82 ], [ 88.10567, 25.82449 ], [ 88.10531, 25.8288 ], [ 88.11231, 25.85211 ], [ 88.1126, 25.85636 ], [ 88.1128315, 25.8597672 ], [ 88.11211, 25.86714 ], [ 88.11061, 25.86776 ], [ 88.1072389, 25.8660697 ], [ 88.1052, 25.86448 ], [ 88.10408, 25.86982 ], [ 88.0979, 25.87063 ], [ 88.095674, 25.8937658 ], [ 88.09241, 25.89788 ], [ 88.09062, 25.90501 ], [ 88.08903, 25.91134 ], [ 88.0883344, 25.912411 ], [ 88.08651, 25.91522 ], [ 88.08597, 25.91607 ], [ 88.0866346, 25.9191688 ], [ 88.1209999, 25.9504434 ], [ 88.12094, 25.95412 ], [ 88.11783, 25.95547 ], [ 88.11661, 25.97384 ], [ 88.12881, 25.97884 ], [ 88.12756, 25.99406 ], [ 88.1291, 25.99505 ], [ 88.1321829, 25.99706 ], [ 88.13387, 25.99816 ], [ 88.14043, 25.99822 ], [ 88.14274, 25.99804 ], [ 88.1711863, 26.0189606 ], [ 88.17921, 26.02231 ], [ 88.1818546, 26.0242859 ], [ 88.1842, 26.02806 ], [ 88.18123, 26.02864 ], [ 88.17884, 26.02972 ], [ 88.1769729, 26.0310461 ], [ 88.17463, 26.03271 ], [ 88.17517, 26.04013 ], [ 88.1723691, 26.0427591 ], [ 88.17191, 26.04319 ], [ 88.172559, 26.0442294 ], [ 88.17889, 26.0469 ], [ 88.1793411, 26.0500026 ], [ 88.18642, 26.06094 ], [ 88.18583, 26.06501 ], [ 88.18342, 26.07038 ], [ 88.17728, 26.07335 ], [ 88.1731617, 26.0762476 ], [ 88.1722, 26.07749 ], [ 88.1712287, 26.0787306 ], [ 88.1692188, 26.0796477 ], [ 88.16295, 26.07698 ], [ 88.1620499, 26.0781155 ], [ 88.16435, 26.0858 ], [ 88.16126, 26.09375 ], [ 88.17849, 26.12304 ], [ 88.1774509, 26.1259265 ], [ 88.1948, 26.15212 ], [ 88.1962, 26.15641 ], [ 88.21666, 26.16215 ], [ 88.21529, 26.16307 ], [ 88.21472, 26.16542 ], [ 88.21507, 26.16589 ], [ 88.21623, 26.16747 ], [ 88.2254884, 26.1653704 ], [ 88.2332988, 26.1714932 ], [ 88.2327131, 26.1731146 ], [ 88.2552192, 26.1893533 ], [ 88.26124, 26.1867 ], [ 88.3201127, 26.2016356 ], [ 88.3218535, 26.202187 ], [ 88.35158, 26.21855 ], [ 88.35682, 26.23713 ], [ 88.3568183, 26.237134 ], [ 88.355061, 26.2413378 ], [ 88.35399, 26.2439 ], [ 88.3527967, 26.2467542 ], [ 88.34853, 26.25696 ], [ 88.34931, 26.25968 ], [ 88.3499633, 26.26194 ], [ 88.35042, 26.26352 ], [ 88.3484596, 26.2679898 ], [ 88.34667, 26.27207 ], [ 88.3588, 26.3013 ], [ 88.37859, 26.30928 ], [ 88.38875, 26.31332 ], [ 88.4088114, 26.3164566 ], [ 88.4089, 26.31816 ], [ 88.40835, 26.33613 ], [ 88.4143546, 26.3360387 ], [ 88.41821, 26.33598 ], [ 88.42465, 26.33588 ], [ 88.43296, 26.34333 ], [ 88.4543083, 26.375399 ], [ 88.45571, 26.36805 ], [ 88.4624696, 26.3595599 ], [ 88.46615, 26.35881 ], [ 88.47452, 26.35711 ], [ 88.47623, 26.35317 ], [ 88.4778534, 26.3494073 ], [ 88.48013, 26.34869 ], [ 88.4856196, 26.3501899 ], [ 88.4898, 26.36126 ], [ 88.50392, 26.36293 ], [ 88.5033277, 26.3604819 ], [ 88.5013427, 26.3496277 ], [ 88.51318, 26.35516 ], [ 88.51632, 26.36152 ], [ 88.51757, 26.3658 ], [ 88.52073, 26.36822 ], [ 88.5255301, 26.3719111 ], [ 88.52514, 26.37518 ], [ 88.5164338, 26.3747402 ], [ 88.52, 26.3881 ], [ 88.5194262, 26.3898487 ], [ 88.51916, 26.39066 ], [ 88.50838, 26.39837 ], [ 88.5100821, 26.4017508 ], [ 88.5104953, 26.4055979 ], [ 88.50938, 26.40763 ], [ 88.5072474, 26.4068707 ], [ 88.50281, 26.41617 ], [ 88.49755, 26.41853 ], [ 88.4972, 26.42418 ], [ 88.49365, 26.42844 ], [ 88.49571, 26.43575 ], [ 88.48837, 26.44729 ], [ 88.48349, 26.44815 ], [ 88.4829546, 26.4490987 ], [ 88.48178, 26.45118 ], [ 88.48221, 26.45455 ], [ 88.48266, 26.4581 ], [ 88.48301, 26.46086 ], [ 88.47049, 26.46532 ], [ 88.46005, 26.46602 ], [ 88.4509, 26.46664 ], [ 88.4403882, 26.465731 ], [ 88.4315638, 26.4708389 ], [ 88.43094, 26.4712 ], [ 88.42578, 26.47419 ], [ 88.41933, 26.47015 ], [ 88.4185055, 26.4688295 ], [ 88.4180493, 26.4681006 ], [ 88.39877, 26.48457 ], [ 88.39013, 26.4802 ], [ 88.38706, 26.48059 ], [ 88.38213, 26.48292 ], [ 88.378994, 26.4841613 ], [ 88.37733, 26.48482 ], [ 88.3689056, 26.4850935 ], [ 88.36163, 26.48251 ], [ 88.3594106, 26.4672981 ], [ 88.35379, 26.45067 ], [ 88.35202, 26.45121 ], [ 88.35028, 26.45175 ], [ 88.33919, 26.4782 ], [ 88.3353077, 26.4816442 ], [ 88.33211, 26.48448 ], [ 88.331522, 26.4866767 ], [ 88.3396284, 26.5023563 ], [ 88.34526, 26.50473 ], [ 88.3558, 26.52561 ], [ 88.35989, 26.54136 ], [ 88.36058, 26.54401 ], [ 88.36648, 26.55402 ], [ 88.3712823, 26.5621514 ], [ 88.37225, 26.56379 ], [ 88.3711147, 26.5695513 ], [ 88.37078, 26.57125 ], [ 88.37267, 26.57919 ], [ 88.37322, 26.58151 ], [ 88.37734, 26.58788 ], [ 88.398117, 26.60217 ], [ 88.3980184, 26.6043225 ], [ 88.39064, 26.60737 ], [ 88.38919, 26.61082 ], [ 88.39127, 26.61453 ], [ 88.3939325, 26.6263498 ], [ 88.40803, 26.63195 ], [ 88.410532, 26.630462 ], [ 88.41595, 26.62724 ], [ 88.4173955, 26.6224247 ], [ 88.41764, 26.62161 ], [ 88.4177265, 26.6213175 ], [ 88.41811, 26.62002 ], [ 88.416894, 26.6122914 ], [ 88.4304092, 26.5529053 ], [ 88.43538, 26.54989 ], [ 88.4547, 26.54554 ] ] ], [ [ [ 91.9432929, 21.7363455 ], [ 91.9618434, 21.6664327 ], [ 91.987754, 21.6241109 ], [ 91.9795725, 21.5342044 ], [ 91.9581802, 21.5048491 ], [ 91.8953271, 21.5213095 ], [ 91.8951929, 21.575376 ], [ 91.879449, 21.6002448 ], [ 91.8910071, 21.6189877 ], [ 91.8919756, 21.6543955 ], [ 91.8818253, 21.6849651 ], [ 91.9137537, 21.7068039 ], [ 91.9432929, 21.7363455 ] ] ], [ [ [ 91.8934689, 21.7653703 ], [ 91.916023, 21.7531616 ], [ 91.9035964, 21.7019736 ], [ 91.8846535, 21.6933511 ], [ 91.8772185, 21.6751506 ], [ 91.8829663, 21.6620589 ], [ 91.8723096, 21.6511736 ], [ 91.8549289, 21.6724237 ], [ 91.8934689, 21.7653703 ] ] ], [ [ [ 91.8745984, 21.9226755 ], [ 91.8925938, 21.8969241 ], [ 91.893727, 21.8572838 ], [ 91.8681769, 21.7922319 ], [ 91.8417233, 21.8080108 ], [ 91.8503559, 21.8317567 ], [ 91.8402179, 21.8579459 ], [ 91.845402, 21.8991743 ], [ 91.8745984, 21.9226755 ] ] ], [ [ [ 91.4439571, 22.6065751 ], [ 91.4708326, 22.5955078 ], [ 91.5008894, 22.5589824 ], [ 91.5494802, 22.4706217 ], [ 91.5648202, 22.4064055 ], [ 91.4793854, 22.3964859 ], [ 91.4430305, 22.4544422 ], [ 91.4183329, 22.519839 ], [ 91.4275491, 22.5989506 ], [ 91.4439571, 22.6065751 ] ] ], [ [ [ 91.3210892, 22.7252786 ], [ 91.3504997, 22.7137451 ], [ 91.4040573, 22.6527716 ], [ 91.3935391, 22.6153445 ], [ 91.331477, 22.6350447 ], [ 91.3092568, 22.6608079 ], [ 91.2935696, 22.6959031 ], [ 91.3210892, 22.7252786 ] ] ], [ [ [ 91.307684, 22.5627273 ], [ 91.316978, 22.55047 ], [ 91.2802083, 22.4988613 ], [ 91.2664052, 22.5061775 ], [ 91.2886759, 22.5535175 ], [ 91.307684, 22.5627273 ] ] ], [ [ [ 91.1942947, 22.5023748 ], [ 91.1476645, 22.4679218 ], [ 91.1530317, 22.5016995 ], [ 91.1942947, 22.5023748 ] ] ], [ [ [ 91.0908461, 22.4166537 ], [ 91.1291512, 22.4029792 ], [ 91.1570209, 22.3569713 ], [ 91.1797089, 22.2931399 ], [ 91.1818168, 22.237054 ], [ 91.1614486, 22.1771119 ], [ 91.1124453, 22.1424483 ], [ 91.0614013, 22.0971955 ], [ 91.0227941, 22.1029097 ], [ 91.0379197, 22.1275425 ], [ 91.0477122, 22.1786197 ], [ 91.0693754, 22.2514573 ], [ 91.0655629, 22.3275937 ], [ 91.0695411, 22.4002192 ], [ 91.0908461, 22.4166537 ] ] ], [ [ [ 91.1431839, 22.5338917 ], [ 91.1488903, 22.5110465 ], [ 91.1091192, 22.4820163 ], [ 91.1017386, 22.5256823 ], [ 91.1431839, 22.5338917 ] ] ], [ [ [ 91.0234658, 22.4583409 ], [ 91.0144947, 22.4272182 ], [ 90.9923545, 22.4268162 ], [ 90.9896121, 22.4538049 ], [ 91.0234658, 22.4583409 ] ] ], [ [ [ 90.9871003, 22.349543 ], [ 90.9995444, 22.2820109 ], [ 90.9909468, 22.2062398 ], [ 90.9725945, 22.1658635 ], [ 90.9384895, 22.11718 ], [ 90.9125734, 22.1514657 ], [ 90.9304895, 22.1825772 ], [ 90.9572765, 22.2506013 ], [ 90.9871003, 22.349543 ] ] ], [ [ [ 90.6442683, 21.9554584 ], [ 90.6596984, 21.9480881 ], [ 90.6543246, 21.9141721 ], [ 90.6239712, 21.9152802 ], [ 90.6234321, 21.9422779 ], [ 90.6442683, 21.9554584 ] ] ], [ [ [ 90.6328349, 22.2441398 ], [ 90.6359302, 22.216137 ], [ 90.6022239, 22.1967711 ], [ 90.6054857, 22.2432245 ], [ 90.6328349, 22.2441398 ] ] ], [ [ [ 90.6043844, 22.1534047 ], [ 90.5949449, 22.0830179 ], [ 90.5636877, 22.0300625 ], [ 90.5280533, 21.9922183 ], [ 90.5037375, 21.9942939 ], [ 90.4826357, 22.048649 ], [ 90.4923947, 22.0899676 ], [ 90.5344598, 22.1319055 ], [ 90.5590336, 22.132275 ], [ 90.5727911, 22.1513933 ], [ 90.6043844, 22.1534047 ] ] ], [ [ [ 90.5888652, 21.9774273 ], [ 90.6011275, 21.9619104 ], [ 90.5850047, 21.912011 ], [ 90.5436821, 21.8855382 ], [ 90.5173994, 21.8908047 ], [ 90.5193156, 21.9393374 ], [ 90.5402039, 21.9595931 ], [ 90.5888652, 21.9774273 ] ] ], [ [ [ 90.4545644, 22.0440978 ], [ 90.4741165, 22.0310209 ], [ 90.4852756, 21.9694394 ], [ 90.4787364, 21.9335735 ], [ 90.4232171, 21.9001634 ], [ 90.3865724, 21.8988134 ], [ 90.3782591, 21.9312291 ], [ 90.400933, 21.9430384 ], [ 90.4090343, 21.9525581 ], [ 90.4215577, 22.0150211 ], [ 90.4189009, 22.0322182 ], [ 90.4545644, 22.0440978 ] ] ], [ [ [ 90.4183142, 22.0189254 ], [ 90.4210292, 22.0137265 ], [ 90.4046973, 21.9483729 ], [ 90.3731882, 21.9370658 ], [ 90.4183142, 22.0189254 ] ] ], [ [ [ 90.400325, 22.0067095 ], [ 90.385951, 21.9629985 ], [ 90.3590516, 21.9260329 ], [ 90.3396946, 21.8472481 ], [ 90.3122265, 21.8570939 ], [ 90.3129819, 21.8756306 ], [ 90.3585522, 21.9828857 ], [ 90.400325, 22.0067095 ] ] ], [ [ [ 89.8479556, 22.066842 ], [ 89.8092058, 22.077516 ], [ 89.8413065, 22.1099634 ], [ 89.8407915, 22.1253893 ], [ 89.8143556, 22.1438345 ], [ 89.8371866, 22.1625952 ], [ 89.8145273, 22.2099628 ], [ 89.8426797, 22.2166375 ], [ 89.868429, 22.1991555 ], [ 89.879072, 22.1031247 ], [ 89.8479556, 22.066842 ] ] ], [ [ [ 89.8540228, 21.8743861 ], [ 89.8461264, 21.8965274 ], [ 89.816429, 21.9138875 ], [ 89.8155706, 21.9365004 ], [ 89.8447531, 21.9532189 ], [ 89.8320501, 21.9739152 ], [ 89.8066443, 21.98856 ], [ 89.8097342, 21.9926985 ], [ 89.8269003, 21.996041 ], [ 89.8421782, 22.0038399 ], [ 89.8639792, 21.95704 ], [ 89.8758238, 21.8979608 ], [ 89.8540228, 21.8743861 ] ] ], [ [ [ 89.8194077, 22.0545521 ], [ 89.8396637, 22.0053816 ], [ 89.8084213, 21.9945586 ], [ 89.8034432, 21.9888284 ], [ 89.8079063, 21.9837348 ], [ 89.8266174, 21.9733877 ], [ 89.8425819, 21.9552387 ], [ 89.8173477, 21.9426604 ], [ 89.8063614, 21.9206855 ], [ 89.8436119, 21.892814 ], [ 89.8333122, 21.8501201 ], [ 89.7910835, 21.8437468 ], [ 89.754863, 21.8518727 ], [ 89.7373535, 21.888354 ], [ 89.7169258, 21.9046003 ], [ 89.7311737, 21.917182 ], [ 89.7306587, 21.9353358 ], [ 89.7164108, 21.9611294 ], [ 89.7397568, 21.9667015 ], [ 89.7598412, 22.0230467 ], [ 89.7423317, 22.0491426 ], [ 89.7744324, 22.0796877 ], [ 89.7897102, 22.0811194 ], [ 89.8015549, 22.0675978 ], [ 89.8194077, 22.0545521 ] ] ], [ [ [ 89.7470644, 22.1330221 ], [ 89.7741869, 22.0881736 ], [ 89.7398546, 22.0511071 ], [ 89.7494676, 22.0036861 ], [ 89.7072389, 21.9874511 ], [ 89.7058656, 22.0313768 ], [ 89.682348, 22.0474477 ], [ 89.7048357, 22.0647894 ], [ 89.7139337, 22.1282516 ], [ 89.7470644, 22.1330221 ] ] ], [ [ [ 89.7319582, 22.2082146 ], [ 89.7410562, 22.1349302 ], [ 89.7130754, 22.1292057 ], [ 89.693506, 22.1823071 ], [ 89.7319582, 22.2082146 ] ] ], [ [ [ 89.7146345, 21.9767145 ], [ 89.711776, 21.9536466 ], [ 89.7279121, 21.9291256 ], [ 89.711261, 21.9050781 ], [ 89.7409584, 21.8662114 ], [ 89.7261955, 21.8327521 ], [ 89.6668007, 21.8505981 ], [ 89.6587326, 21.8858054 ], [ 89.6753838, 21.9001407 ], [ 89.6952965, 21.9577861 ], [ 89.7146345, 21.9767145 ] ] ], [ [ [ 89.6629503, 22.3659401 ], [ 89.6783998, 22.3329167 ], [ 89.7053506, 22.3006796 ], [ 89.6991708, 22.2747892 ], [ 89.7331598, 22.2719298 ], [ 89.6883562, 22.2021753 ], [ 89.7099855, 22.1029656 ], [ 89.7048357, 22.0722664 ], [ 89.6849229, 22.0670167 ], [ 89.6694734, 22.0875373 ], [ 89.6813181, 22.132386 ], [ 89.662092, 22.1369973 ], [ 89.6325662, 22.1656157 ], [ 89.6140268, 22.1678414 ], [ 89.5935991, 22.1476504 ], [ 89.5599535, 22.1869168 ], [ 89.5556619, 22.2098039 ], [ 89.5879343, 22.2237886 ], [ 89.5978906, 22.2439686 ], [ 89.5935991, 22.2754246 ], [ 89.6143701, 22.2965501 ], [ 89.6420076, 22.3641939 ], [ 89.6629503, 22.3659401 ] ] ], [ [ [ 89.6481874, 22.1466964 ], [ 89.6567705, 22.1363613 ], [ 89.6796014, 22.132386 ], [ 89.6638086, 22.1005799 ], [ 89.6691301, 22.0803793 ], [ 89.6809747, 22.0665394 ], [ 89.67325, 22.049357 ], [ 89.6984842, 22.0329681 ], [ 89.6765115, 21.9895204 ], [ 89.6864679, 21.9580006 ], [ 89.6693018, 21.9070446 ], [ 89.6574571, 21.9029037 ], [ 89.6289613, 21.945741 ], [ 89.6432092, 21.9564085 ], [ 89.6488741, 21.9707367 ], [ 89.6456125, 21.9922263 ], [ 89.6622636, 22.0188053 ], [ 89.6684435, 22.0542892 ], [ 89.6507623, 22.0983532 ], [ 89.6370294, 22.0983532 ], [ 89.5990923, 22.0913548 ], [ 89.6147134, 22.1659337 ], [ 89.6481874, 22.1466964 ] ] ], [ [ [ 89.6286919, 21.9313549 ], [ 89.6462013, 21.9084227 ], [ 89.6278336, 21.8864426 ], [ 89.6276619, 21.8623879 ], [ 89.6657707, 21.8171351 ], [ 89.6934082, 21.7973724 ], [ 89.6964981, 21.7691579 ], [ 89.6592476, 21.752099 ], [ 89.6099808, 21.7651723 ], [ 89.6192505, 21.7844613 ], [ 89.6068909, 21.8113978 ], [ 89.560199, 21.8466148 ], [ 89.5476677, 21.876407 ], [ 89.5864632, 21.945208 ], [ 89.6223404, 21.9450488 ], [ 89.6286919, 21.9313549 ] ] ], [ [ [ 89.6353128, 22.0966036 ], [ 89.6495607, 22.0959674 ], [ 89.651964, 22.0347185 ], [ 89.6603754, 22.0168956 ], [ 89.6394327, 21.9923855 ], [ 89.6444109, 21.9635728 ], [ 89.6244981, 21.9482885 ], [ 89.586561, 21.9503583 ], [ 89.5644167, 21.9750349 ], [ 89.5929124, 21.9885654 ], [ 89.6071603, 22.0052777 ], [ 89.6081903, 22.0188053 ], [ 89.5996072, 22.0270804 ], [ 89.5676782, 22.0372644 ], [ 89.5944574, 22.0851513 ], [ 89.6353128, 22.0966036 ] ] ], [ [ [ 89.5084684, 22.4717792 ], [ 89.5136183, 22.481931 ], [ 89.5337027, 22.4854204 ], [ 89.534561, 22.4789172 ], [ 89.5422857, 22.4703516 ], [ 89.5410841, 22.4644822 ], [ 89.5429724, 22.4570261 ], [ 89.5513838, 22.4394156 ], [ 89.5918959, 22.4314822 ], [ 89.6155851, 22.3895862 ], [ 89.6241682, 22.3489478 ], [ 89.6159285, 22.3243367 ], [ 89.5870894, 22.2887621 ], [ 89.5843428, 22.2414211 ], [ 89.5498388, 22.2158375 ], [ 89.545204, 22.1834145 ], [ 89.5821112, 22.1288823 ], [ 89.5807379, 22.1104352 ], [ 89.5319861, 21.9944493 ], [ 89.5113867, 22.0183225 ], [ 89.5311277, 22.0512609 ], [ 89.5343893, 22.0838735 ], [ 89.51276, 22.12602 ], [ 89.4761961, 22.2301395 ], [ 89.4925039, 22.2608042 ], [ 89.4698446, 22.3140146 ], [ 89.4344824, 22.3567271 ], [ 89.4679564, 22.4751103 ], [ 89.5084684, 22.4717792 ] ] ], [ [ [ 89.5725586, 21.9418643 ], [ 89.5488693, 21.9609702 ], [ 89.5689537, 22.035777 ], [ 89.5976212, 22.0259112 ], [ 89.6068909, 22.0177952 ], [ 89.6029427, 22.0012435 ], [ 89.5638039, 21.977049 ], [ 89.5725586, 21.9418643 ] ] ], [ [ [ 89.6007111, 21.8045446 ], [ 89.5886948, 21.7672448 ], [ 89.6049847, 21.7175527 ], [ 89.5699837, 21.7166993 ], [ 89.5438911, 21.7514612 ], [ 89.549041, 21.7981693 ], [ 89.5310165, 21.8249438 ], [ 89.5413162, 21.8513947 ], [ 89.6007111, 21.8045446 ] ] ], [ [ [ 89.4905045, 22.0889136 ], [ 89.5119621, 22.0763472 ], [ 89.4723084, 22.0478698 ], [ 89.4432976, 22.0650524 ], [ 89.4905045, 22.0889136 ] ] ], [ [ [ 89.4897464, 21.9969184 ], [ 89.5095589, 21.9565124 ], [ 89.5047524, 21.912245 ], [ 89.4585754, 21.9076264 ], [ 89.4590904, 21.941705 ], [ 89.4223549, 21.9702038 ], [ 89.4391777, 21.9928077 ], [ 89.4297363, 22.0418235 ], [ 89.4408943, 22.0607569 ], [ 89.4705917, 22.0443693 ], [ 89.4897464, 21.9969184 ] ] ], [ [ [ 89.460556, 22.1156379 ], [ 89.4844963, 22.0892317 ], [ 89.4505074, 22.0752337 ], [ 89.4254448, 22.0478698 ], [ 89.4314529, 21.9886693 ], [ 89.4087936, 21.9877142 ], [ 89.3990089, 21.9815062 ], [ 89.3854477, 21.922278 ], [ 89.3627884, 21.9592189 ], [ 89.3557503, 22.0335493 ], [ 89.3909409, 22.0776198 ], [ 89.386306, 22.118655 ], [ 89.4089653, 22.1261291 ], [ 89.4082787, 22.1490261 ], [ 89.4359161, 22.1626989 ], [ 89.4614937, 22.1423482 ], [ 89.460556, 22.1156379 ] ] ], [ [ [ 89.4186818, 22.2354003 ], [ 89.4319075, 22.2857441 ], [ 89.4118231, 22.301786 ], [ 89.4258993, 22.3260834 ], [ 89.445812, 22.3257658 ], [ 89.4767111, 22.2687473 ], [ 89.4600599, 22.2519074 ], [ 89.4186818, 22.2354003 ] ] ], [ [ [ 89.4041588, 21.9208448 ], [ 89.4022705, 21.9133598 ], [ 89.4450142, 21.8684418 ], [ 89.4717934, 21.7900403 ], [ 89.4160034, 21.7257892 ], [ 89.3804695, 21.7289786 ], [ 89.3598702, 21.7509829 ], [ 89.3485405, 21.8061384 ], [ 89.3789246, 21.8686011 ], [ 89.3835594, 21.9155894 ], [ 89.3948891, 21.9262592 ], [ 89.4041588, 21.9208448 ] ] ], [ [ [ 89.4561657, 22.2192589 ], [ 89.4708612, 22.1654568 ], [ 89.433954, 22.1657747 ], [ 89.4039133, 22.205195 ], [ 89.4068315, 22.2179088 ], [ 89.4197061, 22.2260133 ], [ 89.4190195, 22.2299859 ], [ 89.45627, 22.2455575 ], [ 89.4561657, 22.2192589 ] ] ], [ [ [ 89.4148691, 21.9859477 ], [ 89.4278481, 21.9496662 ], [ 89.4558289, 21.9343804 ], [ 89.4499924, 21.8695569 ], [ 89.4029572, 21.9154302 ], [ 89.4101669, 21.9272147 ], [ 89.4012405, 21.930718 ], [ 89.3923142, 21.9453672 ], [ 89.4008972, 21.9799144 ], [ 89.4148691, 21.9859477 ] ] ], [ [ [ 89.4211121, 22.4429983 ], [ 89.4368857, 22.3867292 ], [ 89.4224661, 22.3583147 ], [ 89.4205778, 22.3229075 ], [ 89.3826407, 22.3533932 ], [ 89.3828123, 22.3737132 ], [ 89.3628996, 22.4151379 ], [ 89.3680494, 22.4514735 ], [ 89.3977469, 22.4425888 ], [ 89.4211121, 22.4429983 ] ] ], [ [ [ 89.3615129, 22.267323 ], [ 89.380224, 22.2576322 ], [ 89.3853738, 22.2682761 ], [ 89.4106081, 22.257791 ], [ 89.4073465, 22.2412675 ], [ 89.4183328, 22.2252188 ], [ 89.4095781, 22.2196569 ], [ 89.4023683, 22.222994 ], [ 89.3927553, 22.2164786 ], [ 89.400995, 22.2123467 ], [ 89.4008234, 22.1974072 ], [ 89.4281175, 22.1649798 ], [ 89.4071748, 22.154805 ], [ 89.40048, 22.1265024 ], [ 89.3831422, 22.1212547 ], [ 89.3697527, 22.0988304 ], [ 89.3434885, 22.1355662 ], [ 89.3311288, 22.211711 ], [ 89.3443468, 22.2155251 ], [ 89.3577364, 22.2474641 ], [ 89.3436601, 22.2527071 ], [ 89.3615129, 22.267323 ] ] ], [ [ [ 89.3630579, 22.3708612 ], [ 89.3987634, 22.3308525 ], [ 89.413698, 22.2596975 ], [ 89.3840005, 22.2709767 ], [ 89.3606546, 22.2700236 ], [ 89.3498399, 22.2641457 ], [ 89.3300989, 22.2743126 ], [ 89.327009, 22.2995678 ], [ 89.3536165, 22.3132259 ], [ 89.3326738, 22.3433961 ], [ 89.3343904, 22.3691151 ], [ 89.3630579, 22.3708612 ] ] ], [ [ [ 89.3290689, 22.1245942 ], [ 89.3455484, 22.1198235 ], [ 89.3829706, 22.0851513 ], [ 89.3410852, 22.0289899 ], [ 89.3503549, 21.982835 ], [ 89.3244341, 21.9944547 ], [ 89.2890718, 22.0612894 ], [ 89.3045213, 22.0713119 ], [ 89.3443468, 22.0579485 ], [ 89.3167093, 22.108214 ], [ 89.2798021, 22.1145755 ], [ 89.2899301, 22.1522612 ], [ 89.3333604, 22.1745181 ], [ 89.3290689, 22.1245942 ] ] ], [ [ [ 89.3375391, 21.7888383 ], [ 89.3111183, 21.8386479 ], [ 89.3154099, 21.8580863 ], [ 89.3631317, 21.883416 ], [ 89.3375391, 21.7888383 ] ] ], [ [ [ 89.2602461, 22.0808511 ], [ 89.2768972, 22.0606477 ], [ 89.3055647, 21.9973143 ], [ 89.3374937, 21.9599057 ], [ 89.3592947, 21.8981201 ], [ 89.3278807, 21.8837846 ], [ 89.3019598, 21.8441154 ], [ 89.2782705, 21.8755012 ], [ 89.296295, 21.90035 ], [ 89.2607611, 21.9156394 ], [ 89.2411917, 21.9395258 ], [ 89.2102926, 21.9519451 ], [ 89.251148, 21.9799643 ], [ 89.2190474, 22.0073413 ], [ 89.2497747, 22.0458512 ], [ 89.2602461, 22.0808511 ] ] ], [ [ [ 89.2540663, 22.2132948 ], [ 89.3009298, 22.212977 ], [ 89.3117445, 22.1923157 ], [ 89.2645376, 22.1369919 ], [ 89.2499464, 22.1005745 ], [ 89.2138975, 22.1029602 ], [ 89.2128676, 22.1436701 ], [ 89.2441099, 22.1573434 ], [ 89.2276304, 22.2016931 ], [ 89.2540663, 22.2132948 ] ] ], [ [ [ 89.2791836, 22.2855414 ], [ 89.303266, 22.2195826 ], [ 89.2548252, 22.2218617 ], [ 89.2549077, 22.2718553 ], [ 89.2791836, 22.2855414 ] ] ], [ [ [ 89.2422939, 21.6897804 ], [ 89.282806, 21.6939275 ], [ 89.2901874, 21.6786145 ], [ 89.2561985, 21.656599 ], [ 89.2095066, 21.6538868 ], [ 89.2235828, 21.6967986 ], [ 89.2422939, 21.6897804 ] ] ], [ [ [ 89.2747379, 21.7556419 ], [ 89.2884708, 21.7306085 ], [ 89.2778278, 21.7030189 ], [ 89.2366291, 21.6956821 ], [ 89.2216945, 21.7463944 ], [ 89.2747379, 21.7556419 ] ] ], [ [ [ 89.259975, 21.8318314 ], [ 89.2668415, 21.831672 ], [ 89.2852092, 21.7856125 ], [ 89.2613483, 21.7610626 ], [ 89.2186046, 21.751656 ], [ 89.1890789, 21.7990016 ], [ 89.1968036, 21.8256166 ], [ 89.2495037, 21.8155768 ], [ 89.259975, 21.8318314 ] ] ], [ [ [ 89.1858173, 22.0202176 ], [ 89.1913105, 22.0046211 ], [ 89.2393756, 21.9874311 ], [ 89.2041851, 21.9621199 ], [ 89.2134548, 21.9328234 ], [ 89.2400623, 21.9283646 ], [ 89.270618, 21.8863186 ], [ 89.2735363, 21.8506334 ], [ 89.2567134, 21.8340622 ], [ 89.250362, 21.8184454 ], [ 89.1944004, 21.8296004 ], [ 89.205215, 21.9229503 ], [ 89.1573215, 21.9239058 ], [ 89.1420436, 21.9613239 ], [ 89.1858173, 22.0202176 ] ] ], [ [ [ 89.1784359, 22.2288536 ], [ 89.1916538, 22.2267879 ], [ 89.1902805, 22.2182067 ], [ 89.1990352, 22.215664 ], [ 89.1885639, 22.1500153 ], [ 89.215343, 22.0879945 ], [ 89.2428089, 22.0529964 ], [ 89.2071033, 22.0030295 ], [ 89.1853023, 22.0262647 ], [ 89.1719127, 22.079723 ], [ 89.1798091, 22.0852904 ], [ 89.1799808, 22.1002418 ], [ 89.1942287, 22.1163048 ], [ 89.1880489, 22.123143 ], [ 89.1753459, 22.1226659 ], [ 89.161613, 22.1514463 ], [ 89.142387, 22.15558 ], [ 89.1583515, 22.1905526 ], [ 89.1612697, 22.2054929 ], [ 89.1696811, 22.2145516 ], [ 89.1574932, 22.2191602 ], [ 89.1585231, 22.2274235 ], [ 89.1784359, 22.2288536 ] ] ], [ [ [ 89.2033268, 22.2657144 ], [ 89.2398906, 22.2455375 ], [ 89.2355991, 22.2091482 ], [ 89.2107082, 22.2124856 ], [ 89.1918254, 22.2201137 ], [ 89.2012668, 22.2371164 ], [ 89.2033268, 22.2657144 ] ] ], [ [ [ 89.1689945, 22.065724 ], [ 89.1487384, 22.0480641 ], [ 89.1598964, 21.9906146 ], [ 89.1350055, 21.9694431 ], [ 89.1422153, 21.9183321 ], [ 89.2007518, 21.9127581 ], [ 89.1842723, 21.8683178 ], [ 89.1851306, 21.8370898 ], [ 89.1681362, 21.8036237 ], [ 89.1507984, 21.7937417 ], [ 89.1003299, 21.8130269 ], [ 89.1047931, 21.8530233 ], [ 89.0816188, 21.9188098 ], [ 89.0936351, 21.9544779 ], [ 89.0931201, 22.0389947 ], [ 89.1260791, 22.0722464 ], [ 89.1689945, 22.065724 ] ] ], [ [ [ 89.1240192, 22.1832409 ], [ 89.1425586, 22.1517642 ], [ 89.1622997, 22.1489024 ], [ 89.1744876, 22.1205986 ], [ 89.1921688, 22.1175771 ], [ 89.1772342, 22.0988104 ], [ 89.173286, 22.0813137 ], [ 89.1578365, 22.0897442 ], [ 89.1480518, 22.0871992 ], [ 89.1289974, 22.1038999 ], [ 89.1374088, 22.123302 ], [ 89.1236759, 22.155262 ], [ 89.0891719, 22.1786311 ], [ 89.0991283, 22.2056518 ], [ 89.1240192, 22.1832409 ] ] ], [ [ [ 89.0801998, 22.1552714 ], [ 89.0802381, 22.1833513 ], [ 89.1283107, 22.1371363 ], [ 89.1145778, 22.1223479 ], [ 89.1473651, 22.0776551 ], [ 89.1236759, 22.0739963 ], [ 89.0814472, 22.0318342 ], [ 89.0572285, 22.0632773 ], [ 89.05483, 22.11025 ], [ 89.10466, 22.14522 ], [ 89.0801998, 22.1552714 ] ] ], [ [ [ 89.1461635, 21.741611 ], [ 89.131744, 21.7197647 ], [ 89.1068531, 21.7216784 ], [ 89.0682292, 21.7719033 ], [ 89.045055, 21.7864095 ], [ 89.0584445, 21.8299192 ], [ 89.0543247, 21.8754865 ], [ 89.0840221, 21.8568471 ], [ 89.0787006, 21.8079269 ], [ 89.0941501, 21.7873659 ], [ 89.131229, 21.7695121 ], [ 89.1461635, 21.741611 ] ] ] ] } }
]
}
