{
"type": "FeatureCollection",
"name": "BLR_GAUL1999_ADM1",
"crs": { "type": "name", "properties": { "name": "urn:ogc:def:crs:OGC:1.3:CRS84" } },
"features": [
{ "type": "Feature", "properties": { "POLYGON_ID": "BLR_GAUL1999_ADM1_593", "ADM0_ISO3": "BLR", "ADM0_NAME": "Belarus", "ADM0_CODE": 26, "ADM1_NAME": "Brest", "ADM1_CODE": 593, "GEOSET": "GAUL", "GEOSET_YEAR": 1999.0, "GEOSET_VERSION": "GAUL_v1", "GEOSET_UNIT": "ADM1", "CENTROID_LONG": 25.46485085897676, "CENTROID_LAT": 52.382373582277189 }, "geometry": { "type": "MultiPolygon", "coordinates": [ [ [ [ 26.3764229, 53.3643951 ], [ 26.3716621, 53.3188858 ], [ 26.3272209, 53.2472153 ], [ 26.2680531, 53.1774902 ], [ 26.3624954, 53.1199875 ], [ 26.4633293, 53.113327 ], [ 26.5211105, 53.0580444 ], [ 26.4247169, 53.0438843 ], [ 26.3769417, 52.9788742 ], [ 26.4044418, 52.8611069 ], [ 26.4508286, 52.8213806 ], [ 26.5269432, 52.8472137 ], [ 26.5391655, 52.879158 ], [ 26.5899963, 52.8863831 ], [ 26.7491608, 52.8169403 ], [ 26.7955513, 52.7727661 ], [ 26.9349937, 52.7411041 ], [ 27.1627731, 52.6697159 ], [ 27.1933289, 52.6388855 ], [ 27.1763821, 52.6083298 ], [ 27.0505524, 52.6049957 ], [ 27.033884, 52.5338821 ], [ 27.1263847, 52.4158249 ], [ 27.2713661, 52.3605728 ], [ 27.28722, 52.3238831 ], [ 27.488327, 52.2522202 ], [ 27.5424957, 52.2174912 ], [ 27.5236092, 52.1736069 ], [ 27.5269432, 52.0655441 ], [ 27.6027756, 52.0124969 ], [ 27.5208321, 51.9355469 ], [ 27.519165, 51.8647156 ], [ 27.5369415, 51.7230453 ], [ 27.5219036, 51.6663304 ], [ 27.51026, 51.62662 ], [ 27.43691, 51.63101 ], [ 27.28402, 51.61771 ], [ 27.24552, 51.63455 ], [ 27.27398, 51.67432 ], [ 27.19877, 51.68084 ], [ 27.19182, 51.78484 ], [ 27.0025, 51.78851 ], [ 26.9727494, 51.759 ], [ 26.8937, 51.76138 ], [ 26.82968, 51.79428 ], [ 26.79438, 51.78396 ], [ 26.71052, 51.82085 ], [ 26.6306, 51.83199 ], [ 26.51949, 51.80532 ], [ 26.48986, 51.8105 ], [ 26.40599, 51.87059 ], [ 26.37704, 51.86012 ], [ 26.19521, 51.87972 ], [ 26.09091, 51.92793 ], [ 26.0017, 51.93233 ], [ 25.96347, 51.91709 ], [ 25.83168, 51.93378 ], [ 25.68046, 51.91418 ], [ 25.5495204, 51.928453 ], [ 25.39955, 51.92773 ], [ 25.29784, 51.97497 ], [ 25.14209, 51.96977 ], [ 25.02783, 51.9183 ], [ 24.79278, 51.9232 ], [ 24.71453, 51.90002 ], [ 24.64621, 51.91981 ], [ 24.46768, 51.93048 ], [ 24.41894, 51.92599 ], [ 24.36956, 51.89318 ], [ 24.37607, 51.83963 ], [ 24.3505775, 51.7554381 ], [ 24.27861, 51.70182 ], [ 24.0574, 51.58252 ], [ 23.9444, 51.58948 ], [ 23.92835, 51.63507 ], [ 23.86179, 51.65149 ], [ 23.8296398, 51.63435 ], [ 23.7672, 51.6625 ], [ 23.6496493, 51.6291086 ], [ 23.64143, 51.57335 ], [ 23.68866, 51.53523 ], [ 23.63085, 51.49686 ], [ 23.61586, 51.5308 ], [ 23.54564, 51.606 ], [ 23.5597, 51.66816 ], [ 23.53738, 51.74511 ], [ 23.62106, 51.77807 ], [ 23.64338, 51.80411 ], [ 23.61243, 51.87369 ], [ 23.64187, 51.8974911 ], [ 23.64374, 51.95153 ], [ 23.69612, 51.99907 ], [ 23.66576, 52.01693 ], [ 23.65414, 52.07934 ], [ 23.519809, 52.1432634 ], [ 23.4534, 52.18411 ], [ 23.40103, 52.1811 ], [ 23.3533492, 52.2115298 ], [ 23.30584, 52.20647 ], [ 23.2138394, 52.2215003 ], [ 23.20851, 52.27478 ], [ 23.1777992, 52.2839012 ], [ 23.24315, 52.36058 ], [ 23.29069, 52.44682 ], [ 23.4074, 52.54839 ], [ 23.52313, 52.59767 ], [ 23.78371, 52.64076 ], [ 23.9153985, 52.6673297 ], [ 23.9266037, 52.7749106 ], [ 24.1924934, 52.7724915 ], [ 24.3033295, 52.7819366 ], [ 24.3883286, 52.7749939 ], [ 24.4672165, 52.7391586 ], [ 24.558609, 52.7591629 ], [ 24.5674973, 52.859436 ], [ 24.6058311, 52.9347153 ], [ 24.6808281, 52.96138 ], [ 24.8186073, 52.9299927 ], [ 24.8574982, 52.9424896 ], [ 24.9622154, 52.9180527 ], [ 25.0952759, 52.840271 ], [ 25.3044434, 52.8772125 ], [ 25.3133316, 52.938324 ], [ 25.4177742, 52.9597168 ], [ 25.5408325, 53.0430527 ], [ 25.5708313, 53.1663818 ], [ 25.5797195, 53.2711029 ], [ 25.6919403, 53.3849945 ], [ 25.7197151, 53.3952713 ], [ 25.8736076, 53.3891602 ], [ 25.8974953, 53.375824 ], [ 26.0677757, 53.3747101 ], [ 26.2944412, 53.3483276 ], [ 26.3764229, 53.3643951 ] ] ] ] } },
{ "type": "Feature", "properties": { "POLYGON_ID": "BLR_GAUL1999_ADM1_594", "ADM0_ISO3": "BLR", "ADM0_NAME": "Belarus", "ADM0_CODE": 26, "ADM1_NAME": "Gomel", "ADM1_CODE": 594, "GEOSET": "GAUL", "GEOSET_YEAR": 1999.0, "GEOSET_VERSION": "GAUL_v1", "GEOSET_UNIT": "ADM1", "CENTROID_LONG": 29.668399955340472, "CENTROID_LAT": 52.304410779489956 }, "geometry": { "type": "MultiPolygon", "coordinates": [ [ [ [ 31.3881676, 53.1242716 ], [ 31.34386, 53.08498 ], [ 31.32817, 53.03857 ], [ 31.2625, 53.02664 ], [ 31.35385, 52.98729 ], [ 31.38926, 52.9291 ], [ 31.48466, 52.85967 ], [ 31.54377, 52.85435 ], [ 31.54107, 52.82423 ], [ 31.59568, 52.78706 ], [ 31.6106687, 52.7380728 ], [ 31.51604, 52.68496 ], [ 31.56794, 52.63711 ], [ 31.57588, 52.59783 ], [ 31.66777, 52.5408 ], [ 31.6098396, 52.5313688 ], [ 31.62861, 52.48507 ], [ 31.61248, 52.41525 ], [ 31.63595, 52.40547 ], [ 31.63371, 52.3429 ], [ 31.60911, 52.31996 ], [ 31.66827, 52.27292 ], [ 31.71203, 52.27491 ], [ 31.70252, 52.19671 ], [ 31.77965, 52.18551 ], [ 31.7968, 52.10737 ], [ 31.70468, 52.10373 ], [ 31.49058, 52.12141 ], [ 31.395359, 52.1353688 ], [ 31.32123, 52.09006 ], [ 31.28003, 52.04247 ], [ 31.13743, 52.09405 ], [ 30.9971, 52.0755 ], [ 30.95283, 52.05995 ], [ 30.9475489, 52.0238095 ], [ 30.89449, 52.0028 ], [ 30.86509, 51.96114 ], [ 30.81731, 51.94425 ], [ 30.79579, 51.90121 ], [ 30.75469, 51.90293 ], [ 30.71402, 51.86931 ], [ 30.6595783, 51.7569885 ], [ 30.621788, 51.7094002 ], [ 30.57749, 51.71119 ], [ 30.59099, 51.66119 ], [ 30.52268, 51.6051 ], [ 30.58465, 51.5259 ], [ 30.59314, 51.42847 ], [ 30.63384, 51.42352 ], [ 30.66345, 51.38008 ], [ 30.63585, 51.33407 ], [ 30.58972, 51.31128 ], [ 30.5537799, 51.2592755 ], [ 30.4583882, 51.30997 ], [ 30.41009, 51.30804 ], [ 30.34322, 51.35723 ], [ 30.3639, 51.38932 ], [ 30.32717, 51.43458 ], [ 30.25636, 51.48222 ], [ 30.1616, 51.51041 ], [ 29.90418, 51.48409 ], [ 29.87689, 51.44843 ], [ 29.78471, 51.44833 ], [ 29.71579, 51.51953 ], [ 29.63526, 51.50547 ], [ 29.58267, 51.46357 ], [ 29.5421978, 51.474537 ], [ 29.52618, 51.41476 ], [ 29.48034, 51.40113 ], [ 29.42761, 51.41997 ], [ 29.3475653, 51.3882174 ], [ 29.26, 51.50354 ], [ 29.27687, 51.54448 ], [ 29.22056, 51.58809 ], [ 29.228636, 51.6271311 ], [ 29.11175, 51.64873 ], [ 28.99952, 51.56567 ], [ 28.96793, 51.59272 ], [ 28.9113893, 51.5906296 ], [ 28.82065, 51.5477 ], [ 28.74938, 51.46315 ], [ 28.67763, 51.44347 ], [ 28.64602, 51.53413 ], [ 28.52403, 51.58638 ], [ 28.46824, 51.57989 ], [ 28.40425, 51.54617 ], [ 28.3099, 51.62021 ], [ 28.19008, 51.65181 ], [ 28.12679, 51.61079 ], [ 28.02604, 51.56269 ], [ 27.95728, 51.55849 ], [ 27.9245, 51.57489 ], [ 27.92082, 51.61394 ], [ 27.84507, 51.60394 ], [ 27.8406793, 51.5446997 ], [ 27.74991, 51.47501 ], [ 27.6775523, 51.50709 ], [ 27.67633, 51.53549 ], [ 27.72551, 51.56409 ], [ 27.72064, 51.62236 ], [ 27.62541, 51.62382 ], [ 27.5219036, 51.6663304 ], [ 27.5369415, 51.7230453 ], [ 27.519165, 51.8647156 ], [ 27.5208321, 51.9355469 ], [ 27.6027756, 52.0124969 ], [ 27.5269432, 52.0655441 ], [ 27.5236092, 52.1736069 ], [ 27.5424957, 52.2174912 ], [ 27.488327, 52.2522202 ], [ 27.28722, 52.3238831 ], [ 27.2713661, 52.3605728 ], [ 27.3397179, 52.442215 ], [ 27.3330536, 52.4755478 ], [ 27.3963852, 52.5174942 ], [ 27.5277748, 52.5433273 ], [ 27.6024971, 52.5305481 ], [ 27.5994415, 52.4836044 ], [ 27.6986046, 52.437767 ], [ 27.8619423, 52.4269409 ], [ 27.9705505, 52.4586029 ], [ 27.9538841, 52.5 ], [ 27.9874954, 52.5191574 ], [ 28.0736084, 52.5074997 ], [ 28.1324959, 52.4622116 ], [ 28.3097191, 52.4730453 ], [ 28.408329, 52.5169373 ], [ 28.4058304, 52.6324921 ], [ 28.4691601, 52.6799927 ], [ 28.5177765, 52.6891556 ], [ 28.6833305, 52.6913757 ], [ 28.8269424, 52.7161026 ], [ 28.9605522, 52.7980499 ], [ 28.9744377, 52.875267 ], [ 29.0897179, 52.8744354 ], [ 29.0994415, 52.8966599 ], [ 29.1772194, 52.9474869 ], [ 29.2308273, 52.9530487 ], [ 29.3444405, 52.9316635 ], [ 29.3472176, 52.9077683 ], [ 29.4605522, 52.9202728 ], [ 29.5205536, 52.952774 ], [ 29.6308289, 52.9547119 ], [ 29.6841621, 52.9433212 ], [ 29.7091599, 52.988327 ], [ 29.6322174, 53.0224915 ], [ 29.6274948, 53.0983276 ], [ 29.6508293, 53.1294327 ], [ 29.7599983, 53.1377716 ], [ 29.7947197, 53.2097168 ], [ 29.7552757, 53.2808228 ], [ 29.7569427, 53.3241653 ], [ 29.8119431, 53.3558273 ], [ 29.9941597, 53.3433228 ], [ 30.1438866, 53.2902756 ], [ 30.1788826, 53.2333298 ], [ 30.3358307, 53.2452698 ], [ 30.3684731, 53.2919769 ], [ 30.4113846, 53.3116608 ], [ 30.4930496, 53.3183289 ], [ 30.6124954, 53.2980499 ], [ 30.8755531, 53.2905502 ], [ 30.9133301, 53.3088837 ], [ 30.9977722, 53.3030472 ], [ 31.0272217, 53.238884 ], [ 31.1088867, 53.1577683 ], [ 31.1516609, 53.1363831 ], [ 31.2833328, 53.1066589 ], [ 31.3881676, 53.1242716 ] ] ] ] } },
{ "type": "Feature", "properties": { "POLYGON_ID": "BLR_GAUL1999_ADM1_595", "ADM0_ISO3": "BLR", "ADM0_NAME": "Belarus", "ADM0_CODE": 26, "ADM1_NAME": "Grodno", "ADM1_CODE": 595, "GEOSET": "GAUL", "GEOSET_YEAR": 1999.0, "GEOSET_VERSION": "GAUL_v1", "GEOSET_UNIT": "ADM1", "CENTROID_LONG": 25.171702211175262, "CENTROID_LAT": 53.718648869348762 }, "geometry": { "type": "MultiPolygon", "coordinates": [ [ [ [ 26.2876244, 54.9209366 ], [ 26.3961067, 54.8019333 ], [ 26.6847191, 54.6377716 ], [ 26.697216, 54.5716629 ], [ 26.6355515, 54.4769363 ], [ 26.4949951, 54.3058243 ], [ 26.4122162, 54.2419357 ], [ 26.2958298, 54.2280426 ], [ 26.2161064, 54.2308197 ], [ 26.1063843, 54.1999969 ], [ 26.0730515, 54.1322098 ], [ 26.1819382, 54.0344391 ], [ 26.347496, 54.0052719 ], [ 26.4388847, 54.0008316 ], [ 26.4286079, 53.9549942 ], [ 26.3369408, 53.8983307 ], [ 26.2174931, 53.8663864 ], [ 26.2113838, 53.8299942 ], [ 26.2497177, 53.734993 ], [ 26.3422203, 53.66082 ], [ 26.4747162, 53.6202698 ], [ 26.5486069, 53.4941559 ], [ 26.5647202, 53.4008255 ], [ 26.3764229, 53.3643951 ], [ 26.2944412, 53.3483276 ], [ 26.0677757, 53.3747101 ], [ 25.8974953, 53.375824 ], [ 25.8736076, 53.3891602 ], [ 25.7197151, 53.3952713 ], [ 25.6919403, 53.3849945 ], [ 25.5797195, 53.2711029 ], [ 25.5708313, 53.1663818 ], [ 25.5408325, 53.0430527 ], [ 25.4177742, 52.9597168 ], [ 25.3133316, 52.938324 ], [ 25.3044434, 52.8772125 ], [ 25.0952759, 52.840271 ], [ 24.9622154, 52.9180527 ], [ 24.8574982, 52.9424896 ], [ 24.8186073, 52.9299927 ], [ 24.6808281, 52.96138 ], [ 24.6058311, 52.9347153 ], [ 24.5674973, 52.859436 ], [ 24.558609, 52.7591629 ], [ 24.4672165, 52.7391586 ], [ 24.3883286, 52.7749939 ], [ 24.3033295, 52.7819366 ], [ 24.1924934, 52.7724915 ], [ 23.9266037, 52.7749106 ], [ 23.93271, 52.89181 ], [ 23.95613, 52.9478 ], [ 23.93862, 53.01877 ], [ 23.8765, 53.08388 ], [ 23.92022, 53.15824 ], [ 23.87795, 53.18708 ], [ 23.86333, 53.23128 ], [ 23.81979, 53.24879 ], [ 23.77864, 53.3063 ], [ 23.68826, 53.47456 ], [ 23.6618, 53.50796 ], [ 23.63823, 53.58355 ], [ 23.61397, 53.60091 ], [ 23.61095, 53.74245 ], [ 23.56593, 53.77592 ], [ 23.55925, 53.84571 ], [ 23.50595, 53.96659 ], [ 23.6361, 53.91666 ], [ 23.68698, 53.93387 ], [ 23.80094, 53.93279 ], [ 23.84639, 53.95697 ], [ 23.93574, 53.96655 ], [ 23.99911, 53.93902 ], [ 24.09048, 53.9414 ], [ 24.1362686, 53.9613991 ], [ 24.24664, 53.91912 ], [ 24.3851, 53.9056 ], [ 24.43326, 53.90923 ], [ 24.5179, 53.95907 ], [ 24.63221, 54.00609 ], [ 24.70623, 54.017 ], [ 24.69046, 53.96186 ], [ 24.76473, 53.96052 ], [ 24.81435, 53.97827 ], [ 24.84285, 54.01414 ], [ 24.80323, 54.07793 ], [ 24.847596, 54.13499 ], [ 24.95201, 54.1626 ], [ 25.02015, 54.13765 ], [ 25.07556, 54.14107 ], [ 25.15797, 54.1884 ], [ 25.24015, 54.26416 ], [ 25.37235, 54.2757 ], [ 25.44799, 54.30046 ], [ 25.52688, 54.29502 ], [ 25.58462, 54.24962 ], [ 25.5752, 54.20518 ], [ 25.52197, 54.18284 ], [ 25.5406, 54.1584 ], [ 25.66293, 54.14045 ], [ 25.79471, 54.20438 ], [ 25.7625, 54.2704 ], [ 25.69103, 54.32048 ], [ 25.5938178, 54.3158608 ], [ 25.55713, 54.34686 ], [ 25.63721, 54.43675 ], [ 25.6248597, 54.465149 ], [ 25.68554, 54.53275 ], [ 25.76327, 54.59323 ], [ 25.74015, 54.65093 ], [ 25.75834, 54.72021 ], [ 25.74131, 54.77435 ], [ 25.75194, 54.8152 ], [ 25.85183, 54.89161 ], [ 25.8656881, 54.9226881 ], [ 25.99433, 54.95775 ], [ 26.07187, 54.93938 ], [ 26.1521599, 54.9791626 ], [ 26.2266617, 54.9602737 ], [ 26.2876244, 54.9209366 ] ] ] ] } },
{ "type": "Feature", "properties": { "POLYGON_ID": "BLR_GAUL1999_ADM1_596", "ADM0_ISO3": "BLR", "ADM0_NAME": "Belarus", "ADM0_CODE": 26, "ADM1_NAME": "Minsk", "ADM1_CODE": 596, "GEOSET": "GAUL", "GEOSET_YEAR": 1999.0, "GEOSET_VERSION": "GAUL_v1", "GEOSET_UNIT": "ADM1", "CENTROID_LONG": 27.676263371891626, "CENTROID_LAT": 53.763963302029737 }, "geometry": { "type": "MultiPolygon", "coordinates": [ [ [ [ 29.4143982, 54.2309799 ], [ 29.4655495, 54.1833267 ], [ 29.4222183, 54.0563812 ], [ 29.3736076, 54.024437 ], [ 29.3566628, 53.9680481 ], [ 29.3663864, 53.8433228 ], [ 29.3891621, 53.8188858 ], [ 29.4841614, 53.7969437 ], [ 29.4341621, 53.7363815 ], [ 29.3802757, 53.7022171 ], [ 29.2102737, 53.6536026 ], [ 29.1786079, 53.6541595 ], [ 29.0733299, 53.6041641 ], [ 28.9427719, 53.5788803 ], [ 28.9486046, 53.5399933 ], [ 28.7513886, 53.5883255 ], [ 28.6649971, 53.6016617 ], [ 28.6124954, 53.5722198 ], [ 28.5786095, 53.5313797 ], [ 28.4588852, 53.5127716 ], [ 28.3991623, 53.4633255 ], [ 28.3602753, 53.3558273 ], [ 28.4380493, 53.3297195 ], [ 28.4497185, 53.2919388 ], [ 28.3658295, 53.2672119 ], [ 28.2288818, 53.2730484 ], [ 28.1586075, 53.3011017 ], [ 28.0836067, 53.2827683 ], [ 28.1133308, 53.2472153 ], [ 28.2216606, 53.1919327 ], [ 28.3322182, 53.1947098 ], [ 28.5158291, 53.1536026 ], [ 28.5361099, 53.0813828 ], [ 28.493885, 52.9305496 ], [ 28.4094391, 52.8374939 ], [ 28.3383293, 52.7977753 ], [ 28.2886086, 52.7541656 ], [ 28.4249954, 52.7074966 ], [ 28.4691601, 52.6799927 ], [ 28.4058304, 52.6324921 ], [ 28.408329, 52.5169373 ], [ 28.3097191, 52.4730453 ], [ 28.1324959, 52.4622116 ], [ 28.0736084, 52.5074997 ], [ 27.9874954, 52.5191574 ], [ 27.9538841, 52.5 ], [ 27.9705505, 52.4586029 ], [ 27.8619423, 52.4269409 ], [ 27.6986046, 52.437767 ], [ 27.5994415, 52.4836044 ], [ 27.6024971, 52.5305481 ], [ 27.5277748, 52.5433273 ], [ 27.3963852, 52.5174942 ], [ 27.3330536, 52.4755478 ], [ 27.3397179, 52.442215 ], [ 27.2713661, 52.3605728 ], [ 27.1263847, 52.4158249 ], [ 27.033884, 52.5338821 ], [ 27.0505524, 52.6049957 ], [ 27.1763821, 52.6083298 ], [ 27.1933289, 52.6388855 ], [ 27.1627731, 52.6697159 ], [ 26.9349937, 52.7411041 ], [ 26.7955513, 52.7727661 ], [ 26.7491608, 52.8169403 ], [ 26.5899963, 52.8863831 ], [ 26.5391655, 52.879158 ], [ 26.5269432, 52.8472137 ], [ 26.4508286, 52.8213806 ], [ 26.4044418, 52.8611069 ], [ 26.3769417, 52.9788742 ], [ 26.4247169, 53.0438843 ], [ 26.5211105, 53.0580444 ], [ 26.4633293, 53.113327 ], [ 26.3624954, 53.1199875 ], [ 26.2680531, 53.1774902 ], [ 26.3272209, 53.2472153 ], [ 26.3716621, 53.3188858 ], [ 26.3764229, 53.3643951 ], [ 26.5647202, 53.4008255 ], [ 26.5486069, 53.4941559 ], [ 26.4747162, 53.6202698 ], [ 26.3422203, 53.66082 ], [ 26.2497177, 53.734993 ], [ 26.2113838, 53.8299942 ], [ 26.2174931, 53.8663864 ], [ 26.3369408, 53.8983307 ], [ 26.4286079, 53.9549942 ], [ 26.4388847, 54.0008316 ], [ 26.347496, 54.0052719 ], [ 26.1819382, 54.0344391 ], [ 26.0730515, 54.1322098 ], [ 26.1063843, 54.1999969 ], [ 26.2161064, 54.2308197 ], [ 26.2958298, 54.2280426 ], [ 26.4122162, 54.2419357 ], [ 26.4949951, 54.3058243 ], [ 26.6355515, 54.4769363 ], [ 26.697216, 54.5716629 ], [ 26.6847191, 54.6377716 ], [ 26.3961067, 54.8019333 ], [ 26.2876244, 54.9209366 ], [ 26.3752747, 54.9549942 ], [ 26.5747185, 54.9516602 ], [ 26.6486053, 54.9716568 ], [ 26.9119415, 54.9747086 ], [ 26.9383278, 54.9497147 ], [ 27.0536079, 54.9497147 ], [ 27.1469421, 54.9886017 ], [ 27.2474937, 54.9986038 ], [ 27.2783318, 54.9838791 ], [ 27.2769432, 54.929718 ], [ 27.3169403, 54.8733215 ], [ 27.4183273, 54.8724899 ], [ 27.5124969, 54.8163834 ], [ 27.6877747, 54.7419357 ], [ 27.6749954, 54.6988754 ], [ 27.7461052, 54.6391602 ], [ 27.908884, 54.6111069 ], [ 28.0330544, 54.6344376 ], [ 28.2348671, 54.6489487 ], [ 28.3505516, 54.562767 ], [ 28.4143219, 54.5406342 ], [ 28.4799957, 54.645546 ], [ 28.5763855, 54.6630478 ], [ 28.6722183, 54.6427689 ], [ 28.6566601, 54.5830536 ], [ 28.7305489, 54.5686035 ], [ 28.8266621, 54.5786057 ], [ 28.8844414, 54.6244354 ], [ 29.0141621, 54.609436 ], [ 29.0727711, 54.6180496 ], [ 29.1486053, 54.6511002 ], [ 29.2191601, 54.6399918 ], [ 29.2247162, 54.581665 ], [ 29.304718, 54.5722198 ], [ 29.4272175, 54.5819397 ], [ 29.4338837, 54.5413818 ], [ 29.4124947, 54.3080444 ], [ 29.3580513, 54.2694397 ], [ 29.3561058, 54.2363815 ], [ 29.4143982, 54.2309799 ] ], [ [ 27.5923195, 53.9468346 ], [ 27.5260487, 53.9234276 ], [ 27.5188866, 53.8762665 ], [ 27.6218681, 53.883419 ], [ 27.5923195, 53.9468346 ] ] ] ] } },
{ "type": "Feature", "properties": { "POLYGON_ID": "BLR_GAUL1999_ADM1_597", "ADM0_ISO3": "BLR", "ADM0_NAME": "Belarus", "ADM0_CODE": 26, "ADM1_NAME": "Minsk City", "ADM1_CODE": 597, "GEOSET": "GAUL", "GEOSET_YEAR": 1999.0, "GEOSET_VERSION": "GAUL_v1", "GEOSET_UNIT": "ADM1", "CENTROID_LONG": 27.567951935298034, "CENTROID_LAT": 53.906239999806466 }, "geometry": { "type": "MultiPolygon", "coordinates": [ [ [ [ 27.5923195, 53.9468346 ], [ 27.6218681, 53.883419 ], [ 27.5188866, 53.8762665 ], [ 27.5260487, 53.9234276 ], [ 27.5923195, 53.9468346 ] ] ] ] } },
{ "type": "Feature", "properties": { "POLYGON_ID": "BLR_GAUL1999_ADM1_598", "ADM0_ISO3": "BLR", "ADM0_NAME": "Belarus", "ADM0_CODE": 26, "ADM1_NAME": "Mogilev", "ADM1_CODE": 598, "GEOSET": "GAUL", "GEOSET_YEAR": 1999.0, "GEOSET_VERSION": "GAUL_v1", "GEOSET_UNIT": "ADM1", "CENTROID_LONG": 30.441600922844373, "CENTROID_LAT": 53.606211794912156 }, "geometry": { "type": "MultiPolygon", "coordinates": [ [ [ [ 32.7554116, 53.4325814 ], [ 32.75829, 53.39455 ], [ 32.72878, 53.32721 ], [ 32.66372, 53.33229 ], [ 32.5125987, 53.2690532 ], [ 32.47736, 53.22905 ], [ 32.41214, 53.18816 ], [ 32.36524, 53.1802 ], [ 32.30787, 53.12936 ], [ 32.15538, 53.079 ], [ 32.06438, 53.08022 ], [ 32.00673, 53.09465 ], [ 31.93044, 53.08852 ], [ 31.91405, 53.10781 ], [ 31.82763, 53.1186 ], [ 31.75537, 53.19149 ], [ 31.63782, 53.2196 ], [ 31.58504, 53.18992 ], [ 31.43949, 53.20812 ], [ 31.3881676, 53.1242716 ], [ 31.2833328, 53.1066589 ], [ 31.1516609, 53.1363831 ], [ 31.1088867, 53.1577683 ], [ 31.0272217, 53.238884 ], [ 30.9977722, 53.3030472 ], [ 30.9133301, 53.3088837 ], [ 30.8755531, 53.2905502 ], [ 30.6124954, 53.2980499 ], [ 30.4930496, 53.3183289 ], [ 30.4113846, 53.3116608 ], [ 30.3684731, 53.2919769 ], [ 30.3358307, 53.2452698 ], [ 30.1788826, 53.2333298 ], [ 30.1438866, 53.2902756 ], [ 29.9941597, 53.3433228 ], [ 29.8119431, 53.3558273 ], [ 29.7569427, 53.3241653 ], [ 29.7552757, 53.2808228 ], [ 29.7947197, 53.2097168 ], [ 29.7599983, 53.1377716 ], [ 29.6508293, 53.1294327 ], [ 29.6274948, 53.0983276 ], [ 29.6322174, 53.0224915 ], [ 29.7091599, 52.988327 ], [ 29.6841621, 52.9433212 ], [ 29.6308289, 52.9547119 ], [ 29.5205536, 52.952774 ], [ 29.4605522, 52.9202728 ], [ 29.3472176, 52.9077683 ], [ 29.3444405, 52.9316635 ], [ 29.2308273, 52.9530487 ], [ 29.1772194, 52.9474869 ], [ 29.0994415, 52.8966599 ], [ 29.0897179, 52.8744354 ], [ 28.9744377, 52.875267 ], [ 28.9605522, 52.7980499 ], [ 28.8269424, 52.7161026 ], [ 28.6833305, 52.6913757 ], [ 28.5177765, 52.6891556 ], [ 28.4691601, 52.6799927 ], [ 28.4249954, 52.7074966 ], [ 28.2886086, 52.7541656 ], [ 28.3383293, 52.7977753 ], [ 28.4094391, 52.8374939 ], [ 28.493885, 52.9305496 ], [ 28.5361099, 53.0813828 ], [ 28.5158291, 53.1536026 ], [ 28.3322182, 53.1947098 ], [ 28.2216606, 53.1919327 ], [ 28.1133308, 53.2472153 ], [ 28.0836067, 53.2827683 ], [ 28.1586075, 53.3011017 ], [ 28.2288818, 53.2730484 ], [ 28.3658295, 53.2672119 ], [ 28.4497185, 53.2919388 ], [ 28.4380493, 53.3297195 ], [ 28.3602753, 53.3558273 ], [ 28.3991623, 53.4633255 ], [ 28.4588852, 53.5127716 ], [ 28.5786095, 53.5313797 ], [ 28.6124954, 53.5722198 ], [ 28.6649971, 53.6016617 ], [ 28.7513886, 53.5883255 ], [ 28.9486046, 53.5399933 ], [ 28.9427719, 53.5788803 ], [ 29.0733299, 53.6041641 ], [ 29.1786079, 53.6541595 ], [ 29.2102737, 53.6536026 ], [ 29.3802757, 53.7022171 ], [ 29.4341621, 53.7363815 ], [ 29.4841614, 53.7969437 ], [ 29.3891621, 53.8188858 ], [ 29.3663864, 53.8433228 ], [ 29.3566628, 53.9680481 ], [ 29.3736076, 54.024437 ], [ 29.4222183, 54.0563812 ], [ 29.4655495, 54.1833267 ], [ 29.4143982, 54.2309799 ], [ 29.4794388, 54.2783279 ], [ 29.5755539, 54.3177719 ], [ 29.7877769, 54.3072128 ], [ 29.8969421, 54.2938843 ], [ 29.9719391, 54.2691574 ], [ 30.0252762, 54.2697144 ], [ 30.0286102, 54.3344345 ], [ 30.1158295, 54.3669357 ], [ 30.2572212, 54.3138809 ], [ 30.3213844, 54.3019333 ], [ 30.5141621, 54.2869415 ], [ 30.5797195, 54.3119354 ], [ 30.6166649, 54.3483276 ], [ 30.5919418, 54.3819351 ], [ 30.6666641, 54.4166641 ], [ 30.9049931, 54.4097137 ], [ 31.0538864, 54.4174957 ], [ 31.2233339, 54.468493 ], [ 31.27604, 54.41482 ], [ 31.32643, 54.30116 ], [ 31.32334, 54.25667 ], [ 31.5008, 54.18715 ], [ 31.49435, 54.1682 ], [ 31.58625, 54.13935 ], [ 31.62867, 54.14277 ], [ 31.69996, 54.10786 ], [ 31.76164, 54.11802 ], [ 31.89317, 54.03774 ], [ 31.86775, 54.0151 ], [ 31.86953, 53.96263 ], [ 31.79507, 53.83992 ], [ 31.79534, 53.80821 ], [ 31.9044893, 53.7817881 ], [ 32.13145, 53.81542 ], [ 32.27539, 53.77632 ], [ 32.35858, 53.74521 ], [ 32.37329, 53.72472 ], [ 32.45909, 53.73491 ], [ 32.50409, 53.68814 ], [ 32.43976, 53.66276 ], [ 32.43914, 53.60438 ], [ 32.47966, 53.55222 ], [ 32.60027, 53.51464 ], [ 32.60338, 53.48913 ], [ 32.66328, 53.46468 ], [ 32.761, 53.4634 ], [ 32.7554116, 53.4325814 ] ] ] ] } },
{ "type": "Feature", "properties": { "POLYGON_ID": "BLR_GAUL1999_ADM1_599", "ADM0_ISO3": "BLR", "ADM0_NAME": "Belarus", "ADM0_CODE": 26, "ADM1_NAME": "Vitebsk", "ADM1_CODE": 599, "GEOSET": "GAUL", "GEOSET_YEAR": 1999.0, "GEOSET_VERSION": "GAUL_v1", "GEOSET_UNIT": "ADM1", "CENTROID_LONG": 28.935726995008999, "CENTROID_LAT": 55.216794592649372 }, "geometry": { "type": "MultiPolygon", "coordinates": [ [ [ [ 30.9406677, 55.6161459 ], [ 30.96211, 55.5498 ], [ 30.95651, 55.49382 ], [ 30.90195, 55.45776 ], [ 30.9286, 55.38476 ], [ 30.84005, 55.33803 ], [ 30.83031, 55.28969 ], [ 30.90583, 55.26273 ], [ 30.9162, 55.22934 ], [ 30.98442, 55.18689 ], [ 30.99767, 55.09263 ], [ 31.0260298, 55.0682303 ], [ 30.94379, 54.95962 ], [ 30.83767, 54.94615 ], [ 30.84082, 54.908 ], [ 30.7997881, 54.8724672 ], [ 30.76002, 54.80769 ], [ 31.01719, 54.70718 ], [ 30.99237, 54.679 ], [ 31.1005395, 54.6648002 ], [ 31.18831, 54.67084 ], [ 31.21629, 54.63867 ], [ 31.16028, 54.56937 ], [ 31.08793, 54.50161 ], [ 31.2233339, 54.468493 ], [ 31.0538864, 54.4174957 ], [ 30.9049931, 54.4097137 ], [ 30.6666641, 54.4166641 ], [ 30.5919418, 54.3819351 ], [ 30.6166649, 54.3483276 ], [ 30.5797195, 54.3119354 ], [ 30.5141621, 54.2869415 ], [ 30.3213844, 54.3019333 ], [ 30.2572212, 54.3138809 ], [ 30.1158295, 54.3669357 ], [ 30.0286102, 54.3344345 ], [ 30.0252762, 54.2697144 ], [ 29.9719391, 54.2691574 ], [ 29.8969421, 54.2938843 ], [ 29.7877769, 54.3072128 ], [ 29.5755539, 54.3177719 ], [ 29.4794388, 54.2783279 ], [ 29.4143982, 54.2309799 ], [ 29.3561058, 54.2363815 ], [ 29.3580513, 54.2694397 ], [ 29.4124947, 54.3080444 ], [ 29.4338837, 54.5413818 ], [ 29.4272175, 54.5819397 ], [ 29.304718, 54.5722198 ], [ 29.2247162, 54.581665 ], [ 29.2191601, 54.6399918 ], [ 29.1486053, 54.6511002 ], [ 29.0727711, 54.6180496 ], [ 29.0141621, 54.609436 ], [ 28.8844414, 54.6244354 ], [ 28.8266621, 54.5786057 ], [ 28.7305489, 54.5686035 ], [ 28.6566601, 54.5830536 ], [ 28.6722183, 54.6427689 ], [ 28.5763855, 54.6630478 ], [ 28.4799957, 54.645546 ], [ 28.4143219, 54.5406342 ], [ 28.3505516, 54.562767 ], [ 28.2348671, 54.6489487 ], [ 28.0330544, 54.6344376 ], [ 27.908884, 54.6111069 ], [ 27.7461052, 54.6391602 ], [ 27.6749954, 54.6988754 ], [ 27.6877747, 54.7419357 ], [ 27.5124969, 54.8163834 ], [ 27.4183273, 54.8724899 ], [ 27.3169403, 54.8733215 ], [ 27.2769432, 54.929718 ], [ 27.2783318, 54.9838791 ], [ 27.2474937, 54.9986038 ], [ 27.1469421, 54.9886017 ], [ 27.0536079, 54.9497147 ], [ 26.9383278, 54.9497147 ], [ 26.9119415, 54.9747086 ], [ 26.6486053, 54.9716568 ], [ 26.5747185, 54.9516602 ], [ 26.3752747, 54.9549942 ], [ 26.2876244, 54.9209366 ], [ 26.2266617, 54.9602737 ], [ 26.1521599, 54.9791626 ], [ 26.21693, 54.99491 ], [ 26.27614, 55.09118 ], [ 26.26215, 55.10949 ], [ 26.37245, 55.15276 ], [ 26.46778, 55.12595 ], [ 26.49832, 55.15423 ], [ 26.6151, 55.14244 ], [ 26.69351, 55.16429 ], [ 26.6854199, 55.2039299 ], [ 26.72642, 55.2128 ], [ 26.743016, 55.2558677 ], [ 26.85239, 55.28497 ], [ 26.81057, 55.32284 ], [ 26.72875, 55.32544 ], [ 26.66505, 55.34513 ], [ 26.59343, 55.32323 ], [ 26.45492, 55.34525 ], [ 26.55895, 55.3904 ], [ 26.54989, 55.48989 ], [ 26.51646, 55.52355 ], [ 26.57388, 55.53441 ], [ 26.6283988, 55.5807688 ], [ 26.61967, 55.67435 ], [ 26.66769, 55.70557 ], [ 26.80348, 55.68848 ], [ 26.87942, 55.71725 ], [ 26.93692, 55.79166 ], [ 26.9866253, 55.8151666 ], [ 27.17593, 55.85322 ], [ 27.29966, 55.7912 ], [ 27.38848, 55.81347 ], [ 27.46668, 55.79127 ], [ 27.60297, 55.78648 ], [ 27.63383, 55.83565 ], [ 27.62538, 55.89041 ], [ 27.66517, 55.93539 ], [ 27.80461, 55.98701 ], [ 27.82439, 56.02005 ], [ 27.93649, 56.06461 ], [ 27.96918, 56.11755 ], [ 28.0518813, 56.1280492 ], [ 28.15134, 56.1658 ], [ 28.23991, 56.12951 ], [ 28.26203, 56.08528 ], [ 28.36054, 56.0511 ], [ 28.4630777, 56.1033788 ], [ 28.55757, 56.10941 ], [ 28.67618, 56.09131 ], [ 28.67217, 56.05512 ], [ 28.71238, 56.02095 ], [ 28.73775, 55.96685 ], [ 28.85101, 55.972 ], [ 29.00536, 56.04126 ], [ 29.10395, 56.05535 ], [ 29.22919, 55.98757 ], [ 29.30259, 55.98908 ], [ 29.42564, 55.96437 ], [ 29.471187, 55.9100391 ], [ 29.4136, 55.89622 ], [ 29.36993, 55.79554 ], [ 29.37234, 55.75266 ], [ 29.50131, 55.70125 ], [ 29.58074, 55.72966 ], [ 29.6028597, 55.7686897 ], [ 29.7598089, 55.7999703 ], [ 29.81222, 55.79239 ], [ 29.88009, 55.84793 ], [ 29.99916, 55.85466 ], [ 30.13817, 55.83516 ], [ 30.20121, 55.86526 ], [ 30.28585, 55.86015 ], [ 30.28608, 55.83768 ], [ 30.40651, 55.80805 ], [ 30.48886, 55.80738 ], [ 30.51671, 55.75995 ], [ 30.61532, 55.73988 ], [ 30.68138, 55.6468 ], [ 30.7358068, 55.6589804 ], [ 30.76097, 55.60334 ], [ 30.82728, 55.60454 ], [ 30.8582973, 55.6310585 ], [ 30.9406677, 55.6161459 ] ] ] ] } }
]
}
