{
"type": "FeatureCollection",
"name": "BMU_GAUL2006_ADM1",
"crs": { "type": "name", "properties": { "name": "urn:ogc:def:crs:OGC:1.3:CRS84" } },
"features": [
{ "type": "Feature", "properties": { "POLYGON_ID": "BMU_GAUL2006_ADM1_621", "ADM0_ISO3": "BMU", "ADM0_NAME": "Bermuda", "ADM0_CODE": 30, "ADM1_NAME": "Administrative unit not available", "ADM1_CODE": 621, "GEOSET": "GAUL", "GEOSET_YEAR": 2006.0, "GEOSET_VERSION": "GAUL_v1", "GEOSET_UNIT": "ADM1", "CENTROID_LONG": -64.756822140741406, "CENTROID_LAT": 32.308742579883535 }, "geometry": { "type": "MultiPolygon", "coordinates": [ [ [ [ -64.7140732, 32.3492241 ], [ -64.7043991, 32.3297958 ], [ -64.7904663, 32.2664452 ], [ -64.8047256, 32.2984276 ], [ -64.7140732, 32.3492241 ] ] ] ] } }
]
}
