{
"type": "FeatureCollection",
"name": "BRN_GAUL2014_ADM2",
"crs": { "type": "name", "properties": { "name": "urn:ogc:def:crs:OGC:1.3:CRS84" } },
"features": [
{ "type": "Feature", "properties": { "POLYGON_ID": "BRN_GAUL2014_ADM2_61095", "ADM0_ISO3": "BRN", "ADM0_NAME": "Brunei Darussalam", "ADM0_CODE": 40, "ADM1_NAME": "Belait", "ADM1_CODE": 698, "ADM2_NAME": "Bukit Sawat", "ADM2_CODE": 61095, "GEOSET": "GAUL", "GEOSET_YEAR": 2014.0, "GEOSET_VERSION": "GAUL_v1", "GEOSET_UNIT": "ADM2", "CENTROID_LONG": 114.56522354046109, "CENTROID_LAT": 4.5265314804191128 }, "geometry": { "type": "MultiPolygon", "coordinates": [ [ [ [ 114.5589981, 4.6416779 ], [ 114.6021271, 4.5733638 ], [ 114.6610489, 4.5193448 ], [ 114.6789093, 4.4962049 ], [ 114.5981598, 4.4442062 ], [ 114.497818, 4.4453039 ], [ 114.49543, 4.5340929 ], [ 114.480835, 4.5645332 ], [ 114.551506, 4.6505694 ], [ 114.5589981, 4.6416779 ] ] ] ] } },
{ "type": "Feature", "properties": { "POLYGON_ID": "BRN_GAUL2014_ADM2_61096", "ADM0_ISO3": "BRN", "ADM0_NAME": "Brunei Darussalam", "ADM0_CODE": 40, "ADM1_NAME": "Belait", "ADM1_CODE": 698, "ADM2_NAME": "Kuala Balai", "ADM2_CODE": 61096, "GEOSET": "GAUL", "GEOSET_YEAR": 2014.0, "GEOSET_VERSION": "GAUL_v1", "GEOSET_UNIT": "ADM2", "CENTROID_LONG": 114.35166272435227, "CENTROID_LAT": 4.4676156421075675 }, "geometry": { "type": "MultiPolygon", "coordinates": [ [ [ [ 114.3064845, 4.3710945 ], [ 114.29765, 4.42836 ], [ 114.2365295, 4.5162763 ], [ 114.2908554, 4.5579052 ], [ 114.4141312, 4.5537739 ], [ 114.4261475, 4.5716319 ], [ 114.429718, 4.3613391 ], [ 114.3064845, 4.3710945 ] ] ] ] } },
{ "type": "Feature", "properties": { "POLYGON_ID": "BRN_GAUL2014_ADM2_61097", "ADM0_ISO3": "BRN", "ADM0_NAME": "Brunei Darussalam", "ADM0_CODE": 40, "ADM1_NAME": "Belait", "ADM1_CODE": 698, "ADM2_NAME": "Kuala Belait", "ADM2_CODE": 61097, "GEOSET": "GAUL", "GEOSET_YEAR": 2014.0, "GEOSET_VERSION": "GAUL_v1", "GEOSET_UNIT": "ADM2", "CENTROID_LONG": 114.20850212547406, "CENTROID_LAT": 4.5671317585888644 }, "geometry": { "type": "MultiPolygon", "coordinates": [ [ [ [ 114.2908554, 4.5579052 ], [ 114.2365295, 4.5162763 ], [ 114.15961, 4.57165 ], [ 114.101625, 4.5782832 ], [ 114.0714569, 4.5888681 ], [ 114.2421497, 4.597736 ], [ 114.2908554, 4.5579052 ] ] ] ] } },
{ "type": "Feature", "properties": { "POLYGON_ID": "BRN_GAUL2014_ADM2_61098", "ADM0_ISO3": "BRN", "ADM0_NAME": "Brunei Darussalam", "ADM0_CODE": 40, "ADM1_NAME": "Belait", "ADM1_CODE": 698, "ADM2_NAME": "Labi", "ADM2_CODE": 61098, "GEOSET": "GAUL", "GEOSET_YEAR": 2014.0, "GEOSET_VERSION": "GAUL_v1", "GEOSET_UNIT": "ADM2", "CENTROID_LONG": 114.43576691840259, "CENTROID_LAT": 4.3602941893333762 }, "geometry": { "type": "MultiPolygon", "coordinates": [ [ [ [ 114.44384, 4.5661168 ], [ 114.480835, 4.5645332 ], [ 114.49543, 4.5340929 ], [ 114.497818, 4.4453039 ], [ 114.4950027, 4.1963639 ], [ 114.4852623, 4.1647272 ], [ 114.42349, 4.24966 ], [ 114.31593, 4.27243 ], [ 114.32989, 4.34277 ], [ 114.3064845, 4.3710945 ], [ 114.429718, 4.3613391 ], [ 114.4261475, 4.5716319 ], [ 114.44384, 4.5661168 ] ] ] ] } },
{ "type": "Feature", "properties": { "POLYGON_ID": "BRN_GAUL2014_ADM2_61099", "ADM0_ISO3": "BRN", "ADM0_NAME": "Brunei Darussalam", "ADM0_CODE": 40, "ADM1_NAME": "Belait", "ADM1_CODE": 698, "ADM2_NAME": "Liang", "ADM2_CODE": 61099, "GEOSET": "GAUL", "GEOSET_YEAR": 2014.0, "GEOSET_VERSION": "GAUL_v1", "GEOSET_UNIT": "ADM2", "CENTROID_LONG": 114.48348471182555, "CENTROID_LAT": 4.6401568229217665 }, "geometry": { "type": "MultiPolygon", "coordinates": [ [ [ [ 114.551506, 4.6505694 ], [ 114.480835, 4.5645332 ], [ 114.44384, 4.5661168 ], [ 114.4430923, 4.6100721 ], [ 114.3997058, 4.647932 ], [ 114.5287619, 4.7175655 ], [ 114.551506, 4.6505694 ] ] ] ] } },
{ "type": "Feature", "properties": { "POLYGON_ID": "BRN_GAUL2014_ADM2_61100", "ADM0_ISO3": "BRN", "ADM0_NAME": "Brunei Darussalam", "ADM0_CODE": 40, "ADM1_NAME": "Belait", "ADM1_CODE": 698, "ADM2_NAME": "Melilas", "ADM2_CODE": 61100, "GEOSET": "GAUL", "GEOSET_YEAR": 2014.0, "GEOSET_VERSION": "GAUL_v1", "GEOSET_UNIT": "ADM2", "CENTROID_LONG": 114.68405875724284, "CENTROID_LAT": 4.1581553492582701 }, "geometry": { "type": "MultiPolygon", "coordinates": [ [ [ [ 114.827928, 4.2771896 ], [ 114.8573353, 4.2684004 ], [ 114.7980019, 4.166962 ], [ 114.8006324, 4.1360936 ], [ 114.7030258, 4.0300543 ], [ 114.6247141, 4.00192 ], [ 114.6154138, 4.0417131 ], [ 114.568731, 4.0461105 ], [ 114.5259478, 4.137882 ], [ 114.6563644, 4.2819548 ], [ 114.827928, 4.2771896 ] ] ] ] } },
{ "type": "Feature", "properties": { "POLYGON_ID": "BRN_GAUL2014_ADM2_61101", "ADM0_ISO3": "BRN", "ADM0_NAME": "Brunei Darussalam", "ADM0_CODE": 40, "ADM1_NAME": "Belait", "ADM1_CODE": 698, "ADM2_NAME": "Seria", "ADM2_CODE": 61101, "GEOSET": "GAUL", "GEOSET_YEAR": 2014.0, "GEOSET_VERSION": "GAUL_v1", "GEOSET_UNIT": "ADM2", "CENTROID_LONG": 114.35783861344133, "CENTROID_LAT": 4.5940150787835963 }, "geometry": { "type": "MultiPolygon", "coordinates": [ [ [ [ 114.44384, 4.5661168 ], [ 114.4261475, 4.5716319 ], [ 114.4141312, 4.5537739 ], [ 114.2908554, 4.5579052 ], [ 114.2421497, 4.597736 ], [ 114.3997058, 4.647932 ], [ 114.4430923, 4.6100721 ], [ 114.44384, 4.5661168 ] ] ] ] } },
{ "type": "Feature", "properties": { "POLYGON_ID": "BRN_GAUL2014_ADM2_61102", "ADM0_ISO3": "BRN", "ADM0_NAME": "Brunei Darussalam", "ADM0_CODE": 40, "ADM1_NAME": "Belait", "ADM1_CODE": 698, "ADM2_NAME": "Sukang", "ADM2_CODE": 61102, "GEOSET": "GAUL", "GEOSET_YEAR": 2014.0, "GEOSET_VERSION": "GAUL_v1", "GEOSET_UNIT": "ADM2", "CENTROID_LONG": 114.62820662415291, "CENTROID_LAT": 4.3330769717502111 }, "geometry": { "type": "MultiPolygon", "coordinates": [ [ [ [ 114.869173, 4.3347525 ], [ 114.827928, 4.2771896 ], [ 114.6563644, 4.2819548 ], [ 114.5259478, 4.137882 ], [ 114.4852623, 4.1647272 ], [ 114.4950027, 4.1963639 ], [ 114.497818, 4.4453039 ], [ 114.5981598, 4.4442062 ], [ 114.6789093, 4.4962049 ], [ 114.7713089, 4.368269 ], [ 114.8094254, 4.3375521 ], [ 114.869173, 4.3347525 ] ] ] ] } },
{ "type": "Feature", "properties": { "POLYGON_ID": "BRN_GAUL2014_ADM2_61105", "ADM0_ISO3": "BRN", "ADM0_NAME": "Brunei Darussalam", "ADM0_CODE": 40, "ADM1_NAME": "Brunei and Muara", "ADM1_CODE": 699, "ADM2_NAME": "Burong Pingai Ayer", "ADM2_CODE": 61105, "GEOSET": "GAUL", "GEOSET_YEAR": 2014.0, "GEOSET_VERSION": "GAUL_v1", "GEOSET_UNIT": "ADM2", "CENTROID_LONG": 114.92829806090803, "CENTROID_LAT": 4.8702013625339102 }, "geometry": { "type": "MultiPolygon", "coordinates": [ [ [ [ 114.931221, 4.8740869 ], [ 114.9328842, 4.8701239 ], [ 114.9304352, 4.8687181 ], [ 114.9223404, 4.866076 ], [ 114.9230804, 4.8674612 ], [ 114.9286423, 4.8736529 ], [ 114.931221, 4.8740869 ] ] ] ] } },
{ "type": "Feature", "properties": { "POLYGON_ID": "BRN_GAUL2014_ADM2_61106", "ADM0_ISO3": "BRN", "ADM0_NAME": "Brunei Darussalam", "ADM0_CODE": 40, "ADM1_NAME": "Brunei and Muara", "ADM1_CODE": 699, "ADM2_NAME": "Gadong", "ADM2_CODE": 61106, "GEOSET": "GAUL", "GEOSET_YEAR": 2014.0, "GEOSET_VERSION": "GAUL_v1", "GEOSET_UNIT": "ADM2", "CENTROID_LONG": 114.88593929224662, "CENTROID_LAT": 4.9298398048193075 }, "geometry": { "type": "MultiPolygon", "coordinates": [ [ [ [ 114.9150772, 4.9049878 ], [ 114.9006958, 4.8708062 ], [ 114.8562851, 4.8949361 ], [ 114.8512459, 4.9700934 ], [ 114.8763838, 4.9772964 ], [ 114.9219284, 4.9677491 ], [ 114.9150772, 4.9049878 ] ] ] ] } },
{ "type": "Feature", "properties": { "POLYGON_ID": "BRN_GAUL2014_ADM2_61107", "ADM0_ISO3": "BRN", "ADM0_NAME": "Brunei Darussalam", "ADM0_CODE": 40, "ADM1_NAME": "Brunei and Muara", "ADM1_CODE": 699, "ADM2_NAME": "Kianggeh", "ADM2_CODE": 61107, "GEOSET": "GAUL", "GEOSET_YEAR": 2014.0, "GEOSET_VERSION": "GAUL_v1", "GEOSET_UNIT": "ADM2", "CENTROID_LONG": 114.93174993187955, "CENTROID_LAT": 4.8901386363749193 }, "geometry": { "type": "MultiPolygon", "coordinates": [ [ [ [ 114.9694519, 4.915988 ], [ 114.940361, 4.8672318 ], [ 114.9405289, 4.8699212 ], [ 114.9361572, 4.8750682 ], [ 114.931221, 4.8740869 ], [ 114.9264603, 4.8823652 ], [ 114.9230804, 4.8674612 ], [ 114.9223404, 4.866076 ], [ 114.9124298, 4.8533459 ], [ 114.9006958, 4.8708062 ], [ 114.9150772, 4.9049878 ], [ 114.9483414, 4.9155388 ], [ 114.9694519, 4.915988 ] ] ] ] } },
{ "type": "Feature", "properties": { "POLYGON_ID": "BRN_GAUL2014_ADM2_61108", "ADM0_ISO3": "BRN", "ADM0_NAME": "Brunei Darussalam", "ADM0_CODE": 40, "ADM1_NAME": "Brunei and Muara", "ADM1_CODE": 699, "ADM2_NAME": "Kilanas", "ADM2_CODE": 61108, "GEOSET": "GAUL", "GEOSET_YEAR": 2014.0, "GEOSET_VERSION": "GAUL_v1", "GEOSET_UNIT": "ADM2", "CENTROID_LONG": 114.87201964433601, "CENTROID_LAT": 4.8557184761934353 }, "geometry": { "type": "MultiPolygon", "coordinates": [ [ [ [ 114.9006958, 4.8708062 ], [ 114.9124298, 4.8533459 ], [ 114.8576431, 4.8147831 ], [ 114.8420639, 4.851274 ], [ 114.8562851, 4.8949361 ], [ 114.9006958, 4.8708062 ] ] ] ] } },
{ "type": "Feature", "properties": { "POLYGON_ID": "BRN_GAUL2014_ADM2_61109", "ADM0_ISO3": "BRN", "ADM0_NAME": "Brunei Darussalam", "ADM0_CODE": 40, "ADM1_NAME": "Brunei and Muara", "ADM1_CODE": 699, "ADM2_NAME": "Kota Batu", "ADM2_CODE": 61109, "GEOSET": "GAUL", "GEOSET_YEAR": 2014.0, "GEOSET_VERSION": "GAUL_v1", "GEOSET_UNIT": "ADM2", "CENTROID_LONG": 114.98085704855069, "CENTROID_LAT": 4.8857506399495465 }, "geometry": { "type": "MultiPolygon", "coordinates": [ [ [ [ 115.0138817, 4.9321453 ], [ 115.0116383, 4.8917201 ], [ 114.9823922, 4.8287849 ], [ 114.9421005, 4.855135 ], [ 114.940361, 4.8672318 ], [ 114.9694519, 4.915988 ], [ 114.9962463, 4.9447589 ], [ 115.0138817, 4.9321453 ] ] ] ] } },
{ "type": "Feature", "properties": { "POLYGON_ID": "BRN_GAUL2014_ADM2_61110", "ADM0_ISO3": "BRN", "ADM0_NAME": "Brunei Darussalam", "ADM0_CODE": 40, "ADM1_NAME": "Brunei and Muara", "ADM1_CODE": 699, "ADM2_NAME": "Lumapas", "ADM2_CODE": 61110, "GEOSET": "GAUL", "GEOSET_YEAR": 2014.0, "GEOSET_VERSION": "GAUL_v1", "GEOSET_UNIT": "ADM2", "CENTROID_LONG": 114.92230702342677, "CENTROID_LAT": 4.8283711812900423 }, "geometry": { "type": "MultiPolygon", "coordinates": [ [ [ [ 114.9421005, 4.855135 ], [ 114.9823922, 4.8287849 ], [ 114.9730738, 4.8115954 ], [ 114.8635588, 4.802473 ], [ 114.8576431, 4.8147831 ], [ 114.9124298, 4.8533459 ], [ 114.9223404, 4.866076 ], [ 114.9304352, 4.8687181 ], [ 114.9421005, 4.855135 ] ] ] ] } },
{ "type": "Feature", "properties": { "POLYGON_ID": "BRN_GAUL2014_ADM2_61111", "ADM0_ISO3": "BRN", "ADM0_NAME": "Brunei Darussalam", "ADM0_CODE": 40, "ADM1_NAME": "Brunei and Muara", "ADM1_CODE": 699, "ADM2_NAME": "Mentiri", "ADM2_CODE": 61111, "GEOSET": "GAUL", "GEOSET_YEAR": 2014.0, "GEOSET_VERSION": "GAUL_v1", "GEOSET_UNIT": "ADM2", "CENTROID_LONG": 115.00160017850206, "CENTROID_LAT": 4.9803526706940531 }, "geometry": { "type": "MultiPolygon", "coordinates": [ [ [ [ 115.0423547, 4.967848 ], [ 115.0138817, 4.9321453 ], [ 114.9962463, 4.9447589 ], [ 114.9655838, 4.9884362 ], [ 114.9801435, 5.0196889 ], [ 115.0092824, 5.0311686 ], [ 115.0085144, 4.99966 ], [ 115.0423547, 4.967848 ] ] ] ] } },
{ "type": "Feature", "properties": { "POLYGON_ID": "BRN_GAUL2014_ADM2_61112", "ADM0_ISO3": "BRN", "ADM0_NAME": "Brunei Darussalam", "ADM0_CODE": 40, "ADM1_NAME": "Brunei and Muara", "ADM1_CODE": 699, "ADM2_NAME": "Pangkalan Batu", "ADM2_CODE": 61112, "GEOSET": "GAUL", "GEOSET_YEAR": 2014.0, "GEOSET_VERSION": "GAUL_v1", "GEOSET_UNIT": "ADM2", "CENTROID_LONG": 114.81636722457203, "CENTROID_LAT": 4.7931387453328131 }, "geometry": { "type": "MultiPolygon", "coordinates": [ [ [ [ 114.8576431, 4.8147831 ], [ 114.8635588, 4.802473 ], [ 114.82545, 4.74717 ], [ 114.7838661, 4.7333004 ], [ 114.7760544, 4.788929 ], [ 114.7950058, 4.8323088 ], [ 114.8420639, 4.851274 ], [ 114.8576431, 4.8147831 ] ] ] ] } },
{ "type": "Feature", "properties": { "POLYGON_ID": "BRN_GAUL2014_ADM2_61113", "ADM0_ISO3": "BRN", "ADM0_NAME": "Brunei Darussalam", "ADM0_CODE": 40, "ADM1_NAME": "Brunei and Muara", "ADM1_CODE": 699, "ADM2_NAME": "Peramu", "ADM2_CODE": 61113, "GEOSET": "GAUL", "GEOSET_YEAR": 2014.0, "GEOSET_VERSION": "GAUL_v1", "GEOSET_UNIT": "ADM2", "CENTROID_LONG": 114.93443589735941, "CENTROID_LAT": 4.8725546294512974 }, "geometry": { "type": "MultiPolygon", "coordinates": [ [ [ [ 114.937439, 4.8707891 ], [ 114.9328842, 4.8701239 ], [ 114.931221, 4.8740869 ], [ 114.9361572, 4.8750682 ], [ 114.937439, 4.8707891 ] ] ] ] } },
{ "type": "Feature", "properties": { "POLYGON_ID": "BRN_GAUL2014_ADM2_61114", "ADM0_ISO3": "BRN", "ADM0_NAME": "Brunei Darussalam", "ADM0_CODE": 40, "ADM1_NAME": "Brunei and Muara", "ADM1_CODE": 699, "ADM2_NAME": "Saba", "ADM2_CODE": 61114, "GEOSET": "GAUL", "GEOSET_YEAR": 2014.0, "GEOSET_VERSION": "GAUL_v1", "GEOSET_UNIT": "ADM2", "CENTROID_LONG": 114.9380417, "CENTROID_LAT": 4.8719261666666664 }, "geometry": { "type": "MultiPolygon", "coordinates": [ [ [ [ 114.9405289, 4.8699212 ], [ 114.937439, 4.8707891 ], [ 114.9361572, 4.8750682 ], [ 114.9405289, 4.8699212 ] ] ] ] } },
{ "type": "Feature", "properties": { "POLYGON_ID": "BRN_GAUL2014_ADM2_61115", "ADM0_ISO3": "BRN", "ADM0_NAME": "Brunei Darussalam", "ADM0_CODE": 40, "ADM1_NAME": "Brunei and Muara", "ADM1_CODE": 699, "ADM2_NAME": "Sengkurong", "ADM2_CODE": 61115, "GEOSET": "GAUL", "GEOSET_YEAR": 2014.0, "GEOSET_VERSION": "GAUL_v1", "GEOSET_UNIT": "ADM2", "CENTROID_LONG": 114.82271467039754, "CENTROID_LAT": 4.8975558328685072 }, "geometry": { "type": "MultiPolygon", "coordinates": [ [ [ [ 114.8512459, 4.9700934 ], [ 114.8562851, 4.8949361 ], [ 114.8420639, 4.851274 ], [ 114.7950058, 4.8323088 ], [ 114.78666, 4.9199905 ], [ 114.8512459, 4.9700934 ] ] ] ] } },
{ "type": "Feature", "properties": { "POLYGON_ID": "BRN_GAUL2014_ADM2_61116", "ADM0_ISO3": "BRN", "ADM0_NAME": "Brunei Darussalam", "ADM0_CODE": 40, "ADM1_NAME": "Brunei and Muara", "ADM1_CODE": 699, "ADM2_NAME": "Serasa", "ADM2_CODE": 61116, "GEOSET": "GAUL", "GEOSET_YEAR": 2014.0, "GEOSET_VERSION": "GAUL_v1", "GEOSET_UNIT": "ADM2", "CENTROID_LONG": 115.0200505, "CENTROID_LAT": 4.9995588666666659 }, "geometry": { "type": "MultiPolygon", "coordinates": [ [ [ [ 115.0423547, 4.967848 ], [ 115.0085144, 4.99966 ], [ 115.0092824, 5.0311686 ], [ 115.0423547, 4.967848 ] ] ] ] } },
{ "type": "Feature", "properties": { "POLYGON_ID": "BRN_GAUL2014_ADM2_61117", "ADM0_ISO3": "BRN", "ADM0_NAME": "Brunei Darussalam", "ADM0_CODE": 40, "ADM1_NAME": "Brunei and Muara", "ADM1_CODE": 699, "ADM2_NAME": "Sungai Kebun", "ADM2_CODE": 61117, "GEOSET": "GAUL", "GEOSET_YEAR": 2014.0, "GEOSET_VERSION": "GAUL_v1", "GEOSET_UNIT": "ADM2", "CENTROID_LONG": 114.93730986087115, "CENTROID_LAT": 4.8651707676445648 }, "geometry": { "type": "MultiPolygon", "coordinates": [ [ [ [ 114.9405289, 4.8699212 ], [ 114.940361, 4.8672318 ], [ 114.9421005, 4.855135 ], [ 114.9304352, 4.8687181 ], [ 114.9328842, 4.8701239 ], [ 114.937439, 4.8707891 ], [ 114.9405289, 4.8699212 ] ] ] ] } },
{ "type": "Feature", "properties": { "POLYGON_ID": "BRN_GAUL2014_ADM2_61118", "ADM0_ISO3": "BRN", "ADM0_NAME": "Brunei Darussalam", "ADM0_CODE": 40, "ADM1_NAME": "Brunei and Muara", "ADM1_CODE": 699, "ADM2_NAME": "Sungai Kedayan", "ADM2_CODE": 61118, "GEOSET": "GAUL", "GEOSET_YEAR": 2014.0, "GEOSET_VERSION": "GAUL_v1", "GEOSET_UNIT": "ADM2", "CENTROID_LONG": 114.92877453333335, "CENTROID_LAT": 4.8767016666666665 }, "geometry": { "type": "MultiPolygon", "coordinates": [ [ [ [ 114.931221, 4.8740869 ], [ 114.9286423, 4.8736529 ], [ 114.9264603, 4.8823652 ], [ 114.931221, 4.8740869 ] ] ] ] } },
{ "type": "Feature", "properties": { "POLYGON_ID": "BRN_GAUL2014_ADM2_61119", "ADM0_ISO3": "BRN", "ADM0_NAME": "Brunei Darussalam", "ADM0_CODE": 40, "ADM1_NAME": "Brunei and Muara", "ADM1_CODE": 699, "ADM2_NAME": "Tamoi", "ADM2_CODE": 61119, "GEOSET": "GAUL", "GEOSET_YEAR": 2014.0, "GEOSET_VERSION": "GAUL_v1", "GEOSET_UNIT": "ADM2", "CENTROID_LONG": 114.926061, "CENTROID_LAT": 4.8744931 }, "geometry": { "type": "MultiPolygon", "coordinates": [ [ [ [ 114.9286423, 4.8736529 ], [ 114.9230804, 4.8674612 ], [ 114.9264603, 4.8823652 ], [ 114.9286423, 4.8736529 ] ] ] ] } },
{ "type": "Feature", "properties": { "POLYGON_ID": "BRN_GAUL2014_ADM2_61120", "ADM0_ISO3": "BRN", "ADM0_NAME": "Brunei Darussalam", "ADM0_CODE": 40, "ADM1_NAME": "Temburong", "ADM1_CODE": 700, "ADM2_NAME": "Amo", "ADM2_CODE": 61120, "GEOSET": "GAUL", "GEOSET_YEAR": 2014.0, "GEOSET_VERSION": "GAUL_v1", "GEOSET_UNIT": "ADM2", "CENTROID_LONG": 115.20494504688295, "CENTROID_LAT": 4.4705160635698888 }, "geometry": { "type": "MultiPolygon", "coordinates": [ [ [ [ 115.2734608, 4.5533474 ], [ 115.2720585, 4.4485137 ], [ 115.3022183, 4.3994214 ], [ 115.3642991, 4.3413032 ], [ 115.3347997, 4.3010167 ], [ 115.2969928, 4.3356202 ], [ 115.2456411, 4.3437248 ], [ 115.1483371, 4.3842314 ], [ 115.1315551, 4.3737714 ], [ 115.1318359, 4.452529 ], [ 115.1118011, 4.502244 ], [ 115.1351395, 4.5405421 ], [ 115.085144, 4.5884929 ], [ 115.06987, 4.6404638 ], [ 115.1299667, 4.6334181 ], [ 115.151123, 4.6588411 ], [ 115.1628189, 4.6057658 ], [ 115.2104187, 4.5578609 ], [ 115.2734608, 4.5533474 ] ] ] ] } },
{ "type": "Feature", "properties": { "POLYGON_ID": "BRN_GAUL2014_ADM2_61121", "ADM0_ISO3": "BRN", "ADM0_NAME": "Brunei Darussalam", "ADM0_CODE": 40, "ADM1_NAME": "Temburong", "ADM1_CODE": 700, "ADM2_NAME": "Bangar", "ADM2_CODE": 61121, "GEOSET": "GAUL", "GEOSET_YEAR": 2014.0, "GEOSET_VERSION": "GAUL_v1", "GEOSET_UNIT": "ADM2", "CENTROID_LONG": 115.07572882288245, "CENTROID_LAT": 4.6929786973714949 }, "geometry": { "type": "MultiPolygon", "coordinates": [ [ [ [ 115.0814133, 4.7377119 ], [ 115.0735703, 4.7049818 ], [ 115.151123, 4.6588411 ], [ 115.1299667, 4.6334181 ], [ 115.06987, 4.6404638 ], [ 115.0426388, 4.6754354 ], [ 115.0249994, 4.7351443 ], [ 115.0500017, 4.7835785 ], [ 115.0814133, 4.7377119 ] ] ] ] } },
{ "type": "Feature", "properties": { "POLYGON_ID": "BRN_GAUL2014_ADM2_61122", "ADM0_ISO3": "BRN", "ADM0_NAME": "Brunei Darussalam", "ADM0_CODE": 40, "ADM1_NAME": "Temburong", "ADM1_CODE": 700, "ADM2_NAME": "Batu Apoi", "ADM2_CODE": 61122, "GEOSET": "GAUL", "GEOSET_YEAR": 2014.0, "GEOSET_VERSION": "GAUL_v1", "GEOSET_UNIT": "ADM2", "CENTROID_LONG": 115.20032741669189, "CENTROID_LAT": 4.6424128541700513 }, "geometry": { "type": "MultiPolygon", "coordinates": [ [ [ [ 115.2613408, 4.6898144 ], [ 115.2593002, 4.650301 ], [ 115.2904888, 4.6080468 ], [ 115.2734608, 4.5533474 ], [ 115.2104187, 4.5578609 ], [ 115.1628189, 4.6057658 ], [ 115.151123, 4.6588411 ], [ 115.0735703, 4.7049818 ], [ 115.0814133, 4.7377119 ], [ 115.127388, 4.7145 ], [ 115.2613408, 4.6898144 ] ] ] ] } },
{ "type": "Feature", "properties": { "POLYGON_ID": "BRN_GAUL2014_ADM2_61123", "ADM0_ISO3": "BRN", "ADM0_NAME": "Brunei Darussalam", "ADM0_CODE": 40, "ADM1_NAME": "Temburong", "ADM1_CODE": 700, "ADM2_NAME": "Bukok", "ADM2_CODE": 61123, "GEOSET": "GAUL", "GEOSET_YEAR": 2014.0, "GEOSET_VERSION": "GAUL_v1", "GEOSET_UNIT": "ADM2", "CENTROID_LONG": 115.0950814020017, "CENTROID_LAT": 4.5270751476419715 }, "geometry": { "type": "MultiPolygon", "coordinates": [ [ [ [ 115.06987, 4.6404638 ], [ 115.085144, 4.5884929 ], [ 115.1351395, 4.5405421 ], [ 115.1118011, 4.502244 ], [ 115.1318359, 4.452529 ], [ 115.1315551, 4.3737714 ], [ 115.0914852, 4.4436904 ], [ 115.0953144, 4.4909556 ], [ 115.0754011, 4.5640076 ], [ 115.0392419, 4.6329155 ], [ 115.0426388, 4.6754354 ], [ 115.06987, 4.6404638 ] ] ] ] } },
{ "type": "Feature", "properties": { "POLYGON_ID": "BRN_GAUL2014_ADM2_61124", "ADM0_ISO3": "BRN", "ADM0_NAME": "Brunei Darussalam", "ADM0_CODE": 40, "ADM1_NAME": "Temburong", "ADM1_CODE": 700, "ADM2_NAME": "Labu", "ADM2_CODE": 61124, "GEOSET": "GAUL", "GEOSET_YEAR": 2014.0, "GEOSET_VERSION": "GAUL_v1", "GEOSET_UNIT": "ADM2", "CENTROID_LONG": 115.15190994171476, "CENTROID_LAT": 4.7852580213537452 }, "geometry": { "type": "MultiPolygon", "coordinates": [ [ [ [ 115.2613408, 4.6898144 ], [ 115.127388, 4.7145 ], [ 115.0814133, 4.7377119 ], [ 115.0500017, 4.7835785 ], [ 115.0358551, 4.804395 ], [ 115.1160584, 4.861186 ], [ 115.1545853, 4.9127639 ], [ 115.1918601, 4.8391584 ], [ 115.2381881, 4.8036525 ], [ 115.2289925, 4.7651821 ], [ 115.2613408, 4.6898144 ] ] ] ] } },
{ "type": "Feature", "properties": { "POLYGON_ID": "BRN_GAUL2014_ADM2_61125", "ADM0_ISO3": "BRN", "ADM0_NAME": "Brunei Darussalam", "ADM0_CODE": 40, "ADM1_NAME": "Tutong", "ADM1_CODE": 701, "ADM2_NAME": "Keriam", "ADM2_CODE": 61125, "GEOSET": "GAUL", "GEOSET_YEAR": 2014.0, "GEOSET_VERSION": "GAUL_v1", "GEOSET_UNIT": "ADM2", "CENTROID_LONG": 114.7598578633409, "CENTROID_LAT": 4.8466967250486075 }, "geometry": { "type": "MultiPolygon", "coordinates": [ [ [ [ 114.7950058, 4.8323088 ], [ 114.7760544, 4.788929 ], [ 114.7207794, 4.789887 ], [ 114.7346573, 4.8533721 ], [ 114.7155457, 4.8727911 ], [ 114.78666, 4.9199905 ], [ 114.7950058, 4.8323088 ] ] ] ] } },
{ "type": "Feature", "properties": { "POLYGON_ID": "BRN_GAUL2014_ADM2_61126", "ADM0_ISO3": "BRN", "ADM0_NAME": "Brunei Darussalam", "ADM0_CODE": 40, "ADM1_NAME": "Tutong", "ADM1_CODE": 701, "ADM2_NAME": "Kiudang", "ADM2_CODE": 61126, "GEOSET": "GAUL", "GEOSET_YEAR": 2014.0, "GEOSET_VERSION": "GAUL_v1", "GEOSET_UNIT": "ADM2", "CENTROID_LONG": 114.74648743031392, "CENTROID_LAT": 4.7479021029067514 }, "geometry": { "type": "MultiPolygon", "coordinates": [ [ [ [ 114.7760544, 4.788929 ], [ 114.7838661, 4.7333004 ], [ 114.7796604, 4.702569 ], [ 114.7061462, 4.7186618 ], [ 114.7073212, 4.7531018 ], [ 114.7207794, 4.789887 ], [ 114.7760544, 4.788929 ] ] ] ] } },
{ "type": "Feature", "properties": { "POLYGON_ID": "BRN_GAUL2014_ADM2_61127", "ADM0_ISO3": "BRN", "ADM0_NAME": "Brunei Darussalam", "ADM0_CODE": 40, "ADM1_NAME": "Tutong", "ADM1_CODE": 701, "ADM2_NAME": "Lamunin", "ADM2_CODE": 61127, "GEOSET": "GAUL", "GEOSET_YEAR": 2014.0, "GEOSET_VERSION": "GAUL_v1", "GEOSET_UNIT": "ADM2", "CENTROID_LONG": 114.72981509480623, "CENTROID_LAT": 4.6690854743743202 }, "geometry": { "type": "MultiPolygon", "coordinates": [ [ [ [ 114.7061462, 4.7186618 ], [ 114.7796604, 4.702569 ], [ 114.8073705, 4.6295029 ], [ 114.6724243, 4.6314402 ], [ 114.6639786, 4.662622 ], [ 114.668602, 4.7013021 ], [ 114.7061462, 4.7186618 ] ] ] ] } },
{ "type": "Feature", "properties": { "POLYGON_ID": "BRN_GAUL2014_ADM2_61128", "ADM0_ISO3": "BRN", "ADM0_NAME": "Brunei Darussalam", "ADM0_CODE": 40, "ADM1_NAME": "Tutong", "ADM1_CODE": 701, "ADM2_NAME": "Pekan Tutong", "ADM2_CODE": 61128, "GEOSET": "GAUL", "GEOSET_YEAR": 2014.0, "GEOSET_VERSION": "GAUL_v1", "GEOSET_UNIT": "ADM2", "CENTROID_LONG": 114.68339243162779, "CENTROID_LAT": 4.8070784784743692 }, "geometry": { "type": "MultiPolygon", "coordinates": [ [ [ [ 114.7207794, 4.789887 ], [ 114.7073212, 4.7531018 ], [ 114.6503983, 4.7886772 ], [ 114.6166306, 4.7557349 ], [ 114.5979064, 4.7688093 ], [ 114.7155457, 4.8727911 ], [ 114.7346573, 4.8533721 ], [ 114.7207794, 4.789887 ] ] ] ] } },
{ "type": "Feature", "properties": { "POLYGON_ID": "BRN_GAUL2014_ADM2_61129", "ADM0_ISO3": "BRN", "ADM0_NAME": "Brunei Darussalam", "ADM0_CODE": 40, "ADM1_NAME": "Tutong", "ADM1_CODE": 701, "ADM2_NAME": "Rambai", "ADM2_CODE": 61129, "GEOSET": "GAUL", "GEOSET_YEAR": 2014.0, "GEOSET_VERSION": "GAUL_v1", "GEOSET_UNIT": "ADM2", "CENTROID_LONG": 114.76451487405484, "CENTROID_LAT": 4.4969153413852716 }, "geometry": { "type": "MultiPolygon", "coordinates": [ [ [ [ 114.8073705, 4.6295029 ], [ 114.8183702, 4.584289 ], [ 114.8174979, 4.4768927 ], [ 114.8297108, 4.429301 ], [ 114.8828274, 4.4237761 ], [ 114.869173, 4.3347525 ], [ 114.8094254, 4.3375521 ], [ 114.7713089, 4.368269 ], [ 114.6789093, 4.4962049 ], [ 114.6610489, 4.5193448 ], [ 114.6639786, 4.662622 ], [ 114.6724243, 4.6314402 ], [ 114.8073705, 4.6295029 ] ] ] ] } },
{ "type": "Feature", "properties": { "POLYGON_ID": "BRN_GAUL2014_ADM2_61130", "ADM0_ISO3": "BRN", "ADM0_NAME": "Brunei Darussalam", "ADM0_CODE": 40, "ADM1_NAME": "Tutong", "ADM1_CODE": 701, "ADM2_NAME": "Tanjong Maya", "ADM2_CODE": 61130, "GEOSET": "GAUL", "GEOSET_YEAR": 2014.0, "GEOSET_VERSION": "GAUL_v1", "GEOSET_UNIT": "ADM2", "CENTROID_LONG": 114.6534842036035, "CENTROID_LAT": 4.7369057724338006 }, "geometry": { "type": "MultiPolygon", "coordinates": [ [ [ [ 114.7073212, 4.7531018 ], [ 114.7061462, 4.7186618 ], [ 114.668602, 4.7013021 ], [ 114.5911484, 4.7019529 ], [ 114.6166306, 4.7557349 ], [ 114.6503983, 4.7886772 ], [ 114.7073212, 4.7531018 ] ] ] ] } },
{ "type": "Feature", "properties": { "POLYGON_ID": "BRN_GAUL2014_ADM2_61131", "ADM0_ISO3": "BRN", "ADM0_NAME": "Brunei Darussalam", "ADM0_CODE": 40, "ADM1_NAME": "Tutong", "ADM1_CODE": 701, "ADM2_NAME": "Telisai", "ADM2_CODE": 61131, "GEOSET": "GAUL", "GEOSET_YEAR": 2014.0, "GEOSET_VERSION": "GAUL_v1", "GEOSET_UNIT": "ADM2", "CENTROID_LONG": 114.57026011338259, "CENTROID_LAT": 4.7116202671504661 }, "geometry": { "type": "MultiPolygon", "coordinates": [ [ [ [ 114.5979064, 4.7688093 ], [ 114.6166306, 4.7557349 ], [ 114.5911484, 4.7019529 ], [ 114.5589981, 4.6416779 ], [ 114.551506, 4.6505694 ], [ 114.5287619, 4.7175655 ], [ 114.5979064, 4.7688093 ] ] ] ] } },
{ "type": "Feature", "properties": { "POLYGON_ID": "BRN_GAUL2014_ADM2_61132", "ADM0_ISO3": "BRN", "ADM0_NAME": "Brunei Darussalam", "ADM0_CODE": 40, "ADM1_NAME": "Tutong", "ADM1_CODE": 701, "ADM2_NAME": "Ukong", "ADM2_CODE": 61132, "GEOSET": "GAUL", "GEOSET_YEAR": 2014.0, "GEOSET_VERSION": "GAUL_v1", "GEOSET_UNIT": "ADM2", "CENTROID_LONG": 114.6229939536484, "CENTROID_LAT": 4.6290386012505529 }, "geometry": { "type": "MultiPolygon", "coordinates": [ [ [ [ 114.668602, 4.7013021 ], [ 114.6639786, 4.662622 ], [ 114.6610489, 4.5193448 ], [ 114.6021271, 4.5733638 ], [ 114.5589981, 4.6416779 ], [ 114.5911484, 4.7019529 ], [ 114.668602, 4.7013021 ] ] ] ] } },
{ "type": "Feature", "properties": { "POLYGON_ID": "BRN_GAUL2014_ADM2_61103", "ADM0_ISO3": "BRN", "ADM0_NAME": "Brunei Darussalam", "ADM0_CODE": 40, "ADM1_NAME": "Brunei and Muara", "ADM1_CODE": 699, "ADM2_NAME": "Berakas A", "ADM2_CODE": 61103, "GEOSET": "GAUL", "GEOSET_YEAR": 2014.0, "GEOSET_VERSION": "GAUL_v1", "GEOSET_UNIT": "ADM2", "CENTROID_LONG": 114.9363838408198, "CENTROID_LAT": 4.9653337924361391 }, "geometry": { "type": "MultiPolygon", "coordinates": [ [ [ [ 114.9655838, 4.9884362 ], [ 114.9483414, 4.9155388 ], [ 114.9150772, 4.9049878 ], [ 114.9219284, 4.9677491 ], [ 114.8763838, 4.9772964 ], [ 114.9801435, 5.0196889 ], [ 114.9655838, 4.9884362 ] ] ] ] } },
{ "type": "Feature", "properties": { "POLYGON_ID": "BRN_GAUL2014_ADM2_61104", "ADM0_ISO3": "BRN", "ADM0_NAME": "Brunei Darussalam", "ADM0_CODE": 40, "ADM1_NAME": "Brunei and Muara", "ADM1_CODE": 699, "ADM2_NAME": "Berakas B", "ADM2_CODE": 61104, "GEOSET": "GAUL", "GEOSET_YEAR": 2014.0, "GEOSET_VERSION": "GAUL_v1", "GEOSET_UNIT": "ADM2", "CENTROID_LONG": 114.970271362048, "CENTROID_LAT": 4.9455661598815288 }, "geometry": { "type": "MultiPolygon", "coordinates": [ [ [ [ 114.9962463, 4.9447589 ], [ 114.9694519, 4.915988 ], [ 114.9483414, 4.9155388 ], [ 114.9655838, 4.9884362 ], [ 114.9962463, 4.9447589 ] ] ] ] } }
]
}
