{
"type": "FeatureCollection",
"name": "BRN_GAUL2005_ADM1",
"crs": { "type": "name", "properties": { "name": "urn:ogc:def:crs:OGC:1.3:CRS84" } },
"features": [
{ "type": "Feature", "properties": { "POLYGON_ID": "BRN_GAUL2005_ADM1_698", "ADM0_ISO3": "BRN", "ADM0_NAME": "Brunei Darussalam", "ADM0_CODE": 40, "ADM1_NAME": "Belait", "ADM1_CODE": 698, "GEOSET": "GAUL", "GEOSET_YEAR": 2005.0, "GEOSET_VERSION": "GAUL_v1", "GEOSET_UNIT": "ADM1", "CENTROID_LONG": 114.54021916681289, "CENTROID_LAT": 4.3672035744374877 }, "geometry": { "type": "MultiPolygon", "coordinates": [ [ [ [ 114.869173, 4.3347525 ], [ 114.8109068, 4.2529888 ], [ 114.8573353, 4.2684004 ], [ 114.8073204, 4.1927965 ], [ 114.8006324, 4.1360936 ], [ 114.7030258, 4.0300543 ], [ 114.6247141, 4.00192 ], [ 114.6154138, 4.0417131 ], [ 114.568731, 4.0461105 ], [ 114.5465259, 4.077159 ], [ 114.5450207, 4.1246102 ], [ 114.4959476, 4.146767 ], [ 114.4586913, 4.2207871 ], [ 114.42349, 4.24966 ], [ 114.31593, 4.27243 ], [ 114.32989, 4.34277 ], [ 114.30663, 4.36133 ], [ 114.29765, 4.42836 ], [ 114.25754, 4.50271 ], [ 114.19015, 4.54224 ], [ 114.15961, 4.57165 ], [ 114.0714569, 4.5888681 ], [ 114.1772766, 4.5891418 ], [ 114.234108, 4.5957079 ], [ 114.3408585, 4.625834 ], [ 114.4425735, 4.6639853 ], [ 114.5287619, 4.7175655 ], [ 114.5455017, 4.657692 ], [ 114.5913849, 4.6079259 ], [ 114.6021271, 4.5733638 ], [ 114.6443405, 4.5234299 ], [ 114.6673203, 4.5178118 ], [ 114.7023697, 4.4749098 ], [ 114.7713089, 4.368269 ], [ 114.8094254, 4.3375521 ], [ 114.869173, 4.3347525 ] ] ] ] } },
{ "type": "Feature", "properties": { "POLYGON_ID": "BRN_GAUL2005_ADM1_699", "ADM0_ISO3": "BRN", "ADM0_NAME": "Brunei Darussalam", "ADM0_CODE": 40, "ADM1_NAME": "Brunei and Muara", "ADM1_CODE": 699, "GEOSET": "GAUL", "GEOSET_YEAR": 2005.0, "GEOSET_VERSION": "GAUL_v1", "GEOSET_UNIT": "ADM1", "CENTROID_LONG": 114.90968412081506, "CENTROID_LAT": 4.900591374674951 }, "geometry": { "type": "MultiPolygon", "coordinates": [ [ [ [ 115.0116383, 4.8917201 ], [ 114.9730738, 4.8115954 ], [ 114.88784, 4.8151 ], [ 114.8494, 4.79511 ], [ 114.82545, 4.74717 ], [ 114.7838661, 4.7333004 ], [ 114.7760544, 4.788929 ], [ 114.7943115, 4.8258481 ], [ 114.78666, 4.9199905 ], [ 114.8504105, 4.970325 ], [ 115.0548706, 5.047173 ], [ 115.0941162, 5.0113411 ], [ 115.0320435, 5.0 ], [ 115.0409698, 4.9652839 ], [ 115.0140305, 4.9334388 ], [ 115.0116383, 4.8917201 ] ] ] ] } },
{ "type": "Feature", "properties": { "POLYGON_ID": "BRN_GAUL2005_ADM1_700", "ADM0_ISO3": "BRN", "ADM0_NAME": "Brunei Darussalam", "ADM0_CODE": 40, "ADM1_NAME": "Temburong", "ADM1_CODE": 700, "GEOSET": "GAUL", "GEOSET_YEAR": 2005.0, "GEOSET_VERSION": "GAUL_v1", "GEOSET_UNIT": "ADM1", "CENTROID_LONG": 115.17178138195774, "CENTROID_LAT": 4.6046048868446636 }, "geometry": { "type": "MultiPolygon", "coordinates": [ [ [ [ 115.0358551, 4.804395 ], [ 115.1160584, 4.861186 ], [ 115.096077, 4.891293 ], [ 115.1545853, 4.9127639 ], [ 115.1918601, 4.8391584 ], [ 115.2381881, 4.8036525 ], [ 115.2289925, 4.7651821 ], [ 115.2608765, 4.7280125 ], [ 115.2709648, 4.6841914 ], [ 115.2593002, 4.650301 ], [ 115.2904888, 4.6080468 ], [ 115.2665548, 4.5290867 ], [ 115.2775621, 4.5097139 ], [ 115.2720585, 4.4485137 ], [ 115.3022183, 4.3994214 ], [ 115.3323781, 4.3846717 ], [ 115.3642991, 4.3413032 ], [ 115.3198299, 4.2981548 ], [ 115.2936326, 4.3369003 ], [ 115.2456411, 4.3437248 ], [ 115.1483371, 4.3842314 ], [ 115.1094668, 4.3707813 ], [ 115.0914852, 4.4436904 ], [ 115.0953144, 4.4909556 ], [ 115.0754011, 4.5640076 ], [ 115.0392419, 4.6329155 ], [ 115.0433492, 4.6769594 ], [ 115.0249994, 4.7351443 ], [ 115.0358551, 4.804395 ] ] ] ] } },
{ "type": "Feature", "properties": { "POLYGON_ID": "BRN_GAUL2005_ADM1_701", "ADM0_ISO3": "BRN", "ADM0_NAME": "Brunei Darussalam", "ADM0_CODE": 40, "ADM1_NAME": "Tutong", "ADM1_CODE": 701, "GEOSET": "GAUL", "GEOSET_YEAR": 2005.0, "GEOSET_VERSION": "GAUL_v1", "GEOSET_UNIT": "ADM1", "CENTROID_LONG": 114.71427766702966, "CENTROID_LAT": 4.6302083748919731 }, "geometry": { "type": "MultiPolygon", "coordinates": [ [ [ [ 114.7838661, 4.7333004 ], [ 114.7760127, 4.6959501 ], [ 114.7969491, 4.6648362 ], [ 114.8183702, 4.584289 ], [ 114.8174979, 4.4768927 ], [ 114.8297108, 4.429301 ], [ 114.8828274, 4.4237761 ], [ 114.869173, 4.3347525 ], [ 114.8094254, 4.3375521 ], [ 114.7713089, 4.368269 ], [ 114.7023697, 4.4749098 ], [ 114.6673203, 4.5178118 ], [ 114.6443405, 4.5234299 ], [ 114.6021271, 4.5733638 ], [ 114.5913849, 4.6079259 ], [ 114.5455017, 4.657692 ], [ 114.5287619, 4.7175655 ], [ 114.6758728, 4.846097 ], [ 114.78666, 4.9199905 ], [ 114.7943115, 4.8258481 ], [ 114.7760544, 4.788929 ], [ 114.7838661, 4.7333004 ] ] ] ] } }
]
}
