{
"type": "FeatureCollection",
"name": "BRN_GAUL1999_ADM0",
"crs": { "type": "name", "properties": { "name": "urn:ogc:def:crs:OGC:1.3:CRS84" } },
"features": [
{ "type": "Feature", "properties": { "POLYGON_ID": "BRN_GAUL1999_ADM0_40", "ADM0_ISO3": "BRN", "ADM0_NAME": "Brunei Darussalam", "ADM0_CODE": 40, "GEOSET": "GAUL", "GEOSET_YEAR": 1999.0, "GEOSET_VERSION": "GAUL_v1", "GEOSET_UNIT": "ADM0", "CENTROID_LONG": 114.74813061217708, "CENTROID_LAT": 4.5203981307958987 }, "geometry": { "type": "MultiPolygon", "coordinates": [ [ [ [ 115.0358551, 4.804395 ], [ 115.080307, 4.8432069 ], [ 115.1160584, 4.861186 ], [ 115.096077, 4.891293 ], [ 115.1162415, 4.9064941 ], [ 115.1545853, 4.9127639 ], [ 115.1681082, 4.8733024 ], [ 115.1855145, 4.866775 ], [ 115.1918601, 4.8391584 ], [ 115.2381881, 4.8036525 ], [ 115.2289925, 4.7651821 ], [ 115.2608765, 4.7280125 ], [ 115.2432219, 4.7004273 ], [ 115.2709648, 4.6841914 ], [ 115.2593002, 4.650301 ], [ 115.2843633, 4.6348533 ], [ 115.2904888, 4.6080468 ], [ 115.2665548, 4.5290867 ], [ 115.2775621, 4.5097139 ], [ 115.2720585, 4.4485137 ], [ 115.3022183, 4.3994214 ], [ 115.3323781, 4.3846717 ], [ 115.3642991, 4.3413032 ], [ 115.3347997, 4.3010167 ], [ 115.3198299, 4.2981548 ], [ 115.2936326, 4.3369003 ], [ 115.2456411, 4.3437248 ], [ 115.1738739, 4.3697019 ], [ 115.1483371, 4.3842314 ], [ 115.1094668, 4.3707813 ], [ 115.0901853, 4.3889505 ], [ 115.1032655, 4.4063541 ], [ 115.0914852, 4.4436904 ], [ 115.0953144, 4.4909556 ], [ 115.0797652, 4.5188268 ], [ 115.0754011, 4.5640076 ], [ 115.0392419, 4.6329155 ], [ 115.0433492, 4.6769594 ], [ 115.0249994, 4.7351443 ], [ 115.0358551, 4.804395 ] ] ], [ [ [ 115.0116383, 4.8917201 ], [ 114.9875778, 4.8710382 ], [ 114.9928088, 4.8556623 ], [ 114.9730738, 4.8115954 ], [ 114.88784, 4.8151 ], [ 114.8494, 4.79511 ], [ 114.82545, 4.74717 ], [ 114.7770789, 4.7295842 ], [ 114.7760127, 4.6959501 ], [ 114.7969491, 4.6648362 ], [ 114.8183702, 4.584289 ], [ 114.8174979, 4.4768927 ], [ 114.8297108, 4.429301 ], [ 114.8828274, 4.4237761 ], [ 114.8800165, 4.371435 ], [ 114.8681913, 4.3326637 ], [ 114.8109068, 4.2529888 ], [ 114.8573353, 4.2684004 ], [ 114.826803, 4.2135391 ], [ 114.8073204, 4.1927965 ], [ 114.7963676, 4.1586778 ], [ 114.8006324, 4.1360936 ], [ 114.7559486, 4.093736 ], [ 114.7030258, 4.0300543 ], [ 114.6599898, 4.0094086 ], [ 114.6247141, 4.00192 ], [ 114.6154138, 4.0417131 ], [ 114.568731, 4.0461105 ], [ 114.5465259, 4.077159 ], [ 114.5450207, 4.1246102 ], [ 114.5171196, 4.1459464 ], [ 114.4959476, 4.146767 ], [ 114.4586913, 4.2207871 ], [ 114.455573, 4.265593 ], [ 114.4311993, 4.2717885 ], [ 114.42349, 4.24966 ], [ 114.37386, 4.26493 ], [ 114.32407, 4.2565 ], [ 114.31593, 4.27243 ], [ 114.32989, 4.34277 ], [ 114.30663, 4.36133 ], [ 114.31094, 4.39007 ], [ 114.29765, 4.42836 ], [ 114.25754, 4.50271 ], [ 114.19015, 4.54224 ], [ 114.15961, 4.57165 ], [ 114.07301, 4.58183 ], [ 114.0714569, 4.5888681 ], [ 114.1772766, 4.5891418 ], [ 114.234108, 4.5957079 ], [ 114.3408585, 4.625834 ], [ 114.4425735, 4.6639853 ], [ 114.5121765, 4.7039061 ], [ 114.5813065, 4.760839 ], [ 114.6758728, 4.846097 ], [ 114.7509995, 4.8945131 ], [ 114.8504105, 4.970325 ], [ 114.8630219, 4.9705729 ], [ 114.9310837, 5.0024033 ], [ 115.0548706, 5.047173 ], [ 115.0941162, 5.0113411 ], [ 115.0320435, 5.0 ], [ 115.0409698, 4.9652839 ], [ 115.0140305, 4.9334388 ], [ 115.0116383, 4.8917201 ] ] ] ] } }
]
}
