{
"type": "FeatureCollection",
"name": "BTN_GAUL2009_ADM1",
"crs": { "type": "name", "properties": { "name": "urn:ogc:def:crs:OGC:1.3:CRS84" } },
"features": [
{ "type": "Feature", "properties": { "POLYGON_ID": "BTN_GAUL2009_ADM1_622", "ADM0_ISO3": "BTN", "ADM0_NAME": "Bhutan", "ADM0_CODE": 31, "ADM1_NAME": "Bumthang", "ADM1_CODE": 622, "GEOSET": "GAUL", "GEOSET_YEAR": 2009.0, "GEOSET_VERSION": "GAUL_v1", "GEOSET_UNIT": "ADM1", "CENTROID_LONG": 90.743397822085228, "CENTROID_LAT": 27.699526530869626 }, "geometry": { "type": "MultiPolygon", "coordinates": [ [ [ [ 90.78093, 28.04316 ], [ 90.78579, 28.04421 ], [ 90.79005, 28.04634 ], [ 90.7924386, 28.0475343 ], [ 90.7992981, 28.0452559 ], [ 90.80065, 28.04404 ], [ 90.8029839, 28.0391183 ], [ 90.7993635, 28.0254084 ], [ 90.807903, 28.0118698 ], [ 90.8035831, 27.9753612 ], [ 90.7717085, 27.9380098 ], [ 90.8281086, 27.9124071 ], [ 90.8398726, 27.8484615 ], [ 90.9193073, 27.7968199 ], [ 90.9343652, 27.7431293 ], [ 90.9888711, 27.6947214 ], [ 91.0121045, 27.6516245 ], [ 90.9696216, 27.5773018 ], [ 90.9864888, 27.5531399 ], [ 90.9760238, 27.5157458 ], [ 91.0118784, 27.4820912 ], [ 90.9773212, 27.4318469 ], [ 90.9969485, 27.3975314 ], [ 90.9557133, 27.3819011 ], [ 90.8583814, 27.3363982 ], [ 90.8330449, 27.3388029 ], [ 90.7948762, 27.3832632 ], [ 90.7361408, 27.3726638 ], [ 90.6853627, 27.4240177 ], [ 90.5993832, 27.4545967 ], [ 90.595752, 27.4860607 ], [ 90.5447421, 27.6368202 ], [ 90.5627522, 27.6860169 ], [ 90.5640887, 27.7383317 ], [ 90.5454891, 27.7676419 ], [ 90.5027776, 27.7894612 ], [ 90.4950937, 27.8367059 ], [ 90.5342456, 27.8655687 ], [ 90.5331013, 27.9096398 ], [ 90.482045, 27.9733275 ], [ 90.4996955, 28.0063017 ], [ 90.4796662, 28.0488432 ], [ 90.48601, 28.05111 ], [ 90.4978, 28.05919 ], [ 90.51277, 28.06555 ], [ 90.53609, 28.05658 ], [ 90.54638, 28.05304 ], [ 90.5560896, 28.05246 ], [ 90.56804, 28.0477 ], [ 90.57438, 28.04149 ], [ 90.57935, 28.03732 ], [ 90.58331, 28.03198 ], [ 90.59067, 28.02501 ], [ 90.5937, 28.02553 ], [ 90.60931, 28.03763 ], [ 90.61412, 28.04374 ], [ 90.61959, 28.04668 ], [ 90.63082, 28.04689 ], [ 90.63899, 28.04794 ], [ 90.64693, 28.05166 ], [ 90.65271, 28.05459 ], [ 90.66053, 28.05815 ], [ 90.67431, 28.06552 ], [ 90.67736, 28.06793 ], [ 90.68531, 28.07785 ], [ 90.70049, 28.07965 ], [ 90.70493, 28.07661 ], [ 90.71788, 28.07034 ], [ 90.72121, 28.06792 ], [ 90.7318, 28.06202 ], [ 90.73987, 28.05659 ], [ 90.74492, 28.05493 ], [ 90.75096, 28.05167 ], [ 90.75822, 28.04867 ], [ 90.76397, 28.04703 ], [ 90.77336, 28.04455 ], [ 90.7776, 28.04399 ], [ 90.78093, 28.04316 ] ] ] ] } },
{ "type": "Feature", "properties": { "POLYGON_ID": "BTN_GAUL2009_ADM1_623", "ADM0_ISO3": "BTN", "ADM0_NAME": "Bhutan", "ADM0_CODE": 31, "ADM1_NAME": "Chhukha", "ADM1_CODE": 623, "GEOSET": "GAUL", "GEOSET_YEAR": 2009.0, "GEOSET_VERSION": "GAUL_v1", "GEOSET_UNIT": "ADM1", "CENTROID_LONG": 89.544232597545587, "CENTROID_LAT": 26.985450169897945 }, "geometry": { "type": "MultiPolygon", "coordinates": [ [ [ [ 89.6340785, 27.1482431 ], [ 89.6482201, 27.1337104 ], [ 89.6877531, 27.0388918 ], [ 89.7524905, 27.0402399 ], [ 89.7733604, 27.0103649 ], [ 89.8122827, 26.8820209 ], [ 89.735034, 26.7666654 ], [ 89.746286, 26.7299508 ], [ 89.72702, 26.73183 ], [ 89.71265, 26.73323 ], [ 89.6968, 26.73838 ], [ 89.6785, 26.73562 ], [ 89.6662699, 26.7399798 ], [ 89.65233, 26.72083 ], [ 89.64748, 26.72065 ], [ 89.64446, 26.7249 ], [ 89.63928, 26.72608 ], [ 89.62505, 26.72416 ], [ 89.61687, 26.72913 ], [ 89.62283, 26.73832 ], [ 89.63499, 26.74637 ], [ 89.64362, 26.77474 ], [ 89.6411295, 26.7787804 ], [ 89.63635, 26.78228 ], [ 89.59684, 26.78927 ], [ 89.57894, 26.7941 ], [ 89.56351, 26.80737 ], [ 89.56104, 26.80949 ], [ 89.5395, 26.81509 ], [ 89.52936, 26.81309 ], [ 89.5178, 26.81379 ], [ 89.49829, 26.80935 ], [ 89.48246, 26.80827 ], [ 89.46578, 26.81275 ], [ 89.45759, 26.81901 ], [ 89.4515093, 26.8334806 ], [ 89.44537, 26.83853 ], [ 89.44218, 26.8384 ], [ 89.43002, 26.83792 ], [ 89.40904, 26.8426 ], [ 89.3961877, 26.8381828 ], [ 89.38228, 26.8551 ], [ 89.37588, 26.86013 ], [ 89.37098, 26.86062 ], [ 89.3674546, 26.8592441 ], [ 89.3674788, 26.8597643 ], [ 89.3681714, 26.862099 ], [ 89.373556, 26.8686819 ], [ 89.3702116, 26.8831143 ], [ 89.3301071, 26.8773464 ], [ 89.3314879, 26.9081328 ], [ 89.2775188, 26.9249864 ], [ 89.2810436, 26.9668976 ], [ 89.3283688, 27.0367315 ], [ 89.3187658, 27.0822657 ], [ 89.3106698, 27.1030266 ], [ 89.367873, 27.1747547 ], [ 89.3423657, 27.2118704 ], [ 89.4087186, 27.2167559 ], [ 89.513499, 27.188965 ], [ 89.5471722, 27.3145788 ], [ 89.5955308, 27.2322368 ], [ 89.5810688, 27.185936 ], [ 89.6102819, 27.1471628 ], [ 89.6340785, 27.1482431 ] ] ] ] } },
{ "type": "Feature", "properties": { "POLYGON_ID": "BTN_GAUL2009_ADM1_41308", "ADM0_ISO3": "BTN", "ADM0_NAME": "Bhutan", "ADM0_CODE": 31, "ADM1_NAME": "Dagana", "ADM1_CODE": 41308, "GEOSET": "GAUL", "GEOSET_YEAR": 2009.0, "GEOSET_VERSION": "GAUL_v1", "GEOSET_UNIT": "ADM1", "CENTROID_LONG": 89.871568851770846, "CENTROID_LAT": 27.002246835010173 }, "geometry": { "type": "MultiPolygon", "coordinates": [ [ [ [ 90.0698117, 27.1136694 ], [ 90.0705737, 26.9739883 ], [ 90.034925, 26.9122966 ], [ 90.0102122, 26.9030541 ], [ 90.0152488, 26.8447893 ], [ 90.0487399, 26.8263614 ], [ 90.048114, 26.7667481 ], [ 90.0121642, 26.737665 ], [ 90.0, 26.7368 ], [ 89.99429, 26.7364 ], [ 89.94391, 26.73023 ], [ 89.94011, 26.73 ], [ 89.88821, 26.73351 ], [ 89.87364, 26.74447 ], [ 89.86478, 26.74805 ], [ 89.85587, 26.74681 ], [ 89.8538, 26.74191 ], [ 89.85461, 26.73527 ], [ 89.86267, 26.72132 ], [ 89.86374, 26.71469 ], [ 89.86289, 26.71075 ], [ 89.85919, 26.70763 ], [ 89.85689, 26.70777 ], [ 89.85201, 26.70806 ], [ 89.83691, 26.71371 ], [ 89.8284, 26.71524 ], [ 89.79228, 26.71046 ], [ 89.78081, 26.70957 ], [ 89.77097, 26.71197 ], [ 89.75726, 26.72616 ], [ 89.75019, 26.72957 ], [ 89.746286, 26.7299508 ], [ 89.735034, 26.7666654 ], [ 89.8122827, 26.8820209 ], [ 89.7733604, 27.0103649 ], [ 89.7524905, 27.0402399 ], [ 89.6877531, 27.0388918 ], [ 89.6482201, 27.1337104 ], [ 89.6340785, 27.1482431 ], [ 89.6488815, 27.2133905 ], [ 89.6881785, 27.2299608 ], [ 89.7243774, 27.2705336 ], [ 89.7653674, 27.2808933 ], [ 89.8361915, 27.2756491 ], [ 89.8998673, 27.2289863 ], [ 89.9294536, 27.1636975 ], [ 89.9956523, 27.1476015 ], [ 90.0698117, 27.1136694 ] ] ] ] } },
{ "type": "Feature", "properties": { "POLYGON_ID": "BTN_GAUL2009_ADM1_625", "ADM0_ISO3": "BTN", "ADM0_NAME": "Bhutan", "ADM0_CODE": 31, "ADM1_NAME": "Gasa", "ADM1_CODE": 625, "GEOSET": "GAUL", "GEOSET_YEAR": 2009.0, "GEOSET_VERSION": "GAUL_v1", "GEOSET_UNIT": "ADM1", "CENTROID_LONG": 89.893150977847228, "CENTROID_LAT": 27.998594643850545 }, "geometry": { "type": "MultiPolygon", "coordinates": [ [ [ [ 89.80429, 28.2466 ], [ 89.80891, 28.24338 ], [ 89.82544, 28.24033 ], [ 89.82772, 28.23796 ], [ 89.83179, 28.2337 ], [ 89.8412185, 28.2294607 ], [ 89.85317, 28.23027 ], [ 89.85971, 28.22999 ], [ 89.86755, 28.2254 ], [ 89.87217, 28.21928 ], [ 89.87805, 28.21196 ], [ 89.88516, 28.20386 ], [ 89.88939, 28.19679 ], [ 89.8934274, 28.1914734 ], [ 89.9001598, 28.1856902 ], [ 89.90438, 28.1845 ], [ 89.91053, 28.18536 ], [ 89.93234, 28.18913 ], [ 89.94318, 28.19133 ], [ 89.95087, 28.191 ], [ 89.96297, 28.19083 ], [ 89.9743, 28.1927 ], [ 89.98563, 28.18743 ], [ 90.0, 28.17586 ], [ 90.01181, 28.16968 ], [ 90.02303, 28.15059 ], [ 90.02606, 28.14628 ], [ 90.02788, 28.14279 ], [ 90.0315267, 28.140632 ], [ 90.04428, 28.14036 ], [ 90.05035, 28.1487 ], [ 90.05461, 28.15193 ], [ 90.06223, 28.15651 ], [ 90.07132, 28.15885 ], [ 90.08302, 28.15695 ], [ 90.08733, 28.15391 ], [ 90.09437, 28.14679 ], [ 90.09862, 28.14464 ], [ 90.10105, 28.14517 ], [ 90.10439, 28.1484 ], [ 90.10785, 28.15289 ], [ 90.11229, 28.157 ], [ 90.11801, 28.16681 ], [ 90.12055, 28.1722 ], [ 90.12173, 28.17664 ], [ 90.12174, 28.19278 ], [ 90.12296, 28.19413 ], [ 90.14254, 28.19392 ], [ 90.15485, 28.19302 ], [ 90.16487, 28.19112 ], [ 90.17154, 28.18762 ], [ 90.18216, 28.17845 ], [ 90.18512, 28.17442 ], [ 90.18544, 28.17033 ], [ 90.18797, 28.16538 ], [ 90.19253, 28.16268 ], [ 90.19809, 28.16112 ], [ 90.22306, 28.14912 ], [ 90.23042, 28.14845 ], [ 90.23645, 28.14904 ], [ 90.26056, 28.15259 ], [ 90.27156, 28.15479 ], [ 90.29506, 28.15781 ], [ 90.29695, 28.15396 ], [ 90.30048, 28.14058 ], [ 90.3114, 28.13517 ], [ 90.31717, 28.13543 ], [ 90.3208, 28.13434 ], [ 90.32625, 28.12976 ], [ 90.32988, 28.12544 ], [ 90.33381, 28.1214 ], [ 90.33775, 28.11627 ], [ 90.34198, 28.11142 ], [ 90.34803, 28.10683 ], [ 90.355, 28.10251 ], [ 90.36106, 28.09819 ], [ 90.36238, 28.09656 ], [ 90.3658886, 28.0922517 ], [ 90.36778, 28.08616 ], [ 90.3702, 28.07962 ], [ 90.37109, 28.0772 ], [ 90.3736198, 28.0686908 ], [ 90.37722, 28.06549 ], [ 90.3826, 28.06421 ], [ 90.38964, 28.06547 ], [ 90.40873, 28.06805 ], [ 90.41783, 28.06802 ], [ 90.43542, 28.06662 ], [ 90.44178, 28.06391 ], [ 90.44601, 28.06013 ], [ 90.45295, 28.05123 ], [ 90.457434, 28.0497545 ], [ 90.455906, 28.0476809 ], [ 90.4497288, 28.035268 ], [ 90.4370543, 28.0297949 ], [ 90.4217516, 28.010534 ], [ 90.380188, 28.0039947 ], [ 90.3920559, 27.9281346 ], [ 90.3223847, 27.907186 ], [ 90.2928653, 27.9158588 ], [ 90.2413507, 27.993785 ], [ 90.1863128, 27.9791073 ], [ 90.1818999, 27.9571485 ], [ 90.1012292, 27.8494898 ], [ 90.0436979, 27.8504311 ], [ 90.0347227, 27.8099942 ], [ 89.9585259, 27.8375462 ], [ 89.9181956, 27.863437 ], [ 89.851673, 27.8411126 ], [ 89.7943299, 27.7630563 ], [ 89.7514598, 27.7726754 ], [ 89.7165501, 27.730633 ], [ 89.6410961, 27.7360702 ], [ 89.6325314, 27.7235094 ], [ 89.6013142, 27.7323019 ], [ 89.5742108, 27.7895334 ], [ 89.5371763, 27.7630739 ], [ 89.5094223, 27.7716149 ], [ 89.5132647, 27.8401091 ], [ 89.5532238, 27.8785719 ], [ 89.5311822, 27.9300146 ], [ 89.5277821, 27.9784974 ], [ 89.4986145, 27.9831007 ], [ 89.4846899, 27.9933698 ], [ 89.465692, 27.9919453 ], [ 89.4602849, 27.9931625 ], [ 89.4579919, 27.9973291 ], [ 89.4554905, 27.998725 ], [ 89.4539818, 27.9999215 ], [ 89.4525581, 28.0008846 ], [ 89.4512013, 28.0018024 ], [ 89.45303, 28.00664 ], [ 89.45764, 28.00887 ], [ 89.45865, 28.00935 ], [ 89.46858, 28.01285 ], [ 89.47073, 28.01555 ], [ 89.46924, 28.02259 ], [ 89.46783, 28.02387 ], [ 89.45897, 28.03202 ], [ 89.45939, 28.03548 ], [ 89.46714, 28.04204 ], [ 89.47403, 28.04898 ], [ 89.49112, 28.06528 ], [ 89.49469, 28.07511 ], [ 89.49889, 28.08091 ], [ 89.50267, 28.083 ], [ 89.50614, 28.08766 ], [ 89.50883, 28.08979 ], [ 89.51218, 28.09048 ], [ 89.51726, 28.09153 ], [ 89.52687, 28.08918 ], [ 89.53416, 28.08988 ], [ 89.53953, 28.09228 ], [ 89.54106, 28.09558 ], [ 89.54417, 28.10224 ], [ 89.54804, 28.10878 ], [ 89.55666, 28.11995 ], [ 89.56184, 28.12342 ], [ 89.5692, 28.12575 ], [ 89.57265, 28.13075 ], [ 89.58195, 28.13905 ], [ 89.59055, 28.14912 ], [ 89.59705, 28.15833 ], [ 89.60527, 28.16635 ], [ 89.60787, 28.16696 ], [ 89.63743, 28.17163 ], [ 89.64119, 28.17221 ], [ 89.64434, 28.17233 ], [ 89.65259, 28.17191 ], [ 89.65923, 28.17212 ], [ 89.66815, 28.17239 ], [ 89.67428, 28.17904 ], [ 89.67966, 28.18354 ], [ 89.68548, 28.18201 ], [ 89.68993, 28.18177 ], [ 89.71078, 28.17623 ], [ 89.71446, 28.17516 ], [ 89.71828, 28.17404 ], [ 89.72155, 28.17387 ], [ 89.72711, 28.1749 ], [ 89.72757, 28.17533 ], [ 89.74244, 28.18923 ], [ 89.74839, 28.19111 ], [ 89.75742, 28.19215 ], [ 89.76414, 28.19335 ], [ 89.76971, 28.19575 ], [ 89.78322, 28.21304 ], [ 89.78282, 28.21713 ], [ 89.78013, 28.21967 ], [ 89.77417, 28.22205 ], [ 89.77155, 28.22572 ], [ 89.77284, 28.22841 ], [ 89.78152, 28.23035 ], [ 89.78715, 28.23228 ], [ 89.78758, 28.23573 ], [ 89.78662, 28.24062 ], [ 89.7877693, 28.2447074 ], [ 89.79276, 28.24829 ], [ 89.8008279, 28.24847 ], [ 89.80429, 28.2466 ] ] ] ] } },
{ "type": "Feature", "properties": { "POLYGON_ID": "BTN_GAUL2009_ADM1_41309", "ADM0_ISO3": "BTN", "ADM0_NAME": "Bhutan", "ADM0_CODE": 31, "ADM1_NAME": "Haa", "ADM1_CODE": 41309, "GEOSET": "GAUL", "GEOSET_YEAR": 2009.0, "GEOSET_VERSION": "GAUL_v1", "GEOSET_UNIT": "ADM1", "CENTROID_LONG": 89.194756369666649, "CENTROID_LAT": 27.270414961361503 }, "geometry": { "type": "MultiPolygon", "coordinates": [ [ [ [ 89.3423657, 27.2118704 ], [ 89.367873, 27.1747547 ], [ 89.3106698, 27.1030266 ], [ 89.3187658, 27.0822657 ], [ 89.2490968, 27.0824448 ], [ 89.2232869, 27.0329631 ], [ 89.1855248, 27.055307 ], [ 89.1092317, 27.0365667 ], [ 89.0332465, 27.0951597 ], [ 88.9936438, 27.1355786 ], [ 88.9840269, 27.1638639 ], [ 88.9909086, 27.1763428 ], [ 88.9896195, 27.2062363 ], [ 88.9836746, 27.2107267 ], [ 88.9830709, 27.2115943 ], [ 88.9826289, 27.2124641 ], [ 88.9825986, 27.2127146 ], [ 88.98591, 27.21297 ], [ 89.00255, 27.22346 ], [ 89.01477, 27.22532 ], [ 89.05479, 27.23822 ], [ 89.06565, 27.2438 ], [ 89.07222, 27.2601 ], [ 89.06957, 27.27783 ], [ 89.07069, 27.28656 ], [ 89.07544, 27.29051 ], [ 89.08852, 27.29789 ], [ 89.10654, 27.30709 ], [ 89.11908, 27.31418 ], [ 89.13164, 27.31876 ], [ 89.15066, 27.32238 ], [ 89.15487, 27.33391 ], [ 89.15771, 27.35197 ], [ 89.15905, 27.35895 ], [ 89.16601, 27.36499 ], [ 89.17714, 27.37431 ], [ 89.18076, 27.37734 ], [ 89.16129, 27.40227 ], [ 89.16123, 27.41055 ], [ 89.15917, 27.41559 ], [ 89.13745, 27.43371 ], [ 89.13544, 27.43506 ], [ 89.13461, 27.43986 ], [ 89.1323592, 27.4434604 ], [ 89.13003, 27.44458 ], [ 89.1254, 27.44379 ], [ 89.12113, 27.44236 ], [ 89.11883, 27.44207 ], [ 89.11692, 27.44334 ], [ 89.11091, 27.4573 ], [ 89.10524, 27.46602 ], [ 89.09311, 27.47494 ], [ 89.09353, 27.4912 ], [ 89.0940596, 27.4952069 ], [ 89.09794, 27.50098 ], [ 89.10146, 27.5057 ], [ 89.10175, 27.50984 ], [ 89.10138, 27.51486 ], [ 89.10026, 27.53024 ], [ 89.1020895, 27.5379878 ], [ 89.1067, 27.54102 ], [ 89.11376, 27.54304 ], [ 89.12171, 27.54428 ], [ 89.13064, 27.54788 ], [ 89.1412, 27.55475 ], [ 89.15897, 27.57468 ], [ 89.16093, 27.57794 ], [ 89.1509374, 27.5867259 ], [ 89.1530289, 27.5858934 ], [ 89.1566362, 27.5839926 ], [ 89.159284, 27.5822997 ], [ 89.1631686, 27.5752758 ], [ 89.1902268, 27.5777762 ], [ 89.2130874, 27.5633816 ], [ 89.2394941, 27.5617903 ], [ 89.2586126, 27.4803871 ], [ 89.2959861, 27.4565076 ], [ 89.326032, 27.3951298 ], [ 89.3859918, 27.3206919 ], [ 89.3317913, 27.2829404 ], [ 89.3423657, 27.2118704 ] ] ] ] } },
{ "type": "Feature", "properties": { "POLYGON_ID": "BTN_GAUL2009_ADM1_627", "ADM0_ISO3": "BTN", "ADM0_NAME": "Bhutan", "ADM0_CODE": 31, "ADM1_NAME": "Lhuentse", "ADM1_CODE": 627, "GEOSET": "GAUL", "GEOSET_YEAR": 2009.0, "GEOSET_VERSION": "GAUL_v1", "GEOSET_UNIT": "ADM1", "CENTROID_LONG": 91.150227717353005, "CENTROID_LAT": 27.73179580484133 }, "geometry": { "type": "MultiPolygon", "coordinates": [ [ [ [ 91.33919, 28.06149 ], [ 91.34359, 28.05833 ], [ 91.34755, 28.05203 ], [ 91.34954, 28.04885 ], [ 91.35056, 28.04886 ], [ 91.36319, 28.04898 ], [ 91.37025, 28.04286 ], [ 91.37629, 28.03786 ], [ 91.38474, 28.03511 ], [ 91.39269, 28.0312 ], [ 91.39964, 28.02924 ], [ 91.41317, 28.02022 ], [ 91.41776, 28.01987 ], [ 91.42135, 28.01961 ], [ 91.42646, 28.01632 ], [ 91.42739, 28.01491 ], [ 91.43845, 28.00624 ], [ 91.44195, 28.00859 ], [ 91.44396, 28.00995 ], [ 91.45548, 28.00929 ], [ 91.4637673, 28.006151 ], [ 91.4667, 28.0 ], [ 91.46706, 27.99103 ], [ 91.4672, 27.98779 ], [ 91.4747825, 27.9794918 ], [ 91.4390859, 27.975726 ], [ 91.380124, 27.9326369 ], [ 91.3671308, 27.8616997 ], [ 91.3728352, 27.825923 ], [ 91.3431889, 27.7497031 ], [ 91.3521725, 27.6405403 ], [ 91.3372994, 27.6058939 ], [ 91.3310009, 27.5549127 ], [ 91.2861348, 27.5309715 ], [ 91.2954776, 27.4879816 ], [ 91.2780118, 27.4377175 ], [ 91.1903677, 27.4008961 ], [ 91.1704626, 27.4364833 ], [ 91.1143797, 27.4451463 ], [ 91.0486484, 27.3909386 ], [ 90.9969485, 27.3975314 ], [ 90.9773212, 27.4318469 ], [ 91.0118784, 27.4820912 ], [ 90.9760238, 27.5157458 ], [ 90.9864888, 27.5531399 ], [ 90.9696216, 27.5773018 ], [ 91.0121045, 27.6516245 ], [ 90.9888711, 27.6947214 ], [ 90.9343652, 27.7431293 ], [ 90.9193073, 27.7968199 ], [ 90.8398726, 27.8484615 ], [ 90.8281086, 27.9124071 ], [ 90.7717085, 27.9380098 ], [ 90.8035831, 27.9753612 ], [ 90.807903, 28.0118698 ], [ 90.7993635, 28.0254084 ], [ 90.8029839, 28.0391183 ], [ 90.80304, 28.039 ], [ 90.80296, 28.0277 ], [ 90.80323, 28.02393 ], [ 90.81613, 28.00583 ], [ 90.82276, 28.0 ], [ 90.82938, 27.99439 ], [ 90.83424, 27.98882 ], [ 90.8426, 27.97453 ], [ 90.8457, 27.97253 ], [ 90.86702, 27.9637 ], [ 90.88094, 27.95863 ], [ 90.88741, 27.95327 ], [ 90.89537, 27.95004 ], [ 90.91547, 27.95072 ], [ 90.9208, 27.94871 ], [ 90.93362, 27.94744 ], [ 90.93955, 27.94991 ], [ 90.95249, 27.95352 ], [ 90.96053, 27.95714 ], [ 90.9689, 27.94719 ], [ 90.97481, 27.94329 ], [ 90.97507, 27.93923 ], [ 90.97145, 27.93333 ], [ 90.96781, 27.92504 ], [ 90.9645594, 27.9096396 ], [ 90.96119, 27.90732 ], [ 90.98478, 27.8902 ], [ 90.9965, 27.88406 ], [ 91.01448, 27.86735 ], [ 91.02466, 27.86094 ], [ 91.07617, 27.85501 ], [ 91.08912, 27.85245 ], [ 91.09404, 27.85122 ], [ 91.1021, 27.85195 ], [ 91.10708, 27.85335 ], [ 91.11026, 27.85065 ], [ 91.11633, 27.85754 ], [ 91.12495, 27.86946 ], [ 91.13234, 27.87813 ], [ 91.14155, 27.88683 ], [ 91.14876, 27.89157 ], [ 91.15018, 27.89875 ], [ 91.14839, 27.90934 ], [ 91.14332, 27.92704 ], [ 91.15075, 27.93386 ], [ 91.15792, 27.94068 ], [ 91.16248, 27.94722 ], [ 91.16332, 27.95763 ], [ 91.16205, 27.96777 ], [ 91.16178, 27.97074 ], [ 91.17298, 27.97347 ], [ 91.18431, 27.97979 ], [ 91.18826, 27.9855 ], [ 91.19673, 27.98946 ], [ 91.20452, 27.99112 ], [ 91.21037, 27.99221 ], [ 91.2149075, 27.9927497 ], [ 91.2283174, 27.9841917 ], [ 91.23555, 27.97884 ], [ 91.24165, 27.97645 ], [ 91.25036, 27.97392 ], [ 91.25931, 27.97993 ], [ 91.26536, 27.98702 ], [ 91.27308, 27.99814 ], [ 91.27403, 28.0 ], [ 91.27439, 28.00382 ], [ 91.27752, 28.01159 ], [ 91.28306, 28.01827 ], [ 91.28613, 28.02228 ], [ 91.28826, 28.02586 ], [ 91.2937987, 28.0293492 ], [ 91.30129, 28.02928 ], [ 91.30598, 28.03393 ], [ 91.3118898, 28.0457184 ], [ 91.30861, 28.05032 ], [ 91.30777, 28.05598 ], [ 91.30844, 28.06136 ], [ 91.3112, 28.06375 ], [ 91.33919, 28.06149 ] ] ], [ [ [ 90.79717, 28.04717 ], [ 90.7992981, 28.0452559 ], [ 90.7924386, 28.0475343 ], [ 90.79431, 28.04847 ], [ 90.79717, 28.04717 ] ] ] ] } },
{ "type": "Feature", "properties": { "POLYGON_ID": "BTN_GAUL2009_ADM1_628", "ADM0_ISO3": "BTN", "ADM0_NAME": "Bhutan", "ADM0_CODE": 31, "ADM1_NAME": "Monggar", "ADM1_CODE": 628, "GEOSET": "GAUL", "GEOSET_YEAR": 2009.0, "GEOSET_VERSION": "GAUL_v1", "GEOSET_UNIT": "ADM1", "CENTROID_LONG": 91.219960653043358, "CENTROID_LAT": 27.263191801198804 }, "geometry": { "type": "MultiPolygon", "coordinates": [ [ [ [ 91.4252595, 27.4157574 ], [ 91.4565202, 27.3567853 ], [ 91.4879835, 27.3467305 ], [ 91.4968192, 27.3097622 ], [ 91.4265977, 27.2712914 ], [ 91.3922075, 27.2342894 ], [ 91.3753161, 27.1692001 ], [ 91.3315441, 27.0752726 ], [ 91.2358689, 27.049487 ], [ 91.1767216, 26.9605267 ], [ 91.1814708, 26.9335514 ], [ 91.0963796, 26.9835151 ], [ 91.089597, 27.0392737 ], [ 91.033934, 27.0585669 ], [ 91.0024937, 27.1512227 ], [ 91.021366, 27.1679189 ], [ 91.0264534, 27.2213184 ], [ 91.0149001, 27.2599637 ], [ 90.9856549, 27.2823302 ], [ 90.9557133, 27.3819011 ], [ 90.9969485, 27.3975314 ], [ 91.0486484, 27.3909386 ], [ 91.1143797, 27.4451463 ], [ 91.1704626, 27.4364833 ], [ 91.1903677, 27.4008961 ], [ 91.2780118, 27.4377175 ], [ 91.2954776, 27.4879816 ], [ 91.2861348, 27.5309715 ], [ 91.3310009, 27.5549127 ], [ 91.3372994, 27.6058939 ], [ 91.4323538, 27.4772435 ], [ 91.4488767, 27.4427677 ], [ 91.4252595, 27.4157574 ] ] ] ] } },
{ "type": "Feature", "properties": { "POLYGON_ID": "BTN_GAUL2009_ADM1_629", "ADM0_ISO3": "BTN", "ADM0_NAME": "Bhutan", "ADM0_CODE": 31, "ADM1_NAME": "Paro", "ADM1_CODE": 629, "GEOSET": "GAUL", "GEOSET_YEAR": 2009.0, "GEOSET_VERSION": "GAUL_v1", "GEOSET_UNIT": "ADM1", "CENTROID_LONG": 89.367163712501636, "CENTROID_LAT": 27.492394678390031 }, "geometry": { "type": "MultiPolygon", "coordinates": [ [ [ [ 89.5471722, 27.3145788 ], [ 89.513499, 27.188965 ], [ 89.4087186, 27.2167559 ], [ 89.3423657, 27.2118704 ], [ 89.3317913, 27.2829404 ], [ 89.3859918, 27.3206919 ], [ 89.326032, 27.3951298 ], [ 89.2959861, 27.4565076 ], [ 89.2586126, 27.4803871 ], [ 89.2394941, 27.5617903 ], [ 89.2130874, 27.5633816 ], [ 89.1902268, 27.5777762 ], [ 89.1631686, 27.5752758 ], [ 89.159284, 27.5822997 ], [ 89.1566362, 27.5839926 ], [ 89.1530289, 27.5858934 ], [ 89.1509374, 27.5867259 ], [ 89.1509097, 27.5867509 ], [ 89.14673, 27.59841 ], [ 89.134, 27.60773 ], [ 89.12799, 27.61061 ], [ 89.12509, 27.61444 ], [ 89.12477, 27.61574 ], [ 89.1242, 27.61812 ], [ 89.12702, 27.6261 ], [ 89.12858, 27.63223 ], [ 89.12933, 27.63702 ], [ 89.13354, 27.63855 ], [ 89.13774, 27.6412 ], [ 89.13914, 27.64605 ], [ 89.14693, 27.6551 ], [ 89.17434, 27.67095 ], [ 89.1776, 27.67227 ], [ 89.18243, 27.67715 ], [ 89.18225, 27.68407 ], [ 89.18196, 27.68637 ], [ 89.1882, 27.69537 ], [ 89.18934, 27.69678 ], [ 89.19301, 27.7013 ], [ 89.19709, 27.70843 ], [ 89.19763, 27.70985 ], [ 89.2017794, 27.7207085 ], [ 89.20516, 27.7236 ], [ 89.20708, 27.72524 ], [ 89.21214, 27.72527 ], [ 89.21804, 27.72586 ], [ 89.2237599, 27.7413208 ], [ 89.22329, 27.74771 ], [ 89.22073, 27.75838 ], [ 89.22068, 27.75859 ], [ 89.22146, 27.76799 ], [ 89.22433, 27.78042 ], [ 89.2266206, 27.7839472 ], [ 89.2277114, 27.7825311 ], [ 89.2281551, 27.78147 ], [ 89.2295782, 27.7716756 ], [ 89.2345086, 27.7688104 ], [ 89.2475324, 27.7440876 ], [ 89.2698281, 27.7388448 ], [ 89.262532, 27.7197752 ], [ 89.3227871, 27.7200308 ], [ 89.4118923, 27.7492367 ], [ 89.4066815, 27.6977563 ], [ 89.4235294, 27.6456838 ], [ 89.4947092, 27.5673077 ], [ 89.4814682, 27.4245662 ], [ 89.5187572, 27.4105979 ], [ 89.5094883, 27.3649912 ], [ 89.5484291, 27.3425587 ], [ 89.5471722, 27.3145788 ] ] ] ] } },
{ "type": "Feature", "properties": { "POLYGON_ID": "BTN_GAUL2009_ADM1_41310", "ADM0_ISO3": "BTN", "ADM0_NAME": "Bhutan", "ADM0_CODE": 31, "ADM1_NAME": "Pemagatshel", "ADM1_CODE": 41310, "GEOSET": "GAUL", "GEOSET_YEAR": 2009.0, "GEOSET_VERSION": "GAUL_v1", "GEOSET_UNIT": "ADM1", "CENTROID_LONG": 91.312868627078757, "CENTROID_LAT": 26.956208265125174 }, "geometry": { "type": "MultiPolygon", "coordinates": [ [ [ [ 91.5196995, 27.0155932 ], [ 91.4950966, 27.0303189 ], [ 91.4413824, 26.9793546 ], [ 91.4470183, 26.9449537 ], [ 91.4007116, 26.8942693 ], [ 91.4073759, 26.8398038 ], [ 91.40635, 26.83776 ], [ 91.38108, 26.80267 ], [ 91.35731, 26.78553 ], [ 91.30212, 26.78251 ], [ 91.29096, 26.78773 ], [ 91.28436, 26.79353 ], [ 91.26267, 26.80721 ], [ 91.2146, 26.81329 ], [ 91.1773, 26.8117 ], [ 91.1425, 26.81021 ], [ 91.12831, 26.81351 ], [ 91.08804, 26.81585 ], [ 91.08172, 26.81338 ], [ 91.05312, 26.78893 ], [ 91.04882, 26.78781 ], [ 91.04526, 26.78687 ], [ 91.0191057, 26.7874237 ], [ 91.0072418, 26.8468023 ], [ 91.1050485, 26.881013 ], [ 91.1288685, 26.867437 ], [ 91.1660393, 26.8886709 ], [ 91.1814708, 26.9335514 ], [ 91.1767216, 26.9605267 ], [ 91.2358689, 27.049487 ], [ 91.3315441, 27.0752726 ], [ 91.3753161, 27.1692001 ], [ 91.4671275, 27.1736268 ], [ 91.5061116, 27.0924699 ], [ 91.5497374, 27.0634849 ], [ 91.5196995, 27.0155932 ] ] ] ] } },
{ "type": "Feature", "properties": { "POLYGON_ID": "BTN_GAUL2009_ADM1_631", "ADM0_ISO3": "BTN", "ADM0_NAME": "Bhutan", "ADM0_CODE": 31, "ADM1_NAME": "Punakha", "ADM1_CODE": 631, "GEOSET": "GAUL", "GEOSET_YEAR": 2009.0, "GEOSET_VERSION": "GAUL_v1", "GEOSET_UNIT": "ADM1", "CENTROID_LONG": 89.850361467046469, "CENTROID_LAT": 27.663351899041583 }, "geometry": { "type": "MultiPolygon", "coordinates": [ [ [ [ 90.0347227, 27.8099942 ], [ 90.0337838, 27.76774 ], [ 89.9964363, 27.7405404 ], [ 89.9850027, 27.6991875 ], [ 90.0390022, 27.6906071 ], [ 90.067364, 27.6541351 ], [ 89.9745057, 27.5879786 ], [ 89.9220094, 27.5133122 ], [ 89.8311484, 27.47639 ], [ 89.7614593, 27.4673879 ], [ 89.7059012, 27.5573961 ], [ 89.6846394, 27.5696274 ], [ 89.6488576, 27.6381378 ], [ 89.6598004, 27.6855877 ], [ 89.6325314, 27.7235094 ], [ 89.6410961, 27.7360702 ], [ 89.7165501, 27.730633 ], [ 89.7514598, 27.7726754 ], [ 89.7943299, 27.7630563 ], [ 89.851673, 27.8411126 ], [ 89.9181956, 27.863437 ], [ 89.9585259, 27.8375462 ], [ 90.0347227, 27.8099942 ] ] ] ] } },
{ "type": "Feature", "properties": { "POLYGON_ID": "BTN_GAUL2009_ADM1_41311", "ADM0_ISO3": "BTN", "ADM0_NAME": "Bhutan", "ADM0_CODE": 31, "ADM1_NAME": "Samdrupjongkhar", "ADM1_CODE": 41311, "GEOSET": "GAUL", "GEOSET_YEAR": 2009.0, "GEOSET_VERSION": "GAUL_v1", "GEOSET_UNIT": "ADM1", "CENTROID_LONG": 91.795017692566233, "CENTROID_LAT": 26.971472531113946 }, "geometry": { "type": "MultiPolygon", "coordinates": [ [ [ [ 92.0406768, 27.1819166 ], [ 92.03669, 27.17836 ], [ 92.03118, 27.17169 ], [ 92.03096, 27.16404 ], [ 92.03087, 27.16089 ], [ 92.03457, 27.14394 ], [ 92.03548, 27.13858 ], [ 92.03123, 27.12869 ], [ 92.02804, 27.12607 ], [ 92.02718, 27.12536 ], [ 92.02605, 27.1196 ], [ 92.02561, 27.11194 ], [ 92.02582, 27.10856 ], [ 92.02663, 27.09531 ], [ 92.02859, 27.08222 ], [ 92.03312, 27.07173 ], [ 92.03495, 27.06749 ], [ 92.04269, 27.0563 ], [ 92.05232, 27.05101 ], [ 92.06063, 27.04988 ], [ 92.06554, 27.04922 ], [ 92.07473, 27.04465 ], [ 92.07909, 27.0368 ], [ 92.07914, 27.03585 ], [ 92.07961, 27.02722 ], [ 92.08534, 27.01799 ], [ 92.09, 27.01432 ], [ 92.09187, 27.01285 ], [ 92.09416, 27.01046 ], [ 92.10166, 27.00383 ], [ 92.10406, 26.98712 ], [ 92.11339, 26.97583 ], [ 92.12355, 26.96349 ], [ 92.1238, 26.95597 ], [ 92.1232, 26.94559 ], [ 92.121, 26.94228 ], [ 92.11826, 26.93815 ], [ 92.11301, 26.93153 ], [ 92.11517, 26.92316 ], [ 92.11521, 26.91701 ], [ 92.11531, 26.90421 ], [ 92.1130576, 26.8924619 ], [ 92.11253, 26.88971 ], [ 92.10848, 26.86205 ], [ 92.10793, 26.85827 ], [ 92.10167, 26.86277 ], [ 92.0961079, 26.8636093 ], [ 92.0696, 26.85416 ], [ 92.04328, 26.85179 ], [ 92.03567, 26.84911 ], [ 92.00926, 26.8504 ], [ 91.99995, 26.85319 ], [ 91.98368, 26.85929 ], [ 91.9714, 26.86868 ], [ 91.96964, 26.87099 ], [ 91.96211, 26.88089 ], [ 91.94818, 26.89438 ], [ 91.93958, 26.89994 ], [ 91.93321, 26.89888 ], [ 91.92845, 26.89465 ], [ 91.92609, 26.88679 ], [ 91.92889, 26.87789 ], [ 91.9360795, 26.8677083 ], [ 91.93397, 26.86054 ], [ 91.91746, 26.8556 ], [ 91.90928, 26.85496 ], [ 91.90403, 26.85025 ], [ 91.90814, 26.84573 ], [ 91.91512, 26.80915 ], [ 91.91294, 26.80428 ], [ 91.90678, 26.80507 ], [ 91.9005, 26.80999 ], [ 91.89198, 26.81256 ], [ 91.88886, 26.85223 ], [ 91.8833399, 26.85785 ], [ 91.87162, 26.86163 ], [ 91.86732, 26.86302 ], [ 91.85143, 26.86359 ], [ 91.83892, 26.86194 ], [ 91.80724, 26.8408 ], [ 91.79235, 26.83312 ], [ 91.77435, 26.82697 ], [ 91.77448, 26.82373 ], [ 91.7579, 26.81994 ], [ 91.73624, 26.80751 ], [ 91.71533, 26.79555 ], [ 91.70817, 26.79539 ], [ 91.70064, 26.80808 ], [ 91.67624, 26.802 ], [ 91.66778, 26.80227 ], [ 91.64629, 26.81095 ], [ 91.63522, 26.81322 ], [ 91.62636, 26.81179 ], [ 91.61534, 26.81 ], [ 91.58314, 26.79982 ], [ 91.57394, 26.79937 ], [ 91.54976, 26.80316 ], [ 91.54088, 26.80914 ], [ 91.53344, 26.81792 ], [ 91.528, 26.82859 ], [ 91.5219, 26.85047 ], [ 91.51966, 26.85848 ], [ 91.50026, 26.8734 ], [ 91.47286, 26.87295 ], [ 91.45993, 26.86873 ], [ 91.4451688, 26.8738799 ], [ 91.43568, 26.87343 ], [ 91.4352, 26.8734 ], [ 91.42837, 26.8707 ], [ 91.41792, 26.8608 ], [ 91.41145, 26.84792 ], [ 91.4073759, 26.8398038 ], [ 91.4007116, 26.8942693 ], [ 91.4470183, 26.9449537 ], [ 91.4413824, 26.9793546 ], [ 91.4950966, 27.0303189 ], [ 91.5196995, 27.0155932 ], [ 91.6130152, 27.0572829 ], [ 91.6462429, 27.0492936 ], [ 91.7246569, 27.0793846 ], [ 91.7811154, 27.085661 ], [ 91.8294529, 27.1438258 ], [ 91.8858682, 27.1607548 ], [ 91.9235075, 27.1557585 ], [ 91.927404, 27.2380137 ], [ 91.9534657, 27.2423568 ], [ 91.9699025, 27.1937342 ], [ 92.0406768, 27.1819166 ] ] ] ] } },
{ "type": "Feature", "properties": { "POLYGON_ID": "BTN_GAUL2009_ADM1_41312", "ADM0_ISO3": "BTN", "ADM0_NAME": "Bhutan", "ADM0_CODE": 31, "ADM1_NAME": "Samtse", "ADM1_CODE": 41312, "GEOSET": "GAUL", "GEOSET_YEAR": 2009.0, "GEOSET_VERSION": "GAUL_v1", "GEOSET_UNIT": "ADM1", "CENTROID_LONG": 89.069567685331194, "CENTROID_LAT": 27.014275753120192 }, "geometry": { "type": "MultiPolygon", "coordinates": [ [ [ [ 88.96617, 27.22983 ], [ 88.97381, 27.22088 ], [ 88.98228, 27.21269 ], [ 88.9825986, 27.2127146 ], [ 88.9826289, 27.2124641 ], [ 88.9830709, 27.2115943 ], [ 88.9836746, 27.2107267 ], [ 88.9896195, 27.2062363 ], [ 88.9909086, 27.1763428 ], [ 88.9840269, 27.1638639 ], [ 88.9936438, 27.1355786 ], [ 89.0332465, 27.0951597 ], [ 89.1092317, 27.0365667 ], [ 89.1855248, 27.055307 ], [ 89.2232869, 27.0329631 ], [ 89.2490968, 27.0824448 ], [ 89.3187658, 27.0822657 ], [ 89.3283688, 27.0367315 ], [ 89.2810436, 26.9668976 ], [ 89.2775188, 26.9249864 ], [ 89.3314879, 26.9081328 ], [ 89.3301071, 26.8773464 ], [ 89.3702116, 26.8831143 ], [ 89.373556, 26.8686819 ], [ 89.3681714, 26.862099 ], [ 89.3674788, 26.8597643 ], [ 89.3674546, 26.8592441 ], [ 89.34938, 26.85219 ], [ 89.33554, 26.84678 ], [ 89.3179, 26.84802 ], [ 89.31471, 26.84824 ], [ 89.30563, 26.84534 ], [ 89.2947, 26.83869 ], [ 89.2886, 26.8327 ], [ 89.2650789, 26.8216301 ], [ 89.25812, 26.82226 ], [ 89.21231, 26.81647 ], [ 89.19184, 26.81609 ], [ 89.18665, 26.8173 ], [ 89.18095, 26.81862 ], [ 89.17175, 26.81801 ], [ 89.15034, 26.81114 ], [ 89.13705, 26.81036 ], [ 89.1223, 26.82308 ], [ 89.11158, 26.82722 ], [ 89.10613, 26.83826 ], [ 89.09554, 26.86907 ], [ 89.0948, 26.87625 ], [ 89.09347, 26.88899 ], [ 89.08856, 26.89453 ], [ 89.08015, 26.89854 ], [ 89.0659797, 26.8997802 ], [ 89.0564, 26.90627 ], [ 89.05095, 26.91731 ], [ 89.0354182, 26.9249217 ], [ 89.02164, 26.9379 ], [ 89.01392, 26.93849 ], [ 89.0017564, 26.9308425 ], [ 89.0, 26.93207 ], [ 88.99895, 26.93128 ], [ 88.9785898, 26.9207601 ], [ 88.94774, 26.93676 ], [ 88.94765, 26.94821 ], [ 88.9496598, 26.960539 ], [ 88.94679, 26.96849 ], [ 88.93036, 26.98559 ], [ 88.9239, 26.98912 ], [ 88.9165, 26.98993 ], [ 88.90343, 26.98135 ], [ 88.88459, 26.9563 ], [ 88.8793489, 26.9471609 ], [ 88.87684, 26.94915 ], [ 88.87582, 26.98129 ], [ 88.87496, 26.98591 ], [ 88.87508, 26.99235 ], [ 88.88908, 27.02526 ], [ 88.88306, 27.04071 ], [ 88.88172, 27.05733 ], [ 88.87852, 27.06829 ], [ 88.87244, 27.07251 ], [ 88.87038, 27.07396 ], [ 88.80523, 27.10184 ], [ 88.77473, 27.10302 ], [ 88.7627, 27.10817 ], [ 88.75972, 27.11429 ], [ 88.76604, 27.12159 ], [ 88.76755, 27.12493 ], [ 88.77342, 27.13803 ], [ 88.7813, 27.14088 ], [ 88.79299, 27.1477 ], [ 88.79983, 27.15933 ], [ 88.80688, 27.18338 ], [ 88.8409, 27.21996 ], [ 88.85955, 27.22668 ], [ 88.86754, 27.22699 ], [ 88.88229, 27.22422 ], [ 88.9093, 27.23307 ], [ 88.91587, 27.23989 ], [ 88.91918, 27.26089 ], [ 88.9233194, 27.2728382 ], [ 88.92425, 27.27242 ], [ 88.93995, 27.26528 ], [ 88.94428, 27.26177 ], [ 88.95064, 27.25442 ], [ 88.95438, 27.24469 ], [ 88.9594, 27.23763 ], [ 88.96617, 27.22983 ] ] ] ] } },
{ "type": "Feature", "properties": { "POLYGON_ID": "BTN_GAUL2009_ADM1_41313", "ADM0_ISO3": "BTN", "ADM0_NAME": "Bhutan", "ADM0_CODE": 31, "ADM1_NAME": "Sarpang", "ADM1_CODE": 41313, "GEOSET": "GAUL", "GEOSET_YEAR": 2009.0, "GEOSET_VERSION": "GAUL_v1", "GEOSET_UNIT": "ADM1", "CENTROID_LONG": 90.422040796616997, "CENTROID_LAT": 26.967186341224426 }, "geometry": { "type": "MultiPolygon", "coordinates": [ [ [ [ 90.3526734, 27.22095 ], [ 90.4187062, 27.190341 ], [ 90.4822484, 27.1421075 ], [ 90.5310518, 27.1368239 ], [ 90.5395523, 27.1167069 ], [ 90.6183395, 27.0732454 ], [ 90.6448071, 27.0843338 ], [ 90.6806, 27.0612497 ], [ 90.6962453, 26.9587952 ], [ 90.6220456, 26.873739 ], [ 90.6257381, 26.8520108 ], [ 90.6981593, 26.8328686 ], [ 90.7104849, 26.8121432 ], [ 90.7565515, 26.8198569 ], [ 90.7741104, 26.7823679 ], [ 90.74441, 26.7821 ], [ 90.69694, 26.77171 ], [ 90.68764, 26.77395 ], [ 90.67713, 26.78098 ], [ 90.67011, 26.78376 ], [ 90.65702, 26.77807 ], [ 90.64955, 26.77922 ], [ 90.63905, 26.78404 ], [ 90.6378274, 26.784602 ], [ 90.62198, 26.79698 ], [ 90.60508, 26.80381 ], [ 90.57628, 26.80705 ], [ 90.55373, 26.81393 ], [ 90.53732, 26.821 ], [ 90.51526, 26.83753 ], [ 90.48611, 26.85935 ], [ 90.44897, 26.87862 ], [ 90.44199, 26.8862 ], [ 90.41669, 26.90354 ], [ 90.41105, 26.90381 ], [ 90.3996, 26.90336 ], [ 90.38136, 26.90262 ], [ 90.3717, 26.90093 ], [ 90.36781, 26.90195 ], [ 90.35814, 26.90025 ], [ 90.34832, 26.89602 ], [ 90.34039, 26.88956 ], [ 90.32342, 26.86602 ], [ 90.3122, 26.85852 ], [ 90.2812, 26.85458 ], [ 90.25247, 26.85952 ], [ 90.23679, 26.86083 ], [ 90.23243, 26.86091 ], [ 90.22236, 26.85667 ], [ 90.20599, 26.84394 ], [ 90.1904, 26.82502 ], [ 90.18495, 26.81473 ], [ 90.18562, 26.8051 ], [ 90.18768, 26.79738 ], [ 90.1914, 26.78347 ], [ 90.18915, 26.77626 ], [ 90.17998, 26.76906 ], [ 90.17016, 26.76528 ], [ 90.06497, 26.74142 ], [ 90.0121642, 26.737665 ], [ 90.048114, 26.7667481 ], [ 90.0487399, 26.8263614 ], [ 90.1440749, 26.8538134 ], [ 90.1523912, 26.9030381 ], [ 90.2035497, 26.9421448 ], [ 90.2032868, 26.9620885 ], [ 90.2447734, 27.0087623 ], [ 90.2715815, 27.105845 ], [ 90.3231648, 27.1497756 ], [ 90.3274979, 27.1807497 ], [ 90.3526734, 27.22095 ] ] ] ] } },
{ "type": "Feature", "properties": { "POLYGON_ID": "BTN_GAUL2009_ADM1_635", "ADM0_ISO3": "BTN", "ADM0_NAME": "Bhutan", "ADM0_CODE": 31, "ADM1_NAME": "Thimphu", "ADM1_CODE": 635, "GEOSET": "GAUL", "GEOSET_YEAR": 2009.0, "GEOSET_VERSION": "GAUL_v1", "GEOSET_UNIT": "ADM1", "CENTROID_LONG": 89.540415280640545, "CENTROID_LAT": 27.595507648828363 }, "geometry": { "type": "MultiPolygon", "coordinates": [ [ [ [ 89.6325314, 27.7235094 ], [ 89.6598004, 27.6855877 ], [ 89.6488576, 27.6381378 ], [ 89.6846394, 27.5696274 ], [ 89.7059012, 27.5573961 ], [ 89.7614593, 27.4673879 ], [ 89.7656445, 27.4093959 ], [ 89.7073991, 27.3690547 ], [ 89.7304089, 27.3474806 ], [ 89.7243774, 27.2705336 ], [ 89.6881785, 27.2299608 ], [ 89.6488815, 27.2133905 ], [ 89.6340785, 27.1482431 ], [ 89.6102819, 27.1471628 ], [ 89.5810688, 27.185936 ], [ 89.5955308, 27.2322368 ], [ 89.5471722, 27.3145788 ], [ 89.5484291, 27.3425587 ], [ 89.5094883, 27.3649912 ], [ 89.5187572, 27.4105979 ], [ 89.4814682, 27.4245662 ], [ 89.4947092, 27.5673077 ], [ 89.4235294, 27.6456838 ], [ 89.4066815, 27.6977563 ], [ 89.4118923, 27.7492367 ], [ 89.3227871, 27.7200308 ], [ 89.262532, 27.7197752 ], [ 89.2698281, 27.7388448 ], [ 89.2475324, 27.7440876 ], [ 89.2345086, 27.7688104 ], [ 89.2295782, 27.7716756 ], [ 89.2281551, 27.78147 ], [ 89.2277114, 27.7825311 ], [ 89.2266206, 27.7839472 ], [ 89.22885, 27.78738 ], [ 89.23134, 27.79265 ], [ 89.23686, 27.80041 ], [ 89.24275, 27.80457 ], [ 89.25212, 27.80811 ], [ 89.26086, 27.81407 ], [ 89.26673, 27.82237 ], [ 89.27103, 27.82888 ], [ 89.27974, 27.83559 ], [ 89.28671, 27.83972 ], [ 89.28932, 27.84503 ], [ 89.29365, 27.85194 ], [ 89.29855, 27.85465 ], [ 89.30885, 27.85618 ], [ 89.31684, 27.85592 ], [ 89.32347, 27.85516 ], [ 89.328, 27.8575 ], [ 89.33516, 27.86456 ], [ 89.34254, 27.86765 ], [ 89.36145, 27.87152 ], [ 89.36652, 27.87342 ], [ 89.37325, 27.87946 ], [ 89.37647, 27.88308 ], [ 89.38022, 27.88728 ], [ 89.38616, 27.89618 ], [ 89.39079, 27.90093 ], [ 89.39717, 27.91377 ], [ 89.40021, 27.91928 ], [ 89.40388, 27.92433 ], [ 89.4165, 27.93829 ], [ 89.42281, 27.94508 ], [ 89.42659, 27.94961 ], [ 89.43163, 27.95752 ], [ 89.43584, 27.9628 ], [ 89.44926, 27.99078 ], [ 89.44949, 27.99193 ], [ 89.45023, 27.99552 ], [ 89.45052, 28.0 ], [ 89.4512013, 28.0018024 ], [ 89.4525581, 28.0008846 ], [ 89.4539818, 27.9999215 ], [ 89.4554905, 27.998725 ], [ 89.4579919, 27.9973291 ], [ 89.4602849, 27.9931625 ], [ 89.465692, 27.9919453 ], [ 89.4846899, 27.9933698 ], [ 89.4986145, 27.9831007 ], [ 89.5277821, 27.9784974 ], [ 89.5311822, 27.9300146 ], [ 89.5532238, 27.8785719 ], [ 89.5132647, 27.8401091 ], [ 89.5094223, 27.7716149 ], [ 89.5371763, 27.7630739 ], [ 89.5742108, 27.7895334 ], [ 89.6013142, 27.7323019 ], [ 89.6325314, 27.7235094 ] ] ] ] } },
{ "type": "Feature", "properties": { "POLYGON_ID": "BTN_GAUL2009_ADM1_637", "ADM0_ISO3": "BTN", "ADM0_NAME": "Bhutan", "ADM0_CODE": 31, "ADM1_NAME": "Trashigang", "ADM1_CODE": 637, "GEOSET": "GAUL", "GEOSET_YEAR": 2009.0, "GEOSET_VERSION": "GAUL_v1", "GEOSET_UNIT": "ADM1", "CENTROID_LONG": 91.749220736003807, "CENTROID_LAT": 27.275850636646407 }, "geometry": { "type": "MultiPolygon", "coordinates": [ [ [ [ 91.94581, 27.46785 ], [ 91.97639, 27.47032 ], [ 91.99451, 27.47399 ], [ 92.0093595, 27.4781499 ], [ 92.0139, 27.47676 ], [ 92.01789, 27.47258 ], [ 92.01918, 27.46204 ], [ 92.02094, 27.44781 ], [ 92.02709, 27.44266 ], [ 92.03428, 27.438 ], [ 92.04064, 27.43217 ], [ 92.05256, 27.41508 ], [ 92.05836, 27.40539 ], [ 92.06367, 27.39465 ], [ 92.06501, 27.39173 ], [ 92.07211, 27.37621 ], [ 92.08391, 27.35059 ], [ 92.09209, 27.33505 ], [ 92.10212, 27.3189 ], [ 92.10428, 27.31529 ], [ 92.11372, 27.2995 ], [ 92.11401, 27.29589 ], [ 92.11471, 27.287 ], [ 92.12133, 27.28233 ], [ 92.12476, 27.27659 ], [ 92.12031, 27.27384 ], [ 92.10966, 27.2699 ], [ 92.10584, 27.2686 ], [ 92.09791, 27.26852 ], [ 92.07575, 27.25174 ], [ 92.07003, 27.2411 ], [ 92.06994, 27.23775 ], [ 92.06941, 27.21978 ], [ 92.06308, 27.2081 ], [ 92.06289, 27.20457 ], [ 92.06003, 27.19398 ], [ 92.05603, 27.18991 ], [ 92.05331, 27.18861 ], [ 92.04225, 27.18332 ], [ 92.0406768, 27.1819166 ], [ 91.9699025, 27.1937342 ], [ 91.9534657, 27.2423568 ], [ 91.927404, 27.2380137 ], [ 91.9235075, 27.1557585 ], [ 91.8858682, 27.1607548 ], [ 91.8294529, 27.1438258 ], [ 91.7811154, 27.085661 ], [ 91.7246569, 27.0793846 ], [ 91.6462429, 27.0492936 ], [ 91.6130152, 27.0572829 ], [ 91.5196995, 27.0155932 ], [ 91.5497374, 27.0634849 ], [ 91.5061116, 27.0924699 ], [ 91.4671275, 27.1736268 ], [ 91.3753161, 27.1692001 ], [ 91.3922075, 27.2342894 ], [ 91.4265977, 27.2712914 ], [ 91.4968192, 27.3097622 ], [ 91.4879835, 27.3467305 ], [ 91.4565202, 27.3567853 ], [ 91.4252595, 27.4157574 ], [ 91.552129, 27.3749857 ], [ 91.6150392, 27.417935 ], [ 91.653192, 27.4198885 ], [ 91.7248461, 27.4498707 ], [ 91.7561956, 27.448377 ], [ 91.7672544, 27.4635161 ], [ 91.7673108, 27.4648964 ], [ 91.7671783, 27.4715972 ], [ 91.78087, 27.47617 ], [ 91.80275, 27.48459 ], [ 91.83819, 27.4933 ], [ 91.84281, 27.49244 ], [ 91.85192, 27.49243 ], [ 91.88591, 27.48678 ], [ 91.92321, 27.47346 ], [ 91.94581, 27.46785 ] ] ] ] } },
{ "type": "Feature", "properties": { "POLYGON_ID": "BTN_GAUL2009_ADM1_636", "ADM0_ISO3": "BTN", "ADM0_NAME": "Bhutan", "ADM0_CODE": 31, "ADM1_NAME": "Trashiyangtse", "ADM1_CODE": 636, "GEOSET": "GAUL", "GEOSET_YEAR": 2009.0, "GEOSET_VERSION": "GAUL_v1", "GEOSET_UNIT": "ADM1", "CENTROID_LONG": 91.497630951660938, "CENTROID_LAT": 27.667804079334633 }, "geometry": { "type": "MultiPolygon", "coordinates": [ [ [ [ 91.4887, 27.9734 ], [ 91.48408, 27.96118 ], [ 91.4828, 27.95629 ], [ 91.48257, 27.94681 ], [ 91.48514, 27.941 ], [ 91.4949, 27.93812 ], [ 91.5082, 27.93363 ], [ 91.51487, 27.93276 ], [ 91.5219, 27.92596 ], [ 91.54054, 27.9214 ], [ 91.55153, 27.91099 ], [ 91.55178, 27.90554 ], [ 91.55263, 27.89436 ], [ 91.55393, 27.89237 ], [ 91.56602, 27.89658 ], [ 91.5768, 27.90318 ], [ 91.58795, 27.90424 ], [ 91.59683, 27.90216 ], [ 91.61053, 27.89527 ], [ 91.61838, 27.8845 ], [ 91.62355, 27.87297 ], [ 91.61802, 27.86037 ], [ 91.60821, 27.8593 ], [ 91.5864, 27.85763 ], [ 91.56996, 27.86093 ], [ 91.56014, 27.85907 ], [ 91.55473, 27.85477 ], [ 91.5431698, 27.8240433 ], [ 91.55068, 27.8208 ], [ 91.56309, 27.81709 ], [ 91.57509, 27.81617 ], [ 91.60232, 27.82218 ], [ 91.61537, 27.82067 ], [ 91.62874, 27.80614 ], [ 91.63396, 27.7953 ], [ 91.63563, 27.78816 ], [ 91.63836, 27.7787 ], [ 91.64114, 27.77029 ], [ 91.64209, 27.75846 ], [ 91.63458, 27.74821 ], [ 91.63541, 27.73727 ], [ 91.62727, 27.70518 ], [ 91.62135, 27.69615 ], [ 91.60427, 27.6829 ], [ 91.59344, 27.67458 ], [ 91.58431, 27.66627 ], [ 91.57616, 27.6596 ], [ 91.57009, 27.65481 ], [ 91.56259, 27.64309 ], [ 91.56112, 27.63104 ], [ 91.5634, 27.62463 ], [ 91.5673, 27.6164 ], [ 91.5737, 27.61148 ], [ 91.58092, 27.60562 ], [ 91.58177, 27.60285 ], [ 91.5683, 27.59271 ], [ 91.5724, 27.56933 ], [ 91.57883, 27.56215 ], [ 91.5802, 27.55109 ], [ 91.5838, 27.54401 ], [ 91.59544, 27.53937 ], [ 91.60497, 27.5378 ], [ 91.61891, 27.51921 ], [ 91.62614, 27.51267 ], [ 91.63402, 27.51243 ], [ 91.64304, 27.51175 ], [ 91.65208, 27.51165 ], [ 91.65724, 27.51158 ], [ 91.6623883, 27.5109402 ], [ 91.67248, 27.49495 ], [ 91.6804, 27.4905 ], [ 91.7177, 27.47093 ], [ 91.73214, 27.46641 ], [ 91.74178, 27.4657 ], [ 91.752768, 27.4662499 ], [ 91.76036, 27.46932 ], [ 91.7671783, 27.4715972 ], [ 91.7673108, 27.4648964 ], [ 91.7672544, 27.4635161 ], [ 91.7561956, 27.448377 ], [ 91.7248461, 27.4498707 ], [ 91.653192, 27.4198885 ], [ 91.6150392, 27.417935 ], [ 91.552129, 27.3749857 ], [ 91.4252595, 27.4157574 ], [ 91.4488767, 27.4427677 ], [ 91.4323538, 27.4772435 ], [ 91.3372994, 27.6058939 ], [ 91.3521725, 27.6405403 ], [ 91.3431889, 27.7497031 ], [ 91.3728352, 27.825923 ], [ 91.3671308, 27.8616997 ], [ 91.380124, 27.9326369 ], [ 91.4390859, 27.975726 ], [ 91.4747825, 27.9794918 ], [ 91.47504, 27.97921 ], [ 91.48872, 27.97498 ], [ 91.4887, 27.9734 ] ] ] ] } },
{ "type": "Feature", "properties": { "POLYGON_ID": "BTN_GAUL2009_ADM1_638", "ADM0_ISO3": "BTN", "ADM0_NAME": "Bhutan", "ADM0_CODE": 31, "ADM1_NAME": "Trongsa", "ADM1_CODE": 638, "GEOSET": "GAUL", "GEOSET_YEAR": 2009.0, "GEOSET_VERSION": "GAUL_v1", "GEOSET_UNIT": "ADM1", "CENTROID_LONG": 90.494682846585505, "CENTROID_LAT": 27.419829360525693 }, "geometry": { "type": "MultiPolygon", "coordinates": [ [ [ [ 90.7361408, 27.3726638 ], [ 90.7470217, 27.3384699 ], [ 90.7023327, 27.2468733 ], [ 90.6204651, 27.2181885 ], [ 90.6561815, 27.1733128 ], [ 90.6203115, 27.1601995 ], [ 90.5623725, 27.1656882 ], [ 90.5310518, 27.1368239 ], [ 90.4822484, 27.1421075 ], [ 90.4187062, 27.190341 ], [ 90.3526734, 27.22095 ], [ 90.3762179, 27.2617563 ], [ 90.3474337, 27.3306112 ], [ 90.2827225, 27.4180226 ], [ 90.270139, 27.4840036 ], [ 90.3194341, 27.5064257 ], [ 90.3658374, 27.5076734 ], [ 90.3148313, 27.6307935 ], [ 90.3424285, 27.682445 ], [ 90.4036558, 27.6938768 ], [ 90.4210206, 27.6818853 ], [ 90.4839481, 27.7069328 ], [ 90.5027776, 27.7894612 ], [ 90.5454891, 27.7676419 ], [ 90.5640887, 27.7383317 ], [ 90.5627522, 27.6860169 ], [ 90.5447421, 27.6368202 ], [ 90.595752, 27.4860607 ], [ 90.5993832, 27.4545967 ], [ 90.6853627, 27.4240177 ], [ 90.7361408, 27.3726638 ] ] ] ] } },
{ "type": "Feature", "properties": { "POLYGON_ID": "BTN_GAUL2009_ADM1_639", "ADM0_ISO3": "BTN", "ADM0_NAME": "Bhutan", "ADM0_CODE": 31, "ADM1_NAME": "Tsirang", "ADM1_CODE": 639, "GEOSET": "GAUL", "GEOSET_YEAR": 2009.0, "GEOSET_VERSION": "GAUL_v1", "GEOSET_UNIT": "ADM1", "CENTROID_LONG": 90.146544422761991, "CENTROID_LAT": 27.024140269848512 }, "geometry": { "type": "MultiPolygon", "coordinates": [ [ [ [ 90.3274979, 27.1807497 ], [ 90.3231648, 27.1497756 ], [ 90.2715815, 27.105845 ], [ 90.2447734, 27.0087623 ], [ 90.2032868, 26.9620885 ], [ 90.2035497, 26.9421448 ], [ 90.1523912, 26.9030381 ], [ 90.1440749, 26.8538134 ], [ 90.0487399, 26.8263614 ], [ 90.0152488, 26.8447893 ], [ 90.0102122, 26.9030541 ], [ 90.034925, 26.9122966 ], [ 90.0705737, 26.9739883 ], [ 90.0698117, 27.1136694 ], [ 90.0696917, 27.18403 ], [ 90.1394099, 27.1697192 ], [ 90.2101846, 27.1768812 ], [ 90.2496444, 27.1446593 ], [ 90.3274979, 27.1807497 ] ] ] ] } },
{ "type": "Feature", "properties": { "POLYGON_ID": "BTN_GAUL2009_ADM1_640", "ADM0_ISO3": "BTN", "ADM0_NAME": "Bhutan", "ADM0_CODE": 31, "ADM1_NAME": "Wangduephodrang", "ADM1_CODE": 640, "GEOSET": "GAUL", "GEOSET_YEAR": 2009.0, "GEOSET_VERSION": "GAUL_v1", "GEOSET_UNIT": "ADM1", "CENTROID_LONG": 90.153714711933986, "CENTROID_LAT": 27.542255847729585 }, "geometry": { "type": "MultiPolygon", "coordinates": [ [ [ [ 90.457434, 28.0497545 ], [ 90.46155, 28.0484 ], [ 90.46811, 28.04849 ], [ 90.47781, 28.04818 ], [ 90.4796662, 28.0488432 ], [ 90.4996955, 28.0063017 ], [ 90.482045, 27.9733275 ], [ 90.5331013, 27.9096398 ], [ 90.5342456, 27.8655687 ], [ 90.4950937, 27.8367059 ], [ 90.5027776, 27.7894612 ], [ 90.4839481, 27.7069328 ], [ 90.4210206, 27.6818853 ], [ 90.4036558, 27.6938768 ], [ 90.3424285, 27.682445 ], [ 90.3148313, 27.6307935 ], [ 90.3658374, 27.5076734 ], [ 90.3194341, 27.5064257 ], [ 90.270139, 27.4840036 ], [ 90.2827225, 27.4180226 ], [ 90.3474337, 27.3306112 ], [ 90.3762179, 27.2617563 ], [ 90.3526734, 27.22095 ], [ 90.3274979, 27.1807497 ], [ 90.2496444, 27.1446593 ], [ 90.2101846, 27.1768812 ], [ 90.1394099, 27.1697192 ], [ 90.0696917, 27.18403 ], [ 90.0698117, 27.1136694 ], [ 89.9956523, 27.1476015 ], [ 89.9294536, 27.1636975 ], [ 89.8998673, 27.2289863 ], [ 89.8361915, 27.2756491 ], [ 89.7653674, 27.2808933 ], [ 89.7243774, 27.2705336 ], [ 89.7304089, 27.3474806 ], [ 89.7073991, 27.3690547 ], [ 89.7656445, 27.4093959 ], [ 89.7614593, 27.4673879 ], [ 89.8311484, 27.47639 ], [ 89.9220094, 27.5133122 ], [ 89.9745057, 27.5879786 ], [ 90.067364, 27.6541351 ], [ 90.0390022, 27.6906071 ], [ 89.9850027, 27.6991875 ], [ 89.9964363, 27.7405404 ], [ 90.0337838, 27.76774 ], [ 90.0347227, 27.8099942 ], [ 90.0436979, 27.8504311 ], [ 90.1012292, 27.8494898 ], [ 90.1818999, 27.9571485 ], [ 90.1863128, 27.9791073 ], [ 90.2413507, 27.993785 ], [ 90.2928653, 27.9158588 ], [ 90.3223847, 27.907186 ], [ 90.3920559, 27.9281346 ], [ 90.380188, 28.0039947 ], [ 90.4217516, 28.010534 ], [ 90.4370543, 28.0297949 ], [ 90.4497288, 28.035268 ], [ 90.455906, 28.0476809 ], [ 90.457434, 28.0497545 ] ] ] ] } },
{ "type": "Feature", "properties": { "POLYGON_ID": "BTN_GAUL2009_ADM1_41314", "ADM0_ISO3": "BTN", "ADM0_NAME": "Bhutan", "ADM0_CODE": 31, "ADM1_NAME": "Zhemgang", "ADM1_CODE": 41314, "GEOSET": "GAUL", "GEOSET_YEAR": 2009.0, "GEOSET_VERSION": "GAUL_v1", "GEOSET_UNIT": "ADM1", "CENTROID_LONG": 90.857089419689814, "CENTROID_LAT": 27.057048244246076 }, "geometry": { "type": "MultiPolygon", "coordinates": [ [ [ [ 90.9557133, 27.3819011 ], [ 90.9856549, 27.2823302 ], [ 91.0149001, 27.2599637 ], [ 91.0264534, 27.2213184 ], [ 91.021366, 27.1679189 ], [ 91.0024937, 27.1512227 ], [ 91.033934, 27.0585669 ], [ 91.089597, 27.0392737 ], [ 91.0963796, 26.9835151 ], [ 91.1814708, 26.9335514 ], [ 91.1660393, 26.8886709 ], [ 91.1288685, 26.867437 ], [ 91.1050485, 26.881013 ], [ 91.0072418, 26.8468023 ], [ 91.0191057, 26.7874237 ], [ 90.99377, 26.78796 ], [ 90.98295, 26.78995 ], [ 90.90853, 26.78806 ], [ 90.77767, 26.7824 ], [ 90.7741104, 26.7823679 ], [ 90.7565515, 26.8198569 ], [ 90.7104849, 26.8121432 ], [ 90.6981593, 26.8328686 ], [ 90.6257381, 26.8520108 ], [ 90.6220456, 26.873739 ], [ 90.6962453, 26.9587952 ], [ 90.6806, 27.0612497 ], [ 90.6448071, 27.0843338 ], [ 90.6183395, 27.0732454 ], [ 90.5395523, 27.1167069 ], [ 90.5310518, 27.1368239 ], [ 90.5623725, 27.1656882 ], [ 90.6203115, 27.1601995 ], [ 90.6561815, 27.1733128 ], [ 90.6204651, 27.2181885 ], [ 90.7023327, 27.2468733 ], [ 90.7470217, 27.3384699 ], [ 90.7361408, 27.3726638 ], [ 90.7948762, 27.3832632 ], [ 90.8330449, 27.3388029 ], [ 90.8583814, 27.3363982 ], [ 90.9557133, 27.3819011 ] ] ] ] } }
]
}
