{
"type": "FeatureCollection",
"name": "BWA_GAUL2005_ADM1",
"crs": { "type": "name", "properties": { "name": "urn:ogc:def:crs:OGC:1.3:CRS84" } },
"features": [
{ "type": "Feature", "properties": { "POLYGON_ID": "BWA_GAUL2005_ADM1_654", "ADM0_ISO3": "BWA", "ADM0_NAME": "Botswana", "ADM0_CODE": 35, "ADM1_NAME": "Central", "ADM1_CODE": 654, "GEOSET": "GAUL", "GEOSET_YEAR": 2005.0, "GEOSET_VERSION": "GAUL_v1", "GEOSET_UNIT": "ADM1", "CENTROID_LONG": 26.272759598925184, "CENTROID_LAT": -21.539282653171398 }, "geometry": { "type": "MultiPolygon", "coordinates": [ [ [ [ 26.6915858, -19.8935584 ], [ 26.71718, -19.94386 ], [ 26.79313, -19.94853 ], [ 26.80863, -19.98226 ], [ 26.90154, -19.99599 ], [ 26.96793, -20.02004 ], [ 27.05579, -20.02322 ], [ 27.08647, -20.04011 ], [ 27.1095, -20.08371 ], [ 27.19114, -20.08354 ], [ 27.21512, -20.10053 ], [ 27.26192, -20.21057 ], [ 27.28126, -20.2258 ], [ 27.29786, -20.29988 ], [ 27.29649, -20.41918 ], [ 27.28497, -20.49781 ], [ 27.2852802, -20.5519409 ], [ 27.3047199, -20.6147194 ], [ 27.2666702, -20.6577797 ], [ 27.2622204, -20.6861095 ], [ 27.2169495, -20.7263908 ], [ 27.2202797, -20.7697201 ], [ 27.2069492, -20.8180599 ], [ 27.2172203, -20.8502808 ], [ 27.2900009, -20.8988895 ], [ 27.3419495, -20.9947205 ], [ 27.3549995, -21.0494404 ], [ 27.3463898, -21.1061096 ], [ 27.3522205, -21.1652794 ], [ 27.3758297, -21.1847191 ], [ 27.3838902, -21.2438908 ], [ 27.4174995, -21.3649998 ], [ 27.5027809, -21.4724998 ], [ 27.5786095, -21.4836102 ], [ 27.6152802, -21.5255508 ], [ 27.7472191, -21.5586109 ], [ 27.8113899, -21.5411091 ], [ 27.9283295, -21.5380592 ], [ 27.9713898, -21.5652809 ], [ 28.0099548, -21.5616425 ], [ 28.0305, -21.58175 ], [ 28.11041, -21.58645 ], [ 28.20029, -21.61085 ], [ 28.27681, -21.59787 ], [ 28.36652, -21.60726 ], [ 28.40479, -21.63522 ], [ 28.45053, -21.64326 ], [ 28.49045, -21.66709 ], [ 28.57117, -21.6305 ], [ 28.65032, -21.65404 ], [ 28.67126, -21.67873 ], [ 28.77006, -21.71545 ], [ 28.79456, -21.73543 ], [ 28.83876, -21.7386 ], [ 28.87049, -21.75848 ], [ 28.94274, -21.77609 ], [ 28.98465, -21.77195 ], [ 29.06208, -21.80295 ], [ 29.0662381, -21.8271823 ], [ 29.02718, -21.8936 ], [ 29.02253, -21.95456 ], [ 29.03669, -21.99721 ], [ 29.08363, -22.04858 ], [ 29.1466, -22.07719 ], [ 29.18623, -22.07966 ], [ 29.25142, -22.06076 ], [ 29.28706, -22.12164 ], [ 29.3607792, -22.196627 ], [ 29.35285, -22.19824 ], [ 29.3415, -22.19817 ], [ 29.33366, -22.20439 ], [ 29.3318147, -22.2040747 ], [ 29.27926, -22.19146 ], [ 29.2756802, -22.1922686 ], [ 29.27107, -22.19331 ], [ 29.26521, -22.19086 ], [ 29.2581, -22.18952 ], [ 29.25457, -22.19195 ], [ 29.23894, -22.18671 ], [ 29.21319, -22.18142 ], [ 29.20011, -22.18152 ], [ 29.1416, -22.21367 ], [ 29.13345, -22.21377 ], [ 29.12432, -22.21388 ], [ 29.1175947, -22.2140334 ], [ 29.11073, -22.21419 ], [ 29.1107, -22.21534 ], [ 29.0990015, -22.2146551 ], [ 29.08711, -22.21973 ], [ 29.06926, -22.22199 ], [ 29.0585783, -22.2190546 ], [ 29.04744, -22.21748 ], [ 29.0362909, -22.2171628 ], [ 29.03338, -22.21708 ], [ 29.02398, -22.22554 ], [ 29.0212785, -22.226933 ], [ 29.01343, -22.23098 ], [ 28.99421, -22.28077 ], [ 28.97521, -22.28799 ], [ 28.9618, -22.33618 ], [ 28.97142, -22.36494 ], [ 28.97222, -22.37295 ], [ 28.9688, -22.38041 ], [ 28.9253363, -22.448593 ], [ 28.91636, -22.4596 ], [ 28.90846, -22.45983 ], [ 28.88835, -22.44939 ], [ 28.84627, -22.4545 ], [ 28.83025, -22.46299 ], [ 28.82794, -22.46765 ], [ 28.83177, -22.47879 ], [ 28.783535, -22.4980133 ], [ 28.77271, -22.50113 ], [ 28.7634683, -22.501883 ], [ 28.74264, -22.50358 ], [ 28.72699, -22.50861 ], [ 28.66852, -22.5348 ], [ 28.6600009, -22.5438943 ], [ 28.61006, -22.56143 ], [ 28.601812, -22.5636207 ], [ 28.5654679, -22.5621704 ], [ 28.55357, -22.5642 ], [ 28.50539, -22.58587 ], [ 28.4972849, -22.5807458 ], [ 28.47004, -22.57225 ], [ 28.45546, -22.57246 ], [ 28.44947, -22.5708 ], [ 28.4109, -22.57258 ], [ 28.34627, -22.57694 ], [ 28.32252, -22.60096 ], [ 28.301, -22.60939 ], [ 28.27926, -22.61791 ], [ 28.27252, -22.62405 ], [ 28.26663, -22.6421 ], [ 28.26058, -22.64661 ], [ 28.2274, -22.66214 ], [ 28.2147323, -22.6664898 ], [ 28.20218, -22.6708 ], [ 28.19447, -22.67788 ], [ 28.1868935, -22.6895447 ], [ 28.18689, -22.68955 ], [ 28.1727464, -22.7010925 ], [ 28.15946, -22.71593 ], [ 28.16375, -22.75277 ], [ 28.10954, -22.80402 ], [ 28.0966198, -22.816289 ], [ 28.08592, -22.82373 ], [ 28.05713, -22.82935 ], [ 28.04355, -22.85185 ], [ 28.0455174, -22.8578969 ], [ 28.04844, -22.86688 ], [ 28.04762, -22.87286 ], [ 28.04903, -22.87902 ], [ 28.0543383, -22.8915134 ], [ 28.04518, -22.90917 ], [ 27.9557868, -22.9615787 ], [ 27.94602, -22.9604 ], [ 27.93805, -23.01267 ], [ 27.9389072, -23.0204535 ], [ 27.93968, -23.04474 ], [ 27.9374746, -23.0509856 ], [ 27.9056709, -23.0837686 ], [ 27.89531, -23.09029 ], [ 27.8210262, -23.1165181 ], [ 27.81732, -23.12082 ], [ 27.8186945, -23.1268049 ], [ 27.8202, -23.13336 ], [ 27.7686493, -23.1395222 ], [ 27.76704, -23.14437 ], [ 27.78287, -23.16122 ], [ 27.7883, -23.16958 ], [ 27.7515913, -23.2145044 ], [ 27.75205, -23.22453 ], [ 27.71996, -23.24084 ], [ 27.6801, -23.20709 ], [ 27.65224, -23.23339 ], [ 27.59742, -23.23504 ], [ 27.60152, -23.24986 ], [ 27.57624, -23.27105 ], [ 27.5645077, -23.3174926 ], [ 27.56458, -23.32014 ], [ 27.5673939, -23.3250554 ], [ 27.57003, -23.32966 ], [ 27.56345, -23.35387 ], [ 27.51582, -23.38977 ], [ 27.4372739, -23.3971769 ], [ 27.43386, -23.40004 ], [ 27.4245972, -23.425742 ], [ 27.41975, -23.42812 ], [ 27.40131, -23.41716 ], [ 27.41022, -23.40584 ], [ 27.411847, -23.3975922 ], [ 27.40616, -23.39598 ], [ 27.34956, -23.42766 ], [ 27.3490423, -23.4246434 ], [ 27.3539277, -23.4141947 ], [ 27.3525682, -23.4088691 ], [ 27.32846, -23.4091 ], [ 27.32047, -23.41893 ], [ 27.31754, -23.42865 ], [ 27.3141725, -23.4376532 ], [ 27.31368, -23.43897 ], [ 27.31214, -23.45334 ], [ 27.30907, -23.4575 ], [ 27.3030423, -23.4610173 ], [ 27.29656, -23.4648 ], [ 27.21687, -23.49279 ], [ 27.1945, -23.51454 ], [ 27.19805, -23.51746 ], [ 27.207942, -23.5211425 ], [ 27.20858, -23.52138 ], [ 27.2098661, -23.5223009 ], [ 27.16101, -23.53972 ], [ 27.15226, -23.52705 ], [ 27.14749, -23.52485 ], [ 27.14203, -23.52564 ], [ 27.13837, -23.52869 ], [ 27.13627, -23.53492 ], [ 27.14683, -23.551 ], [ 27.1512629, -23.5529974 ], [ 27.13584, -23.5744 ], [ 27.12776, -23.57 ], [ 27.10789, -23.58052 ], [ 27.1053356, -23.5879125 ], [ 27.10166, -23.59855 ], [ 27.09826, -23.60184 ], [ 27.0926802, -23.6020801 ], [ 27.06498, -23.62344 ], [ 27.0748133, -23.63378 ], [ 27.07779, -23.63691 ], [ 27.0781599, -23.6597926 ], [ 27.07739, -23.66073 ], [ 27.074946, -23.66285 ], [ 27.062, -23.67408 ], [ 27.04479, -23.68009 ], [ 27.0336, -23.684 ], [ 27.0332801, -23.680232 ], [ 27.03292, -23.67599 ], [ 27.03632, -23.6608 ], [ 27.03381, -23.6597 ], [ 27.0248682, -23.6605549 ], [ 27.01956, -23.64529 ], [ 27.00359, -23.65499 ], [ 27.00092, -23.66925 ], [ 27.0015015, -23.6867528 ], [ 27.00162, -23.69032 ], [ 27.001513, -23.690386 ], [ 26.99818, -23.69244 ], [ 26.9735019, -23.7175403 ], [ 26.96771, -23.73379 ], [ 26.9665565, -23.749855 ], [ 26.9302807, -23.7574997 ], [ 26.8702793, -23.8105507 ], [ 26.8344498, -23.8602791 ], [ 26.7930508, -23.8658295 ], [ 26.71278, -23.9508305 ], [ 26.5086098, -23.83778 ], [ 26.0358295, -23.5750008 ], [ 26.0172291, -23.5586491 ], [ 25.8613892, -23.3558292 ], [ 25.7358303, -23.3188896 ], [ 25.7227802, -23.2997208 ], [ 25.4444408, -22.9580593 ], [ 25.4364395, -22.9424305 ], [ 25.4225006, -22.9305592 ], [ 25.2011108, -22.6566696 ], [ 24.8822193, -22.2588902 ], [ 24.6200008, -21.9294395 ], [ 24.2186108, -21.4208298 ], [ 23.8950005, -21.0077801 ], [ 23.8812504, -20.9929409 ], [ 23.8783302, -20.6602802 ], [ 23.875, -20.3155594 ], [ 23.9430504, -20.3174992 ], [ 23.9988899, -20.2969398 ], [ 23.9952793, -20.2700005 ], [ 24.0883293, -20.2144508 ], [ 24.1461105, -20.1958294 ], [ 24.1975002, -20.2163906 ], [ 24.2136097, -20.2494392 ], [ 24.2591705, -20.2341709 ], [ 24.2819405, -20.3105507 ], [ 24.3186092, -20.3227806 ], [ 24.3680592, -20.3866692 ], [ 24.3958302, -20.4016705 ], [ 24.4458294, -20.3863907 ], [ 24.5155602, -20.3916702 ], [ 25.1608295, -20.3425007 ], [ 25.1700001, -20.0694408 ], [ 24.9902802, -19.9977798 ], [ 24.9902802, -19.4563904 ], [ 24.9905605, -19.0169392 ], [ 24.9869404, -19.0016708 ], [ 25.3208408, -19.0019398 ], [ 25.9872799, -18.9991207 ], [ 25.991679, -19.0397707 ], [ 25.95813, -19.09251 ], [ 25.97616, -19.13677 ], [ 26.00891, -19.16654 ], [ 26.0433496, -19.2199209 ], [ 26.1372, -19.44297 ], [ 26.16049, -19.53767 ], [ 26.18426, -19.56205 ], [ 26.24426, -19.58944 ], [ 26.30766, -19.58272 ], [ 26.34637, -19.62265 ], [ 26.32035, -19.66451 ], [ 26.3843983, -19.6747699 ], [ 26.41663, -19.73824 ], [ 26.43935, -19.75526 ], [ 26.49193, -19.76111 ], [ 26.57511, -19.8086 ], [ 26.61623, -19.88756 ], [ 26.6915858, -19.8935584 ] ] ] ] } },
{ "type": "Feature", "properties": { "POLYGON_ID": "BWA_GAUL2005_ADM1_655", "ADM0_ISO3": "BWA", "ADM0_NAME": "Botswana", "ADM0_CODE": 35, "ADM1_NAME": "Chobe", "ADM1_CODE": 655, "GEOSET": "GAUL", "GEOSET_YEAR": 2005.0, "GEOSET_VERSION": "GAUL_v1", "GEOSET_UNIT": "ADM1", "CENTROID_LONG": 24.804118464278854, "CENTROID_LAT": -18.513536979813786 }, "geometry": { "type": "MultiPolygon", "coordinates": [ [ [ [ 25.2628044, -17.791388 ], [ 25.27033, -17.79891 ], [ 25.23963, -17.86966 ], [ 25.23718, -17.91769 ], [ 25.26797, -17.95657 ], [ 25.2821896, -18.0112784 ], [ 25.32219, -18.07794 ], [ 25.35625, -18.09034 ], [ 25.42053, -18.15881 ], [ 25.49155, -18.29882 ], [ 25.52234, -18.38565 ], [ 25.60929, -18.48795 ], [ 25.64988, -18.50892 ], [ 25.67409, -18.55725 ], [ 25.71023, -18.5978 ], [ 25.74891, -18.60431 ], [ 25.78596, -18.64047 ], [ 25.79724, -18.69015 ], [ 25.79002, -18.75711 ], [ 25.8207, -18.81665 ], [ 25.81963, -18.84373 ], [ 25.94086, -18.91037 ], [ 25.9872799, -18.9991207 ], [ 25.3208408, -19.0019398 ], [ 24.9869404, -19.0016708 ], [ 24.4786091, -19.0002804 ], [ 23.8980598, -18.9961109 ], [ 23.8841705, -18.99333 ], [ 23.8852806, -18.6366692 ], [ 23.88694, -18.2701066 ], [ 23.9143781, -18.2524015 ], [ 23.9311771, -18.2035316 ], [ 23.9792835, -18.1867325 ], [ 24.0334986, -18.1378626 ], [ 24.0732054, -18.1348082 ], [ 24.1274205, -18.0989193 ], [ 24.1877443, -18.030196 ], [ 24.2702123, -18.0202693 ], [ 24.2893022, -18.0416499 ], [ 24.3694794, -17.947728 ], [ 24.4243211, -17.9516538 ], [ 24.4708567, -17.9930425 ], [ 24.5101009, -18.0638108 ], [ 24.5793681, -18.0696009 ], [ 24.6282625, -18.0138441 ], [ 24.6278336, -17.9831778 ], [ 24.7022476, -17.9396446 ], [ 24.723907, -17.9042604 ], [ 24.863728, -17.8455013 ], [ 24.9102635, -17.810546 ], [ 25.014057, -17.8379956 ], [ 25.0533013, -17.8073293 ], [ 25.0642382, -17.840569 ], [ 25.1437989, -17.8079727 ], [ 25.1583815, -17.779022 ], [ 25.2227163, -17.7933901 ], [ 25.2628044, -17.791388 ] ] ] ] } },
{ "type": "Feature", "properties": { "POLYGON_ID": "BWA_GAUL2005_ADM1_656", "ADM0_ISO3": "BWA", "ADM0_NAME": "Botswana", "ADM0_CODE": 35, "ADM1_NAME": "Ghanzi", "ADM1_CODE": 656, "GEOSET": "GAUL", "GEOSET_YEAR": 2005.0, "GEOSET_VERSION": "GAUL_v1", "GEOSET_UNIT": "ADM1", "CENTROID_LONG": 22.598650051479503, "CENTROID_LAT": -22.293893176422632 }, "geometry": { "type": "MultiPolygon", "coordinates": [ [ [ [ 23.8812504, -20.9929409 ], [ 23.8950005, -21.0077801 ], [ 24.2186108, -21.4208298 ], [ 24.6200008, -21.9294395 ], [ 24.8822193, -22.2588902 ], [ 25.2011108, -22.6566696 ], [ 25.4225006, -22.9305592 ], [ 25.4364395, -22.9424305 ], [ 25.4349995, -22.9597206 ], [ 25.2463894, -23.3075008 ], [ 25.2360802, -23.3169308 ], [ 24.8549995, -23.3166695 ], [ 24.3438892, -23.3152809 ], [ 23.9883308, -23.3141708 ], [ 23.5522194, -23.3138905 ], [ 23.0566692, -23.3113899 ], [ 22.5680599, -23.3125 ], [ 22.1172199, -23.3133297 ], [ 21.6411095, -23.3127804 ], [ 21.4005508, -23.3111095 ], [ 20.7813892, -23.3091698 ], [ 20.5411091, -23.3105507 ], [ 19.9994199, -23.3088787 ], [ 19.999407, -22.9992018 ], [ 19.9993653, -21.9995606 ], [ 20.9991604, -21.9999409 ], [ 20.9992164, -21.4525659 ], [ 20.9992634, -20.9929072 ], [ 21.5069408, -20.9974995 ], [ 22.1558304, -21.0002804 ], [ 22.5688896, -21.0 ], [ 23.1000004, -20.9988899 ], [ 23.4097195, -20.9977798 ], [ 23.8812504, -20.9929409 ] ] ] ] } },
{ "type": "Feature", "properties": { "POLYGON_ID": "BWA_GAUL2005_ADM1_657", "ADM0_ISO3": "BWA", "ADM0_NAME": "Botswana", "ADM0_CODE": 35, "ADM1_NAME": "Kgalagadi", "ADM1_CODE": 657, "GEOSET": "GAUL", "GEOSET_YEAR": 2005.0, "GEOSET_VERSION": "GAUL_v1", "GEOSET_UNIT": "ADM1", "CENTROID_LONG": 21.754015378550868, "CENTROID_LAT": -24.856973100689164 }, "geometry": { "type": "MultiPolygon", "coordinates": [ [ [ [ 23.0566692, -23.3113899 ], [ 23.0566692, -23.4150009 ], [ 22.9552803, -23.4138908 ], [ 22.9555607, -23.5699997 ], [ 23.0547199, -23.5697193 ], [ 23.0541706, -24.0002003 ], [ 23.0533295, -24.2708302 ], [ 23.0491695, -24.8233299 ], [ 23.0550003, -24.8502808 ], [ 23.48139, -24.8486099 ], [ 24.0594406, -24.8455601 ], [ 24.0766697, -24.8477802 ], [ 24.2358704, -25.0021191 ], [ 24.2502804, -25.5136108 ], [ 24.3986092, -25.6519394 ], [ 24.4908295, -25.6544399 ], [ 24.5002804, -25.7436104 ], [ 24.478713, -25.7501813 ], [ 24.47738, -25.74969 ], [ 24.46772, -25.74411 ], [ 24.43339, -25.73723 ], [ 24.4316822, -25.743022 ], [ 24.42621, -25.75084 ], [ 24.41607, -25.75079 ], [ 24.404176, -25.7534369 ], [ 24.40333, -25.7598 ], [ 24.3980351, -25.7617967 ], [ 24.3960669, -25.7616978 ], [ 24.3874, -25.75748 ], [ 24.38244, -25.76316 ], [ 24.37566, -25.76435 ], [ 24.3625433, -25.7598531 ], [ 24.35708, -25.75798 ], [ 24.3306112, -25.7390473 ], [ 24.32043, -25.72936 ], [ 24.32662, -25.72108 ], [ 24.32324, -25.7141 ], [ 24.32013, -25.71284 ], [ 24.3163568, -25.7135136 ], [ 24.31184, -25.71432 ], [ 24.3092609, -25.7138743 ], [ 24.3075, -25.71357 ], [ 24.30302, -25.71535 ], [ 24.29057, -25.72526 ], [ 24.2872783, -25.7247949 ], [ 24.2842, -25.72436 ], [ 24.27923, -25.72134 ], [ 24.27763, -25.7198 ], [ 24.28101, -25.71622 ], [ 24.28743, -25.71276 ], [ 24.29041, -25.70621 ], [ 24.27292, -25.70621 ], [ 24.26885, -25.70591 ], [ 24.2613531, -25.6968022 ], [ 24.25979, -25.69134 ], [ 24.2527023, -25.6861398 ], [ 24.25059, -25.6793 ], [ 24.242218, -25.6753433 ], [ 24.22997, -25.6615183 ], [ 24.2299767, -25.6578414 ], [ 24.22842, -25.64505 ], [ 24.2198598, -25.6460698 ], [ 24.21191, -25.6388 ], [ 24.2073071, -25.6366533 ], [ 24.1906018, -25.6204351 ], [ 24.18896, -25.61972 ], [ 24.1790651, -25.6282541 ], [ 24.17558, -25.63126 ], [ 24.15854, -25.62985 ], [ 24.15714, -25.62692 ], [ 24.16174, -25.6171 ], [ 24.14292, -25.61552 ], [ 24.13816, -25.6219 ], [ 24.139831, -25.6245532 ], [ 24.1422594, -25.6284091 ], [ 24.08745, -25.64243 ], [ 24.08343, -25.64327 ], [ 24.0774, -25.63317 ], [ 24.07191, -25.6297 ], [ 24.06556, -25.62926 ], [ 24.06662, -25.64115 ], [ 24.06522, -25.64924 ], [ 24.0642262, -25.6510995 ], [ 24.01134, -25.6508 ], [ 24.0091762, -25.6501105 ], [ 24.0129084, -25.6298525 ], [ 24.0125256, -25.6273279 ], [ 23.96287, -25.62116 ], [ 23.95538, -25.6235 ], [ 23.94955, -25.6345 ], [ 23.9255807, -25.6321786 ], [ 23.90865, -25.62614 ], [ 23.9044007, -25.6137181 ], [ 23.90431, -25.60839 ], [ 23.89924, -25.60284 ], [ 23.8921433, -25.5993485 ], [ 23.88464, -25.5935 ], [ 23.87843, -25.57904 ], [ 23.8438969, -25.571007 ], [ 23.83961, -25.56576 ], [ 23.84205, -25.55786 ], [ 23.84101, -25.55147 ], [ 23.83495, -25.54618 ], [ 23.82091, -25.54921 ], [ 23.82159, -25.51866 ], [ 23.81966, -25.51506 ], [ 23.7942521, -25.5125017 ], [ 23.78612, -25.5119 ], [ 23.77571, -25.50516 ], [ 23.7662859, -25.5036565 ], [ 23.76261, -25.50057 ], [ 23.7616511, -25.4977715 ], [ 23.76028, -25.49377 ], [ 23.75443, -25.48709 ], [ 23.7543639, -25.4826862 ], [ 23.75433, -25.48043 ], [ 23.75416, -25.4692 ], [ 23.7371342, -25.4593105 ], [ 23.7318621, -25.4536803 ], [ 23.72404, -25.44525 ], [ 23.7030843, -25.4541892 ], [ 23.6991, -25.44728 ], [ 23.6987029, -25.4470981 ], [ 23.69445, -25.44515 ], [ 23.6776901, -25.444932 ], [ 23.66934, -25.4373 ], [ 23.672613, -25.4308941 ], [ 23.67352, -25.4227 ], [ 23.67134, -25.4191 ], [ 23.6625584, -25.4145913 ], [ 23.65841, -25.41795 ], [ 23.65636, -25.42927 ], [ 23.6493594, -25.4311135 ], [ 23.63461, -25.42505 ], [ 23.63088, -25.41248 ], [ 23.62535, -25.40739 ], [ 23.61276, -25.40254 ], [ 23.62098, -25.39377 ], [ 23.61998, -25.38807 ], [ 23.61706, -25.38473 ], [ 23.6132026, -25.3816719 ], [ 23.60832, -25.38113 ], [ 23.6062907, -25.3825104 ], [ 23.60092, -25.39148 ], [ 23.5992819, -25.3922109 ], [ 23.5882685, -25.3909952 ], [ 23.58478, -25.3801 ], [ 23.57101, -25.37116 ], [ 23.5664318, -25.3697783 ], [ 23.56194, -25.35954 ], [ 23.5613176, -25.3568086 ], [ 23.5551, -25.35312 ], [ 23.49836, -25.3493 ], [ 23.49578, -25.34801 ], [ 23.49461, -25.34415 ], [ 23.50178, -25.32807 ], [ 23.49205, -25.312 ], [ 23.47862, -25.29902 ], [ 23.4752767, -25.2977112 ], [ 23.4585816, -25.2940013 ], [ 23.45763, -25.29215 ], [ 23.45927, -25.28888 ], [ 23.46565, -25.28454 ], [ 23.46847, -25.2794 ], [ 23.46499, -25.27447 ], [ 23.4217, -25.30872 ], [ 23.3656241, -25.293511 ], [ 23.35777, -25.28213 ], [ 23.30049, -25.28904 ], [ 23.28391, -25.2719 ], [ 23.19888, -25.27253 ], [ 23.13522, -25.31099 ], [ 23.0883508, -25.3125686 ], [ 23.08659, -25.32028 ], [ 23.06923, -25.32861 ], [ 23.06411, -25.3267 ], [ 23.0546402, -25.3166206 ], [ 23.05456, -25.3146 ], [ 23.0617122, -25.304711 ], [ 23.00994, -25.29576 ], [ 23.0087635, -25.3006376 ], [ 23.00687, -25.30847 ], [ 23.01117, -25.32234 ], [ 22.97868, -25.33845 ], [ 22.9776231, -25.3427649 ], [ 22.97717, -25.36625 ], [ 22.9733781, -25.3747907 ], [ 22.97087, -25.38044 ], [ 22.9519252, -25.3925841 ], [ 22.95054, -25.39337 ], [ 22.92805, -25.40487 ], [ 22.9239905, -25.4084217 ], [ 22.91286, -25.41816 ], [ 22.9104419, -25.4258054 ], [ 22.90582, -25.44039 ], [ 22.89015, -25.46861 ], [ 22.90265, -25.48569 ], [ 22.89662, -25.48614 ], [ 22.86471, -25.47853 ], [ 22.85552, -25.48292 ], [ 22.85663, -25.52855 ], [ 22.8514327, -25.5341025 ], [ 22.84273, -25.5434 ], [ 22.81886, -25.58401 ], [ 22.84944, -25.60424 ], [ 22.85408, -25.61375 ], [ 22.85168, -25.61749 ], [ 22.83305, -25.62031 ], [ 22.8303067, -25.6215655 ], [ 22.80907, -25.64394 ], [ 22.8109198, -25.6532992 ], [ 22.82933, -25.65851 ], [ 22.83131, -25.66442 ], [ 22.7987089, -25.7270819 ], [ 22.7873, -25.72842 ], [ 22.7834178, -25.7288817 ], [ 22.77749, -25.73341 ], [ 22.7622698, -25.7847902 ], [ 22.75987, -25.78783 ], [ 22.7478, -25.79069 ], [ 22.74772, -25.80331 ], [ 22.77114, -25.81321 ], [ 22.78022, -25.81428 ], [ 22.7652, -25.84665 ], [ 22.7590132, -25.8483549 ], [ 22.75591, -25.84921 ], [ 22.7508402, -25.852329 ], [ 22.7341175, -25.8842012 ], [ 22.72593, -25.88492 ], [ 22.7214495, -25.8873411 ], [ 22.74884, -25.91618 ], [ 22.7490531, -25.9187966 ], [ 22.74927, -25.92146 ], [ 22.7277, -25.95096 ], [ 22.72619, -26.00361 ], [ 22.7247, -26.01875 ], [ 22.667412, -26.0288608 ], [ 22.6672, -26.03157 ], [ 22.6713698, -26.0420195 ], [ 22.67215, -26.05003 ], [ 22.67046, -26.07509 ], [ 22.66817, -26.07916 ], [ 22.6337466, -26.1051444 ], [ 22.63218, -26.10849 ], [ 22.63094, -26.12188 ], [ 22.630444, -26.1245456 ], [ 22.60208, -26.15152 ], [ 22.5978896, -26.1514309 ], [ 22.58142, -26.14725 ], [ 22.57772, -26.16847 ], [ 22.57688, -26.19695 ], [ 22.5379599, -26.22827 ], [ 22.53456, -26.2256 ], [ 22.51784, -26.2203 ], [ 22.51241, -26.21746 ], [ 22.51052, -26.21407 ], [ 22.47595, -26.20762 ], [ 22.42369, -26.22892 ], [ 22.41399, -26.23605 ], [ 22.4098114, -26.2405028 ], [ 22.40119, -26.24969 ], [ 22.3990821, -26.2529738 ], [ 22.3973, -26.25575 ], [ 22.40328, -26.26777 ], [ 22.40073, -26.27563 ], [ 22.3635641, -26.2922865 ], [ 22.36257, -26.29312 ], [ 22.3664415, -26.3182413 ], [ 22.36578, -26.32241 ], [ 22.36406, -26.32452 ], [ 22.35453, -26.32935 ], [ 22.31338, -26.34161 ], [ 22.30481, -26.34458 ], [ 22.2396793, -26.3647423 ], [ 22.23691, -26.37422 ], [ 22.1970778, -26.4012719 ], [ 22.19436, -26.40897 ], [ 22.19422, -26.43009 ], [ 22.18259, -26.43929 ], [ 22.1807831, -26.4484326 ], [ 22.1807908, -26.4644369 ], [ 22.17814, -26.47293 ], [ 22.16379, -26.479 ], [ 22.1608, -26.48159 ], [ 22.15991, -26.48597 ], [ 22.16258, -26.49854 ], [ 22.1608, -26.50776 ], [ 22.1548271, -26.5148208 ], [ 22.1378358, -26.5297047 ], [ 22.13029, -26.53762 ], [ 22.12798, -26.54329 ], [ 22.12576, -26.54874 ], [ 22.103507, -26.5579832 ], [ 22.09235, -26.57636 ], [ 22.08, -26.58192 ], [ 22.0681917, -26.6018286 ], [ 22.04491, -26.63512 ], [ 22.02451, -26.64216 ], [ 22.0076481, -26.6444088 ], [ 22.00389, -26.64491 ], [ 22.0020289, -26.6462036 ], [ 21.99638, -26.65013 ], [ 21.94055, -26.67339 ], [ 21.83458, -26.66647 ], [ 21.81258, -26.66555 ], [ 21.80371, -26.66825 ], [ 21.78187, -26.68406 ], [ 21.77167, -26.70426 ], [ 21.77337, -26.71065 ], [ 21.78463, -26.75035 ], [ 21.7883023, -26.7742427 ], [ 21.78864, -26.77644 ], [ 21.78421, -26.78616 ], [ 21.7829476, -26.7955889 ], [ 21.7796, -26.80126 ], [ 21.7778794, -26.8041998 ], [ 21.77031, -26.80917 ], [ 21.7599, -26.8126 ], [ 21.7559, -26.81612 ], [ 21.7500523, -26.8219107 ], [ 21.6997199, -26.86086 ], [ 21.68716, -26.86019 ], [ 21.63611, -26.86602 ], [ 21.6301078, -26.8659809 ], [ 21.6231162, -26.8638092 ], [ 21.60587, -26.85398 ], [ 21.58677, -26.84723 ], [ 21.55299, -26.84764 ], [ 21.52708, -26.8618489 ], [ 21.52338, -26.8615 ], [ 21.5125549, -26.8569018 ], [ 21.50683, -26.85447 ], [ 21.50146, -26.85457 ], [ 21.42453, -26.8259 ], [ 21.3860544, -26.827898 ], [ 21.36475, -26.82971 ], [ 21.35577, -26.82895 ], [ 21.35163, -26.82696 ], [ 21.3485253, -26.8272265 ], [ 21.29461, -26.85226 ], [ 21.27059, -26.84188 ], [ 21.19944, -26.85384 ], [ 21.17109, -26.86898 ], [ 21.14277, -26.87403 ], [ 21.0946664, -26.8579735 ], [ 21.02123, -26.84927 ], [ 21.01181, -26.84443 ], [ 21.00081, -26.83879 ], [ 20.9998178, -26.8378624 ], [ 20.9815403, -26.8150458 ], [ 20.97414, -26.8082 ], [ 20.96876, -26.80759 ], [ 20.9571462, -26.8094394 ], [ 20.90102, -26.79594 ], [ 20.8942, -26.79739 ], [ 20.85707, -26.8133 ], [ 20.842426, -26.8173407 ], [ 20.82728, -26.82152 ], [ 20.817339, -26.8383998 ], [ 20.7994, -26.8368 ], [ 20.79182, -26.84264 ], [ 20.77816, -26.85328 ], [ 20.7718082, -26.8597403 ], [ 20.7644504, -26.8642346 ], [ 20.75667, -26.86743 ], [ 20.7153399, -26.8755302 ], [ 20.6933273, -26.9072428 ], [ 20.68451, -26.88418 ], [ 20.68575, -26.8506 ], [ 20.68058, -26.84659 ], [ 20.65046, -26.83526 ], [ 20.64832, -26.82909 ], [ 20.6525967, -26.8149162 ], [ 20.64227, -26.80255 ], [ 20.62933, -26.79238 ], [ 20.63057, -26.78981 ], [ 20.63496, -26.77671 ], [ 20.6321706, -26.7608987 ], [ 20.63104, -26.75449 ], [ 20.63383, -26.73679 ], [ 20.6253249, -26.7234087 ], [ 20.61515, -26.70168 ], [ 20.61724, -26.68834 ], [ 20.6325811, -26.6716945 ], [ 20.63354, -26.66864 ], [ 20.63257, -26.63905 ], [ 20.6338, -26.61931 ], [ 20.6306, -26.59433 ], [ 20.6051443, -26.5305694 ], [ 20.60833, -26.52393 ], [ 20.6123289, -26.5002897 ], [ 20.61319, -26.47431 ], [ 20.6194, -26.44693 ], [ 20.66275, -26.41497 ], [ 20.6681023, -26.4077885 ], [ 20.670313, -26.4053104 ], [ 20.67628, -26.4008 ], [ 20.68747, -26.39929 ], [ 20.6887783, -26.3985401 ], [ 20.69679, -26.37668 ], [ 20.70295, -26.36353 ], [ 20.71908, -26.33694 ], [ 20.7329, -26.32506 ], [ 20.75653, -26.29125 ], [ 20.7603861, -26.287483 ], [ 20.7866055, -26.2749604 ], [ 20.78928, -26.27086 ], [ 20.79218, -26.26164 ], [ 20.7955213, -26.2581165 ], [ 20.79768, -26.25584 ], [ 20.7981, -26.25078 ], [ 20.8085584, -26.2368722 ], [ 20.8106012, -26.2288281 ], [ 20.81785, -26.20027 ], [ 20.8182608, -26.1880117 ], [ 20.81786, -26.18582 ], [ 20.8204916, -26.1842005 ], [ 20.8222797, -26.1831002 ], [ 20.81978, -26.17997 ], [ 20.8199896, -26.179736 ], [ 20.82553, -26.17355 ], [ 20.83185, -26.16973 ], [ 20.84491, -26.16182 ], [ 20.8592173, -26.1423793 ], [ 20.86248, -26.13358 ], [ 20.86058, -26.12672 ], [ 20.8564187, -26.1215101 ], [ 20.84423, -26.12236 ], [ 20.8385179, -26.1212021 ], [ 20.825691, -26.1113194 ], [ 20.8249, -26.10679 ], [ 20.8397392, -26.0882538 ], [ 20.84102, -26.08387 ], [ 20.8396666, -26.079066 ], [ 20.82929, -26.06705 ], [ 20.83622, -26.04172 ], [ 20.83502, -26.03095 ], [ 20.8171, -26.00803 ], [ 20.81678, -26.0039 ], [ 20.82746, -25.9899899 ], [ 20.8282897, -25.9791934 ], [ 20.83642, -25.96486 ], [ 20.80868, -25.93059 ], [ 20.80202, -25.9121 ], [ 20.8015819, -25.9081207 ], [ 20.80081, -25.90111 ], [ 20.80918, -25.88586 ], [ 20.80654, -25.86502 ], [ 20.7993749, -25.8609828 ], [ 20.78638, -25.84189 ], [ 20.79098, -25.81407 ], [ 20.78957, -25.8056 ], [ 20.7882157, -25.804755 ], [ 20.75693, -25.82461 ], [ 20.75061, -25.82607 ], [ 20.74948, -25.80315 ], [ 20.7509251, -25.7970084 ], [ 20.74141, -25.77504 ], [ 20.7342, -25.76825 ], [ 20.73133, -25.76278 ], [ 20.7301333, -25.7558703 ], [ 20.72713, -25.73853 ], [ 20.72212, -25.72643 ], [ 20.6953733, -25.7007807 ], [ 20.69281, -25.69882 ], [ 20.67572, -25.67518 ], [ 20.69014, -25.64243 ], [ 20.68802, -25.63649 ], [ 20.6873379, -25.6356264 ], [ 20.68569, -25.63354 ], [ 20.683359, -25.6323679 ], [ 20.68034, -25.63085 ], [ 20.67149, -25.63142 ], [ 20.666694, -25.6344075 ], [ 20.66547, -25.63517 ], [ 20.67287, -25.60687 ], [ 20.6797814, -25.6024857 ], [ 20.69406, -25.58687 ], [ 20.69247, -25.58208 ], [ 20.66966, -25.54704 ], [ 20.6440345, -25.5324549 ], [ 20.63496, -25.52729 ], [ 20.63669, -25.50846 ], [ 20.63935, -25.50063 ], [ 20.64325, -25.47489 ], [ 20.64622, -25.47073 ], [ 20.6526138, -25.4711355 ], [ 20.6640236, -25.4698793 ], [ 20.67094, -25.4679 ], [ 20.66451, -25.44436 ], [ 20.6601492, -25.446829 ], [ 20.65499, -25.44975 ], [ 20.64776, -25.45626 ], [ 20.6245823, -25.4395149 ], [ 20.63049, -25.434 ], [ 20.61701, -25.42774 ], [ 20.61043, -25.42736 ], [ 20.542409, -25.3364778 ], [ 20.54606, -25.32608 ], [ 20.53789, -25.31998 ], [ 20.53036, -25.32236 ], [ 20.52311, -25.30522 ], [ 20.523674, -25.3040016 ], [ 20.5394888, -25.2875228 ], [ 20.53255, -25.28197 ], [ 20.5228961, -25.2772679 ], [ 20.5172855, -25.2742125 ], [ 20.49029, -25.25493 ], [ 20.48967, -25.24669 ], [ 20.49063, -25.22489 ], [ 20.48049, -25.22133 ], [ 20.46686, -25.22057 ], [ 20.45791, -25.2115 ], [ 20.45495, -25.20572 ], [ 20.44937, -25.19485 ], [ 20.4568, -25.18583 ], [ 20.4684467, -25.1710241 ], [ 20.46593, -25.1534 ], [ 20.4621836, -25.1498821 ], [ 20.43357, -25.1466 ], [ 20.4311117, -25.1369182 ], [ 20.42853, -25.12675 ], [ 20.42971, -25.12008 ], [ 20.42732, -25.1114 ], [ 20.3883703, -25.0523472 ], [ 20.38606, -25.03847 ], [ 20.38439, -25.03616 ], [ 20.37914, -25.02891 ], [ 20.3557888, -25.0221508 ], [ 20.35057, -25.01889 ], [ 20.3424765, -25.0101524 ], [ 20.33373, -25.00071 ], [ 20.32025, -24.98893 ], [ 20.298, -24.98044 ], [ 20.29088, -24.97409 ], [ 20.28439, -24.95802 ], [ 20.28258, -24.95353 ], [ 20.2781353, -24.9478504 ], [ 20.2576195, -24.922526 ], [ 20.2452, -24.91905 ], [ 20.2286527, -24.9177912 ], [ 20.22329, -24.9165 ], [ 20.2074989, -24.89876 ], [ 20.2043976, -24.8986794 ], [ 20.19597, -24.90185 ], [ 20.1870293, -24.91155 ], [ 20.185552, -24.9114709 ], [ 20.1835, -24.91136 ], [ 20.16931, -24.90094 ], [ 20.12789, -24.88319 ], [ 20.1207851, -24.8776396 ], [ 20.10001, -24.86141 ], [ 20.0946861, -24.8527807 ], [ 20.09039, -24.8430231 ], [ 20.08885, -24.83688 ], [ 20.08738, -24.83103 ], [ 20.0868679, -24.8305223 ], [ 20.068, -24.82798 ], [ 20.06135, -24.8168 ], [ 20.0535152, -24.8093715 ], [ 19.99948, -24.7519534 ], [ 19.999443, -23.8629616 ], [ 19.9994199, -23.3088787 ], [ 20.5411091, -23.3105507 ], [ 20.7813892, -23.3091698 ], [ 21.4005508, -23.3111095 ], [ 21.6411095, -23.3127804 ], [ 22.1172199, -23.3133297 ], [ 22.5680599, -23.3125 ], [ 23.0566692, -23.3113899 ] ] ] ] } },
{ "type": "Feature", "properties": { "POLYGON_ID": "BWA_GAUL2005_ADM1_658", "ADM0_ISO3": "BWA", "ADM0_NAME": "Botswana", "ADM0_CODE": 35, "ADM1_NAME": "Kgatleng", "ADM1_CODE": 658, "GEOSET": "GAUL", "GEOSET_YEAR": 2005.0, "GEOSET_VERSION": "GAUL_v1", "GEOSET_UNIT": "ADM1", "CENTROID_LONG": 26.353424205532928, "CENTROID_LAT": -24.152158360467752 }, "geometry": { "type": "MultiPolygon", "coordinates": [ [ [ [ 26.9665565, -23.749855 ], [ 26.9647195, -23.7522588 ], [ 26.96389, -23.75334 ], [ 26.9643315, -23.7643787 ], [ 26.96498, -23.78059 ], [ 26.95554, -23.7936 ], [ 26.95271, -23.80098 ], [ 26.95074, -23.81385 ], [ 26.93814, -23.85349 ], [ 26.93823, -23.85761 ], [ 26.9473601, -23.8604264 ], [ 26.95348, -23.86009 ], [ 26.9543344, -23.8742343 ], [ 26.9545591, -23.8779718 ], [ 26.88909, -24.0878 ], [ 26.8805745, -24.0938187 ], [ 26.8704, -24.10101 ], [ 26.86966, -24.18248 ], [ 26.8773763, -24.1942921 ], [ 26.8807, -24.19938 ], [ 26.8759738, -24.2073567 ], [ 26.86492, -24.21809 ], [ 26.87091, -24.24811 ], [ 26.84641, -24.27155 ], [ 26.83088, -24.27168 ], [ 26.8273205, -24.27471 ], [ 26.8037414, -24.2944491 ], [ 26.80085, -24.29538 ], [ 26.78616, -24.3054 ], [ 26.77111, -24.30623 ], [ 26.7617, -24.30979 ], [ 26.7594663, -24.3115081 ], [ 26.7591346, -24.3113381 ], [ 26.74521, -24.3042 ], [ 26.73974, -24.30334 ], [ 26.73387, -24.3066 ], [ 26.72502, -24.31596 ], [ 26.72043, -24.31857 ], [ 26.7122984, -24.3174126 ], [ 26.7115603, -24.3183204 ], [ 26.70825, -24.32301 ], [ 26.70102, -24.33608 ], [ 26.69479, -24.3352 ], [ 26.6841, -24.34014 ], [ 26.67638, -24.35274 ], [ 26.6687483, -24.3903205 ], [ 26.6398387, -24.3933204 ], [ 26.6273283, -24.3972855 ], [ 26.61568, -24.40334 ], [ 26.60401, -24.40733 ], [ 26.59599, -24.40731 ], [ 26.59373, -24.41411 ], [ 26.58449, -24.42689 ], [ 26.57324, -24.43295 ], [ 26.5674673, -24.4465203 ], [ 26.5651715, -24.446807 ], [ 26.55866, -24.44762 ], [ 26.5574926, -24.4543922 ], [ 26.55467, -24.46033 ], [ 26.54793, -24.45966 ], [ 26.54588, -24.46097 ], [ 26.5447424, -24.4660819 ], [ 26.52038, -24.4856 ], [ 26.47535, -24.58778 ], [ 26.45669, -24.6048 ], [ 26.44642, -24.60931 ], [ 26.4435545, -24.6125922 ], [ 26.44195, -24.61443 ], [ 26.4322522, -24.6150982 ], [ 26.42881, -24.61676 ], [ 26.42497, -24.63153 ], [ 26.4192438, -24.6365127 ], [ 26.41747, -24.63725 ], [ 26.4155766, -24.6372409 ], [ 26.39911, -24.63799 ], [ 26.3928589, -24.638944 ], [ 26.39033, -24.63933 ], [ 26.36902, -24.64256 ], [ 26.34841, -24.64841 ], [ 26.34189, -24.64838 ], [ 26.1822103, -24.6837187 ], [ 26.1413898, -24.6227798 ], [ 25.9496803, -24.5065708 ], [ 25.9025002, -24.4899998 ], [ 25.8730602, -24.4547195 ], [ 25.8824997, -24.3758297 ], [ 25.9486103, -24.2950001 ], [ 25.9947205, -23.8297195 ], [ 26.0194397, -23.58111 ], [ 26.0172291, -23.5586491 ], [ 26.0358295, -23.5750008 ], [ 26.5086098, -23.83778 ], [ 26.71278, -23.9508305 ], [ 26.7930508, -23.8658295 ], [ 26.8344498, -23.8602791 ], [ 26.8702793, -23.8105507 ], [ 26.9302807, -23.7574997 ], [ 26.9665565, -23.749855 ] ] ] ] } },
{ "type": "Feature", "properties": { "POLYGON_ID": "BWA_GAUL2005_ADM1_659", "ADM0_ISO3": "BWA", "ADM0_NAME": "Botswana", "ADM0_CODE": 35, "ADM1_NAME": "Kweneng", "ADM1_CODE": 659, "GEOSET": "GAUL", "GEOSET_YEAR": 2005.0, "GEOSET_VERSION": "GAUL_v1", "GEOSET_UNIT": "ADM1", "CENTROID_LONG": 24.686034557269821, "CENTROID_LAT": -23.862490702728721 }, "geometry": { "type": "MultiPolygon", "coordinates": [ [ [ [ 26.0172291, -23.5586491 ], [ 26.0194397, -23.58111 ], [ 25.9947205, -23.8297195 ], [ 25.9486103, -24.2950001 ], [ 25.8824997, -24.3758297 ], [ 25.8730602, -24.4547195 ], [ 25.9025002, -24.4899998 ], [ 25.9496803, -24.5065708 ], [ 25.6857395, -24.7706108 ], [ 25.5888901, -24.7672195 ], [ 25.4361095, -24.6858292 ], [ 24.9113903, -24.5380592 ], [ 24.4861107, -24.4172192 ], [ 24.1525002, -24.3222198 ], [ 23.5927792, -24.1586094 ], [ 23.0541706, -24.0002003 ], [ 23.0547199, -23.5697193 ], [ 22.9555607, -23.5699997 ], [ 22.9552803, -23.4138908 ], [ 23.0566692, -23.4150009 ], [ 23.0566692, -23.3113899 ], [ 23.5522194, -23.3138905 ], [ 23.9883308, -23.3141708 ], [ 24.3438892, -23.3152809 ], [ 24.8549995, -23.3166695 ], [ 25.2360802, -23.3169308 ], [ 25.2463894, -23.3075008 ], [ 25.4349995, -22.9597206 ], [ 25.4364395, -22.9424305 ], [ 25.4444408, -22.9580593 ], [ 25.7227802, -23.2997208 ], [ 25.7358303, -23.3188896 ], [ 25.8613892, -23.3558292 ], [ 26.0172291, -23.5586491 ] ] ] ] } },
{ "type": "Feature", "properties": { "POLYGON_ID": "BWA_GAUL2005_ADM1_660", "ADM0_ISO3": "BWA", "ADM0_NAME": "Botswana", "ADM0_CODE": 35, "ADM1_NAME": "Ngamiland", "ADM1_CODE": 660, "GEOSET": "GAUL", "GEOSET_YEAR": 2005.0, "GEOSET_VERSION": "GAUL_v1", "GEOSET_UNIT": "ADM1", "CENTROID_LONG": 22.77087130823212, "CENTROID_LAT": -19.60919243439789 }, "geometry": { "type": "MultiPolygon", "coordinates": [ [ [ [ 23.88694, -18.2701066 ], [ 23.8852806, -18.6366692 ], [ 23.8841705, -18.99333 ], [ 23.8980598, -18.9961109 ], [ 24.4786091, -19.0002804 ], [ 24.9869404, -19.0016708 ], [ 24.9905605, -19.0169392 ], [ 24.9902802, -19.4563904 ], [ 24.9902802, -19.9977798 ], [ 25.1700001, -20.0694408 ], [ 25.1608295, -20.3425007 ], [ 24.5155602, -20.3916702 ], [ 24.4458294, -20.3863907 ], [ 24.3958302, -20.4016705 ], [ 24.3680592, -20.3866692 ], [ 24.3186092, -20.3227806 ], [ 24.2819405, -20.3105507 ], [ 24.2591705, -20.2341709 ], [ 24.2136097, -20.2494392 ], [ 24.1975002, -20.2163906 ], [ 24.1461105, -20.1958294 ], [ 24.0883293, -20.2144508 ], [ 23.9952793, -20.2700005 ], [ 23.9988899, -20.2969398 ], [ 23.9430504, -20.3174992 ], [ 23.875, -20.3155594 ], [ 23.8783302, -20.6602802 ], [ 23.8812504, -20.9929409 ], [ 23.4097195, -20.9977798 ], [ 23.1000004, -20.9988899 ], [ 22.5688896, -21.0 ], [ 22.1558304, -21.0002804 ], [ 21.5069408, -20.9974995 ], [ 20.9992634, -20.9929072 ], [ 20.9993307, -20.3350787 ], [ 20.9994485, -19.1831715 ], [ 20.9995369, -18.3181694 ], [ 21.4625008, -18.3044447 ], [ 22.2622217, -18.1538883 ], [ 22.5040683, -18.1105359 ], [ 23.1002453, -18.0 ], [ 23.2934126, -18.0 ], [ 23.3221451, -18.0396459 ], [ 23.3244654, -18.0826615 ], [ 23.403268, -18.1747614 ], [ 23.4021078, -18.204212 ], [ 23.4993698, -18.2416907 ], [ 23.5488889, -18.3172222 ], [ 23.5488889, -18.3691664 ], [ 23.5666667, -18.4069433 ], [ 23.5708336, -18.4672222 ], [ 23.6333759, -18.4898789 ], [ 23.6967541, -18.4318458 ], [ 23.7471512, -18.4196283 ], [ 23.7677682, -18.3738128 ], [ 23.7891488, -18.367704 ], [ 23.8128202, -18.3234156 ], [ 23.88694, -18.2701066 ] ] ] ] } },
{ "type": "Feature", "properties": { "POLYGON_ID": "BWA_GAUL2005_ADM1_661", "ADM0_ISO3": "BWA", "ADM0_NAME": "Botswana", "ADM0_CODE": 35, "ADM1_NAME": "North East", "ADM1_CODE": 661, "GEOSET": "GAUL", "GEOSET_YEAR": 2005.0, "GEOSET_VERSION": "GAUL_v1", "GEOSET_UNIT": "ADM1", "CENTROID_LONG": 27.564973347210046, "CENTROID_LAT": -21.015877769101373 }, "geometry": { "type": "MultiPolygon", "coordinates": [ [ [ [ 28.0099548, -21.5616425 ], [ 27.9713898, -21.5652809 ], [ 27.9283295, -21.5380592 ], [ 27.8113899, -21.5411091 ], [ 27.7472191, -21.5586109 ], [ 27.6152802, -21.5255508 ], [ 27.5786095, -21.4836102 ], [ 27.5027809, -21.4724998 ], [ 27.4174995, -21.3649998 ], [ 27.3838902, -21.2438908 ], [ 27.3758297, -21.1847191 ], [ 27.3522205, -21.1652794 ], [ 27.3463898, -21.1061096 ], [ 27.3549995, -21.0494404 ], [ 27.3419495, -20.9947205 ], [ 27.2900009, -20.8988895 ], [ 27.2172203, -20.8502808 ], [ 27.2069492, -20.8180599 ], [ 27.2202797, -20.7697201 ], [ 27.2169495, -20.7263908 ], [ 27.2622204, -20.6861095 ], [ 27.2666702, -20.6577797 ], [ 27.3047199, -20.6147194 ], [ 27.2852802, -20.5519409 ], [ 27.28497, -20.49781 ], [ 27.35821, -20.47352 ], [ 27.440019, -20.4855301 ], [ 27.47578, -20.47338 ], [ 27.57178, -20.49531 ], [ 27.62389, -20.48363 ], [ 27.64564, -20.50145 ], [ 27.68385, -20.49035 ], [ 27.72207, -20.51928 ], [ 27.7287, -20.55397 ], [ 27.70414, -20.61078 ], [ 27.70767, -20.67205 ], [ 27.7317, -20.71332 ], [ 27.73433, -20.75806 ], [ 27.71338, -20.84919 ], [ 27.6895, -20.88474 ], [ 27.69253, -20.94763 ], [ 27.71238, -20.96762 ], [ 27.68911, -21.01455 ], [ 27.68603, -21.06585 ], [ 27.70545, -21.107 ], [ 27.753, -21.15531 ], [ 27.79113, -21.17776 ], [ 27.9007897, -21.3027998 ], [ 27.91664, -21.36283 ], [ 27.96034, -21.41912 ], [ 27.97491, -21.45631 ], [ 27.96659, -21.51376 ], [ 28.0099548, -21.5616425 ] ] ] ] } },
{ "type": "Feature", "properties": { "POLYGON_ID": "BWA_GAUL2005_ADM1_662", "ADM0_ISO3": "BWA", "ADM0_NAME": "Botswana", "ADM0_CODE": 35, "ADM1_NAME": "South-East", "ADM1_CODE": 662, "GEOSET": "GAUL", "GEOSET_YEAR": 2005.0, "GEOSET_VERSION": "GAUL_v1", "GEOSET_UNIT": "ADM1", "CENTROID_LONG": 25.791099164904974, "CENTROID_LAT": -24.929553255448162 }, "geometry": { "type": "MultiPolygon", "coordinates": [ [ [ [ 26.1822103, -24.6837187 ], [ 26.11247, -24.69791 ], [ 26.05584, -24.71026 ], [ 25.92927, -24.72401 ], [ 25.89808, -24.75413 ], [ 25.86867, -24.75521 ], [ 25.86237, -24.76431 ], [ 25.86922, -24.81717 ], [ 25.89116, -24.85552 ], [ 25.8846, -24.91492 ], [ 25.8814885, -24.9192362 ], [ 25.86323, -24.93421 ], [ 25.84123, -25.0 ], [ 25.81938, -25.05294 ], [ 25.8126306, -25.0692794 ], [ 25.80693, -25.08308 ], [ 25.77119, -25.17103 ], [ 25.7538293, -25.2166895 ], [ 25.73301, -25.25691 ], [ 25.70847, -25.28144 ], [ 25.69577, -25.36413 ], [ 25.6865491, -25.3800457 ], [ 25.6766696, -25.4174287 ], [ 25.67518, -25.42339 ], [ 25.65471, -25.45625 ], [ 25.6525745, -25.4627514 ], [ 25.5891705, -25.4366703 ], [ 25.5349998, -25.4269409 ], [ 25.6670303, -25.0058994 ], [ 25.5958309, -25.0100002 ], [ 25.6399994, -24.8886108 ], [ 25.6261101, -24.8702793 ], [ 25.6866703, -24.8452797 ], [ 25.6857395, -24.7706108 ], [ 25.9496803, -24.5065708 ], [ 26.1413898, -24.6227798 ], [ 26.1822103, -24.6837187 ] ] ] ] } },
{ "type": "Feature", "properties": { "POLYGON_ID": "BWA_GAUL2005_ADM1_663", "ADM0_ISO3": "BWA", "ADM0_NAME": "Botswana", "ADM0_CODE": 35, "ADM1_NAME": "Southern", "ADM1_CODE": 663, "GEOSET": "GAUL", "GEOSET_YEAR": 2005.0, "GEOSET_VERSION": "GAUL_v1", "GEOSET_UNIT": "ADM1", "CENTROID_LONG": 24.466160719023456, "CENTROID_LAT": -24.925241029758684 }, "geometry": { "type": "MultiPolygon", "coordinates": [ [ [ [ 25.6857395, -24.7706108 ], [ 25.6866703, -24.8452797 ], [ 25.6261101, -24.8702793 ], [ 25.6399994, -24.8886108 ], [ 25.5958309, -25.0100002 ], [ 25.6670303, -25.0058994 ], [ 25.5349998, -25.4269409 ], [ 25.5891705, -25.4366703 ], [ 25.6525745, -25.4627514 ], [ 25.64988, -25.47096 ], [ 25.65135, -25.50502 ], [ 25.64278, -25.52194 ], [ 25.6058961, -25.5947066 ], [ 25.58393, -25.63317 ], [ 25.58159, -25.6344542 ], [ 25.58147, -25.63452 ], [ 25.5769964, -25.6372555 ], [ 25.52163, -25.66966 ], [ 25.46558, -25.70227 ], [ 25.4485638, -25.7184578 ], [ 25.43605, -25.72734 ], [ 25.4047584, -25.7395335 ], [ 25.39555, -25.7395 ], [ 25.3727009, -25.7521839 ], [ 25.34475, -25.7677 ], [ 25.3314, -25.77053 ], [ 25.32603, -25.76842 ], [ 25.2256, -25.76316 ], [ 25.2137516, -25.7627879 ], [ 25.20331, -25.76246 ], [ 25.18545, -25.76448 ], [ 25.1779574, -25.7636868 ], [ 25.17269, -25.76262 ], [ 25.15718, -25.75686 ], [ 25.13272, -25.75905 ], [ 25.11062, -25.7448 ], [ 25.08849, -25.73629 ], [ 25.0855, -25.7302 ], [ 25.0729988, -25.7317294 ], [ 25.04191, -25.72372 ], [ 25.039045, -25.7243726 ], [ 25.03133, -25.72613 ], [ 25.0173594, -25.7264112 ], [ 25.01444, -25.72647 ], [ 24.97025, -25.77002 ], [ 24.96054, -25.76425 ], [ 24.95429, -25.76591 ], [ 24.9528972, -25.7694105 ], [ 24.95279, -25.76968 ], [ 24.9404291, -25.7823319 ], [ 24.9046, -25.81334 ], [ 24.8666, -25.80972 ], [ 24.85826, -25.81031 ], [ 24.8084146, -25.8247417 ], [ 24.80604, -25.82567 ], [ 24.79868, -25.82576 ], [ 24.7837228, -25.8217425 ], [ 24.74631, -25.81446 ], [ 24.74053, -25.81113 ], [ 24.7382862, -25.8098377 ], [ 24.68413, -25.82399 ], [ 24.67375, -25.81961 ], [ 24.60821, -25.80353 ], [ 24.5839729, -25.7850221 ], [ 24.483828, -25.7520667 ], [ 24.4822366, -25.7514801 ], [ 24.478713, -25.7501813 ], [ 24.5002804, -25.7436104 ], [ 24.4908295, -25.6544399 ], [ 24.3986092, -25.6519394 ], [ 24.2502804, -25.5136108 ], [ 24.2358704, -25.0021191 ], [ 24.0766697, -24.8477802 ], [ 24.0594406, -24.8455601 ], [ 23.48139, -24.8486099 ], [ 23.0550003, -24.8502808 ], [ 23.0491695, -24.8233299 ], [ 23.0533295, -24.2708302 ], [ 23.0541706, -24.0002003 ], [ 23.5927792, -24.1586094 ], [ 24.1525002, -24.3222198 ], [ 24.4861107, -24.4172192 ], [ 24.9113903, -24.5380592 ], [ 25.4361095, -24.6858292 ], [ 25.5888901, -24.7672195 ], [ 25.6857395, -24.7706108 ] ] ] ] } }
]
}
