{
"type": "FeatureCollection",
"name": "CCK_GAUL1994_ADM0",
"crs": { "type": "name", "properties": { "name": "urn:ogc:def:crs:OGC:1.3:CRS84" } },
"features": [
{ "type": "Feature", "properties": { "POLYGON_ID": "CCK_GAUL1994_ADM0_56", "ADM0_ISO3": "CCK", "ADM0_NAME": "Cocos (Keeling) Islands", "ADM0_CODE": 56, "GEOSET": "GAUL", "GEOSET_YEAR": 1994.0, "GEOSET_VERSION": "GAUL_v1", "GEOSET_UNIT": "ADM0", "CENTROID_LONG": 96.822971387545508, "CENTROID_LAT": -12.150222281293868 }, "geometry": { "type": "MultiPolygon", "coordinates": [ [ [ [ 96.8287517, -12.1569797 ], [ 96.8208353, -12.1591274 ], [ 96.8173593, -12.1449727 ], [ 96.8244565, -12.1399658 ], [ 96.8287517, -12.1569797 ] ] ] ] } }
]
}
