{
"type": "FeatureCollection",
"name": "CHE_GAUL2004_ADM0",
"crs": { "type": "name", "properties": { "name": "urn:ogc:def:crs:OGC:1.3:CRS84" } },
"features": [
{ "type": "Feature", "properties": { "POLYGON_ID": "CHE_GAUL2004_ADM0_237", "ADM0_ISO3": "CHE", "ADM0_NAME": "Switzerland", "ADM0_CODE": 237, "GEOSET": "GAUL", "GEOSET_YEAR": 2004.0, "GEOSET_VERSION": "GAUL_v1", "GEOSET_UNIT": "ADM0", "CENTROID_LONG": 8.2259801100889458, "CENTROID_LAT": 46.806651773175886 }, "geometry": { "type": "MultiPolygon", "coordinates": [ [ [ [ 9.5443297, 47.5425585 ], [ 9.55703, 47.51119 ], [ 9.60099, 47.46896 ], [ 9.6589, 47.45269 ], [ 9.65261, 47.40381 ], [ 9.66396, 47.37802 ], [ 9.62469, 47.37497 ], [ 9.59287, 47.32653 ], [ 9.53591, 47.27354 ], [ 9.4929, 47.19213 ], [ 9.49521, 47.16862 ], [ 9.52463, 47.10658 ], [ 9.48709, 47.07436 ], [ 9.55605, 47.05684 ], [ 9.6036599, 47.06155 ], [ 9.6673, 47.06096 ], [ 9.78349, 47.04035 ], [ 9.83286, 47.01574 ], [ 9.86504, 47.02613 ], [ 9.8897, 46.99917 ], [ 9.87136, 46.9679 ], [ 9.87463, 46.94073 ], [ 9.94194, 46.91374 ], [ 9.97595, 46.91452 ], [ 10.0223, 46.8978 ], [ 10.05355, 46.86791 ], [ 10.10458, 46.84731 ], [ 10.15478, 46.85275 ], [ 10.22775, 46.87251 ], [ 10.23061, 46.90249 ], [ 10.25549, 46.93215 ], [ 10.293, 46.92235 ], [ 10.34806, 46.99221 ], [ 10.38801, 47.00205 ], [ 10.44365, 46.95775 ], [ 10.49147, 46.93966 ], [ 10.46553, 46.88682 ], [ 10.47005, 46.86188 ], [ 10.45047, 46.80947 ], [ 10.42411, 46.78806 ], [ 10.44215, 46.75455 ], [ 10.3992, 46.73304 ], [ 10.41736, 46.71599 ], [ 10.37793, 46.68238 ], [ 10.40176, 46.63771 ], [ 10.45854, 46.6355 ], [ 10.48601, 46.61301 ], [ 10.46421, 46.54864 ], [ 10.36804, 46.55426 ], [ 10.3035099, 46.5485801 ], [ 10.28661, 46.57041 ], [ 10.24097, 46.58519 ], [ 10.25084, 46.6111 ], [ 10.18562, 46.62319 ], [ 10.10075, 46.58294 ], [ 10.05119, 46.53883 ], [ 10.04096, 46.48545 ], [ 10.04334, 46.4475 ], [ 10.08115, 46.42406 ], [ 10.13126, 46.43248 ], [ 10.15772, 46.39358 ], [ 10.12852, 46.38168 ], [ 10.10728, 46.33209 ], [ 10.17147, 46.26468 ], [ 10.13348, 46.23097 ], [ 10.08396, 46.23627 ], [ 10.03771, 46.2759 ], [ 9.99147, 46.29629 ], [ 9.9893, 46.35483 ], [ 9.9490979, 46.3825791 ], [ 9.82696, 46.36303 ], [ 9.777, 46.33869 ], [ 9.72694, 46.34726 ], [ 9.70935, 46.29765 ], [ 9.63031, 46.29212 ], [ 9.54368, 46.31114 ], [ 9.50539, 46.35753 ], [ 9.46786, 46.37578 ], [ 9.45088, 46.42518 ], [ 9.46635, 46.49516 ], [ 9.427, 46.49347 ], [ 9.41126, 46.46671 ], [ 9.36478, 46.49258 ], [ 9.35734, 46.50848 ], [ 9.2946, 46.50251 ], [ 9.2741794, 46.4587293 ], [ 9.24726, 46.43224 ], [ 9.27777, 46.40961 ], [ 9.27787, 46.36591 ], [ 9.2922897, 46.3283819 ], [ 9.25114, 46.2749 ], [ 9.24288, 46.24547 ], [ 9.20182, 46.21188 ], [ 9.18896, 46.18284 ], [ 9.15607, 46.17246 ], [ 9.08574, 46.1317 ], [ 9.07601, 46.07294 ], [ 9.01162, 46.0455 ], [ 9.02211, 46.00152 ], [ 8.9933, 45.98179 ], [ 9.01585, 45.93984 ], [ 9.04893, 45.93173 ], [ 9.08394, 45.90624 ], [ 9.0531, 45.88007 ], [ 9.02615, 45.82879 ], [ 8.94941, 45.85007 ], [ 8.92147, 45.91227 ], [ 8.89378, 45.94174 ], [ 8.8936, 45.96302 ], [ 8.83765, 45.99194 ], [ 8.80085, 46.00107 ], [ 8.79715, 46.01931 ], [ 8.83691, 46.04342 ], [ 8.85502, 46.07535 ], [ 8.8072, 46.11151 ], [ 8.78, 46.10114 ], [ 8.74591, 46.11419 ], [ 8.7074, 46.10678 ], [ 8.61561, 46.1296 ], [ 8.53968, 46.21495 ], [ 8.45157, 46.25948 ], [ 8.4342699, 46.2975311 ], [ 8.45853, 46.33629 ], [ 8.46745, 46.3715 ], [ 8.4609, 46.44779 ], [ 8.42073, 46.46428 ], [ 8.30272, 46.4277 ], [ 8.31105, 46.37983 ], [ 8.2325, 46.34477 ], [ 8.18702, 46.3043 ], [ 8.14417, 46.30942 ], [ 8.086, 46.26721 ], [ 8.13836, 46.23122 ], [ 8.1645, 46.19158 ], [ 8.1526699, 46.1528308 ], [ 8.11091, 46.12066 ], [ 8.07064, 46.11688 ], [ 8.03008, 46.09409 ], [ 8.03174, 46.05727 ], [ 7.98568, 46.00409 ], [ 7.90553, 46.00423 ], [ 7.87281, 45.97885 ], [ 7.86705, 45.9415904 ], [ 7.79423, 45.92995 ], [ 7.76464, 45.9479 ], [ 7.7127, 45.9384 ], [ 7.70218, 45.96077 ], [ 7.64943, 45.98625 ], [ 7.59859, 45.97995 ], [ 7.56353, 45.99974 ], [ 7.53017, 45.97125 ], [ 7.47326, 45.96264 ], [ 7.38198, 45.90758 ], [ 7.34723, 45.92228 ], [ 7.28521, 45.92257 ], [ 7.25435, 45.89843 ], [ 7.21161, 45.8952 ], [ 7.1849, 45.86866 ], [ 7.1564, 45.88741 ], [ 7.10306, 45.86705 ], [ 7.07785, 45.90376 ], [ 7.03618, 45.93694 ], [ 7.03921, 45.96268 ], [ 6.95274, 46.05887 ], [ 6.91853, 46.08125 ], [ 6.8733099, 46.0787292 ], [ 6.89158, 46.12977 ], [ 6.77667, 46.15083 ], [ 6.80403, 46.18985 ], [ 6.80249, 46.22324 ], [ 6.84428, 46.26873 ], [ 6.85132, 46.29372 ], [ 6.7623, 46.35623 ], [ 6.80955, 46.38018 ], [ 6.806198, 46.4313406 ], [ 6.66852, 46.45996 ], [ 6.50048, 46.46068 ], [ 6.42153, 46.42164 ], [ 6.32597, 46.40821 ], [ 6.24428, 46.36091 ], [ 6.20829, 46.31796 ], [ 6.23199, 46.30058 ], [ 6.28508, 46.23552 ], [ 6.21997, 46.21303 ], [ 6.1728, 46.17487 ], [ 6.12212, 46.15488 ], [ 6.04989, 46.16258 ], [ 6.03152, 46.14666 ], [ 5.96166, 46.15374 ], [ 5.9810394, 46.1949768 ], [ 5.97186, 46.21973 ], [ 6.01751, 46.24073 ], [ 6.10341, 46.25515 ], [ 6.09683, 46.29223 ], [ 6.15166, 46.36075 ], [ 6.13498, 46.38113 ], [ 6.067, 46.41608 ], [ 6.0735, 46.47341 ], [ 6.14138, 46.53469 ], [ 6.1093, 46.58604 ], [ 6.25174, 46.67553 ], [ 6.27197, 46.69558 ], [ 6.36921, 46.73817 ], [ 6.3870279, 46.7560579 ], [ 6.43416, 46.77004 ], [ 6.42835, 46.80394 ], [ 6.43714, 46.84252 ], [ 6.45662, 46.86114 ], [ 6.4602176, 46.894242 ], [ 6.42857, 46.92942 ], [ 6.47911, 46.97282 ], [ 6.58668, 46.99889 ], [ 6.6232, 47.00231 ], [ 6.70499, 47.09022 ], [ 6.7390192, 47.0957699 ], [ 6.7576, 47.1241 ], [ 6.7954, 47.1332 ], [ 6.85511, 47.16751 ], [ 6.87651, 47.20415 ], [ 6.93735, 47.24302 ], [ 6.94118, 47.29166 ], [ 6.99023, 47.30013 ], [ 7.01341, 47.3233 ], [ 7.05111, 47.33619 ], [ 7.0428, 47.36797 ], [ 7.00659, 47.37522 ], [ 6.95502, 47.36248 ], [ 6.87227, 47.36625 ], [ 6.92972, 47.41697 ], [ 6.9381894, 47.4387673 ], [ 6.99724, 47.46525 ], [ 6.98505, 47.50213 ], [ 7.0211, 47.50746 ], [ 7.09146, 47.49586 ], [ 7.1258, 47.50613 ], [ 7.19155, 47.48769 ], [ 7.17479, 47.44826 ], [ 7.27313, 47.43472 ], [ 7.33869, 47.4418 ], [ 7.38783, 47.4376 ], [ 7.44681, 47.47827 ], [ 7.512089, 47.5062888 ], [ 7.49982, 47.53931 ], [ 7.55087, 47.5854 ], [ 7.5809193, 47.5823822 ], [ 7.639279, 47.6030393 ], [ 7.659, 47.59559 ], [ 7.63724, 47.55902 ], [ 7.67024, 47.5399 ], [ 7.79363, 47.5609 ], [ 7.81847, 47.58623 ], [ 7.90443, 47.58659 ], [ 7.92729, 47.55151 ], [ 7.99521, 47.5605 ], [ 8.02017, 47.5538 ], [ 8.16732, 47.60018 ], [ 8.2028, 47.62312 ], [ 8.25773, 47.6217 ], [ 8.30056, 47.60825 ], [ 8.32723, 47.57981 ], [ 8.35691, 47.57246 ], [ 8.39897, 47.58112 ], [ 8.43339, 47.57316 ], [ 8.4902466, 47.5830094 ], [ 8.46754, 47.60553 ], [ 8.52349, 47.63689 ], [ 8.56918, 47.62094 ], [ 8.62299, 47.65729 ], [ 8.5981271, 47.675239 ], [ 8.55669, 47.67164 ], [ 8.5223, 47.64807 ], [ 8.44106, 47.65728 ], [ 8.41346, 47.67541 ], [ 8.4226898, 47.7080697 ], [ 8.49484, 47.77064 ], [ 8.54768, 47.78546 ], [ 8.56947, 47.80534 ], [ 8.62541, 47.79781 ], [ 8.63467, 47.77263 ], [ 8.6802, 47.78497 ], [ 8.68378, 47.75763 ], [ 8.72028, 47.73618 ], [ 8.73518, 47.69672 ], [ 8.79566, 47.6794 ], [ 8.81601, 47.7218 ], [ 8.89516, 47.65563 ], [ 8.92653, 47.65757 ], [ 9.0134, 47.68422 ], [ 9.04681, 47.68616 ], [ 9.163, 47.67163 ], [ 9.20514, 47.65561 ], [ 9.25224, 47.66205 ], [ 9.4029, 47.61102 ], [ 9.5443297, 47.5425585 ] ], [ [ 8.7201836, 47.6962887 ], [ 8.67401, 47.71295 ], [ 8.67018, 47.6882 ], [ 8.7201836, 47.6962887 ] ] ] ] } }
]
}
