{
"type": "FeatureCollection",
"name": "CHE_GAUL1998_ADM2",
"crs": { "type": "name", "properties": { "name": "urn:ogc:def:crs:OGC:1.3:CRS84" } },
"features": [
{ "type": "Feature", "properties": { "POLYGON_ID": "CHE_GAUL1998_ADM2_26285", "ADM0_ISO3": "CHE", "ADM0_NAME": "Switzerland", "ADM0_CODE": 237, "ADM1_NAME": "Aargau", "ADM1_CODE": 2807, "ADM2_NAME": "Administrative unit not available", "ADM2_CODE": 26285, "GEOSET": "GAUL", "GEOSET_YEAR": 1998.0, "GEOSET_VERSION": "GAUL_v1", "GEOSET_UNIT": "ADM2", "CENTROID_LONG": 8.1431185541870654, "CENTROID_LAT": 47.413403517643644 }, "geometry": { "type": "MultiPolygon", "coordinates": [ [ [ [ 8.4355248, 47.5732835 ], [ 8.3524427, 47.486599 ], [ 8.3786631, 47.4463692 ], [ 8.4055519, 47.3129692 ], [ 8.377121, 47.2653198 ], [ 8.3948269, 47.2226181 ], [ 8.4003239, 47.1361694 ], [ 8.346262, 47.1460114 ], [ 8.2877178, 47.2495995 ], [ 8.2321024, 47.2814484 ], [ 8.1903353, 47.2246094 ], [ 8.122263, 47.2716904 ], [ 8.0166283, 47.2576294 ], [ 7.9378862, 47.267601 ], [ 7.9139419, 47.2226715 ], [ 7.8213701, 47.2206306 ], [ 7.8116689, 47.2638893 ], [ 7.8599968, 47.3133316 ], [ 7.9795332, 47.3329086 ], [ 8.0089674, 47.4039688 ], [ 7.9319768, 47.4562683 ], [ 7.8344078, 47.5232086 ], [ 7.7945218, 47.5023308 ], [ 7.6988135, 47.5420339 ], [ 7.79363, 47.5609 ], [ 7.81847, 47.58623 ], [ 7.90443, 47.58659 ], [ 7.92729, 47.55151 ], [ 8.02017, 47.5538 ], [ 8.16732, 47.60018 ], [ 8.2028, 47.62312 ], [ 8.30056, 47.60825 ], [ 8.32723, 47.57981 ], [ 8.4355248, 47.5732835 ] ] ] ] } },
{ "type": "Feature", "properties": { "POLYGON_ID": "CHE_GAUL1998_ADM2_26286", "ADM0_ISO3": "CHE", "ADM0_NAME": "Switzerland", "ADM0_CODE": 237, "ADM1_NAME": "Appenzell Ausser-rhoden", "ADM1_CODE": 2808, "ADM2_NAME": "Administrative unit not available", "ADM2_CODE": 26286, "GEOSET": "GAUL", "GEOSET_YEAR": 1998.0, "GEOSET_VERSION": "GAUL_v1", "GEOSET_UNIT": "ADM2", "CENTROID_LONG": 9.3665758184702383, "CENTROID_LAT": 47.364383446262075 }, "geometry": { "type": "MultiPolygon", "coordinates": [ [ [ [ 9.5962601, 47.4299011 ], [ 9.5785999, 47.4061317 ], [ 9.5422049, 47.3947296 ], [ 9.5060234, 47.3895988 ], [ 9.5013657, 47.3425789 ], [ 9.3385897, 47.3773308 ], [ 9.2957726, 47.31213 ], [ 9.3355618, 47.2428818 ], [ 9.1999474, 47.2651291 ], [ 9.2179213, 47.3208199 ], [ 9.1996288, 47.3687592 ], [ 9.251421, 47.4050217 ], [ 9.3913651, 47.3973503 ], [ 9.427846, 47.4338684 ], [ 9.5566034, 47.4578018 ], [ 9.5962601, 47.4299011 ] ] ] ] } },
{ "type": "Feature", "properties": { "POLYGON_ID": "CHE_GAUL1998_ADM2_26287", "ADM0_ISO3": "CHE", "ADM0_NAME": "Switzerland", "ADM0_CODE": 237, "ADM1_NAME": "Appenzell Inner-rhoden", "ADM1_CODE": 2809, "ADM2_NAME": "Administrative unit not available", "ADM2_CODE": 26287, "GEOSET": "GAUL", "GEOSET_YEAR": 1998.0, "GEOSET_VERSION": "GAUL_v1", "GEOSET_UNIT": "ADM2", "CENTROID_LONG": 9.3903241365997658, "CENTROID_LAT": 47.309782298155881 }, "geometry": { "type": "MultiPolygon", "coordinates": [ [ [ [ 9.3355618, 47.2428818 ], [ 9.2957726, 47.31213 ], [ 9.3385897, 47.3773308 ], [ 9.5013657, 47.3425789 ], [ 9.4726152, 47.285511 ], [ 9.4062014, 47.2474098 ], [ 9.3355618, 47.2428818 ] ] ] ] } },
{ "type": "Feature", "properties": { "POLYGON_ID": "CHE_GAUL1998_ADM2_26288", "ADM0_ISO3": "CHE", "ADM0_NAME": "Switzerland", "ADM0_CODE": 237, "ADM1_NAME": "Basel-landschaft", "ADM1_CODE": 2810, "ADM2_NAME": "Administrative unit not available", "ADM2_CODE": 26288, "GEOSET": "GAUL", "GEOSET_YEAR": 1998.0, "GEOSET_VERSION": "GAUL_v1", "GEOSET_UNIT": "ADM2", "CENTROID_LONG": 7.713680283553856, "CENTROID_LAT": 47.461222437591367 }, "geometry": { "type": "MultiPolygon", "coordinates": [ [ [ [ 7.6384623, 47.5611299 ], [ 7.6988135, 47.5420339 ], [ 7.7945218, 47.5023308 ], [ 7.8344078, 47.5232086 ], [ 7.9319768, 47.4562683 ], [ 7.876637, 47.4056015 ], [ 7.750802, 47.331459 ], [ 7.6369929, 47.3649597 ], [ 7.6788702, 47.4746895 ], [ 7.60467, 47.4752502 ], [ 7.515851, 47.4590988 ], [ 7.506614, 47.499997 ], [ 7.49982, 47.53931 ], [ 7.5409314, 47.576057 ], [ 7.6384623, 47.5611299 ] ] ] ] } },
{ "type": "Feature", "properties": { "POLYGON_ID": "CHE_GAUL1998_ADM2_26289", "ADM0_ISO3": "CHE", "ADM0_NAME": "Switzerland", "ADM0_CODE": 237, "ADM1_NAME": "Basel-stadt", "ADM1_CODE": 2811, "ADM2_NAME": "Administrative unit not available", "ADM2_CODE": 26289, "GEOSET": "GAUL", "GEOSET_YEAR": 1998.0, "GEOSET_VERSION": "GAUL_v1", "GEOSET_UNIT": "ADM2", "CENTROID_LONG": 7.586771, "CENTROID_LAT": 47.5731897 }, "geometry": { "type": "MultiPolygon", "coordinates": [ [ [ [ 7.6384623, 47.5611299 ], [ 7.5409314, 47.576057 ], [ 7.5809193, 47.5823822 ], [ 7.6384623, 47.5611299 ] ] ] ] } },
{ "type": "Feature", "properties": { "POLYGON_ID": "CHE_GAUL1998_ADM2_26290", "ADM0_ISO3": "CHE", "ADM0_NAME": "Switzerland", "ADM0_CODE": 237, "ADM1_NAME": "Bern", "ADM1_CODE": 2812, "ADM2_NAME": "Administrative unit not available", "ADM2_CODE": 26290, "GEOSET": "GAUL", "GEOSET_YEAR": 1998.0, "GEOSET_VERSION": "GAUL_v1", "GEOSET_UNIT": "ADM2", "CENTROID_LONG": 7.6134311798413492, "CENTROID_LAT": 46.826672038073781 }, "geometry": { "type": "MultiPolygon", "coordinates": [ [ [ [ 7.4705529, 47.27882 ], [ 7.3554931, 47.2177391 ], [ 7.3362098, 47.1869087 ], [ 7.3958268, 47.1594391 ], [ 7.3817458, 47.1173897 ], [ 7.428947, 47.0734596 ], [ 7.5057359, 47.1298599 ], [ 7.5876722, 47.146019 ], [ 7.6590161, 47.1856995 ], [ 7.5798202, 47.255249 ], [ 7.6847472, 47.2797508 ], [ 7.8116689, 47.2638893 ], [ 7.8213701, 47.2206306 ], [ 7.8677549, 47.1667786 ], [ 7.867835, 47.0340385 ], [ 7.9463892, 46.9880104 ], [ 7.9116559, 46.9284515 ], [ 7.8741078, 46.9154015 ], [ 7.8683801, 46.8432884 ], [ 7.9705892, 46.7862701 ], [ 8.045187, 46.7849007 ], [ 8.1201029, 46.757431 ], [ 8.2707834, 46.7500992 ], [ 8.3576574, 46.7815514 ], [ 8.3907604, 46.76371 ], [ 8.4404411, 46.7602196 ], [ 8.4053593, 46.6519814 ], [ 8.3717623, 46.632679 ], [ 8.3418217, 46.5630684 ], [ 8.217823, 46.5212593 ], [ 7.994699, 46.5612602 ], [ 7.9308429, 46.4957199 ], [ 7.8220782, 46.4691315 ], [ 7.7231312, 46.4174385 ], [ 7.6459422, 46.4310684 ], [ 7.5463681, 46.406559 ], [ 7.50179, 46.3658218 ], [ 7.4192138, 46.3731804 ], [ 7.2292309, 46.3210182 ], [ 7.1966181, 46.3748589 ], [ 7.2464261, 46.5399818 ], [ 7.300962, 46.5828094 ], [ 7.3718648, 46.6851997 ], [ 7.3031859, 46.7176399 ], [ 7.3030229, 46.8341789 ], [ 7.333787, 46.8660393 ], [ 7.2115331, 46.89328 ], [ 7.1660938, 46.9821396 ], [ 7.0441375, 46.9811859 ], [ 7.0282278, 47.0046806 ], [ 7.082468, 47.0830498 ], [ 7.0313172, 47.1024094 ], [ 6.8989172, 47.0904617 ], [ 6.8496722, 47.1650442 ], [ 6.8496792, 47.1650474 ], [ 6.9880738, 47.1724586 ], [ 7.0495648, 47.2294006 ], [ 7.1291652, 47.2377205 ], [ 7.1791048, 47.2800217 ], [ 7.2785072, 47.27108 ], [ 7.3681412, 47.2971687 ], [ 7.4705529, 47.27882 ] ] ], [ [ [ 7.4251008, 47.3656006 ], [ 7.3664012, 47.4043007 ], [ 7.4099237, 47.4478207 ], [ 7.4305211, 47.465057 ], [ 7.515851, 47.4590988 ], [ 7.60467, 47.4752502 ], [ 7.6128969, 47.4391899 ], [ 7.4251008, 47.3656006 ] ] ] ] } },
{ "type": "Feature", "properties": { "POLYGON_ID": "CHE_GAUL1998_ADM2_26291", "ADM0_ISO3": "CHE", "ADM0_NAME": "Switzerland", "ADM0_CODE": 237, "ADM1_NAME": "Fribourg", "ADM1_CODE": 2813, "ADM2_NAME": "Administrative unit not available", "ADM2_CODE": 26291, "GEOSET": "GAUL", "GEOSET_YEAR": 1998.0, "GEOSET_VERSION": "GAUL_v1", "GEOSET_UNIT": "ADM2", "CENTROID_LONG": 7.0716878162634895, "CENTROID_LAT": 46.714246114315451 }, "geometry": { "type": "MultiPolygon", "coordinates": [ [ [ [ 7.2464261, 46.5399818 ], [ 7.1821318, 46.5326996 ], [ 7.1015201, 46.4762993 ], [ 7.0171919, 46.4407997 ], [ 6.9661689, 46.4857712 ], [ 6.8913178, 46.5082893 ], [ 6.8823729, 46.5532303 ], [ 6.8082519, 46.5689507 ], [ 6.8124628, 46.6436806 ], [ 6.86379, 46.6582909 ], [ 6.9291272, 46.7188797 ], [ 6.9581642, 46.8610115 ], [ 6.865591, 46.9092979 ], [ 6.9104543, 46.9378853 ], [ 6.9729972, 46.9190102 ], [ 7.0025792, 46.8703918 ], [ 7.065392, 46.8870811 ], [ 7.0441375, 46.9811859 ], [ 7.1660938, 46.9821396 ], [ 7.2115331, 46.89328 ], [ 7.333787, 46.8660393 ], [ 7.3030229, 46.8341789 ], [ 7.3031859, 46.7176399 ], [ 7.3718648, 46.6851997 ], [ 7.300962, 46.5828094 ], [ 7.2464261, 46.5399818 ] ] ], [ [ [ 6.7463841, 46.86166 ], [ 6.8463473, 46.894989 ], [ 6.9031081, 46.8652191 ], [ 6.9242229, 46.8066711 ], [ 6.8911581, 46.7732506 ], [ 6.818449, 46.7659683 ], [ 6.7757268, 46.7884598 ], [ 6.7463841, 46.86166 ] ] ] ] } },
{ "type": "Feature", "properties": { "POLYGON_ID": "CHE_GAUL1998_ADM2_26292", "ADM0_ISO3": "CHE", "ADM0_NAME": "Switzerland", "ADM0_CODE": 237, "ADM1_NAME": "Geneve", "ADM1_CODE": 2814, "ADM2_NAME": "Administrative unit not available", "ADM2_CODE": 26292, "GEOSET": "GAUL", "GEOSET_YEAR": 1998.0, "GEOSET_VERSION": "GAUL_v1", "GEOSET_UNIT": "ADM2", "CENTROID_LONG": 6.1169243584961102, "CENTROID_LAT": 46.218516703334195 }, "geometry": { "type": "MultiPolygon", "coordinates": [ [ [ [ 5.961658, 46.1537399 ], [ 5.97186, 46.21973 ], [ 6.10341, 46.25515 ], [ 6.1049295, 46.2978925 ], [ 6.1769881, 46.2724915 ], [ 6.2320509, 46.300478 ], [ 6.28508, 46.23552 ], [ 6.21997, 46.21303 ], [ 6.12212, 46.15488 ], [ 5.961658, 46.1537399 ] ] ] ] } },
{ "type": "Feature", "properties": { "POLYGON_ID": "CHE_GAUL1998_ADM2_26293", "ADM0_ISO3": "CHE", "ADM0_NAME": "Switzerland", "ADM0_CODE": 237, "ADM1_NAME": "Glarus", "ADM1_CODE": 2815, "ADM2_NAME": "Administrative unit not available", "ADM2_CODE": 26293, "GEOSET": "GAUL", "GEOSET_YEAR": 1998.0, "GEOSET_VERSION": "GAUL_v1", "GEOSET_UNIT": "ADM2", "CENTROID_LONG": 9.0613223771802893, "CENTROID_LAT": 46.984503083098403 }, "geometry": { "type": "MultiPolygon", "coordinates": [ [ [ [ 9.2507086, 46.9094086 ], [ 9.1232224, 46.8551102 ], [ 9.0392447, 46.8638992 ], [ 9.0179176, 46.8223991 ], [ 8.9496145, 46.7963791 ], [ 8.8766422, 46.8133507 ], [ 8.9359503, 46.8677902 ], [ 8.917511, 46.9115486 ], [ 8.9589052, 46.9574089 ], [ 8.895752, 47.0380592 ], [ 8.9414787, 47.0534782 ], [ 8.9572601, 47.1348495 ], [ 9.0123491, 47.1778603 ], [ 9.0770273, 47.142189 ], [ 9.1823606, 47.126667 ], [ 9.1715202, 47.0594292 ], [ 9.2301645, 47.0039711 ], [ 9.2507086, 46.9094086 ] ] ] ] } },
{ "type": "Feature", "properties": { "POLYGON_ID": "CHE_GAUL1998_ADM2_26294", "ADM0_ISO3": "CHE", "ADM0_NAME": "Switzerland", "ADM0_CODE": 237, "ADM1_NAME": "Graubunden", "ADM1_CODE": 2816, "ADM2_NAME": "Administrative unit not available", "ADM2_CODE": 26294, "GEOSET": "GAUL", "GEOSET_YEAR": 1998.0, "GEOSET_VERSION": "GAUL_v1", "GEOSET_UNIT": "ADM2", "CENTROID_LONG": 9.6265449105008987, "CENTROID_LAT": 46.658761499376652 }, "geometry": { "type": "MultiPolygon", "coordinates": [ [ [ [ 9.1472915, 46.1629864 ], [ 9.1028728, 46.2096405 ], [ 9.0575066, 46.2952194 ], [ 9.0871086, 46.3548889 ], [ 9.0871468, 46.4689789 ], [ 9.0213137, 46.4931488 ], [ 9.0286741, 46.5746689 ], [ 9.0089588, 46.6032715 ], [ 8.8973989, 46.612011 ], [ 8.826088, 46.5651093 ], [ 8.6756039, 46.5781899 ], [ 8.6549416, 46.6240807 ], [ 8.6772604, 46.69487 ], [ 8.7989464, 46.7361908 ], [ 8.8259697, 46.7875404 ], [ 8.8766422, 46.8133507 ], [ 8.9496145, 46.7963791 ], [ 9.0179176, 46.8223991 ], [ 9.0392447, 46.8638992 ], [ 9.1232224, 46.8551102 ], [ 9.2507086, 46.9094086 ], [ 9.4537783, 46.8880806 ], [ 9.5141678, 47.0008316 ], [ 9.4799629, 47.0597899 ], [ 9.5356997, 47.0670799 ], [ 9.5993762, 47.0621892 ], [ 9.6036599, 47.06155 ], [ 9.78349, 47.04035 ], [ 9.889696, 46.9991729 ], [ 9.87463, 46.94073 ], [ 10.0223, 46.8978 ], [ 10.10458, 46.84731 ], [ 10.1459554, 46.8510853 ], [ 10.22775, 46.87251 ], [ 10.293, 46.92235 ], [ 10.34806, 46.99221 ], [ 10.38801, 47.00205 ], [ 10.49147, 46.93966 ], [ 10.47005, 46.86188 ], [ 10.4700295, 46.8580795 ], [ 10.4667, 46.84408 ], [ 10.42411, 46.78806 ], [ 10.44288, 46.756622 ], [ 10.44215, 46.75455 ], [ 10.40973, 46.7411 ], [ 10.37793, 46.68238 ], [ 10.40176, 46.63771 ], [ 10.47994, 46.62099 ], [ 10.4858179, 46.6132626 ], [ 10.46421, 46.54864 ], [ 10.4628378, 46.5472811 ], [ 10.4550285, 46.5410903 ], [ 10.4536149, 46.5407909 ], [ 10.44044, 46.54119 ], [ 10.41878, 46.55181 ], [ 10.3035099, 46.5485801 ], [ 10.2419869, 46.5907615 ], [ 10.2431, 46.59686 ], [ 10.18562, 46.62319 ], [ 10.10075, 46.58294 ], [ 10.05119, 46.53883 ], [ 10.04334, 46.4475 ], [ 10.1314392, 46.4324161 ], [ 10.13625, 46.4307 ], [ 10.10728, 46.33209 ], [ 10.17147, 46.26468 ], [ 10.1478, 46.24161 ], [ 10.14722, 46.23703 ], [ 10.13348, 46.23097 ], [ 10.1018, 46.23345 ], [ 10.08396, 46.23627 ], [ 10.0771477, 46.229889 ], [ 10.07164, 46.22473 ], [ 10.06207, 46.22556 ], [ 10.0081399, 46.2875228 ], [ 10.0047907, 46.2886227 ], [ 9.9893, 46.35483 ], [ 9.9274893, 46.3732202 ], [ 9.91552, 46.37676 ], [ 9.8259268, 46.3623332 ], [ 9.8042, 46.34768 ], [ 9.72694, 46.34726 ], [ 9.7145658, 46.3036927 ], [ 9.70935, 46.29765 ], [ 9.59875, 46.30019 ], [ 9.58358, 46.3 ], [ 9.5702391, 46.3029922 ], [ 9.54368, 46.31114 ], [ 9.48862, 46.36645 ], [ 9.4877975, 46.3666199 ], [ 9.41126, 46.46671 ], [ 9.3956088, 46.4699207 ], [ 9.35734, 46.50848 ], [ 9.2946, 46.50251 ], [ 9.2552063, 46.4256055 ], [ 9.2588249, 46.4225842 ], [ 9.25883, 46.42258 ], [ 9.2669119, 46.4183716 ], [ 9.2901142, 46.3406973 ], [ 9.2922897, 46.3283819 ], [ 9.24288, 46.24547 ], [ 9.2390854, 46.2406186 ], [ 9.1472915, 46.1629864 ] ] ] ] } },
{ "type": "Feature", "properties": { "POLYGON_ID": "CHE_GAUL1998_ADM2_26295", "ADM0_ISO3": "CHE", "ADM0_NAME": "Switzerland", "ADM0_CODE": 237, "ADM1_NAME": "Jura", "ADM1_CODE": 2817, "ADM2_NAME": "Administrative unit not available", "ADM2_CODE": 26295, "GEOSET": "GAUL", "GEOSET_YEAR": 1998.0, "GEOSET_VERSION": "GAUL_v1", "GEOSET_UNIT": "ADM2", "CENTROID_LONG": 7.150353057101654, "CENTROID_LAT": 47.348461699232026 }, "geometry": { "type": "MultiPolygon", "coordinates": [ [ [ [ 7.355766, 47.438789 ], [ 7.3664012, 47.4043007 ], [ 7.4251008, 47.3656006 ], [ 7.5213408, 47.3373299 ], [ 7.514277, 47.3023186 ], [ 7.4705529, 47.27882 ], [ 7.3681412, 47.2971687 ], [ 7.2785072, 47.27108 ], [ 7.1791048, 47.2800217 ], [ 7.1291652, 47.2377205 ], [ 7.0495648, 47.2294006 ], [ 6.9880738, 47.1724586 ], [ 6.8496792, 47.1650474 ], [ 6.93735, 47.24302 ], [ 6.94118, 47.29166 ], [ 7.05111, 47.33619 ], [ 7.0428, 47.36797 ], [ 6.87227, 47.36625 ], [ 6.9381894, 47.4387673 ], [ 6.9972367, 47.4652539 ], [ 6.98505, 47.50213 ], [ 7.1258, 47.50613 ], [ 7.19155, 47.48769 ], [ 7.17479, 47.44826 ], [ 7.25459, 47.42498 ], [ 7.355766, 47.438789 ] ] ] ] } },
{ "type": "Feature", "properties": { "POLYGON_ID": "CHE_GAUL1998_ADM2_26296", "ADM0_ISO3": "CHE", "ADM0_NAME": "Switzerland", "ADM0_CODE": 237, "ADM1_NAME": "Luzern", "ADM1_CODE": 2818, "ADM2_NAME": "Administrative unit not available", "ADM2_CODE": 26296, "GEOSET": "GAUL", "GEOSET_YEAR": 1998.0, "GEOSET_VERSION": "GAUL_v1", "GEOSET_UNIT": "ADM2", "CENTROID_LONG": 8.1007321640399663, "CENTROID_LAT": 47.06906311086496 }, "geometry": { "type": "MultiPolygon", "coordinates": [ [ [ [ 8.4869366, 46.9916611 ], [ 8.3831615, 47.0194321 ], [ 8.4255514, 47.0563889 ], [ 8.5044899, 47.0223618 ], [ 8.4869366, 46.9916611 ] ] ], [ [ [ 8.4003239, 47.1361694 ], [ 8.4764462, 47.1100197 ], [ 8.3740692, 47.0623093 ], [ 8.3623419, 47.0231705 ], [ 8.3271074, 46.9975433 ], [ 8.2385178, 46.996109 ], [ 8.2176714, 46.9687309 ], [ 8.1500063, 46.9615402 ], [ 8.1103935, 46.9004707 ], [ 8.0585794, 46.8862 ], [ 8.045187, 46.7849007 ], [ 7.9705892, 46.7862701 ], [ 7.8683801, 46.8432884 ], [ 7.8741078, 46.9154015 ], [ 7.9116559, 46.9284515 ], [ 7.9463892, 46.9880104 ], [ 7.867835, 47.0340385 ], [ 7.8677549, 47.1667786 ], [ 7.8213701, 47.2206306 ], [ 7.9139419, 47.2226715 ], [ 7.9378862, 47.267601 ], [ 8.0166283, 47.2576294 ], [ 8.122263, 47.2716904 ], [ 8.1903353, 47.2246094 ], [ 8.2321024, 47.2814484 ], [ 8.2877178, 47.2495995 ], [ 8.346262, 47.1460114 ], [ 8.4003239, 47.1361694 ] ] ] ] } },
{ "type": "Feature", "properties": { "POLYGON_ID": "CHE_GAUL1998_ADM2_26297", "ADM0_ISO3": "CHE", "ADM0_NAME": "Switzerland", "ADM0_CODE": 237, "ADM1_NAME": "Neuchatel", "ADM1_CODE": 2819, "ADM2_NAME": "Administrative unit not available", "ADM2_CODE": 26297, "GEOSET": "GAUL", "GEOSET_YEAR": 1998.0, "GEOSET_VERSION": "GAUL_v1", "GEOSET_UNIT": "ADM2", "CENTROID_LONG": 6.7583755995306189, "CENTROID_LAT": 46.990257361976504 }, "geometry": { "type": "MultiPolygon", "coordinates": [ [ [ [ 7.0282278, 47.0046806 ], [ 6.9104543, 46.9378853 ], [ 6.865591, 46.9092979 ], [ 6.8463473, 46.894989 ], [ 6.7463841, 46.86166 ], [ 6.7106009, 46.9165306 ], [ 6.4791698, 46.8367004 ], [ 6.4359485, 46.840374 ], [ 6.4602176, 46.894242 ], [ 6.42857, 46.92942 ], [ 6.47911, 46.97282 ], [ 6.6232, 47.00231 ], [ 6.70499, 47.09022 ], [ 6.8496722, 47.1650442 ], [ 6.8989172, 47.0904617 ], [ 7.0313172, 47.1024094 ], [ 7.082468, 47.0830498 ], [ 7.0282278, 47.0046806 ] ] ] ] } },
{ "type": "Feature", "properties": { "POLYGON_ID": "CHE_GAUL1998_ADM2_26298", "ADM0_ISO3": "CHE", "ADM0_NAME": "Switzerland", "ADM0_CODE": 237, "ADM1_NAME": "Nidwalden", "ADM1_CODE": 2820, "ADM2_NAME": "Administrative unit not available", "ADM2_CODE": 26298, "GEOSET": "GAUL", "GEOSET_YEAR": 1998.0, "GEOSET_VERSION": "GAUL_v1", "GEOSET_UNIT": "ADM2", "CENTROID_LONG": 8.4003461840882867, "CENTROID_LAT": 46.929011928655179 }, "geometry": { "type": "MultiPolygon", "coordinates": [ [ [ [ 8.3831615, 47.0194321 ], [ 8.4869366, 46.9916611 ], [ 8.5719757, 46.9842033 ], [ 8.5177193, 46.9153709 ], [ 8.4495392, 46.8930016 ], [ 8.4604263, 46.8525085 ], [ 8.3860292, 46.8501396 ], [ 8.3627977, 46.8201904 ], [ 8.3907604, 46.76371 ], [ 8.3576574, 46.7815514 ], [ 8.3179235, 46.8073692 ], [ 8.3316917, 46.919651 ], [ 8.3055773, 46.9701691 ], [ 8.2176714, 46.9687309 ], [ 8.2385178, 46.996109 ], [ 8.3271074, 46.9975433 ], [ 8.3623419, 47.0231705 ], [ 8.3831615, 47.0194321 ] ] ] ] } },
{ "type": "Feature", "properties": { "POLYGON_ID": "CHE_GAUL1998_ADM2_26299", "ADM0_ISO3": "CHE", "ADM0_NAME": "Switzerland", "ADM0_CODE": 237, "ADM1_NAME": "Obwalden", "ADM1_CODE": 2821, "ADM2_NAME": "Administrative unit not available", "ADM2_CODE": 26299, "GEOSET": "GAUL", "GEOSET_YEAR": 1998.0, "GEOSET_VERSION": "GAUL_v1", "GEOSET_UNIT": "ADM2", "CENTROID_LONG": 8.2324112049346549, "CENTROID_LAT": 46.848022972754251 }, "geometry": { "type": "MultiPolygon", "coordinates": [ [ [ [ 8.4604263, 46.8525085 ], [ 8.4890089, 46.8368416 ], [ 8.4404411, 46.7602196 ], [ 8.3907604, 46.76371 ], [ 8.3627977, 46.8201904 ], [ 8.3860292, 46.8501396 ], [ 8.4604263, 46.8525085 ] ] ], [ [ [ 8.3576574, 46.7815514 ], [ 8.2707834, 46.7500992 ], [ 8.1201029, 46.757431 ], [ 8.045187, 46.7849007 ], [ 8.0585794, 46.8862 ], [ 8.1103935, 46.9004707 ], [ 8.1500063, 46.9615402 ], [ 8.2176714, 46.9687309 ], [ 8.3055773, 46.9701691 ], [ 8.3316917, 46.919651 ], [ 8.3179235, 46.8073692 ], [ 8.3576574, 46.7815514 ] ] ] ] } },
{ "type": "Feature", "properties": { "POLYGON_ID": "CHE_GAUL1998_ADM2_26300", "ADM0_ISO3": "CHE", "ADM0_NAME": "Switzerland", "ADM0_CODE": 237, "ADM1_NAME": "Sankt Gallen", "ADM1_CODE": 2822, "ADM2_NAME": "Administrative unit not available", "ADM2_CODE": 26300, "GEOSET": "GAUL", "GEOSET_YEAR": 1998.0, "GEOSET_VERSION": "GAUL_v1", "GEOSET_UNIT": "ADM2", "CENTROID_LONG": 9.2720437061700309, "CENTROID_LAT": 47.239793509551063 }, "geometry": { "type": "MultiPolygon", "coordinates": [ [ [ [ 9.4799629, 47.0597899 ], [ 9.5141678, 47.0008316 ], [ 9.4537783, 46.8880806 ], [ 9.2507086, 46.9094086 ], [ 9.2301645, 47.0039711 ], [ 9.1715202, 47.0594292 ], [ 9.1823606, 47.126667 ], [ 9.0770273, 47.142189 ], [ 9.0123491, 47.1778603 ], [ 8.9618587, 47.2253113 ], [ 8.8226538, 47.208847 ], [ 8.7653742, 47.2214584 ], [ 8.766571, 47.2501717 ], [ 8.904892, 47.2624207 ], [ 8.9687214, 47.3146896 ], [ 8.9348974, 47.3791199 ], [ 9.0156746, 47.456749 ], [ 9.0106306, 47.4887619 ], [ 9.1470451, 47.4900513 ], [ 9.2116327, 47.4742699 ], [ 9.2917604, 47.4875298 ], [ 9.3650179, 47.4789314 ], [ 9.4464989, 47.5274811 ], [ 9.477805, 47.5748479 ], [ 9.5443297, 47.5425585 ], [ 9.60099, 47.46896 ], [ 9.6565239, 47.454667 ], [ 9.6365491, 47.3758313 ], [ 9.53591, 47.27354 ], [ 9.5152651, 47.2417905 ], [ 9.5024097, 47.2162503 ], [ 9.4952495, 47.1980892 ], [ 9.4987864, 47.1617203 ], [ 9.5180256, 47.1248322 ], [ 9.5133733, 47.0878215 ], [ 9.4799629, 47.0597899 ] ], [ [ 9.5013657, 47.3425789 ], [ 9.5060234, 47.3895988 ], [ 9.5422049, 47.3947296 ], [ 9.5785999, 47.4061317 ], [ 9.5962601, 47.4299011 ], [ 9.5566034, 47.4578018 ], [ 9.427846, 47.4338684 ], [ 9.3913651, 47.3973503 ], [ 9.251421, 47.4050217 ], [ 9.1996288, 47.3687592 ], [ 9.2179213, 47.3208199 ], [ 9.1999474, 47.2651291 ], [ 9.3355618, 47.2428818 ], [ 9.4062014, 47.2474098 ], [ 9.4726152, 47.285511 ], [ 9.5013657, 47.3425789 ] ] ] ] } },
{ "type": "Feature", "properties": { "POLYGON_ID": "CHE_GAUL1998_ADM2_26301", "ADM0_ISO3": "CHE", "ADM0_NAME": "Switzerland", "ADM0_CODE": 237, "ADM1_NAME": "Schaffhausen", "ADM1_CODE": 2823, "ADM2_NAME": "Administrative unit not available", "ADM2_CODE": 26301, "GEOSET": "GAUL", "GEOSET_YEAR": 1998.0, "GEOSET_VERSION": "GAUL_v1", "GEOSET_UNIT": "ADM2", "CENTROID_LONG": 8.5746240901528665, "CENTROID_LAT": 47.72299921366178 }, "geometry": { "type": "MultiPolygon", "coordinates": [ [ [ [ 8.7343544, 47.6981509 ], [ 8.7201836, 47.6962887 ], [ 8.6710583, 47.6942436 ], [ 8.609405, 47.667099 ], [ 8.5223, 47.64807 ], [ 8.44106, 47.6572801 ], [ 8.4226898, 47.7080697 ], [ 8.49484, 47.77064 ], [ 8.56947, 47.80534 ], [ 8.72349, 47.76343 ], [ 8.7343544, 47.6981509 ] ] ] ] } },
{ "type": "Feature", "properties": { "POLYGON_ID": "CHE_GAUL1998_ADM2_26302", "ADM0_ISO3": "CHE", "ADM0_NAME": "Switzerland", "ADM0_CODE": 237, "ADM1_NAME": "Schwyz", "ADM1_CODE": 2824, "ADM2_NAME": "Administrative unit not available", "ADM2_CODE": 26302, "GEOSET": "GAUL", "GEOSET_YEAR": 1998.0, "GEOSET_VERSION": "GAUL_v1", "GEOSET_UNIT": "ADM2", "CENTROID_LONG": 8.7502041095370444, "CENTROID_LAT": 47.060336702289852 }, "geometry": { "type": "MultiPolygon", "coordinates": [ [ [ [ 9.0123491, 47.1778603 ], [ 8.9572601, 47.1348495 ], [ 8.9414787, 47.0534782 ], [ 8.895752, 47.0380592 ], [ 8.9589052, 46.9574089 ], [ 8.917511, 46.9115486 ], [ 8.8428898, 46.879879 ], [ 8.8092461, 46.9270401 ], [ 8.7200003, 46.9160309 ], [ 8.6079092, 46.9484329 ], [ 8.5719757, 46.9842033 ], [ 8.4869366, 46.9916611 ], [ 8.5044899, 47.0223618 ], [ 8.4255514, 47.0563889 ], [ 8.3831615, 47.0194321 ], [ 8.3623419, 47.0231705 ], [ 8.3740692, 47.0623093 ], [ 8.4764462, 47.1100197 ], [ 8.5169401, 47.0872192 ], [ 8.623394, 47.0946083 ], [ 8.6782646, 47.1538391 ], [ 8.6772451, 47.1915398 ], [ 8.7653742, 47.2214584 ], [ 8.8226538, 47.208847 ], [ 8.9618587, 47.2253113 ], [ 9.0123491, 47.1778603 ] ] ] ] } },
{ "type": "Feature", "properties": { "POLYGON_ID": "CHE_GAUL1998_ADM2_26303", "ADM0_ISO3": "CHE", "ADM0_NAME": "Switzerland", "ADM0_CODE": 237, "ADM1_NAME": "Solothurn", "ADM1_CODE": 2825, "ADM2_NAME": "Administrative unit not available", "ADM2_CODE": 26303, "GEOSET": "GAUL", "GEOSET_YEAR": 1998.0, "GEOSET_VERSION": "GAUL_v1", "GEOSET_UNIT": "ADM2", "CENTROID_LONG": 7.624064590502873, "CENTROID_LAT": 47.293939737150751 }, "geometry": { "type": "MultiPolygon", "coordinates": [ [ [ [ 7.9319768, 47.4562683 ], [ 8.0089674, 47.4039688 ], [ 7.9795332, 47.3329086 ], [ 7.8599968, 47.3133316 ], [ 7.8116689, 47.2638893 ], [ 7.6847472, 47.2797508 ], [ 7.5798202, 47.255249 ], [ 7.6590161, 47.1856995 ], [ 7.5876722, 47.146019 ], [ 7.5057359, 47.1298599 ], [ 7.428947, 47.0734596 ], [ 7.3817458, 47.1173897 ], [ 7.3958268, 47.1594391 ], [ 7.3362098, 47.1869087 ], [ 7.3554931, 47.2177391 ], [ 7.4705529, 47.27882 ], [ 7.514277, 47.3023186 ], [ 7.5213408, 47.3373299 ], [ 7.4251008, 47.3656006 ], [ 7.6128969, 47.4391899 ], [ 7.60467, 47.4752502 ], [ 7.6788702, 47.4746895 ], [ 7.6369929, 47.3649597 ], [ 7.750802, 47.331459 ], [ 7.876637, 47.4056015 ], [ 7.9319768, 47.4562683 ] ] ], [ [ [ 7.506614, 47.499997 ], [ 7.515851, 47.4590988 ], [ 7.4305211, 47.465057 ], [ 7.506614, 47.499997 ] ] ], [ [ [ 7.4099237, 47.4478207 ], [ 7.3664012, 47.4043007 ], [ 7.355766, 47.438789 ], [ 7.4099237, 47.4478207 ] ] ] ] } },
{ "type": "Feature", "properties": { "POLYGON_ID": "CHE_GAUL1998_ADM2_26304", "ADM0_ISO3": "CHE", "ADM0_NAME": "Switzerland", "ADM0_CODE": 237, "ADM1_NAME": "Thurgau", "ADM1_CODE": 2826, "ADM2_NAME": "Administrative unit not available", "ADM2_CODE": 26304, "GEOSET": "GAUL", "GEOSET_YEAR": 1998.0, "GEOSET_VERSION": "GAUL_v1", "GEOSET_UNIT": "ADM2", "CENTROID_LONG": 9.0831244008398784, "CENTROID_LAT": 47.570124169485801 }, "geometry": { "type": "MultiPolygon", "coordinates": [ [ [ [ 8.7965109, 47.6820327 ], [ 8.8917907, 47.6577892 ], [ 8.9745828, 47.6715346 ], [ 9.04681, 47.68616 ], [ 9.25224, 47.66205 ], [ 9.4029, 47.61102 ], [ 9.477805, 47.5748479 ], [ 9.4464989, 47.5274811 ], [ 9.3650179, 47.4789314 ], [ 9.2917604, 47.4875298 ], [ 9.2116327, 47.4742699 ], [ 9.1470451, 47.4900513 ], [ 9.0106306, 47.4887619 ], [ 9.0156746, 47.456749 ], [ 8.9348974, 47.3791199 ], [ 8.8544331, 47.4689713 ], [ 8.8791056, 47.5187798 ], [ 8.8239527, 47.5642319 ], [ 8.746439, 47.5828514 ], [ 8.8081284, 47.6398697 ], [ 8.7696819, 47.658329 ], [ 8.692564, 47.6434517 ], [ 8.6789255, 47.6908977 ], [ 8.7201836, 47.6962887 ], [ 8.7343544, 47.6981509 ], [ 8.7965109, 47.6820327 ] ] ] ] } },
{ "type": "Feature", "properties": { "POLYGON_ID": "CHE_GAUL1998_ADM2_26305", "ADM0_ISO3": "CHE", "ADM0_NAME": "Switzerland", "ADM0_CODE": 237, "ADM1_NAME": "Ticino", "ADM1_CODE": 2827, "ADM2_NAME": "Administrative unit not available", "ADM2_CODE": 26305, "GEOSET": "GAUL", "GEOSET_YEAR": 1998.0, "GEOSET_VERSION": "GAUL_v1", "GEOSET_UNIT": "ADM2", "CENTROID_LONG": 8.8050833144703944, "CENTROID_LAT": 46.300548048556927 }, "geometry": { "type": "MultiPolygon", "coordinates": [ [ [ [ 9.1472915, 46.1629864 ], [ 9.1196493, 46.1457119 ], [ 9.10494, 46.13775 ], [ 9.08291, 46.09138 ], [ 9.0798708, 46.0832578 ], [ 9.06763, 46.06823 ], [ 9.03886, 46.06407 ], [ 9.01162, 46.0455 ], [ 9.0129319, 45.9515395 ], [ 9.01585, 45.93984 ], [ 9.01963, 45.93488 ], [ 9.02968, 45.92933 ], [ 9.04897, 45.93081 ], [ 9.05576, 45.9243 ], [ 9.06734, 45.92129 ], [ 9.07264, 45.91062 ], [ 9.08186, 45.90964 ], [ 9.08189, 45.90872 ], [ 9.08394, 45.90624 ], [ 9.07079, 45.88908 ], [ 9.04751, 45.86258 ], [ 9.03445, 45.84358 ], [ 8.99929, 45.82922 ], [ 8.9967426, 45.8374794 ], [ 8.9386, 45.8501 ], [ 8.92529, 45.84324 ], [ 8.9173888, 45.8435538 ], [ 8.91396, 45.84369 ], [ 8.9140365, 45.8467201 ], [ 8.91422, 45.85399 ], [ 8.92101, 45.86465 ], [ 8.926169, 45.867764 ], [ 8.93745, 45.88006 ], [ 8.9222843, 45.8988951 ], [ 8.92129, 45.90013 ], [ 8.9213799, 45.9061903 ], [ 8.8986641, 45.9342736 ], [ 8.89378, 45.94174 ], [ 8.86633, 45.97114 ], [ 8.83765, 45.99194 ], [ 8.81466, 46.00042 ], [ 8.79215, 46.00502 ], [ 8.78995, 46.0107 ], [ 8.8312, 46.03828 ], [ 8.83691, 46.04342 ], [ 8.85502, 46.07535 ], [ 8.84393, 46.08132 ], [ 8.8072, 46.11151 ], [ 8.7228913, 46.1101692 ], [ 8.711418, 46.1076591 ], [ 8.65753, 46.11903 ], [ 8.64729, 46.12752 ], [ 8.63116, 46.12786 ], [ 8.61561, 46.1296 ], [ 8.53147, 46.22164 ], [ 8.51837, 46.22685 ], [ 8.45157, 46.25948 ], [ 8.4552, 46.27351 ], [ 8.4342699, 46.2975311 ], [ 8.43358, 46.30507 ], [ 8.46745, 46.3715 ], [ 8.4609, 46.44779 ], [ 8.364104, 46.4495784 ], [ 8.3821993, 46.4885712 ], [ 8.4539022, 46.5244789 ], [ 8.5462008, 46.5804405 ], [ 8.6238079, 46.5644417 ], [ 8.6756039, 46.5781899 ], [ 8.826088, 46.5651093 ], [ 8.8973989, 46.612011 ], [ 9.0089588, 46.6032715 ], [ 9.0286741, 46.5746689 ], [ 9.0213137, 46.4931488 ], [ 9.0871468, 46.4689789 ], [ 9.0871086, 46.3548889 ], [ 9.0575066, 46.2952194 ], [ 9.1028728, 46.2096405 ], [ 9.1472915, 46.1629864 ] ] ] ] } },
{ "type": "Feature", "properties": { "POLYGON_ID": "CHE_GAUL1998_ADM2_26306", "ADM0_ISO3": "CHE", "ADM0_NAME": "Switzerland", "ADM0_CODE": 237, "ADM1_NAME": "Uri", "ADM1_CODE": 2828, "ADM2_NAME": "Administrative unit not available", "ADM2_CODE": 26306, "GEOSET": "GAUL", "GEOSET_YEAR": 1998.0, "GEOSET_VERSION": "GAUL_v1", "GEOSET_UNIT": "ADM2", "CENTROID_LONG": 8.6186450690449679, "CENTROID_LAT": 46.766882244425908 }, "geometry": { "type": "MultiPolygon", "coordinates": [ [ [ [ 8.917511, 46.9115486 ], [ 8.9359503, 46.8677902 ], [ 8.8766422, 46.8133507 ], [ 8.8259697, 46.7875404 ], [ 8.7989464, 46.7361908 ], [ 8.6772604, 46.69487 ], [ 8.6549416, 46.6240807 ], [ 8.6756039, 46.5781899 ], [ 8.6238079, 46.5644417 ], [ 8.5462008, 46.5804405 ], [ 8.4539022, 46.5244789 ], [ 8.4045353, 46.5823898 ], [ 8.4053593, 46.6519814 ], [ 8.4404411, 46.7602196 ], [ 8.4890089, 46.8368416 ], [ 8.4604263, 46.8525085 ], [ 8.4495392, 46.8930016 ], [ 8.5177193, 46.9153709 ], [ 8.5719757, 46.9842033 ], [ 8.6079092, 46.9484329 ], [ 8.7200003, 46.9160309 ], [ 8.8092461, 46.9270401 ], [ 8.8428898, 46.879879 ], [ 8.917511, 46.9115486 ] ] ] ] } },
{ "type": "Feature", "properties": { "POLYGON_ID": "CHE_GAUL1998_ADM2_26307", "ADM0_ISO3": "CHE", "ADM0_NAME": "Switzerland", "ADM0_CODE": 237, "ADM1_NAME": "Valais", "ADM1_CODE": 2829, "ADM2_NAME": "Administrative unit not available", "ADM2_CODE": 26307, "GEOSET": "GAUL", "GEOSET_YEAR": 1998.0, "GEOSET_VERSION": "GAUL_v1", "GEOSET_UNIT": "ADM2", "CENTROID_LONG": 7.6023219986058796, "CENTROID_LAT": 46.21112520850307 }, "geometry": { "type": "MultiPolygon", "coordinates": [ [ [ [ 8.4539022, 46.5244789 ], [ 8.3821993, 46.4885712 ], [ 8.364104, 46.4495784 ], [ 8.30272, 46.4277 ], [ 8.31972, 46.39171 ], [ 8.31105, 46.37983 ], [ 8.2325, 46.34477 ], [ 8.19935, 46.3085 ], [ 8.1893751, 46.3051022 ], [ 8.14417, 46.30942 ], [ 8.086, 46.26721 ], [ 8.1621514, 46.1851125 ], [ 8.14984, 46.16925 ], [ 8.11091, 46.12066 ], [ 8.1014465, 46.117603 ], [ 8.0300781, 46.0940867 ], [ 8.0054942, 46.0241917 ], [ 7.99484, 46.01074 ], [ 7.9793707, 46.0042853 ], [ 7.94982, 46.0052 ], [ 7.86616, 45.96309 ], [ 7.8666327, 45.9516763 ], [ 7.86705, 45.9415904 ], [ 7.8598151, 45.9350229 ], [ 7.85925, 45.93451 ], [ 7.8557884, 45.9341015 ], [ 7.81002, 45.93497 ], [ 7.80055, 45.92853 ], [ 7.74499, 45.94733 ], [ 7.7350644, 45.9419228 ], [ 7.64943, 45.98625 ], [ 7.6233988, 45.9815958 ], [ 7.56353, 45.99974 ], [ 7.53017, 45.97125 ], [ 7.5296459, 45.971234 ], [ 7.5262838, 45.9710448 ], [ 7.522, 45.97077 ], [ 7.47059, 45.95821 ], [ 7.47247, 45.94934 ], [ 7.38828, 45.91671 ], [ 7.3859684, 45.91336 ], [ 7.38198, 45.90758 ], [ 7.35503, 45.9184 ], [ 7.33869, 45.92247 ], [ 7.32378, 45.9197 ], [ 7.30135, 45.92653 ], [ 7.25435, 45.89843 ], [ 7.2428024, 45.8990378 ], [ 7.19714, 45.86701 ], [ 7.1861346, 45.8684936 ], [ 7.11691, 45.86592 ], [ 7.10306, 45.86705 ], [ 7.03618, 45.93694 ], [ 7.03921, 45.96268 ], [ 6.95274, 46.05887 ], [ 6.8733099, 46.0787292 ], [ 6.8915763, 46.1297732 ], [ 6.77667, 46.15083 ], [ 6.80249, 46.22324 ], [ 6.85132, 46.29372 ], [ 6.7623, 46.35623 ], [ 6.808958, 46.4038986 ], [ 6.8630562, 46.3947182 ], [ 6.8963871, 46.3441582 ], [ 7.0372181, 46.1997108 ], [ 7.0985909, 46.2055893 ], [ 7.1937809, 46.27034 ], [ 7.2292309, 46.3210182 ], [ 7.4192138, 46.3731804 ], [ 7.50179, 46.3658218 ], [ 7.5463681, 46.406559 ], [ 7.6459422, 46.4310684 ], [ 7.7231312, 46.4174385 ], [ 7.8220782, 46.4691315 ], [ 7.9308429, 46.4957199 ], [ 7.994699, 46.5612602 ], [ 8.217823, 46.5212593 ], [ 8.3418217, 46.5630684 ], [ 8.3717623, 46.632679 ], [ 8.4053593, 46.6519814 ], [ 8.4045353, 46.5823898 ], [ 8.4539022, 46.5244789 ] ] ] ] } },
{ "type": "Feature", "properties": { "POLYGON_ID": "CHE_GAUL1998_ADM2_26308", "ADM0_ISO3": "CHE", "ADM0_NAME": "Switzerland", "ADM0_CODE": 237, "ADM1_NAME": "Vaud", "ADM1_CODE": 2830, "ADM2_NAME": "Administrative unit not available", "ADM2_CODE": 26308, "GEOSET": "GAUL", "GEOSET_YEAR": 1998.0, "GEOSET_VERSION": "GAUL_v1", "GEOSET_UNIT": "ADM2", "CENTROID_LONG": 6.6435313535566376, "CENTROID_LAT": 46.565310049630611 }, "geometry": { "type": "MultiPolygon", "coordinates": [ [ [ [ 6.7463841, 46.86166 ], [ 6.7757268, 46.7884598 ], [ 6.818449, 46.7659683 ], [ 6.8911581, 46.7732506 ], [ 6.9242229, 46.8066711 ], [ 6.9031081, 46.8652191 ], [ 6.8463473, 46.894989 ], [ 6.865591, 46.9092979 ], [ 6.9581642, 46.8610115 ], [ 6.9291272, 46.7188797 ], [ 6.86379, 46.6582909 ], [ 6.8124628, 46.6436806 ], [ 6.8082519, 46.5689507 ], [ 6.8823729, 46.5532303 ], [ 6.8913178, 46.5082893 ], [ 6.9661689, 46.4857712 ], [ 7.0171919, 46.4407997 ], [ 7.1015201, 46.4762993 ], [ 7.1821318, 46.5326996 ], [ 7.2464261, 46.5399818 ], [ 7.1966181, 46.3748589 ], [ 7.2292309, 46.3210182 ], [ 7.1937809, 46.27034 ], [ 7.0985909, 46.2055893 ], [ 7.0372181, 46.1997108 ], [ 6.8963871, 46.3441582 ], [ 6.8630562, 46.3947182 ], [ 6.808958, 46.4038986 ], [ 6.806198, 46.4313406 ], [ 6.66852, 46.45996 ], [ 6.50048, 46.46068 ], [ 6.42153, 46.42164 ], [ 6.32597, 46.40821 ], [ 6.24428, 46.36091 ], [ 6.2320509, 46.300478 ], [ 6.1769881, 46.2724915 ], [ 6.1049295, 46.2978925 ], [ 6.15166, 46.36075 ], [ 6.0650689, 46.4194871 ], [ 6.0735, 46.47341 ], [ 6.14138, 46.53469 ], [ 6.1261352, 46.5591318 ], [ 6.1093, 46.58604 ], [ 6.27197, 46.69558 ], [ 6.43416, 46.77004 ], [ 6.4359485, 46.840374 ], [ 6.4791698, 46.8367004 ], [ 6.7106009, 46.9165306 ], [ 6.7463841, 46.86166 ] ] ], [ [ [ 6.9104543, 46.9378853 ], [ 7.0282278, 47.0046806 ], [ 7.0441375, 46.9811859 ], [ 7.065392, 46.8870811 ], [ 7.0025792, 46.8703918 ], [ 6.9729972, 46.9190102 ], [ 6.9104543, 46.9378853 ] ] ] ] } },
{ "type": "Feature", "properties": { "POLYGON_ID": "CHE_GAUL1998_ADM2_26309", "ADM0_ISO3": "CHE", "ADM0_NAME": "Switzerland", "ADM0_CODE": 237, "ADM1_NAME": "Zug", "ADM1_CODE": 2831, "ADM2_NAME": "Administrative unit not available", "ADM2_CODE": 26309, "GEOSET": "GAUL", "GEOSET_YEAR": 1998.0, "GEOSET_VERSION": "GAUL_v1", "GEOSET_UNIT": "ADM2", "CENTROID_LONG": 8.5261387011125791, "CENTROID_LAT": 47.156326868823783 }, "geometry": { "type": "MultiPolygon", "coordinates": [ [ [ [ 8.6782646, 47.1538391 ], [ 8.623394, 47.0946083 ], [ 8.5169401, 47.0872192 ], [ 8.4764462, 47.1100197 ], [ 8.4003239, 47.1361694 ], [ 8.3948269, 47.2226181 ], [ 8.5836134, 47.2093887 ], [ 8.6782646, 47.1538391 ] ] ] ] } },
{ "type": "Feature", "properties": { "POLYGON_ID": "CHE_GAUL1998_ADM2_26310", "ADM0_ISO3": "CHE", "ADM0_NAME": "Switzerland", "ADM0_CODE": 237, "ADM1_NAME": "Zurich", "ADM1_CODE": 2832, "ADM2_NAME": "Administrative unit not available", "ADM2_CODE": 26310, "GEOSET": "GAUL", "GEOSET_YEAR": 1998.0, "GEOSET_VERSION": "GAUL_v1", "GEOSET_UNIT": "ADM2", "CENTROID_LONG": 8.6404277256167941, "CENTROID_LAT": 47.41526720957372 }, "geometry": { "type": "MultiPolygon", "coordinates": [ [ [ [ 8.6710583, 47.6942436 ], [ 8.6789255, 47.6908977 ], [ 8.692564, 47.6434517 ], [ 8.7696819, 47.658329 ], [ 8.8081284, 47.6398697 ], [ 8.746439, 47.5828514 ], [ 8.8239527, 47.5642319 ], [ 8.8791056, 47.5187798 ], [ 8.8544331, 47.4689713 ], [ 8.9348974, 47.3791199 ], [ 8.9687214, 47.3146896 ], [ 8.904892, 47.2624207 ], [ 8.766571, 47.2501717 ], [ 8.7653742, 47.2214584 ], [ 8.6772451, 47.1915398 ], [ 8.6782646, 47.1538391 ], [ 8.5836134, 47.2093887 ], [ 8.3948269, 47.2226181 ], [ 8.377121, 47.2653198 ], [ 8.4055519, 47.3129692 ], [ 8.3786631, 47.4463692 ], [ 8.3524427, 47.486599 ], [ 8.4355248, 47.5732835 ], [ 8.52349, 47.63689 ], [ 8.56918, 47.62094 ], [ 8.609405, 47.667099 ], [ 8.6710583, 47.6942436 ] ] ] ] } }
]
}
