{
"type": "FeatureCollection",
"name": "CIV_GAUL1999_ADM1",
"crs": { "type": "name", "properties": { "name": "urn:ogc:def:crs:OGC:1.3:CRS84" } },
"features": [
{ "type": "Feature", "properties": { "POLYGON_ID": "CIV_GAUL1999_ADM1_1038", "ADM0_ISO3": "CIV", "ADM0_NAME": "Côte d'Ivoire", "ADM0_CODE": 66, "ADM1_NAME": "18 Montagnes", "ADM1_CODE": 1038, "GEOSET": "GAUL", "GEOSET_YEAR": 1999.0, "GEOSET_VERSION": "GAUL_v1", "GEOSET_UNIT": "ADM1", "CENTROID_LONG": -7.6504944708960458, "CENTROID_LAT": 6.9464779946260906 }, "geometry": { "type": "MultiPolygon", "coordinates": [ [ [ [ -7.0806537, 7.796154 ], [ -7.0672202, 7.642542 ], [ -7.0425801, 7.6116326 ], [ -7.0184269, 7.6160163 ], [ -6.9868307, 7.5830252 ], [ -6.9876909, 7.5543221 ], [ -7.0398579, 7.5420426 ], [ -7.0047917, 7.4411069 ], [ -7.0818934, 7.3701613 ], [ -7.0587935, 7.3381119 ], [ -7.0718088, 7.2321088 ], [ -7.0851135, 7.1878619 ], [ -7.0526996, 7.1488241 ], [ -7.0424995, 7.090972 ], [ -7.062861, 7.0045599 ], [ -7.0632858, 6.9507647 ], [ -7.0389118, 6.9146361 ], [ -7.0594835, 6.8448765 ], [ -7.0055146, 6.8312674 ], [ -6.9827857, 6.7507971 ], [ -6.9896512, 6.7231186 ], [ -6.986681, 6.6234053 ], [ -7.0209331, 6.5906751 ], [ -6.9999404, 6.5569099 ], [ -7.1298146, 6.4587467 ], [ -7.1562614, 6.4324274 ], [ -7.1275253, 6.40489 ], [ -7.1703057, 6.3743668 ], [ -7.1834531, 6.318907 ], [ -7.1701016, 6.2653342 ], [ -7.204124, 6.2301133 ], [ -7.1811519, 6.1825794 ], [ -7.153841, 6.1847605 ], [ -7.1078005, 6.1531057 ], [ -7.0841231, 6.0578011 ], [ -7.0907211, 5.8888187 ], [ -7.0877062, 5.666865 ], [ -7.2552834, 5.6458146 ], [ -7.2730856, 5.6205315 ], [ -7.3043651, 5.6283473 ], [ -7.377948, 5.6217021 ], [ -7.40435, 5.64773 ], [ -7.44132, 5.7537 ], [ -7.42979, 5.83201 ], [ -7.4708409, 5.8378654 ], [ -7.469545, 5.8341495 ], [ -7.46905, 5.83273 ], [ -7.47371, 5.82287 ], [ -7.4752976, 5.812617 ], [ -7.47563, 5.81047 ], [ -7.4768068, 5.810641 ], [ -7.51794, 5.83878 ], [ -7.51953, 5.84132 ], [ -7.51074, 5.85023 ], [ -7.51254, 5.85599 ], [ -7.519184, 5.8590164 ], [ -7.5230459, 5.8555323 ], [ -7.5316516, 5.8494411 ], [ -7.53808, 5.84948 ], [ -7.5381624, 5.8464503 ], [ -7.53978, 5.83478 ], [ -7.5430649, 5.8349286 ], [ -7.56119, 5.86319 ], [ -7.56319, 5.863518 ], [ -7.56991, 5.86462 ], [ -7.57195, 5.86877 ], [ -7.5712221, 5.8697989 ], [ -7.5689751, 5.8729752 ], [ -7.5533411, 5.8693503 ], [ -7.5530293, 5.8711531 ], [ -7.59358, 5.89948 ], [ -7.5948077, 5.8953304 ], [ -7.60236, 5.89057 ], [ -7.6046023, 5.8990788 ], [ -7.6080633, 5.897293 ], [ -7.61151, 5.89729 ], [ -7.6136681, 5.9070936 ], [ -7.6148492, 5.9073705 ], [ -7.62293, 5.90701 ], [ -7.63188, 5.90914 ], [ -7.63762, 5.90848 ], [ -7.6438815, 5.9146302 ], [ -7.6524146, 5.9160672 ], [ -7.6544786, 5.9153175 ], [ -7.656131, 5.9151722 ], [ -7.65963, 5.91575 ], [ -7.65787, 5.93987 ], [ -7.6589398, 5.9439901 ], [ -7.66056, 5.95023 ], [ -7.66331, 5.95071 ], [ -7.6808045, 5.9278441 ], [ -7.6818417, 5.9241293 ], [ -7.68209, 5.92324 ], [ -7.6774974, 5.9109229 ], [ -7.7031916, 5.9120383 ], [ -7.71358, 5.9193 ], [ -7.71858, 5.92829 ], [ -7.73943, 5.93784 ], [ -7.7584, 5.95335 ], [ -7.762369, 5.9652127 ], [ -7.76357, 5.97085 ], [ -7.76608, 5.97477 ], [ -7.7819172, 5.9801642 ], [ -7.7707618, 6.0359255 ], [ -7.77257, 6.0394 ], [ -7.79042, 6.05122 ], [ -7.7909464, 6.0524257 ], [ -7.7969329, 6.0880428 ], [ -7.80212, 6.0922 ], [ -7.84426, 6.07683 ], [ -7.84191, 6.08508 ], [ -7.8477613, 6.0923583 ], [ -7.84829, 6.09408 ], [ -7.8315811, 6.1599421 ], [ -7.83522, 6.16663 ], [ -7.8346373, 6.1710509 ], [ -7.834134, 6.1759748 ], [ -7.8389511, 6.1823732 ], [ -7.8395403, 6.1855928 ], [ -7.836691, 6.1882391 ], [ -7.82058, 6.19366 ], [ -7.8238655, 6.1971667 ], [ -7.8284654, 6.2020764 ], [ -7.8410176, 6.2154739 ], [ -7.8439048, 6.2185555 ], [ -7.8496045, 6.2246391 ], [ -7.85414, 6.22948 ], [ -7.88985, 6.25244 ], [ -7.89439, 6.26142 ], [ -7.89959, 6.27708 ], [ -7.90164, 6.27985 ], [ -7.9123383, 6.2706586 ], [ -7.91341, 6.27073 ], [ -7.9138277, 6.2733237 ], [ -7.9161287, 6.284369 ], [ -7.91745, 6.28661 ], [ -7.92158, 6.28847 ], [ -7.922516, 6.2860434 ], [ -7.96529, 6.28114 ], [ -7.991547, 6.2954461 ], [ -7.99206, 6.3006 ], [ -7.9925464, 6.3013037 ], [ -7.9954047, 6.3054387 ], [ -8.04027, 6.30891 ], [ -8.11856, 6.2804 ], [ -8.1716708, 6.2756427 ], [ -8.1746, 6.286 ], [ -8.1770302, 6.2879111 ], [ -8.18284, 6.29248 ], [ -8.19518, 6.3045 ], [ -8.1963677, 6.3030898 ], [ -8.2034817, 6.3034344 ], [ -8.20619, 6.30892 ], [ -8.2077127, 6.3074709 ], [ -8.2106702, 6.3046564 ], [ -8.21678, 6.30369 ], [ -8.225362, 6.3089353 ], [ -8.24106, 6.31853 ], [ -8.249418, 6.3191175 ], [ -8.2519514, 6.3201477 ], [ -8.2520801, 6.3202 ], [ -8.2553018, 6.3193437 ], [ -8.2620224, 6.3184471 ], [ -8.2670728, 6.3190229 ], [ -8.2674978, 6.3190713 ], [ -8.27231, 6.31962 ], [ -8.2762137, 6.3198737 ], [ -8.277265, 6.3209342 ], [ -8.27965, 6.32334 ], [ -8.27571, 6.32746 ], [ -8.26927, 6.32972 ], [ -8.26694, 6.33568 ], [ -8.2685955, 6.3376587 ], [ -8.26945, 6.33868 ], [ -8.2752, 6.33848 ], [ -8.27725, 6.34125 ], [ -8.28043, 6.34678 ], [ -8.284403, 6.3471381 ], [ -8.3037758, 6.3466748 ], [ -8.3081827, 6.3579577 ], [ -8.3107231, 6.3557404 ], [ -8.31211, 6.35453 ], [ -8.31647, 6.35548 ], [ -8.32355, 6.36287 ], [ -8.3294374, 6.3659152 ], [ -8.3357065, 6.3698458 ], [ -8.3381118, 6.3718104 ], [ -8.33936, 6.37283 ], [ -8.3426, 6.36917 ], [ -8.3647954, 6.3608705 ], [ -8.36548, 6.36187 ], [ -8.36928, 6.36472 ], [ -8.3718157, 6.3628931 ], [ -8.3944263, 6.3504547 ], [ -8.39691, 6.35498 ], [ -8.3994676, 6.3569786 ], [ -8.4081511, 6.3637644 ], [ -8.4110524, 6.3672207 ], [ -8.4051, 6.36996 ], [ -8.3847665, 6.3833021 ], [ -8.39256, 6.39448 ], [ -8.3925798, 6.3947607 ], [ -8.3927421, 6.3970639 ], [ -8.4011308, 6.4229562 ], [ -8.4073501, 6.4221305 ], [ -8.40588, 6.43095 ], [ -8.4002366, 6.432729 ], [ -8.4383858, 6.4816091 ], [ -8.45166, 6.48873 ], [ -8.45774, 6.48684 ], [ -8.45654, 6.47116 ], [ -8.49027, 6.43244 ], [ -8.52796, 6.47858 ], [ -8.54053, 6.4922 ], [ -8.5457932, 6.4943727 ], [ -8.54787, 6.49523 ], [ -8.5961463, 6.502303 ], [ -8.5993, 6.50559 ], [ -8.5686622, 6.51877 ], [ -8.55541, 6.5488 ], [ -8.5625857, 6.5507906 ], [ -8.5631472, 6.5545979 ], [ -8.562329, 6.5568285 ], [ -8.5536574, 6.5635167 ], [ -8.5466, 6.56231 ], [ -8.53974, 6.55607 ], [ -8.5295923, 6.5748515 ], [ -8.5308662, 6.5763829 ], [ -8.53113, 6.5767 ], [ -8.53036, 6.59209 ], [ -8.52867, 6.60816 ], [ -8.52112, 6.601 ], [ -8.52276, 6.59435 ], [ -8.49722, 6.6154 ], [ -8.49391, 6.61602 ], [ -8.4477303, 6.6546086 ], [ -8.44311, 6.65941 ], [ -8.40183, 6.68239 ], [ -8.38898, 6.72184 ], [ -8.38576, 6.72205 ], [ -8.3829335, 6.7194002 ], [ -8.38042, 6.72524 ], [ -8.381514, 6.7264166 ], [ -8.3831947, 6.7282349 ], [ -8.3793043, 6.7318581 ], [ -8.36982, 6.73621 ], [ -8.3677396, 6.7439005 ], [ -8.36771, 6.74401 ], [ -8.36449, 6.74445 ], [ -8.3517727, 6.7614986 ], [ -8.34945, 6.76091 ], [ -8.3473814, 6.7619315 ], [ -8.3450437, 6.7622749 ], [ -8.3437, 6.76202 ], [ -8.34056, 6.79072 ], [ -8.30843, 6.86221 ], [ -8.3093811, 6.8618773 ], [ -8.31813, 6.85537 ], [ -8.3197608, 6.8582081 ], [ -8.33203, 6.87956 ], [ -8.33133, 6.88139 ], [ -8.3305991, 6.8843654 ], [ -8.3230009, 6.8912215 ], [ -8.32619, 6.89675 ], [ -8.3254891, 6.8977346 ], [ -8.32456, 6.89904 ], [ -8.3101574, 6.9036459 ], [ -8.30888, 6.90631 ], [ -8.31524, 6.92219 ], [ -8.3163265, 6.9273882 ], [ -8.31793, 6.93506 ], [ -8.3218857, 6.9566717 ], [ -8.32148, 6.95942 ], [ -8.324039, 6.9644329 ], [ -8.32489, 6.9661 ], [ -8.32165, 6.96976 ], [ -8.3118641, 6.972256 ], [ -8.30967, 6.97429 ], [ -8.305413, 6.9737168 ], [ -8.3017111, 6.9742489 ], [ -8.2930517, 6.9838481 ], [ -8.2882747, 6.985411 ], [ -8.2847516, 6.9879384 ], [ -8.2845045, 6.9899572 ], [ -8.2836047, 6.9973503 ], [ -8.29938, 7.08883 ], [ -8.28413, 7.18518 ], [ -8.285798, 7.183037 ], [ -8.2917974, 7.1834425 ], [ -8.29425, 7.18684 ], [ -8.2976703, 7.1870698 ], [ -8.30184, 7.18735 ], [ -8.30364, 7.19447 ], [ -8.30755, 7.19426 ], [ -8.31419, 7.20096 ], [ -8.3150088, 7.2013001 ], [ -8.31809, 7.20258 ], [ -8.33049, 7.20564 ], [ -8.3313708, 7.213671 ], [ -8.33571, 7.21921 ], [ -8.34601, 7.2296 ], [ -8.3572295, 7.2342374 ], [ -8.35726, 7.23425 ], [ -8.3589913, 7.2383088 ], [ -8.35337, 7.27326 ], [ -8.3584117, 7.2741533 ], [ -8.3606478, 7.2816463 ], [ -8.37277, 7.30206 ], [ -8.38988, 7.32878 ], [ -8.39889, 7.40917 ], [ -8.40983, 7.42897 ], [ -8.40554, 7.45627 ], [ -8.40961, 7.46914 ], [ -8.4086389, 7.4732138 ], [ -8.4144193, 7.4941836 ], [ -8.4260063, 7.5078019 ], [ -8.46449, 7.53643 ], [ -8.4697423, 7.5488334 ], [ -8.4704493, 7.5505029 ], [ -8.4721772, 7.5545834 ], [ -8.47218, 7.55459 ], [ -8.40548, 7.61121 ], [ -8.39302, 7.61219 ], [ -8.3879031, 7.6089703 ], [ -8.3748361, 7.5760714 ], [ -8.36935, 7.57275 ], [ -8.34648, 7.57886 ], [ -8.3232024, 7.5988469 ], [ -8.3128637, 7.6004127 ], [ -8.3079407, 7.6009045 ], [ -8.30278, 7.60142 ], [ -8.2989593, 7.5970997 ], [ -8.2932516, 7.5806671 ], [ -8.29245, 7.57991 ], [ -8.2918891, 7.5793805 ], [ -8.21491, 7.53373 ], [ -8.1882966, 7.5534223 ], [ -8.1866968, 7.5559694 ], [ -8.177324, 7.57208 ], [ -8.1740293, 7.5788042 ], [ -8.17263, 7.58166 ], [ -8.17205, 7.6123306 ], [ -8.1720382, 7.612958 ], [ -8.17191, 7.61995 ], [ -8.1429258, 7.6631406 ], [ -8.1406357, 7.685654 ], [ -8.1404878, 7.6871085 ], [ -8.13986, 7.69328 ], [ -8.1291211, 7.7049083 ], [ -8.09404, 7.72204 ], [ -8.0717708, 7.8083408 ], [ -8.0746796, 7.8112715 ], [ -8.11466, 7.84477 ], [ -8.1165121, 7.855045 ], [ -8.11662, 7.8623464 ], [ -8.11557, 7.86909 ], [ -8.10718, 7.88457 ], [ -8.1058331, 7.8860057 ], [ -8.09413, 7.89848 ], [ -8.0847042, 7.9128233 ], [ -8.0655792, 7.9589904 ], [ -8.0622, 7.97033 ], [ -8.0631338, 8.0118806 ], [ -8.0585385, 8.0209388 ], [ -8.046343, 8.0304011 ], [ -8.04074, 8.0328 ], [ -8.0371836, 8.0317922 ], [ -8.03153, 8.03019 ], [ -8.0273209, 8.031157 ], [ -8.02432, 8.03306 ], [ -8.0205913, 8.0327746 ], [ -8.00982, 8.03195 ], [ -8.0080934, 8.0336899 ], [ -7.9976479, 8.0381759 ], [ -7.9947624, 8.0370753 ], [ -7.9887425, 8.0173366 ], [ -7.98605, 8.0181 ], [ -7.98223, 8.01048 ], [ -7.9803764, 8.0117501 ], [ -7.95963, 8.01294 ], [ -7.956171, 8.0095396 ], [ -7.950559, 8.0072157 ], [ -7.94819, 8.00728 ], [ -7.9463436, 8.0145568 ], [ -7.94693, 8.01576 ], [ -7.9467443, 8.0187188 ], [ -7.946372, 8.0246495 ], [ -7.9021816, 8.0067598 ], [ -7.8565669, 8.0190983 ], [ -7.8465009, 7.9582973 ], [ -7.7962971, 7.9343293 ], [ -7.7646761, 7.8888266 ], [ -7.7233519, 7.882764 ], [ -7.6780667, 7.8472535 ], [ -7.636714, 7.8417312 ], [ -7.6112938, 7.8557776 ], [ -7.5297327, 7.8691561 ], [ -7.5068955, 7.9243943 ], [ -7.5242286, 7.9399963 ], [ -7.5091481, 8.0389727 ], [ -7.5180855, 8.0799238 ], [ -7.4730348, 8.1466436 ], [ -7.4364462, 8.1552985 ], [ -7.4274192, 8.1277549 ], [ -7.2989764, 8.0643748 ], [ -7.2591872, 8.0128916 ], [ -7.2493133, 7.978087 ], [ -7.1189418, 7.9788395 ], [ -7.0686412, 7.9887151 ], [ -7.0725355, 7.9266197 ], [ -7.1177244, 7.8797238 ], [ -7.077465, 7.8505609 ], [ -7.0806537, 7.796154 ] ] ] ] } },
{ "type": "Feature", "properties": { "POLYGON_ID": "CIV_GAUL1999_ADM1_1042", "ADM0_ISO3": "CIV", "ADM0_NAME": "Côte d'Ivoire", "ADM0_CODE": 66, "ADM1_NAME": "Haut-sassandra", "ADM1_CODE": 1042, "GEOSET": "GAUL", "GEOSET_YEAR": 1999.0, "GEOSET_VERSION": "GAUL_v1", "GEOSET_UNIT": "ADM1", "CENTROID_LONG": -6.4751959775756909, "CENTROID_LAT": 6.8222764967429592 }, "geometry": { "type": "MultiPolygon", "coordinates": [ [ [ [ -6.1151027, 7.6417941 ], [ -6.3295269, 7.5197911 ], [ -6.3264518, 7.4553318 ], [ -6.3867779, 7.4080882 ], [ -6.400455, 7.3840818 ], [ -6.3955531, 7.3100472 ], [ -6.4036832, 7.267374 ], [ -6.3539281, 7.230876 ], [ -6.3387442, 7.1968169 ], [ -6.30193, 7.1692128 ], [ -6.2525668, 7.2223659 ], [ -6.1831398, 7.2603841 ], [ -5.938725, 7.1757598 ], [ -5.9986482, 7.1649609 ], [ -6.1962938, 7.01652 ], [ -6.205976, 6.8932829 ], [ -6.1745749, 6.816978 ], [ -6.1705699, 6.7421851 ], [ -6.1492019, 6.7063441 ], [ -6.157022, 6.678175 ], [ -6.1356788, 6.634243 ], [ -6.1077342, 6.6151509 ], [ -6.1080289, 6.5742402 ], [ -6.0408678, 6.5305209 ], [ -5.9316812, 6.5282102 ], [ -5.7421222, 6.5002012 ], [ -5.770812, 6.3447442 ], [ -5.7405758, 6.2014651 ], [ -5.794847, 6.005713 ], [ -5.791605, 5.9391098 ], [ -5.835609, 5.9132838 ], [ -5.9468288, 5.7730861 ], [ -5.982203, 5.7806039 ], [ -5.998807, 5.713985 ], [ -6.0275327, 5.6557804 ], [ -6.0503789, 5.6732589 ], [ -6.1165076, 5.7725723 ], [ -6.1888718, 5.7704075 ], [ -6.2202115, 5.7557293 ], [ -6.2470093, 5.8063386 ], [ -6.2506027, 5.8470137 ], [ -6.2771453, 5.8665182 ], [ -6.2900324, 5.9363973 ], [ -6.3555055, 6.0346226 ], [ -6.4120602, 6.1647772 ], [ -6.4044428, 6.2976915 ], [ -6.4372916, 6.2933448 ], [ -6.5073581, 6.2615667 ], [ -6.5898022, 6.3204657 ], [ -6.6140175, 6.3000624 ], [ -6.6794738, 6.2965718 ], [ -6.8086295, 6.2748203 ], [ -6.868124, 6.2813631 ], [ -6.9341788, 6.3758237 ], [ -6.9787693, 6.422514 ], [ -6.9870539, 6.4479177 ], [ -6.951952, 6.4884603 ], [ -6.9800014, 6.5519468 ], [ -6.9999404, 6.5569099 ], [ -7.0209331, 6.5906751 ], [ -6.986681, 6.6234053 ], [ -6.9896512, 6.7231186 ], [ -6.9827857, 6.7507971 ], [ -7.0055146, 6.8312674 ], [ -7.0594835, 6.8448765 ], [ -7.0389118, 6.9146361 ], [ -7.0632858, 6.9507647 ], [ -7.062861, 7.0045599 ], [ -7.0424995, 7.090972 ], [ -7.0526996, 7.1488241 ], [ -7.0851135, 7.1878619 ], [ -7.0718088, 7.2321088 ], [ -7.0587935, 7.3381119 ], [ -7.0818934, 7.3701613 ], [ -7.0047917, 7.4411069 ], [ -7.0398579, 7.5420426 ], [ -6.9876909, 7.5543221 ], [ -6.9868307, 7.5830252 ], [ -7.0184269, 7.6160163 ], [ -7.0425801, 7.6116326 ], [ -7.0672202, 7.642542 ], [ -7.0806537, 7.796154 ], [ -6.9982843, 7.8039423 ], [ -6.6179843, 7.8007419 ], [ -6.461925, 7.7359569 ], [ -6.3679915, 7.7717946 ], [ -6.2430854, 7.7806959 ], [ -6.2124324, 7.7292337 ], [ -6.2133165, 7.6848658 ], [ -6.1151027, 7.6417941 ] ] ] ] } },
{ "type": "Feature", "properties": { "POLYGON_ID": "CIV_GAUL1999_ADM1_62058", "ADM0_ISO3": "CIV", "ADM0_NAME": "Côte d'Ivoire", "ADM0_CODE": 66, "ADM1_NAME": "Marahoue", "ADM1_CODE": 62058, "GEOSET": "GAUL", "GEOSET_YEAR": 1999.0, "GEOSET_VERSION": "GAUL_v1", "GEOSET_UNIT": "ADM1", "CENTROID_LONG": -5.8191414757491335, "CENTROID_LAT": 6.9443840261278797 }, "geometry": { "type": "MultiPolygon", "coordinates": [ [ [ [ -5.7258298, 7.5443888 ], [ -5.7350535, 7.4988745 ], [ -5.7162785, 7.4609815 ], [ -5.7344322, 7.4066952 ], [ -5.721076, 7.3291417 ], [ -5.653399, 7.2768277 ], [ -5.6508102, 7.250052 ], [ -5.6744223, 7.2206103 ], [ -5.603456, 7.1867657 ], [ -5.6101713, 7.154935 ], [ -5.5532488, 7.1416732 ], [ -5.5238724, 7.1584917 ], [ -5.4810466, 7.1336079 ], [ -5.4957375, 7.1069108 ], [ -5.4840136, 7.0279693 ], [ -5.5012932, 6.9880955 ], [ -5.5053387, 6.9309568 ], [ -5.5298467, 6.9130826 ], [ -5.5139732, 6.8643266 ], [ -5.4904423, 6.8524587 ], [ -5.4878659, 6.8100154 ], [ -5.4427652, 6.7774217 ], [ -5.4057078, 6.7047779 ], [ -5.3996992, 6.668191 ], [ -5.4160705, 6.6327554 ], [ -5.3962589, 6.5981254 ], [ -5.3555917, 6.6023836 ], [ -5.3059511, 6.5883716 ], [ -5.3067131, 6.5428444 ], [ -5.3233619, 6.5108187 ], [ -5.3181768, 6.408322 ], [ -5.2963986, 6.3569702 ], [ -5.2465777, 6.3723806 ], [ -5.2034605, 6.3714049 ], [ -5.2392871, 6.2412954 ], [ -5.28444, 6.2543859 ], [ -5.4804592, 6.1656671 ], [ -5.6763139, 6.1870942 ], [ -5.7405758, 6.2014651 ], [ -5.770812, 6.3447442 ], [ -5.7421222, 6.5002012 ], [ -5.9316812, 6.5282102 ], [ -6.0408678, 6.5305209 ], [ -6.1080289, 6.5742402 ], [ -6.1077342, 6.6151509 ], [ -6.1356788, 6.634243 ], [ -6.157022, 6.678175 ], [ -6.1492019, 6.7063441 ], [ -6.1705699, 6.7421851 ], [ -6.1745749, 6.816978 ], [ -6.205976, 6.8932829 ], [ -6.1962938, 7.01652 ], [ -5.9986482, 7.1649609 ], [ -5.938725, 7.1757598 ], [ -6.1831398, 7.2603841 ], [ -6.2525668, 7.2223659 ], [ -6.30193, 7.1692128 ], [ -6.3387442, 7.1968169 ], [ -6.3539281, 7.230876 ], [ -6.4036832, 7.267374 ], [ -6.3955531, 7.3100472 ], [ -6.400455, 7.3840818 ], [ -6.3867779, 7.4080882 ], [ -6.3264518, 7.4553318 ], [ -6.3295269, 7.5197911 ], [ -6.1151027, 7.6417941 ], [ -6.0741446, 7.6570632 ], [ -6.0607485, 7.7166258 ], [ -6.036613, 7.7481759 ], [ -5.976316, 7.7533439 ], [ -5.9522438, 7.7301611 ], [ -5.7946081, 7.7424676 ], [ -5.7829881, 7.6718157 ], [ -5.7979331, 7.6332906 ], [ -5.7404089, 7.5849319 ], [ -5.7258298, 7.5443888 ] ] ] ] } },
{ "type": "Feature", "properties": { "POLYGON_ID": "CIV_GAUL1999_ADM1_1052", "ADM0_ISO3": "CIV", "ADM0_NAME": "Côte d'Ivoire", "ADM0_CODE": 66, "ADM1_NAME": "Worodougou", "ADM1_CODE": 1052, "GEOSET": "GAUL", "GEOSET_YEAR": 1999.0, "GEOSET_VERSION": "GAUL_v1", "GEOSET_UNIT": "ADM1", "CENTROID_LONG": -6.7547094915398462, "CENTROID_LAT": 8.3796831941405472 }, "geometry": { "type": "MultiPolygon", "coordinates": [ [ [ [ -5.6410675, 8.5454586 ], [ -5.6213369, 8.5483789 ], [ -5.5756598, 8.4881277 ], [ -5.6310386, 8.4386881 ], [ -5.58565, 8.4171561 ], [ -5.5507136, 8.3831939 ], [ -5.5078406, 8.3830814 ], [ -5.3942504, 8.3045444 ], [ -5.3672152, 8.2371587 ], [ -5.3478155, 8.2230223 ], [ -5.3517241, 8.1772919 ], [ -5.3888616, 8.1690206 ], [ -5.3974043, 8.105817 ], [ -5.5193639, 8.110653 ], [ -5.5152402, 8.085412 ], [ -5.5691503, 8.0243379 ], [ -5.7264448, 8.0270064 ], [ -5.7496348, 7.977702 ], [ -5.7694721, 7.8972665 ], [ -5.7694291, 7.8018085 ], [ -5.7382063, 7.751789 ], [ -5.6887535, 7.7005669 ], [ -5.6883248, 7.6322855 ], [ -5.7028052, 7.6029308 ], [ -5.6963022, 7.5482585 ], [ -5.7258298, 7.5443888 ], [ -5.7404089, 7.5849319 ], [ -5.7979331, 7.6332906 ], [ -5.7829881, 7.6718157 ], [ -5.7946081, 7.7424676 ], [ -5.9522438, 7.7301611 ], [ -5.976316, 7.7533439 ], [ -6.036613, 7.7481759 ], [ -6.0607485, 7.7166258 ], [ -6.0741446, 7.6570632 ], [ -6.1151027, 7.6417941 ], [ -6.2133165, 7.6848658 ], [ -6.2124324, 7.7292337 ], [ -6.2430854, 7.7806959 ], [ -6.3679915, 7.7717946 ], [ -6.461925, 7.7359569 ], [ -6.6179843, 7.8007419 ], [ -6.9982843, 7.8039423 ], [ -7.0806537, 7.796154 ], [ -7.077465, 7.8505609 ], [ -7.1177244, 7.8797238 ], [ -7.0725355, 7.9266197 ], [ -7.0686412, 7.9887151 ], [ -7.1189418, 7.9788395 ], [ -7.2493133, 7.978087 ], [ -7.2591872, 8.0128916 ], [ -7.2989764, 8.0643748 ], [ -7.4274192, 8.1277549 ], [ -7.4364462, 8.1552985 ], [ -7.4730348, 8.1466436 ], [ -7.5180855, 8.0799238 ], [ -7.5091481, 8.0389727 ], [ -7.5242286, 7.9399963 ], [ -7.5068955, 7.9243943 ], [ -7.5297327, 7.8691561 ], [ -7.6112938, 7.8557776 ], [ -7.636714, 7.8417312 ], [ -7.6780667, 7.8472535 ], [ -7.7233519, 7.882764 ], [ -7.7646761, 7.8888266 ], [ -7.7962971, 7.9343293 ], [ -7.8465009, 7.9582973 ], [ -7.8565669, 8.0190983 ], [ -7.9021816, 8.0067598 ], [ -7.946372, 8.0246495 ], [ -7.9472198, 8.0263116 ], [ -7.95042, 8.0305 ], [ -7.98111, 8.07934 ], [ -8.0125278, 8.0980674 ], [ -8.01445, 8.10226 ], [ -8.010151, 8.1148211 ], [ -8.0143401, 8.1195303 ], [ -8.01543, 8.12459 ], [ -8.0076203, 8.1421717 ], [ -8.0085197, 8.1479858 ], [ -8.0095565, 8.1600417 ], [ -8.00898, 8.16378 ], [ -7.9997632, 8.1725734 ], [ -7.9952539, 8.1781011 ], [ -7.9933, 8.18356 ], [ -8.00418, 8.19862 ], [ -8.005761, 8.1968252 ], [ -8.00699, 8.19543 ], [ -8.013364, 8.1918485 ], [ -8.0168111, 8.1878748 ], [ -8.01793, 8.18638 ], [ -8.0373856, 8.2050253 ], [ -8.0396, 8.20547 ], [ -8.0525772, 8.1789526 ], [ -8.06451, 8.16444 ], [ -8.0678419, 8.1622313 ], [ -8.0687054, 8.1616589 ], [ -8.06893, 8.16151 ], [ -8.0853496, 8.1660651 ], [ -8.0937329, 8.1730616 ], [ -8.0952324, 8.1738984 ], [ -8.1028427, 8.1810863 ], [ -8.10374, 8.18398 ], [ -8.16672, 8.19641 ], [ -8.1703457, 8.1973601 ], [ -8.23031, 8.22603 ], [ -8.23878, 8.2276398 ], [ -8.2455275, 8.2314228 ], [ -8.24666, 8.23348 ], [ -8.2475998, 8.2351973 ], [ -8.2484585, 8.2460575 ], [ -8.24877, 8.25371 ], [ -8.2473959, 8.2575275 ], [ -8.2463812, 8.2603467 ], [ -8.2379878, 8.2683698 ], [ -8.232023, 8.275535 ], [ -8.2302401, 8.2803597 ], [ -8.23175, 8.28911 ], [ -8.2314945, 8.2918169 ], [ -8.23797, 8.32776 ], [ -8.2287709, 8.3453282 ], [ -8.228392, 8.3464996 ], [ -8.22566, 8.35494 ], [ -8.2257767, 8.359127 ], [ -8.2294368, 8.3720015 ], [ -8.2368, 8.39505 ], [ -8.2371835, 8.3981623 ], [ -8.23837, 8.40779 ], [ -8.2380378, 8.4118198 ], [ -8.23784, 8.41422 ], [ -8.23975, 8.42917 ], [ -8.2405566, 8.431018 ], [ -8.2427252, 8.4470853 ], [ -8.24158, 8.45043 ], [ -8.2421985, 8.4551161 ], [ -8.24243, 8.45687 ], [ -8.2415007, 8.4590477 ], [ -8.24077, 8.46076 ], [ -8.23541, 8.46575 ], [ -8.2350606, 8.4657457 ], [ -8.23379, 8.46573 ], [ -8.2334935, 8.4618095 ], [ -8.23042, 8.45896 ], [ -8.2264221, 8.4585979 ], [ -8.2211344, 8.4591793 ], [ -8.22048, 8.4596 ], [ -8.2062407, 8.4813852 ], [ -8.20592, 8.4817 ], [ -8.1983, 8.50159 ], [ -8.1977418, 8.5020406 ], [ -8.187, 8.50099 ], [ -8.1839833, 8.4996649 ], [ -8.1724687, 8.4958308 ], [ -8.16957, 8.49228 ], [ -8.164971, 8.4950716 ], [ -8.1625563, 8.4965373 ], [ -8.16214, 8.49679 ], [ -8.15776, 8.49628 ], [ -8.1573182, 8.4954455 ], [ -8.15641, 8.49373 ], [ -8.1572115, 8.4915755 ], [ -8.1576, 8.49053 ], [ -8.15696, 8.48616 ], [ -8.1533, 8.48405 ], [ -8.1515443, 8.4880925 ], [ -8.1422386, 8.494943 ], [ -8.1391, 8.4942 ], [ -8.1301983, 8.4873123 ], [ -8.1295, 8.4872 ], [ -8.1274009, 8.4883249 ], [ -8.1197942, 8.4814939 ], [ -8.11966, 8.48065 ], [ -8.1190634, 8.481069 ], [ -8.1082024, 8.4886974 ], [ -8.1020015, 8.4956385 ], [ -8.09838, 8.50404 ], [ -8.09536, 8.50584 ], [ -8.0910815, 8.5033147 ], [ -8.0718589, 8.5024171 ], [ -8.06959, 8.50382 ], [ -8.0658893, 8.5061298 ], [ -8.05551, 8.50075 ], [ -8.0518513, 8.4988657 ], [ -8.028677, 8.4956137 ], [ -8.02259, 8.49505 ], [ -8.0114688, 8.4885265 ], [ -8.00977, 8.48753 ], [ -8.0072387, 8.4883349 ], [ -8.0048488, 8.4890949 ], [ -7.9861501, 8.4840358 ], [ -7.98514, 8.48377 ], [ -7.98049, 8.48624 ], [ -7.9803982, 8.4865111 ], [ -7.9756593, 8.4951513 ], [ -7.97087, 8.49874 ], [ -7.9630079, 8.4933808 ], [ -7.95731, 8.49467 ], [ -7.9516464, 8.4938609 ], [ -7.95017, 8.49365 ], [ -7.9474452, 8.4962143 ], [ -7.9444737, 8.4990108 ], [ -7.9292108, 8.4913109 ], [ -7.9243915, 8.4895604 ], [ -7.9135787, 8.4828962 ], [ -7.91481, 8.48171 ], [ -7.9218844, 8.4800902 ], [ -7.91857, 8.47624 ], [ -7.9121889, 8.4653347 ], [ -7.9117272, 8.4633581 ], [ -7.9114302, 8.4580034 ], [ -7.9152605, 8.460452 ], [ -7.91712, 8.46359 ], [ -7.91944, 8.4627 ], [ -7.9200861, 8.46069 ], [ -7.9110801, 8.44904 ], [ -7.90972, 8.44765 ], [ -7.9090702, 8.4375566 ], [ -7.88475, 8.43491 ], [ -7.8842648, 8.4332445 ], [ -7.8684816, 8.4209983 ], [ -7.8643609, 8.4207473 ], [ -7.8333806, 8.4475909 ], [ -7.83771, 8.46851 ], [ -7.8361482, 8.4756391 ], [ -7.8341909, 8.4823315 ], [ -7.8317, 8.4868 ], [ -7.8115796, 8.4802179 ], [ -7.80826, 8.48006 ], [ -7.80368, 8.47701 ], [ -7.7891421, 8.4643624 ], [ -7.78841, 8.46371 ], [ -7.78038, 8.44362 ], [ -7.7774351, 8.4377247 ], [ -7.7517405, 8.3789213 ], [ -7.7498706, 8.3773363 ], [ -7.7066346, 8.3729756 ], [ -7.69536, 8.37102 ], [ -7.6944489, 8.3713332 ], [ -7.6895313, 8.3730037 ], [ -7.6874075, 8.3726589 ], [ -7.68335, 8.372 ], [ -7.680078, 8.3731159 ], [ -7.65173, 8.37455 ], [ -7.6438154, 8.3766883 ], [ -7.6497, 8.38788 ], [ -7.6507933, 8.3932643 ], [ -7.6681613, 8.4147918 ], [ -7.67311, 8.42824 ], [ -7.6757516, 8.4328965 ], [ -7.68015, 8.44065 ], [ -7.6811591, 8.4468227 ], [ -7.68143, 8.44848 ], [ -7.6806927, 8.4516949 ], [ -7.67575, 8.45943 ], [ -7.6744497, 8.4628581 ], [ -7.67168, 8.47016 ], [ -7.6670816, 8.4778976 ], [ -7.65942, 8.49067 ], [ -7.6601492, 8.4974193 ], [ -7.6633649, 8.5105854 ], [ -7.66601, 8.51602 ], [ -7.6744665, 8.5245046 ], [ -7.67808, 8.52813 ], [ -7.6791097, 8.5304004 ], [ -7.68291, 8.53878 ], [ -7.6843602, 8.5419901 ], [ -7.69702, 8.58029 ], [ -7.6983375, 8.5811012 ], [ -7.69931, 8.5817 ], [ -7.7003796, 8.5880906 ], [ -7.7064633, 8.6047544 ], [ -7.71154, 8.61746 ], [ -7.7120881, 8.6211372 ], [ -7.7521413, 8.723326 ], [ -7.7525933, 8.7253461 ], [ -7.75263, 8.72551 ], [ -7.7543127, 8.7279338 ], [ -7.77266, 8.76712 ], [ -7.7741627, 8.7679123 ], [ -7.7816, 8.77183 ], [ -7.7865801, 8.7726771 ], [ -7.8320051, 8.76999 ], [ -7.84553, 8.77679 ], [ -7.8551115, 8.7773274 ], [ -7.8557944, 8.7773657 ], [ -7.9011, 8.76531 ], [ -7.9016425, 8.765317 ], [ -7.9205012, 8.7672671 ], [ -7.92578, 8.76929 ], [ -7.96256, 8.82167 ], [ -7.9607797, 8.8326459 ], [ -7.95482, 8.86936 ], [ -7.9519843, 8.8794676 ], [ -7.94589, 8.90119 ], [ -7.9361613, 8.9269744 ], [ -7.9174292, 8.9688425 ], [ -7.9174947, 8.9692324 ], [ -7.91828, 9.00401 ], [ -7.913383, 9.0098774 ], [ -7.9002545, 9.0240816 ], [ -7.89602, 9.02809 ], [ -7.8719409, 9.0376359 ], [ -7.85379, 9.05927 ], [ -7.8513225, 9.0614813 ], [ -7.8500975, 9.062582 ], [ -7.84093, 9.07083 ], [ -7.8027774, 9.0784848 ], [ -7.80153, 9.07721 ], [ -7.7938195, 9.0741888 ], [ -7.7861821, 9.0720126 ], [ -7.7808811, 9.0710631 ], [ -7.76491, 9.06617 ], [ -7.7587996, 9.0671435 ], [ -7.7372072, 9.0754669 ], [ -7.7367422, 9.0772216 ], [ -7.6858935, 9.0421658 ], [ -7.6748662, 8.967579 ], [ -7.6118364, 8.9536876 ], [ -7.5453186, 8.8825939 ], [ -7.533236, 8.8444264 ], [ -7.5096755, 8.8385029 ], [ -7.4515796, 8.7805745 ], [ -7.401165, 8.7584821 ], [ -7.3647604, 8.7095519 ], [ -7.365284, 8.6842639 ], [ -7.2798815, 8.6714041 ], [ -7.2408519, 8.6298734 ], [ -7.2158456, 8.6550314 ], [ -7.1898389, 8.7735852 ], [ -7.225276, 8.9284755 ], [ -7.2208719, 8.9575079 ], [ -7.1803274, 8.9536064 ], [ -7.1697917, 8.9933346 ], [ -7.1465049, 8.9995345 ], [ -7.1123295, 9.0458652 ], [ -7.0711408, 9.0301564 ], [ -7.0183592, 8.9688561 ], [ -6.9067259, 8.9806681 ], [ -6.8988533, 9.0489705 ], [ -6.8713164, 9.0773307 ], [ -6.8342089, 9.071355 ], [ -6.7566471, 9.1181486 ], [ -6.6971207, 9.1012087 ], [ -6.700355, 9.0627778 ], [ -6.610137, 9.0605496 ], [ -6.5698495, 9.0758884 ], [ -6.5772982, 9.1186828 ], [ -6.5671096, 9.1590843 ], [ -6.5036383, 9.1481811 ], [ -6.4776588, 9.0624398 ], [ -6.4428582, 9.0676975 ], [ -6.3408671, 9.2105303 ], [ -6.3052569, 9.1961572 ], [ -6.2594061, 9.2003366 ], [ -6.2210903, 9.1503637 ], [ -6.2680396, 9.0629051 ], [ -6.244842, 8.9951974 ], [ -6.1347589, 8.9423239 ], [ -6.1288057, 8.9121628 ], [ -5.9767918, 8.6544873 ], [ -5.904953, 8.6480171 ], [ -5.7081856, 8.539404 ], [ -5.6410675, 8.5454586 ] ] ] ] } },
{ "type": "Feature", "properties": { "POLYGON_ID": "CIV_GAUL1999_ADM1_1050", "ADM0_ISO3": "CIV", "ADM0_NAME": "Côte d'Ivoire", "ADM0_CODE": 66, "ADM1_NAME": "Sud Comoe", "ADM1_CODE": 1050, "GEOSET": "GAUL", "GEOSET_YEAR": 1999.0, "GEOSET_VERSION": "GAUL_v1", "GEOSET_UNIT": "ADM1", "CENTROID_LONG": -3.1817527774031573, "CENTROID_LAT": 5.4927124307302515 }, "geometry": { "type": "MultiPolygon", "coordinates": [ [ [ [ -3.8516742, 5.2250463 ], [ -3.7850396, 5.2719772 ], [ -3.7163341, 5.2979285 ], [ -3.7271632, 5.2509926 ], [ -3.6889468, 5.2308437 ], [ -3.6705543, 5.2565315 ], [ -3.61569, 5.268422 ], [ -3.6254078, 5.2970455 ], [ -3.5853196, 5.3717254 ], [ -3.5721409, 5.5428487 ], [ -3.5484054, 5.5662652 ], [ -3.437301, 5.6021623 ], [ -3.4260983, 5.7497208 ], [ -3.4320597, 5.7771265 ], [ -3.4019816, 5.7964802 ], [ -3.3960578, 5.8495845 ], [ -3.3212856, 5.892107 ], [ -3.2803619, 5.962091 ], [ -3.2286561, 6.0197778 ], [ -3.2240169, 6.089426 ], [ -3.1965189, 6.1468329 ], [ -3.198915, 6.1979952 ], [ -3.1738484, 6.2497327 ], [ -3.173463, 6.2485867 ], [ -3.1688646, 6.2487471 ], [ -3.1530507, 6.2492988 ], [ -3.1014238, 6.1507145 ], [ -3.0723207, 5.9880232 ], [ -3.0689933, 5.9794799 ], [ -3.0193625, 5.8520495 ], [ -3.0252804, 5.7408699 ], [ -3.0266985, 5.7142281 ], [ -3.0269578, 5.709356 ], [ -3.0255221, 5.7094851 ], [ -2.9535327, 5.715956 ], [ -2.9659078, 5.6408809 ], [ -2.9648065, 5.6387155 ], [ -2.9554545, 5.6331403 ], [ -2.9457428, 5.6331403 ], [ -2.9363909, 5.6214504 ], [ -2.9363909, 5.6167744 ], [ -2.887293, 5.6324209 ], [ -2.8801208, 5.6373384 ], [ -2.8797048, 5.6376235 ], [ -2.8739999, 5.6411342 ], [ -2.8699877, 5.6408208 ], [ -2.8635973, 5.6486894 ], [ -2.8590521, 5.6510338 ], [ -2.8578256, 5.6516664 ], [ -2.8484219, 5.6472153 ], [ -2.7940686, 5.6231419 ], [ -2.7909967, 5.6281572 ], [ -2.7595065, 5.5968861 ], [ -2.7632668, 5.5914807 ], [ -2.7650458, 5.5296527 ], [ -2.7477555, 5.4354699 ], [ -2.7244573, 5.3883596 ], [ -2.7248036, 5.3427344 ], [ -2.7686373, 5.357443 ], [ -2.769767, 5.3522089 ], [ -2.7766204, 5.3469747 ], [ -2.7759802, 5.3423807 ], [ -2.7744161, 5.3378112 ], [ -2.7740598, 5.33677 ], [ -2.7720084, 5.3304025 ], [ -2.7657864, 5.3178803 ], [ -2.7671053, 5.3097561 ], [ -2.7695352, 5.2947885 ], [ -2.7721126, 5.2933046 ], [ -2.7853281, 5.2860962 ], [ -2.7822917, 5.2786476 ], [ -2.7744032, 5.268305 ], [ -2.7751644, 5.2671231 ], [ -2.7757911, 5.26615 ], [ -2.773204, 5.2609493 ], [ -2.7714748, 5.2586311 ], [ -2.7638112, 5.2552658 ], [ -2.7528539, 5.2501524 ], [ -2.7546903, 5.2471139 ], [ -2.7602318, 5.2511386 ], [ -2.7541688, 5.2429936 ], [ -2.7575557, 5.2425703 ], [ -2.758574, 5.2425666 ], [ -2.7592456, 5.2462078 ], [ -2.7619119, 5.2463539 ], [ -2.7654182, 5.2359445 ], [ -2.7589304, 5.2360818 ], [ -2.7565428, 5.2310867 ], [ -2.757593, 5.22854 ], [ -2.7580038, 5.2275439 ], [ -2.7571423, 5.2188575 ], [ -2.7598817, 5.218887 ], [ -2.764286, 5.2176458 ], [ -2.7629711, 5.2141029 ], [ -2.7620055, 5.2120168 ], [ -2.7607294, 5.2092597 ], [ -2.7570542, 5.2013194 ], [ -2.7476674, 5.2023786 ], [ -2.749311, 5.1955851 ], [ -2.7451473, 5.18492 ], [ -2.7408009, 5.1765925 ], [ -2.7428639, 5.1720704 ], [ -2.7453664, 5.1665848 ], [ -2.7415241, 5.1631109 ], [ -2.7409813, 5.1593424 ], [ -2.7416775, 5.1575633 ], [ -2.7403399, 5.1545157 ], [ -2.7233423, 5.1411639 ], [ -2.7246206, 5.1378402 ], [ -2.7264597, 5.1336182 ], [ -2.7272138, 5.1318867 ], [ -2.7313871, 5.1293307 ], [ -2.7367147, 5.1299998 ], [ -2.7393603, 5.1263288 ], [ -2.7399112, 5.1215252 ], [ -2.7372846, 5.1195924 ], [ -2.7389696, 5.1167428 ], [ -2.755849, 5.1123226 ], [ -2.7545063, 5.1083921 ], [ -2.7569099, 5.1020981 ], [ -2.784482, 5.1106948 ], [ -2.7861496, 5.1105231 ], [ -2.7903995, 5.1073661 ], [ -2.8025465, 5.1079781 ], [ -2.8067909, 5.1075992 ], [ -2.8078368, 5.1074755 ], [ -2.8113999, 5.107054 ], [ -2.8147094, 5.1064283 ], [ -2.8172974, 5.105939 ], [ -2.8405579, 5.1155931 ], [ -2.8382017, 5.1105303 ], [ -2.8382808, 5.1100283 ], [ -2.8434846, 5.1082938 ], [ -2.890287, 5.127279 ], [ -2.8915018, 5.119808 ], [ -2.9426592, 5.1139207 ], [ -2.9347771, 5.1084097 ], [ -2.9311144, 5.0984168 ], [ -2.9308933, 5.0977312 ], [ -2.9789557, 5.0900723 ], [ -3.0231767, 5.1209647 ], [ -3.106303, 5.114508 ], [ -3.106204, 5.109557 ], [ -3.1058774, 5.0932294 ], [ -3.1058301, 5.0908636 ], [ -3.308409, 5.130972 ], [ -3.520062, 5.165898 ], [ -3.584096, 5.170483 ], [ -3.795769, 5.205314 ], [ -3.8516742, 5.2250463 ] ] ] ] } },
{ "type": "Feature", "properties": { "POLYGON_ID": "CIV_GAUL1999_ADM1_1044", "ADM0_ISO3": "CIV", "ADM0_NAME": "Côte d'Ivoire", "ADM0_CODE": 66, "ADM1_NAME": "Lagunes", "ADM1_CODE": 1044, "GEOSET": "GAUL", "GEOSET_YEAR": 1999.0, "GEOSET_VERSION": "GAUL_v1", "GEOSET_UNIT": "ADM1", "CENTROID_LONG": -4.4434864453517502, "CENTROID_LAT": 5.607569521690583 }, "geometry": { "type": "MultiPolygon", "coordinates": [ [ [ [ -5.4326377, 5.2666046 ], [ -5.3981729, 5.2577502 ], [ -5.4055237, 5.2217877 ], [ -5.3699984, 5.2178081 ], [ -5.3078313, 5.1600721 ], [ -5.2827177, 5.1768575 ], [ -5.2328839, 5.1784139 ], [ -5.19274, 5.2081461 ], [ -5.1882339, 5.2332642 ], [ -5.1268972, 5.2374842 ], [ -5.1354329, 5.1938909 ], [ -5.1074114, 5.1735799 ], [ -5.0676526, 5.1931882 ], [ -5.0675844, 5.2349779 ], [ -5.029417, 5.272877 ], [ -5.0634322, 5.3101903 ], [ -5.0622021, 5.362793 ], [ -5.0090862, 5.50957 ], [ -5.0209681, 5.5623815 ], [ -4.9944443, 5.6364077 ], [ -4.9609619, 5.64687 ], [ -4.9395918, 5.6808893 ], [ -4.973441, 5.7343612 ], [ -4.975165, 5.7628209 ], [ -4.9401141, 5.8301744 ], [ -4.9363276, 5.8568113 ], [ -4.9938828, 5.8907366 ], [ -4.9986356, 6.001513 ], [ -5.0372153, 6.0367191 ], [ -4.9912194, 6.0891235 ], [ -5.0182804, 6.1316879 ], [ -5.1425618, 6.1556025 ], [ -5.2392871, 6.2412954 ], [ -5.2034605, 6.3714049 ], [ -5.1811399, 6.3688351 ], [ -5.0908333, 6.2855623 ], [ -5.0375638, 6.2970015 ], [ -5.036694, 6.236255 ], [ -4.9986471, 6.2387617 ], [ -4.9317164, 6.2614616 ], [ -4.8240183, 6.2363465 ], [ -4.7321821, 6.2498462 ], [ -4.7041244, 6.2802431 ], [ -4.6844803, 6.2723606 ], [ -4.4996299, 6.2426797 ], [ -4.480782, 6.2653823 ], [ -4.4273294, 6.2582288 ], [ -4.5442891, 6.0097852 ], [ -4.6304569, 5.891129 ], [ -4.616992, 5.8122258 ], [ -4.4688702, 5.7572951 ], [ -4.40343, 5.708457 ], [ -4.4568911, 5.6526818 ], [ -4.4234018, 5.6401682 ], [ -4.4174762, 5.6126871 ], [ -4.3571219, 5.5852752 ], [ -4.2548041, 5.6079979 ], [ -4.0829539, 5.5974131 ], [ -3.985271, 5.605299 ], [ -3.9294929, 5.6393142 ], [ -3.950959, 5.727334 ], [ -3.9467349, 5.758379 ], [ -3.8455069, 5.8152852 ], [ -3.7948959, 5.8698311 ], [ -3.7300041, 5.917634 ], [ -3.677983, 5.8792801 ], [ -3.6056149, 5.8646002 ], [ -3.5803001, 5.8769689 ], [ -3.4520891, 5.851181 ], [ -3.459599, 5.79459 ], [ -3.4320597, 5.7771265 ], [ -3.4260983, 5.7497208 ], [ -3.437301, 5.6021623 ], [ -3.5484054, 5.5662652 ], [ -3.5721409, 5.5428487 ], [ -3.5853196, 5.3717254 ], [ -3.6254078, 5.2970455 ], [ -3.61569, 5.268422 ], [ -3.6705543, 5.2565315 ], [ -3.6889468, 5.2308437 ], [ -3.7271632, 5.2509926 ], [ -3.7163341, 5.2979285 ], [ -3.7850396, 5.2719772 ], [ -3.8516742, 5.2250463 ], [ -3.9964845, 5.2538487 ], [ -4.0603912, 5.2407904 ], [ -4.214672, 5.220369 ], [ -4.522357, 5.189286 ], [ -4.763899, 5.15361 ], [ -5.195559, 5.12341 ], [ -5.4865016, 5.0922072 ], [ -5.506794, 5.1146637 ], [ -5.4981938, 5.1732558 ], [ -5.4617205, 5.1972059 ], [ -5.4587946, 5.2621376 ], [ -5.4326377, 5.2666046 ] ] ] ] } },
{ "type": "Feature", "properties": { "POLYGON_ID": "CIV_GAUL1999_ADM1_1047", "ADM0_ISO3": "CIV", "ADM0_NAME": "Côte d'Ivoire", "ADM0_CODE": 66, "ADM1_NAME": "N'zi Comoe", "ADM1_CODE": 1047, "GEOSET": "GAUL", "GEOSET_YEAR": 1999.0, "GEOSET_VERSION": "GAUL_v1", "GEOSET_UNIT": "ADM1", "CENTROID_LONG": -4.2349060944342964, "CENTROID_LAT": 7.0959435685528547 }, "geometry": { "type": "MultiPolygon", "coordinates": [ [ [ [ -3.5152243, 7.3543374 ], [ -3.5371207, 7.3465789 ], [ -3.5956343, 7.2557622 ], [ -3.5791124, 7.2293296 ], [ -3.5933852, 7.18992 ], [ -3.6460042, 7.2025253 ], [ -3.6461029, 7.1295742 ], [ -3.5771963, 7.0971502 ], [ -3.6385754, 7.0479219 ], [ -3.679012, 7.0508003 ], [ -3.7718354, 6.9912705 ], [ -3.7364427, 6.9236338 ], [ -3.7821915, 6.8570235 ], [ -3.7495504, 6.817175 ], [ -3.7633448, 6.7739641 ], [ -3.7961303, 6.7671694 ], [ -3.7688738, 6.7019966 ], [ -3.8018826, 6.6749386 ], [ -3.7719546, 6.6165949 ], [ -3.8210147, 6.5770875 ], [ -3.846711, 6.5355892 ], [ -3.8988268, 6.5519306 ], [ -3.9569311, 6.5404307 ], [ -3.9849111, 6.5541069 ], [ -4.0251384, 6.522242 ], [ -4.1386305, 6.4724652 ], [ -4.1623782, 6.3360102 ], [ -4.1154105, 6.26176 ], [ -4.2366394, 6.1869378 ], [ -4.2771301, 6.2651891 ], [ -4.41641, 6.2650253 ], [ -4.4273294, 6.2582288 ], [ -4.480782, 6.2653823 ], [ -4.4996299, 6.2426797 ], [ -4.6844803, 6.2723606 ], [ -4.7041244, 6.2802431 ], [ -4.7165322, 6.334599 ], [ -4.6904898, 6.385179 ], [ -4.7267728, 6.4739342 ], [ -4.7891932, 6.508667 ], [ -4.7499762, 6.557826 ], [ -4.7693038, 6.602859 ], [ -4.8558731, 6.6328831 ], [ -4.904017, 6.6004491 ], [ -4.939218, 6.6150231 ], [ -4.9230738, 6.6448569 ], [ -4.9542198, 6.6721849 ], [ -4.9330978, 6.7024312 ], [ -4.9694648, 6.741364 ], [ -4.9516468, 6.7914848 ], [ -4.963407, 6.8421922 ], [ -4.8575211, 6.8504028 ], [ -4.819519, 6.876729 ], [ -4.7928982, 6.8752499 ], [ -4.8069458, 6.9360118 ], [ -4.7779398, 6.9818058 ], [ -4.8080258, 7.0411229 ], [ -4.7720561, 7.0614848 ], [ -4.7491112, 7.1775799 ], [ -4.7342758, 7.2163448 ], [ -4.7013979, 7.2361431 ], [ -4.7301221, 7.3047409 ], [ -4.749258, 7.3790541 ], [ -4.7700629, 7.419353 ], [ -4.6879401, 7.468586 ], [ -4.6694663, 7.5268269 ], [ -4.6580459, 7.5523686 ], [ -4.6098699, 7.5706153 ], [ -4.5721878, 7.6196976 ], [ -4.4955011, 7.6129357 ], [ -4.5134874, 7.7340028 ], [ -4.536552, 7.7744084 ], [ -4.5287409, 7.8232819 ], [ -4.503612, 7.8172345 ], [ -4.3462764, 7.8458708 ], [ -4.3062304, 7.8741413 ], [ -4.2655414, 7.9249959 ], [ -4.2081141, 7.8889982 ], [ -4.156962, 7.8901404 ], [ -4.1163011, 7.9193964 ], [ -4.08223, 7.9222624 ], [ -4.0644795, 7.9699588 ], [ -4.0908149, 8.0086376 ], [ -4.0181575, 8.0487653 ], [ -3.9930494, 8.0105952 ], [ -3.9884284, 7.9663403 ], [ -3.9285041, 7.9754704 ], [ -3.9250542, 7.9571406 ], [ -3.9668732, 7.9155399 ], [ -3.9649102, 7.8913843 ], [ -3.8848745, 7.8779061 ], [ -3.8648558, 7.8441389 ], [ -3.8588549, 7.7981426 ], [ -3.8015035, 7.7424019 ], [ -3.7356506, 7.7351839 ], [ -3.7341955, 7.6664098 ], [ -3.6851959, 7.6410965 ], [ -3.661522, 7.5857134 ], [ -3.5838204, 7.5833743 ], [ -3.5750669, 7.5539234 ], [ -3.6027278, 7.5218579 ], [ -3.5351029, 7.4854347 ], [ -3.4981988, 7.4320434 ], [ -3.5152243, 7.3543374 ] ] ] ] } },
{ "type": "Feature", "properties": { "POLYGON_ID": "CIV_GAUL1999_ADM1_1049", "ADM0_ISO3": "CIV", "ADM0_NAME": "Côte d'Ivoire", "ADM0_CODE": 66, "ADM1_NAME": "Sud Bandama", "ADM1_CODE": 1049, "GEOSET": "GAUL", "GEOSET_YEAR": 1999.0, "GEOSET_VERSION": "GAUL_v1", "GEOSET_UNIT": "ADM1", "CENTROID_LONG": -5.4042415061468771, "CENTROID_LAT": 5.7550034855571024 }, "geometry": { "type": "MultiPolygon", "coordinates": [ [ [ [ -5.2392871, 6.2412954 ], [ -5.1425618, 6.1556025 ], [ -5.0182804, 6.1316879 ], [ -4.9912194, 6.0891235 ], [ -5.0372153, 6.0367191 ], [ -4.9986356, 6.001513 ], [ -4.9938828, 5.8907366 ], [ -4.9363276, 5.8568113 ], [ -4.9401141, 5.8301744 ], [ -4.975165, 5.7628209 ], [ -4.973441, 5.7343612 ], [ -4.9395918, 5.6808893 ], [ -4.9609619, 5.64687 ], [ -4.9944443, 5.6364077 ], [ -5.0209681, 5.5623815 ], [ -5.0090862, 5.50957 ], [ -5.0622021, 5.362793 ], [ -5.0634322, 5.3101903 ], [ -5.029417, 5.272877 ], [ -5.0675844, 5.2349779 ], [ -5.0676526, 5.1931882 ], [ -5.1074114, 5.1735799 ], [ -5.1354329, 5.1938909 ], [ -5.1268972, 5.2374842 ], [ -5.1882339, 5.2332642 ], [ -5.19274, 5.2081461 ], [ -5.2328839, 5.1784139 ], [ -5.2827177, 5.1768575 ], [ -5.3078313, 5.1600721 ], [ -5.3699984, 5.2178081 ], [ -5.4055237, 5.2217877 ], [ -5.3981729, 5.2577502 ], [ -5.4326377, 5.2666046 ], [ -5.455789, 5.2992647 ], [ -5.4254016, 5.3550856 ], [ -5.398015, 5.3703369 ], [ -5.4230438, 5.4314377 ], [ -5.4610782, 5.4317103 ], [ -5.4895731, 5.4893694 ], [ -5.5600681, 5.5218423 ], [ -5.5729046, 5.5762074 ], [ -5.6181602, 5.5458203 ], [ -5.7428098, 5.6233368 ], [ -5.7890248, 5.5388675 ], [ -5.8214779, 5.5292547 ], [ -5.861186, 5.5423301 ], [ -5.9134078, 5.5423999 ], [ -5.9391842, 5.5283932 ], [ -5.9964867, 5.5306921 ], [ -6.022522, 5.5744535 ], [ -6.0275327, 5.6557804 ], [ -5.998807, 5.713985 ], [ -5.982203, 5.7806039 ], [ -5.9468288, 5.7730861 ], [ -5.835609, 5.9132838 ], [ -5.791605, 5.9391098 ], [ -5.794847, 6.005713 ], [ -5.7405758, 6.2014651 ], [ -5.6763139, 6.1870942 ], [ -5.4804592, 6.1656671 ], [ -5.28444, 6.2543859 ], [ -5.2392871, 6.2412954 ] ] ] ] } },
{ "type": "Feature", "properties": { "POLYGON_ID": "CIV_GAUL1999_ADM1_1043", "ADM0_ISO3": "CIV", "ADM0_NAME": "Côte d'Ivoire", "ADM0_CODE": 66, "ADM1_NAME": "Lacs", "ADM1_CODE": 1043, "GEOSET": "GAUL", "GEOSET_YEAR": 1999.0, "GEOSET_VERSION": "GAUL_v1", "GEOSET_UNIT": "ADM1", "CENTROID_LONG": -5.0883874394064659, "CENTROID_LAT": 6.9002259227027096 }, "geometry": { "type": "MultiPolygon", "coordinates": [ [ [ [ -4.6694663, 7.5268269 ], [ -4.6879401, 7.468586 ], [ -4.7700629, 7.419353 ], [ -4.749258, 7.3790541 ], [ -4.7301221, 7.3047409 ], [ -4.7013979, 7.2361431 ], [ -4.7342758, 7.2163448 ], [ -4.7491112, 7.1775799 ], [ -4.7720561, 7.0614848 ], [ -4.8080258, 7.0411229 ], [ -4.7779398, 6.9818058 ], [ -4.8069458, 6.9360118 ], [ -4.7928982, 6.8752499 ], [ -4.819519, 6.876729 ], [ -4.8575211, 6.8504028 ], [ -4.963407, 6.8421922 ], [ -4.9516468, 6.7914848 ], [ -4.9694648, 6.741364 ], [ -4.9330978, 6.7024312 ], [ -4.9542198, 6.6721849 ], [ -4.9230738, 6.6448569 ], [ -4.939218, 6.6150231 ], [ -4.904017, 6.6004491 ], [ -4.8558731, 6.6328831 ], [ -4.7693038, 6.602859 ], [ -4.7499762, 6.557826 ], [ -4.7891932, 6.508667 ], [ -4.7267728, 6.4739342 ], [ -4.6904898, 6.385179 ], [ -4.7165322, 6.334599 ], [ -4.7041244, 6.2802431 ], [ -4.7321821, 6.2498462 ], [ -4.8240183, 6.2363465 ], [ -4.9317164, 6.2614616 ], [ -4.9986471, 6.2387617 ], [ -5.036694, 6.236255 ], [ -5.0375638, 6.2970015 ], [ -5.0908333, 6.2855623 ], [ -5.1811399, 6.3688351 ], [ -5.2034605, 6.3714049 ], [ -5.2465777, 6.3723806 ], [ -5.2963986, 6.3569702 ], [ -5.3181768, 6.408322 ], [ -5.3233619, 6.5108187 ], [ -5.3067131, 6.5428444 ], [ -5.3059511, 6.5883716 ], [ -5.3555917, 6.6023836 ], [ -5.3962589, 6.5981254 ], [ -5.4160705, 6.6327554 ], [ -5.3996992, 6.668191 ], [ -5.4057078, 6.7047779 ], [ -5.4427652, 6.7774217 ], [ -5.4878659, 6.8100154 ], [ -5.4904423, 6.8524587 ], [ -5.5139732, 6.8643266 ], [ -5.5298467, 6.9130826 ], [ -5.5053387, 6.9309568 ], [ -5.5012932, 6.9880955 ], [ -5.4840136, 7.0279693 ], [ -5.4957375, 7.1069108 ], [ -5.4810466, 7.1336079 ], [ -5.5238724, 7.1584917 ], [ -5.5532488, 7.1416732 ], [ -5.6101713, 7.154935 ], [ -5.603456, 7.1867657 ], [ -5.6744223, 7.2206103 ], [ -5.6508102, 7.250052 ], [ -5.63761, 7.2669287 ], [ -5.4370689, 7.3064048 ], [ -5.4067192, 7.2778598 ], [ -5.3934488, 7.2424425 ], [ -5.3209405, 7.2418127 ], [ -5.2904305, 7.231904 ], [ -5.2470638, 7.2889668 ], [ -5.209032, 7.295779 ], [ -5.1962499, 7.3275774 ], [ -5.1214704, 7.3672218 ], [ -5.1129241, 7.3937536 ], [ -5.0642778, 7.4061545 ], [ -5.0006023, 7.4753311 ], [ -4.9655948, 7.4924852 ], [ -4.9255633, 7.4842337 ], [ -4.9299679, 7.5238352 ], [ -4.8592834, 7.6038617 ], [ -4.8410292, 7.5735901 ], [ -4.7893392, 7.5654149 ], [ -4.7763818, 7.5809094 ], [ -4.7258467, 7.5316109 ], [ -4.6694663, 7.5268269 ] ] ] ] } },
{ "type": "Feature", "properties": { "POLYGON_ID": "CIV_GAUL1999_ADM1_1039", "ADM0_ISO3": "CIV", "ADM0_NAME": "Côte d'Ivoire", "ADM0_CODE": 66, "ADM1_NAME": "Agneby", "ADM1_CODE": 1039, "GEOSET": "GAUL", "GEOSET_YEAR": 1999.0, "GEOSET_VERSION": "GAUL_v1", "GEOSET_UNIT": "ADM1", "CENTROID_LONG": -3.9884831986446616, "CENTROID_LAT": 6.0675699157972431 }, "geometry": { "type": "MultiPolygon", "coordinates": [ [ [ [ -3.3212856, 5.892107 ], [ -3.3960578, 5.8495845 ], [ -3.4019816, 5.7964802 ], [ -3.4320597, 5.7771265 ], [ -3.459599, 5.79459 ], [ -3.4520891, 5.851181 ], [ -3.5803001, 5.8769689 ], [ -3.6056149, 5.8646002 ], [ -3.677983, 5.8792801 ], [ -3.7300041, 5.917634 ], [ -3.7948959, 5.8698311 ], [ -3.8455069, 5.8152852 ], [ -3.9467349, 5.758379 ], [ -3.950959, 5.727334 ], [ -3.9294929, 5.6393142 ], [ -3.985271, 5.605299 ], [ -4.0829539, 5.5974131 ], [ -4.2548041, 5.6079979 ], [ -4.3571219, 5.5852752 ], [ -4.4174762, 5.6126871 ], [ -4.4234018, 5.6401682 ], [ -4.4568911, 5.6526818 ], [ -4.40343, 5.708457 ], [ -4.4688702, 5.7572951 ], [ -4.616992, 5.8122258 ], [ -4.6304569, 5.891129 ], [ -4.5442891, 6.0097852 ], [ -4.4273294, 6.2582288 ], [ -4.41641, 6.2650253 ], [ -4.2771301, 6.2651891 ], [ -4.2366394, 6.1869378 ], [ -4.1154105, 6.26176 ], [ -4.1623782, 6.3360102 ], [ -4.1386305, 6.4724652 ], [ -4.0251384, 6.522242 ], [ -3.9849111, 6.5541069 ], [ -3.9569311, 6.5404307 ], [ -3.8988268, 6.5519306 ], [ -3.846711, 6.5355892 ], [ -3.8210147, 6.5770875 ], [ -3.7719546, 6.6165949 ], [ -3.6868192, 6.6415648 ], [ -3.6937249, 6.58665 ], [ -3.6647914, 6.5699174 ], [ -3.6421641, 6.483093 ], [ -3.6536583, 6.461968 ], [ -3.6128029, 6.4397674 ], [ -3.6110087, 6.4151144 ], [ -3.5492957, 6.3786864 ], [ -3.5118967, 6.379409 ], [ -3.5089882, 6.3284153 ], [ -3.4776528, 6.2967312 ], [ -3.4720532, 6.2462277 ], [ -3.4870928, 6.2186995 ], [ -3.4641827, 6.1956384 ], [ -3.4320032, 6.1981648 ], [ -3.4020415, 6.1465963 ], [ -3.4261231, 6.0877205 ], [ -3.4213978, 6.0497794 ], [ -3.396762, 6.0169028 ], [ -3.4117665, 5.9764825 ], [ -3.4556509, 5.9102909 ], [ -3.4200722, 5.8958512 ], [ -3.3212856, 5.892107 ] ] ] ] } },
{ "type": "Feature", "properties": { "POLYGON_ID": "CIV_GAUL1999_ADM1_1046", "ADM0_ISO3": "CIV", "ADM0_NAME": "Côte d'Ivoire", "ADM0_CODE": 66, "ADM1_NAME": "Moyen Comoe", "ADM1_CODE": 1046, "GEOSET": "GAUL", "GEOSET_YEAR": 1999.0, "GEOSET_VERSION": "GAUL_v1", "GEOSET_UNIT": "ADM1", "CENTROID_LONG": -3.4239636242056961, "CENTROID_LAT": 6.7154433375109983 }, "geometry": { "type": "MultiPolygon", "coordinates": [ [ [ [ -3.0789646, 7.0562393 ], [ -3.115597, 7.0056157 ], [ -3.1191969, 6.9988954 ], [ -3.1338931, 6.975062 ], [ -3.18252, 6.8962016 ], [ -3.2289402, 6.82092 ], [ -3.2317317, 6.7809344 ], [ -3.2321356, 6.7783571 ], [ -3.2319371, 6.7776448 ], [ -3.2311901, 6.7749644 ], [ -3.2311024, 6.7746499 ], [ -3.2299627, 6.7705602 ], [ -3.2270888, 6.7661895 ], [ -3.2238275, 6.7612296 ], [ -3.2141984, 6.755545 ], [ -3.1944297, 6.719817 ], [ -3.2523306, 6.6372474 ], [ -3.2328107, 6.6002065 ], [ -3.2347426, 6.540641 ], [ -3.1766048, 6.3204126 ], [ -3.1737057, 6.3045642 ], [ -3.1711359, 6.3004569 ], [ -3.1716013, 6.272069 ], [ -3.1690417, 6.2641577 ], [ -3.1738484, 6.2497327 ], [ -3.198915, 6.1979952 ], [ -3.1965189, 6.1468329 ], [ -3.2240169, 6.089426 ], [ -3.2286561, 6.0197778 ], [ -3.2803619, 5.962091 ], [ -3.3212856, 5.892107 ], [ -3.4200722, 5.8958512 ], [ -3.4556509, 5.9102909 ], [ -3.4117665, 5.9764825 ], [ -3.396762, 6.0169028 ], [ -3.4213978, 6.0497794 ], [ -3.4261231, 6.0877205 ], [ -3.4020415, 6.1465963 ], [ -3.4320032, 6.1981648 ], [ -3.4641827, 6.1956384 ], [ -3.4870928, 6.2186995 ], [ -3.4720532, 6.2462277 ], [ -3.4776528, 6.2967312 ], [ -3.5089882, 6.3284153 ], [ -3.5118967, 6.379409 ], [ -3.5492957, 6.3786864 ], [ -3.6110087, 6.4151144 ], [ -3.6128029, 6.4397674 ], [ -3.6536583, 6.461968 ], [ -3.6421641, 6.483093 ], [ -3.6647914, 6.5699174 ], [ -3.6937249, 6.58665 ], [ -3.6868192, 6.6415648 ], [ -3.7719546, 6.6165949 ], [ -3.8018826, 6.6749386 ], [ -3.7688738, 6.7019966 ], [ -3.7961303, 6.7671694 ], [ -3.7633448, 6.7739641 ], [ -3.7495504, 6.817175 ], [ -3.7821915, 6.8570235 ], [ -3.7364427, 6.9236338 ], [ -3.7718354, 6.9912705 ], [ -3.679012, 7.0508003 ], [ -3.6385754, 7.0479219 ], [ -3.5771963, 7.0971502 ], [ -3.6461029, 7.1295742 ], [ -3.6460042, 7.2025253 ], [ -3.5933852, 7.18992 ], [ -3.5791124, 7.2293296 ], [ -3.5956343, 7.2557622 ], [ -3.5371207, 7.3465789 ], [ -3.5152243, 7.3543374 ], [ -3.4389235, 7.3382301 ], [ -3.3779629, 7.2516402 ], [ -3.2971193, 7.2949241 ], [ -3.3140892, 7.3279414 ], [ -3.2500636, 7.3220991 ], [ -3.2469536, 7.2431586 ], [ -3.2231135, 7.1841948 ], [ -3.1863032, 7.1694856 ], [ -3.1340835, 7.1249595 ], [ -3.0789646, 7.0562393 ] ] ] ] } },
{ "type": "Feature", "properties": { "POLYGON_ID": "CIV_GAUL1999_ADM1_190430", "ADM0_ISO3": "CIV", "ADM0_NAME": "Côte d'Ivoire", "ADM0_CODE": 66, "ADM1_NAME": "Bas Sassandra", "ADM1_CODE": 190430, "GEOSET": "GAUL", "GEOSET_YEAR": 1999.0, "GEOSET_VERSION": "GAUL_v1", "GEOSET_UNIT": "ADM1", "CENTROID_LONG": -6.675229396600785, "CENTROID_LAT": 5.3614567476669253 }, "geometry": { "type": "MultiPolygon", "coordinates": [ [ [ [ -6.0275327, 5.6557804 ], [ -6.022522, 5.5744535 ], [ -5.9964867, 5.5306921 ], [ -5.9391842, 5.5283932 ], [ -5.9134078, 5.5423999 ], [ -5.861186, 5.5423301 ], [ -5.8214779, 5.5292547 ], [ -5.7890248, 5.5388675 ], [ -5.7428098, 5.6233368 ], [ -5.6181602, 5.5458203 ], [ -5.5729046, 5.5762074 ], [ -5.5600681, 5.5218423 ], [ -5.4895731, 5.4893694 ], [ -5.4610782, 5.4317103 ], [ -5.4230438, 5.4314377 ], [ -5.398015, 5.3703369 ], [ -5.4254016, 5.3550856 ], [ -5.455789, 5.2992647 ], [ -5.4326377, 5.2666046 ], [ -5.4587946, 5.2621376 ], [ -5.4617205, 5.1972059 ], [ -5.4981938, 5.1732558 ], [ -5.506794, 5.1146637 ], [ -5.4865016, 5.0922072 ], [ -5.628242, 5.068979 ], [ -5.770708, 5.050357 ], [ -5.871282, 5.029061 ], [ -5.974093, 4.994612 ], [ -6.023637, 4.969368 ], [ -6.077336, 4.960468 ], [ -6.113681, 4.927409 ], [ -6.249764, 4.864375 ], [ -6.434836, 4.811402 ], [ -6.447484, 4.793419 ], [ -6.584959, 4.76481 ], [ -6.6397117, 4.7218107 ], [ -6.6903297, 4.7118468 ], [ -6.706652, 4.69438 ], [ -6.896498, 4.668439 ], [ -6.918147, 4.641836 ], [ -7.055045, 4.538896 ], [ -7.18528, 4.520809 ], [ -7.243399, 4.486033 ], [ -7.25115, 4.46582 ], [ -7.301508, 4.453053 ], [ -7.320048, 4.430545 ], [ -7.405143, 4.383311 ], [ -7.471944, 4.363475 ], [ -7.5231345, 4.3617264 ], [ -7.5574, 4.39348 ], [ -7.54042, 4.43457 ], [ -7.5446041, 4.4376158 ], [ -7.5556, 4.44562 ], [ -7.5578289, 4.4496923 ], [ -7.56011, 4.45386 ], [ -7.5605662, 4.4608956 ], [ -7.5499814, 4.5102141 ], [ -7.56587, 4.57728 ], [ -7.54641, 4.60912 ], [ -7.561112, 4.648908 ], [ -7.5645, 4.64925 ], [ -7.56907, 4.65204 ], [ -7.5707536, 4.6565919 ], [ -7.56855, 4.66192 ], [ -7.5649857, 4.6862995 ], [ -7.56309, 4.6904 ], [ -7.5580931, 4.6906352 ], [ -7.55886, 4.77937 ], [ -7.558553, 4.7833241 ], [ -7.59256, 4.81937 ], [ -7.5902462, 4.8228996 ], [ -7.5900105, 4.8232592 ], [ -7.5838, 4.82644 ], [ -7.5871897, 4.8538514 ], [ -7.58519, 4.86071 ], [ -7.5872102, 4.8676209 ], [ -7.58877, 4.87522 ], [ -7.58419, 4.91014 ], [ -7.5792392, 4.9108176 ], [ -7.57067, 4.90661 ], [ -7.5633322, 4.90657 ], [ -7.5499339, 4.9227313 ], [ -7.54626, 4.92209 ], [ -7.53941, 4.91699 ], [ -7.52655, 4.91898 ], [ -7.5353631, 4.9490167 ], [ -7.53391, 4.9526 ], [ -7.53503, 4.9556 ], [ -7.5429365, 4.9646856 ], [ -7.54529, 4.96739 ], [ -7.54206, 5.00508 ], [ -7.55139, 5.0171 ], [ -7.54838, 5.05846 ], [ -7.55409, 5.0631 ], [ -7.5554834, 5.0668467 ], [ -7.5358, 5.09203 ], [ -7.52823, 5.09925 ], [ -7.5147027, 5.1037439 ], [ -7.5137683, 5.1017905 ], [ -7.5094659, 5.0952359 ], [ -7.50548, 5.09337 ], [ -7.47092, 5.15041 ], [ -7.46395, 5.23428 ], [ -7.45975, 5.24483 ], [ -7.44942, 5.28133 ], [ -7.42385, 5.29542 ], [ -7.420581, 5.2965227 ], [ -7.41328, 5.29696 ], [ -7.4115093, 5.2940018 ], [ -7.41798, 5.28158 ], [ -7.42257, 5.28138 ], [ -7.42511, 5.27795 ], [ -7.4221885, 5.2727162 ], [ -7.4197905, 5.2684203 ], [ -7.41854, 5.26618 ], [ -7.4189433, 5.2653106 ], [ -7.42226, 5.25816 ], [ -7.4154, 5.25443 ], [ -7.4088866, 5.2604953 ], [ -7.3657702, 5.33251 ], [ -7.37288, 5.33371 ], [ -7.3763346, 5.3370434 ], [ -7.3775272, 5.3715526 ], [ -7.37464, 5.37948 ], [ -7.3838882, 5.3805056 ], [ -7.38636, 5.37817 ], [ -7.39842, 5.35917 ], [ -7.4001435, 5.3620902 ], [ -7.4102496, 5.3706301 ], [ -7.41875, 5.3747 ], [ -7.423518, 5.3817834 ], [ -7.44485, 5.42085 ], [ -7.41352, 5.43985 ], [ -7.42106, 5.47863 ], [ -7.3847885, 5.5327553 ], [ -7.39197, 5.53822 ], [ -7.37403, 5.57833 ], [ -7.377948, 5.6217021 ], [ -7.3043651, 5.6283473 ], [ -7.2730856, 5.6205315 ], [ -7.2552834, 5.6458146 ], [ -7.0877062, 5.666865 ], [ -7.0907211, 5.8888187 ], [ -7.0841231, 6.0578011 ], [ -7.1078005, 6.1531057 ], [ -7.153841, 6.1847605 ], [ -7.1811519, 6.1825794 ], [ -7.204124, 6.2301133 ], [ -7.1701016, 6.2653342 ], [ -7.1834531, 6.318907 ], [ -7.1703057, 6.3743668 ], [ -7.1275253, 6.40489 ], [ -7.1562614, 6.4324274 ], [ -7.1298146, 6.4587467 ], [ -6.9999404, 6.5569099 ], [ -6.9800014, 6.5519468 ], [ -6.951952, 6.4884603 ], [ -6.9870539, 6.4479177 ], [ -6.9787693, 6.422514 ], [ -6.9341788, 6.3758237 ], [ -6.868124, 6.2813631 ], [ -6.8086295, 6.2748203 ], [ -6.6794738, 6.2965718 ], [ -6.6140175, 6.3000624 ], [ -6.5898022, 6.3204657 ], [ -6.5073581, 6.2615667 ], [ -6.4372916, 6.2933448 ], [ -6.4044428, 6.2976915 ], [ -6.4120602, 6.1647772 ], [ -6.3555055, 6.0346226 ], [ -6.2900324, 5.9363973 ], [ -6.2771453, 5.8665182 ], [ -6.2506027, 5.8470137 ], [ -6.2470093, 5.8063386 ], [ -6.2202115, 5.7557293 ], [ -6.1888718, 5.7704075 ], [ -6.1165076, 5.7725723 ], [ -6.0503789, 5.6732589 ], [ -6.0275327, 5.6557804 ] ] ] ] } },
{ "type": "Feature", "properties": { "POLYGON_ID": "CIV_GAUL1999_ADM1_1041", "ADM0_ISO3": "CIV", "ADM0_NAME": "Côte d'Ivoire", "ADM0_CODE": 66, "ADM1_NAME": "Denguele", "ADM1_CODE": 1041, "GEOSET": "GAUL", "GEOSET_YEAR": 1999.0, "GEOSET_VERSION": "GAUL_v1", "GEOSET_UNIT": "ADM1", "CENTROID_LONG": -7.3912682475285063, "CENTROID_LAT": 9.6510428555531576 }, "geometry": { "type": "MultiPolygon", "coordinates": [ [ [ [ -6.6740107, 10.3637442 ], [ -6.6340165, 10.3097686 ], [ -6.6366511, 10.2550166 ], [ -6.5927768, 10.2320269 ], [ -6.5861506, 10.1659276 ], [ -6.6143031, 10.1448415 ], [ -6.7060733, 10.1025988 ], [ -6.7593427, 10.1018931 ], [ -6.7864246, 10.1328938 ], [ -6.8548035, 10.1299146 ], [ -6.8971748, 10.1042014 ], [ -6.9292822, 10.0605864 ], [ -6.9290228, 10.0226892 ], [ -6.9677655, 9.9686901 ], [ -6.7916732, 9.9546229 ], [ -6.7524538, 9.8854519 ], [ -6.741847, 9.8402481 ], [ -6.776877, 9.7703276 ], [ -6.7420649, 9.7501713 ], [ -6.7614786, 9.708695 ], [ -6.7627983, 9.6682755 ], [ -6.7958183, 9.6081722 ], [ -6.790833, 9.5839393 ], [ -6.745687, 9.5023744 ], [ -6.7995849, 9.4361975 ], [ -6.799613, 9.3953332 ], [ -6.7815528, 9.28269 ], [ -6.7368398, 9.2691136 ], [ -6.7596512, 9.1664808 ], [ -6.7566471, 9.1181486 ], [ -6.8342089, 9.071355 ], [ -6.8713164, 9.0773307 ], [ -6.8988533, 9.0489705 ], [ -6.9067259, 8.9806681 ], [ -7.0183592, 8.9688561 ], [ -7.0711408, 9.0301564 ], [ -7.1123295, 9.0458652 ], [ -7.1465049, 8.9995345 ], [ -7.1697917, 8.9933346 ], [ -7.1803274, 8.9536064 ], [ -7.2208719, 8.9575079 ], [ -7.225276, 8.9284755 ], [ -7.1898389, 8.7735852 ], [ -7.2158456, 8.6550314 ], [ -7.2408519, 8.6298734 ], [ -7.2798815, 8.6714041 ], [ -7.365284, 8.6842639 ], [ -7.3647604, 8.7095519 ], [ -7.401165, 8.7584821 ], [ -7.4515796, 8.7805745 ], [ -7.5096755, 8.8385029 ], [ -7.533236, 8.8444264 ], [ -7.5453186, 8.8825939 ], [ -7.6118364, 8.9536876 ], [ -7.6748662, 8.967579 ], [ -7.6858935, 9.0421658 ], [ -7.7367422, 9.0772216 ], [ -7.7408653, 9.083004 ], [ -7.7416, 9.08384 ], [ -7.7465988, 9.0856892 ], [ -7.77765, 9.10226 ], [ -7.7866627, 9.1055864 ], [ -7.80142, 9.12258 ], [ -7.8022544, 9.1228777 ], [ -7.8297189, 9.1493677 ], [ -7.83784, 9.15053 ], [ -7.8388601, 9.1524351 ], [ -7.8392, 9.15307 ], [ -7.8431058, 9.1784121 ], [ -7.853, 9.17784 ], [ -7.8664088, 9.1697869 ], [ -7.87025, 9.16748 ], [ -7.8713284, 9.1665704 ], [ -7.916268, 9.1813107 ], [ -7.91688, 9.18234 ], [ -7.9258439, 9.2155368 ], [ -7.92573, 9.21731 ], [ -7.9204591, 9.22675 ], [ -7.91554, 9.23556 ], [ -7.90646, 9.25728 ], [ -7.9019073, 9.262423 ], [ -7.8932932, 9.2790894 ], [ -7.89135, 9.28052 ], [ -7.88744, 9.29062 ], [ -7.8861104, 9.2974142 ], [ -7.8855529, 9.3077222 ], [ -7.88653, 9.31241 ], [ -7.887791, 9.3404087 ], [ -7.88845, 9.34231 ], [ -7.8875977, 9.3455347 ], [ -7.88748, 9.34598 ], [ -7.8864773, 9.3469485 ], [ -7.87922, 9.35805 ], [ -7.8783881, 9.360016 ], [ -7.872144, 9.3698876 ], [ -7.86649, 9.37535 ], [ -7.8569287, 9.4114133 ], [ -7.85766, 9.4127 ], [ -7.85571, 9.4168642 ], [ -7.85552, 9.41727 ], [ -7.85032, 9.42548 ], [ -7.8489617, 9.4287155 ], [ -7.8570133, 9.4335537 ], [ -7.85791, 9.43302 ], [ -7.87223, 9.43619 ], [ -7.8808095, 9.4357492 ], [ -7.88697, 9.42419 ], [ -7.8908998, 9.4181121 ], [ -7.91574, 9.41949 ], [ -7.9182696, 9.4182181 ], [ -7.9727685, 9.395491 ], [ -7.981172, 9.394571 ], [ -7.9833749, 9.394459 ], [ -7.98755, 9.39692 ], [ -8.01134, 9.40158 ], [ -8.0286133, 9.4009022 ], [ -8.0341142, 9.4006864 ], [ -8.04702, 9.40018 ], [ -8.0539534, 9.4010031 ], [ -8.08359, 9.42964 ], [ -8.0900931, 9.4370533 ], [ -8.10661, 9.4582 ], [ -8.1072879, 9.4605727 ], [ -8.11161, 9.46585 ], [ -8.11524, 9.47187 ], [ -8.115351, 9.4727208 ], [ -8.11608, 9.47831 ], [ -8.1163464, 9.47859 ], [ -8.12317, 9.48576 ], [ -8.13593, 9.52132 ], [ -8.1340935, 9.5235046 ], [ -8.1376485, 9.5279757 ], [ -8.14252, 9.53105 ], [ -8.1460947, 9.5315881 ], [ -8.1495103, 9.5341067 ], [ -8.14986, 9.53666 ], [ -8.1486498, 9.5396856 ], [ -8.1505806, 9.5520786 ], [ -8.15194, 9.55623 ], [ -8.1514592, 9.5578672 ], [ -8.15073, 9.56035 ], [ -8.1511576, 9.5626098 ], [ -8.1477744, 9.5691599 ], [ -8.14645, 9.56949 ], [ -8.14628, 9.58306 ], [ -8.1496308, 9.5861085 ], [ -8.15293, 9.58911 ], [ -8.14759, 9.60813 ], [ -8.1448328, 9.6114331 ], [ -8.1472954, 9.6182076 ], [ -8.15228, 9.62313 ], [ -8.130264, 9.6695503 ], [ -8.12945, 9.67113 ], [ -8.1332507, 9.6861899 ], [ -8.13639, 9.69052 ], [ -8.1363014, 9.6907319 ], [ -8.12512, 9.70234 ], [ -8.124948, 9.7027708 ], [ -8.12425, 9.73544 ], [ -8.1263017, 9.7378004 ], [ -8.1235642, 9.7531335 ], [ -8.1253326, 9.7545996 ], [ -8.1292145, 9.7591859 ], [ -8.12786, 9.76146 ], [ -8.1200986, 9.7623644 ], [ -8.11533, 9.76292 ], [ -8.1151607, 9.763083 ], [ -8.12069, 9.77908 ], [ -8.1206236, 9.7847469 ], [ -8.10934, 9.79779 ], [ -8.1171428, 9.8032332 ], [ -8.1014848, 9.8326403 ], [ -8.1045908, 9.8328428 ], [ -8.113, 9.83877 ], [ -8.1087446, 9.8456025 ], [ -8.11334, 9.86728 ], [ -8.1140203, 9.8675515 ], [ -8.1242028, 9.868091 ], [ -8.1302821, 9.8656501 ], [ -8.1324122, 9.8657392 ], [ -8.1352848, 9.8658594 ], [ -8.1441, 9.87387 ], [ -8.141737, 9.8819876 ], [ -8.1400925, 9.8859434 ], [ -8.1386, 9.88691 ], [ -8.1328185, 9.9157631 ], [ -8.1333524, 9.9174198 ], [ -8.1549601, 9.9090455 ], [ -8.15642, 9.90897 ], [ -8.1591503, 9.9110178 ], [ -8.16547, 9.92678 ], [ -8.1637424, 9.9301112 ], [ -8.1540761, 9.9356645 ], [ -8.15236, 9.9372 ], [ -8.1528274, 9.9384905 ], [ -8.15303, 9.93905 ], [ -8.1569509, 9.9407707 ], [ -8.16595, 9.94472 ], [ -8.1665559, 9.9464491 ], [ -8.1340357, 9.9547957 ], [ -8.13009, 9.95647 ], [ -8.1224971, 9.9538776 ], [ -8.12061, 9.95429 ], [ -8.1203605, 9.9545907 ], [ -8.1179434, 9.9575031 ], [ -8.1398592, 9.9689122 ], [ -8.1436, 9.96998 ], [ -8.15183, 9.97973 ], [ -8.1508109, 9.9828468 ], [ -8.1493196, 9.9847708 ], [ -8.14781, 9.98635 ], [ -8.1373, 9.9922 ], [ -8.13614, 10.0 ], [ -8.1358678, 10.0018159 ], [ -8.1353498, 10.0052723 ], [ -8.1349806, 10.007736 ], [ -8.1320322, 10.0091953 ], [ -8.13143, 10.01385 ], [ -8.1178097, 10.0320324 ], [ -8.1099559, 10.0425217 ], [ -8.10668, 10.0469 ], [ -8.1036322, 10.0493091 ], [ -8.09895, 10.05301 ], [ -8.0801039, 10.0584858 ], [ -8.0555717, 10.0688297 ], [ -8.0451, 10.0733 ], [ -8.0349746, 10.0808646 ], [ -8.0205873, 10.0928032 ], [ -8.0165, 10.0971 ], [ -8.0140055, 10.1022273 ], [ -8.01127, 10.10785 ], [ -8.0051132, 10.1239227 ], [ -7.9955048, 10.1420342 ], [ -7.98598, 10.16411 ], [ -7.98052, 10.17462 ], [ -7.97855, 10.1751103 ], [ -7.972477, 10.1753537 ], [ -7.92647, 10.17097 ], [ -7.8791558, 10.2011922 ], [ -7.86375, 10.20359 ], [ -7.85593, 10.20481 ], [ -7.84646, 10.21477 ], [ -7.81599, 10.23643 ], [ -7.8137277, 10.238965 ], [ -7.8101, 10.24303 ], [ -7.7581164, 10.3060308 ], [ -7.75883, 10.30742 ], [ -7.7657731, 10.3080516 ], [ -7.77367, 10.30877 ], [ -7.75158, 10.34481 ], [ -7.7438499, 10.3449518 ], [ -7.73741, 10.34507 ], [ -7.7352403, 10.3458449 ], [ -7.72728, 10.35551 ], [ -7.72967, 10.36751 ], [ -7.73819, 10.37222 ], [ -7.73931, 10.37569 ], [ -7.72832, 10.4258 ], [ -7.6863901, 10.43628 ], [ -7.64155, 10.48812 ], [ -7.62046, 10.4565222 ], [ -7.62026, 10.45384 ], [ -7.62017, 10.4526404 ], [ -7.61557, 10.44913 ], [ -7.55126, 10.44435 ], [ -7.50847, 10.4794 ], [ -7.44896, 10.46363 ], [ -7.42537, 10.38947 ], [ -7.36511, 10.36239 ], [ -7.36337, 10.33798 ], [ -7.3664582, 10.3248936 ], [ -7.3668, 10.2764 ], [ -7.35705, 10.27626 ], [ -7.29602, 10.28848 ], [ -7.28151, 10.26412 ], [ -7.24451, 10.26863 ], [ -7.1675837, 10.2512362 ], [ -7.1615226, 10.2423238 ], [ -7.13668, 10.24148 ], [ -7.1355251, 10.2407554 ], [ -7.08956, 10.2249 ], [ -7.04734, 10.16192 ], [ -6.9905203, 10.1855508 ], [ -6.9813634, 10.1914603 ], [ -6.966, 10.21101 ], [ -6.98951, 10.28175 ], [ -6.994733, 10.2875353 ], [ -6.99533, 10.3106 ], [ -6.94746, 10.36964 ], [ -6.85441, 10.36239 ], [ -6.82071, 10.37855 ], [ -6.79738, 10.38239 ], [ -6.76401, 10.3915 ], [ -6.70923, 10.35954 ], [ -6.6740107, 10.3637442 ] ] ] ] } },
{ "type": "Feature", "properties": { "POLYGON_ID": "CIV_GAUL1999_ADM1_1048", "ADM0_ISO3": "CIV", "ADM0_NAME": "Côte d'Ivoire", "ADM0_CODE": 66, "ADM1_NAME": "Savanes", "ADM1_CODE": 1048, "GEOSET": "GAUL", "GEOSET_YEAR": 1999.0, "GEOSET_VERSION": "GAUL_v1", "GEOSET_UNIT": "ADM1", "CENTROID_LONG": -5.5597538941710312, "CENTROID_LAT": 9.5690991713280997 }, "geometry": { "type": "MultiPolygon", "coordinates": [ [ [ [ -4.3160071, 9.6029171 ], [ -4.2756295, 9.5578116 ], [ -4.2393452, 9.5343346 ], [ -4.2314757, 9.4787226 ], [ -4.1906076, 9.4489849 ], [ -4.1771407, 9.4002562 ], [ -4.2085995, 9.3471251 ], [ -4.169856, 9.2855883 ], [ -4.196799, 9.2616577 ], [ -4.1669022, 9.2294123 ], [ -4.1242055, 9.2630748 ], [ -4.0682617, 9.2544861 ], [ -4.0263944, 9.2122615 ], [ -3.9571876, 9.2064086 ], [ -3.9048835, 9.1498955 ], [ -3.8853529, 9.0669871 ], [ -3.8496676, 9.025525 ], [ -3.8164169, 9.0208456 ], [ -3.8000668, 8.993392 ], [ -3.845284, 8.9735697 ], [ -3.8927912, 8.9266473 ], [ -3.8640796, 8.9161875 ], [ -3.8546228, 8.8842671 ], [ -3.8059265, 8.825839 ], [ -3.8107551, 8.7836325 ], [ -3.8628528, 8.730543 ], [ -3.8726152, 8.6997043 ], [ -3.9414188, 8.6718405 ], [ -3.9432134, 8.6424628 ], [ -3.9820294, 8.6390735 ], [ -4.0325823, 8.6614533 ], [ -4.1023992, 8.6603726 ], [ -4.2336685, 8.6794461 ], [ -4.2826947, 8.7489108 ], [ -4.3461147, 8.7258187 ], [ -4.3647771, 8.7560157 ], [ -4.4345459, 8.7417918 ], [ -4.4506773, 8.7720766 ], [ -4.4855412, 8.7919681 ], [ -4.5079017, 8.8348407 ], [ -4.4834377, 8.8871122 ], [ -4.5123796, 8.9171659 ], [ -4.5580068, 8.9275828 ], [ -4.6088249, 8.9215048 ], [ -4.9555635, 8.9296 ], [ -4.9153881, 8.9626818 ], [ -4.8861795, 9.1118261 ], [ -4.9427837, 9.1291992 ], [ -4.9842687, 9.1674411 ], [ -4.9771019, 9.1953555 ], [ -5.0096183, 9.2232521 ], [ -5.0062605, 9.2870875 ], [ -5.0194763, 9.3066911 ], [ -5.1387624, 9.33461 ], [ -5.2045259, 9.4229602 ], [ -5.2995453, 9.3891765 ], [ -5.3303276, 9.3680489 ], [ -5.3882995, 9.2745475 ], [ -5.4026084, 9.211006 ], [ -5.4266544, 9.16946 ], [ -5.5041065, 9.0641413 ], [ -5.4870706, 9.0429088 ], [ -5.4325275, 9.019267 ], [ -5.4739904, 8.9278736 ], [ -5.4496279, 8.8730966 ], [ -5.475584, 8.8574389 ], [ -5.5180626, 8.8743679 ], [ -5.5882277, 8.8673896 ], [ -5.612546, 8.837487 ], [ -5.6737213, 8.8330381 ], [ -5.6985975, 8.8461314 ], [ -5.727119, 8.778899 ], [ -5.6984582, 8.7666881 ], [ -5.6748428, 8.7303734 ], [ -5.7070818, 8.6233637 ], [ -5.6648098, 8.6191283 ], [ -5.6410675, 8.5454586 ], [ -5.7081856, 8.539404 ], [ -5.904953, 8.6480171 ], [ -5.9767918, 8.6544873 ], [ -6.1288057, 8.9121628 ], [ -6.1347589, 8.9423239 ], [ -6.244842, 8.9951974 ], [ -6.2680396, 9.0629051 ], [ -6.2210903, 9.1503637 ], [ -6.2594061, 9.2003366 ], [ -6.3052569, 9.1961572 ], [ -6.3408671, 9.2105303 ], [ -6.4428582, 9.0676975 ], [ -6.4776588, 9.0624398 ], [ -6.5036383, 9.1481811 ], [ -6.5671096, 9.1590843 ], [ -6.5772982, 9.1186828 ], [ -6.5698495, 9.0758884 ], [ -6.610137, 9.0605496 ], [ -6.700355, 9.0627778 ], [ -6.6971207, 9.1012087 ], [ -6.7566471, 9.1181486 ], [ -6.7596512, 9.1664808 ], [ -6.7368398, 9.2691136 ], [ -6.7815528, 9.28269 ], [ -6.799613, 9.3953332 ], [ -6.7995849, 9.4361975 ], [ -6.745687, 9.5023744 ], [ -6.790833, 9.5839393 ], [ -6.7958183, 9.6081722 ], [ -6.7627983, 9.6682755 ], [ -6.7614786, 9.708695 ], [ -6.7420649, 9.7501713 ], [ -6.776877, 9.7703276 ], [ -6.741847, 9.8402481 ], [ -6.7524538, 9.8854519 ], [ -6.7916732, 9.9546229 ], [ -6.9677655, 9.9686901 ], [ -6.9290228, 10.0226892 ], [ -6.9292822, 10.0605864 ], [ -6.8971748, 10.1042014 ], [ -6.8548035, 10.1299146 ], [ -6.7864246, 10.1328938 ], [ -6.7593427, 10.1018931 ], [ -6.7060733, 10.1025988 ], [ -6.6143031, 10.1448415 ], [ -6.5861506, 10.1659276 ], [ -6.5927768, 10.2320269 ], [ -6.6366511, 10.2550166 ], [ -6.6340165, 10.3097686 ], [ -6.6740107, 10.3637442 ], [ -6.6308645, 10.433287 ], [ -6.63017, 10.4388 ], [ -6.63826, 10.44101 ], [ -6.64451, 10.44227 ], [ -6.645086, 10.4468319 ], [ -6.64343, 10.45053 ], [ -6.6644628, 10.4565355 ], [ -6.66609, 10.45714 ], [ -6.67496, 10.46787 ], [ -6.6785082, 10.4667717 ], [ -6.6780726, 10.4781057 ], [ -6.67632, 10.48262 ], [ -6.67674, 10.48516 ], [ -6.68253, 10.48664 ], [ -6.6812242, 10.5218608 ], [ -6.6793804, 10.5330476 ], [ -6.6775928, 10.5326301 ], [ -6.67406, 10.5318 ], [ -6.66541, 10.53441 ], [ -6.6641375, 10.5366281 ], [ -6.6684685, 10.5462251 ], [ -6.669616, 10.5485985 ], [ -6.66804, 10.58606 ], [ -6.6668643, 10.5914613 ], [ -6.67523, 10.59692 ], [ -6.67705, 10.5987919 ], [ -6.65413, 10.6329 ], [ -6.6498686, 10.6350091 ], [ -6.6528923, 10.6416539 ], [ -6.65678, 10.64053 ], [ -6.6228407, 10.6672938 ], [ -6.61597, 10.65983 ], [ -6.5939555, 10.6215713 ], [ -6.57349, 10.61743 ], [ -6.50431, 10.57483 ], [ -6.5028833, 10.575558 ], [ -6.49071, 10.57844 ], [ -6.4708598, 10.5690692 ], [ -6.4442, 10.56543 ], [ -6.43151, 10.57257 ], [ -6.40105, 10.59848 ], [ -6.3973133, 10.6055609 ], [ -6.4004407, 10.6196304 ], [ -6.40826, 10.6246 ], [ -6.41644, 10.70065 ], [ -6.38249, 10.71271 ], [ -6.35048, 10.69465 ], [ -6.25642, 10.73664 ], [ -6.21774, 10.72633 ], [ -6.2149715, 10.7221676 ], [ -6.23331, 10.7 ], [ -6.2255209, 10.6847218 ], [ -6.23464, 10.67041 ], [ -6.23544, 10.66525 ], [ -6.2336378, 10.6620822 ], [ -6.2161627, 10.652582 ], [ -6.2159958, 10.6510424 ], [ -6.2144178, 10.6483034 ], [ -6.21302, 10.64619 ], [ -6.1885403, 10.6336196 ], [ -6.19078, 10.62989 ], [ -6.19814, 10.62198 ], [ -6.21512, 10.62138 ], [ -6.2181258, 10.6202614 ], [ -6.22315, 10.61509 ], [ -6.22512, 10.60938 ], [ -6.2240622, 10.6061011 ], [ -6.2216107, 10.598502 ], [ -6.2199091, 10.5976933 ], [ -6.21042, 10.60036 ], [ -6.21003, 10.59644 ], [ -6.21588, 10.58229 ], [ -6.210283, 10.5833294 ], [ -6.2106451, 10.5765316 ], [ -6.2464, 10.54307 ], [ -6.24598, 10.51639 ], [ -6.2424, 10.51542 ], [ -6.22025, 10.52486 ], [ -6.2172742, 10.5216644 ], [ -6.205, 10.49651 ], [ -6.19872, 10.49639 ], [ -6.16475, 10.48555 ], [ -6.1664519, 10.48354 ], [ -6.16834, 10.48131 ], [ -6.1823, 10.47277 ], [ -6.18454, 10.43723 ], [ -6.16845, 10.42841 ], [ -6.1673237, 10.4273613 ], [ -6.16412, 10.41223 ], [ -6.1676683, 10.4090571 ], [ -6.1714, 10.40822 ], [ -6.17758, 10.4134 ], [ -6.1893883, 10.383377 ], [ -6.1877517, 10.3814555 ], [ -6.1788483, 10.3697655 ], [ -6.17406, 10.36756 ], [ -6.16665, 10.36627 ], [ -6.16555, 10.36326 ], [ -6.19835, 10.33675 ], [ -6.19209, 10.31248 ], [ -6.1932822, 10.3081986 ], [ -6.20507, 10.31365 ], [ -6.2115742, 10.3144697 ], [ -6.23928, 10.29797 ], [ -6.2170695, 10.2564063 ], [ -6.20197, 10.25793 ], [ -6.1991642, 10.2558928 ], [ -6.19776, 10.25293 ], [ -6.1940364, 10.2482586 ], [ -6.1950503, 10.2412971 ], [ -6.1870662, 10.2315783 ], [ -6.18354, 10.22858 ], [ -6.17273, 10.22263 ], [ -6.12127, 10.2051 ], [ -6.10095, 10.1992 ], [ -6.08006, 10.19857 ], [ -6.06069, 10.20372 ], [ -6.02316, 10.19886 ], [ -5.99069, 10.221 ], [ -5.97612, 10.27776 ], [ -5.92459, 10.27561 ], [ -5.8843301, 10.3732599 ], [ -5.84829, 10.3827 ], [ -5.82035, 10.41916 ], [ -5.6590415, 10.4581944 ], [ -5.65342, 10.45639 ], [ -5.6406, 10.45819 ], [ -5.5630921, 10.4638903 ], [ -5.51892, 10.43327 ], [ -5.47261, 10.35221 ], [ -5.40721, 10.29556 ], [ -5.36512, 10.2875 ], [ -5.27855, 10.3157 ], [ -5.2321, 10.31556 ], [ -5.15751, 10.28393 ], [ -5.1123063, 10.3044898 ], [ -5.1205, 10.27877 ], [ -5.07473, 10.1829 ], [ -5.07653, 10.10658 ], [ -5.00922, 10.09672 ], [ -5.02207, 10.07356 ], [ -4.97168, 10.04225 ], [ -4.98783, 9.98437 ], [ -4.94976, 9.94715 ], [ -4.97265, 9.90773 ], [ -4.94086, 9.87955 ], [ -4.91384, 9.89355 ], [ -4.88034, 9.8707 ], [ -4.8291, 9.86207 ], [ -4.78681, 9.83022 ], [ -4.81813, 9.78464 ], [ -4.80024, 9.75519 ], [ -4.7376902, 9.7470485 ], [ -4.70796, 9.688 ], [ -4.6822531, 9.6791887 ], [ -4.62585, 9.70374 ], [ -4.5805, 9.68781 ], [ -4.54752, 9.71363 ], [ -4.52206, 9.70526 ], [ -4.50792, 9.64675 ], [ -4.43762, 9.6624 ], [ -4.39438, 9.59696 ], [ -4.35081, 9.626 ], [ -4.3160071, 9.6029171 ] ] ] ] } },
{ "type": "Feature", "properties": { "POLYGON_ID": "CIV_GAUL1999_ADM1_1051", "ADM0_ISO3": "CIV", "ADM0_NAME": "Côte d'Ivoire", "ADM0_CODE": 66, "ADM1_NAME": "Vallee Du Bandama", "ADM1_CODE": 1051, "GEOSET": "GAUL", "GEOSET_YEAR": 1999.0, "GEOSET_VERSION": "GAUL_v1", "GEOSET_UNIT": "ADM1", "CENTROID_LONG": -4.9591213100814997, "CENTROID_LAT": 8.2613703703850376 }, "geometry": { "type": "MultiPolygon", "coordinates": [ [ [ [ -3.9432134, 8.6424628 ], [ -3.8999379, 8.5771969 ], [ -3.9817378, 8.5370036 ], [ -3.9822789, 8.5151911 ], [ -3.9266111, 8.492976 ], [ -3.9361958, 8.4511206 ], [ -4.006339, 8.4262876 ], [ -3.9819728, 8.3540794 ], [ -3.9758787, 8.2989073 ], [ -4.0330019, 8.3078013 ], [ -4.061862, 8.2890904 ], [ -4.0093241, 8.2321366 ], [ -4.0335776, 8.1989708 ], [ -4.024546, 8.17294 ], [ -3.9828392, 8.1650839 ], [ -3.9384023, 8.104275 ], [ -3.9957182, 8.1071872 ], [ -4.0181575, 8.0487653 ], [ -4.0908149, 8.0086376 ], [ -4.0644795, 7.9699588 ], [ -4.08223, 7.9222624 ], [ -4.1163011, 7.9193964 ], [ -4.156962, 7.8901404 ], [ -4.2081141, 7.8889982 ], [ -4.2655414, 7.9249959 ], [ -4.3062304, 7.8741413 ], [ -4.3462764, 7.8458708 ], [ -4.503612, 7.8172345 ], [ -4.5287409, 7.8232819 ], [ -4.536552, 7.7744084 ], [ -4.5134874, 7.7340028 ], [ -4.4955011, 7.6129357 ], [ -4.5721878, 7.6196976 ], [ -4.6098699, 7.5706153 ], [ -4.6580459, 7.5523686 ], [ -4.6694663, 7.5268269 ], [ -4.7258467, 7.5316109 ], [ -4.7763818, 7.5809094 ], [ -4.7893392, 7.5654149 ], [ -4.8410292, 7.5735901 ], [ -4.8592834, 7.6038617 ], [ -4.9299679, 7.5238352 ], [ -4.9255633, 7.4842337 ], [ -4.9655948, 7.4924852 ], [ -5.0006023, 7.4753311 ], [ -5.0642778, 7.4061545 ], [ -5.1129241, 7.3937536 ], [ -5.1214704, 7.3672218 ], [ -5.1962499, 7.3275774 ], [ -5.209032, 7.295779 ], [ -5.2470638, 7.2889668 ], [ -5.2904305, 7.231904 ], [ -5.3209405, 7.2418127 ], [ -5.3934488, 7.2424425 ], [ -5.4067192, 7.2778598 ], [ -5.4370689, 7.3064048 ], [ -5.63761, 7.2669287 ], [ -5.6508102, 7.250052 ], [ -5.653399, 7.2768277 ], [ -5.721076, 7.3291417 ], [ -5.7344322, 7.4066952 ], [ -5.7162785, 7.4609815 ], [ -5.7350535, 7.4988745 ], [ -5.7258298, 7.5443888 ], [ -5.6963022, 7.5482585 ], [ -5.7028052, 7.6029308 ], [ -5.6883248, 7.6322855 ], [ -5.6887535, 7.7005669 ], [ -5.7382063, 7.751789 ], [ -5.7694291, 7.8018085 ], [ -5.7694721, 7.8972665 ], [ -5.7496348, 7.977702 ], [ -5.7264448, 8.0270064 ], [ -5.5691503, 8.0243379 ], [ -5.5152402, 8.085412 ], [ -5.5193639, 8.110653 ], [ -5.3974043, 8.105817 ], [ -5.3888616, 8.1690206 ], [ -5.3517241, 8.1772919 ], [ -5.3478155, 8.2230223 ], [ -5.3672152, 8.2371587 ], [ -5.3942504, 8.3045444 ], [ -5.5078406, 8.3830814 ], [ -5.5507136, 8.3831939 ], [ -5.58565, 8.4171561 ], [ -5.6310386, 8.4386881 ], [ -5.5756598, 8.4881277 ], [ -5.6213369, 8.5483789 ], [ -5.6410675, 8.5454586 ], [ -5.6648098, 8.6191283 ], [ -5.7070818, 8.6233637 ], [ -5.6748428, 8.7303734 ], [ -5.6984582, 8.7666881 ], [ -5.727119, 8.778899 ], [ -5.6985975, 8.8461314 ], [ -5.6737213, 8.8330381 ], [ -5.612546, 8.837487 ], [ -5.5882277, 8.8673896 ], [ -5.5180626, 8.8743679 ], [ -5.475584, 8.8574389 ], [ -5.4496279, 8.8730966 ], [ -5.4739904, 8.9278736 ], [ -5.4325275, 9.019267 ], [ -5.4870706, 9.0429088 ], [ -5.5041065, 9.0641413 ], [ -5.4266544, 9.16946 ], [ -5.4026084, 9.211006 ], [ -5.3882995, 9.2745475 ], [ -5.3303276, 9.3680489 ], [ -5.2995453, 9.3891765 ], [ -5.2045259, 9.4229602 ], [ -5.1387624, 9.33461 ], [ -5.0194763, 9.3066911 ], [ -5.0062605, 9.2870875 ], [ -5.0096183, 9.2232521 ], [ -4.9771019, 9.1953555 ], [ -4.9842687, 9.1674411 ], [ -4.9427837, 9.1291992 ], [ -4.8861795, 9.1118261 ], [ -4.9153881, 8.9626818 ], [ -4.9555635, 8.9296 ], [ -4.6088249, 8.9215048 ], [ -4.5580068, 8.9275828 ], [ -4.5123796, 8.9171659 ], [ -4.4834377, 8.8871122 ], [ -4.5079017, 8.8348407 ], [ -4.4855412, 8.7919681 ], [ -4.4506773, 8.7720766 ], [ -4.4345459, 8.7417918 ], [ -4.3647771, 8.7560157 ], [ -4.3461147, 8.7258187 ], [ -4.2826947, 8.7489108 ], [ -4.2336685, 8.6794461 ], [ -4.1023992, 8.6603726 ], [ -4.0325823, 8.6614533 ], [ -3.9820294, 8.6390735 ], [ -3.9432134, 8.6424628 ] ] ] ] } },
{ "type": "Feature", "properties": { "POLYGON_ID": "CIV_GAUL1999_ADM1_1053", "ADM0_ISO3": "CIV", "ADM0_NAME": "Côte d'Ivoire", "ADM0_CODE": 66, "ADM1_NAME": "Zanzan", "ADM1_CODE": 1053, "GEOSET": "GAUL", "GEOSET_YEAR": 1999.0, "GEOSET_VERSION": "GAUL_v1", "GEOSET_UNIT": "ADM1", "CENTROID_LONG": -3.3471444882402901, "CENTROID_LAT": 8.6697503238020914 }, "geometry": { "type": "MultiPolygon", "coordinates": [ [ [ [ -3.0789646, 7.0562393 ], [ -3.1340835, 7.1249595 ], [ -3.1863032, 7.1694856 ], [ -3.2231135, 7.1841948 ], [ -3.2469536, 7.2431586 ], [ -3.2500636, 7.3220991 ], [ -3.3140892, 7.3279414 ], [ -3.2971193, 7.2949241 ], [ -3.3779629, 7.2516402 ], [ -3.4389235, 7.3382301 ], [ -3.5152243, 7.3543374 ], [ -3.4981988, 7.4320434 ], [ -3.5351029, 7.4854347 ], [ -3.6027278, 7.5218579 ], [ -3.5750669, 7.5539234 ], [ -3.5838204, 7.5833743 ], [ -3.661522, 7.5857134 ], [ -3.6851959, 7.6410965 ], [ -3.7341955, 7.6664098 ], [ -3.7356506, 7.7351839 ], [ -3.8015035, 7.7424019 ], [ -3.8588549, 7.7981426 ], [ -3.8648558, 7.8441389 ], [ -3.8848745, 7.8779061 ], [ -3.9649102, 7.8913843 ], [ -3.9668732, 7.9155399 ], [ -3.9250542, 7.9571406 ], [ -3.9285041, 7.9754704 ], [ -3.9884284, 7.9663403 ], [ -3.9930494, 8.0105952 ], [ -4.0181575, 8.0487653 ], [ -3.9957182, 8.1071872 ], [ -3.9384023, 8.104275 ], [ -3.9828392, 8.1650839 ], [ -4.024546, 8.17294 ], [ -4.0335776, 8.1989708 ], [ -4.0093241, 8.2321366 ], [ -4.061862, 8.2890904 ], [ -4.0330019, 8.3078013 ], [ -3.9758787, 8.2989073 ], [ -3.9819728, 8.3540794 ], [ -4.006339, 8.4262876 ], [ -3.9361958, 8.4511206 ], [ -3.9266111, 8.492976 ], [ -3.9822789, 8.5151911 ], [ -3.9817378, 8.5370036 ], [ -3.8999379, 8.5771969 ], [ -3.9432134, 8.6424628 ], [ -3.9414188, 8.6718405 ], [ -3.8726152, 8.6997043 ], [ -3.8628528, 8.730543 ], [ -3.8107551, 8.7836325 ], [ -3.8059265, 8.825839 ], [ -3.8546228, 8.8842671 ], [ -3.8640796, 8.9161875 ], [ -3.8927912, 8.9266473 ], [ -3.845284, 8.9735697 ], [ -3.8000668, 8.993392 ], [ -3.8164169, 9.0208456 ], [ -3.8496676, 9.025525 ], [ -3.8853529, 9.0669871 ], [ -3.9048835, 9.1498955 ], [ -3.9571876, 9.2064086 ], [ -4.0263944, 9.2122615 ], [ -4.0682617, 9.2544861 ], [ -4.1242055, 9.2630748 ], [ -4.1669022, 9.2294123 ], [ -4.196799, 9.2616577 ], [ -4.169856, 9.2855883 ], [ -4.2085995, 9.3471251 ], [ -4.1771407, 9.4002562 ], [ -4.1906076, 9.4489849 ], [ -4.2314757, 9.4787226 ], [ -4.2393452, 9.5343346 ], [ -4.2756295, 9.5578116 ], [ -4.3160071, 9.6029171 ], [ -4.29085, 9.63792 ], [ -4.26718, 9.73729 ], [ -4.18042, 9.77533 ], [ -4.1234, 9.83165 ], [ -4.07891, 9.80445 ], [ -4.0429024, 9.8016397 ], [ -4.03059, 9.8342 ], [ -3.9876009, 9.8296099 ], [ -3.97294, 9.86946 ], [ -3.91865, 9.87889 ], [ -3.8994475, 9.9004804 ], [ -3.80917, 9.88827 ], [ -3.78863, 9.91196 ], [ -3.70863, 9.94252 ], [ -3.63232, 9.95275 ], [ -3.59932, 9.91969 ], [ -3.46979, 9.92508 ], [ -3.39724, 9.91654 ], [ -3.34333, 9.89057 ], [ -3.31073, 9.89494 ], [ -3.31111, 9.85382 ], [ -3.27886, 9.85305 ], [ -3.19946, 9.9273973 ], [ -3.18416, 9.84289 ], [ -3.12056, 9.83961 ], [ -3.06619, 9.72327 ], [ -3.01725, 9.74334 ], [ -2.9952015, 9.7196522 ], [ -2.96613, 9.64669 ], [ -2.90123, 9.531 ], [ -2.79873, 9.41926 ], [ -2.76318, 9.40111 ], [ -2.6869194, 9.4907363 ], [ -2.683666, 9.4849525 ], [ -2.6846824, 9.473819 ], [ -2.6899026, 9.4539542 ], [ -2.6895336, 9.4485859 ], [ -2.673595, 9.3841041 ], [ -2.6772446, 9.3681199 ], [ -2.719979, 9.3329917 ], [ -2.7213629, 9.3249255 ], [ -2.7213039, 9.3225173 ], [ -2.7210857, 9.3136072 ], [ -2.6581652, 9.2599722 ], [ -2.6576108, 9.2524883 ], [ -2.7077435, 9.2118557 ], [ -2.7126088, 9.2078232 ], [ -2.7137307, 9.2068934 ], [ -2.7140604, 9.2063636 ], [ -2.7177902, 9.2003708 ], [ -2.7365758, 9.1578202 ], [ -2.74565, 9.1527272 ], [ -2.7617249, 9.1512072 ], [ -2.7729635, 9.1429164 ], [ -2.7736543, 9.1365141 ], [ -2.7606195, 9.0928035 ], [ -2.7799645, 9.0620356 ], [ -2.7516378, 9.0331101 ], [ -2.6641244, 9.0192461 ], [ -2.6547282, 9.007593 ], [ -2.6544979, 9.004461 ], [ -2.6582287, 8.9838723 ], [ -2.6578129, 8.9812048 ], [ -2.6560865, 8.9701296 ], [ -2.6533464, 8.9525517 ], [ -2.6520983, 8.9449459 ], [ -2.6456814, 8.9364044 ], [ -2.6179863, 8.9184887 ], [ -2.6167865, 8.9110864 ], [ -2.6216573, 8.894954 ], [ -2.6231262, 8.87736 ], [ -2.6039566, 8.8427563 ], [ -2.6001598, 8.8385376 ], [ -2.5971023, 8.8321383 ], [ -2.5973521, 8.8305444 ], [ -2.63013, 8.7945971 ], [ -2.6284487, 8.7933513 ], [ -2.622641, 8.7890479 ], [ -2.6159765, 8.7841097 ], [ -2.6093321, 8.783077 ], [ -2.6040705, 8.7873432 ], [ -2.586517, 8.7862776 ], [ -2.5539557, 8.5933356 ], [ -2.5390224, 8.498685 ], [ -2.5280645, 8.4292312 ], [ -2.4970376, 8.2325753 ], [ -2.4937576, 8.2044813 ], [ -2.5010125, 8.1995888 ], [ -2.5109335, 8.1928984 ], [ -2.5277772, 8.1815393 ], [ -2.548327, 8.167681 ], [ -2.5899147, 8.1723125 ], [ -2.6146164, 8.1378652 ], [ -2.613748, 8.1363213 ], [ -2.5795902, 8.0751459 ], [ -2.5968621, 8.0408916 ], [ -2.6738439, 8.0269426 ], [ -2.7530741, 7.9276797 ], [ -2.7803514, 7.9443658 ], [ -2.7893248, 7.8590145 ], [ -2.8128097, 7.8385717 ], [ -2.827092, 7.8240093 ], [ -2.8294921, 7.8211391 ], [ -2.8243835, 7.8064264 ], [ -2.834056, 7.79598 ], [ -2.8452814, 7.7836548 ], [ -2.8470084, 7.7699957 ], [ -2.8475473, 7.7657332 ], [ -2.8617378, 7.7429867 ], [ -2.899447, 7.6531985 ], [ -2.9208363, 7.6118735 ], [ -2.9312195, 7.4976588 ], [ -2.9345246, 7.4884547 ], [ -2.9413965, 7.4693177 ], [ -2.9476249, 7.4519729 ], [ -2.9713329, 7.3280403 ], [ -2.9765566, 7.2693615 ], [ -2.9766977, 7.2677757 ], [ -2.972967, 7.2624559 ], [ -2.9542701, 7.2357955 ], [ -3.0240835, 7.1419784 ], [ -3.0315208, 7.070911 ], [ -3.0381058, 7.0700588 ], [ -3.0645125, 7.0622484 ], [ -3.069816, 7.0600432 ], [ -3.0789646, 7.0562393 ] ] ] ] } }
]
}
