{
"type": "FeatureCollection",
"name": "CMR_GAUL1997_ADM1",
"crs": { "type": "name", "properties": { "name": "urn:ogc:def:crs:OGC:1.3:CRS84" } },
"features": [
{ "type": "Feature", "properties": { "POLYGON_ID": "CMR_GAUL1997_ADM1_815", "ADM0_ISO3": "CMR", "ADM0_NAME": "Cameroon", "ADM0_CODE": 45, "ADM1_NAME": "Adamaoua", "ADM1_CODE": 815, "GEOSET": "GAUL", "GEOSET_YEAR": 1997.0, "GEOSET_VERSION": "GAUL_v1", "GEOSET_UNIT": "ADM1", "CENTROID_LONG": 13.142099576528908, "CENTROID_LAT": 6.8475235733576918 }, "geometry": { "type": "MultiPolygon", "coordinates": [ [ [ [ 15.2161938, 7.2248031 ], [ 15.216025, 7.1191493 ], [ 15.2115716, 7.1103809 ], [ 15.20957, 7.10644 ], [ 15.19929, 7.08069 ], [ 15.1818908, 7.0719706 ], [ 15.16971, 7.06669 ], [ 15.16228, 7.04513 ], [ 15.1591176, 7.0431278 ], [ 15.15721, 7.04192 ], [ 15.15535, 7.0332 ], [ 15.1525048, 7.0309663 ], [ 15.1426487, 6.9832401 ], [ 15.13974, 6.96686 ], [ 15.14357, 6.94979 ], [ 15.13367, 6.93702 ], [ 15.1283203, 6.9258735 ], [ 15.11934, 6.91271 ], [ 15.11422, 6.8925 ], [ 15.1139133, 6.891831 ], [ 15.11075, 6.88493 ], [ 15.1085905, 6.8820928 ], [ 15.1013149, 6.8716553 ], [ 15.1003242, 6.8658941 ], [ 15.09014, 6.83698 ], [ 15.0896407, 6.8362748 ], [ 15.07258, 6.809 ], [ 15.0722211, 6.8025282 ], [ 15.05152, 6.76105 ], [ 15.0144757, 6.7632498 ], [ 15.005277, 6.7565896 ], [ 15.0033439, 6.756315 ], [ 14.9707689, 6.7489185 ], [ 14.96686, 6.7434 ], [ 14.96065, 6.72501 ], [ 14.95536, 6.7149 ], [ 14.95284, 6.71306 ], [ 14.9344414, 6.6711848 ], [ 14.93284, 6.66754 ], [ 14.93077, 6.65811 ], [ 14.92301, 6.64198 ], [ 14.89607, 6.58593 ], [ 14.87142, 6.52664 ], [ 14.8615415, 6.5057175 ], [ 14.85862, 6.50039 ], [ 14.83703, 6.45533 ], [ 14.81576, 6.41378 ], [ 14.8144153, 6.4111468 ], [ 14.81337, 6.4091 ], [ 14.81592, 6.36036 ], [ 14.79938, 6.33277 ], [ 14.7978411, 6.3319958 ], [ 14.79616, 6.33115 ], [ 14.7774, 6.30227 ], [ 14.7545, 6.26702 ], [ 14.72426, 6.24444 ], [ 14.6819153, 6.2288713 ], [ 14.65096, 6.21749 ], [ 14.6445077, 6.2158975 ], [ 14.64156, 6.21517 ], [ 14.6351, 6.21357 ], [ 14.63345, 6.2126158 ], [ 14.5986942, 6.1990141 ], [ 14.5792555, 6.1926212 ], [ 14.561977, 6.1901073 ], [ 14.5433442, 6.1732813 ], [ 14.54218, 6.17223 ], [ 14.53459, 6.16857 ], [ 14.5264692, 6.1549676 ], [ 14.52582, 6.15388 ], [ 14.50554, 6.12726 ], [ 14.5019883, 6.1256785 ], [ 14.47423, 6.10366 ], [ 14.472608, 6.0986186 ], [ 14.47238, 6.09791 ], [ 14.4721785, 6.0977802 ], [ 14.4684686, 6.0953896 ], [ 14.4524137, 6.0899201 ], [ 14.445973, 6.0862414 ], [ 14.4257, 6.0837512 ], [ 14.4257, 6.0828252 ], [ 14.4202577, 6.0394362 ], [ 14.3822543, 5.999714 ], [ 13.9995019, 6.0007308 ], [ 14.0005074, 6.0647463 ], [ 13.9651982, 6.0524336 ], [ 13.9355576, 6.0674898 ], [ 13.8919432, 6.0590625 ], [ 13.826509, 6.0150483 ], [ 13.8291252, 6.0010721 ], [ 13.3995101, 6.0014807 ], [ 12.884638, 6.0001044 ], [ 12.5110261, 6.0004766 ], [ 12.4598774, 6.0867611 ], [ 12.4014818, 6.1149221 ], [ 12.2874339, 6.1994683 ], [ 12.1965251, 6.180324 ], [ 12.1838481, 6.1529108 ], [ 12.0942782, 6.1535902 ], [ 11.9922354, 6.2172576 ], [ 12.0025545, 6.2602733 ], [ 11.9426504, 6.2486979 ], [ 11.9419188, 6.2270107 ], [ 11.8995202, 6.2060119 ], [ 11.8589454, 6.2114268 ], [ 11.7034687, 6.1379906 ], [ 11.6598219, 6.0786209 ], [ 11.5942278, 6.0555613 ], [ 11.3852025, 6.0103684 ], [ 11.3118751, 5.997846 ], [ 11.2623102, 5.9726818 ], [ 11.266495, 5.9988498 ], [ 11.3066879, 6.0413719 ], [ 11.2624078, 6.1357893 ], [ 11.2782984, 6.1639435 ], [ 11.276693, 6.2075975 ], [ 11.3010068, 6.2481495 ], [ 11.1968008, 6.2586502 ], [ 11.1889152, 6.3099068 ], [ 11.2071392, 6.4247662 ], [ 11.1924216, 6.4466897 ], [ 11.1989685, 6.5128752 ], [ 11.2363757, 6.5303973 ], [ 11.2368439, 6.5303083 ], [ 11.2724723, 6.5374947 ], [ 11.2762806, 6.5375427 ], [ 11.3170868, 6.5049986 ], [ 11.3557413, 6.525095 ], [ 11.4207468, 6.5293081 ], [ 11.4222955, 6.5972854 ], [ 11.4687919, 6.6046136 ], [ 11.4722321, 6.6033712 ], [ 11.4954435, 6.600158 ], [ 11.5523266, 6.6639198 ], [ 11.5508206, 6.715811 ], [ 11.5842051, 6.7349753 ], [ 11.5700541, 6.7713343 ], [ 11.5792879, 6.8421823 ], [ 11.5533802, 6.8593654 ], [ 11.6047851, 6.935607 ], [ 11.6309326, 6.9891314 ], [ 11.6573455, 6.9877733 ], [ 11.6943249, 7.0255818 ], [ 11.6949389, 7.0258948 ], [ 11.7065076, 7.0313218 ], [ 11.7082593, 7.0325459 ], [ 11.7133603, 7.0329173 ], [ 11.7145008, 7.0357355 ], [ 11.7124039, 7.0409187 ], [ 11.7154769, 7.0436262 ], [ 11.7650333, 7.0425113 ], [ 11.7860239, 7.0602479 ], [ 11.786429, 7.063899 ], [ 11.8479524, 7.0852956 ], [ 11.8502213, 7.0808039 ], [ 11.8802073, 7.1105778 ], [ 11.8606966, 7.1423414 ], [ 11.8558942, 7.1932158 ], [ 11.8683104, 7.2351174 ], [ 11.8477738, 7.253239 ], [ 11.8727024, 7.3094048 ], [ 11.9127394, 7.3697081 ], [ 11.9241496, 7.4252415 ], [ 11.9307926, 7.4346753 ], [ 11.914198, 7.4666069 ], [ 12.0242594, 7.5300052 ], [ 12.0098377, 7.5452894 ], [ 12.0116067, 7.6307545 ], [ 11.9967087, 7.6672981 ], [ 12.0503217, 7.7342691 ], [ 12.0609809, 7.763685 ], [ 12.0601414, 7.7664299 ], [ 12.1360374, 7.870801 ], [ 12.1493762, 7.8871426 ], [ 12.2124624, 7.9819455 ], [ 12.19872, 8.0102403 ], [ 12.1932814, 8.1120396 ], [ 12.2344186, 8.1629829 ], [ 12.2356518, 8.1976369 ], [ 12.2758745, 8.1510711 ], [ 12.2816549, 8.1247397 ], [ 12.3404227, 8.0618387 ], [ 12.4027234, 8.0224409 ], [ 12.4202874, 7.9945213 ], [ 12.4559894, 7.9933876 ], [ 12.517747, 7.9565539 ], [ 12.5445249, 7.9773483 ], [ 12.589413, 7.9655544 ], [ 12.629767, 7.9835358 ], [ 12.6297012, 7.9352856 ], [ 12.6541658, 7.8634725 ], [ 12.6323708, 7.8294446 ], [ 12.6462306, 7.7842988 ], [ 12.6366808, 7.7600166 ], [ 12.6889978, 7.7313812 ], [ 12.7169491, 7.7375873 ], [ 12.7449515, 7.6953065 ], [ 12.8101314, 7.6616548 ], [ 12.8475021, 7.6646657 ], [ 12.9668401, 7.653433 ], [ 13.0723376, 7.6045195 ], [ 13.1541963, 7.5950286 ], [ 13.2250604, 7.5999534 ], [ 13.2619398, 7.6221735 ], [ 13.2532238, 7.6660002 ], [ 13.2850742, 7.698682 ], [ 13.2856479, 7.7554834 ], [ 13.3067568, 7.7780037 ], [ 13.308908, 7.8186168 ], [ 13.34288, 7.8577078 ], [ 13.3287617, 7.9040365 ], [ 13.3570433, 7.9301139 ], [ 13.3547693, 7.964147 ], [ 13.4154557, 7.9585525 ], [ 13.4345079, 7.9104426 ], [ 13.5039774, 7.9215688 ], [ 13.5657252, 7.9055662 ], [ 13.5896944, 7.9252846 ], [ 13.6347111, 7.922459 ], [ 13.6998622, 7.9545891 ], [ 13.7440241, 7.9142499 ], [ 13.7350923, 7.8600236 ], [ 13.7738323, 7.7802143 ], [ 13.82719, 7.7459197 ], [ 13.8600387, 7.7120366 ], [ 13.8906615, 7.6564171 ], [ 13.8715942, 7.6246153 ], [ 13.9123739, 7.59011 ], [ 13.9847497, 7.5762887 ], [ 14.0074809, 7.5529572 ], [ 14.1178595, 7.5725355 ], [ 14.13739, 7.5472729 ], [ 14.1447789, 7.4850827 ], [ 14.2148599, 7.4580952 ], [ 14.2160184, 7.4045671 ], [ 14.2534629, 7.3460616 ], [ 14.3430666, 7.3077625 ], [ 14.3561384, 7.2679865 ], [ 14.3563199, 7.1975011 ], [ 14.3239995, 7.1630227 ], [ 14.3986394, 7.1490438 ], [ 14.5112853, 7.1624785 ], [ 14.5699372, 7.0812456 ], [ 14.6440355, 7.0619732 ], [ 14.6458636, 7.0210989 ], [ 14.727483, 7.0230831 ], [ 14.8343969, 7.0851038 ], [ 14.8730705, 7.0802105 ], [ 14.9103747, 7.1036653 ], [ 14.9945874, 7.1370996 ], [ 15.047802, 7.1758939 ], [ 15.0772773, 7.1789843 ], [ 15.1145946, 7.1537341 ], [ 15.2161938, 7.2248031 ] ] ] ] } },
{ "type": "Feature", "properties": { "POLYGON_ID": "CMR_GAUL1997_ADM1_816", "ADM0_ISO3": "CMR", "ADM0_NAME": "Cameroon", "ADM0_CODE": 45, "ADM1_NAME": "Centre", "ADM1_CODE": 816, "GEOSET": "GAUL", "GEOSET_YEAR": 1997.0, "GEOSET_VERSION": "GAUL_v1", "GEOSET_UNIT": "ADM1", "CENTROID_LONG": 11.821436519948433, "CENTROID_LAT": 4.6637590883428111 }, "geometry": { "type": "MultiPolygon", "coordinates": [ [ [ [ 12.884638, 6.0001044 ], [ 12.8743976, 5.9819344 ], [ 12.8678117, 5.9013812 ], [ 12.9518674, 5.7896324 ], [ 12.9668601, 5.70822 ], [ 13.0011382, 5.701177 ], [ 13.0075214, 5.641797 ], [ 13.054395, 5.5872724 ], [ 13.0728141, 5.5189952 ], [ 13.0087598, 5.4005202 ], [ 12.9623729, 5.3288299 ], [ 12.9265436, 5.3141351 ], [ 12.8840279, 5.3253897 ], [ 12.8088128, 5.279765 ], [ 12.9063202, 5.2137258 ], [ 13.0003316, 5.1259791 ], [ 13.0298066, 5.1077664 ], [ 13.0606737, 5.065072 ], [ 13.0590078, 5.0365499 ], [ 13.0201736, 4.9644426 ], [ 13.0630098, 4.9324247 ], [ 13.1897844, 4.9163573 ], [ 13.1954258, 4.8764548 ], [ 13.2401657, 4.8188832 ], [ 13.2453398, 4.7801801 ], [ 13.2221827, 4.7581229 ], [ 13.2180156, 4.6987078 ], [ 13.2279032, 4.6515017 ], [ 13.2097455, 4.5983761 ], [ 13.2120774, 4.5504359 ], [ 13.1314051, 4.5457715 ], [ 13.0749466, 4.5854891 ], [ 13.0261099, 4.6067788 ], [ 12.9794483, 4.5922369 ], [ 12.979595, 4.5650143 ], [ 12.876419, 4.5174586 ], [ 12.8423571, 4.3737464 ], [ 12.7822513, 4.3426015 ], [ 12.8041432, 4.2578721 ], [ 12.7826994, 4.2023272 ], [ 12.7802033, 4.1280582 ], [ 12.754507, 4.0887698 ], [ 12.8076977, 4.0605682 ], [ 12.7927616, 4.0326942 ], [ 12.7281389, 4.009347 ], [ 12.6583737, 3.9391935 ], [ 12.5857707, 3.9261324 ], [ 12.5247953, 3.8783713 ], [ 12.4941355, 3.8847109 ], [ 12.5023604, 3.831039 ], [ 12.550561, 3.7750837 ], [ 12.618491, 3.7104212 ], [ 12.6016407, 3.6148129 ], [ 12.564188, 3.533699 ], [ 12.5237429, 3.5897603 ], [ 12.5292413, 3.628085 ], [ 12.5051692, 3.6753658 ], [ 12.4469923, 3.6679473 ], [ 12.4332233, 3.61185 ], [ 12.400838, 3.6006226 ], [ 12.2541307, 3.4760535 ], [ 12.2220738, 3.3399622 ], [ 12.205217, 3.3115771 ], [ 12.1597233, 3.3259449 ], [ 12.1359311, 3.3599607 ], [ 12.0015714, 3.4049659 ], [ 11.980696, 3.434049 ], [ 11.9370632, 3.4401612 ], [ 11.8917281, 3.4740083 ], [ 11.8510411, 3.3738073 ], [ 11.7766879, 3.3279989 ], [ 11.7406292, 3.3217644 ], [ 11.7461308, 3.2894711 ], [ 11.7095687, 3.2727149 ], [ 11.6994994, 3.1983808 ], [ 11.6421433, 3.1881294 ], [ 11.5855762, 3.1610134 ], [ 11.5654162, 3.1373899 ], [ 11.4141019, 3.1344038 ], [ 11.3640338, 3.1406173 ], [ 11.3311387, 3.1133063 ], [ 11.2703949, 3.1353246 ], [ 11.2098578, 3.1088989 ], [ 11.1906408, 3.1362074 ], [ 11.157046, 3.2299245 ], [ 11.1135309, 3.247598 ], [ 11.113865, 3.2932859 ], [ 11.0656364, 3.3918239 ], [ 11.032107, 3.414883 ], [ 10.9546326, 3.4156112 ], [ 10.8418726, 3.3973821 ], [ 10.8168689, 3.457122 ], [ 10.7624017, 3.4734302 ], [ 10.5497519, 3.4024293 ], [ 10.3028502, 3.3329183 ], [ 10.2910637, 3.3330534 ], [ 10.2517278, 3.4125767 ], [ 10.2323327, 3.5146689 ], [ 10.2845585, 3.5222198 ], [ 10.3238498, 3.5602845 ], [ 10.336546, 3.6244956 ], [ 10.3734161, 3.6889296 ], [ 10.3658057, 3.725755 ], [ 10.3829126, 3.7787295 ], [ 10.4154573, 3.8131399 ], [ 10.4618969, 3.8211872 ], [ 10.5718059, 3.7604596 ], [ 10.604326, 3.7267907 ], [ 10.6448252, 3.8237111 ], [ 10.6674781, 3.8471795 ], [ 10.6459707, 3.9174479 ], [ 10.6459642, 3.9679565 ], [ 10.6929015, 3.9878941 ], [ 10.7116133, 4.0566894 ], [ 10.8220938, 4.0926687 ], [ 10.8517439, 4.1154405 ], [ 10.9405633, 4.127061 ], [ 11.0747596, 4.1886828 ], [ 11.0775203, 4.2280277 ], [ 11.0458301, 4.2436803 ], [ 10.9747537, 4.3373922 ], [ 10.9694239, 4.3774643 ], [ 10.9410076, 4.3887895 ], [ 10.9363364, 4.42119 ], [ 10.8932411, 4.4715897 ], [ 10.9219716, 4.5859396 ], [ 10.8769526, 4.5814839 ], [ 10.8331952, 4.6106276 ], [ 10.7830444, 4.6091717 ], [ 10.7852633, 4.5138039 ], [ 10.7415561, 4.4917405 ], [ 10.6938555, 4.4856948 ], [ 10.6408199, 4.4611609 ], [ 10.5744121, 4.454607 ], [ 10.5045848, 4.4670761 ], [ 10.4514619, 4.4894368 ], [ 10.394155, 4.4765073 ], [ 10.3781297, 4.513636 ], [ 10.416402, 4.606526 ], [ 10.4921183, 4.6934695 ], [ 10.4707652, 4.7461571 ], [ 10.4410733, 4.7185823 ], [ 10.362134, 4.6913424 ], [ 10.3444475, 4.7028628 ], [ 10.360338, 4.76504 ], [ 10.3780685, 4.7870434 ], [ 10.4155438, 4.7879476 ], [ 10.4445497, 4.8336866 ], [ 10.4776739, 4.8515612 ], [ 10.4882355, 4.8813521 ], [ 10.523846, 4.8988549 ], [ 10.5996808, 4.8833887 ], [ 10.651244, 4.9234358 ], [ 10.7212763, 4.9537867 ], [ 10.7674809, 5.0151274 ], [ 10.8130175, 5.008806 ], [ 10.8245312, 4.9709747 ], [ 10.8842589, 4.9339399 ], [ 10.9412962, 4.9223556 ], [ 10.961121, 4.965248 ], [ 10.9446495, 5.0054047 ], [ 10.9706703, 5.0357379 ], [ 10.9867484, 5.0835086 ], [ 10.9963099, 5.1548776 ], [ 11.0806199, 5.1880487 ], [ 11.0677404, 5.212367 ], [ 11.0811894, 5.2678102 ], [ 11.0703037, 5.2959727 ], [ 11.123166, 5.3251416 ], [ 11.1610112, 5.3759088 ], [ 11.1845294, 5.3849961 ], [ 11.1931904, 5.4606243 ], [ 11.2146342, 5.5264214 ], [ 11.2141403, 5.5576032 ], [ 11.1857853, 5.6040217 ], [ 11.2124925, 5.6467174 ], [ 11.2025189, 5.6721279 ], [ 11.258365, 5.7121089 ], [ 11.3081934, 5.7716687 ], [ 11.2693462, 5.8259298 ], [ 11.2779135, 5.8688422 ], [ 11.2527319, 5.9071534 ], [ 11.276521, 5.9389991 ], [ 11.2623102, 5.9726818 ], [ 11.3118751, 5.997846 ], [ 11.3852025, 6.0103684 ], [ 11.5942278, 6.0555613 ], [ 11.6598219, 6.0786209 ], [ 11.7034687, 6.1379906 ], [ 11.8589454, 6.2114268 ], [ 11.8995202, 6.2060119 ], [ 11.9419188, 6.2270107 ], [ 11.9426504, 6.2486979 ], [ 12.0025545, 6.2602733 ], [ 11.9922354, 6.2172576 ], [ 12.0942782, 6.1535902 ], [ 12.1838481, 6.1529108 ], [ 12.1965251, 6.180324 ], [ 12.2874339, 6.1994683 ], [ 12.4014818, 6.1149221 ], [ 12.4598774, 6.0867611 ], [ 12.5110261, 6.0004766 ], [ 12.884638, 6.0001044 ] ] ] ] } },
{ "type": "Feature", "properties": { "POLYGON_ID": "CMR_GAUL1997_ADM1_817", "ADM0_ISO3": "CMR", "ADM0_NAME": "Cameroon", "ADM0_CODE": 45, "ADM1_NAME": "Est", "ADM1_CODE": 817, "GEOSET": "GAUL", "GEOSET_YEAR": 1997.0, "GEOSET_VERSION": "GAUL_v1", "GEOSET_UNIT": "ADM1", "CENTROID_LONG": 14.209335189635247, "CENTROID_LAT": 3.8004605077593419 }, "geometry": { "type": "MultiPolygon", "coordinates": [ [ [ [ 14.4202577, 6.0394362 ], [ 14.4293922, 6.0223318 ], [ 14.43063, 6.02076 ], [ 14.43611, 6.00259 ], [ 14.4657, 5.97723 ], [ 14.49361, 5.9144 ], [ 14.5285052, 5.8977186 ], [ 14.55557, 5.90513 ], [ 14.5712, 5.90192 ], [ 14.57606, 5.90541 ], [ 14.59127, 5.91968 ], [ 14.5942735, 5.9199896 ], [ 14.62231, 5.88046 ], [ 14.62108, 5.86135 ], [ 14.62005, 5.84535 ], [ 14.62711, 5.81728 ], [ 14.62744, 5.75864 ], [ 14.6234919, 5.6895281 ], [ 14.61807, 5.67887 ], [ 14.61113, 5.65567 ], [ 14.6111193, 5.6492733 ], [ 14.60232, 5.61659 ], [ 14.6003725, 5.6120415 ], [ 14.6093, 5.55472 ], [ 14.61202, 5.53792 ], [ 14.6172604, 5.5263453 ], [ 14.61881, 5.49375 ], [ 14.6188877, 5.4909891 ], [ 14.61027, 5.47123 ], [ 14.60659, 5.47032 ], [ 14.6050644, 5.463918 ], [ 14.60725, 5.45951 ], [ 14.60724, 5.4533014 ], [ 14.6020196, 5.4334631 ], [ 14.60167, 5.42894 ], [ 14.60461, 5.40824 ], [ 14.60184, 5.39996 ], [ 14.6009314, 5.3992899 ], [ 14.59563, 5.39538 ], [ 14.58828, 5.39402 ], [ 14.5871438, 5.3927642 ], [ 14.58391, 5.38919 ], [ 14.5829011, 5.3888123 ], [ 14.55416, 5.32579 ], [ 14.5534806, 5.3171092 ], [ 14.5494354, 5.3066452 ], [ 14.55319, 5.30395 ], [ 14.5536389, 5.3018784 ], [ 14.552957, 5.3009238 ], [ 14.55134, 5.29866 ], [ 14.53018, 5.27962 ], [ 14.5278969, 5.2780287 ], [ 14.5278832, 5.2779758 ], [ 14.5295321, 5.2737094 ], [ 14.57896, 5.22569 ], [ 14.6043705, 5.2181256 ], [ 14.6081, 5.21802 ], [ 14.65262, 5.21101 ], [ 14.67638, 5.17921 ], [ 14.69168, 5.11824 ], [ 14.69551, 5.09599 ], [ 14.69275, 5.092 ], [ 14.6911268, 5.0878585 ], [ 14.67987, 5.0826 ], [ 14.67755, 5.0711 ], [ 14.68418, 5.06004 ], [ 14.68532, 5.05636 ], [ 14.6846521, 5.0488424 ], [ 14.6905188, 5.0193196 ], [ 14.68224, 5.01635 ], [ 14.6834689, 5.0125568 ], [ 14.68522, 5.01036 ], [ 14.6784465, 4.9883626 ], [ 14.67873, 4.98692 ], [ 14.6904862, 4.9365954 ], [ 14.68802, 4.93353 ], [ 14.6870916, 4.9311163 ], [ 14.7122867, 4.871394 ], [ 14.7144561, 4.8682249 ], [ 14.71563, 4.86651 ], [ 14.715873, 4.8646877 ], [ 14.7144879, 4.8603552 ], [ 14.71378, 4.85916 ], [ 14.70734, 4.85457 ], [ 14.7099345, 4.8479396 ], [ 14.7218991, 4.8009377 ], [ 14.7206347, 4.7975657 ], [ 14.71472, 4.77013 ], [ 14.71035, 4.76646 ], [ 14.70277, 4.76395 ], [ 14.7046096, 4.7602529 ], [ 14.7225146, 4.7156668 ], [ 14.7226, 4.70639 ], [ 14.72511, 4.69925 ], [ 14.72507, 4.6829209 ], [ 14.72406, 4.64129 ], [ 14.7471428, 4.6003244 ], [ 14.74827, 4.59981 ], [ 14.7526319, 4.5914406 ], [ 14.8153, 4.52464 ], [ 14.8586761, 4.4972963 ], [ 14.86156, 4.49483 ], [ 14.86867, 4.49412 ], [ 14.89612, 4.46483 ], [ 14.94652, 4.44214 ], [ 14.9464969, 4.4418578 ], [ 14.9461831, 4.4380183 ], [ 14.95865, 4.43313 ], [ 14.9607391, 4.4348634 ], [ 14.96141, 4.43542 ], [ 14.9690517, 4.4356198 ], [ 15.0074763, 4.4180889 ], [ 15.01389, 4.41824 ], [ 15.03141, 4.36643 ], [ 15.05634, 4.34358 ], [ 15.06365, 4.33366 ], [ 15.0673652, 4.3228134 ], [ 15.0812399, 4.3064601 ], [ 15.0821587, 4.3070136 ], [ 15.09686, 4.23556 ], [ 15.0969902, 4.2345889 ], [ 15.1032395, 4.2201216 ], [ 15.105319, 4.2182579 ], [ 15.10272, 4.2008 ], [ 15.1039868, 4.1973623 ], [ 15.11184, 4.1697308 ], [ 15.1102, 4.16673 ], [ 15.11381, 4.149 ], [ 15.10829, 4.14145 ], [ 15.1076, 4.14051 ], [ 15.14912, 4.06584 ], [ 15.1820817, 4.0567367 ], [ 15.1834691, 4.054229 ], [ 15.18025, 4.05056 ], [ 15.17267, 4.04759 ], [ 15.10292, 4.02595 ], [ 15.09672, 4.02114 ], [ 15.0820368, 4.018198 ], [ 15.0799362, 4.0168467 ], [ 15.0634452, 4.0086628 ], [ 15.06161, 4.00676 ], [ 15.05774, 3.99719 ], [ 15.0624355, 3.9969261 ], [ 15.0646791, 3.9968 ], [ 15.06468, 3.99772 ], [ 15.1022867, 3.9632882 ], [ 15.10708, 3.94502 ], [ 15.13413, 3.90107 ], [ 15.21067, 3.77449 ], [ 15.22213, 3.75953 ], [ 15.2236183, 3.7561764 ], [ 15.26268, 3.6997 ], [ 15.2636, 3.69624 ], [ 15.29842, 3.65919 ], [ 15.41982, 3.52868 ], [ 15.50729, 3.4405 ], [ 15.6942149, 3.2197147 ], [ 15.70047, 3.2112 ], [ 15.7016177, 3.2108665 ], [ 15.72371, 3.18859 ], [ 15.74783, 3.15663 ], [ 15.75126, 3.15502 ], [ 15.77849, 3.12324 ], [ 15.7945, 3.10666 ], [ 15.79816, 3.09998 ], [ 15.8033304, 3.0952162 ], [ 15.8079875, 3.0966947 ], [ 15.81225, 3.10185 ], [ 15.83493, 3.10566 ], [ 15.84021, 3.10748 ], [ 15.84586, 3.10783 ], [ 15.8796835, 3.0976638 ], [ 15.88505, 3.09764 ], [ 15.88825, 3.09625 ], [ 15.89851, 3.08516 ], [ 15.90235, 3.07925 ], [ 15.92649, 3.03536 ], [ 15.9741574, 2.9882385 ], [ 15.97694, 2.99674 ], [ 15.979706, 2.9983413 ], [ 15.98245, 2.99993 ], [ 16.01538, 2.9910599 ], [ 16.01536, 2.98461 ], [ 16.0297407, 2.9752252 ], [ 16.03158, 2.97396 ], [ 16.0341531, 2.9742262 ], [ 16.08744, 2.85917 ], [ 16.08912, 2.82144 ], [ 16.0533, 2.79422 ], [ 16.051, 2.79101 ], [ 16.06542, 2.73161 ], [ 16.0639424, 2.7305821 ], [ 16.06082, 2.72841 ], [ 16.0603664, 2.7270493 ], [ 16.06537, 2.71988 ], [ 16.0644936, 2.7190489 ], [ 16.06054, 2.7153 ], [ 16.0615116, 2.712764 ], [ 16.0879226, 2.7021454 ], [ 16.0897196, 2.7003393 ], [ 16.08442, 2.6914 ], [ 16.078459, 2.6837773 ], [ 16.0743018, 2.6705837 ], [ 16.07266, 2.66162 ], [ 16.06907, 2.64678 ], [ 16.0683998, 2.6440002 ], [ 16.08485, 2.59719 ], [ 16.08378, 2.5774 ], [ 16.08247, 2.56933 ], [ 16.0813782, 2.5657784 ], [ 16.07982, 2.56071 ], [ 16.0718595, 2.5448079 ], [ 16.0704928, 2.5394717 ], [ 16.06725, 2.52681 ], [ 16.0675918, 2.5243873 ], [ 16.0713995, 2.5133323 ], [ 16.07309, 2.51064 ], [ 16.0777822, 2.5059071 ], [ 16.0819758, 2.475451 ], [ 16.08023, 2.47089 ], [ 16.078535, 2.4687896 ], [ 16.07563, 2.46519 ], [ 16.0836245, 2.4480445 ], [ 16.08382, 2.44428 ], [ 16.14872, 2.34957 ], [ 16.17115, 2.27361 ], [ 16.1644797, 2.2487242 ], [ 16.16481, 2.24544 ], [ 16.19199, 2.22051 ], [ 16.1393284, 2.1809167 ], [ 16.1355, 2.19247 ], [ 16.13237, 2.19642 ], [ 16.12281, 2.19777 ], [ 16.09594, 2.19827 ], [ 16.08633, 2.1923 ], [ 16.08426, 2.18264 ], [ 16.08166, 2.11835 ], [ 16.0829147, 2.1153912 ], [ 16.08395, 2.11295 ], [ 16.0855719, 2.1116169 ], [ 16.065901, 2.0635573 ], [ 16.06605, 2.06076 ], [ 16.0785073, 2.0517642 ], [ 16.081449, 2.0490895 ], [ 16.0583092, 1.9800332 ], [ 16.05566, 1.97308 ], [ 16.0715507, 1.9532716 ], [ 16.0801, 1.94597 ], [ 16.0875, 1.91398 ], [ 16.08877, 1.89343 ], [ 16.09765, 1.88644 ], [ 16.1090382, 1.8892848 ], [ 16.12453, 1.82537 ], [ 16.1268894, 1.8175636 ], [ 16.12751, 1.81551 ], [ 16.1294752, 1.8129691 ], [ 16.14713, 1.762 ], [ 16.1437, 1.7506 ], [ 16.13947, 1.73383 ], [ 16.14011, 1.72488 ], [ 16.14499, 1.71729 ], [ 16.12595, 1.69524 ], [ 16.08392, 1.6854 ], [ 16.06469, 1.65323 ], [ 16.02871, 1.66088 ], [ 16.0236283, 1.6764082 ], [ 16.0254981, 1.7654496 ], [ 16.01929, 1.76528 ], [ 15.9582399, 1.7627303 ], [ 15.93496, 1.77369 ], [ 15.88335, 1.78838 ], [ 15.87318, 1.81969 ], [ 15.86862, 1.82499 ], [ 15.84874, 1.82691 ], [ 15.84372, 1.82992 ], [ 15.8389575, 1.8364023 ], [ 15.8350774, 1.8416815 ], [ 15.7937742, 1.8686558 ], [ 15.79153, 1.87634 ], [ 15.778317, 1.8921552 ], [ 15.77514, 1.89526 ], [ 15.7742714, 1.8966751 ], [ 15.76991, 1.90378 ], [ 15.7693, 1.90438 ], [ 15.7649, 1.90864 ], [ 15.72856, 1.91315 ], [ 15.72264, 1.9203 ], [ 15.7187489, 1.9216867 ], [ 15.6180567, 1.9408088 ], [ 15.60816, 1.94349 ], [ 15.5207302, 1.9570627 ], [ 15.51478, 1.96115 ], [ 15.4937, 1.97564 ], [ 15.4509, 1.96246 ], [ 15.43304, 1.95677 ], [ 15.34486, 1.9111 ], [ 15.33472, 1.92966 ], [ 15.33625, 1.93366 ], [ 15.3315139, 1.9370912 ], [ 15.3273954, 1.9339176 ], [ 15.31246, 1.93098 ], [ 15.30698, 1.93445 ], [ 15.30494, 1.93974 ], [ 15.3078597, 1.9498033 ], [ 15.2968827, 1.9761134 ], [ 15.29089, 1.98279 ], [ 15.2502701, 2.0264509 ], [ 15.24255, 2.03008 ], [ 15.2419697, 2.0301305 ], [ 15.22335, 2.03175 ], [ 15.17847, 2.01442 ], [ 15.12175, 2.01138 ], [ 15.1077092, 1.97832 ], [ 15.07411, 1.98555 ], [ 15.07619, 1.99382 ], [ 15.07552, 1.99704 ], [ 15.07217, 2.00023 ], [ 15.0373431, 1.9824531 ], [ 15.03523, 1.98452 ], [ 15.0341382, 1.9991304 ], [ 14.9932456, 2.0275537 ], [ 14.98711, 2.03318 ], [ 14.97378, 2.00885 ], [ 14.93076, 1.99725 ], [ 14.89881, 2.02079 ], [ 14.9022742, 2.0237939 ], [ 14.9144294, 2.0599569 ], [ 14.9048003, 2.0625007 ], [ 14.88339, 2.07142 ], [ 14.88067, 2.08131 ], [ 14.8645103, 2.0949531 ], [ 14.86902, 2.08641 ], [ 14.8104, 2.05806 ], [ 14.77017, 2.06829 ], [ 14.7742301, 2.0761076 ], [ 14.7715724, 2.0953795 ], [ 14.76132, 2.09475 ], [ 14.75539, 2.10351 ], [ 14.7533297, 2.1050025 ], [ 14.7399993, 2.1146593 ], [ 14.7014963, 2.1122954 ], [ 14.69894, 2.11976 ], [ 14.6978414, 2.120899 ], [ 14.6932244, 2.1256855 ], [ 14.6498804, 2.1308247 ], [ 14.64569, 2.13783 ], [ 14.647131, 2.1516372 ], [ 14.64252, 2.15508 ], [ 14.6287235, 2.1595016 ], [ 14.61982, 2.17464 ], [ 14.606497, 2.1968483 ], [ 14.60076, 2.19842 ], [ 14.5955979, 2.2001622 ], [ 14.5938826, 2.2007411 ], [ 14.5895926, 2.2046742 ], [ 14.58661, 2.21041 ], [ 14.44555, 2.1594 ], [ 14.4411475, 2.1594 ], [ 14.4292034, 2.15594 ], [ 14.4268, 2.15594 ], [ 14.39681, 2.18259 ], [ 14.35198, 2.18301 ], [ 14.33529, 2.1846 ], [ 14.26965, 2.18523 ], [ 14.2680941, 2.1841557 ], [ 14.25639, 2.17233 ], [ 13.6799931, 2.170928 ], [ 13.6528248, 2.574696 ], [ 13.6299624, 2.9061799 ], [ 13.5811611, 2.8828776 ], [ 13.5705583, 2.8572701 ], [ 13.5302018, 2.8540904 ], [ 13.4993319, 2.7879921 ], [ 13.4297458, 2.7751318 ], [ 13.3845104, 2.8174267 ], [ 13.3507907, 2.7978629 ], [ 13.3075547, 2.83705 ], [ 13.2713727, 2.8426752 ], [ 13.2364201, 2.8281238 ], [ 13.2001834, 2.8686014 ], [ 13.1577825, 2.8471514 ], [ 13.0462401, 2.8477896 ], [ 12.9897496, 2.8735385 ], [ 12.9405023, 2.8661882 ], [ 12.916858, 2.880121 ], [ 12.8367238, 2.8894709 ], [ 12.7730126, 2.9462934 ], [ 12.7652421, 3.1702449 ], [ 12.5439359, 3.3914269 ], [ 12.564188, 3.533699 ], [ 12.6016407, 3.6148129 ], [ 12.618491, 3.7104212 ], [ 12.550561, 3.7750837 ], [ 12.5023604, 3.831039 ], [ 12.4941355, 3.8847109 ], [ 12.5247953, 3.8783713 ], [ 12.5857707, 3.9261324 ], [ 12.6583737, 3.9391935 ], [ 12.7281389, 4.009347 ], [ 12.7927616, 4.0326942 ], [ 12.8076977, 4.0605682 ], [ 12.754507, 4.0887698 ], [ 12.7802033, 4.1280582 ], [ 12.7826994, 4.2023272 ], [ 12.8041432, 4.2578721 ], [ 12.7822513, 4.3426015 ], [ 12.8423571, 4.3737464 ], [ 12.876419, 4.5174586 ], [ 12.979595, 4.5650143 ], [ 12.9794483, 4.5922369 ], [ 13.0261099, 4.6067788 ], [ 13.0749466, 4.5854891 ], [ 13.1314051, 4.5457715 ], [ 13.2120774, 4.5504359 ], [ 13.2097455, 4.5983761 ], [ 13.2279032, 4.6515017 ], [ 13.2180156, 4.6987078 ], [ 13.2221827, 4.7581229 ], [ 13.2453398, 4.7801801 ], [ 13.2401657, 4.8188832 ], [ 13.1954258, 4.8764548 ], [ 13.1897844, 4.9163573 ], [ 13.0630098, 4.9324247 ], [ 13.0201736, 4.9644426 ], [ 13.0590078, 5.0365499 ], [ 13.0606737, 5.065072 ], [ 13.0298066, 5.1077664 ], [ 13.0003316, 5.1259791 ], [ 12.9063202, 5.2137258 ], [ 12.8088128, 5.279765 ], [ 12.8840279, 5.3253897 ], [ 12.9265436, 5.3141351 ], [ 12.9623729, 5.3288299 ], [ 13.0087598, 5.4005202 ], [ 13.0728141, 5.5189952 ], [ 13.054395, 5.5872724 ], [ 13.0075214, 5.641797 ], [ 13.0011382, 5.701177 ], [ 12.9668601, 5.70822 ], [ 12.9518674, 5.7896324 ], [ 12.8678117, 5.9013812 ], [ 12.8743976, 5.9819344 ], [ 12.884638, 6.0001044 ], [ 13.3995101, 6.0014807 ], [ 13.8291252, 6.0010721 ], [ 13.826509, 6.0150483 ], [ 13.8919432, 6.0590625 ], [ 13.9355576, 6.0674898 ], [ 13.9651982, 6.0524336 ], [ 14.0005074, 6.0647463 ], [ 13.9995019, 6.0007308 ], [ 14.3822543, 5.999714 ], [ 14.4202577, 6.0394362 ] ] ] ] } },
{ "type": "Feature", "properties": { "POLYGON_ID": "CMR_GAUL1997_ADM1_818", "ADM0_ISO3": "CMR", "ADM0_NAME": "Cameroon", "ADM0_CODE": 45, "ADM1_NAME": "Extrême - Nord", "ADM1_CODE": 818, "GEOSET": "GAUL", "GEOSET_YEAR": 1997.0, "GEOSET_VERSION": "GAUL_v1", "GEOSET_UNIT": "ADM1", "CENTROID_LONG": 14.533008688056023, "CENTROID_LAT": 11.081022868124656 }, "geometry": { "type": "MultiPolygon", "coordinates": [ [ [ [ 14.51272, 12.99836 ], [ 14.5331665, 12.9692102 ], [ 14.56875, 12.89176 ], [ 14.56788, 12.83631 ], [ 14.55173, 12.7858 ], [ 14.58573, 12.74737 ], [ 14.63659, 12.73953 ], [ 14.66285, 12.7202 ], [ 14.70621, 12.72477 ], [ 14.7526, 12.68333 ], [ 14.77155, 12.63132 ], [ 14.83153, 12.6285 ], [ 14.85186, 12.56359 ], [ 14.84897, 12.45638 ], [ 14.88175, 12.45841 ], [ 14.91047, 12.37923 ], [ 14.9049682, 12.2324948 ], [ 14.9061, 12.2253 ], [ 14.91003, 12.18181 ], [ 14.89247, 12.1678 ], [ 14.93357, 12.1139 ], [ 14.98055, 12.09036 ], [ 15.0093473, 12.1123997 ], [ 15.0611, 12.04159 ], [ 15.05204, 11.96584 ], [ 15.06432, 11.92775 ], [ 15.04209, 11.89872 ], [ 15.07821, 11.86112 ], [ 15.11642, 11.79795 ], [ 15.08171, 11.75753 ], [ 15.06564, 11.71073 ], [ 15.09777, 11.58899 ], [ 15.14229, 11.55783 ], [ 15.12959, 11.50701 ], [ 15.1074, 11.49509 ], [ 15.05874, 11.41005 ], [ 15.06859, 11.36458 ], [ 15.02654, 11.27843 ], [ 15.0368094, 11.1478594 ], [ 15.03352, 11.0922 ], [ 15.05171, 11.04233 ], [ 15.05157, 10.9928 ], [ 15.08292, 10.94799 ], [ 15.09348, 10.86607 ], [ 15.06941, 10.80538 ], [ 15.1339, 10.6962 ], [ 15.1575, 10.62252 ], [ 15.14417, 10.58874 ], [ 15.14593, 10.53835 ], [ 15.20864, 10.50232 ], [ 15.24111, 10.47072 ], [ 15.28117, 10.40621 ], [ 15.2827, 10.36526 ], [ 15.31021, 10.30745 ], [ 15.355699, 10.2907503 ], [ 15.41657, 10.2142 ], [ 15.45156, 10.18787 ], [ 15.48617, 10.11898 ], [ 15.57233, 10.06025 ], [ 15.649029, 10.0259104 ], [ 15.68369, 9.98506 ], [ 15.60052, 9.96032 ], [ 15.43501, 9.93331 ], [ 15.3379, 9.9711 ], [ 15.2361, 9.99644 ], [ 15.21259, 9.96453 ], [ 15.13283, 9.99462 ], [ 15.10145, 9.96386 ], [ 15.06688, 9.96669 ], [ 15.00289, 10.00131 ], [ 14.9191, 9.97981 ], [ 14.83598, 9.92449 ], [ 14.75619, 9.94918 ], [ 14.70538, 9.9499 ], [ 14.54411, 9.9994 ], [ 14.4847, 10.01021 ], [ 14.23641, 9.99741 ], [ 14.2039354, 9.9847178 ], [ 14.2002587, 10.0952424 ], [ 14.1051071, 10.1256368 ], [ 14.0685514, 10.1149454 ], [ 14.0470505, 10.158636 ], [ 13.9703305, 10.2269105 ], [ 13.9080311, 10.2258464 ], [ 13.7939647, 10.2480166 ], [ 13.6777824, 10.2512242 ], [ 13.6643621, 10.2251758 ], [ 13.5900774, 10.2572711 ], [ 13.5643154, 10.1958194 ], [ 13.5983519, 10.1761361 ], [ 13.6944499, 10.1444736 ], [ 13.6456454, 10.1244147 ], [ 13.5867285, 10.1210086 ], [ 13.5523693, 10.0834913 ], [ 13.5185779, 10.0946935 ], [ 13.4271336, 10.0812598 ], [ 13.41004, 10.1258634 ], [ 13.4293296, 10.159377 ], [ 13.4631363, 10.1680697 ], [ 13.4987391, 10.2050184 ], [ 13.5000952, 10.2515414 ], [ 13.510367, 10.2626446 ], [ 13.5350079, 10.3215972 ], [ 13.5416598, 10.3721161 ], [ 13.5258871, 10.4017919 ], [ 13.5210581, 10.4306046 ], [ 13.5208762, 10.4316901 ], [ 13.519373, 10.4406595 ], [ 13.52072, 10.4547679 ], [ 13.5264776, 10.4602462 ], [ 13.5295126, 10.4649381 ], [ 13.5281791, 10.4751476 ], [ 13.539994, 10.5148915 ], [ 13.5942232, 10.518507 ], [ 13.566739, 10.5702135 ], [ 13.5799134, 10.6195864 ], [ 13.5800882, 10.6877235 ], [ 13.5841816, 10.6914523 ], [ 13.5916704, 10.6916567 ], [ 13.6025006, 10.6935156 ], [ 13.6247601, 10.7072744 ], [ 13.6325701, 10.7493841 ], [ 13.6576146, 10.780071 ], [ 13.6798038, 10.8406016 ], [ 13.7178477, 10.8622675 ], [ 13.7217385, 10.8995274 ], [ 13.7214088, 10.9014727 ], [ 13.7131411, 10.9435913 ], [ 13.7108507, 10.9508645 ], [ 13.7610223, 11.0014323 ], [ 13.7683862, 11.0024719 ], [ 13.7982741, 11.012727 ], [ 13.7987844, 11.0134981 ], [ 13.8006064, 11.0300129 ], [ 13.8013714, 11.0306314 ], [ 13.8509396, 11.0886057 ], [ 13.8520583, 11.0892906 ], [ 13.8794851, 11.1373108 ], [ 13.8786599, 11.1381468 ], [ 13.9039444, 11.1648675 ], [ 13.9112688, 11.1743978 ], [ 13.9242839, 11.196765 ], [ 13.926005, 11.1974111 ], [ 13.9472155, 11.2418261 ], [ 13.9783288, 11.2600416 ], [ 13.9823222, 11.3030007 ], [ 13.9814896, 11.3053904 ], [ 13.9979212, 11.3084993 ], [ 14.0009286, 11.3076334 ], [ 14.0604525, 11.2824649 ], [ 14.0694913, 11.2788009 ], [ 14.1346331, 11.2523983 ], [ 14.1351717, 11.2523382 ], [ 14.1785427, 11.2395041 ], [ 14.2289546, 11.2639695 ], [ 14.2521332, 11.2992009 ], [ 14.3205522, 11.3273602 ], [ 14.3701084, 11.3665908 ], [ 14.3793895, 11.4197285 ], [ 14.4489995, 11.455171 ], [ 14.4537807, 11.4596725 ], [ 14.4638188, 11.4643263 ], [ 14.4789295, 11.4639486 ], [ 14.5171804, 11.4743249 ], [ 14.5205137, 11.4741889 ], [ 14.5879081, 11.4861061 ], [ 14.6112745, 11.5084706 ], [ 14.6386189, 11.5648758 ], [ 14.6451833, 11.5784167 ], [ 14.6420741, 11.6568056 ], [ 14.5999524, 11.7030495 ], [ 14.5544164, 11.7118832 ], [ 14.5476578, 11.7249009 ], [ 14.5937055, 11.7567366 ], [ 14.5967928, 11.758935 ], [ 14.6027993, 11.7653632 ], [ 14.6029829, 11.768066 ], [ 14.6065522, 11.7973871 ], [ 14.6061422, 11.8018445 ], [ 14.6090692, 11.8145309 ], [ 14.6110391, 11.8189636 ], [ 14.6077349, 11.8440478 ], [ 14.6147281, 11.8515783 ], [ 14.6038991, 11.8690211 ], [ 14.6560575, 11.9628215 ], [ 14.6550739, 11.9643985 ], [ 14.6415746, 11.9823061 ], [ 14.639504, 11.9870586 ], [ 14.6358326, 11.9934853 ], [ 14.6350693, 11.9944646 ], [ 14.6342943, 11.9969413 ], [ 14.6242419, 12.0500878 ], [ 14.6511959, 12.0726619 ], [ 14.6443678, 12.0774651 ], [ 14.6524979, 12.1374452 ], [ 14.6780834, 12.1641886 ], [ 14.6773439, 12.1671999 ], [ 14.6640555, 12.1794075 ], [ 14.6640508, 12.1797351 ], [ 14.6652337, 12.1845554 ], [ 14.667146, 12.1883296 ], [ 14.6261389, 12.1901907 ], [ 14.5577492, 12.2530099 ], [ 14.5587494, 12.2560951 ], [ 14.5476283, 12.2784673 ], [ 14.5475555, 12.2793507 ], [ 14.5346545, 12.2888535 ], [ 14.5275929, 12.2901776 ], [ 14.5250405, 12.2924907 ], [ 14.5211361, 12.2971205 ], [ 14.5140234, 12.2958897 ], [ 14.5139788, 12.3075876 ], [ 14.5135772, 12.308347 ], [ 14.4929768, 12.3369002 ], [ 14.4922811, 12.3371877 ], [ 14.4337731, 12.3694781 ], [ 14.4276763, 12.369573 ], [ 14.3787484, 12.3580532 ], [ 14.3320156, 12.3751688 ], [ 14.2955465, 12.3568878 ], [ 14.2921566, 12.3550768 ], [ 14.2911473, 12.3545376 ], [ 14.2878431, 12.3578759 ], [ 14.2752532, 12.3732649 ], [ 14.2199535, 12.3633514 ], [ 14.2175161, 12.3676011 ], [ 14.1796127, 12.4179939 ], [ 14.1765278, 12.4237736 ], [ 14.1948954, 12.4349782 ], [ 14.1922938, 12.4371634 ], [ 14.1927655, 12.4461333 ], [ 14.194627, 12.4466717 ], [ 14.1838577, 12.4538933 ], [ 14.1811413, 12.4661822 ], [ 14.1963372, 12.5016787 ], [ 14.1970976, 12.5016427 ], [ 14.2033327, 12.5380571 ], [ 14.0861649, 13.0746941 ], [ 14.08543, 13.07806 ], [ 14.4598799, 13.0745 ], [ 14.51272, 12.99836 ] ] ] ] } },
{ "type": "Feature", "properties": { "POLYGON_ID": "CMR_GAUL1997_ADM1_819", "ADM0_ISO3": "CMR", "ADM0_NAME": "Cameroon", "ADM0_CODE": 45, "ADM1_NAME": "Littoral", "ADM1_CODE": 819, "GEOSET": "GAUL", "GEOSET_YEAR": 1997.0, "GEOSET_VERSION": "GAUL_v1", "GEOSET_UNIT": "ADM1", "CENTROID_LONG": 10.116442678470323, "CENTROID_LAT": 4.2565016025223308 }, "geometry": { "type": "MultiPolygon", "coordinates": [ [ [ [ 9.8478862, 5.3323388 ], [ 9.8332503, 5.2668992 ], [ 9.8811324, 5.250487 ], [ 9.970232, 5.244372 ], [ 10.007876, 5.1894122 ], [ 9.9911304, 5.1308872 ], [ 10.0171249, 5.0665961 ], [ 10.074107, 5.0428716 ], [ 10.0745082, 4.9862264 ], [ 10.1067288, 4.9375489 ], [ 10.1496136, 4.9205859 ], [ 10.1537194, 4.970656 ], [ 10.2272694, 5.0396135 ], [ 10.1984312, 5.0792489 ], [ 10.2333043, 5.1075406 ], [ 10.2656133, 5.0678733 ], [ 10.2986484, 5.0714928 ], [ 10.314289, 5.0996742 ], [ 10.3728428, 5.076429 ], [ 10.3674698, 5.017862 ], [ 10.4149527, 5.0116828 ], [ 10.4131872, 4.955909 ], [ 10.4580512, 4.9058014 ], [ 10.523846, 4.8988549 ], [ 10.4882355, 4.8813521 ], [ 10.4776739, 4.8515612 ], [ 10.4445497, 4.8336866 ], [ 10.4155438, 4.7879476 ], [ 10.3780685, 4.7870434 ], [ 10.360338, 4.76504 ], [ 10.3444475, 4.7028628 ], [ 10.362134, 4.6913424 ], [ 10.4410733, 4.7185823 ], [ 10.4707652, 4.7461571 ], [ 10.4921183, 4.6934695 ], [ 10.416402, 4.606526 ], [ 10.3781297, 4.513636 ], [ 10.394155, 4.4765073 ], [ 10.4514619, 4.4894368 ], [ 10.5045848, 4.4670761 ], [ 10.5744121, 4.454607 ], [ 10.6408199, 4.4611609 ], [ 10.6938555, 4.4856948 ], [ 10.7415561, 4.4917405 ], [ 10.7852633, 4.5138039 ], [ 10.7830444, 4.6091717 ], [ 10.8331952, 4.6106276 ], [ 10.8769526, 4.5814839 ], [ 10.9219716, 4.5859396 ], [ 10.8932411, 4.4715897 ], [ 10.9363364, 4.42119 ], [ 10.9410076, 4.3887895 ], [ 10.9694239, 4.3774643 ], [ 10.9747537, 4.3373922 ], [ 11.0458301, 4.2436803 ], [ 11.0775203, 4.2280277 ], [ 11.0747596, 4.1886828 ], [ 10.9405633, 4.127061 ], [ 10.8517439, 4.1154405 ], [ 10.8220938, 4.0926687 ], [ 10.7116133, 4.0566894 ], [ 10.6929015, 3.9878941 ], [ 10.6459642, 3.9679565 ], [ 10.6459707, 3.9174479 ], [ 10.6674781, 3.8471795 ], [ 10.6448252, 3.8237111 ], [ 10.604326, 3.7267907 ], [ 10.5718059, 3.7604596 ], [ 10.4618969, 3.8211872 ], [ 10.4154573, 3.8131399 ], [ 10.3829126, 3.7787295 ], [ 10.3658057, 3.725755 ], [ 10.3734161, 3.6889296 ], [ 10.336546, 3.6244956 ], [ 10.3238498, 3.5602845 ], [ 10.2845585, 3.5222198 ], [ 10.2323327, 3.5146689 ], [ 10.2295013, 3.5438865 ], [ 10.1616996, 3.571264 ], [ 10.1210274, 3.5770472 ], [ 10.0835992, 3.4934762 ], [ 10.0750835, 3.4194653 ], [ 10.03407, 3.3330269 ], [ 9.9829551, 3.3039188 ], [ 9.9620982, 3.276523 ], [ 9.9004166, 3.258998 ], [ 9.9008865, 3.2872644 ], [ 9.8765049, 3.3273779 ], [ 9.7704182, 3.4433899 ], [ 9.6294468, 3.5612356 ], [ 9.6525426, 3.6294434 ], [ 9.6231805, 3.6968382 ], [ 9.5763847, 3.7741162 ], [ 9.6130873, 3.8643871 ], [ 9.6708565, 3.8362675 ], [ 9.7151206, 3.8662181 ], [ 9.6763993, 3.9108922 ], [ 9.6346042, 3.9390983 ], [ 9.6228281, 3.9664445 ], [ 9.6554068, 4.0117801 ], [ 9.5817325, 4.0042826 ], [ 9.542969, 4.0152112 ], [ 9.5037089, 4.0552382 ], [ 9.5090631, 4.0842974 ], [ 9.5523422, 4.1073736 ], [ 9.548099, 4.1470818 ], [ 9.5014179, 4.2016974 ], [ 9.466122, 4.1882165 ], [ 9.4184525, 4.2050795 ], [ 9.4239557, 4.2742687 ], [ 9.4573435, 4.317833 ], [ 9.4541563, 4.3465333 ], [ 9.494398, 4.3887668 ], [ 9.4961154, 4.5287848 ], [ 9.5376169, 4.5630544 ], [ 9.543064, 4.5906715 ], [ 9.5750037, 4.6158633 ], [ 9.6324768, 4.6286673 ], [ 9.632879, 4.6651436 ], [ 9.6907448, 4.7207605 ], [ 9.7033684, 4.806169 ], [ 9.7496708, 4.8428104 ], [ 9.7727548, 5.0018638 ], [ 9.8077219, 5.0246542 ], [ 9.8651388, 5.0300616 ], [ 9.8150344, 5.0801229 ], [ 9.8041727, 5.1269029 ], [ 9.775741, 5.1444337 ], [ 9.7656914, 5.2089976 ], [ 9.7361186, 5.2453162 ], [ 9.7808718, 5.2833161 ], [ 9.8291943, 5.2907924 ], [ 9.8478862, 5.3323388 ] ] ], [ [ [ 9.5157456, 4.0154544 ], [ 9.5322927, 3.9722969 ], [ 9.5051149, 3.9627982 ], [ 9.4739621, 3.9805044 ], [ 9.5157456, 4.0154544 ] ] ], [ [ [ 9.455318, 4.0546409 ], [ 9.4565824, 4.0586227 ], [ 9.4783993, 4.0595318 ], [ 9.5014172, 4.0213562 ], [ 9.452793, 3.994337 ], [ 9.455318, 4.0546409 ] ] ], [ [ [ 9.3361893, 3.9162336 ], [ 9.3800773, 3.9197825 ], [ 9.4030974, 3.990457 ], [ 9.4420222, 4.0225947 ], [ 9.4599365, 3.9644746 ], [ 9.409194, 3.885134 ], [ 9.3361893, 3.9162336 ] ] ] ] } },
{ "type": "Feature", "properties": { "POLYGON_ID": "CMR_GAUL1997_ADM1_820", "ADM0_ISO3": "CMR", "ADM0_NAME": "Cameroon", "ADM0_CODE": 45, "ADM1_NAME": "Nord", "ADM1_CODE": 820, "GEOSET": "GAUL", "GEOSET_YEAR": 1997.0, "GEOSET_VERSION": "GAUL_v1", "GEOSET_UNIT": "ADM1", "CENTROID_LONG": 13.943013633186588, "CENTROID_LAT": 8.4879394505411181 }, "geometry": { "type": "MultiPolygon", "coordinates": [ [ [ [ 14.2039354, 9.9847178 ], [ 14.17763, 9.90028 ], [ 14.16235, 9.87934 ], [ 14.1489374, 9.8610724 ], [ 14.07883, 9.7709 ], [ 14.04966, 9.75153 ], [ 14.0249498, 9.7057286 ], [ 14.02207, 9.64709 ], [ 14.04668, 9.62529 ], [ 14.0620483, 9.589214 ], [ 14.1074331, 9.5392556 ], [ 14.10849, 9.53755 ], [ 14.19666, 9.45008 ], [ 14.22493, 9.4354 ], [ 14.25046, 9.39151 ], [ 14.31741, 9.36674 ], [ 14.35451, 9.30769 ], [ 14.38577, 9.28863 ], [ 14.38076, 9.19691 ], [ 14.47498, 9.10868 ], [ 14.4784722, 9.1059726 ], [ 14.50994, 9.03237 ], [ 14.55966, 9.01192 ], [ 14.71754, 8.86317 ], [ 14.75357, 8.82017 ], [ 14.85013, 8.80284 ], [ 14.90042, 8.80668 ], [ 14.9252873, 8.7690121 ], [ 14.98727, 8.72269 ], [ 14.98329, 8.68776 ], [ 15.03454, 8.67068 ], [ 15.1069382, 8.67342 ], [ 15.20761, 8.6108 ], [ 15.21192, 8.57334 ], [ 15.24173, 8.48344 ], [ 15.25135, 8.45241 ], [ 15.2863, 8.30922 ], [ 15.3750382, 8.134728 ], [ 15.38654, 8.11165 ], [ 15.39823, 8.0882 ], [ 15.39095, 8.04092 ], [ 15.41651, 8.0 ], [ 15.45323, 7.89471 ], [ 15.51076, 7.7962 ], [ 15.59111, 7.77618 ], [ 15.59585, 7.75776 ], [ 15.5920375, 7.7505556 ], [ 15.59493, 7.67538 ], [ 15.57092, 7.58663 ], [ 15.50748, 7.52747 ], [ 15.50278, 7.52511 ], [ 15.49538, 7.5132 ], [ 15.4929614, 7.5039182 ], [ 15.4896, 7.50334 ], [ 15.4830651, 7.4961766 ], [ 15.48242, 7.4935 ], [ 15.4833297, 7.4909697 ], [ 15.4773263, 7.4857082 ], [ 15.4746817, 7.4844525 ], [ 15.44914, 7.45229 ], [ 15.4481471, 7.4511049 ], [ 15.4442826, 7.441344 ], [ 15.4438, 7.43899 ], [ 15.4412079, 7.4351346 ], [ 15.40776, 7.39824 ], [ 15.4008093, 7.395004 ], [ 15.36969, 7.36967 ], [ 15.3628998, 7.3602443 ], [ 15.3616, 7.35844 ], [ 15.3586304, 7.3570469 ], [ 15.33899, 7.34153 ], [ 15.33483, 7.33832 ], [ 15.32931, 7.33696 ], [ 15.3219411, 7.3304459 ], [ 15.3214378, 7.3300009 ], [ 15.3157745, 7.3249946 ], [ 15.31431, 7.3237 ], [ 15.30531, 7.31844 ], [ 15.284508, 7.297198 ], [ 15.27437, 7.28685 ], [ 15.26861, 7.28412 ], [ 15.26238, 7.27679 ], [ 15.25179, 7.27453 ], [ 15.2517862, 7.2745256 ], [ 15.2512386, 7.2738856 ], [ 15.24924, 7.27155 ], [ 15.2490306, 7.2688901 ], [ 15.2381286, 7.2483893 ], [ 15.2360134, 7.2473414 ], [ 15.22937, 7.24405 ], [ 15.22475, 7.2397 ], [ 15.22404, 7.23121 ], [ 15.2161938, 7.2248031 ], [ 15.1145946, 7.1537341 ], [ 15.0772773, 7.1789843 ], [ 15.047802, 7.1758939 ], [ 14.9945874, 7.1370996 ], [ 14.9103747, 7.1036653 ], [ 14.8730705, 7.0802105 ], [ 14.8343969, 7.0851038 ], [ 14.727483, 7.0230831 ], [ 14.6458636, 7.0210989 ], [ 14.6440355, 7.0619732 ], [ 14.5699372, 7.0812456 ], [ 14.5112853, 7.1624785 ], [ 14.3986394, 7.1490438 ], [ 14.3239995, 7.1630227 ], [ 14.3563199, 7.1975011 ], [ 14.3561384, 7.2679865 ], [ 14.3430666, 7.3077625 ], [ 14.2534629, 7.3460616 ], [ 14.2160184, 7.4045671 ], [ 14.2148599, 7.4580952 ], [ 14.1447789, 7.4850827 ], [ 14.13739, 7.5472729 ], [ 14.1178595, 7.5725355 ], [ 14.0074809, 7.5529572 ], [ 13.9847497, 7.5762887 ], [ 13.9123739, 7.59011 ], [ 13.8715942, 7.6246153 ], [ 13.8906615, 7.6564171 ], [ 13.8600387, 7.7120366 ], [ 13.82719, 7.7459197 ], [ 13.7738323, 7.7802143 ], [ 13.7350923, 7.8600236 ], [ 13.7440241, 7.9142499 ], [ 13.6998622, 7.9545891 ], [ 13.6347111, 7.922459 ], [ 13.5896944, 7.9252846 ], [ 13.5657252, 7.9055662 ], [ 13.5039774, 7.9215688 ], [ 13.4345079, 7.9104426 ], [ 13.4154557, 7.9585525 ], [ 13.3547693, 7.964147 ], [ 13.3570433, 7.9301139 ], [ 13.3287617, 7.9040365 ], [ 13.34288, 7.8577078 ], [ 13.308908, 7.8186168 ], [ 13.3067568, 7.7780037 ], [ 13.2856479, 7.7554834 ], [ 13.2850742, 7.698682 ], [ 13.2532238, 7.6660002 ], [ 13.2619398, 7.6221735 ], [ 13.2250604, 7.5999534 ], [ 13.1541963, 7.5950286 ], [ 13.0723376, 7.6045195 ], [ 12.9668401, 7.653433 ], [ 12.8475021, 7.6646657 ], [ 12.8101314, 7.6616548 ], [ 12.7449515, 7.6953065 ], [ 12.7169491, 7.7375873 ], [ 12.6889978, 7.7313812 ], [ 12.6366808, 7.7600166 ], [ 12.6462306, 7.7842988 ], [ 12.6323708, 7.8294446 ], [ 12.6541658, 7.8634725 ], [ 12.6297012, 7.9352856 ], [ 12.629767, 7.9835358 ], [ 12.589413, 7.9655544 ], [ 12.5445249, 7.9773483 ], [ 12.517747, 7.9565539 ], [ 12.4559894, 7.9933876 ], [ 12.4202874, 7.9945213 ], [ 12.4027234, 8.0224409 ], [ 12.3404227, 8.0618387 ], [ 12.2816549, 8.1247397 ], [ 12.2758745, 8.1510711 ], [ 12.2356518, 8.1976369 ], [ 12.2400506, 8.3212529 ], [ 12.2416667, 8.3666667 ], [ 12.2596815, 8.4423642 ], [ 12.2848042, 8.4455568 ], [ 12.2924276, 8.4453108 ], [ 12.3115243, 8.4262013 ], [ 12.3664612, 8.4206127 ], [ 12.4047801, 8.4682038 ], [ 12.3941341, 8.4962268 ], [ 12.4125974, 8.5409781 ], [ 12.446123, 8.5704601 ], [ 12.4458071, 8.6182664 ], [ 12.5037659, 8.6419874 ], [ 12.5483292, 8.6126186 ], [ 12.6015629, 8.6079921 ], [ 12.6013494, 8.6081269 ], [ 12.612517, 8.6396203 ], [ 12.6877936, 8.6587208 ], [ 12.6896677, 8.6624163 ], [ 12.7102199, 8.7027327 ], [ 12.7164694, 8.7581153 ], [ 12.7511271, 8.7649517 ], [ 12.7821035, 8.7441579 ], [ 12.8184494, 8.8299387 ], [ 12.8116842, 8.870116 ], [ 12.8066742, 8.8764054 ], [ 12.8174172, 8.903676 ], [ 12.8139838, 8.9046237 ], [ 12.8227778, 8.9716667 ], [ 12.8652778, 9.0175 ], [ 12.9007267, 9.1142334 ], [ 12.884839, 9.1478152 ], [ 12.9176011, 9.2738534 ], [ 12.9093329, 9.353596 ], [ 12.858159, 9.3693526 ], [ 12.8780393, 9.3937011 ], [ 12.9450899, 9.4215646 ], [ 12.9755677, 9.4643343 ], [ 13.0344143, 9.5065885 ], [ 13.0675836, 9.515187 ], [ 13.0711967, 9.5135595 ], [ 13.1372869, 9.5343939 ], [ 13.1468056, 9.5360404 ], [ 13.2078118, 9.555793 ], [ 13.2189471, 9.5697508 ], [ 13.2343995, 9.6151534 ], [ 13.2283849, 9.6497115 ], [ 13.262745, 9.7808666 ], [ 13.3019925, 9.8260121 ], [ 13.249272, 9.8574615 ], [ 13.2361357, 9.909993 ], [ 13.265189, 9.9269364 ], [ 13.2881469, 9.9787783 ], [ 13.2526759, 9.9968691 ], [ 13.25099, 9.9989944 ], [ 13.2466951, 10.0345879 ], [ 13.2819444, 10.0338889 ], [ 13.3125153, 10.1066521 ], [ 13.3192707, 10.1065371 ], [ 13.41004, 10.1258634 ], [ 13.4271336, 10.0812598 ], [ 13.5185779, 10.0946935 ], [ 13.5523693, 10.0834913 ], [ 13.5867285, 10.1210086 ], [ 13.6456454, 10.1244147 ], [ 13.6944499, 10.1444736 ], [ 13.5983519, 10.1761361 ], [ 13.5643154, 10.1958194 ], [ 13.5900774, 10.2572711 ], [ 13.6643621, 10.2251758 ], [ 13.6777824, 10.2512242 ], [ 13.7939647, 10.2480166 ], [ 13.9080311, 10.2258464 ], [ 13.9703305, 10.2269105 ], [ 14.0470505, 10.158636 ], [ 14.0685514, 10.1149454 ], [ 14.1051071, 10.1256368 ], [ 14.2002587, 10.0952424 ], [ 14.2039354, 9.9847178 ] ] ] ] } },
{ "type": "Feature", "properties": { "POLYGON_ID": "CMR_GAUL1997_ADM1_821", "ADM0_ISO3": "CMR", "ADM0_NAME": "Cameroon", "ADM0_CODE": 45, "ADM1_NAME": "Nord - Ouest", "ADM1_CODE": 821, "GEOSET": "GAUL", "GEOSET_YEAR": 1997.0, "GEOSET_VERSION": "GAUL_v1", "GEOSET_UNIT": "ADM1", "CENTROID_LONG": 10.368935699647571, "CENTROID_LAT": 6.3626662576432542 }, "geometry": { "type": "MultiPolygon", "coordinates": [ [ [ [ 10.65506, 7.0441608 ], [ 10.6550905, 7.0445556 ], [ 10.6605978, 7.0499115 ], [ 10.6790711, 7.0395286 ], [ 10.7295356, 6.98905 ], [ 10.731829, 6.9906025 ], [ 10.73413, 6.9907813 ], [ 10.7383773, 6.9887722 ], [ 10.7646208, 6.9557854 ], [ 10.7668249, 6.9561504 ], [ 10.7788043, 6.9671793 ], [ 10.780765, 6.9664687 ], [ 10.7889243, 6.9602039 ], [ 10.7915001, 6.9608211 ], [ 10.7993246, 6.9615647 ], [ 10.8023773, 6.9571727 ], [ 10.8378057, 6.9383164 ], [ 10.8410973, 6.9307538 ], [ 10.8139085, 6.8549841 ], [ 10.8378843, 6.8114583 ], [ 10.8404223, 6.8109996 ], [ 10.8545828, 6.8075902 ], [ 10.8570364, 6.8064962 ], [ 10.8954553, 6.762484 ], [ 10.8973437, 6.7619427 ], [ 10.9022482, 6.7725925 ], [ 10.9063791, 6.7693058 ], [ 10.9214659, 6.7063414 ], [ 10.9273443, 6.7032694 ], [ 10.929005, 6.7002719 ], [ 10.9300223, 6.6984358 ], [ 10.934915, 6.6957262 ], [ 10.9439135, 6.688805 ], [ 10.9457788, 6.6869807 ], [ 10.946094, 6.687128 ], [ 10.9760316, 6.6913792 ], [ 10.9785195, 6.6884814 ], [ 10.9794342, 6.687416 ], [ 10.9814026, 6.6871961 ], [ 11.0291676, 6.7143156 ], [ 11.0665652, 6.7090885 ], [ 11.0964129, 6.6729879 ], [ 11.0919666, 6.6511928 ], [ 11.0983012, 6.5199835 ], [ 11.168389, 6.4998467 ], [ 11.1989685, 6.5128752 ], [ 11.1924216, 6.4466897 ], [ 11.2071392, 6.4247662 ], [ 11.1889152, 6.3099068 ], [ 11.1968008, 6.2586502 ], [ 11.1625968, 6.2643766 ], [ 11.1403865, 6.2335429 ], [ 11.074893, 6.2152866 ], [ 11.0278306, 6.2383631 ], [ 11.0000447, 6.225424 ], [ 11.0108945, 6.1521863 ], [ 10.9915497, 6.1108041 ], [ 10.9894134, 6.0647643 ], [ 10.9267413, 6.0165732 ], [ 10.8570085, 6.0148771 ], [ 10.8250782, 5.9845789 ], [ 10.7879387, 6.0193184 ], [ 10.7006785, 6.017911 ], [ 10.6594693, 5.9835856 ], [ 10.6405829, 5.9402472 ], [ 10.637919, 5.8957056 ], [ 10.6167326, 5.8775361 ], [ 10.6284525, 5.8324024 ], [ 10.6024831, 5.7860603 ], [ 10.578238, 5.7783524 ], [ 10.5599148, 5.8217098 ], [ 10.5249965, 5.8346302 ], [ 10.4257472, 5.8065116 ], [ 10.3221186, 5.808678 ], [ 10.2784936, 5.768434 ], [ 10.3063825, 5.7191245 ], [ 10.274515, 5.7088106 ], [ 10.1505874, 5.7751439 ], [ 10.1167248, 5.7539372 ], [ 10.080217, 5.7095194 ], [ 9.9967795, 5.7183336 ], [ 9.95209, 5.7512898 ], [ 9.9222105, 5.7290338 ], [ 9.8152401, 5.7542063 ], [ 9.7553739, 5.7921508 ], [ 9.7277735, 5.8480472 ], [ 9.6847069, 5.838241 ], [ 9.6286482, 5.8881603 ], [ 9.594506, 5.8894901 ], [ 9.6028856, 5.9351475 ], [ 9.6328213, 5.9533515 ], [ 9.6385207, 5.9828308 ], [ 9.6127335, 6.0102887 ], [ 9.6313363, 6.044205 ], [ 9.7251199, 6.0837931 ], [ 9.7627238, 6.1225131 ], [ 9.7890335, 6.168354 ], [ 9.7838294, 6.2067499 ], [ 9.8164965, 6.2222326 ], [ 9.7722818, 6.3050998 ], [ 9.7634733, 6.3899779 ], [ 9.7362347, 6.43044 ], [ 9.7404762, 6.4844984 ], [ 9.7066125, 6.512921 ], [ 9.7653961, 6.7387495 ], [ 9.7659281, 6.7406298 ], [ 9.7805458, 6.7936715 ], [ 9.7818327, 6.7924669 ], [ 9.8021717, 6.7849632 ], [ 9.8033249, 6.7866535 ], [ 9.8059878, 6.7905569 ], [ 9.8075025, 6.7891875 ], [ 9.8662791, 6.7714177 ], [ 9.8691837, 6.7745126 ], [ 9.9954404, 6.8990062 ], [ 10.0120314, 6.9020433 ], [ 10.0527578, 6.9439916 ], [ 10.0747963, 6.9657382 ], [ 10.1401854, 7.0254256 ], [ 10.140467, 7.0256272 ], [ 10.1410133, 7.0262204 ], [ 10.1763593, 7.0141901 ], [ 10.1789276, 6.9856813 ], [ 10.1770349, 6.9779436 ], [ 10.1723851, 6.9420944 ], [ 10.2169476, 6.8853096 ], [ 10.494808, 6.8718255 ], [ 10.492293, 6.89998 ], [ 10.4930469, 6.9043852 ], [ 10.5286328, 6.9249044 ], [ 10.5289942, 6.9250698 ], [ 10.5305094, 6.9275844 ], [ 10.5310395, 6.9310302 ], [ 10.5415282, 6.9389157 ], [ 10.5612461, 7.0364794 ], [ 10.5655152, 7.1412223 ], [ 10.5953572, 7.1470415 ], [ 10.605775, 7.1060978 ], [ 10.5954429, 7.0772069 ], [ 10.65506, 7.0441608 ] ] ] ] } },
{ "type": "Feature", "properties": { "POLYGON_ID": "CMR_GAUL1997_ADM1_822", "ADM0_ISO3": "CMR", "ADM0_NAME": "Cameroon", "ADM0_CODE": 45, "ADM1_NAME": "Ouest", "ADM1_CODE": 822, "GEOSET": "GAUL", "GEOSET_YEAR": 1997.0, "GEOSET_VERSION": "GAUL_v1", "GEOSET_UNIT": "ADM1", "CENTROID_LONG": 10.651808012720565, "CENTROID_LAT": 5.5005539749967385 }, "geometry": { "type": "MultiPolygon", "coordinates": [ [ [ [ 11.1968008, 6.2586502 ], [ 11.3010068, 6.2481495 ], [ 11.276693, 6.2075975 ], [ 11.2782984, 6.1639435 ], [ 11.2624078, 6.1357893 ], [ 11.3066879, 6.0413719 ], [ 11.266495, 5.9988498 ], [ 11.2623102, 5.9726818 ], [ 11.276521, 5.9389991 ], [ 11.2527319, 5.9071534 ], [ 11.2779135, 5.8688422 ], [ 11.2693462, 5.8259298 ], [ 11.3081934, 5.7716687 ], [ 11.258365, 5.7121089 ], [ 11.2025189, 5.6721279 ], [ 11.2124925, 5.6467174 ], [ 11.1857853, 5.6040217 ], [ 11.2141403, 5.5576032 ], [ 11.2146342, 5.5264214 ], [ 11.1931904, 5.4606243 ], [ 11.1845294, 5.3849961 ], [ 11.1610112, 5.3759088 ], [ 11.123166, 5.3251416 ], [ 11.0703037, 5.2959727 ], [ 11.0811894, 5.2678102 ], [ 11.0677404, 5.212367 ], [ 11.0806199, 5.1880487 ], [ 10.9963099, 5.1548776 ], [ 10.9867484, 5.0835086 ], [ 10.9706703, 5.0357379 ], [ 10.9446495, 5.0054047 ], [ 10.961121, 4.965248 ], [ 10.9412962, 4.9223556 ], [ 10.8842589, 4.9339399 ], [ 10.8245312, 4.9709747 ], [ 10.8130175, 5.008806 ], [ 10.7674809, 5.0151274 ], [ 10.7212763, 4.9537867 ], [ 10.651244, 4.9234358 ], [ 10.5996808, 4.8833887 ], [ 10.523846, 4.8988549 ], [ 10.4580512, 4.9058014 ], [ 10.4131872, 4.955909 ], [ 10.4149527, 5.0116828 ], [ 10.3674698, 5.017862 ], [ 10.3728428, 5.076429 ], [ 10.314289, 5.0996742 ], [ 10.2986484, 5.0714928 ], [ 10.2656133, 5.0678733 ], [ 10.2333043, 5.1075406 ], [ 10.1984312, 5.0792489 ], [ 10.2272694, 5.0396135 ], [ 10.1537194, 4.970656 ], [ 10.1496136, 4.9205859 ], [ 10.1067288, 4.9375489 ], [ 10.0745082, 4.9862264 ], [ 10.074107, 5.0428716 ], [ 10.0171249, 5.0665961 ], [ 9.9911304, 5.1308872 ], [ 10.007876, 5.1894122 ], [ 9.970232, 5.244372 ], [ 9.8811324, 5.250487 ], [ 9.8332503, 5.2668992 ], [ 9.8478862, 5.3323388 ], [ 9.9214371, 5.3780438 ], [ 9.9464533, 5.4491207 ], [ 9.9486201, 5.5205313 ], [ 9.9974192, 5.5796346 ], [ 10.0245938, 5.6299042 ], [ 10.0794486, 5.6344 ], [ 10.1015017, 5.6621426 ], [ 10.080217, 5.7095194 ], [ 10.1167248, 5.7539372 ], [ 10.1505874, 5.7751439 ], [ 10.274515, 5.7088106 ], [ 10.3063825, 5.7191245 ], [ 10.2784936, 5.768434 ], [ 10.3221186, 5.808678 ], [ 10.4257472, 5.8065116 ], [ 10.5249965, 5.8346302 ], [ 10.5599148, 5.8217098 ], [ 10.578238, 5.7783524 ], [ 10.6024831, 5.7860603 ], [ 10.6284525, 5.8324024 ], [ 10.6167326, 5.8775361 ], [ 10.637919, 5.8957056 ], [ 10.6405829, 5.9402472 ], [ 10.6594693, 5.9835856 ], [ 10.7006785, 6.017911 ], [ 10.7879387, 6.0193184 ], [ 10.8250782, 5.9845789 ], [ 10.8570085, 6.0148771 ], [ 10.9267413, 6.0165732 ], [ 10.9894134, 6.0647643 ], [ 10.9915497, 6.1108041 ], [ 11.0108945, 6.1521863 ], [ 11.0000447, 6.225424 ], [ 11.0278306, 6.2383631 ], [ 11.074893, 6.2152866 ], [ 11.1403865, 6.2335429 ], [ 11.1625968, 6.2643766 ], [ 11.1968008, 6.2586502 ] ] ] ] } },
{ "type": "Feature", "properties": { "POLYGON_ID": "CMR_GAUL1997_ADM1_823", "ADM0_ISO3": "CMR", "ADM0_NAME": "Cameroon", "ADM0_CODE": 45, "ADM1_NAME": "Sud", "ADM1_CODE": 823, "GEOSET": "GAUL", "GEOSET_YEAR": 1997.0, "GEOSET_VERSION": "GAUL_v1", "GEOSET_UNIT": "ADM1", "CENTROID_LONG": 11.576900505317845, "CENTROID_LAT": 2.7558221154464961 }, "geometry": { "type": "MultiPolygon", "coordinates": [ [ [ [ 12.564188, 3.533699 ], [ 12.5439359, 3.3914269 ], [ 12.7652421, 3.1702449 ], [ 12.7730126, 2.9462934 ], [ 12.8367238, 2.8894709 ], [ 12.916858, 2.880121 ], [ 12.9405023, 2.8661882 ], [ 12.9897496, 2.8735385 ], [ 13.0462401, 2.8477896 ], [ 13.1577825, 2.8471514 ], [ 13.2001834, 2.8686014 ], [ 13.2364201, 2.8281238 ], [ 13.2713727, 2.8426752 ], [ 13.3075547, 2.83705 ], [ 13.3507907, 2.7978629 ], [ 13.3845104, 2.8174267 ], [ 13.4297458, 2.7751318 ], [ 13.4993319, 2.7879921 ], [ 13.5302018, 2.8540904 ], [ 13.5705583, 2.8572701 ], [ 13.5811611, 2.8828776 ], [ 13.6299624, 2.9061799 ], [ 13.6528248, 2.574696 ], [ 13.6799931, 2.170928 ], [ 13.40491, 2.16842 ], [ 13.29897, 2.17056 ], [ 13.30019, 2.22846 ], [ 13.25195, 2.27334 ], [ 13.22015, 2.25911 ], [ 13.16275, 2.28399 ], [ 13.11447, 2.26838 ], [ 13.09982, 2.24609 ], [ 13.03783, 2.23808 ], [ 13.02136, 2.24958 ], [ 12.87519, 2.2308 ], [ 12.8267, 2.25289 ], [ 12.75007, 2.22348 ], [ 12.68968, 2.24234 ], [ 12.65925, 2.23867 ], [ 12.58948, 2.25477 ], [ 12.50419, 2.26077 ], [ 12.45343, 2.25255 ], [ 12.32686, 2.27673 ], [ 12.24178, 2.24988 ], [ 12.2134, 2.27723 ], [ 12.14867, 2.27329 ], [ 12.05349, 2.2875 ], [ 11.9812, 2.29136 ], [ 11.89725, 2.28555 ], [ 11.8955611, 2.2856583 ], [ 11.83893, 2.27722 ], [ 11.75017, 2.28105 ], [ 11.69955, 2.32216 ], [ 11.6122, 2.29975 ], [ 11.58793, 2.31122 ], [ 11.5444869, 2.2985214 ], [ 11.47402, 2.30395 ], [ 11.3647, 2.28839 ], [ 11.37755, 2.26035 ], [ 11.35016, 2.22673 ], [ 11.3346096, 2.173887 ], [ 11.16649, 2.17482 ], [ 10.6406869, 2.174149 ], [ 10.50172, 2.17281 ], [ 10.38979, 2.17295 ], [ 10.1979, 2.17296 ], [ 10.19396, 2.17267 ], [ 10.04082, 2.16189 ], [ 9.92564, 2.20084 ], [ 9.8478893, 2.2465719 ], [ 9.8214701, 2.3478469 ], [ 9.8182522, 2.5019464 ], [ 9.8249458, 2.5734471 ], [ 9.847607, 2.6750602 ], [ 9.8766516, 2.737998 ], [ 9.8946718, 2.8007714 ], [ 9.8854176, 2.832868 ], [ 9.9139132, 2.9752931 ], [ 9.949667, 3.0090387 ], [ 9.9748965, 3.0851239 ], [ 9.9211578, 3.222668 ], [ 9.9004166, 3.258998 ], [ 9.9620982, 3.276523 ], [ 9.9829551, 3.3039188 ], [ 10.03407, 3.3330269 ], [ 10.0750835, 3.4194653 ], [ 10.0835992, 3.4934762 ], [ 10.1210274, 3.5770472 ], [ 10.1616996, 3.571264 ], [ 10.2295013, 3.5438865 ], [ 10.2323327, 3.5146689 ], [ 10.2517278, 3.4125767 ], [ 10.2910637, 3.3330534 ], [ 10.3028502, 3.3329183 ], [ 10.5497519, 3.4024293 ], [ 10.7624017, 3.4734302 ], [ 10.8168689, 3.457122 ], [ 10.8418726, 3.3973821 ], [ 10.9546326, 3.4156112 ], [ 11.032107, 3.414883 ], [ 11.0656364, 3.3918239 ], [ 11.113865, 3.2932859 ], [ 11.1135309, 3.247598 ], [ 11.157046, 3.2299245 ], [ 11.1906408, 3.1362074 ], [ 11.2098578, 3.1088989 ], [ 11.2703949, 3.1353246 ], [ 11.3311387, 3.1133063 ], [ 11.3640338, 3.1406173 ], [ 11.4141019, 3.1344038 ], [ 11.5654162, 3.1373899 ], [ 11.5855762, 3.1610134 ], [ 11.6421433, 3.1881294 ], [ 11.6994994, 3.1983808 ], [ 11.7095687, 3.2727149 ], [ 11.7461308, 3.2894711 ], [ 11.7406292, 3.3217644 ], [ 11.7766879, 3.3279989 ], [ 11.8510411, 3.3738073 ], [ 11.8917281, 3.4740083 ], [ 11.9370632, 3.4401612 ], [ 11.980696, 3.434049 ], [ 12.0015714, 3.4049659 ], [ 12.1359311, 3.3599607 ], [ 12.1597233, 3.3259449 ], [ 12.205217, 3.3115771 ], [ 12.2220738, 3.3399622 ], [ 12.2541307, 3.4760535 ], [ 12.400838, 3.6006226 ], [ 12.4332233, 3.61185 ], [ 12.4469923, 3.6679473 ], [ 12.5051692, 3.6753658 ], [ 12.5292413, 3.628085 ], [ 12.5237429, 3.5897603 ], [ 12.564188, 3.533699 ] ] ] ] } },
{ "type": "Feature", "properties": { "POLYGON_ID": "CMR_GAUL1997_ADM1_824", "ADM0_ISO3": "CMR", "ADM0_NAME": "Cameroon", "ADM0_CODE": 45, "ADM1_NAME": "Sud - Ouest", "ADM1_CODE": 824, "GEOSET": "GAUL", "GEOSET_YEAR": 1997.0, "GEOSET_VERSION": "GAUL_v1", "GEOSET_UNIT": "ADM1", "CENTROID_LONG": 9.2964251008484364, "CENTROID_LAT": 5.2054912059238987 }, "geometry": { "type": "MultiPolygon", "coordinates": [ [ [ [ 9.6420402, 6.5230292 ], [ 9.6506595, 6.5252941 ], [ 9.6794948, 6.5124807 ], [ 9.6806047, 6.5124267 ], [ 9.7066125, 6.512921 ], [ 9.7404762, 6.4844984 ], [ 9.7362347, 6.43044 ], [ 9.7634733, 6.3899779 ], [ 9.7722818, 6.3050998 ], [ 9.8164965, 6.2222326 ], [ 9.7838294, 6.2067499 ], [ 9.7890335, 6.168354 ], [ 9.7627238, 6.1225131 ], [ 9.7251199, 6.0837931 ], [ 9.6313363, 6.044205 ], [ 9.6127335, 6.0102887 ], [ 9.6385207, 5.9828308 ], [ 9.6328213, 5.9533515 ], [ 9.6028856, 5.9351475 ], [ 9.594506, 5.8894901 ], [ 9.6286482, 5.8881603 ], [ 9.6847069, 5.838241 ], [ 9.7277735, 5.8480472 ], [ 9.7553739, 5.7921508 ], [ 9.8152401, 5.7542063 ], [ 9.9222105, 5.7290338 ], [ 9.95209, 5.7512898 ], [ 9.9967795, 5.7183336 ], [ 10.080217, 5.7095194 ], [ 10.1015017, 5.6621426 ], [ 10.0794486, 5.6344 ], [ 10.0245938, 5.6299042 ], [ 9.9974192, 5.5796346 ], [ 9.9486201, 5.5205313 ], [ 9.9464533, 5.4491207 ], [ 9.9214371, 5.3780438 ], [ 9.8478862, 5.3323388 ], [ 9.8291943, 5.2907924 ], [ 9.7808718, 5.2833161 ], [ 9.7361186, 5.2453162 ], [ 9.7656914, 5.2089976 ], [ 9.775741, 5.1444337 ], [ 9.8041727, 5.1269029 ], [ 9.8150344, 5.0801229 ], [ 9.8651388, 5.0300616 ], [ 9.8077219, 5.0246542 ], [ 9.7727548, 5.0018638 ], [ 9.7496708, 4.8428104 ], [ 9.7033684, 4.806169 ], [ 9.6907448, 4.7207605 ], [ 9.632879, 4.6651436 ], [ 9.6324768, 4.6286673 ], [ 9.5750037, 4.6158633 ], [ 9.543064, 4.5906715 ], [ 9.5376169, 4.5630544 ], [ 9.4961154, 4.5287848 ], [ 9.494398, 4.3887668 ], [ 9.4541563, 4.3465333 ], [ 9.4573435, 4.317833 ], [ 9.4239557, 4.2742687 ], [ 9.4184525, 4.2050795 ], [ 9.466122, 4.1882165 ], [ 9.5014179, 4.2016974 ], [ 9.548099, 4.1470818 ], [ 9.5523422, 4.1073736 ], [ 9.5090631, 4.0842974 ], [ 9.5037089, 4.0552382 ], [ 9.469839, 4.0798671 ], [ 9.4516307, 4.0581512 ], [ 9.4420222, 4.0225947 ], [ 9.4030974, 3.990457 ], [ 9.3800773, 3.9197825 ], [ 9.3361893, 3.9162336 ], [ 9.2938103, 3.9653685 ], [ 9.2522178, 3.9479647 ], [ 9.2115508, 3.977433 ], [ 9.2009546, 4.0112571 ], [ 9.11409, 4.009946 ], [ 9.0907645, 4.0328877 ], [ 8.9763805, 4.1005961 ], [ 8.9980365, 4.1794451 ], [ 8.972043, 4.239595 ], [ 8.914766, 4.287548 ], [ 8.916173, 4.351749 ], [ 8.885729, 4.385779 ], [ 8.9001106, 4.5033324 ], [ 8.8814529, 4.5250274 ], [ 8.8858371, 4.5814753 ], [ 8.8194774, 4.637697 ], [ 8.7761596, 4.6564994 ], [ 8.7598908, 4.6196807 ], [ 8.7983438, 4.5514158 ], [ 8.7642834, 4.5361498 ], [ 8.7032195, 4.5881406 ], [ 8.6772961, 4.6646145 ], [ 8.6522918, 4.6612644 ], [ 8.6651634, 4.5912751 ], [ 8.7228703, 4.50492 ], [ 8.692838, 4.4824445 ], [ 8.5580409, 4.4877858 ], [ 8.5785626, 4.5150545 ], [ 8.5742053, 4.5399336 ], [ 8.5598587, 4.543394 ], [ 8.5549329, 4.5539211 ], [ 8.5655996, 4.5590433 ], [ 8.5578034, 4.5666382 ], [ 8.5560669, 4.5768823 ], [ 8.5414341, 4.5917142 ], [ 8.5866331, 4.623754 ], [ 8.56873, 4.6593143 ], [ 8.5757625, 4.6932689 ], [ 8.5837724, 4.7012788 ], [ 8.5579073, 4.7643655 ], [ 8.5686094, 4.7997149 ], [ 8.6167794, 4.8177625 ], [ 8.6264037, 4.845938 ], [ 8.6183583, 4.855108 ], [ 8.6184585, 4.9037972 ], [ 8.6521047, 4.916276 ], [ 8.6689725, 4.966032 ], [ 8.6803531, 4.9733619 ], [ 8.6978187, 4.9872526 ], [ 8.6970274, 4.9913933 ], [ 8.7493971, 5.1021417 ], [ 8.7823716, 5.112817 ], [ 8.821155, 5.1847373 ], [ 8.8170725, 5.2659205 ], [ 8.8168854, 5.2681792 ], [ 8.8356171, 5.3742482 ], [ 8.8366795, 5.388129 ], [ 8.846071, 5.4596028 ], [ 8.9069652, 5.5414268 ], [ 8.915894, 5.5797249 ], [ 8.9002087, 5.6258493 ], [ 8.8707959, 5.6509355 ], [ 8.8649165, 5.6584738 ], [ 8.8342953, 5.6944178 ], [ 8.8331578, 5.6978439 ], [ 8.8554152, 5.7074718 ], [ 8.8837131, 5.7955807 ], [ 8.8506167, 5.804145 ], [ 8.8593751, 5.844602 ], [ 8.8991285, 5.8602497 ], [ 8.9421429, 5.9128062 ], [ 9.1533851, 6.0929194 ], [ 9.1544138, 6.0937965 ], [ 9.1695923, 6.1298469 ], [ 9.2630989, 6.1835862 ], [ 9.2647525, 6.1845366 ], [ 9.323885, 6.278979 ], [ 9.3265312, 6.2818971 ], [ 9.3319307, 6.2878514 ], [ 9.3338943, 6.2914764 ], [ 9.334134, 6.2919189 ], [ 9.3347467, 6.2938783 ], [ 9.3418588, 6.3262358 ], [ 9.3433269, 6.3294692 ], [ 9.3819614, 6.3396111 ], [ 9.3835581, 6.3385046 ], [ 9.4152461, 6.3207253 ], [ 9.418321, 6.3198662 ], [ 9.432189, 6.3159914 ], [ 9.4329437, 6.3157805 ], [ 9.4329542, 6.3158901 ], [ 9.4664164, 6.4559568 ], [ 9.5157319, 6.4451036 ], [ 9.5853286, 6.4752217 ], [ 9.5967045, 6.5296872 ], [ 9.6420402, 6.5230292 ] ] ], [ [ [ 8.8579499, 4.5578593 ], [ 8.8481148, 4.529945 ], [ 8.7737009, 4.6126754 ], [ 8.8149938, 4.6304653 ], [ 8.8579499, 4.5578593 ] ] ], [ [ [ 8.5662671, 4.6660746 ], [ 8.5702105, 4.6452993 ], [ 8.5827451, 4.6287348 ], [ 8.5178334, 4.586565 ], [ 8.5006692, 4.6053025 ], [ 8.5151157, 4.6643759 ], [ 8.5662671, 4.6660746 ] ] ], [ [ [ 8.5572966, 4.5643805 ], [ 8.5524877, 4.5553694 ], [ 8.5563504, 4.5428288 ], [ 8.5720969, 4.5212391 ], [ 8.5366757, 4.4942516 ], [ 8.5061742, 4.5085887 ], [ 8.4990032, 4.5552448 ], [ 8.5229921, 4.5598914 ], [ 8.535803, 4.588677 ], [ 8.5533028, 4.5757873 ], [ 8.5572966, 4.5643805 ] ] ] ] } }
]
}
