{
"type": "FeatureCollection",
"name": "COG_GAUL2008_ADM1",
"crs": { "type": "name", "properties": { "name": "urn:ogc:def:crs:OGC:1.3:CRS84" } },
"features": [
{ "type": "Feature", "properties": { "POLYGON_ID": "COG_GAUL2008_ADM1_190435", "ADM0_ISO3": "COG", "ADM0_NAME": "Congo", "ADM0_CODE": 59, "ADM1_NAME": "Kouilou", "ADM1_CODE": 190435, "GEOSET": "GAUL", "GEOSET_YEAR": 2008.0, "GEOSET_VERSION": "GAUL_v1", "GEOSET_UNIT": "ADM1", "CENTROID_LONG": 11.946989214475657, "CENTROID_LAT": -4.2187134979214598 }, "geometry": { "type": "MultiPolygon", "coordinates": [ [ [ [ 11.82998, -3.72927 ], [ 11.8587946, -3.7452147 ], [ 11.884834, -3.774303 ], [ 11.934634, -3.786932 ], [ 12.02838, -3.867519 ], [ 12.135843, -3.92315 ], [ 12.1909, -3.919072 ], [ 12.223625, -3.958279 ], [ 12.236383, -3.995457 ], [ 12.270119, -3.969169 ], [ 12.338012, -3.997232 ], [ 12.356468, -3.989155 ], [ 12.39419, -4.028449 ], [ 12.440762, -4.034302 ], [ 12.495015, -4.082284 ], [ 12.502827, -4.116016 ], [ 12.592774, -4.226774 ], [ 12.717759, -4.334784 ], [ 12.7622045, -4.3895121 ], [ 12.7610582, -4.389697 ], [ 12.7434347, -4.4420411 ], [ 12.7731578, -4.4807074 ], [ 12.7644776, -4.507011 ], [ 12.7212983, -4.4851511 ], [ 12.7096579, -4.4772044 ], [ 12.6732469, -4.5006748 ], [ 12.6736429, -4.5296092 ], [ 12.6377189, -4.5630729 ], [ 12.5620506, -4.5630747 ], [ 12.5581068, -4.5854786 ], [ 12.5602444, -4.5938375 ], [ 12.5003069, -4.6057375 ], [ 12.494707, -4.6011 ], [ 12.4562945, -4.5875375 ], [ 12.3932071, -4.608975 ], [ 12.3984571, -4.6509749 ], [ 12.3720321, -4.7337498 ], [ 12.3223322, -4.7977122 ], [ 12.2628183, -4.7965971 ], [ 12.2428794, -4.8142176 ], [ 12.2382424, -4.8095806 ], [ 12.2275774, -4.7812951 ], [ 12.2224767, -4.7812951 ], [ 12.2201582, -4.7771218 ], [ 12.1623376, -4.8697197 ], [ 11.989245, -4.9993175 ], [ 11.9221903, -4.9109013 ], [ 11.9512, -4.87237 ], [ 11.957158, -4.810321 ], [ 11.944633, -4.758029 ], [ 11.882231, -4.698146 ], [ 11.8070047, -4.704492 ], [ 11.7812511, -4.6600276 ], [ 11.8104796, -4.6521854 ], [ 11.820922, -4.5996094 ], [ 11.7681746, -4.5305401 ], [ 11.6898349, -4.4564287 ], [ 11.600589, -4.3846066 ], [ 11.5097366, -4.3037775 ], [ 11.3962952, -4.2141087 ], [ 11.372965, -4.1782435 ], [ 11.3728654, -4.1450117 ], [ 11.3127664, -4.0794956 ], [ 11.2010313, -3.9915751 ], [ 11.22358, -3.91767 ], [ 11.2279, -3.85898 ], [ 11.25147, -3.81181 ], [ 11.24958, -3.71815 ], [ 11.34549, -3.60352 ], [ 11.3589819, -3.5965426 ], [ 11.43242, -3.59 ], [ 11.44216, -3.58967 ], [ 11.5155724, -3.5225613 ], [ 11.51976, -3.51851 ], [ 11.52779, -3.5137 ], [ 11.53739, -3.5139 ], [ 11.56467, -3.52953 ], [ 11.58552, -3.53872 ], [ 11.60959, -3.55182 ], [ 11.63161, -3.57021 ], [ 11.6963296, -3.6707194 ], [ 11.7135291, -3.6842794 ], [ 11.82998, -3.72927 ] ] ] ] } },
{ "type": "Feature", "properties": { "POLYGON_ID": "COG_GAUL2008_ADM1_190436", "ADM0_ISO3": "COG", "ADM0_NAME": "Congo", "ADM0_CODE": 59, "ADM1_NAME": "Point-Noire", "ADM1_CODE": 190436, "GEOSET": "GAUL", "GEOSET_YEAR": 2008.0, "GEOSET_VERSION": "GAUL_v1", "GEOSET_UNIT": "ADM1", "CENTROID_LONG": 11.894770471330105, "CENTROID_LAT": -4.7911139443027624 }, "geometry": { "type": "MultiPolygon", "coordinates": [ [ [ [ 11.9221903, -4.9109013 ], [ 11.8884668, -4.8596764 ], [ 11.823861, -4.7878449 ], [ 11.8528817, -4.7601706 ], [ 11.8070047, -4.704492 ], [ 11.882231, -4.698146 ], [ 11.944633, -4.758029 ], [ 11.957158, -4.810321 ], [ 11.9512, -4.87237 ], [ 11.9221903, -4.9109013 ] ] ] ] } },
{ "type": "Feature", "properties": { "POLYGON_ID": "COG_GAUL2008_ADM1_970", "ADM0_ISO3": "COG", "ADM0_NAME": "Congo", "ADM0_CODE": 59, "ADM1_NAME": "Bouenza", "ADM1_CODE": 970, "GEOSET": "GAUL", "GEOSET_YEAR": 2008.0, "GEOSET_VERSION": "GAUL_v1", "GEOSET_UNIT": "ADM1", "CENTROID_LONG": 13.561787944594213, "CENTROID_LAT": -4.075557641057836 }, "geometry": { "type": "MultiPolygon", "coordinates": [ [ [ [ 13.9056845, -4.5033084 ], [ 13.9018967, -4.5014514 ], [ 13.8937017, -4.5069922 ], [ 13.8910099, -4.5090699 ], [ 13.8542243, -4.4935623 ], [ 13.8574701, -4.4786182 ], [ 13.8511814, -4.4704136 ], [ 13.8472144, -4.4686104 ], [ 13.840707, -4.4602115 ], [ 13.8353039, -4.4554125 ], [ 13.8355724, -4.4537345 ], [ 13.8407406, -4.4473245 ], [ 13.8230324, -4.4250607 ], [ 13.7858865, -4.4227769 ], [ 13.7793382, -4.4239887 ], [ 13.7718112, -4.4287893 ], [ 13.771951, -4.4319352 ], [ 13.7683623, -4.4366192 ], [ 13.7622801, -4.4421888 ], [ 13.7583651, -4.4449386 ], [ 13.7559373, -4.4454267 ], [ 13.7233398, -4.4557048 ], [ 13.7273153, -4.4951455 ], [ 13.7312194, -4.4993241 ], [ 13.7332935, -4.5106096 ], [ 13.7303959, -4.5153067 ], [ 13.732592, -4.5201869 ], [ 13.7351236, -4.5255246 ], [ 13.7292673, -4.5293373 ], [ 13.7298469, -4.5382741 ], [ 13.7322869, -4.5415682 ], [ 13.7311584, -4.5506271 ], [ 13.7175586, -4.6374461 ], [ 13.7004376, -4.6627528 ], [ 13.710791, -4.6739535 ], [ 13.7140617, -4.6752968 ], [ 13.7164575, -4.6746154 ], [ 13.7233157, -4.6787462 ], [ 13.7256988, -4.6892849 ], [ 13.6775066, -4.7187563 ], [ 13.6837396, -4.7275313 ], [ 13.690293, -4.7365224 ], [ 13.6982875, -4.7440102 ], [ 13.699284, -4.7449436 ], [ 13.6980089, -4.746533 ], [ 13.692699, -4.7500089 ], [ 13.6911478, -4.7469064 ], [ 13.6304899, -4.7478562 ], [ 13.6362201, -4.7545678 ], [ 13.6297934, -4.7563407 ], [ 13.6240632, -4.7580186 ], [ 13.6210474, -4.7646877 ], [ 13.6232746, -4.7742245 ], [ 13.6231282, -4.7757984 ], [ 13.60748, -4.778671 ], [ 13.594645, -4.74653 ], [ 13.497074, -4.697792 ], [ 13.454431, -4.653373 ], [ 13.427774, -4.652907 ], [ 13.41512, -4.609011 ], [ 13.369508, -4.541023 ], [ 13.356776, -4.502165 ], [ 13.294556, -4.430527 ], [ 13.189776, -4.416939 ], [ 13.044253, -4.343846 ], [ 12.959778, -4.310454 ], [ 12.922237, -4.259405 ], [ 12.844736, -4.205977 ], [ 12.828802, -4.158665 ], [ 12.83627, -4.106722 ], [ 12.79834, -4.080862 ], [ 12.792272, -4.042121 ], [ 12.765927, -4.021503 ], [ 12.702481, -3.921287 ], [ 12.653174, -3.876751 ], [ 12.618991, -3.824081 ], [ 12.656137, -3.792813 ], [ 12.635282, -3.740375 ], [ 12.654283, -3.697032 ], [ 12.633299, -3.652991 ], [ 12.633792, -3.621084 ], [ 12.676429, -3.557996 ], [ 12.691475, -3.554899 ], [ 12.735838, -3.546158 ], [ 12.758428, -3.59357 ], [ 12.796941, -3.580809 ], [ 12.824891, -3.604806 ], [ 12.827678, -3.640118 ], [ 12.865543, -3.669326 ], [ 12.912389, -3.764179 ], [ 12.91583, -3.864992 ], [ 12.935841, -3.863662 ], [ 12.981826, -3.906445 ], [ 13.006756, -3.910239 ], [ 13.034395, -3.954381 ], [ 13.064114, -3.971692 ], [ 13.112775, -3.949033 ], [ 13.13591, -3.961192 ], [ 13.214213, -3.96088 ], [ 13.249551, -3.937988 ], [ 13.357884, -3.934843 ], [ 13.375867, -3.956987 ], [ 13.381284, -4.037683 ], [ 13.45523, -4.062098 ], [ 13.522952, -4.03344 ], [ 13.525681, -3.964641 ], [ 13.603692, -3.875326 ], [ 13.617509, -3.843662 ], [ 13.603608, -3.772893 ], [ 13.635071, -3.785197 ], [ 13.663954, -3.748759 ], [ 13.72555, -3.751514 ], [ 13.746443, -3.693106 ], [ 13.788521, -3.665295 ], [ 13.795882, -3.620085 ], [ 13.837701, -3.609061 ], [ 13.873119, -3.548659 ], [ 13.891695, -3.564665 ], [ 13.951574, -3.570748 ], [ 13.966356, -3.58444 ], [ 14.033052, -3.580567 ], [ 14.123402, -3.555278 ], [ 14.159285, -3.497132 ], [ 14.263924, -3.517431 ], [ 14.298069, -3.571762 ], [ 14.289275, -3.601834 ], [ 14.315222, -3.647626 ], [ 14.285036, -3.660532 ], [ 14.239265, -3.711788 ], [ 14.29751, -3.823633 ], [ 14.298554, -3.863953 ], [ 14.367699, -3.917216 ], [ 14.376914, -3.967753 ], [ 14.327838, -4.017272 ], [ 14.264887, -3.994343 ], [ 14.22073, -4.048985 ], [ 14.159892, -4.105016 ], [ 14.172437, -4.155611 ], [ 14.155186, -4.193932 ], [ 14.094945, -4.211351 ], [ 14.047586, -4.257541 ], [ 13.933556, -4.305926 ], [ 13.963016, -4.340025 ], [ 13.946705, -4.425379 ], [ 13.927736, -4.467028 ], [ 13.910874, -4.480167 ], [ 13.910641, -4.495276 ], [ 13.9056845, -4.5033084 ] ] ] ] } },
{ "type": "Feature", "properties": { "POLYGON_ID": "COG_GAUL2008_ADM1_190432", "ADM0_ISO3": "COG", "ADM0_NAME": "Congo", "ADM0_CODE": 59, "ADM1_NAME": "Brazzaville", "ADM1_CODE": 190432, "GEOSET": "GAUL", "GEOSET_YEAR": 2008.0, "GEOSET_VERSION": "GAUL_v1", "GEOSET_UNIT": "ADM1", "CENTROID_LONG": 15.261373913848017, "CENTROID_LAT": -4.2352053500489397 }, "geometry": { "type": "MultiPolygon", "coordinates": [ [ [ [ 15.3085844, -4.2809915 ], [ 15.2939341, -4.2863514 ], [ 15.2584413, -4.3133437 ], [ 15.1889018, -4.3330287 ], [ 15.1857886, -4.3403872 ], [ 15.169823, -4.295612 ], [ 15.200631, -4.242415 ], [ 15.216398, -4.192315 ], [ 15.272188, -4.139554 ], [ 15.303884, -4.13675 ], [ 15.35307, -4.187985 ], [ 15.3085844, -4.2809915 ] ] ] ] } },
{ "type": "Feature", "properties": { "POLYGON_ID": "COG_GAUL2008_ADM1_971", "ADM0_ISO3": "COG", "ADM0_NAME": "Congo", "ADM0_CODE": 59, "ADM1_NAME": "Cuvette", "ADM1_CODE": 971, "GEOSET": "GAUL", "GEOSET_YEAR": 2008.0, "GEOSET_VERSION": "GAUL_v1", "GEOSET_UNIT": "ADM1", "CENTROID_LONG": 16.297904317074767, "CENTROID_LAT": -0.45098422059377574 }, "geometry": { "type": "MultiPolygon", "coordinates": [ [ [ [ 17.001562, 0.397049 ], [ 17.090806, 0.341672 ], [ 17.190163, 0.292846 ], [ 17.314696, 0.253671 ], [ 17.398125, 0.253895 ], [ 17.410165, 0.277231 ], [ 17.419752, 0.357791 ], [ 17.391862, 0.388551 ], [ 17.407446, 0.425279 ], [ 17.507608, 0.428575 ], [ 17.551737, 0.36894 ], [ 17.554008, 0.299946 ], [ 17.546823, 0.158798 ], [ 17.546679, -0.066564 ], [ 17.559523, -0.423336 ], [ 17.46552, -0.568013 ], [ 17.483167, -0.61373 ], [ 17.496985, -0.691335 ], [ 17.508272, -0.71676 ], [ 17.519637, -0.73714 ], [ 17.5229766, -0.7431287 ], [ 17.506433, -0.7509278 ], [ 17.4980578, -0.7548762 ], [ 17.4741322, -0.792694 ], [ 17.467186, -0.7980966 ], [ 17.4363143, -0.8235657 ], [ 17.4123888, -0.8899399 ], [ 17.3845216, -0.9258056 ], [ 17.3641962, -0.9652772 ], [ 17.3429274, -0.9879576 ], [ 17.3043378, -0.9879576 ], [ 17.2672917, -0.9972191 ], [ 17.2001056, -1.0471917 ], [ 17.1970586, -1.049701 ], [ 17.173133, -1.05356 ], [ 17.1608311, -1.0528447 ], [ 17.1095889, -1.0646199 ], [ 17.0093634, -1.1267984 ], [ 16.9980733, -1.1402737 ], [ 16.9572922, -1.1718915 ], [ 16.887115, -1.2248575 ], [ 16.8407429, -1.2598567 ], [ 16.7180629, -1.4467077 ], [ 16.6542566, -1.5902691 ], [ 16.646991, -1.6066163 ], [ 16.645258, -1.60651 ], [ 16.606919, -1.604159 ], [ 16.586117, -1.546613 ], [ 16.548063, -1.525767 ], [ 16.461168, -1.53434 ], [ 16.394627, -1.521405 ], [ 16.357607, -1.491931 ], [ 16.329294, -1.491437 ], [ 16.306677, -1.445703 ], [ 16.29452, -1.369926 ], [ 16.23378, -1.311773 ], [ 16.195578, -1.304389 ], [ 16.172754, -1.272085 ], [ 16.101709, -1.233902 ], [ 16.08477, -1.252077 ], [ 16.032522, -1.199381 ], [ 15.962574, -1.196479 ], [ 15.956532, -1.156059 ], [ 15.902357, -1.103039 ], [ 15.859428, -1.077092 ], [ 15.839877, -1.048194 ], [ 15.781539, -1.048855 ], [ 15.729185, -0.985788 ], [ 15.687949, -0.958192 ], [ 15.64445, -0.96919 ], [ 15.626357, -0.953756 ], [ 15.546387, -0.95236 ], [ 15.532669, -0.977317 ], [ 15.474331, -0.977978 ], [ 15.408966, -1.002033 ], [ 15.369817, -1.055103 ], [ 15.270379, -1.127278 ], [ 15.233545, -1.138393 ], [ 15.212748, -1.190103 ], [ 15.189138, -1.208169 ], [ 15.126658, -1.153324 ], [ 15.104008, -1.109254 ], [ 15.021483, -1.057419 ], [ 15.062532, -0.989264 ], [ 15.148538, -0.923574 ], [ 15.160849, -0.881794 ], [ 15.062727, -0.760815 ], [ 14.997699, -0.763039 ], [ 14.962946, -0.747314 ], [ 14.970207, -0.708805 ], [ 15.004046, -0.6758 ], [ 15.036739, -0.609179 ], [ 15.070682, -0.569457 ], [ 15.163404, -0.500525 ], [ 15.194762, -0.454354 ], [ 15.106141, -0.358625 ], [ 15.138691, -0.303693 ], [ 15.109393, -0.25609 ], [ 15.019734, -0.227615 ], [ 14.972898, -0.235206 ], [ 14.979564, -0.127686 ], [ 14.965357, -0.075301 ], [ 14.95873, 0.035815 ], [ 14.992637, 0.070542 ], [ 15.0107, 0.051726 ], [ 15.1296, 0.079922 ], [ 15.154984, 0.103025 ], [ 15.211984, 0.120529 ], [ 15.235726, 0.145342 ], [ 15.267024, 0.227205 ], [ 15.176189, 0.287655 ], [ 15.15995, 0.31653 ], [ 15.057621, 0.388954 ], [ 15.113264, 0.426664 ], [ 15.197005, 0.447065 ], [ 15.202996, 0.51087 ], [ 15.227783, 0.4953 ], [ 15.260054, 0.4241 ], [ 15.313094, 0.40131 ], [ 15.316015, 0.37435 ], [ 15.372625, 0.366634 ], [ 15.579439, 0.36134 ], [ 15.721795, 0.395854 ], [ 15.791724, 0.386224 ], [ 15.816485, 0.368973 ], [ 15.886648, 0.374475 ], [ 15.952851, 0.339682 ], [ 15.972218, 0.297298 ], [ 16.036961, 0.275986 ], [ 16.04632, 0.233777 ], [ 16.082187, 0.179332 ], [ 16.071425, 0.130747 ], [ 16.134344, 0.099375 ], [ 16.168017, 0.118969 ], [ 16.18436, 0.09682 ], [ 16.285878, 0.07991 ], [ 16.322316, 0.062456 ], [ 16.340171, 0.030189 ], [ 16.431155, 0.087464 ], [ 16.754279, 0.266822 ], [ 16.824831, 0.297544 ], [ 16.904087, 0.35166 ], [ 17.001562, 0.397049 ] ] ] ] } },
{ "type": "Feature", "properties": { "POLYGON_ID": "COG_GAUL2008_ADM1_972", "ADM0_ISO3": "COG", "ADM0_NAME": "Congo", "ADM0_CODE": 59, "ADM1_NAME": "Cuvette-Ouest", "ADM1_CODE": 972, "GEOSET": "GAUL", "GEOSET_YEAR": 2008.0, "GEOSET_VERSION": "GAUL_v1", "GEOSET_UNIT": "ADM1", "CENTROID_LONG": 14.645644006544345, "CENTROID_LAT": -0.20956480509985015 }, "geometry": { "type": "MultiPolygon", "coordinates": [ [ [ [ 15.202996, 0.51087 ], [ 15.197005, 0.447065 ], [ 15.113264, 0.426664 ], [ 15.057621, 0.388954 ], [ 15.15995, 0.31653 ], [ 15.176189, 0.287655 ], [ 15.267024, 0.227205 ], [ 15.235726, 0.145342 ], [ 15.211984, 0.120529 ], [ 15.154984, 0.103025 ], [ 15.1296, 0.079922 ], [ 15.0107, 0.051726 ], [ 14.992637, 0.070542 ], [ 14.95873, 0.035815 ], [ 14.965357, -0.075301 ], [ 14.979564, -0.127686 ], [ 14.972898, -0.235206 ], [ 15.019734, -0.227615 ], [ 15.109393, -0.25609 ], [ 15.138691, -0.303693 ], [ 15.106141, -0.358625 ], [ 15.194762, -0.454354 ], [ 15.163404, -0.500525 ], [ 15.070682, -0.569457 ], [ 15.036739, -0.609179 ], [ 15.004046, -0.6758 ], [ 14.970207, -0.708805 ], [ 14.962946, -0.747314 ], [ 14.997699, -0.763039 ], [ 15.062727, -0.760815 ], [ 15.160849, -0.881794 ], [ 15.148538, -0.923574 ], [ 15.062532, -0.989264 ], [ 15.021483, -1.057419 ], [ 15.104008, -1.109254 ], [ 15.126658, -1.153324 ], [ 15.189138, -1.208169 ], [ 15.153269, -1.264655 ], [ 15.132239, -1.33148 ], [ 15.133438, -1.361737 ], [ 15.099443, -1.404818 ], [ 15.093252, -1.481981 ], [ 15.046006, -1.519791 ], [ 15.036845, -1.573385 ], [ 15.001807, -1.576132 ], [ 14.95633, -1.607254 ], [ 14.89315, -1.597752 ], [ 14.785589, -1.656346 ], [ 14.753312, -1.696097 ], [ 14.730512, -1.76961 ], [ 14.695162, -1.79251 ], [ 14.652344, -1.867353 ], [ 14.592839, -1.943584 ], [ 14.511701, -2.017758 ], [ 14.459716, -2.038688 ], [ 14.393464, -2.012334 ], [ 14.37563, -1.980106 ], [ 14.3820487, -1.8881969 ], [ 14.38695, -1.88516 ], [ 14.41379, -1.80388 ], [ 14.42077, -1.72866 ], [ 14.45124, -1.69243 ], [ 14.44754, -1.68324 ], [ 14.43881, -1.67408 ], [ 14.4230631, -1.6639648 ], [ 14.38125, -1.62995 ], [ 14.3770093, -1.6016823 ], [ 14.41076, -1.58568 ], [ 14.45021, -1.5662 ], [ 14.4560483, -1.5628006 ], [ 14.4802151, -1.5443394 ], [ 14.48526, -1.53363 ], [ 14.48216, -1.50767 ], [ 14.4642, -1.47717 ], [ 14.5016699, -1.4252791 ], [ 14.45227, -1.36503 ], [ 14.47279, -1.30356 ], [ 14.48298, -1.28352 ], [ 14.46516, -1.18499 ], [ 14.4636658, -1.1784548 ], [ 14.4528969, -1.1313544 ], [ 14.44758, -1.1081 ], [ 14.4315434, -1.0379994 ], [ 14.4230084, -1.0006906 ], [ 14.41025, -0.90897 ], [ 14.44082, -0.85254 ], [ 14.47092, -0.74121 ], [ 14.4987615, -0.6796787 ], [ 14.49953, -0.65723 ], [ 14.4949799, -0.6242693 ], [ 14.49294, -0.6159 ], [ 14.45632, -0.54324 ], [ 14.43273, -0.52111 ], [ 14.4058596, -0.4830568 ], [ 14.40079, -0.47709 ], [ 14.38614, -0.46865 ], [ 14.36488, -0.46093 ], [ 14.35369, -0.45914 ], [ 14.33336, -0.45939 ], [ 14.2936097, -0.4498307 ], [ 14.26505, -0.43905 ], [ 14.2223742, -0.4343484 ], [ 14.21323, -0.43654 ], [ 14.1979201, -0.4402231 ], [ 14.1829, -0.44213 ], [ 14.17673, -0.43963 ], [ 14.1729856, -0.4210554 ], [ 14.1723, -0.3634 ], [ 14.16281, -0.3299 ], [ 14.15019, -0.3125 ], [ 14.0648084, -0.2605312 ], [ 14.04977, -0.25317 ], [ 13.98485, -0.2231 ], [ 13.95362, -0.23056 ], [ 13.9516162, -0.2353169 ], [ 13.92652, -0.2426 ], [ 13.90477, -0.22453 ], [ 13.88763, -0.15846 ], [ 13.9286688, -0.0747903 ], [ 13.93084, -0.06463 ], [ 13.93482, -0.03225 ], [ 13.9334316, -0.0080213 ], [ 13.93354, 0.0 ], [ 13.94921, 0.00437 ], [ 13.95851, 0.04135 ], [ 13.9238192, 0.0504843 ], [ 13.91463, 0.09065 ], [ 13.9278199, 0.1207508 ], [ 13.88868, 0.20267 ], [ 13.89775, 0.23805 ], [ 13.93603, 0.27807 ], [ 13.941927, 0.3130283 ], [ 13.94168, 0.31574 ], [ 13.9435403, 0.3186668 ], [ 13.94782, 0.3254 ], [ 13.9714741, 0.3512452 ], [ 13.97767, 0.36219 ], [ 14.02259, 0.39096 ], [ 14.0380867, 0.4045371 ], [ 14.0732, 0.42985 ], [ 14.08112, 0.48178 ], [ 14.0724561, 0.4893548 ], [ 14.07083, 0.49394 ], [ 14.0769616, 0.5081038 ], [ 14.1196, 0.55832 ], [ 14.15201, 0.55515 ], [ 14.1696, 0.54874 ], [ 14.21549, 0.54029 ], [ 14.2224773, 0.5365622 ], [ 14.25793, 0.54838 ], [ 14.28099, 0.54358 ], [ 14.29511, 0.58035 ], [ 14.38454, 0.63742 ], [ 14.35962, 0.67255 ], [ 14.36804, 0.69852 ], [ 14.41526, 0.74222 ], [ 14.43098, 0.77532 ], [ 14.46408, 0.78936 ], [ 14.48871, 0.82523 ], [ 14.47704, 0.86291 ], [ 14.4711, 0.86474 ], [ 14.46538, 0.87439 ], [ 14.4757366, 0.8754595 ], [ 14.49799, 0.92865 ], [ 14.44038, 0.96683 ], [ 14.4380733, 0.9698231 ], [ 14.43796, 0.96997 ], [ 14.43229, 0.98928 ], [ 14.4041098, 1.0496948 ], [ 14.39976, 1.05736 ], [ 14.3993157, 1.0602579 ], [ 14.4010493, 1.0748968 ], [ 14.39867, 1.08401 ], [ 14.3704895, 1.1221307 ], [ 14.35985, 1.13269 ], [ 14.3496187, 1.1428279 ], [ 14.3438, 1.17743 ], [ 14.2960215, 1.2443534 ], [ 14.29755, 1.24923 ], [ 14.3039521, 1.2606681 ], [ 14.30559, 1.26967 ], [ 14.30356, 1.28323 ], [ 14.3042047, 1.2854431 ], [ 14.30677, 1.29425 ], [ 14.306022, 1.2973085 ], [ 14.29674, 1.3053 ], [ 14.2880177, 1.3258117 ], [ 14.2589, 1.35112 ], [ 14.2526256, 1.3580476 ], [ 14.271753, 1.361319 ], [ 14.360264, 1.366501 ], [ 14.385441, 1.376152 ], [ 14.405406, 1.37244 ], [ 14.472466, 1.393132 ], [ 14.498557, 1.353994 ], [ 14.519048, 1.276273 ], [ 14.515166, 1.241022 ], [ 14.578007, 1.204606 ], [ 14.642932, 1.195063 ], [ 14.764285, 1.166035 ], [ 14.804033, 1.14684 ], [ 14.821862, 1.112892 ], [ 14.863408, 1.102076 ], [ 14.965919, 1.041422 ], [ 15.052866, 1.053358 ], [ 15.100486, 1.003753 ], [ 15.123638, 0.882257 ], [ 15.085694, 0.802192 ], [ 15.060569, 0.795904 ], [ 15.013791, 0.684039 ], [ 15.05448, 0.617737 ], [ 15.074393, 0.610662 ], [ 15.12032, 0.559405 ], [ 15.146905, 0.552213 ], [ 15.176385, 0.51638 ], [ 15.202996, 0.51087 ] ] ] ] } },
{ "type": "Feature", "properties": { "POLYGON_ID": "COG_GAUL2008_ADM1_974", "ADM0_ISO3": "COG", "ADM0_NAME": "Congo", "ADM0_CODE": 59, "ADM1_NAME": "Lekoumou", "ADM1_CODE": 974, "GEOSET": "GAUL", "GEOSET_YEAR": 2008.0, "GEOSET_VERSION": "GAUL_v1", "GEOSET_UNIT": "ADM1", "CENTROID_LONG": 13.511514682884743, "CENTROID_LAT": -3.1059412944585811 }, "geometry": { "type": "MultiPolygon", "coordinates": [ [ [ [ 13.8719, -2.43617 ], [ 13.8800038, -2.4445248 ], [ 13.92258, -2.46497 ], [ 13.998, -2.44652 ], [ 14.0248881, -2.4716705 ], [ 14.064524, -2.485331 ], [ 14.118881, -2.526596 ], [ 14.155405, -2.535632 ], [ 14.12456, -2.590527 ], [ 14.190787, -2.61856 ], [ 14.151949, -2.651478 ], [ 14.201256, -2.696014 ], [ 14.298043, -2.687625 ], [ 14.305517, -2.743189 ], [ 14.358551, -2.8701 ], [ 14.265207, -2.979337 ], [ 14.254692, -3.012749 ], [ 14.212989, -3.01538 ], [ 14.162151, -3.069926 ], [ 14.154657, -3.123548 ], [ 14.116889, -3.19512 ], [ 14.100986, -3.253635 ], [ 14.082608, -3.256674 ], [ 14.017768, -3.354649 ], [ 13.994469, -3.352563 ], [ 13.931554, -3.433774 ], [ 13.920858, -3.478942 ], [ 13.873119, -3.548659 ], [ 13.837701, -3.609061 ], [ 13.795882, -3.620085 ], [ 13.788521, -3.665295 ], [ 13.746443, -3.693106 ], [ 13.72555, -3.751514 ], [ 13.663954, -3.748759 ], [ 13.635071, -3.785197 ], [ 13.603608, -3.772893 ], [ 13.617509, -3.843662 ], [ 13.603692, -3.875326 ], [ 13.525681, -3.964641 ], [ 13.522952, -4.03344 ], [ 13.45523, -4.062098 ], [ 13.381284, -4.037683 ], [ 13.375867, -3.956987 ], [ 13.357884, -3.934843 ], [ 13.249551, -3.937988 ], [ 13.214213, -3.96088 ], [ 13.13591, -3.961192 ], [ 13.112775, -3.949033 ], [ 13.064114, -3.971692 ], [ 13.034395, -3.954381 ], [ 13.006756, -3.910239 ], [ 12.981826, -3.906445 ], [ 12.935841, -3.863662 ], [ 12.91583, -3.864992 ], [ 12.912389, -3.764179 ], [ 12.865543, -3.669326 ], [ 12.827678, -3.640118 ], [ 12.824891, -3.604806 ], [ 12.796941, -3.580809 ], [ 12.758428, -3.59357 ], [ 12.735838, -3.546158 ], [ 12.691475, -3.554899 ], [ 12.701024, -3.476115 ], [ 12.681395, -3.452255 ], [ 12.682718, -3.366609 ], [ 12.708201, -3.335138 ], [ 12.75688, -3.312471 ], [ 12.793377, -3.323187 ], [ 12.83534, -3.303762 ], [ 12.873347, -3.324584 ], [ 12.917028, -3.301829 ], [ 12.941941, -3.307304 ], [ 12.951153, -3.250352 ], [ 12.984163, -3.271086 ], [ 13.049813, -3.228558 ], [ 13.109032, -3.170799 ], [ 13.112125, -3.078464 ], [ 13.139871, -3.008397 ], [ 13.130212, -2.986391 ], [ 13.069294, -2.938293 ], [ 13.016292, -2.91721 ], [ 13.005408, -2.866626 ], [ 13.057626, -2.830582 ], [ 13.063221, -2.792045 ], [ 13.047675, -2.719542 ], [ 13.049232, -2.618781 ], [ 13.041394, -2.586728 ], [ 13.055423, -2.541619 ], [ 13.048389, -2.457506 ], [ 13.058043, -2.372005 ], [ 13.002907, -2.381121 ], [ 13.013967, -2.312442 ], [ 13.017507, -2.299066 ], [ 13.027399, -2.305958 ], [ 13.0284207, -2.3052121 ], [ 13.02692, -2.31425 ], [ 13.04092, -2.33377 ], [ 13.12173, -2.35381 ], [ 13.1594909, -2.3755969 ], [ 13.16641, -2.37877 ], [ 13.18903, -2.36927 ], [ 13.19973, -2.3513 ], [ 13.22327, -2.34204 ], [ 13.26318, -2.37919 ], [ 13.31627, -2.38594 ], [ 13.3323106, -2.3925828 ], [ 13.33644, -2.39693 ], [ 13.3624245, -2.411968 ], [ 13.37403, -2.42075 ], [ 13.3999, -2.42619 ], [ 13.42917, -2.41577 ], [ 13.4964785, -2.4326693 ], [ 13.5031, -2.43117 ], [ 13.5207126, -2.4074101 ], [ 13.53021, -2.39305 ], [ 13.69144, -2.19525 ], [ 13.75359, -2.11385 ], [ 13.7581025, -2.1133859 ], [ 13.77098, -2.11817 ], [ 13.77212, -2.119 ], [ 13.81388, -2.15344 ], [ 13.88038, -2.26062 ], [ 13.8828413, -2.2776434 ], [ 13.88673, -2.30454 ], [ 13.9188992, -2.3437547 ], [ 13.91644, -2.35871 ], [ 13.88318, -2.39357 ], [ 13.8719, -2.43617 ] ] ] ] } },
{ "type": "Feature", "properties": { "POLYGON_ID": "COG_GAUL2008_ADM1_975", "ADM0_ISO3": "COG", "ADM0_NAME": "Congo", "ADM0_CODE": 59, "ADM1_NAME": "Likouala", "ADM1_CODE": 975, "GEOSET": "GAUL", "GEOSET_YEAR": 2008.0, "GEOSET_VERSION": "GAUL_v1", "GEOSET_UNIT": "ADM1", "CENTROID_LONG": 17.449299607201443, "CENTROID_LAT": 2.0848379572360396 }, "geometry": { "type": "MultiPolygon", "coordinates": [ [ [ [ 17.69475, 3.63914 ], [ 17.70092, 3.63428 ], [ 17.70505, 3.6345 ], [ 17.7203724, 3.6450716 ], [ 17.72066, 3.64527 ], [ 17.7217731, 3.6458045 ], [ 17.768339, 3.6376072 ], [ 17.7872979, 3.6349303 ], [ 17.79823, 3.62914 ], [ 17.8074471, 3.6291155 ], [ 17.8108719, 3.6286624 ], [ 17.8166, 3.62678 ], [ 17.82897, 3.62674 ], [ 17.8321565, 3.6242054 ], [ 17.8351807, 3.6183673 ], [ 17.84013, 3.6053 ], [ 17.8448329, 3.5751369 ], [ 17.84549, 3.56318 ], [ 17.8463124, 3.5620694 ], [ 17.84823, 3.55948 ], [ 17.85699, 3.53925 ], [ 17.85914, 3.53298 ], [ 17.8667, 3.53319 ], [ 17.88142, 3.54994 ], [ 17.8843431, 3.5522563 ], [ 17.89038, 3.55704 ], [ 17.9023, 3.5593 ], [ 17.9110319, 3.566604 ], [ 17.9193, 3.57352 ], [ 17.92989, 3.58982 ], [ 17.9326123, 3.5988192 ], [ 17.93267, 3.59901 ], [ 17.99574, 3.55116 ], [ 17.9974856, 3.5527655 ], [ 17.99873, 3.55391 ], [ 18.0, 3.57887 ], [ 18.0029744, 3.5783863 ], [ 18.0392634, 3.5701355 ], [ 18.0488099, 3.56825 ], [ 18.0545457, 3.5711926 ], [ 18.12352, 3.56607 ], [ 18.161782, 3.5301342 ], [ 18.16345, 3.52747 ], [ 18.1647637, 3.5240263 ], [ 18.16625, 3.52013 ], [ 18.16983, 3.50082 ], [ 18.17611, 3.4882 ], [ 18.1805, 3.48409 ], [ 18.1852688, 3.4824499 ], [ 18.18899, 3.48117 ], [ 18.2006801, 3.4829188 ], [ 18.21486, 3.48504 ], [ 18.22467, 3.48949 ], [ 18.2286134, 3.4901845 ], [ 18.2315398, 3.4907 ], [ 18.2473939, 3.5100497 ], [ 18.24992, 3.51409 ], [ 18.2554592, 3.533976 ], [ 18.25975, 3.54938 ], [ 18.2608309, 3.5550454 ], [ 18.26261, 3.56437 ], [ 18.26473, 3.58809 ], [ 18.2648261, 3.5882034 ], [ 18.26768, 3.59157 ], [ 18.2723096, 3.5926887 ], [ 18.2745476, 3.5932294 ], [ 18.30873, 3.58704 ], [ 18.313027, 3.588646 ], [ 18.32562, 3.59684 ], [ 18.3333594, 3.6035695 ], [ 18.35951, 3.59916 ], [ 18.37328, 3.59627 ], [ 18.3761305, 3.5950824 ], [ 18.39121, 3.5888 ], [ 18.4113933, 3.5805579 ], [ 18.4123151, 3.5833959 ], [ 18.4133423, 3.5885119 ], [ 18.41293, 3.59472 ], [ 18.4135233, 3.5997388 ], [ 18.41402, 3.60394 ], [ 18.4144483, 3.6043239 ], [ 18.4197099, 3.6090399 ], [ 18.44863, 3.6012 ], [ 18.4528626, 3.6064442 ], [ 18.4612894, 3.6261498 ], [ 18.4679, 3.63172 ], [ 18.4753481, 3.6467362 ], [ 18.4817181, 3.653228 ], [ 18.494309, 3.6479707 ], [ 18.50013, 3.64162 ], [ 18.514, 3.62469 ], [ 18.53564, 3.61011 ], [ 18.54755, 3.57843 ], [ 18.55132, 3.56349 ], [ 18.5540978, 3.5577394 ], [ 18.58797, 3.49884 ], [ 18.590819, 3.4881424 ], [ 18.5910299, 3.48735 ], [ 18.5996, 3.47383 ], [ 18.60373, 3.47271 ], [ 18.6250832, 3.471647 ], [ 18.6308685, 3.4425848 ], [ 18.6344214, 3.4364196 ], [ 18.6360933, 3.4275375 ], [ 18.6350114, 3.4050664 ], [ 18.6331674, 3.3937855 ], [ 18.6323204, 3.3928926 ], [ 18.6293011, 3.3897102 ], [ 18.6396462, 3.3351636 ], [ 18.6438181, 3.3177416 ], [ 18.6434934, 3.3014227 ], [ 18.6397168, 3.2321035 ], [ 18.6389147, 3.2116502 ], [ 18.5916102, 3.1033921 ], [ 18.5867923, 3.0993823 ], [ 18.5273175, 3.0521179 ], [ 18.5232731, 3.0477886 ], [ 18.5235139, 3.0342693 ], [ 18.5239699, 3.0342172 ], [ 18.4503344, 2.8862246 ], [ 18.4466433, 2.8363031 ], [ 18.4457612, 2.8344431 ], [ 18.4189521, 2.7521844 ], [ 18.4131004, 2.7466461 ], [ 18.4089362, 2.7383177 ], [ 18.4026508, 2.7257471 ], [ 18.3972417, 2.720338 ], [ 18.3819298, 2.6980382 ], [ 18.3717429, 2.691247 ], [ 18.3424555, 2.6509238 ], [ 18.3237795, 2.5970181 ], [ 18.3228164, 2.5916796 ], [ 18.3149793, 2.5874998 ], [ 18.310197, 2.5825866 ], [ 18.3017079, 2.5660329 ], [ 18.2921993, 2.5585546 ], [ 18.2941113, 2.5520362 ], [ 18.2707227, 2.53717 ], [ 18.2439821, 2.4701062 ], [ 18.2288402, 2.4523536 ], [ 18.2193638, 2.4412434 ], [ 18.2189393, 2.4319054 ], [ 18.2115289, 2.4199938 ], [ 18.2023856, 2.4094093 ], [ 18.2001389, 2.3873913 ], [ 18.1871815, 2.3530123 ], [ 18.1868353, 2.3493025 ], [ 18.1774635, 2.3345167 ], [ 18.1729298, 2.3307395 ], [ 18.1388002, 2.3005557 ], [ 18.1266787, 2.2985703 ], [ 18.0945742, 2.2718861 ], [ 18.0918818, 2.2446507 ], [ 18.0936172, 2.2281401 ], [ 18.0941497, 2.2230738 ], [ 18.0927167, 2.2185956 ], [ 18.0873585, 2.2018511 ], [ 18.0780205, 2.1016799 ], [ 18.0813278, 2.0763088 ], [ 18.0765256, 2.0619628 ], [ 18.0803873, 2.0252106 ], [ 18.0771429, 2.0116519 ], [ 18.0767471, 2.0099977 ], [ 18.07673, 1.9811136 ], [ 18.0890762, 1.9752754 ], [ 18.091603, 1.9306248 ], [ 18.0739086, 1.8978308 ], [ 18.0734012, 1.8975195 ], [ 18.0614737, 1.8902027 ], [ 18.0612802, 1.888614 ], [ 18.0595928, 1.860108 ], [ 18.0529777, 1.8283313 ], [ 18.0579208, 1.804203 ], [ 18.0582826, 1.8038281 ], [ 18.0641675, 1.784304 ], [ 18.0612647, 1.7825725 ], [ 18.0653624, 1.7703019 ], [ 18.0703803, 1.7693321 ], [ 18.0734906, 1.7464171 ], [ 18.0722907, 1.7443288 ], [ 18.0695314, 1.7145775 ], [ 18.0734906, 1.6986628 ], [ 18.0735951, 1.6930201 ], [ 18.0688929, 1.6761963 ], [ 18.0794469, 1.6583276 ], [ 18.0790829, 1.6550517 ], [ 18.0789244, 1.6380555 ], [ 18.0760918, 1.6340279 ], [ 18.0722367, 1.6285465 ], [ 18.0708047, 1.6033705 ], [ 18.0742648, 1.5961359 ], [ 18.0754737, 1.593608 ], [ 18.0724355, 1.5866378 ], [ 18.0678336, 1.58045 ], [ 18.0660715, 1.5730595 ], [ 18.0680569, 1.5679392 ], [ 18.0719285, 1.5643878 ], [ 18.072927, 1.5634718 ], [ 18.0547065, 1.4971586 ], [ 18.0521288, 1.4883434 ], [ 18.0457619, 1.4535381 ], [ 18.0112185, 1.4206506 ], [ 18.0020159, 1.4146446 ], [ 18.0009709, 1.4109873 ], [ 18.003741, 1.403028 ], [ 18.0009907, 1.394119 ], [ 17.9994283, 1.3914296 ], [ 17.9909394, 1.3768173 ], [ 17.9866551, 1.3722195 ], [ 17.9791314, 1.3580081 ], [ 17.9749516, 1.3542463 ], [ 17.9735931, 1.3496485 ], [ 17.9713987, 1.3319888 ], [ 17.9575009, 1.3244651 ], [ 17.9472885, 1.2973389 ], [ 17.9525896, 1.2804726 ], [ 17.9438929, 1.2277284 ], [ 17.9350344, 1.2187159 ], [ 17.9184196, 1.1443153 ], [ 17.9169567, 1.1266556 ], [ 17.8984763, 1.1114279 ], [ 17.8817581, 1.0950813 ], [ 17.8794429, 1.0918586 ], [ 17.8799654, 1.0809911 ], [ 17.873009, 1.0698314 ], [ 17.8611243, 1.0587956 ], [ 17.861614, 1.0460625 ], [ 17.8619732, 1.0367239 ], [ 17.8599916, 1.0342641 ], [ 17.8509432, 1.0149679 ], [ 17.8534236, 1.0024106 ], [ 17.8530821, 0.9977854 ], [ 17.8526352, 0.9917318 ], [ 17.8420336, 0.9706441 ], [ 17.840326, 0.9327326 ], [ 17.8422426, 0.9224717 ], [ 17.8460044, 0.9141121 ], [ 17.8462684, 0.8941073 ], [ 17.8555135, 0.8792107 ], [ 17.8592177, 0.8768934 ], [ 17.8756516, 0.8510577 ], [ 17.873009, 0.835957 ], [ 17.8719192, 0.8014662 ], [ 17.8713967, 0.7812986 ], [ 17.8666945, 0.7005237 ], [ 17.8762035, 0.6927911 ], [ 17.877771, 0.6827595 ], [ 17.8691889, 0.6619308 ], [ 17.8691889, 0.6585351 ], [ 17.8735911, 0.6510975 ], [ 17.8741819, 0.6493533 ], [ 17.8758439, 0.5969496 ], [ 17.8720237, 0.5805631 ], [ 17.8911464, 0.5519314 ], [ 17.9070603, 0.5465387 ], [ 17.9235191, 0.5409613 ], [ 17.9471873, 0.506423 ], [ 17.9496637, 0.494041 ], [ 17.9551201, 0.4897972 ], [ 17.958528, 0.4747489 ], [ 17.957051, 0.4671062 ], [ 17.949629, 0.4104867 ], [ 17.9601603, 0.3945349 ], [ 17.956394, 0.3746472 ], [ 17.9540534, 0.3729753 ], [ 17.9427038, 0.3570089 ], [ 17.9373175, 0.3446975 ], [ 17.9278916, 0.3331555 ], [ 17.9215435, 0.3300777 ], [ 17.9154545, 0.3227917 ], [ 17.9196198, 0.314496 ], [ 17.9184174, 0.3111941 ], [ 17.8831959, 0.2790729 ], [ 17.8776122, 0.2762474 ], [ 17.8479662, 0.2612459 ], [ 17.8386282, 0.2544546 ], [ 17.7770823, 0.148341 ], [ 17.7698666, 0.1008021 ], [ 17.7677443, 0.083824 ], [ 17.747795, -0.0481813 ], [ 17.7485582, -0.0508526 ], [ 17.7257234, -0.0952958 ], [ 17.7229066, -0.1003033 ], [ 17.7219033, -0.102087 ], [ 17.7015295, -0.1203386 ], [ 17.6736616, -0.1776185 ], [ 17.6726666, -0.1912225 ], [ 17.6726666, -0.2621063 ], [ 17.6690792, -0.2826834 ], [ 17.6818669, -0.3142765 ], [ 17.6958049, -0.3258081 ], [ 17.7187256, -0.3661796 ], [ 17.7051857, -0.4632157 ], [ 17.7079755, -0.5453609 ], [ 17.7074423, -0.5512253 ], [ 17.7044335, -0.5798096 ], [ 17.661557, -0.6557836 ], [ 17.62386, -0.6746097 ], [ 17.5875857, -0.6861866 ], [ 17.5659755, -0.7016225 ], [ 17.5612078, -0.7111579 ], [ 17.5520832, -0.729407 ], [ 17.5229766, -0.7431287 ], [ 17.519637, -0.73714 ], [ 17.508272, -0.71676 ], [ 17.496985, -0.691335 ], [ 17.483167, -0.61373 ], [ 17.46552, -0.568013 ], [ 17.559523, -0.423336 ], [ 17.546679, -0.066564 ], [ 17.546823, 0.158798 ], [ 17.554008, 0.299946 ], [ 17.551737, 0.36894 ], [ 17.507608, 0.428575 ], [ 17.407446, 0.425279 ], [ 17.391862, 0.388551 ], [ 17.419752, 0.357791 ], [ 17.410165, 0.277231 ], [ 17.398125, 0.253895 ], [ 17.314696, 0.253671 ], [ 17.190163, 0.292846 ], [ 17.090806, 0.341672 ], [ 17.001562, 0.397049 ], [ 16.978417, 0.410908 ], [ 16.860913, 0.581143 ], [ 16.699021, 0.794198 ], [ 16.648688, 0.884214 ], [ 16.65538, 0.993416 ], [ 16.674248, 1.026723 ], [ 16.729865, 1.062752 ], [ 16.750297, 1.089304 ], [ 16.734422, 1.141718 ], [ 16.76679, 1.18488 ], [ 16.744528, 1.255906 ], [ 16.738686, 1.309826 ], [ 16.720442, 1.316872 ], [ 16.675528, 1.433702 ], [ 16.689366, 1.465415 ], [ 16.661346, 1.487768 ], [ 16.704086, 1.554295 ], [ 16.681772, 1.621958 ], [ 16.684583, 1.695909 ], [ 16.700504, 1.754495 ], [ 16.734904, 1.821167 ], [ 16.712772, 1.9006 ], [ 16.71999, 1.935792 ], [ 16.698428, 2.052214 ], [ 16.715784, 2.095639 ], [ 16.749665, 2.128684 ], [ 16.726676, 2.152631 ], [ 16.719789, 2.246933 ], [ 16.735399, 2.285342 ], [ 16.722496, 2.314159 ], [ 16.7349, 2.361033 ], [ 16.695671, 2.413855 ], [ 16.669995, 2.479895 ], [ 16.612002, 2.506135 ], [ 16.555081, 2.493674 ], [ 16.558988, 2.530606 ], [ 16.531306, 2.574817 ], [ 16.475033, 2.604391 ], [ 16.502346, 2.644278 ], [ 16.471587, 2.705361 ], [ 16.4485746, 2.7083645 ], [ 16.4527581, 2.7159688 ], [ 16.50038, 2.80345 ], [ 16.52013, 2.8423 ], [ 16.5076624, 2.896317 ], [ 16.50168, 2.89917 ], [ 16.49025, 2.90931 ], [ 16.49117, 2.95683 ], [ 16.4933798, 3.0043352 ], [ 16.5383513, 3.058079 ], [ 16.54357, 3.0645 ], [ 16.5441544, 3.0652169 ], [ 16.544448, 3.0675307 ], [ 16.54431, 3.07029 ], [ 16.51234, 3.12051 ], [ 16.50577, 3.15987 ], [ 16.5468898, 3.2368897 ], [ 16.5542276, 3.2449274 ], [ 16.5568348, 3.250291 ], [ 16.5583588, 3.2534275 ], [ 16.55655, 3.26633 ], [ 16.55938, 3.31395 ], [ 16.56019, 3.3148851 ], [ 16.57292, 3.32958 ], [ 16.5746422, 3.3350204 ], [ 16.5801317, 3.370525 ], [ 16.58082, 3.39699 ], [ 16.58214, 3.40898 ], [ 16.58292, 3.41609 ], [ 16.5843747, 3.4231692 ], [ 16.59332, 3.4667 ], [ 16.59654, 3.47728 ], [ 16.60481, 3.49015 ], [ 16.6080965, 3.4942266 ], [ 16.63481, 3.51823 ], [ 16.64749, 3.52919 ], [ 16.7398373, 3.5541881 ], [ 16.74513, 3.55616 ], [ 16.7492171, 3.5565557 ], [ 16.7634655, 3.5549725 ], [ 16.77444, 3.54967 ], [ 16.79505, 3.54617 ], [ 16.80261, 3.54339 ], [ 16.8036107, 3.5421764 ], [ 16.82066, 3.5215 ], [ 16.86073, 3.51152 ], [ 16.86197, 3.51305 ], [ 16.8733582, 3.5271377 ], [ 16.874041, 3.5370265 ], [ 16.86952, 3.54901 ], [ 16.8697499, 3.553378 ], [ 16.87365, 3.55751 ], [ 16.87847, 3.55957 ], [ 16.932749, 3.5520899 ], [ 16.94452, 3.55736 ], [ 16.96071, 3.55825 ], [ 16.97602, 3.54049 ], [ 16.9798331, 3.539565 ], [ 17.0018262, 3.5467384 ], [ 17.00444, 3.54664 ], [ 17.00924, 3.53904 ], [ 17.0107234, 3.5297451 ], [ 17.01082, 3.52914 ], [ 17.02957, 3.51368 ], [ 17.04036, 3.51662 ], [ 17.041178, 3.5175484 ], [ 17.05252, 3.53042 ], [ 17.05806, 3.54813 ], [ 17.07937, 3.55291 ], [ 17.1547483, 3.5741334 ], [ 17.15709, 3.5751 ], [ 17.1902432, 3.5695334 ], [ 17.19924, 3.57218 ], [ 17.223526, 3.5751095 ], [ 17.23934, 3.57921 ], [ 17.24829, 3.58333 ], [ 17.2487893, 3.585607 ], [ 17.2494499, 3.5886206 ], [ 17.24824, 3.599983 ], [ 17.24766, 3.60543 ], [ 17.25248, 3.61071 ], [ 17.25799, 3.61461 ], [ 17.2922185, 3.6276375 ], [ 17.36589, 3.61018 ], [ 17.3672227, 3.6127508 ], [ 17.36913, 3.61643 ], [ 17.3846524, 3.6464466 ], [ 17.39421, 3.66165 ], [ 17.40523, 3.66945 ], [ 17.4273577, 3.6762157 ], [ 17.44101, 3.68039 ], [ 17.45112, 3.69371 ], [ 17.4555042, 3.6959418 ], [ 17.45719, 3.6968 ], [ 17.46191, 3.6992 ], [ 17.47406, 3.70308 ], [ 17.54367, 3.68585 ], [ 17.60632, 3.64125 ], [ 17.69475, 3.63914 ] ] ] ] } },
{ "type": "Feature", "properties": { "POLYGON_ID": "COG_GAUL2008_ADM1_976", "ADM0_ISO3": "COG", "ADM0_NAME": "Congo", "ADM0_CODE": 59, "ADM1_NAME": "Niari", "ADM1_CODE": 976, "GEOSET": "GAUL", "GEOSET_YEAR": 2008.0, "GEOSET_VERSION": "GAUL_v1", "GEOSET_UNIT": "ADM1", "CENTROID_LONG": 12.511616955830979, "CENTROID_LAT": -3.1417124095611433 }, "geometry": { "type": "MultiPolygon", "coordinates": [ [ [ [ 12.6883981, -1.8735695 ], [ 12.72205, -1.86439 ], [ 12.7527784, -1.8747503 ], [ 12.7934625, -1.9028227 ], [ 12.82898, -1.92602 ], [ 12.84734, -1.95312 ], [ 12.85503, -1.97762 ], [ 12.8748536, -2.0476687 ], [ 12.87573, -2.05839 ], [ 12.879178, -2.0705795 ], [ 12.88521, -2.09949 ], [ 12.93065, -2.15509 ], [ 13.00716, -2.20228 ], [ 13.02554, -2.22984 ], [ 13.03181, -2.2848 ], [ 13.0284207, -2.3052121 ], [ 13.027399, -2.305958 ], [ 13.017507, -2.299066 ], [ 13.013967, -2.312442 ], [ 13.002907, -2.381121 ], [ 13.058043, -2.372005 ], [ 13.048389, -2.457506 ], [ 13.055423, -2.541619 ], [ 13.041394, -2.586728 ], [ 13.049232, -2.618781 ], [ 13.047675, -2.719542 ], [ 13.063221, -2.792045 ], [ 13.057626, -2.830582 ], [ 13.005408, -2.866626 ], [ 13.016292, -2.91721 ], [ 13.069294, -2.938293 ], [ 13.130212, -2.986391 ], [ 13.139871, -3.008397 ], [ 13.112125, -3.078464 ], [ 13.109032, -3.170799 ], [ 13.049813, -3.228558 ], [ 12.984163, -3.271086 ], [ 12.951153, -3.250352 ], [ 12.941941, -3.307304 ], [ 12.917028, -3.301829 ], [ 12.873347, -3.324584 ], [ 12.83534, -3.303762 ], [ 12.793377, -3.323187 ], [ 12.75688, -3.312471 ], [ 12.708201, -3.335138 ], [ 12.682718, -3.366609 ], [ 12.681395, -3.452255 ], [ 12.701024, -3.476115 ], [ 12.691475, -3.554899 ], [ 12.676429, -3.557996 ], [ 12.633792, -3.621084 ], [ 12.633299, -3.652991 ], [ 12.654283, -3.697032 ], [ 12.635282, -3.740375 ], [ 12.656137, -3.792813 ], [ 12.618991, -3.824081 ], [ 12.653174, -3.876751 ], [ 12.702481, -3.921287 ], [ 12.765927, -4.021503 ], [ 12.792272, -4.042121 ], [ 12.79834, -4.080862 ], [ 12.83627, -4.106722 ], [ 12.828802, -4.158665 ], [ 12.844736, -4.205977 ], [ 12.922237, -4.259405 ], [ 12.959778, -4.310454 ], [ 13.044253, -4.343846 ], [ 13.189776, -4.416939 ], [ 13.294556, -4.430527 ], [ 13.356776, -4.502165 ], [ 13.369508, -4.541023 ], [ 13.41512, -4.609011 ], [ 13.427774, -4.652907 ], [ 13.454431, -4.653373 ], [ 13.497074, -4.697792 ], [ 13.594645, -4.74653 ], [ 13.60748, -4.778671 ], [ 13.6231282, -4.7757984 ], [ 13.6224751, -4.7828191 ], [ 13.6206762, -4.7851034 ], [ 13.5775494, -4.803152 ], [ 13.5606418, -4.7892242 ], [ 13.5553854, -4.7811219 ], [ 13.5558266, -4.7765996 ], [ 13.5512057, -4.7761055 ], [ 13.549207, -4.7734405 ], [ 13.5096763, -4.7781042 ], [ 13.5205584, -4.7863213 ], [ 13.5138959, -4.7938721 ], [ 13.5150063, -4.7996462 ], [ 13.511453, -4.8120828 ], [ 13.5103426, -4.8160803 ], [ 13.5110088, -4.8269623 ], [ 13.4903552, -4.8276286 ], [ 13.4398701, -4.8628387 ], [ 13.3890728, -4.8514595 ], [ 13.3861712, -4.8486142 ], [ 13.3842185, -4.8466994 ], [ 13.3816035, -4.8388125 ], [ 13.3712965, -4.8156664 ], [ 13.3793895, -4.8177615 ], [ 13.3571102, -4.793932 ], [ 13.3509059, -4.7887974 ], [ 13.2825199, -4.7675803 ], [ 13.2770446, -4.7630712 ], [ 13.2654576, -4.743225 ], [ 13.2600706, -4.7425516 ], [ 13.2469438, -4.7047732 ], [ 13.2055894, -4.6783012 ], [ 13.1853517, -4.6410282 ], [ 13.1799493, -4.6356259 ], [ 13.1685342, -4.6264239 ], [ 13.1599147, -4.6257251 ], [ 13.1480338, -4.6161737 ], [ 13.1482667, -4.6125628 ], [ 13.1182149, -4.5821615 ], [ 13.0980091, -4.6438815 ], [ 13.0999746, -4.6560218 ], [ 13.1017585, -4.6850525 ], [ 13.0580211, -4.6488712 ], [ 13.0535419, -4.6447759 ], [ 13.0459487, -4.6425577 ], [ 12.9838806, -4.585054 ], [ 12.9895541, -4.5718725 ], [ 12.9923696, -4.5685025 ], [ 12.9388758, -4.5023391 ], [ 12.8617066, -4.4357492 ], [ 12.8523217, -4.4296064 ], [ 12.8503594, -4.4256391 ], [ 12.8341681, -4.4445713 ], [ 12.7897291, -4.4091616 ], [ 12.7723629, -4.3915728 ], [ 12.7663635, -4.3888413 ], [ 12.7622045, -4.3895121 ], [ 12.717759, -4.334784 ], [ 12.592774, -4.226774 ], [ 12.502827, -4.116016 ], [ 12.495015, -4.082284 ], [ 12.440762, -4.034302 ], [ 12.39419, -4.028449 ], [ 12.356468, -3.989155 ], [ 12.338012, -3.997232 ], [ 12.270119, -3.969169 ], [ 12.236383, -3.995457 ], [ 12.223625, -3.958279 ], [ 12.1909, -3.919072 ], [ 12.135843, -3.92315 ], [ 12.02838, -3.867519 ], [ 11.934634, -3.786932 ], [ 11.884834, -3.774303 ], [ 11.8587946, -3.7452147 ], [ 11.86278, -3.74742 ], [ 11.88431, -3.74739 ], [ 11.91404, -3.70295 ], [ 11.9148135, -3.7011869 ], [ 11.9154, -3.69985 ], [ 11.94783, -3.62628 ], [ 11.87789, -3.57689 ], [ 11.89818, -3.51082 ], [ 11.95884, -3.47831 ], [ 12.0135431, -3.405223 ], [ 12.02787, -3.38365 ], [ 12.04334, -3.32358 ], [ 12.00176, -3.24194 ], [ 11.9598701, -3.2118504 ], [ 11.94354, -3.20427 ], [ 11.97142, -3.16628 ], [ 11.9911042, -3.159656 ], [ 12.0135, -3.13516 ], [ 12.01823, -3.08799 ], [ 12.0678201, -2.9748351 ], [ 12.06751, -2.97349 ], [ 11.79654, -2.86137 ], [ 11.6502042, -2.8165738 ], [ 11.64244, -2.81089 ], [ 11.63007, -2.80584 ], [ 11.62274, -2.79894 ], [ 11.6239189, -2.7615985 ], [ 11.64139, -2.69816 ], [ 11.70157, -2.68707 ], [ 11.70268, -2.66291 ], [ 11.66186, -2.59117 ], [ 11.63616, -2.5208 ], [ 11.64161, -2.48007 ], [ 11.65301, -2.44464 ], [ 11.65092, -2.42141 ], [ 11.60967, -2.3568 ], [ 11.62221, -2.32045 ], [ 11.69776, -2.37283 ], [ 11.72962, -2.42686 ], [ 11.77519, -2.45649 ], [ 11.82085, -2.38744 ], [ 11.85812, -2.37153 ], [ 11.91486, -2.37469 ], [ 11.9967, -2.33986 ], [ 12.05762, -2.38601 ], [ 12.07759, -2.42532 ], [ 12.09225, -2.43933 ], [ 12.1333681, -2.4304122 ], [ 12.14806, -2.42799 ], [ 12.17664, -2.42128 ], [ 12.46833, -2.42126 ], [ 12.50605, -2.41314 ], [ 12.5035161, -2.3749487 ], [ 12.50618, -2.36806 ], [ 12.52666, -2.3188 ], [ 12.49705, -2.26802 ], [ 12.53216, -2.2139 ], [ 12.51076, -2.15873 ], [ 12.5229864, -2.1041986 ], [ 12.52366, -2.09523 ], [ 12.47524, -2.01896 ], [ 12.46731, -1.94354 ], [ 12.44407, -1.87459 ], [ 12.4623464, -1.8700604 ], [ 12.5212277, -1.9013427 ], [ 12.5351295, -1.90087 ], [ 12.55631, -1.86611 ], [ 12.56178, -1.8592 ], [ 12.57184, -1.85826 ], [ 12.62607, -1.87908 ], [ 12.6883981, -1.8735695 ] ] ] ] } },
{ "type": "Feature", "properties": { "POLYGON_ID": "COG_GAUL2008_ADM1_977", "ADM0_ISO3": "COG", "ADM0_NAME": "Congo", "ADM0_CODE": 59, "ADM1_NAME": "Plateaux", "ADM1_CODE": 977, "GEOSET": "GAUL", "GEOSET_YEAR": 2008.0, "GEOSET_VERSION": "GAUL_v1", "GEOSET_UNIT": "ADM1", "CENTROID_LONG": 15.385474512410244, "CENTROID_LAT": -2.107361895159944 }, "geometry": { "type": "MultiPolygon", "coordinates": [ [ [ [ 16.646991, -1.6066163 ], [ 16.6372799, -1.6284657 ], [ 16.5728466, -1.7335982 ], [ 16.5706971, -1.7742685 ], [ 16.5607118, -1.7996158 ], [ 16.5591756, -1.8372527 ], [ 16.5315024, -1.861773 ], [ 16.5164349, -1.8699908 ], [ 16.4955647, -1.8853807 ], [ 16.4100685, -1.9553834 ], [ 16.3419052, -2.0489808 ], [ 16.3042627, -2.0795017 ], [ 16.220839, -2.1263004 ], [ 16.2147348, -2.1527518 ], [ 16.1882833, -2.1863248 ], [ 16.1755112, -2.265577 ], [ 16.1811618, -2.4050579 ], [ 16.220839, -2.5688534 ], [ 16.2321362, -2.5937145 ], [ 16.2337319, -2.597226 ], [ 16.2336458, -2.5988172 ], [ 16.2327889, -2.6146711 ], [ 16.2290169, -2.6363598 ], [ 16.2285455, -2.6552194 ], [ 16.2035564, -2.7080265 ], [ 16.1936551, -2.7584761 ], [ 16.1988415, -2.7933665 ], [ 16.1889401, -2.8183556 ], [ 16.1762099, -2.8678622 ], [ 16.1758808, -2.9420257 ], [ 16.1768367, -2.9492909 ], [ 16.125331, -2.940388 ], [ 15.986812, -2.95644 ], [ 15.937859, -2.890096 ], [ 15.8817, -2.85889 ], [ 15.767063, -2.849345 ], [ 15.671554, -2.882952 ], [ 15.60908, -2.935615 ], [ 15.528513, -2.972843 ], [ 15.479471, -3.019021 ], [ 15.380682, -3.049212 ], [ 15.340904, -3.035079 ], [ 15.272414, -3.045641 ], [ 15.21772, -3.026208 ], [ 15.166643, -2.988361 ], [ 15.129362, -2.920518 ], [ 15.069487, -2.912753 ], [ 14.949324, -2.924093 ], [ 14.931173, -2.80451 ], [ 14.885821, -2.719728 ], [ 14.799867, -2.782059 ], [ 14.790758, -2.832294 ], [ 14.730236, -2.866513 ], [ 14.687625, -2.927921 ], [ 14.616821, -2.980438 ], [ 14.55073, -3.051515 ], [ 14.509889, -3.106235 ], [ 14.439156, -3.046207 ], [ 14.367412, -3.051673 ], [ 14.296369, -3.011797 ], [ 14.254692, -3.012749 ], [ 14.265207, -2.979337 ], [ 14.358551, -2.8701 ], [ 14.305517, -2.743189 ], [ 14.298043, -2.687625 ], [ 14.201256, -2.696014 ], [ 14.151949, -2.651478 ], [ 14.190787, -2.61856 ], [ 14.12456, -2.590527 ], [ 14.155405, -2.535632 ], [ 14.118881, -2.526596 ], [ 14.064524, -2.485331 ], [ 14.0248881, -2.4716705 ], [ 14.04448, -2.45555 ], [ 14.08302, -2.48163 ], [ 14.10289, -2.47397 ], [ 14.16602, -2.36009 ], [ 14.21364, -2.31413 ], [ 14.22023, -2.30375 ], [ 14.1788919, -2.2298296 ], [ 14.16448, -2.20897 ], [ 14.16412, -2.177 ], [ 14.21092, -2.1575 ], [ 14.25323, -2.10558 ], [ 14.2470877, -2.029324 ], [ 14.24737, -2.01866 ], [ 14.25048, -1.99726 ], [ 14.3133, -1.93078 ], [ 14.3763824, -1.8917078 ], [ 14.3820487, -1.8881969 ], [ 14.37563, -1.980106 ], [ 14.393464, -2.012334 ], [ 14.459716, -2.038688 ], [ 14.511701, -2.017758 ], [ 14.592839, -1.943584 ], [ 14.652344, -1.867353 ], [ 14.695162, -1.79251 ], [ 14.730512, -1.76961 ], [ 14.753312, -1.696097 ], [ 14.785589, -1.656346 ], [ 14.89315, -1.597752 ], [ 14.95633, -1.607254 ], [ 15.001807, -1.576132 ], [ 15.036845, -1.573385 ], [ 15.046006, -1.519791 ], [ 15.093252, -1.481981 ], [ 15.099443, -1.404818 ], [ 15.133438, -1.361737 ], [ 15.132239, -1.33148 ], [ 15.153269, -1.264655 ], [ 15.189138, -1.208169 ], [ 15.212748, -1.190103 ], [ 15.233545, -1.138393 ], [ 15.270379, -1.127278 ], [ 15.369817, -1.055103 ], [ 15.408966, -1.002033 ], [ 15.474331, -0.977978 ], [ 15.532669, -0.977317 ], [ 15.546387, -0.95236 ], [ 15.626357, -0.953756 ], [ 15.64445, -0.96919 ], [ 15.687949, -0.958192 ], [ 15.729185, -0.985788 ], [ 15.781539, -1.048855 ], [ 15.839877, -1.048194 ], [ 15.859428, -1.077092 ], [ 15.902357, -1.103039 ], [ 15.956532, -1.156059 ], [ 15.962574, -1.196479 ], [ 16.032522, -1.199381 ], [ 16.08477, -1.252077 ], [ 16.101709, -1.233902 ], [ 16.172754, -1.272085 ], [ 16.195578, -1.304389 ], [ 16.23378, -1.311773 ], [ 16.29452, -1.369926 ], [ 16.306677, -1.445703 ], [ 16.329294, -1.491437 ], [ 16.357607, -1.491931 ], [ 16.394627, -1.521405 ], [ 16.461168, -1.53434 ], [ 16.548063, -1.525767 ], [ 16.586117, -1.546613 ], [ 16.606919, -1.604159 ], [ 16.645258, -1.60651 ], [ 16.646991, -1.6066163 ] ] ] ] } },
{ "type": "Feature", "properties": { "POLYGON_ID": "COG_GAUL2008_ADM1_190431", "ADM0_ISO3": "COG", "ADM0_NAME": "Congo", "ADM0_CODE": 59, "ADM1_NAME": "Pool", "ADM1_CODE": 190431, "GEOSET": "GAUL", "GEOSET_YEAR": 2008.0, "GEOSET_VERSION": "GAUL_v1", "GEOSET_UNIT": "ADM1", "CENTROID_LONG": 15.022618042331967, "CENTROID_LAT": -3.689543733848903 }, "geometry": { "type": "MultiPolygon", "coordinates": [ [ [ [ 16.1768367, -2.9492909 ], [ 16.1780958, -2.9588601 ], [ 16.1936551, -3.0130817 ], [ 16.1898831, -3.0253404 ], [ 16.1738524, -3.0701322 ], [ 16.171495, -3.0781475 ], [ 16.171495, -3.1304831 ], [ 16.1780958, -3.1531147 ], [ 16.1804533, -3.1696169 ], [ 16.1879972, -3.19272 ], [ 16.1857877, -3.205062 ], [ 16.1803948, -3.2589908 ], [ 16.1875134, -3.2658937 ], [ 16.189123, -3.2668177 ], [ 16.2162035, -3.3090367 ], [ 16.2077906, -3.3180968 ], [ 16.196142, -3.3670641 ], [ 16.1786691, -3.3903613 ], [ 16.1227989, -3.4725488 ], [ 16.0904416, -3.5588349 ], [ 16.0485928, -3.6080179 ], [ 15.9858197, -3.7471542 ], [ 15.9674839, -3.7702358 ], [ 15.9563786, -3.7971224 ], [ 15.9245566, -3.8597576 ], [ 15.9150651, -3.9110978 ], [ 15.8941408, -3.9458279 ], [ 15.8809821, -3.9574765 ], [ 15.810659, -3.9796952 ], [ 15.7010757, -3.9913438 ], [ 15.5528794, -4.0392326 ], [ 15.5205221, -4.0715899 ], [ 15.4726173, -4.1520159 ], [ 15.4784576, -4.2281991 ], [ 15.4624947, -4.2407106 ], [ 15.4493361, -4.2577521 ], [ 15.3897987, -4.2840693 ], [ 15.3767207, -4.2803014 ], [ 15.3287513, -4.269185 ], [ 15.3094448, -4.2806767 ], [ 15.3085844, -4.2809915 ], [ 15.35307, -4.187985 ], [ 15.303884, -4.13675 ], [ 15.272188, -4.139554 ], [ 15.216398, -4.192315 ], [ 15.200631, -4.242415 ], [ 15.169823, -4.295612 ], [ 15.1857886, -4.3403872 ], [ 15.1841945, -4.3441551 ], [ 15.1754218, -4.3657658 ], [ 15.1756358, -4.3888744 ], [ 15.1705005, -4.3946515 ], [ 15.1356238, -4.4325238 ], [ 15.127707, -4.4410825 ], [ 15.12086, -4.4590558 ], [ 15.1033146, -4.4851599 ], [ 15.0331331, -4.537796 ], [ 14.9881999, -4.5900042 ], [ 14.9867021, -4.6024143 ], [ 14.9034686, -4.6811545 ], [ 14.8681639, -4.7554013 ], [ 14.8645265, -4.7684534 ], [ 14.8326452, -4.8251549 ], [ 14.7663152, -4.851045 ], [ 14.687575, -4.9128817 ], [ 14.6469211, -4.9220823 ], [ 14.5897917, -4.9023973 ], [ 14.5838006, -4.8991878 ], [ 14.5833166, -4.8944283 ], [ 14.5514914, -4.8611015 ], [ 14.4998494, -4.8524754 ], [ 14.4947899, -4.844412 ], [ 14.48131, -4.844198 ], [ 14.4427958, -4.8737256 ], [ 14.4389443, -4.8758653 ], [ 14.4151315, -4.8950123 ], [ 14.4095047, -4.8764423 ], [ 14.4085686, -4.873353 ], [ 14.4006729, -4.86404 ], [ 14.4066951, -4.7944092 ], [ 14.4097834, -4.7905488 ], [ 14.4134275, -4.773745 ], [ 14.4078898, -4.7645167 ], [ 14.4072135, -4.7033487 ], [ 14.413876, -4.6850269 ], [ 14.4193488, -4.6514765 ], [ 14.4179211, -4.644814 ], [ 14.4105447, -4.6391033 ], [ 14.3984095, -4.6388653 ], [ 14.3905573, -4.6333926 ], [ 14.3857984, -4.6195917 ], [ 14.3594502, -4.560983 ], [ 14.3523205, -4.5575357 ], [ 14.3755115, -4.5402207 ], [ 14.3834247, -4.541866 ], [ 14.38507, -4.5294087 ], [ 14.4339559, -4.5111457 ], [ 14.443389, -4.4864398 ], [ 14.4462709, -4.481462 ], [ 14.4728088, -4.4457322 ], [ 14.4806724, -4.438226 ], [ 14.403111, -4.3688999 ], [ 14.393079, -4.3555738 ], [ 14.3950255, -4.347039 ], [ 14.3972715, -4.3403011 ], [ 14.4050575, -4.3099054 ], [ 14.4088008, -4.3057129 ], [ 14.4056565, -4.2970284 ], [ 14.4067046, -4.2913386 ], [ 14.4038107, -4.2797119 ], [ 14.4015259, -4.2784502 ], [ 14.3872564, -4.2833826 ], [ 14.3856877, -4.2863879 ], [ 14.3850769, -4.2875579 ], [ 14.3792728, -4.2879479 ], [ 14.3532803, -4.3041445 ], [ 14.3571115, -4.3084574 ], [ 14.3379325, -4.3172898 ], [ 14.331, -4.3134677 ], [ 14.3237089, -4.3141469 ], [ 14.3210477, -4.3199281 ], [ 14.3193262, -4.3171756 ], [ 14.3169871, -4.3134357 ], [ 14.3081777, -4.3185746 ], [ 14.3106553, -4.3222681 ], [ 14.3115798, -4.325604 ], [ 14.3032453, -4.327384 ], [ 14.2524602, -4.3602786 ], [ 14.252545, -4.3634019 ], [ 14.2394455, -4.368816 ], [ 14.2371174, -4.3690194 ], [ 14.1894564, -4.3919868 ], [ 14.1110659, -4.4104545 ], [ 14.0988611, -4.4151116 ], [ 14.0932635, -4.4145151 ], [ 14.0721116, -4.4043292 ], [ 14.0322704, -4.4257249 ], [ 14.0162855, -4.4372099 ], [ 13.9793269, -4.4885979 ], [ 13.9739132, -4.4881725 ], [ 13.9692341, -4.494901 ], [ 13.9666046, -4.5012236 ], [ 13.9631049, -4.5035631 ], [ 13.9582132, -4.50656 ], [ 13.9534568, -4.5131145 ], [ 13.9487584, -4.514932 ], [ 13.9455102, -4.5119931 ], [ 13.9370928, -4.5159992 ], [ 13.9345279, -4.5177936 ], [ 13.9294934, -4.5141713 ], [ 13.9231774, -4.5167426 ], [ 13.9164121, -4.5160935 ], [ 13.9147894, -4.5102269 ], [ 13.9076896, -4.5042914 ], [ 13.9056845, -4.5033084 ], [ 13.910641, -4.495276 ], [ 13.910874, -4.480167 ], [ 13.927736, -4.467028 ], [ 13.946705, -4.425379 ], [ 13.963016, -4.340025 ], [ 13.933556, -4.305926 ], [ 14.047586, -4.257541 ], [ 14.094945, -4.211351 ], [ 14.155186, -4.193932 ], [ 14.172437, -4.155611 ], [ 14.159892, -4.105016 ], [ 14.22073, -4.048985 ], [ 14.264887, -3.994343 ], [ 14.327838, -4.017272 ], [ 14.376914, -3.967753 ], [ 14.367699, -3.917216 ], [ 14.298554, -3.863953 ], [ 14.29751, -3.823633 ], [ 14.239265, -3.711788 ], [ 14.285036, -3.660532 ], [ 14.315222, -3.647626 ], [ 14.289275, -3.601834 ], [ 14.298069, -3.571762 ], [ 14.263924, -3.517431 ], [ 14.159285, -3.497132 ], [ 14.123402, -3.555278 ], [ 14.033052, -3.580567 ], [ 13.966356, -3.58444 ], [ 13.951574, -3.570748 ], [ 13.891695, -3.564665 ], [ 13.873119, -3.548659 ], [ 13.920858, -3.478942 ], [ 13.931554, -3.433774 ], [ 13.994469, -3.352563 ], [ 14.017768, -3.354649 ], [ 14.082608, -3.256674 ], [ 14.100986, -3.253635 ], [ 14.116889, -3.19512 ], [ 14.154657, -3.123548 ], [ 14.162151, -3.069926 ], [ 14.212989, -3.01538 ], [ 14.254692, -3.012749 ], [ 14.296369, -3.011797 ], [ 14.367412, -3.051673 ], [ 14.439156, -3.046207 ], [ 14.509889, -3.106235 ], [ 14.55073, -3.051515 ], [ 14.616821, -2.980438 ], [ 14.687625, -2.927921 ], [ 14.730236, -2.866513 ], [ 14.790758, -2.832294 ], [ 14.799867, -2.782059 ], [ 14.885821, -2.719728 ], [ 14.931173, -2.80451 ], [ 14.949324, -2.924093 ], [ 15.069487, -2.912753 ], [ 15.129362, -2.920518 ], [ 15.166643, -2.988361 ], [ 15.21772, -3.026208 ], [ 15.272414, -3.045641 ], [ 15.340904, -3.035079 ], [ 15.380682, -3.049212 ], [ 15.479471, -3.019021 ], [ 15.528513, -2.972843 ], [ 15.60908, -2.935615 ], [ 15.671554, -2.882952 ], [ 15.767063, -2.849345 ], [ 15.8817, -2.85889 ], [ 15.937859, -2.890096 ], [ 15.986812, -2.95644 ], [ 16.125331, -2.940388 ], [ 16.1768367, -2.9492909 ] ] ] ] } },
{ "type": "Feature", "properties": { "POLYGON_ID": "COG_GAUL2008_ADM1_979", "ADM0_ISO3": "COG", "ADM0_NAME": "Congo", "ADM0_CODE": 59, "ADM1_NAME": "Sangha", "ADM1_CODE": 979, "GEOSET": "GAUL", "GEOSET_YEAR": 2008.0, "GEOSET_VERSION": "GAUL_v1", "GEOSET_UNIT": "ADM1", "CENTROID_LONG": 15.361664484787864, "CENTROID_LAT": 1.3740534021154718 }, "geometry": { "type": "MultiPolygon", "coordinates": [ [ [ [ 17.001562, 0.397049 ], [ 16.904087, 0.35166 ], [ 16.824831, 0.297544 ], [ 16.754279, 0.266822 ], [ 16.431155, 0.087464 ], [ 16.340171, 0.030189 ], [ 16.322316, 0.062456 ], [ 16.285878, 0.07991 ], [ 16.18436, 0.09682 ], [ 16.168017, 0.118969 ], [ 16.134344, 0.099375 ], [ 16.071425, 0.130747 ], [ 16.082187, 0.179332 ], [ 16.04632, 0.233777 ], [ 16.036961, 0.275986 ], [ 15.972218, 0.297298 ], [ 15.952851, 0.339682 ], [ 15.886648, 0.374475 ], [ 15.816485, 0.368973 ], [ 15.791724, 0.386224 ], [ 15.721795, 0.395854 ], [ 15.579439, 0.36134 ], [ 15.372625, 0.366634 ], [ 15.316015, 0.37435 ], [ 15.313094, 0.40131 ], [ 15.260054, 0.4241 ], [ 15.227783, 0.4953 ], [ 15.202996, 0.51087 ], [ 15.176385, 0.51638 ], [ 15.146905, 0.552213 ], [ 15.12032, 0.559405 ], [ 15.074393, 0.610662 ], [ 15.05448, 0.617737 ], [ 15.013791, 0.684039 ], [ 15.060569, 0.795904 ], [ 15.085694, 0.802192 ], [ 15.123638, 0.882257 ], [ 15.100486, 1.003753 ], [ 15.052866, 1.053358 ], [ 14.965919, 1.041422 ], [ 14.863408, 1.102076 ], [ 14.821862, 1.112892 ], [ 14.804033, 1.14684 ], [ 14.764285, 1.166035 ], [ 14.642932, 1.195063 ], [ 14.578007, 1.204606 ], [ 14.515166, 1.241022 ], [ 14.519048, 1.276273 ], [ 14.498557, 1.353994 ], [ 14.472466, 1.393132 ], [ 14.405406, 1.37244 ], [ 14.385441, 1.376152 ], [ 14.360264, 1.366501 ], [ 14.271753, 1.361319 ], [ 14.2526256, 1.3580476 ], [ 14.2516, 1.35918 ], [ 14.22534, 1.37095 ], [ 14.2180536, 1.3701739 ], [ 14.21689, 1.37005 ], [ 14.2090187, 1.3732316 ], [ 14.17534, 1.39496 ], [ 14.1703, 1.39129 ], [ 14.14222, 1.39498 ], [ 14.12963, 1.39481 ], [ 14.0938451, 1.3770907 ], [ 14.08345, 1.37881 ], [ 14.0767537, 1.378825 ], [ 14.07454, 1.37883 ], [ 14.05855, 1.38506 ], [ 14.0518889, 1.3946209 ], [ 14.0397587, 1.4013408 ], [ 14.03026, 1.4104 ], [ 14.02866, 1.41362 ], [ 14.03027, 1.42143 ], [ 14.02457, 1.43132 ], [ 14.01772, 1.43386 ], [ 14.0156136, 1.4353612 ], [ 14.00447, 1.43205 ], [ 14.0007667, 1.4232941 ], [ 13.99526, 1.41815 ], [ 13.9880545, 1.4169815 ], [ 13.9808306, 1.4169601 ], [ 13.97771, 1.41784 ], [ 13.96651, 1.42223 ], [ 13.94891, 1.41766 ], [ 13.92629, 1.41724 ], [ 13.89683, 1.43223 ], [ 13.86186, 1.42585 ], [ 13.8605545, 1.4277163 ], [ 13.8463507, 1.4317965 ], [ 13.83992, 1.42865 ], [ 13.83421, 1.42774 ], [ 13.82462, 1.43074 ], [ 13.8246147, 1.4307379 ], [ 13.81707, 1.42776 ], [ 13.81387, 1.42868 ], [ 13.8130186, 1.433879 ], [ 13.8036818, 1.4211011 ], [ 13.8083796, 1.4236367 ], [ 13.8080579, 1.4206342 ], [ 13.80769, 1.4172 ], [ 13.81043, 1.41191 ], [ 13.80722, 1.40755 ], [ 13.79968, 1.40802 ], [ 13.7984799, 1.4064494 ], [ 13.7967, 1.40412 ], [ 13.79715, 1.39883 ], [ 13.79418, 1.39562 ], [ 13.78366, 1.39104 ], [ 13.78913, 1.38 ], [ 13.7786, 1.3614 ], [ 13.7752461, 1.361183 ], [ 13.7611379, 1.3526371 ], [ 13.7591678, 1.3529229 ], [ 13.7587309, 1.3534881 ], [ 13.75095, 1.36098 ], [ 13.7425, 1.36054 ], [ 13.7422132, 1.3628285 ], [ 13.74524, 1.36627 ], [ 13.72742, 1.36837 ], [ 13.7263761, 1.36499 ], [ 13.70775, 1.35093 ], [ 13.63348, 1.34414 ], [ 13.6330961, 1.3428785 ], [ 13.63257, 1.34115 ], [ 13.6342254, 1.3302207 ], [ 13.6306822, 1.3300454 ], [ 13.62935, 1.33035 ], [ 13.6189092, 1.3299077 ], [ 13.57769, 1.29847 ], [ 13.57608, 1.29043 ], [ 13.5697833, 1.2870396 ], [ 13.55665, 1.27873 ], [ 13.5489501, 1.2814304 ], [ 13.54751, 1.28288 ], [ 13.54111, 1.28404 ], [ 13.52443, 1.27602 ], [ 13.51025, 1.26661 ], [ 13.50089, 1.27512 ], [ 13.4960995, 1.2753578 ], [ 13.49472, 1.26915 ], [ 13.48855, 1.27008 ], [ 13.48216, 1.27376 ], [ 13.4732468, 1.2802315 ], [ 13.47005, 1.28067 ], [ 13.43853, 1.29289 ], [ 13.4368405, 1.2997221 ], [ 13.43146, 1.29956 ], [ 13.42231, 1.2952 ], [ 13.3976286, 1.2823605 ], [ 13.3925825, 1.2839986 ], [ 13.38805, 1.28547 ], [ 13.37248, 1.26538 ], [ 13.35192, 1.26609 ], [ 13.3486411, 1.2613649 ], [ 13.323011, 1.2360115 ], [ 13.31466, 1.23947 ], [ 13.31412, 1.23394 ], [ 13.3047169, 1.2227312 ], [ 13.29957, 1.22983 ], [ 13.29318, 1.22754 ], [ 13.2874676, 1.2296088 ], [ 13.18169, 1.22855 ], [ 13.1749431, 1.2307764 ], [ 13.1563296, 1.2355127 ], [ 13.18285, 1.28002 ], [ 13.18491, 1.28692 ], [ 13.19291, 1.2938 ], [ 13.194322, 1.2897494 ], [ 13.2010261, 1.2877969 ], [ 13.2053, 1.28894 ], [ 13.21393, 1.29126 ], [ 13.2159784, 1.289346 ], [ 13.2297, 1.2901 ], [ 13.22902, 1.30044 ], [ 13.2313, 1.30366 ], [ 13.23999, 1.30503 ], [ 13.25736, 1.31604 ], [ 13.264, 1.33649 ], [ 13.2576, 1.34178 ], [ 13.2552124, 1.3392254 ], [ 13.2448099, 1.3489197 ], [ 13.25418, 1.3565 ], [ 13.25396, 1.35879 ], [ 13.24733, 1.36455 ], [ 13.2465869, 1.3669835 ], [ 13.25626, 1.39235 ], [ 13.2494, 1.39167 ], [ 13.242944, 1.4131108 ], [ 13.24188, 1.4158 ], [ 13.2389097, 1.4277592 ], [ 13.2341197, 1.4383303 ], [ 13.2334799, 1.4389481 ], [ 13.22887, 1.4434 ], [ 13.21791, 1.46294 ], [ 13.21631, 1.4657 ], [ 13.2202, 1.47075 ], [ 13.22065, 1.47397 ], [ 13.21838, 1.47835 ], [ 13.2080888, 1.4811051 ], [ 13.2078036, 1.4823472 ], [ 13.1948396, 1.4875508 ], [ 13.1943518, 1.4886483 ], [ 13.19392, 1.48962 ], [ 13.1950516, 1.4909813 ], [ 13.19827, 1.50042 ], [ 13.1927858, 1.4983622 ], [ 13.1953, 1.50893 ], [ 13.19827, 1.51214 ], [ 13.1960309, 1.5141214 ], [ 13.16377, 1.5255 ], [ 13.14527, 1.55517 ], [ 13.14459, 1.55999 ], [ 13.1382, 1.58161 ], [ 13.13317, 1.58322 ], [ 13.13089, 1.5869 ], [ 13.14597, 1.5924 ], [ 13.142905, 1.5952729 ], [ 13.1423573, 1.598831 ], [ 13.14552, 1.6068899 ], [ 13.14918, 1.61746 ], [ 13.1494432, 1.6184926 ], [ 13.1497, 1.6195 ], [ 13.15102, 1.62481 ], [ 13.1406967, 1.6543372 ], [ 13.14234, 1.65815 ], [ 13.1392417, 1.685498 ], [ 13.13642, 1.69195 ], [ 13.13711, 1.70183 ], [ 13.14511, 1.70849 ], [ 13.15883, 1.72572 ], [ 13.15655, 1.73285 ], [ 13.15907, 1.74181 ], [ 13.17142, 1.74571 ], [ 13.18239, 1.75697 ], [ 13.18148, 1.76203 ], [ 13.1823996, 1.7691566 ], [ 13.1813972, 1.7705264 ], [ 13.19708, 1.812 ], [ 13.1960746, 1.8147927 ], [ 13.19387, 1.84915 ], [ 13.158737, 1.8836423 ], [ 13.16074, 1.88665 ], [ 13.21679, 1.94984 ], [ 13.20879, 1.96548 ], [ 13.2086698, 1.9662101 ], [ 13.2072, 1.97514 ], [ 13.23991, 2.0073 ], [ 13.2374213, 2.0109488 ], [ 13.2374, 2.01098 ], [ 13.24632, 2.0204 ], [ 13.28865, 2.04336 ], [ 13.2830684, 2.0489712 ], [ 13.28682, 2.05095 ], [ 13.28845, 2.0505658 ], [ 13.2955184, 2.0647326 ], [ 13.29346, 2.06818 ], [ 13.2943898, 2.0886491 ], [ 13.29736, 2.09164 ], [ 13.2975398, 2.1081916 ], [ 13.29371, 2.1082 ], [ 13.29143, 2.12199 ], [ 13.2948694, 2.1256693 ], [ 13.2925572, 2.1300362 ], [ 13.28733, 2.13327 ], [ 13.2919, 2.13901 ], [ 13.2971241, 2.147113 ], [ 13.29397, 2.15418 ], [ 13.298488, 2.1657456 ], [ 13.29897, 2.17056 ], [ 13.40491, 2.16842 ], [ 13.6799931, 2.170928 ], [ 14.25639, 2.17233 ], [ 14.2680941, 2.1841557 ], [ 14.26965, 2.18523 ], [ 14.33529, 2.1846 ], [ 14.35198, 2.18301 ], [ 14.39681, 2.18259 ], [ 14.4268, 2.15594 ], [ 14.4292034, 2.15594 ], [ 14.4411475, 2.1594 ], [ 14.44555, 2.1594 ], [ 14.58661, 2.21041 ], [ 14.5895926, 2.2046742 ], [ 14.5938826, 2.2007411 ], [ 14.5955979, 2.2001622 ], [ 14.60076, 2.19842 ], [ 14.606497, 2.1968483 ], [ 14.61982, 2.17464 ], [ 14.6287235, 2.1595016 ], [ 14.64252, 2.15508 ], [ 14.647131, 2.1516372 ], [ 14.64569, 2.13783 ], [ 14.6498804, 2.1308247 ], [ 14.6932244, 2.1256855 ], [ 14.6978414, 2.120899 ], [ 14.69894, 2.11976 ], [ 14.7014963, 2.1122954 ], [ 14.7399993, 2.1146593 ], [ 14.7533297, 2.1050025 ], [ 14.75539, 2.10351 ], [ 14.76132, 2.09475 ], [ 14.7715724, 2.0953795 ], [ 14.7742301, 2.0761076 ], [ 14.77017, 2.06829 ], [ 14.8104, 2.05806 ], [ 14.86902, 2.08641 ], [ 14.8645103, 2.0949531 ], [ 14.88067, 2.08131 ], [ 14.88339, 2.07142 ], [ 14.9048003, 2.0625007 ], [ 14.9144294, 2.0599569 ], [ 14.9022742, 2.0237939 ], [ 14.89881, 2.02079 ], [ 14.93076, 1.99725 ], [ 14.97378, 2.00885 ], [ 14.98711, 2.03318 ], [ 14.9932456, 2.0275537 ], [ 15.0341382, 1.9991304 ], [ 15.03523, 1.98452 ], [ 15.0373431, 1.9824531 ], [ 15.07217, 2.00023 ], [ 15.07552, 1.99704 ], [ 15.07619, 1.99382 ], [ 15.07411, 1.98555 ], [ 15.1077092, 1.97832 ], [ 15.12175, 2.01138 ], [ 15.17847, 2.01442 ], [ 15.22335, 2.03175 ], [ 15.2419697, 2.0301305 ], [ 15.24255, 2.03008 ], [ 15.2502701, 2.0264509 ], [ 15.29089, 1.98279 ], [ 15.2968827, 1.9761134 ], [ 15.3078597, 1.9498033 ], [ 15.30494, 1.93974 ], [ 15.30698, 1.93445 ], [ 15.31246, 1.93098 ], [ 15.3273954, 1.9339176 ], [ 15.3315139, 1.9370912 ], [ 15.33625, 1.93366 ], [ 15.33472, 1.92966 ], [ 15.34486, 1.9111 ], [ 15.43304, 1.95677 ], [ 15.4509, 1.96246 ], [ 15.4937, 1.97564 ], [ 15.51478, 1.96115 ], [ 15.5207302, 1.9570627 ], [ 15.60816, 1.94349 ], [ 15.6180567, 1.9408088 ], [ 15.7187489, 1.9216867 ], [ 15.72264, 1.9203 ], [ 15.72856, 1.91315 ], [ 15.7649, 1.90864 ], [ 15.7693, 1.90438 ], [ 15.76991, 1.90378 ], [ 15.7742714, 1.8966751 ], [ 15.77514, 1.89526 ], [ 15.778317, 1.8921552 ], [ 15.79153, 1.87634 ], [ 15.7937742, 1.8686558 ], [ 15.8350774, 1.8416815 ], [ 15.8389575, 1.8364023 ], [ 15.84372, 1.82992 ], [ 15.84874, 1.82691 ], [ 15.86862, 1.82499 ], [ 15.87318, 1.81969 ], [ 15.88335, 1.78838 ], [ 15.93496, 1.77369 ], [ 15.9582399, 1.7627303 ], [ 16.01929, 1.76528 ], [ 16.0254981, 1.7654496 ], [ 16.0236283, 1.6764082 ], [ 16.02871, 1.66088 ], [ 16.06469, 1.65323 ], [ 16.08392, 1.6854 ], [ 16.12595, 1.69524 ], [ 16.14499, 1.71729 ], [ 16.14011, 1.72488 ], [ 16.13947, 1.73383 ], [ 16.1437, 1.7506 ], [ 16.14713, 1.762 ], [ 16.1294752, 1.8129691 ], [ 16.12751, 1.81551 ], [ 16.1268894, 1.8175636 ], [ 16.12453, 1.82537 ], [ 16.1090382, 1.8892848 ], [ 16.09765, 1.88644 ], [ 16.08877, 1.89343 ], [ 16.0875, 1.91398 ], [ 16.0801, 1.94597 ], [ 16.0715507, 1.9532716 ], [ 16.05566, 1.97308 ], [ 16.0583092, 1.9800332 ], [ 16.081449, 2.0490895 ], [ 16.0785073, 2.0517642 ], [ 16.06605, 2.06076 ], [ 16.065901, 2.0635573 ], [ 16.0855719, 2.1116169 ], [ 16.08395, 2.11295 ], [ 16.0829147, 2.1153912 ], [ 16.08166, 2.11835 ], [ 16.08426, 2.18264 ], [ 16.08633, 2.1923 ], [ 16.09594, 2.19827 ], [ 16.12281, 2.19777 ], [ 16.13237, 2.19642 ], [ 16.1355, 2.19247 ], [ 16.1393284, 2.1809167 ], [ 16.19199, 2.22051 ], [ 16.19523, 2.22345 ], [ 16.1983629, 2.2288266 ], [ 16.20876, 2.24667 ], [ 16.22977, 2.28927 ], [ 16.2654, 2.35678 ], [ 16.2691466, 2.3656943 ], [ 16.27457, 2.37402 ], [ 16.28696, 2.39908 ], [ 16.29797, 2.41793 ], [ 16.29912, 2.42299 ], [ 16.33193, 2.48736 ], [ 16.34982, 2.52046 ], [ 16.40411, 2.625 ], [ 16.4162481, 2.6483619 ], [ 16.43588, 2.68529 ], [ 16.4485746, 2.7083645 ], [ 16.471587, 2.705361 ], [ 16.502346, 2.644278 ], [ 16.475033, 2.604391 ], [ 16.531306, 2.574817 ], [ 16.558988, 2.530606 ], [ 16.555081, 2.493674 ], [ 16.612002, 2.506135 ], [ 16.669995, 2.479895 ], [ 16.695671, 2.413855 ], [ 16.7349, 2.361033 ], [ 16.722496, 2.314159 ], [ 16.735399, 2.285342 ], [ 16.719789, 2.246933 ], [ 16.726676, 2.152631 ], [ 16.749665, 2.128684 ], [ 16.715784, 2.095639 ], [ 16.698428, 2.052214 ], [ 16.71999, 1.935792 ], [ 16.712772, 1.9006 ], [ 16.734904, 1.821167 ], [ 16.700504, 1.754495 ], [ 16.684583, 1.695909 ], [ 16.681772, 1.621958 ], [ 16.704086, 1.554295 ], [ 16.661346, 1.487768 ], [ 16.689366, 1.465415 ], [ 16.675528, 1.433702 ], [ 16.720442, 1.316872 ], [ 16.738686, 1.309826 ], [ 16.744528, 1.255906 ], [ 16.76679, 1.18488 ], [ 16.734422, 1.141718 ], [ 16.750297, 1.089304 ], [ 16.729865, 1.062752 ], [ 16.674248, 1.026723 ], [ 16.65538, 0.993416 ], [ 16.648688, 0.884214 ], [ 16.699021, 0.794198 ], [ 16.860913, 0.581143 ], [ 16.978417, 0.410908 ], [ 17.001562, 0.397049 ] ] ] ] } }
]
}
