{
"type": "FeatureCollection",
"name": "CPV_GAUL2006_ADM1",
"crs": { "type": "name", "properties": { "name": "urn:ogc:def:crs:OGC:1.3:CRS84" } },
"features": [
{ "type": "Feature", "properties": { "POLYGON_ID": "CPV_GAUL2006_ADM1_838", "ADM0_ISO3": "CPV", "ADM0_NAME": "Cape Verde", "ADM0_CODE": 47, "ADM1_NAME": "Boa Vista", "ADM1_CODE": 838, "GEOSET": "GAUL", "GEOSET_YEAR": 2006.0, "GEOSET_VERSION": "GAUL_v1", "GEOSET_UNIT": "ADM1", "CENTROID_LONG": -22.820144661993034, "CENTROID_LAT": 16.093780058482242 }, "geometry": { "type": "MultiPolygon", "coordinates": [ [ [ [ -22.7838345, 16.2169151 ], [ -22.7253227, 16.2044067 ], [ -22.6694431, 16.0978489 ], [ -22.6884098, 16.0433922 ], [ -22.8149452, 15.9738274 ], [ -22.8867493, 15.9734325 ], [ -22.9455719, 16.0054073 ], [ -22.9650097, 16.039917 ], [ -22.9612446, 16.0853519 ], [ -22.9101429, 16.118927 ], [ -22.9235344, 16.1752567 ], [ -22.9162235, 16.2250614 ], [ -22.8730679, 16.1987286 ], [ -22.8321972, 16.1975994 ], [ -22.7838345, 16.2169151 ] ] ] ] } },
{ "type": "Feature", "properties": { "POLYGON_ID": "CPV_GAUL2006_ADM1_839", "ADM0_ISO3": "CPV", "ADM0_NAME": "Cape Verde", "ADM0_CODE": 47, "ADM1_NAME": "Brava", "ADM1_CODE": 839, "GEOSET": "GAUL", "GEOSET_YEAR": 2006.0, "GEOSET_VERSION": "GAUL_v1", "GEOSET_UNIT": "ADM1", "CENTROID_LONG": -24.718562227342595, "CENTROID_LAT": 14.850240315967811 }, "geometry": { "type": "MultiPolygon", "coordinates": [ [ [ [ -24.6994877, 14.895133 ], [ -24.6785545, 14.8467054 ], [ -24.7096767, 14.8022137 ], [ -24.7580109, 14.8300819 ], [ -24.7468395, 14.881443 ], [ -24.6994877, 14.895133 ] ] ] ] } },
{ "type": "Feature", "properties": { "POLYGON_ID": "CPV_GAUL2006_ADM1_840", "ADM0_ISO3": "CPV", "ADM0_NAME": "Cape Verde", "ADM0_CODE": 47, "ADM1_NAME": "Cima", "ADM1_CODE": 840, "GEOSET": "GAUL", "GEOSET_YEAR": 2006.0, "GEOSET_VERSION": "GAUL_v1", "GEOSET_UNIT": "ADM1", "CENTROID_LONG": -24.646194466666664, "CENTROID_LAT": 14.9700629 }, "geometry": { "type": "MultiPolygon", "coordinates": [ [ [ [ -24.6492596, 14.9639702 ], [ -24.6484871, 14.9747944 ], [ -24.6408367, 14.9714241 ], [ -24.6492596, 14.9639702 ] ] ] ] } },
{ "type": "Feature", "properties": { "POLYGON_ID": "CPV_GAUL2006_ADM1_841", "ADM0_ISO3": "CPV", "ADM0_NAME": "Cape Verde", "ADM0_CODE": 47, "ADM1_NAME": "Fogo", "ADM1_CODE": 841, "GEOSET": "GAUL", "GEOSET_YEAR": 2006.0, "GEOSET_VERSION": "GAUL_v1", "GEOSET_UNIT": "ADM1", "CENTROID_LONG": -24.398430147115285, "CENTROID_LAT": 14.923298275046786 }, "geometry": { "type": "MultiPolygon", "coordinates": [ [ [ [ -24.3416462, 15.0339842 ], [ -24.3019924, 14.9772491 ], [ -24.2923489, 14.8737803 ], [ -24.331049, 14.8244247 ], [ -24.3797932, 14.8080215 ], [ -24.4259491, 14.813921 ], [ -24.5099106, 14.8788519 ], [ -24.5173492, 14.9283705 ], [ -24.4992275, 14.9761248 ], [ -24.4349556, 15.0225801 ], [ -24.3819962, 15.0459251 ], [ -24.3416462, 15.0339842 ] ] ] ] } },
{ "type": "Feature", "properties": { "POLYGON_ID": "CPV_GAUL2006_ADM1_842", "ADM0_ISO3": "CPV", "ADM0_NAME": "Cape Verde", "ADM0_CODE": 47, "ADM1_NAME": "Ilheu Branco", "ADM1_CODE": 842, "GEOSET": "GAUL", "GEOSET_YEAR": 2006.0, "GEOSET_VERSION": "GAUL_v1", "GEOSET_UNIT": "ADM1", "CENTROID_LONG": -24.679755858739028, "CENTROID_LAT": 16.654038989335024 }, "geometry": { "type": "MultiPolygon", "coordinates": [ [ [ [ -24.6669025, 16.6440964 ], [ -24.6819191, 16.6459732 ], [ -24.6942692, 16.6630077 ], [ -24.6753139, 16.6615906 ], [ -24.6669025, 16.6440964 ] ] ] ] } },
{ "type": "Feature", "properties": { "POLYGON_ID": "CPV_GAUL2006_ADM1_843", "ADM0_ISO3": "CPV", "ADM0_NAME": "Cape Verde", "ADM0_CODE": 47, "ADM1_NAME": "Ilheu Raso", "ADM1_CODE": 843, "GEOSET": "GAUL", "GEOSET_YEAR": 2006.0, "GEOSET_VERSION": "GAUL_v1", "GEOSET_UNIT": "ADM1", "CENTROID_LONG": -24.597963327311874, "CENTROID_LAT": 16.614458750367316 }, "geometry": { "type": "MultiPolygon", "coordinates": [ [ [ [ -24.5833454, 16.6226578 ], [ -24.5888386, 16.6047153 ], [ -24.6081352, 16.6065445 ], [ -24.6130791, 16.6216106 ], [ -24.5833454, 16.6226578 ] ] ] ] } },
{ "type": "Feature", "properties": { "POLYGON_ID": "CPV_GAUL2006_ADM1_844", "ADM0_ISO3": "CPV", "ADM0_NAME": "Cape Verde", "ADM0_CODE": 47, "ADM1_NAME": "Maio", "ADM1_CODE": 844, "GEOSET": "GAUL", "GEOSET_YEAR": 2006.0, "GEOSET_VERSION": "GAUL_v1", "GEOSET_UNIT": "ADM1", "CENTROID_LONG": -23.175462090300833, "CENTROID_LAT": 15.210688104375503 }, "geometry": { "type": "MultiPolygon", "coordinates": [ [ [ [ -23.1951523, 15.3219728 ], [ -23.1200733, 15.2837124 ], [ -23.0994186, 15.1653929 ], [ -23.1650887, 15.1121216 ], [ -23.2020245, 15.1155291 ], [ -23.2539234, 15.1601486 ], [ -23.2274227, 15.2289925 ], [ -23.2422981, 15.257349 ], [ -23.1951523, 15.3219728 ] ] ] ] } },
{ "type": "Feature", "properties": { "POLYGON_ID": "CPV_GAUL2006_ADM1_845", "ADM0_ISO3": "CPV", "ADM0_NAME": "Cape Verde", "ADM0_CODE": 47, "ADM1_NAME": "Rombo", "ADM1_CODE": 845, "GEOSET": "GAUL", "GEOSET_YEAR": 2006.0, "GEOSET_VERSION": "GAUL_v1", "GEOSET_UNIT": "ADM1", "CENTROID_LONG": -24.700276666666667, "CENTROID_LAT": 14.9649407 }, "geometry": { "type": "MultiPolygon", "coordinates": [ [ [ [ -24.7011871, 14.9557428 ], [ -24.7074985, 14.9687538 ], [ -24.6921444, 14.9703255 ], [ -24.7011871, 14.9557428 ] ] ] ] } },
{ "type": "Feature", "properties": { "POLYGON_ID": "CPV_GAUL2006_ADM1_846", "ADM0_ISO3": "CPV", "ADM0_NAME": "Cape Verde", "ADM0_CODE": 47, "ADM1_NAME": "Sal", "ADM1_CODE": 846, "GEOSET": "GAUL", "GEOSET_YEAR": 2006.0, "GEOSET_VERSION": "GAUL_v1", "GEOSET_UNIT": "ADM1", "CENTROID_LONG": -22.929837632691875, "CENTROID_LAT": 16.728264242043043 }, "geometry": { "type": "MultiPolygon", "coordinates": [ [ [ [ -22.9121761, 16.8379555 ], [ -22.8850479, 16.7581654 ], [ -22.8914051, 16.7042809 ], [ -22.8700409, 16.6725616 ], [ -22.8960094, 16.6359673 ], [ -22.8864746, 16.5913372 ], [ -22.9295387, 16.5910702 ], [ -22.9381065, 16.6719112 ], [ -22.9886742, 16.7293301 ], [ -22.9863892, 16.8230515 ], [ -22.9121761, 16.8379555 ] ] ] ] } },
{ "type": "Feature", "properties": { "POLYGON_ID": "CPV_GAUL2006_ADM1_847", "ADM0_ISO3": "CPV", "ADM0_NAME": "Cape Verde", "ADM0_CODE": 47, "ADM1_NAME": "Santa Luzia", "ADM1_CODE": 847, "GEOSET": "GAUL", "GEOSET_YEAR": 2006.0, "GEOSET_VERSION": "GAUL_v1", "GEOSET_UNIT": "ADM1", "CENTROID_LONG": -24.774101233333337, "CENTROID_LAT": 16.769624066666665 }, "geometry": { "type": "MultiPolygon", "coordinates": [ [ [ [ -24.7683258, 16.7958946 ], [ -24.7591438, 16.7481232 ], [ -24.7948341, 16.7648544 ], [ -24.7683258, 16.7958946 ] ] ] ] } },
{ "type": "Feature", "properties": { "POLYGON_ID": "CPV_GAUL2006_ADM1_848", "ADM0_ISO3": "CPV", "ADM0_NAME": "Cape Verde", "ADM0_CODE": 47, "ADM1_NAME": "Santiago", "ADM1_CODE": 848, "GEOSET": "GAUL", "GEOSET_YEAR": 2006.0, "GEOSET_VERSION": "GAUL_v1", "GEOSET_UNIT": "ADM1", "CENTROID_LONG": -23.637859684310641, "CENTROID_LAT": 15.078256041262442 }, "geometry": { "type": "MultiPolygon", "coordinates": [ [ [ [ -23.7492676, 15.3210869 ], [ -23.7161217, 15.3218489 ], [ -23.688282, 15.251853 ], [ -23.6300545, 15.2252798 ], [ -23.509222, 15.0938377 ], [ -23.4780998, 15.0477133 ], [ -23.4524593, 15.0359831 ], [ -23.4558411, 14.9842882 ], [ -23.4884357, 14.9190302 ], [ -23.5222778, 14.8932543 ], [ -23.6256237, 14.9120131 ], [ -23.7053013, 14.9509058 ], [ -23.7629681, 15.0263882 ], [ -23.7893238, 15.0897484 ], [ -23.7679482, 15.2125549 ], [ -23.7723656, 15.3089361 ], [ -23.7492676, 15.3210869 ] ] ] ] } },
{ "type": "Feature", "properties": { "POLYGON_ID": "CPV_GAUL2006_ADM1_849", "ADM0_ISO3": "CPV", "ADM0_NAME": "Cape Verde", "ADM0_CODE": 47, "ADM1_NAME": "Santo Antao", "ADM1_CODE": 849, "GEOSET": "GAUL", "GEOSET_YEAR": 2006.0, "GEOSET_VERSION": "GAUL_v1", "GEOSET_UNIT": "ADM1", "CENTROID_LONG": -25.173124828395252, "CENTROID_LAT": 17.056119270699337 }, "geometry": { "type": "MultiPolygon", "coordinates": [ [ [ [ -25.0674095, 17.1801224 ], [ -25.0259323, 17.1720486 ], [ -25.0052471, 17.1244698 ], [ -24.9704514, 17.1079922 ], [ -24.9994621, 17.0503483 ], [ -25.1050701, 17.000576 ], [ -25.1792736, 16.9237175 ], [ -25.2922077, 16.9078979 ], [ -25.3172646, 16.926775 ], [ -25.3113232, 16.9598484 ], [ -25.3270016, 17.020319 ], [ -25.3587475, 17.0551243 ], [ -25.3364201, 17.0923252 ], [ -25.2325344, 17.1288681 ], [ -25.1967487, 17.1605206 ], [ -25.112112, 17.1953678 ], [ -25.0674095, 17.1801224 ] ] ] ] } },
{ "type": "Feature", "properties": { "POLYGON_ID": "CPV_GAUL2006_ADM1_850", "ADM0_ISO3": "CPV", "ADM0_NAME": "Cape Verde", "ADM0_CODE": 47, "ADM1_NAME": "Sao Nicolau", "ADM1_CODE": 850, "GEOSET": "GAUL", "GEOSET_YEAR": 2006.0, "GEOSET_VERSION": "GAUL_v1", "GEOSET_UNIT": "ADM1", "CENTROID_LONG": -24.257909042429784, "CENTROID_LAT": 16.597540139981174 }, "geometry": { "type": "MultiPolygon", "coordinates": [ [ [ [ -24.3227577, 16.6646404 ], [ -24.2922344, 16.6377087 ], [ -24.2294998, 16.6464157 ], [ -24.0782204, 16.6076794 ], [ -24.0219879, 16.576395 ], [ -24.0255375, 16.5506897 ], [ -24.1178303, 16.549284 ], [ -24.1888828, 16.5865803 ], [ -24.2424717, 16.5915031 ], [ -24.2873116, 16.5580082 ], [ -24.3237915, 16.4794426 ], [ -24.3791771, 16.5817318 ], [ -24.4320545, 16.607254 ], [ -24.4308147, 16.644165 ], [ -24.3550377, 16.6777992 ], [ -24.3227577, 16.6646404 ] ] ] ] } },
{ "type": "Feature", "properties": { "POLYGON_ID": "CPV_GAUL2006_ADM1_851", "ADM0_ISO3": "CPV", "ADM0_NAME": "Cape Verde", "ADM0_CODE": 47, "ADM1_NAME": "Sao Vicente", "ADM1_CODE": 851, "GEOSET": "GAUL", "GEOSET_YEAR": 2006.0, "GEOSET_VERSION": "GAUL_v1", "GEOSET_UNIT": "ADM1", "CENTROID_LONG": -24.979318218660961, "CENTROID_LAT": 16.840929652849489 }, "geometry": { "type": "MultiPolygon", "coordinates": [ [ [ [ -24.9221344, 16.9185314 ], [ -24.922575, 16.8802681 ], [ -24.8879662, 16.8571262 ], [ -24.8707275, 16.8142815 ], [ -24.9982567, 16.7708855 ], [ -25.0667992, 16.8027172 ], [ -25.0842628, 16.8592968 ], [ -25.0562344, 16.8821335 ], [ -25.0241814, 16.8724918 ], [ -25.0, 16.9024353 ], [ -24.9221344, 16.9185314 ] ] ] ] } }
]
}
