{
"type": "FeatureCollection",
"name": "CPV_GAUL2009_ADM2",
"crs": { "type": "name", "properties": { "name": "urn:ogc:def:crs:OGC:1.3:CRS84" } },
"features": [
{ "type": "Feature", "properties": { "POLYGON_ID": "CPV_GAUL2009_ADM2_12812", "ADM0_ISO3": "CPV", "ADM0_NAME": "Cape Verde", "ADM0_CODE": 47, "ADM1_NAME": "Boa Vista", "ADM1_CODE": 838, "ADM2_NAME": "Boa Vista", "ADM2_CODE": 12812, "GEOSET": "GAUL", "GEOSET_YEAR": 2009.0, "GEOSET_VERSION": "GAUL_v1", "GEOSET_UNIT": "ADM2", "CENTROID_LONG": -22.816953776898785, "CENTROID_LAT": 16.092770399385305 }, "geometry": { "type": "MultiPolygon", "coordinates": [ [ [ [ -22.7838345, 16.2169151 ], [ -22.7253227, 16.2044067 ], [ -22.6694431, 16.0978489 ], [ -22.6884098, 16.0433922 ], [ -22.8149452, 15.9738274 ], [ -22.8867493, 15.9734325 ], [ -22.9455719, 16.0054073 ], [ -22.9612446, 16.0853519 ], [ -22.9101429, 16.118927 ], [ -22.9235344, 16.1752567 ], [ -22.8730679, 16.1987286 ], [ -22.7838345, 16.2169151 ] ] ] ] } },
{ "type": "Feature", "properties": { "POLYGON_ID": "CPV_GAUL2009_ADM2_12813", "ADM0_ISO3": "CPV", "ADM0_NAME": "Cape Verde", "ADM0_CODE": 47, "ADM1_NAME": "Brava", "ADM1_CODE": 839, "ADM2_NAME": "Brava", "ADM2_CODE": 12813, "GEOSET": "GAUL", "GEOSET_YEAR": 2009.0, "GEOSET_VERSION": "GAUL_v1", "GEOSET_UNIT": "ADM2", "CENTROID_LONG": -24.718562227342595, "CENTROID_LAT": 14.850240315967811 }, "geometry": { "type": "MultiPolygon", "coordinates": [ [ [ [ -24.6994877, 14.895133 ], [ -24.6785545, 14.8467054 ], [ -24.7096767, 14.8022137 ], [ -24.7580109, 14.8300819 ], [ -24.7468395, 14.881443 ], [ -24.6994877, 14.895133 ] ] ] ] } },
{ "type": "Feature", "properties": { "POLYGON_ID": "CPV_GAUL2009_ADM2_12814", "ADM0_ISO3": "CPV", "ADM0_NAME": "Cape Verde", "ADM0_CODE": 47, "ADM1_NAME": "Cima", "ADM1_CODE": 840, "ADM2_NAME": "Cima", "ADM2_CODE": 12814, "GEOSET": "GAUL", "GEOSET_YEAR": 2009.0, "GEOSET_VERSION": "GAUL_v1", "GEOSET_UNIT": "ADM2", "CENTROID_LONG": -24.646194466666664, "CENTROID_LAT": 14.9700629 }, "geometry": { "type": "MultiPolygon", "coordinates": [ [ [ [ -24.6492596, 14.9639702 ], [ -24.6484871, 14.9747944 ], [ -24.6408367, 14.9714241 ], [ -24.6492596, 14.9639702 ] ] ] ] } },
{ "type": "Feature", "properties": { "POLYGON_ID": "CPV_GAUL2009_ADM2_12815", "ADM0_ISO3": "CPV", "ADM0_NAME": "Cape Verde", "ADM0_CODE": 47, "ADM1_NAME": "Fogo", "ADM1_CODE": 841, "ADM2_NAME": "Mosteiros", "ADM2_CODE": 12815, "GEOSET": "GAUL", "GEOSET_YEAR": 2009.0, "GEOSET_VERSION": "GAUL_v1", "GEOSET_UNIT": "ADM2", "CENTROID_LONG": -24.351120790046679, "CENTROID_LAT": 14.99572265023386 }, "geometry": { "type": "MultiPolygon", "coordinates": [ [ [ [ -24.2997045, 14.9502745 ], [ -24.3474102, 14.9455919 ], [ -24.4136675, 15.0309381 ], [ -24.3819962, 15.0459251 ], [ -24.3161335, 15.0156708 ], [ -24.2997045, 14.9502745 ] ] ] ] } },
{ "type": "Feature", "properties": { "POLYGON_ID": "CPV_GAUL2009_ADM2_12816", "ADM0_ISO3": "CPV", "ADM0_NAME": "Cape Verde", "ADM0_CODE": 47, "ADM1_NAME": "Fogo", "ADM1_CODE": 841, "ADM2_NAME": "Sao Filipe", "ADM2_CODE": 12816, "GEOSET": "GAUL", "GEOSET_YEAR": 2009.0, "GEOSET_VERSION": "GAUL_v1", "GEOSET_UNIT": "ADM2", "CENTROID_LONG": -24.407473488246215, "CENTROID_LAT": 14.910278442900514 }, "geometry": { "type": "MultiPolygon", "coordinates": [ [ [ [ -24.2997045, 14.9502745 ], [ -24.2923489, 14.8737803 ], [ -24.331049, 14.8244247 ], [ -24.4259491, 14.813921 ], [ -24.5099106, 14.8788519 ], [ -24.5173492, 14.9283705 ], [ -24.4992275, 14.9761248 ], [ -24.4136675, 15.0309381 ], [ -24.3474102, 14.9455919 ], [ -24.2997045, 14.9502745 ] ] ] ] } },
{ "type": "Feature", "properties": { "POLYGON_ID": "CPV_GAUL2009_ADM2_12817", "ADM0_ISO3": "CPV", "ADM0_NAME": "Cape Verde", "ADM0_CODE": 47, "ADM1_NAME": "Ilheu Branco", "ADM1_CODE": 842, "ADM2_NAME": "Ilheu Branco", "ADM2_CODE": 12817, "GEOSET": "GAUL", "GEOSET_YEAR": 2009.0, "GEOSET_VERSION": "GAUL_v1", "GEOSET_UNIT": "ADM2", "CENTROID_LONG": -24.679755858739028, "CENTROID_LAT": 16.654038989335024 }, "geometry": { "type": "MultiPolygon", "coordinates": [ [ [ [ -24.6669025, 16.6440964 ], [ -24.6819191, 16.6459732 ], [ -24.6942692, 16.6630077 ], [ -24.6753139, 16.6615906 ], [ -24.6669025, 16.6440964 ] ] ] ] } },
{ "type": "Feature", "properties": { "POLYGON_ID": "CPV_GAUL2009_ADM2_12818", "ADM0_ISO3": "CPV", "ADM0_NAME": "Cape Verde", "ADM0_CODE": 47, "ADM1_NAME": "Ilheu Raso", "ADM1_CODE": 843, "ADM2_NAME": "Ilheu Raso", "ADM2_CODE": 12818, "GEOSET": "GAUL", "GEOSET_YEAR": 2009.0, "GEOSET_VERSION": "GAUL_v1", "GEOSET_UNIT": "ADM2", "CENTROID_LONG": -24.597963327311874, "CENTROID_LAT": 16.614458750367316 }, "geometry": { "type": "MultiPolygon", "coordinates": [ [ [ [ -24.5833454, 16.6226578 ], [ -24.5888386, 16.6047153 ], [ -24.6081352, 16.6065445 ], [ -24.6130791, 16.6216106 ], [ -24.5833454, 16.6226578 ] ] ] ] } },
{ "type": "Feature", "properties": { "POLYGON_ID": "CPV_GAUL2009_ADM2_12819", "ADM0_ISO3": "CPV", "ADM0_NAME": "Cape Verde", "ADM0_CODE": 47, "ADM1_NAME": "Maio", "ADM1_CODE": 844, "ADM2_NAME": "Maio", "ADM2_CODE": 12819, "GEOSET": "GAUL", "GEOSET_YEAR": 2009.0, "GEOSET_VERSION": "GAUL_v1", "GEOSET_UNIT": "ADM2", "CENTROID_LONG": -23.175462090300833, "CENTROID_LAT": 15.210688104375503 }, "geometry": { "type": "MultiPolygon", "coordinates": [ [ [ [ -23.1951523, 15.3219728 ], [ -23.1200733, 15.2837124 ], [ -23.0994186, 15.1653929 ], [ -23.1650887, 15.1121216 ], [ -23.2020245, 15.1155291 ], [ -23.2539234, 15.1601486 ], [ -23.2274227, 15.2289925 ], [ -23.2422981, 15.257349 ], [ -23.1951523, 15.3219728 ] ] ] ] } },
{ "type": "Feature", "properties": { "POLYGON_ID": "CPV_GAUL2009_ADM2_12820", "ADM0_ISO3": "CPV", "ADM0_NAME": "Cape Verde", "ADM0_CODE": 47, "ADM1_NAME": "Rombo", "ADM1_CODE": 845, "ADM2_NAME": "Rombo", "ADM2_CODE": 12820, "GEOSET": "GAUL", "GEOSET_YEAR": 2009.0, "GEOSET_VERSION": "GAUL_v1", "GEOSET_UNIT": "ADM2", "CENTROID_LONG": -24.700276666666667, "CENTROID_LAT": 14.9649407 }, "geometry": { "type": "MultiPolygon", "coordinates": [ [ [ [ -24.7011871, 14.9557428 ], [ -24.7074985, 14.9687538 ], [ -24.6921444, 14.9703255 ], [ -24.7011871, 14.9557428 ] ] ] ] } },
{ "type": "Feature", "properties": { "POLYGON_ID": "CPV_GAUL2009_ADM2_12821", "ADM0_ISO3": "CPV", "ADM0_NAME": "Cape Verde", "ADM0_CODE": 47, "ADM1_NAME": "Sal", "ADM1_CODE": 846, "ADM2_NAME": "Sal", "ADM2_CODE": 12821, "GEOSET": "GAUL", "GEOSET_YEAR": 2009.0, "GEOSET_VERSION": "GAUL_v1", "GEOSET_UNIT": "ADM2", "CENTROID_LONG": -22.9313845073968, "CENTROID_LAT": 16.735481801792218 }, "geometry": { "type": "MultiPolygon", "coordinates": [ [ [ [ -22.9121761, 16.8379555 ], [ -22.8850479, 16.7581654 ], [ -22.8914051, 16.7042809 ], [ -22.8700409, 16.6725616 ], [ -22.9295387, 16.5910702 ], [ -22.9381065, 16.6719112 ], [ -22.9886742, 16.7293301 ], [ -22.9863892, 16.8230515 ], [ -22.9121761, 16.8379555 ] ] ] ] } },
{ "type": "Feature", "properties": { "POLYGON_ID": "CPV_GAUL2009_ADM2_12822", "ADM0_ISO3": "CPV", "ADM0_NAME": "Cape Verde", "ADM0_CODE": 47, "ADM1_NAME": "Santa Luzia", "ADM1_CODE": 847, "ADM2_NAME": "Santa Luzia", "ADM2_CODE": 12822, "GEOSET": "GAUL", "GEOSET_YEAR": 2009.0, "GEOSET_VERSION": "GAUL_v1", "GEOSET_UNIT": "ADM2", "CENTROID_LONG": -24.774101233333337, "CENTROID_LAT": 16.769624066666665 }, "geometry": { "type": "MultiPolygon", "coordinates": [ [ [ [ -24.7683258, 16.7958946 ], [ -24.7591438, 16.7481232 ], [ -24.7948341, 16.7648544 ], [ -24.7683258, 16.7958946 ] ] ] ] } },
{ "type": "Feature", "properties": { "POLYGON_ID": "CPV_GAUL2009_ADM2_12823", "ADM0_ISO3": "CPV", "ADM0_NAME": "Cape Verde", "ADM0_CODE": 47, "ADM1_NAME": "Santiago", "ADM1_CODE": 848, "ADM2_NAME": "Praia", "ADM2_CODE": 12823, "GEOSET": "GAUL", "GEOSET_YEAR": 2009.0, "GEOSET_VERSION": "GAUL_v1", "GEOSET_UNIT": "ADM2", "CENTROID_LONG": -23.600600521078331, "CENTROID_LAT": 14.959142811367 }, "geometry": { "type": "MultiPolygon", "coordinates": [ [ [ [ -23.6504059, 15.0466919 ], [ -23.6410484, 15.0345335 ], [ -23.6353741, 14.9901981 ], [ -23.6024933, 14.974556 ], [ -23.5349789, 14.9943476 ], [ -23.4733621, 14.9702616 ], [ -23.4884357, 14.9190302 ], [ -23.5222778, 14.8932543 ], [ -23.6256237, 14.9120131 ], [ -23.6872082, 14.9368315 ], [ -23.7225556, 14.9739788 ], [ -23.6931267, 15.0317688 ], [ -23.6504059, 15.0466919 ] ] ] ] } },
{ "type": "Feature", "properties": { "POLYGON_ID": "CPV_GAUL2009_ADM2_12824", "ADM0_ISO3": "CPV", "ADM0_NAME": "Cape Verde", "ADM0_CODE": 47, "ADM1_NAME": "Santiago", "ADM1_CODE": 848, "ADM2_NAME": "Santa Catarina", "ADM2_CODE": 12824, "GEOSET": "GAUL", "GEOSET_YEAR": 2009.0, "GEOSET_VERSION": "GAUL_v1", "GEOSET_UNIT": "ADM2", "CENTROID_LONG": -23.710671332220333, "CENTROID_LAT": 15.100128389068887 }, "geometry": { "type": "MultiPolygon", "coordinates": [ [ [ [ -23.7076588, 15.1890993 ], [ -23.6345692, 15.1490097 ], [ -23.6117573, 15.1027479 ], [ -23.6504059, 15.0466919 ], [ -23.6931267, 15.0317688 ], [ -23.7225556, 14.9739788 ], [ -23.7629681, 15.0263882 ], [ -23.7893238, 15.0897484 ], [ -23.7693589, 15.1946263 ], [ -23.7076588, 15.1890993 ] ] ] ] } },
{ "type": "Feature", "properties": { "POLYGON_ID": "CPV_GAUL2009_ADM2_12825", "ADM0_ISO3": "CPV", "ADM0_NAME": "Cape Verde", "ADM0_CODE": 47, "ADM1_NAME": "Santiago", "ADM1_CODE": 848, "ADM2_NAME": "Santa Cruz", "ADM2_CODE": 12825, "GEOSET": "GAUL", "GEOSET_YEAR": 2009.0, "GEOSET_VERSION": "GAUL_v1", "GEOSET_UNIT": "ADM2", "CENTROID_LONG": -23.576516198010268, "CENTROID_LAT": 15.100243683769454 }, "geometry": { "type": "MultiPolygon", "coordinates": [ [ [ [ -23.5039502, 15.0891703 ], [ -23.5347214, 15.0397596 ], [ -23.5655518, 15.0549564 ], [ -23.6410484, 15.0345335 ], [ -23.6504059, 15.0466919 ], [ -23.6117573, 15.1027479 ], [ -23.6345692, 15.1490097 ], [ -23.5948062, 15.1786245 ], [ -23.5141716, 15.1208906 ], [ -23.5039502, 15.0891703 ] ] ] ] } },
{ "type": "Feature", "properties": { "POLYGON_ID": "CPV_GAUL2009_ADM2_12826", "ADM0_ISO3": "CPV", "ADM0_NAME": "Cape Verde", "ADM0_CODE": 47, "ADM1_NAME": "Santiago", "ADM1_CODE": 848, "ADM2_NAME": "Sao Domingos", "ADM2_CODE": 12826, "GEOSET": "GAUL", "GEOSET_YEAR": 2009.0, "GEOSET_VERSION": "GAUL_v1", "GEOSET_UNIT": "ADM2", "CENTROID_LONG": -23.541870921850535, "CENTROID_LAT": 15.020201752365821 }, "geometry": { "type": "MultiPolygon", "coordinates": [ [ [ [ -23.4733621, 14.9702616 ], [ -23.5349789, 14.9943476 ], [ -23.6024933, 14.974556 ], [ -23.6353741, 14.9901981 ], [ -23.6410484, 15.0345335 ], [ -23.5655518, 15.0549564 ], [ -23.5347214, 15.0397596 ], [ -23.5039502, 15.0891703 ], [ -23.4524593, 15.0359831 ], [ -23.4733621, 14.9702616 ] ] ] ] } },
{ "type": "Feature", "properties": { "POLYGON_ID": "CPV_GAUL2009_ADM2_12827", "ADM0_ISO3": "CPV", "ADM0_NAME": "Cape Verde", "ADM0_CODE": 47, "ADM1_NAME": "Santiago", "ADM1_CODE": 848, "ADM2_NAME": "Sao Miguel", "ADM2_CODE": 12827, "GEOSET": "GAUL", "GEOSET_YEAR": 2009.0, "GEOSET_VERSION": "GAUL_v1", "GEOSET_UNIT": "ADM2", "CENTROID_LONG": -23.651957084409577, "CENTROID_LAT": 15.195602431771238 }, "geometry": { "type": "MultiPolygon", "coordinates": [ [ [ [ -23.5948062, 15.1786245 ], [ -23.6345692, 15.1490097 ], [ -23.7076588, 15.1890993 ], [ -23.6759433, 15.2451689 ], [ -23.6300545, 15.2252798 ], [ -23.5948062, 15.1786245 ] ] ] ] } },
{ "type": "Feature", "properties": { "POLYGON_ID": "CPV_GAUL2009_ADM2_12828", "ADM0_ISO3": "CPV", "ADM0_NAME": "Cape Verde", "ADM0_CODE": 47, "ADM1_NAME": "Santiago", "ADM1_CODE": 848, "ADM2_NAME": "Tarrafal", "ADM2_CODE": 12828, "GEOSET": "GAUL", "GEOSET_YEAR": 2009.0, "GEOSET_VERSION": "GAUL_v1", "GEOSET_UNIT": "ADM2", "CENTROID_LONG": -23.725391960383977, "CENTROID_LAT": 15.24972809465123 }, "geometry": { "type": "MultiPolygon", "coordinates": [ [ [ [ -23.6759433, 15.2451689 ], [ -23.7076588, 15.1890993 ], [ -23.7693589, 15.1946263 ], [ -23.7521057, 15.240941 ], [ -23.7714519, 15.2864475 ], [ -23.7161217, 15.3218489 ], [ -23.6759433, 15.2451689 ] ] ] ] } },
{ "type": "Feature", "properties": { "POLYGON_ID": "CPV_GAUL2009_ADM2_12829", "ADM0_ISO3": "CPV", "ADM0_NAME": "Cape Verde", "ADM0_CODE": 47, "ADM1_NAME": "Santo Antao", "ADM1_CODE": 849, "ADM2_NAME": "Concelho de Paul", "ADM2_CODE": 12829, "GEOSET": "GAUL", "GEOSET_YEAR": 2009.0, "GEOSET_VERSION": "GAUL_v1", "GEOSET_UNIT": "ADM2", "CENTROID_LONG": -25.01485102261665, "CENTROID_LAT": 17.111010768642345 }, "geometry": { "type": "MultiPolygon", "coordinates": [ [ [ [ -24.9848678, 17.0674195 ], [ -25.0671883, 17.1074123 ], [ -25.0246435, 17.1580078 ], [ -24.9704514, 17.1079922 ], [ -24.9848678, 17.0674195 ] ] ] ] } },
{ "type": "Feature", "properties": { "POLYGON_ID": "CPV_GAUL2009_ADM2_12830", "ADM0_ISO3": "CPV", "ADM0_NAME": "Cape Verde", "ADM0_CODE": 47, "ADM1_NAME": "Santo Antao", "ADM1_CODE": 849, "ADM2_NAME": "Concelho de Porto Novo", "ADM2_CODE": 12830, "GEOSET": "GAUL", "GEOSET_YEAR": 2009.0, "GEOSET_VERSION": "GAUL_v1", "GEOSET_UNIT": "ADM2", "CENTROID_LONG": -25.200817894517197, "CENTROID_LAT": 17.026967390027753 }, "geometry": { "type": "MultiPolygon", "coordinates": [ [ [ [ -25.0671883, 17.1074123 ], [ -24.9848678, 17.0674195 ], [ -25.1050701, 17.000576 ], [ -25.1792736, 16.9237175 ], [ -25.2922077, 16.9078979 ], [ -25.3270016, 17.020319 ], [ -25.3587475, 17.0551243 ], [ -25.3364201, 17.0923252 ], [ -25.2331866, 17.1283606 ], [ -25.1805878, 17.0845566 ], [ -25.0671883, 17.1074123 ] ] ] ] } },
{ "type": "Feature", "properties": { "POLYGON_ID": "CPV_GAUL2009_ADM2_12831", "ADM0_ISO3": "CPV", "ADM0_NAME": "Cape Verde", "ADM0_CODE": 47, "ADM1_NAME": "Santo Antao", "ADM1_CODE": 849, "ADM2_NAME": "Concelho de Rio Grande", "ADM2_CODE": 12831, "GEOSET": "GAUL", "GEOSET_YEAR": 2009.0, "GEOSET_VERSION": "GAUL_v1", "GEOSET_UNIT": "ADM2", "CENTROID_LONG": -25.127540934695077, "CENTROID_LAT": 17.138541420836415 }, "geometry": { "type": "MultiPolygon", "coordinates": [ [ [ [ -25.0246435, 17.1580078 ], [ -25.0671883, 17.1074123 ], [ -25.1805878, 17.0845566 ], [ -25.2331866, 17.1283606 ], [ -25.1967487, 17.1605206 ], [ -25.0851612, 17.195282 ], [ -25.0246435, 17.1580078 ] ] ] ] } },
{ "type": "Feature", "properties": { "POLYGON_ID": "CPV_GAUL2009_ADM2_12832", "ADM0_ISO3": "CPV", "ADM0_NAME": "Cape Verde", "ADM0_CODE": 47, "ADM1_NAME": "Sao Nicolau", "ADM1_CODE": 850, "ADM2_NAME": "Sao Nicolau", "ADM2_CODE": 12832, "GEOSET": "GAUL", "GEOSET_YEAR": 2009.0, "GEOSET_VERSION": "GAUL_v1", "GEOSET_UNIT": "ADM2", "CENTROID_LONG": -24.257909042429784, "CENTROID_LAT": 16.597540139981174 }, "geometry": { "type": "MultiPolygon", "coordinates": [ [ [ [ -24.3227577, 16.6646404 ], [ -24.2922344, 16.6377087 ], [ -24.2294998, 16.6464157 ], [ -24.0782204, 16.6076794 ], [ -24.0219879, 16.576395 ], [ -24.0255375, 16.5506897 ], [ -24.1178303, 16.549284 ], [ -24.1888828, 16.5865803 ], [ -24.2424717, 16.5915031 ], [ -24.2873116, 16.5580082 ], [ -24.3237915, 16.4794426 ], [ -24.3791771, 16.5817318 ], [ -24.4320545, 16.607254 ], [ -24.4308147, 16.644165 ], [ -24.3550377, 16.6777992 ], [ -24.3227577, 16.6646404 ] ] ] ] } },
{ "type": "Feature", "properties": { "POLYGON_ID": "CPV_GAUL2009_ADM2_12833", "ADM0_ISO3": "CPV", "ADM0_NAME": "Cape Verde", "ADM0_CODE": 47, "ADM1_NAME": "Sao Vicente", "ADM1_CODE": 851, "ADM2_NAME": "Sao Vicente", "ADM2_CODE": 12833, "GEOSET": "GAUL", "GEOSET_YEAR": 2009.0, "GEOSET_VERSION": "GAUL_v1", "GEOSET_UNIT": "ADM2", "CENTROID_LONG": -24.979780210213121, "CENTROID_LAT": 16.839818319200639 }, "geometry": { "type": "MultiPolygon", "coordinates": [ [ [ [ -24.9221344, 16.9185314 ], [ -24.922575, 16.8802681 ], [ -24.8707275, 16.8142815 ], [ -24.9982567, 16.7708855 ], [ -25.0667992, 16.8027172 ], [ -25.0842628, 16.8592968 ], [ -25.0241814, 16.8724918 ], [ -25.0, 16.9024353 ], [ -24.9221344, 16.9185314 ] ] ] ] } }
]
}
