{
"type": "FeatureCollection",
"name": "CPV_GAUL1993_ADM0",
"crs": { "type": "name", "properties": { "name": "urn:ogc:def:crs:OGC:1.3:CRS84" } },
"features": [
{ "type": "Feature", "properties": { "POLYGON_ID": "CPV_GAUL1993_ADM0_47", "ADM0_ISO3": "CPV", "ADM0_NAME": "Cape Verde", "ADM0_CODE": 47, "GEOSET": "GAUL", "GEOSET_YEAR": 1993.0, "GEOSET_VERSION": "GAUL_v1", "GEOSET_UNIT": "ADM0", "CENTROID_LONG": -23.978341784926716, "CENTROID_LAT": 15.935969732618295 }, "geometry": { "type": "MultiPolygon", "coordinates": [ [ [ [ -22.7838345, 16.2169151 ], [ -22.7253227, 16.2044067 ], [ -22.6951351, 16.1541252 ], [ -22.6820431, 16.1484623 ], [ -22.6823025, 16.1048889 ], [ -22.6694431, 16.0978489 ], [ -22.6884098, 16.0433922 ], [ -22.7764969, 15.997715 ], [ -22.7981606, 15.9647884 ], [ -22.8149452, 15.9738274 ], [ -22.8867493, 15.9734325 ], [ -22.8908424, 15.9832706 ], [ -22.9455719, 16.0054073 ], [ -22.9650097, 16.039917 ], [ -22.9612446, 16.0853519 ], [ -22.9101429, 16.118927 ], [ -22.9235344, 16.1752567 ], [ -22.9162235, 16.2250614 ], [ -22.8730679, 16.1987286 ], [ -22.8321972, 16.1975994 ], [ -22.7838345, 16.2169151 ] ] ], [ [ [ -22.9121761, 16.8379555 ], [ -22.8850479, 16.7581654 ], [ -22.8978786, 16.7537327 ], [ -22.8914051, 16.7042809 ], [ -22.8700409, 16.6725616 ], [ -22.8960094, 16.6359673 ], [ -22.8864746, 16.5913372 ], [ -22.9295387, 16.5910702 ], [ -22.9342976, 16.6316032 ], [ -22.947279, 16.6535206 ], [ -22.9381065, 16.6719112 ], [ -22.9684925, 16.6985283 ], [ -22.9886742, 16.7293301 ], [ -22.9865341, 16.7687531 ], [ -22.9945469, 16.7941322 ], [ -22.9863892, 16.8230515 ], [ -22.9121761, 16.8379555 ] ] ], [ [ [ -23.1951523, 15.3219728 ], [ -23.1564159, 15.301362 ], [ -23.1377659, 15.3097582 ], [ -23.1200733, 15.2837124 ], [ -23.1055412, 15.2335367 ], [ -23.0994186, 15.1653929 ], [ -23.123848, 15.1374407 ], [ -23.1467762, 15.133606 ], [ -23.1650887, 15.1121216 ], [ -23.2020245, 15.1155291 ], [ -23.2393456, 15.1400528 ], [ -23.2539234, 15.1601486 ], [ -23.2274227, 15.2289925 ], [ -23.2422981, 15.257349 ], [ -23.1951523, 15.3219728 ] ] ], [ [ [ -23.7492676, 15.3210869 ], [ -23.7161217, 15.3218489 ], [ -23.6930161, 15.3060818 ], [ -23.7060661, 15.2822256 ], [ -23.688282, 15.251853 ], [ -23.6300545, 15.2252798 ], [ -23.5863132, 15.1744623 ], [ -23.5383549, 15.1268864 ], [ -23.5141716, 15.1208906 ], [ -23.509222, 15.0938377 ], [ -23.4780998, 15.0477133 ], [ -23.4524593, 15.0359831 ], [ -23.4558411, 14.9842882 ], [ -23.4717712, 14.9648676 ], [ -23.4884357, 14.9190302 ], [ -23.5222778, 14.8932543 ], [ -23.6256237, 14.9120131 ], [ -23.7053013, 14.9509058 ], [ -23.738512, 14.9894123 ], [ -23.726141, 15.0078964 ], [ -23.7629681, 15.0263882 ], [ -23.7893238, 15.0897484 ], [ -23.7771587, 15.1050167 ], [ -23.7783871, 15.1364622 ], [ -23.7679482, 15.2125549 ], [ -23.7521057, 15.240941 ], [ -23.7676029, 15.2531948 ], [ -23.7723656, 15.3089361 ], [ -23.7492676, 15.3210869 ] ] ], [ [ [ -24.3227577, 16.6646404 ], [ -24.2922344, 16.6377087 ], [ -24.2515049, 16.6344891 ], [ -24.2294998, 16.6464157 ], [ -24.1853275, 16.6326828 ], [ -24.1543598, 16.6071148 ], [ -24.1373577, 16.619669 ], [ -24.0782204, 16.6076794 ], [ -24.0496731, 16.5848236 ], [ -24.0219879, 16.576395 ], [ -24.0255375, 16.5506897 ], [ -24.1178303, 16.549284 ], [ -24.1888828, 16.5865803 ], [ -24.2424717, 16.5915031 ], [ -24.2873116, 16.5580082 ], [ -24.3237915, 16.4794426 ], [ -24.3791771, 16.5817318 ], [ -24.3998833, 16.5821838 ], [ -24.4320545, 16.607254 ], [ -24.4308147, 16.644165 ], [ -24.3550377, 16.6777992 ], [ -24.3227577, 16.6646404 ] ] ], [ [ [ -24.3416462, 15.0339842 ], [ -24.3161335, 15.0156708 ], [ -24.3019924, 14.9772491 ], [ -24.2923489, 14.8737803 ], [ -24.331049, 14.8244247 ], [ -24.3797932, 14.8080215 ], [ -24.4259491, 14.813921 ], [ -24.5099106, 14.8788519 ], [ -24.5173492, 14.9283705 ], [ -24.4992275, 14.9761248 ], [ -24.4349556, 15.0225801 ], [ -24.3819962, 15.0459251 ], [ -24.3416462, 15.0339842 ] ] ], [ [ [ -24.6994877, 14.895133 ], [ -24.6785545, 14.8467054 ], [ -24.6807899, 14.8170471 ], [ -24.7096767, 14.8022137 ], [ -24.7580109, 14.8300819 ], [ -24.7597618, 14.856473 ], [ -24.7468395, 14.881443 ], [ -24.6994877, 14.895133 ] ] ], [ [ [ -24.7683258, 16.7958946 ], [ -24.721735, 16.7458458 ], [ -24.7477245, 16.7301674 ], [ -24.7591438, 16.7481232 ], [ -24.7948341, 16.7648544 ], [ -24.7860184, 16.8013992 ], [ -24.7683258, 16.7958946 ] ] ], [ [ [ -24.9221344, 16.9185314 ], [ -24.922575, 16.8802681 ], [ -24.8879662, 16.8571262 ], [ -24.8707275, 16.8142815 ], [ -24.9211769, 16.793684 ], [ -24.9563751, 16.7904663 ], [ -24.9982567, 16.7708855 ], [ -25.0235462, 16.791853 ], [ -25.0667992, 16.8027172 ], [ -25.0842628, 16.8592968 ], [ -25.0562344, 16.8821335 ], [ -25.0241814, 16.8724918 ], [ -25.0, 16.9024353 ], [ -24.9629116, 16.9037857 ], [ -24.9221344, 16.9185314 ] ] ], [ [ [ -25.0674095, 17.1801224 ], [ -25.0259323, 17.1720486 ], [ -25.0249195, 17.1505394 ], [ -25.0052471, 17.1244698 ], [ -24.9704514, 17.1079922 ], [ -24.972538, 17.0862083 ], [ -24.9994621, 17.0503483 ], [ -25.0474873, 17.0242729 ], [ -25.1050701, 17.000576 ], [ -25.1343517, 16.9648952 ], [ -25.1568565, 16.9556465 ], [ -25.1792736, 16.9237175 ], [ -25.2322178, 16.9110546 ], [ -25.2609787, 16.922781 ], [ -25.2922077, 16.9078979 ], [ -25.3172646, 16.926775 ], [ -25.3113232, 16.9598484 ], [ -25.3270016, 17.020319 ], [ -25.3444405, 17.0230408 ], [ -25.3587475, 17.0551243 ], [ -25.3364201, 17.0923252 ], [ -25.2636642, 17.1217804 ], [ -25.2325344, 17.1288681 ], [ -25.1967487, 17.1605206 ], [ -25.1710396, 17.1636314 ], [ -25.112112, 17.1953678 ], [ -25.0851612, 17.195282 ], [ -25.0674095, 17.1801224 ] ] ] ] } }
]
}
