{
"type": "FeatureCollection",
"name": "CRI_GAUL1995_ADM0",
"crs": { "type": "name", "properties": { "name": "urn:ogc:def:crs:OGC:1.3:CRS84" } },
"features": [
{ "type": "Feature", "properties": { "POLYGON_ID": "CRI_GAUL1995_ADM0_61", "ADM0_ISO3": "CRI", "ADM0_NAME": "Costa Rica", "ADM0_CODE": 61, "GEOSET": "GAUL", "GEOSET_YEAR": 1995.0, "GEOSET_VERSION": "GAUL_v1", "GEOSET_UNIT": "ADM0", "CENTROID_LONG": -84.194655119135533, "CENTROID_LAT": 9.9728386698508924 }, "geometry": { "type": "MultiPolygon", "coordinates": [ [ [ [ -83.6928501, 10.9388975 ], [ -83.6692211, 10.932286 ], [ -83.6351199, 10.9027199 ], [ -83.5865399, 10.79768 ], [ -83.58079, 10.73399 ], [ -83.5230699, 10.58781 ], [ -83.4671299, 10.47583 ], [ -83.40982, 10.38356 ], [ -83.37881, 10.34155 ], [ -83.29877, 10.24502 ], [ -83.2723046, 10.2177309 ], [ -83.20882, 10.1359201 ], [ -83.18814, 10.11519 ], [ -83.1328889, 10.0387755 ], [ -83.1041463, 10.0072809 ], [ -83.0504006, 10.0121278 ], [ -83.0275765, 10.0028197 ], [ -83.0304001, 9.9786299 ], [ -83.0102244, 9.9433628 ], [ -82.9341, 9.8439501 ], [ -82.8497982, 9.7417914 ], [ -82.815371, 9.7275145 ], [ -82.7940658, 9.6809346 ], [ -82.7648458, 9.6549347 ], [ -82.67324, 9.63315 ], [ -82.6265199, 9.63634 ], [ -82.60479, 9.59701 ], [ -82.5646372, 9.5719529 ], [ -82.5650139, 9.5605873 ], [ -82.5609738, 9.5584326 ], [ -82.5515052, 9.5451487 ], [ -82.5549585, 9.540375 ], [ -82.5599354, 9.5388514 ], [ -82.5792337, 9.557134 ], [ -82.603105, 9.5566821 ], [ -82.6039643, 9.552464 ], [ -82.5992525, 9.5318325 ], [ -82.6038862, 9.5233276 ], [ -82.6041473, 9.5169135 ], [ -82.6027926, 9.5102045 ], [ -82.6153689, 9.4978626 ], [ -82.6181729, 9.5001383 ], [ -82.6266172, 9.5020026 ], [ -82.6331788, 9.4946599 ], [ -82.6408339, 9.494035 ], [ -82.652629, 9.5000498 ], [ -82.6563004, 9.5123136 ], [ -82.662237, 9.5033305 ], [ -82.6723918, 9.4959879 ], [ -82.6695797, 9.5007528 ], [ -82.6714079, 9.5058595 ], [ -82.6755944, 9.507783 ], [ -82.6870771, 9.5078611 ], [ -82.6869477, 9.508721 ], [ -82.6992238, 9.5450822 ], [ -82.6997891, 9.5415017 ], [ -82.7125812, 9.5491441 ], [ -82.7224235, 9.5506283 ], [ -82.7248451, 9.558674 ], [ -82.7294538, 9.5592208 ], [ -82.735156, 9.5621891 ], [ -82.7349217, 9.564845 ], [ -82.7486697, 9.5889821 ], [ -82.7503101, 9.58203 ], [ -82.7551531, 9.5805458 ], [ -82.7571913, 9.5835351 ], [ -82.7765562, 9.5878885 ], [ -82.7838989, 9.5914817 ], [ -82.7857736, 9.5967934 ], [ -82.7923352, 9.6008553 ], [ -82.7958416, 9.6011783 ], [ -82.7982718, 9.6014021 ], [ -82.8161598, 9.5986682 ], [ -82.8222527, 9.6042142 ], [ -82.8277987, 9.6117131 ], [ -82.8320626, 9.6109252 ], [ -82.8432652, 9.6128848 ], [ -82.8443122, 9.6162103 ], [ -82.8591411, 9.6121748 ], [ -82.8578725, 9.6069482 ], [ -82.8624812, 9.6005429 ], [ -82.8601378, 9.5921847 ], [ -82.8641997, 9.5905443 ], [ -82.8703706, 9.5938251 ], [ -82.877246, 9.5910318 ], [ -82.8761511, 9.5801552 ], [ -82.8822434, 9.5724885 ], [ -82.8789631, 9.5553932 ], [ -82.8758386, 9.5528155 ], [ -82.8715358, 9.5552498 ], [ -82.8713402, 9.5408016 ], [ -82.8742197, 9.5385467 ], [ -82.873021, 9.5365279 ], [ -82.8568968, 9.5123833 ], [ -82.8562597, 9.5106311 ], [ -82.8476182, 9.5145735 ], [ -82.8404501, 9.4962551 ], [ -82.9325476, 9.4766896 ], [ -82.9361433, 9.4749865 ], [ -82.9362585, 9.2302619 ], [ -82.9363308, 9.0769061 ], [ -82.8906244, 9.0880906 ], [ -82.8761305, 9.0591029 ], [ -82.8159578, 9.0280956 ], [ -82.8010595, 9.0031717 ], [ -82.7741753, 9.0025556 ], [ -82.7372655, 8.9758394 ], [ -82.738458, 8.9716144 ], [ -82.7164862, 8.9420661 ], [ -82.7141441, 8.9305773 ], [ -82.7207989, 8.9204467 ], [ -82.7257837, 8.916302 ], [ -82.7619093, 8.884153 ], [ -82.7966348, 8.8773759 ], [ -82.8076125, 8.8739034 ], [ -82.8493076, 8.8544153 ], [ -82.8543239, 8.8563166 ], [ -82.8610315, 8.8504776 ], [ -82.8621091, 8.8495395 ], [ -82.864752, 8.8481184 ], [ -82.8847367, 8.8286482 ], [ -82.8638454, 8.8131898 ], [ -82.8875371, 8.7934747 ], [ -82.8906176, 8.7903382 ], [ -82.8902839, 8.7860814 ], [ -82.8909536, 8.7837852 ], [ -82.8927171, 8.7828396 ], [ -82.8948182, 8.7817129 ], [ -82.8930849, 8.7797869 ], [ -82.9159136, 8.7630781 ], [ -82.9154295, 8.7602615 ], [ -82.9147265, 8.7601514 ], [ -82.9107808, 8.7595334 ], [ -82.9102207, 8.7539885 ], [ -82.9141313, 8.7523188 ], [ -82.9131996, 8.7395826 ], [ -82.9085826, 8.734929 ], [ -82.8792588, 8.6965557 ], [ -82.8743217, 8.6970653 ], [ -82.8549684, 8.6617931 ], [ -82.8486934, 8.6568066 ], [ -82.8446594, 8.6553499 ], [ -82.8356951, 8.6438644 ], [ -82.8345185, 8.6408389 ], [ -82.8327623, 8.6363583 ], [ -82.8308207, 8.6354603 ], [ -82.8297908, 8.6305681 ], [ -82.8341263, 8.6078389 ], [ -82.8328739, 8.6068745 ], [ -82.8268902, 8.5789295 ], [ -82.8241534, 8.5732701 ], [ -82.8342853, 8.5517222 ], [ -82.835471, 8.5509152 ], [ -82.8360509, 8.5498225 ], [ -82.8383135, 8.5455599 ], [ -82.8371984, 8.5277103 ], [ -82.8341895, 8.5236639 ], [ -82.8335806, 8.5117206 ], [ -82.8336243, 8.5079886 ], [ -82.8394375, 8.4794825 ], [ -82.8678575, 8.4397376 ], [ -82.8887527, 8.4350027 ], [ -82.9021541, 8.4319658 ], [ -82.9147935, 8.4291017 ], [ -82.9284481, 8.4343982 ], [ -82.9529451, 8.4141763 ], [ -82.9772322, 8.3794805 ], [ -82.9838916, 8.3713661 ], [ -83.0031936, 8.3613794 ], [ -83.0036458, 8.357264 ], [ -83.0098575, 8.3532348 ], [ -83.0160692, 8.3542421 ], [ -83.0183076, 8.3523394 ], [ -83.0184556, 8.3495727 ], [ -83.0388071, 8.346612 ], [ -83.0462743, 8.3407449 ], [ -83.0452358, 8.3353295 ], [ -83.0513241, 8.334284 ], [ -83.0468154, 8.3203779 ], [ -83.0424236, 8.3166669 ], [ -83.0342158, 8.3168578 ], [ -83.034693, 8.3127539 ], [ -83.0331873, 8.3120515 ], [ -83.027406, 8.3146075 ], [ -83.022947, 8.3097551 ], [ -82.976917, 8.2878311 ], [ -82.9747057, 8.2870542 ], [ -82.9483502, 8.2685277 ], [ -82.9423739, 8.2710377 ], [ -82.929226, 8.2426502 ], [ -82.9352945, 8.2077639 ], [ -82.906136, 8.1745713 ], [ -82.9034085, 8.1736459 ], [ -82.9062064, 8.1709014 ], [ -82.9104083, 8.1667797 ], [ -82.9081824, 8.1621828 ], [ -82.898716, 8.1229563 ], [ -82.8934249, 8.1169229 ], [ -82.8870164, 8.1040764 ], [ -82.8909391, 8.1027132 ], [ -82.8929718, 8.1020068 ], [ -82.8907585, 8.0964618 ], [ -82.8880117, 8.0777959 ], [ -82.891837, 8.0732534 ], [ -82.89471, 8.0530388 ], [ -82.8916258, 8.0526802 ], [ -82.8905499, 8.0505284 ], [ -82.8961991, 8.04639 ], [ -82.9003945, 8.0397786 ], [ -82.9156203, 8.0583813 ], [ -82.90307, 8.0785801 ], [ -82.903417, 8.1150908 ], [ -82.93289, 8.17983 ], [ -82.9726299, 8.24096 ], [ -83.03936, 8.2924099 ], [ -83.1101589, 8.3317863 ], [ -83.1454427, 8.3662528 ], [ -83.13152, 8.4019299 ], [ -83.11422, 8.40963 ], [ -83.09206, 8.4490301 ], [ -83.1178438, 8.4962043 ], [ -83.1061301, 8.53913 ], [ -83.1525099, 8.5713301 ], [ -83.1413663, 8.6141829 ], [ -83.175023, 8.6444246 ], [ -83.1820905, 8.6218287 ], [ -83.2547816, 8.6572246 ], [ -83.2890024, 8.6579154 ], [ -83.3287835, 8.6804294 ], [ -83.3305229, 8.7206507 ], [ -83.3830224, 8.7458265 ], [ -83.42014, 8.71849 ], [ -83.47943, 8.7203001 ], [ -83.43202, 8.65209 ], [ -83.4358899, 8.63133 ], [ -83.37368, 8.57519 ], [ -83.3238422, 8.5686121 ], [ -83.3055036, 8.5399738 ], [ -83.2850775, 8.5327721 ], [ -83.2900001, 8.49455 ], [ -83.27094, 8.4652999 ], [ -83.2808829, 8.3977951 ], [ -83.2936639, 8.3744469 ], [ -83.4442299, 8.43798 ], [ -83.5125901, 8.44875 ], [ -83.5455365, 8.4399092 ], [ -83.5895827, 8.4595156 ], [ -83.6088001, 8.4921385 ], [ -83.6481659, 8.5211755 ], [ -83.7109068, 8.5842711 ], [ -83.7325399, 8.5917188 ], [ -83.73241, 8.6413763 ], [ -83.7149065, 8.6477893 ], [ -83.7075707, 8.6886196 ], [ -83.6552688, 8.696799 ], [ -83.6406807, 8.7360533 ], [ -83.6469582, 8.7963062 ], [ -83.6385368, 8.8118082 ], [ -83.5790136, 8.8475924 ], [ -83.6073377, 8.8735432 ], [ -83.5972097, 8.8988137 ], [ -83.61971, 8.91817 ], [ -83.63195, 8.98221 ], [ -83.6311047, 9.0156344 ], [ -83.6580484, 9.0712336 ], [ -83.73033, 9.14784 ], [ -83.7488979, 9.153849 ], [ -83.7759671, 9.1903609 ], [ -83.8217701, 9.21099 ], [ -83.8543853, 9.2453712 ], [ -83.9296022, 9.3006399 ], [ -84.0038991, 9.3369796 ], [ -84.07634, 9.3656901 ], [ -84.1365852, 9.3799383 ], [ -84.1648616, 9.4025017 ], [ -84.1659609, 9.4309373 ], [ -84.218377, 9.4626266 ], [ -84.3150154, 9.4890969 ], [ -84.4244699, 9.5140199 ], [ -84.4716109, 9.5286522 ], [ -84.53547, 9.5185601 ], [ -84.5421701, 9.5290571 ], [ -84.6134, 9.5802699 ], [ -84.6224401, 9.6018914 ], [ -84.6577101, 9.62681 ], [ -84.6750588, 9.6964671 ], [ -84.6315002, 9.7412517 ], [ -84.6277758, 9.7620721 ], [ -84.6545176, 9.810378 ], [ -84.6982305, 9.8662952 ], [ -84.7290394, 9.891909 ], [ -84.7121772, 9.9188714 ], [ -84.7359882, 9.9426245 ], [ -84.7434174, 9.970324 ], [ -84.8108093, 9.9803488 ], [ -84.8839552, 10.011187 ], [ -84.9550783, 10.0597875 ], [ -84.9683227, 10.090223 ], [ -85.0026792, 10.1042337 ], [ -85.0162468, 10.1240866 ], [ -85.0686576, 10.151516 ], [ -85.08093, 10.1721739 ], [ -85.1091099, 10.1762899 ], [ -85.1429475, 10.1601178 ], [ -85.21656, 10.1833003 ], [ -85.2410627, 10.2304941 ], [ -85.2472309, 10.1763547 ], [ -85.2397582, 10.1102001 ], [ -85.2296147, 10.0948458 ], [ -85.1944417, 10.0831922 ], [ -85.1858238, 10.0387246 ], [ -85.1317624, 9.9909044 ], [ -85.0914573, 9.9720109 ], [ -85.0502852, 9.9751714 ], [ -85.0101091, 9.9393653 ], [ -84.959634, 9.9418025 ], [ -84.9239999, 9.9250299 ], [ -84.93869, 9.88184 ], [ -84.92295, 9.87161 ], [ -84.9229174, 9.7925202 ], [ -84.9336, 9.76021 ], [ -84.95127, 9.7590301 ], [ -84.9553499, 9.7284 ], [ -84.98665, 9.7489399 ], [ -85.01452, 9.7349299 ], [ -85.00751, 9.68994 ], [ -85.03508, 9.6828801 ], [ -85.0679296, 9.654067 ], [ -85.09414, 9.56921 ], [ -85.1139169, 9.5652086 ], [ -85.14286, 9.5833899 ], [ -85.14707, 9.62026 ], [ -85.1976999, 9.6689601 ], [ -85.2267399, 9.72785 ], [ -85.2693731, 9.7592817 ], [ -85.27293, 9.7860699 ], [ -85.2909899, 9.80677 ], [ -85.3281099, 9.8149401 ], [ -85.34284, 9.8317699 ], [ -85.39807, 9.85303 ], [ -85.4515002, 9.8625625 ], [ -85.4630197, 9.8492865 ], [ -85.5337501, 9.8742989 ], [ -85.6272174, 9.8927269 ], [ -85.6611901, 9.91306 ], [ -85.66423, 9.9324 ], [ -85.69947, 9.99336 ], [ -85.7438233, 10.0335951 ], [ -85.7777462, 10.0804652 ], [ -85.8182246, 10.1785092 ], [ -85.8364079, 10.2010263 ], [ -85.8374591, 10.2280179 ], [ -85.8530801, 10.2622101 ], [ -85.8382378, 10.3084584 ], [ -85.8574714, 10.3455401 ], [ -85.8329401, 10.3962801 ], [ -85.7993174, 10.406147 ], [ -85.794396, 10.4295761 ], [ -85.7723918, 10.4491496 ], [ -85.79654, 10.4841399 ], [ -85.7922501, 10.51687 ], [ -85.7757143, 10.5410321 ], [ -85.7584725, 10.5305389 ], [ -85.7126994, 10.5561759 ], [ -85.6958656, 10.5535687 ], [ -85.68036, 10.58858 ], [ -85.6506399, 10.5912901 ], [ -85.6324901, 10.63373 ], [ -85.6748799, 10.65092 ], [ -85.6531999, 10.66538 ], [ -85.66315, 10.74235 ], [ -85.65835, 10.76603 ], [ -85.6794399, 10.80117 ], [ -85.6945699, 10.7994299 ], [ -85.74428, 10.81871 ], [ -85.76518, 10.80359 ], [ -85.80222, 10.8274401 ], [ -85.7793501, 10.84539 ], [ -85.85401, 10.8546999 ], [ -85.86501, 10.87511 ], [ -85.92854, 10.90019 ], [ -85.81598, 10.94346 ], [ -85.79074, 10.9313801 ], [ -85.7366801, 10.93854 ], [ -85.69893, 10.93577 ], [ -85.6900293, 10.9783079 ], [ -85.7520133, 11.0181194 ], [ -85.7406478, 11.0435891 ], [ -85.6882827, 11.0271284 ], [ -85.66426, 11.0490001 ], [ -85.6948167, 11.080328 ], [ -85.60976, 11.21682 ], [ -85.55874, 11.2082 ], [ -85.52058, 11.16254 ], [ -85.41471, 11.12413 ], [ -85.35767, 11.12436 ], [ -85.20685, 11.04974 ], [ -84.98882, 10.97214 ], [ -84.91411, 10.94132 ], [ -84.79453, 11.01051 ], [ -84.68098, 11.07932 ], [ -84.6077, 11.03837 ], [ -84.57217, 11.0499 ], [ -84.56209, 11.0316 ], [ -84.48812, 11.00068 ], [ -84.45442, 10.96429 ], [ -84.42613, 10.95481 ], [ -84.36376, 10.99263 ], [ -84.34481, 10.97335 ], [ -84.35219, 10.95231 ], [ -84.32665, 10.91296 ], [ -84.30598, 10.912 ], [ -84.28428, 10.88856 ], [ -84.22674, 10.86906 ], [ -84.21822, 10.83672 ], [ -84.22879, 10.80186 ], [ -84.17506, 10.78358 ], [ -84.13273, 10.78729 ], [ -84.1266508, 10.7697324 ], [ -84.06426, 10.76514 ], [ -84.02514, 10.78928 ], [ -84.0080907, 10.7640416 ], [ -83.97658, 10.74623 ], [ -83.96831, 10.72919 ], [ -83.93599, 10.70843 ], [ -83.9013203, 10.7206897 ], [ -83.86689, 10.71834 ], [ -83.83195, 10.74647 ], [ -83.81538, 10.74518 ], [ -83.7926904, 10.7683797 ], [ -83.76497, 10.76792 ], [ -83.73856, 10.78275 ], [ -83.67791, 10.79375 ], [ -83.66461, 10.8203 ], [ -83.67399, 10.84724 ], [ -83.67745, 10.91126 ], [ -83.6928501, 10.9388975 ] ] ], [ [ [ -85.1498141, 10.1208938 ], [ -85.1017527, 10.0840854 ], [ -85.1415799, 10.0728909 ], [ -85.1831089, 10.0849542 ], [ -85.1943645, 10.1209794 ], [ -85.1498141, 10.1208938 ] ] ], [ [ [ -87.04795, 5.5571001 ], [ -87.03406, 5.5242299 ], [ -87.07831, 5.5015399 ], [ -87.0826901, 5.5395699 ], [ -87.04795, 5.5571001 ] ] ] ] } }
]
}
