{
"type": "FeatureCollection",
"name": "CUB_GAUL2010_ADM0",
"crs": { "type": "name", "properties": { "name": "urn:ogc:def:crs:OGC:1.3:CRS84" } },
"features": [
{ "type": "Feature", "properties": { "POLYGON_ID": "CUB_GAUL2010_ADM0_63", "ADM0_ISO3": "CUB", "ADM0_NAME": "Cuba", "ADM0_CODE": 63, "GEOSET": "GAUL", "GEOSET_YEAR": 2010.0, "GEOSET_VERSION": "GAUL_v1", "GEOSET_UNIT": "ADM0", "CENTROID_LONG": -79.00998331053097, "CENTROID_LAT": 21.622044807912498 }, "geometry": { "type": "MultiPolygon", "coordinates": [ [ [ [ -82.0250671, 23.1870434 ], [ -81.9840229, 23.1675937 ], [ -81.9314537, 23.1577968 ], [ -81.7724831, 23.1462939 ], [ -81.6780422, 23.1462813 ], [ -81.6069572, 23.1537661 ], [ -81.5653917, 23.1442917 ], [ -81.542973, 23.1296065 ], [ -81.5276217, 23.0749097 ], [ -81.5721893, 23.0487738 ], [ -81.5500692, 23.0361254 ], [ -81.4978788, 23.0476581 ], [ -81.4745761, 23.0949122 ], [ -81.4533771, 23.0883582 ], [ -81.4112832, 23.0982285 ], [ -81.3207153, 23.1317722 ], [ -81.2776969, 23.1299726 ], [ -81.2512827, 23.1077727 ], [ -81.2113113, 23.0598528 ], [ -81.1693831, 23.0245238 ], [ -81.1285175, 23.0181706 ], [ -81.0893027, 23.0578155 ], [ -81.0775198, 23.0869162 ], [ -81.0265221, 23.1017024 ], [ -80.9870498, 23.0991427 ], [ -80.9769218, 23.0574509 ], [ -80.9365819, 23.0502266 ], [ -80.8557289, 23.0737186 ], [ -80.8013122, 23.0715075 ], [ -80.7438057, 23.0929845 ], [ -80.661237, 23.0764448 ], [ -80.625531, 23.0955109 ], [ -80.5860488, 23.0437088 ], [ -80.5572097, 23.0343886 ], [ -80.5343285, 22.9882262 ], [ -80.4861471, 22.9869859 ], [ -80.4560829, 22.9593062 ], [ -80.406535, 22.9399079 ], [ -80.3721006, 22.935533 ], [ -80.364998, 22.9832603 ], [ -80.347199, 22.9771723 ], [ -80.2968553, 22.9896493 ], [ -80.2905971, 23.0069317 ], [ -80.2503169, 22.9915347 ], [ -80.2755438, 22.9642101 ], [ -80.3133532, 22.9669611 ], [ -80.3420283, 22.944076 ], [ -80.2837132, 22.9062101 ], [ -80.2305882, 22.9063651 ], [ -80.1812142, 22.9292077 ], [ -80.1397298, 22.9645871 ], [ -80.1088307, 22.9405604 ], [ -80.0545857, 22.9307588 ], [ -80.0071534, 22.9414048 ], [ -80.0074967, 22.9151604 ], [ -79.967105, 22.8660193 ], [ -79.9303556, 22.8671224 ], [ -79.9041628, 22.8405338 ], [ -79.8844023, 22.8502616 ], [ -79.881484, 22.8785746 ], [ -79.8552198, 22.8752533 ], [ -79.8097296, 22.8871148 ], [ -79.8018332, 22.8638652 ], [ -79.859683, 22.8649724 ], [ -79.8658629, 22.8360237 ], [ -79.8534063, 22.7962152 ], [ -79.7991136, 22.8007467 ], [ -79.7163954, 22.759229 ], [ -79.7038158, 22.7452173 ], [ -79.6730884, 22.7684871 ], [ -79.6469959, 22.7623139 ], [ -79.6381352, 22.7127276 ], [ -79.6128273, 22.6594578 ], [ -79.5521764, 22.6084334 ], [ -79.5457851, 22.5820477 ], [ -79.522641, 22.5455316 ], [ -79.4850326, 22.5254746 ], [ -79.4545513, 22.5243832 ], [ -79.4243643, 22.4944406 ], [ -79.4082043, 22.4624375 ], [ -79.3814963, 22.4510277 ], [ -79.368579, 22.4254251 ], [ -79.3053624, 22.3990102 ], [ -79.2768152, 22.3939687 ], [ -79.2491891, 22.3724086 ], [ -79.2103851, 22.38908 ], [ -79.1983388, 22.3782041 ], [ -79.1498883, 22.3762959 ], [ -79.122901, 22.3960474 ], [ -79.0863302, 22.3790634 ], [ -79.031562, 22.4014616 ], [ -79.0061339, 22.40327 ], [ -78.9529944, 22.3872012 ], [ -78.8824983, 22.4014585 ], [ -78.8554408, 22.3854334 ], [ -78.8111893, 22.3811214 ], [ -78.7778025, 22.3885119 ], [ -78.7722752, 22.3435958 ], [ -78.7547645, 22.3139364 ], [ -78.7158328, 22.3082624 ], [ -78.7030676, 22.3464876 ], [ -78.7362263, 22.3836009 ], [ -78.6936543, 22.3804263 ], [ -78.6579488, 22.3588372 ], [ -78.6490261, 22.3390912 ], [ -78.6192602, 22.3333396 ], [ -78.5884456, 22.3111139 ], [ -78.5481084, 22.3051311 ], [ -78.5061534, 22.2623512 ], [ -78.4807996, 22.2547669 ], [ -78.4387413, 22.258512 ], [ -78.4280793, 22.2415287 ], [ -78.3809509, 22.2350302 ], [ -78.348615, 22.1990375 ], [ -78.2861696, 22.1695497 ], [ -78.2316067, 22.1260377 ], [ -78.1994361, 22.1335834 ], [ -78.1826686, 22.1545774 ], [ -78.1176569, 22.0978879 ], [ -78.056975, 22.0731918 ], [ -78.0207417, 22.0234613 ], [ -78.0022191, 22.0084559 ], [ -77.9958531, 21.9735248 ], [ -77.9524333, 21.952034 ], [ -77.9176118, 21.9106612 ], [ -77.8967612, 21.8628078 ], [ -77.8729135, 21.859892 ], [ -77.853804, 21.9054029 ], [ -77.8077303, 21.8653574 ], [ -77.7692188, 21.8722985 ], [ -77.7434554, 21.7968294 ], [ -77.6712986, 21.7730261 ], [ -77.5750698, 21.7726985 ], [ -77.515675, 21.7325202 ], [ -77.5012554, 21.7084397 ], [ -77.4658932, 21.6964777 ], [ -77.4612583, 21.7377823 ], [ -77.4473237, 21.7525656 ], [ -77.4378404, 21.8065336 ], [ -77.4011315, 21.7746691 ], [ -77.3215277, 21.7473003 ], [ -77.3060672, 21.728799 ], [ -77.2414371, 21.7015021 ], [ -77.2217673, 21.6819963 ], [ -77.1670852, 21.6513417 ], [ -77.1215794, 21.6091082 ], [ -77.064878, 21.5932269 ], [ -77.0276761, 21.5402102 ], [ -76.9961346, 21.5225168 ], [ -76.9522652, 21.4695038 ], [ -76.882515, 21.4264571 ], [ -76.8489895, 21.4200019 ], [ -76.8134702, 21.3866064 ], [ -76.8293694, 21.3486023 ], [ -76.8825466, 21.3520634 ], [ -76.8731844, 21.2975253 ], [ -76.8474724, 21.3301057 ], [ -76.8227172, 21.3460188 ], [ -76.8011334, 21.38621 ], [ -76.7780108, 21.3718659 ], [ -76.7134546, 21.3661585 ], [ -76.6396942, 21.3367811 ], [ -76.6235339, 21.3010903 ], [ -76.5769391, 21.2817959 ], [ -76.5481042, 21.2899999 ], [ -76.5174487, 21.2785517 ], [ -76.3800132, 21.2768687 ], [ -76.3101673, 21.2511325 ], [ -76.2962202, 21.2364135 ], [ -76.2442817, 21.2101287 ], [ -76.2139709, 21.2047008 ], [ -76.1930702, 21.1853758 ], [ -76.1479333, 21.1693386 ], [ -76.1097569, 21.1141309 ], [ -76.0169837, 21.0845675 ], [ -75.9355769, 21.097868 ], [ -75.9114414, 21.1155826 ], [ -75.893159, 21.1107347 ], [ -75.810834, 21.1333439 ], [ -75.778266, 21.1209543 ], [ -75.7180129, 21.126879 ], [ -75.6728755, 21.0926149 ], [ -75.6749036, 21.0683992 ], [ -75.6192329, 21.0726845 ], [ -75.5732412, 21.0060608 ], [ -75.590599, 20.9603909 ], [ -75.6250356, 20.9128101 ], [ -75.6582626, 20.8806204 ], [ -75.6973759, 20.9221873 ], [ -75.743399, 20.9171989 ], [ -75.7413697, 20.8838317 ], [ -75.7262755, 20.8643594 ], [ -75.6742107, 20.8750031 ], [ -75.6205635, 20.8738027 ], [ -75.5765343, 20.8501562 ], [ -75.5518608, 20.8262027 ], [ -75.5522828, 20.7875726 ], [ -75.5808368, 20.791864 ], [ -75.6174108, 20.8384678 ], [ -75.6533013, 20.840267 ], [ -75.7089063, 20.8232051 ], [ -75.7560158, 20.8390314 ], [ -75.7749107, 20.7908568 ], [ -75.7820612, 20.7428113 ], [ -75.7699933, 20.7139904 ], [ -75.7185872, 20.6907973 ], [ -75.6905654, 20.6988049 ], [ -75.6885366, 20.7266761 ], [ -75.6576855, 20.7421397 ], [ -75.6153775, 20.7775539 ], [ -75.5928697, 20.7434001 ], [ -75.5671769, 20.7421803 ], [ -75.5658133, 20.7779417 ], [ -75.5403333, 20.7710385 ], [ -75.5085632, 20.784616 ], [ -75.4745128, 20.7393048 ], [ -75.5479375, 20.73938 ], [ -75.5745713, 20.7247499 ], [ -75.5802967, 20.6901177 ], [ -75.535919, 20.6916914 ], [ -75.5013135, 20.6831618 ], [ -75.4791812, 20.6998195 ], [ -75.4402723, 20.7045713 ], [ -75.4697043, 20.7380572 ], [ -75.4309633, 20.7454376 ], [ -75.3732891, 20.7339659 ], [ -75.3277913, 20.7155503 ], [ -75.3662331, 20.7009222 ], [ -75.3561413, 20.6754844 ], [ -75.3242019, 20.6562225 ], [ -75.2908267, 20.6665543 ], [ -75.3191043, 20.7202386 ], [ -75.290231, 20.7114206 ], [ -75.2280137, 20.719705 ], [ -75.1582416, 20.694572 ], [ -75.048994, 20.6876841 ], [ -74.9850072, 20.6968606 ], [ -74.9510012, 20.6805002 ], [ -74.9339745, 20.6596309 ], [ -74.9090836, 20.666969 ], [ -74.8758671, 20.6577937 ], [ -74.8410298, 20.6219146 ], [ -74.8154701, 20.6298598 ], [ -74.7888412, 20.6205213 ], [ -74.7578143, 20.6259042 ], [ -74.6953432, 20.5330065 ], [ -74.6280871, 20.5022579 ], [ -74.5706688, 20.458351 ], [ -74.5566682, 20.426033 ], [ -74.5384547, 20.4186478 ], [ -74.5193759, 20.3748912 ], [ -74.4913981, 20.3420315 ], [ -74.4499542, 20.3453918 ], [ -74.3898159, 20.2998492 ], [ -74.3007067, 20.2970105 ], [ -74.2889726, 20.3096752 ], [ -74.2285971, 20.3181981 ], [ -74.1981862, 20.3036085 ], [ -74.1496587, 20.2597912 ], [ -74.1312644, 20.2087147 ], [ -74.1492926, 20.175298 ], [ -74.2212527, 20.1379209 ], [ -74.2349719, 20.0927816 ], [ -74.2512846, 20.0768769 ], [ -74.2963804, 20.0662403 ], [ -74.3104376, 20.080151 ], [ -74.4050011, 20.0771565 ], [ -74.4602241, 20.0661369 ], [ -74.487489, 20.0695289 ], [ -74.5351745, 20.0618648 ], [ -74.5746104, 20.0476775 ], [ -74.6086964, 20.054486 ], [ -74.650734, 20.0420874 ], [ -74.7180408, 20.0537296 ], [ -74.7940575, 20.0383417 ], [ -74.8369456, 20.0346331 ], [ -74.8731483, 20.0065956 ], [ -74.881433, 19.9894933 ], [ -74.9186331, 19.9748467 ], [ -74.9464331, 19.9757798 ], [ -74.9831331, 19.9210312 ], [ -75.021681, 19.9077043 ], [ -75.1642133, 19.8919964 ], [ -75.1288317, 19.9395259 ], [ -75.1052393, 19.9501632 ], [ -75.1323417, 19.9810691 ], [ -75.0983948, 19.9915943 ], [ -75.0816845, 20.0335647 ], [ -75.107578, 20.0597011 ], [ -75.1246153, 20.0353347 ], [ -75.1558749, 20.0312948 ], [ -75.1775466, 19.9989712 ], [ -75.1423623, 19.9820476 ], [ -75.1640731, 19.9481534 ], [ -75.2053349, 19.9103489 ], [ -75.2953514, 19.8821816 ], [ -75.3560806, 19.8802577 ], [ -75.4153515, 19.8848865 ], [ -75.4418222, 19.9044168 ], [ -75.4558664, 19.8904079 ], [ -75.4950983, 19.8829142 ], [ -75.5984621, 19.8945365 ], [ -75.6235247, 19.9043826 ], [ -75.7027886, 19.9591967 ], [ -75.7507593, 19.9502092 ], [ -75.8241875, 19.9682159 ], [ -75.9408731, 19.9658583 ], [ -75.9696865, 19.9557982 ], [ -76.0698442, 19.963285 ], [ -76.1494951, 19.9886144 ], [ -76.184092, 19.9841347 ], [ -76.2243395, 19.9952284 ], [ -76.2768047, 19.9886338 ], [ -76.3053636, 19.9711908 ], [ -76.3499956, 19.9619943 ], [ -76.390336, 19.9699001 ], [ -76.4514475, 19.9648985 ], [ -76.4905863, 19.951829 ], [ -76.5741798, 19.944913 ], [ -76.6701365, 19.9619069 ], [ -76.7110294, 19.9432974 ], [ -76.7619881, 19.9481957 ], [ -76.7926545, 19.9333445 ], [ -76.8703012, 19.9373061 ], [ -76.9234703, 19.9015036 ], [ -76.9890926, 19.8854459 ], [ -77.0254831, 19.8934065 ], [ -77.074235, 19.8866269 ], [ -77.1709215, 19.9016089 ], [ -77.1964894, 19.9166176 ], [ -77.2446885, 19.9046701 ], [ -77.2669941, 19.9135364 ], [ -77.3122421, 19.911912 ], [ -77.3357261, 19.8898167 ], [ -77.3151793, 19.8765127 ], [ -77.3516397, 19.8543386 ], [ -77.4199235, 19.8477285 ], [ -77.4430395, 19.8617525 ], [ -77.5075083, 19.8425518 ], [ -77.5868255, 19.8521765 ], [ -77.676283, 19.8264289 ], [ -77.7253732, 19.8403755 ], [ -77.7407961, 19.8751653 ], [ -77.7053165, 19.9265957 ], [ -77.6698183, 19.9440649 ], [ -77.6074498, 20.041301 ], [ -77.504311, 20.1018879 ], [ -77.4689488, 20.1486301 ], [ -77.4140171, 20.1766688 ], [ -77.3814015, 20.2079243 ], [ -77.2746281, 20.2427169 ], [ -77.2375492, 20.290383 ], [ -77.2190098, 20.2717048 ], [ -77.1833042, 20.2845865 ], [ -77.1572117, 20.3290204 ], [ -77.1247368, 20.3461754 ], [ -77.1077732, 20.3705448 ], [ -77.1049694, 20.4175791 ], [ -77.0878605, 20.4236412 ], [ -77.0895508, 20.4660276 ], [ -77.110302, 20.5099605 ], [ -77.1430893, 20.5261984 ], [ -77.1865196, 20.5274845 ], [ -77.2452278, 20.5440421 ], [ -77.2488327, 20.5675089 ], [ -77.2366447, 20.5967571 ], [ -77.2159932, 20.6034123 ], [ -77.1981404, 20.6332961 ], [ -77.2441457, 20.6615679 ], [ -77.2637151, 20.6410071 ], [ -77.31796, 20.7055715 ], [ -77.3575402, 20.7153855 ], [ -77.3850399, 20.7092192 ], [ -77.4720537, 20.6693273 ], [ -77.5643605, 20.6941936 ], [ -77.64383, 20.6867789 ], [ -77.7066747, 20.6939715 ], [ -77.7465002, 20.6844966 ], [ -77.8498403, 20.7246403 ], [ -77.8988621, 20.7251602 ], [ -77.9232381, 20.6933674 ], [ -77.9615435, 20.7039159 ], [ -78.0407278, 20.6997525 ], [ -78.0922823, 20.7376334 ], [ -78.1439598, 20.7620291 ], [ -78.1682722, 20.8100307 ], [ -78.2101576, 20.8382695 ], [ -78.2405416, 20.8320125 ], [ -78.2683781, 20.9035326 ], [ -78.3184759, 20.917342 ], [ -78.3293854, 20.9399409 ], [ -78.3964102, 20.9580649 ], [ -78.4052632, 20.9859935 ], [ -78.4856007, 21.0263773 ], [ -78.4952138, 21.0580997 ], [ -78.4910939, 21.0926983 ], [ -78.5031102, 21.1228053 ], [ -78.498892, 21.1584713 ], [ -78.5230229, 21.1980461 ], [ -78.5294444, 21.2542917 ], [ -78.4994403, 21.2745051 ], [ -78.5504887, 21.3202707 ], [ -78.5559819, 21.3784676 ], [ -78.5790419, 21.4163307 ], [ -78.586611, 21.450504 ], [ -78.6061804, 21.487087 ], [ -78.6729321, 21.5512382 ], [ -78.7257606, 21.5622497 ], [ -78.7754439, 21.55577 ], [ -78.7439919, 21.5933979 ], [ -78.7024878, 21.601105 ], [ -78.7240466, 21.6244894 ], [ -78.8436233, 21.6235501 ], [ -78.8847092, 21.6085722 ], [ -78.8914136, 21.5915664 ], [ -78.9321399, 21.5998103 ], [ -78.9931466, 21.5966004 ], [ -79.0265503, 21.5866376 ], [ -79.0651349, 21.5890125 ], [ -79.128208, 21.5565683 ], [ -79.2175702, 21.5427157 ], [ -79.2937879, 21.5625134 ], [ -79.3603925, 21.6024199 ], [ -79.4091443, 21.5902895 ], [ -79.4572095, 21.5992278 ], [ -79.5060835, 21.6379087 ], [ -79.5305484, 21.6147559 ], [ -79.563623, 21.6407425 ], [ -79.5921768, 21.63866 ], [ -79.6074025, 21.6689118 ], [ -79.6591185, 21.6890982 ], [ -79.7162271, 21.6752438 ], [ -79.7564277, 21.7037982 ], [ -79.8151359, 21.7093803 ], [ -79.8208008, 21.667908 ], [ -79.8851884, 21.7407576 ], [ -79.9113314, 21.7343374 ], [ -79.9899144, 21.7537828 ], [ -80.023673, 21.7549389 ], [ -80.0445003, 21.8058119 ], [ -80.1490049, 21.824099 ], [ -80.2202466, 21.8648752 ], [ -80.2901701, 21.8975563 ], [ -80.3399368, 21.9609455 ], [ -80.3778336, 21.9825303 ], [ -80.4240756, 22.0382713 ], [ -80.4414595, 22.0323454 ], [ -80.4612717, 22.061452 ], [ -80.40975, 22.07625 ], [ -80.4035, 22.09925 ], [ -80.451484, 22.12632 ], [ -80.4471602, 22.1571071 ], [ -80.487, 22.18 ], [ -80.538, 22.18275 ], [ -80.5459658, 22.1557628 ], [ -80.5095015, 22.1315159 ], [ -80.4616881, 22.0784524 ], [ -80.4737869, 22.0390135 ], [ -80.5172172, 22.0612883 ], [ -80.546743, 22.0617656 ], [ -80.6025288, 22.0431927 ], [ -80.6307449, 22.0515073 ], [ -80.7568704, 22.0583707 ], [ -80.8066117, 22.0539221 ], [ -80.8837661, 22.0377029 ], [ -80.9665191, 22.0448672 ], [ -81.0474736, 22.0663595 ], [ -81.0832106, 22.0815277 ], [ -81.1145564, 22.1071776 ], [ -81.1408214, 22.173019 ], [ -81.1405392, 22.220619 ], [ -81.1844686, 22.2798983 ], [ -81.2187375, 22.2759568 ], [ -81.1995025, 22.2225942 ], [ -81.1976734, 22.1760385 ], [ -81.2326814, 22.1335317 ], [ -81.2608339, 22.1316235 ], [ -81.2931062, 22.0920236 ], [ -81.3622858, 22.0761169 ], [ -81.3708688, 22.1034753 ], [ -81.4000513, 22.0969543 ], [ -81.3841533, 22.1497444 ], [ -81.4138507, 22.1818574 ], [ -81.4814853, 22.1788372 ], [ -81.5171406, 22.1980839 ], [ -81.5694852, 22.1735034 ], [ -81.5949804, 22.1887047 ], [ -81.6554876, 22.1874917 ], [ -81.7272421, 22.1948033 ], [ -81.7563421, 22.1640654 ], [ -81.7889578, 22.1829824 ], [ -81.8174822, 22.1819906 ], [ -81.8485243, 22.2006254 ], [ -81.8531776, 22.2367649 ], [ -81.8663548, 22.2567184 ], [ -81.9536031, 22.2744968 ], [ -82.0554083, 22.3319192 ], [ -82.0936198, 22.3386689 ], [ -82.0968719, 22.3653675 ], [ -82.1293034, 22.3611812 ], [ -82.158335, 22.3947555 ], [ -82.1455841, 22.4197113 ], [ -82.1087921, 22.4313154 ], [ -81.9892436, 22.4269045 ], [ -81.9600844, 22.4368475 ], [ -81.9353317, 22.4300956 ], [ -81.8953878, 22.4370803 ], [ -81.8480019, 22.4272975 ], [ -81.8157371, 22.4296933 ], [ -81.7386976, 22.4504348 ], [ -81.7014337, 22.4538502 ], [ -81.6501298, 22.4883658 ], [ -81.6521869, 22.531545 ], [ -81.6429598, 22.5572432 ], [ -81.6985383, 22.5961807 ], [ -81.7323017, 22.6274212 ], [ -81.7969609, 22.6568261 ], [ -81.8727926, 22.6789092 ], [ -81.9439122, 22.6768466 ], [ -82.0592309, 22.6669925 ], [ -82.0981809, 22.6558223 ], [ -82.1699057, 22.6809665 ], [ -82.2386388, 22.6885702 ], [ -82.3424107, 22.6780622 ], [ -82.4022647, 22.6854223 ], [ -82.4652002, 22.6819718 ], [ -82.5216364, 22.6872153 ], [ -82.5589436, 22.6702838 ], [ -82.5695431, 22.690184 ], [ -82.6311823, 22.6801197 ], [ -82.7352674, 22.7067754 ], [ -82.7779059, 22.6907509 ], [ -82.7862983, 22.629943 ], [ -82.8265353, 22.5969938 ], [ -82.8702403, 22.5837286 ], [ -82.9122535, 22.5479595 ], [ -82.9481121, 22.54589 ], [ -82.9730699, 22.5220368 ], [ -83.0353752, 22.5069086 ], [ -83.0663692, 22.4908407 ], [ -83.1042656, 22.4463338 ], [ -83.1425318, 22.360226 ], [ -83.1724714, 22.3316622 ], [ -83.2165102, 22.3335595 ], [ -83.2386578, 22.3493373 ], [ -83.2651191, 22.34592 ], [ -83.2878149, 22.3264944 ], [ -83.2857648, 22.2965574 ], [ -83.3198233, 22.280505 ], [ -83.3439515, 22.2253567 ], [ -83.3701027, 22.2010683 ], [ -83.3920078, 22.2022919 ], [ -83.4162187, 22.1845612 ], [ -83.4685139, 22.1788832 ], [ -83.5249398, 22.1869773 ], [ -83.570289, 22.239397 ], [ -83.6255504, 22.1824487 ], [ -83.6549523, 22.1657948 ], [ -83.7254695, 22.176936 ], [ -83.7672973, 22.1640785 ], [ -83.8104725, 22.1745798 ], [ -83.8354761, 22.1660179 ], [ -83.8789805, 22.1757684 ], [ -83.9148485, 22.1681441 ], [ -83.9490979, 22.1468263 ], [ -83.9739297, 22.1112423 ], [ -83.968958, 22.0513995 ], [ -83.9596787, 22.0311245 ], [ -83.998869, 21.9817301 ], [ -83.9995089, 21.9413727 ], [ -84.0344438, 21.9064667 ], [ -84.0873408, 21.9314323 ], [ -84.1435009, 21.9271245 ], [ -84.177587, 21.9127806 ], [ -84.2582295, 21.8960959 ], [ -84.341144, 21.8470899 ], [ -84.4261143, 21.7761092 ], [ -84.4462036, 21.7656084 ], [ -84.5162636, 21.7585762 ], [ -84.5122712, 21.7967809 ], [ -84.4905872, 21.8318225 ], [ -84.4613351, 21.8603002 ], [ -84.4546046, 21.8802742 ], [ -84.4723281, 21.9155256 ], [ -84.4970816, 21.9286046 ], [ -84.5561577, 21.9337151 ], [ -84.6230099, 21.9171191 ], [ -84.7310474, 21.8741008 ], [ -84.7881482, 21.8167534 ], [ -84.8093665, 21.8115056 ], [ -84.9207552, 21.8307783 ], [ -84.9436103, 21.8446294 ], [ -84.9514496, 21.8695417 ], [ -84.929762, 21.9140342 ], [ -84.8999968, 21.8896279 ], [ -84.8644936, 21.8858697 ], [ -84.8000198, 21.9026317 ], [ -84.7036908, 21.9567679 ], [ -84.5843861, 21.9968832 ], [ -84.5301273, 22.033871 ], [ -84.485941, 22.0457799 ], [ -84.4866689, 22.0183943 ], [ -84.4415469, 22.0069681 ], [ -84.3855164, 22.0390586 ], [ -84.3566515, 22.0274107 ], [ -84.3415674, 21.9948205 ], [ -84.3161297, 21.99349 ], [ -84.301229, 22.0242096 ], [ -84.3208337, 22.0369755 ], [ -84.3140598, 22.0593122 ], [ -84.3427639, 22.0992362 ], [ -84.3387461, 22.1243403 ], [ -84.4066485, 22.1463975 ], [ -84.4109545, 22.1998323 ], [ -84.4279065, 22.2088281 ], [ -84.3989922, 22.2971274 ], [ -84.3865109, 22.351049 ], [ -84.3274964, 22.4006349 ], [ -84.3272494, 22.4167461 ], [ -84.2844859, 22.4593016 ], [ -84.2486959, 22.4788844 ], [ -84.2195968, 22.5081569 ], [ -84.2014601, 22.5480385 ], [ -84.2063485, 22.5666635 ], [ -84.163335, 22.5792121 ], [ -84.1296791, 22.5693375 ], [ -84.1233707, 22.6023983 ], [ -84.089974, 22.6056427 ], [ -84.0602015, 22.6509721 ], [ -84.0354692, 22.6450426 ], [ -84.0166243, 22.6828582 ], [ -83.9819907, 22.6690487 ], [ -83.9454561, 22.6933393 ], [ -83.9318595, 22.7216515 ], [ -83.9015655, 22.7277264 ], [ -83.8588516, 22.7503882 ], [ -83.8093921, 22.7426128 ], [ -83.7871096, 22.7589392 ], [ -83.6841168, 22.7897506 ], [ -83.6326402, 22.7924144 ], [ -83.6356086, 22.8212489 ], [ -83.6100771, 22.8292981 ], [ -83.5702449, 22.8255476 ], [ -83.5255237, 22.8663572 ], [ -83.5089904, 22.8489564 ], [ -83.4685661, 22.8636573 ], [ -83.4573028, 22.8867365 ], [ -83.4295771, 22.894738 ], [ -83.395159, 22.8750975 ], [ -83.3580373, 22.895815 ], [ -83.3361933, 22.9307588 ], [ -83.2634807, 22.9779382 ], [ -83.2167654, 22.9956516 ], [ -83.1683251, 22.9800835 ], [ -83.1889245, 22.9515546 ], [ -83.1872937, 22.9266165 ], [ -83.151631, 22.9270908 ], [ -83.1615874, 22.9633699 ], [ -83.1462929, 22.9875429 ], [ -83.0645821, 23.0039375 ], [ -83.0284474, 23.0013698 ], [ -83.0164004, 22.9816144 ], [ -82.9720566, 22.960201 ], [ -82.9354928, 22.9754926 ], [ -82.9279319, 23.0158261 ], [ -82.8448957, 23.0241474 ], [ -82.7649978, 23.0252211 ], [ -82.7345007, 23.0199989 ], [ -82.6755211, 23.0329716 ], [ -82.6038014, 23.0399911 ], [ -82.5334039, 23.059529 ], [ -82.4925553, 23.093109 ], [ -82.4663521, 23.0925526 ], [ -82.3958016, 23.1454963 ], [ -82.3727869, 23.1417469 ], [ -82.3245021, 23.1666379 ], [ -82.2286513, 23.1806588 ], [ -82.1407864, 23.1706774 ], [ -82.0250671, 23.1870434 ] ] ], [ [ [ -77.5771687, 21.9257186 ], [ -77.5376866, 21.9056523 ], [ -77.4745152, 21.8288648 ], [ -77.4401829, 21.8132473 ], [ -77.4611256, 21.7871082 ], [ -77.5098775, 21.7925277 ], [ -77.5203412, 21.8089053 ], [ -77.5658314, 21.8192643 ], [ -77.5821393, 21.8831548 ], [ -77.6160407, 21.897747 ], [ -77.5771687, 21.9257186 ] ] ], [ [ [ -78.0008252, 22.3056153 ], [ -77.9781875, 22.2942021 ], [ -77.991252, 22.2382205 ], [ -77.9638073, 22.2318315 ], [ -77.949813, 22.2537928 ], [ -77.9156366, 22.2187048 ], [ -77.8952239, 22.2333149 ], [ -77.8697294, 22.2025056 ], [ -77.8925409, 22.1758207 ], [ -77.8736886, 22.1604307 ], [ -77.8282002, 22.1450731 ], [ -77.8418978, 22.0996929 ], [ -77.8264424, 22.089183 ], [ -77.7883344, 22.0933317 ], [ -77.7541401, 22.0547592 ], [ -77.6483399, 22.0591241 ], [ -77.6284733, 22.0328712 ], [ -77.6230672, 21.9976956 ], [ -77.6574606, 21.970324 ], [ -77.6325859, 21.9435008 ], [ -77.6648235, 21.918888 ], [ -77.6804116, 21.9391939 ], [ -77.7339646, 21.9579229 ], [ -77.7997664, 21.9634596 ], [ -77.8237787, 21.982898 ], [ -77.8103795, 22.0122966 ], [ -77.8296159, 22.0324662 ], [ -77.8561489, 22.0065158 ], [ -77.8939227, 22.0052217 ], [ -77.9390215, 22.0398398 ], [ -77.9501586, 22.1073158 ], [ -77.9850163, 22.130154 ], [ -78.015378, 22.1271855 ], [ -78.0389125, 22.1647567 ], [ -78.070671, 22.1652514 ], [ -78.0901452, 22.1796711 ], [ -78.065608, 22.2154005 ], [ -78.0376722, 22.1953864 ], [ -78.0195127, 22.2039833 ], [ -78.0685059, 22.2714344 ], [ -78.0690282, 22.2941802 ], [ -78.0133438, 22.2809888 ], [ -78.0008252, 22.3056153 ] ] ], [ [ [ -78.2037283, 22.4383873 ], [ -78.1844085, 22.42209 ], [ -78.156394, 22.4246031 ], [ -78.1104824, 22.4132717 ], [ -78.0794203, 22.3832825 ], [ -78.0642101, 22.3372297 ], [ -78.0786413, 22.2732131 ], [ -78.1151598, 22.3004665 ], [ -78.1378644, 22.283697 ], [ -78.1693106, 22.3012028 ], [ -78.2133954, 22.2959273 ], [ -78.3122724, 22.4023011 ], [ -78.304221, 22.426886 ], [ -78.2660183, 22.4291878 ], [ -78.2249585, 22.419613 ], [ -78.2037283, 22.4383873 ] ] ], [ [ [ -78.6824078, 22.6130192 ], [ -78.6032921, 22.5423055 ], [ -78.562265, 22.5250229 ], [ -78.4545767, 22.5288179 ], [ -78.4232288, 22.554141 ], [ -78.378384, 22.5503404 ], [ -78.348648, 22.506395 ], [ -78.3324067, 22.5042537 ], [ -78.2807403, 22.4404815 ], [ -78.3125018, 22.4422436 ], [ -78.3438627, 22.4190427 ], [ -78.3815333, 22.4286742 ], [ -78.4271675, 22.4074758 ], [ -78.4306007, 22.4442894 ], [ -78.4578949, 22.4347696 ], [ -78.540464, 22.4355629 ], [ -78.5576301, 22.4623753 ], [ -78.6844879, 22.4925131 ], [ -78.6880928, 22.5299384 ], [ -78.7174469, 22.5695727 ], [ -78.6824078, 22.6130192 ] ] ], [ [ [ -79.0873097, 22.6689588 ], [ -79.0301783, 22.6598247 ], [ -78.970135, 22.6665137 ], [ -78.9581188, 22.6437018 ], [ -78.9696201, 22.6269072 ], [ -78.9665302, 22.5749263 ], [ -79.0139087, 22.5644644 ], [ -78.9958843, 22.6162908 ], [ -78.9950259, 22.6460782 ], [ -79.0729602, 22.6251643 ], [ -79.0873097, 22.6689588 ] ] ], [ [ [ -79.0275079, 20.8912248 ], [ -78.9623215, 20.8671148 ], [ -78.9658933, 20.8372004 ], [ -79.0440278, 20.8680077 ], [ -79.0703703, 20.9001545 ], [ -79.1007311, 20.9050658 ], [ -79.1659176, 20.9666804 ], [ -79.2270857, 21.0019525 ], [ -79.1967249, 21.0224907 ], [ -79.1123396, 20.9434633 ], [ -79.0275079, 20.8912248 ] ] ], [ [ [ -79.1211971, 22.6370476 ], [ -79.1388782, 22.6137554 ], [ -79.1292651, 22.5405257 ], [ -79.1508945, 22.5302197 ], [ -79.2017062, 22.5238772 ], [ -79.230202, 22.5335494 ], [ -79.2437633, 22.5536845 ], [ -79.2114909, 22.5815835 ], [ -79.198788, 22.6110615 ], [ -79.1268619, 22.6465535 ], [ -79.1211971, 22.6370476 ] ] ], [ [ [ -79.3215839, 21.1031257 ], [ -79.2870655, 21.0736364 ], [ -79.2962094, 21.0370606 ], [ -79.3222697, 21.0551199 ], [ -79.3140402, 21.0708932 ], [ -79.3332425, 21.0967249 ], [ -79.3615888, 21.0953533 ], [ -79.3599886, 21.123471 ], [ -79.3215839, 21.1031257 ] ] ], [ [ [ -79.4688985, 22.6640596 ], [ -79.4286426, 22.6611279 ], [ -79.3989452, 22.6218368 ], [ -79.4501003, 22.6245305 ], [ -79.4756778, 22.6459198 ], [ -79.5131, 22.641959 ], [ -79.5259746, 22.663504 ], [ -79.5058902, 22.6901137 ], [ -79.4688985, 22.6640596 ] ] ], [ [ [ -79.56683, 22.8004569 ], [ -79.5270046, 22.7585148 ], [ -79.4554218, 22.7216268 ], [ -79.4296726, 22.6885299 ], [ -79.4777377, 22.6738 ], [ -79.4940456, 22.7053169 ], [ -79.5302661, 22.7146597 ], [ -79.5359309, 22.7539241 ], [ -79.5577319, 22.7610475 ], [ -79.5697482, 22.7920695 ], [ -79.6346362, 22.7817824 ], [ -79.621075, 22.8080526 ], [ -79.56683, 22.8004569 ] ] ], [ [ [ -79.8737593, 22.9642686 ], [ -79.8802824, 22.9317049 ], [ -79.9451704, 22.9315468 ], [ -79.9254294, 22.9636363 ], [ -79.8737593, 22.9642686 ] ] ], [ [ [ -79.9966135, 23.0363349 ], [ -79.9961538, 23.0105713 ], [ -80.0227614, 23.0015649 ], [ -80.0327177, 23.0265287 ], [ -79.9966135, 23.0363349 ] ] ], [ [ [ -80.2241201, 23.1460695 ], [ -80.2249785, 23.1310735 ], [ -80.1290197, 23.0660189 ], [ -80.1592321, 23.0518037 ], [ -80.2030058, 23.0623863 ], [ -80.218627, 23.075021 ], [ -80.250556, 23.0679141 ], [ -80.2630873, 23.0963395 ], [ -80.3070326, 23.1069185 ], [ -80.3274603, 23.1358092 ], [ -80.2241201, 23.1460695 ] ] ], [ [ [ -80.8039856, 23.211975 ], [ -80.7501571, 23.200791 ], [ -80.7353942, 23.2094686 ], [ -80.6948822, 23.2015799 ], [ -80.6191795, 23.223036 ], [ -80.5805557, 23.2000021 ], [ -80.5410736, 23.1951108 ], [ -80.506398, 23.1775954 ], [ -80.4763572, 23.1933752 ], [ -80.4722374, 23.1635499 ], [ -80.4972999, 23.1543959 ], [ -80.5875938, 23.173808 ], [ -80.6220977, 23.1693893 ], [ -80.6560867, 23.1790157 ], [ -80.7237213, 23.1662329 ], [ -80.7455223, 23.1839076 ], [ -80.8039856, 23.211975 ] ] ], [ [ [ -80.8354728, 23.1728612 ], [ -80.7910125, 23.1395587 ], [ -80.8443992, 23.1217203 ], [ -80.8855979, 23.1435049 ], [ -80.8720367, 23.1596043 ], [ -80.8354728, 23.1728612 ] ] ], [ [ [ -80.9007042, 23.26373 ], [ -80.8909195, 23.2326586 ], [ -80.9537475, 23.2235092 ], [ -80.9782951, 23.2260333 ], [ -80.9810417, 23.2589988 ], [ -80.9007042, 23.26373 ] ] ], [ [ [ -81.3590156, 21.7002436 ], [ -81.4343014, 21.6443419 ], [ -81.513988, 21.5959169 ], [ -81.553193, 21.5978346 ], [ -81.5551914, 21.6186847 ], [ -81.5101142, 21.6046976 ], [ -81.4985208, 21.6288033 ], [ -81.4540325, 21.637825 ], [ -81.424713, 21.6547943 ], [ -81.3909566, 21.6957112 ], [ -81.3590156, 21.7002436 ] ] ], [ [ [ -81.5429313, 22.0552719 ], [ -81.5784116, 22.0430908 ], [ -81.5907713, 22.0793639 ], [ -81.5429313, 22.0552719 ] ] ], [ [ [ -82.4661355, 21.577648 ], [ -82.4143151, 21.5666883 ], [ -82.4300516, 21.5510621 ], [ -82.4661355, 21.577648 ] ] ], [ [ [ -82.975115, 21.9439884 ], [ -82.9156261, 21.9255321 ], [ -82.8435364, 21.929647 ], [ -82.7478671, 21.8912352 ], [ -82.6901098, 21.8822827 ], [ -82.6755354, 21.8576057 ], [ -82.6937716, 21.8398504 ], [ -82.6824118, 21.8023751 ], [ -82.5769304, 21.7418149 ], [ -82.6008735, 21.6675451 ], [ -82.5408298, 21.5721396 ], [ -82.5952932, 21.5297503 ], [ -82.6278061, 21.5138125 ], [ -82.6561186, 21.5129229 ], [ -82.714006, 21.4833077 ], [ -82.7714679, 21.4630272 ], [ -82.8472219, 21.4435913 ], [ -82.8873445, 21.4382567 ], [ -83.0056215, 21.4651708 ], [ -83.071211, 21.467648 ], [ -83.1102884, 21.5130475 ], [ -83.1422674, 21.5277734 ], [ -83.1734425, 21.5770755 ], [ -83.1629027, 21.5931448 ], [ -83.1254263, 21.5825312 ], [ -83.1055677, 21.5547152 ], [ -83.0333474, 21.5393771 ], [ -82.9743248, 21.564399 ], [ -82.957085, 21.6016421 ], [ -82.9771851, 21.6079967 ], [ -83.0072324, 21.6777784 ], [ -83.0289165, 21.6900413 ], [ -83.0473667, 21.7267959 ], [ -83.0905583, 21.7831381 ], [ -83.0558952, 21.8487173 ], [ -83.0088646, 21.8900838 ], [ -82.9553228, 21.9178458 ], [ -82.975115, 21.9439884 ] ] ] ] } }
]
}
