{
"type": "FeatureCollection",
"name": "CYM_GAUL1999_ADM1",
"crs": { "type": "name", "properties": { "name": "urn:ogc:def:crs:OGC:1.3:CRS84" } },
"features": [
{ "type": "Feature", "properties": { "POLYGON_ID": "CYM_GAUL1999_ADM1_68742", "ADM0_ISO3": "CYM", "ADM0_NAME": "Cayman Islands", "ADM0_CODE": 48, "ADM1_NAME": "Grand Cayman", "ADM1_CODE": 68742, "GEOSET": "GAUL", "GEOSET_YEAR": 1999.0, "GEOSET_VERSION": "GAUL_v1", "GEOSET_UNIT": "ADM1", "CENTROID_LONG": -81.241398270462113, "CENTROID_LAT": 19.316810640047205 }, "geometry": { "type": "MultiPolygon", "coordinates": [ [ [ [ -81.3871547, 19.3967998 ], [ -81.348294, 19.297068 ], [ -81.3205592, 19.293866 ], [ -81.2570727, 19.3268409 ], [ -81.26118, 19.3466234 ], [ -81.0986041, 19.3537809 ], [ -81.084966, 19.3239581 ], [ -81.1200307, 19.2930924 ], [ -81.2129837, 19.2960082 ], [ -81.2671857, 19.2645142 ], [ -81.3423272, 19.2793233 ], [ -81.3806506, 19.2651751 ], [ -81.3817422, 19.3366073 ], [ -81.4148943, 19.3855477 ], [ -81.3871547, 19.3967998 ] ] ] ] } },
{ "type": "Feature", "properties": { "POLYGON_ID": "CYM_GAUL1999_ADM1_68743", "ADM0_ISO3": "CYM", "ADM0_NAME": "Cayman Islands", "ADM0_CODE": 48, "ADM1_NAME": "Cayman Brac", "ADM1_CODE": 68743, "GEOSET": "GAUL", "GEOSET_YEAR": 1999.0, "GEOSET_VERSION": "GAUL_v1", "GEOSET_UNIT": "ADM1", "CENTROID_LONG": -79.758506666666662, "CENTROID_LAT": 19.7386 }, "geometry": { "type": "MultiPolygon", "coordinates": [ [ [ [ -79.73976, 19.75698 ], [ -79.74948, 19.72409 ], [ -79.78628, 19.73473 ], [ -79.73976, 19.75698 ] ] ] ] } },
{ "type": "Feature", "properties": { "POLYGON_ID": "CYM_GAUL1999_ADM1_68744", "ADM0_ISO3": "CYM", "ADM0_NAME": "Cayman Islands", "ADM0_CODE": 48, "ADM1_NAME": "Little Cayman", "ADM1_CODE": 68744, "GEOSET": "GAUL", "GEOSET_YEAR": 1999.0, "GEOSET_VERSION": "GAUL_v1", "GEOSET_UNIT": "ADM1", "CENTROID_LONG": -80.036510946524842, "CENTROID_LAT": 19.68906839797588 }, "geometry": { "type": "MultiPolygon", "coordinates": [ [ [ [ -79.9753161, 19.713402 ], [ -79.9983261, 19.6956486 ], [ -80.085237, 19.6582082 ], [ -80.0613525, 19.6955819 ], [ -79.9753161, 19.713402 ] ] ] ] } }
]
}
