{
"type": "FeatureCollection",
"name": "CYM_GAUL2009_ADM0",
"crs": { "type": "name", "properties": { "name": "urn:ogc:def:crs:OGC:1.3:CRS84" } },
"features": [
{ "type": "Feature", "properties": { "POLYGON_ID": "CYM_GAUL2009_ADM0_48", "ADM0_ISO3": "CYM", "ADM0_NAME": "Cayman Islands", "ADM0_CODE": 48, "GEOSET": "GAUL", "GEOSET_YEAR": 2009.0, "GEOSET_VERSION": "GAUL_v1", "GEOSET_UNIT": "ADM0", "CENTROID_LONG": -81.052923070642507, "CENTROID_LAT": 19.374519125778189 }, "geometry": { "type": "MultiPolygon", "coordinates": [ [ [ [ -79.73976, 19.75698 ], [ -79.74948, 19.72409 ], [ -79.78628, 19.73473 ], [ -79.73976, 19.75698 ] ] ], [ [ [ -79.9753161, 19.713402 ], [ -79.9983261, 19.6956486 ], [ -80.085237, 19.6582082 ], [ -80.096731, 19.6745778 ], [ -80.0613525, 19.6955819 ], [ -79.9753161, 19.713402 ] ] ], [ [ [ -81.3871547, 19.3967998 ], [ -81.3646029, 19.3489551 ], [ -81.3642795, 19.3204573 ], [ -81.348294, 19.297068 ], [ -81.3205592, 19.293866 ], [ -81.2570727, 19.3268409 ], [ -81.26118, 19.3466234 ], [ -81.2086363, 19.3526475 ], [ -81.1852924, 19.3463206 ], [ -81.1320797, 19.3551573 ], [ -81.0986041, 19.3537809 ], [ -81.084966, 19.3239581 ], [ -81.1200307, 19.2930924 ], [ -81.1668276, 19.3013498 ], [ -81.2129837, 19.2960082 ], [ -81.2671857, 19.2645142 ], [ -81.2877952, 19.2629374 ], [ -81.3423272, 19.2793233 ], [ -81.3806506, 19.2651751 ], [ -81.3817422, 19.3366073 ], [ -81.4148943, 19.3855477 ], [ -81.3871547, 19.3967998 ] ] ] ] } }
]
}
