{
"type": "FeatureCollection",
"name": "CYP_GAUL1997_ADM1",
"crs": { "type": "name", "properties": { "name": "urn:ogc:def:crs:OGC:1.3:CRS84" } },
"features": [
{ "type": "Feature", "properties": { "POLYGON_ID": "CYP_GAUL1997_ADM1_1024", "ADM0_ISO3": "CYP", "ADM0_NAME": "Cyprus", "ADM0_CODE": 64, "ADM1_NAME": "Famgusta", "ADM1_CODE": 1024, "GEOSET": "GAUL", "GEOSET_YEAR": 1997.0, "GEOSET_VERSION": "GAUL_v1", "GEOSET_UNIT": "ADM1", "CENTROID_LONG": 33.905596678767118, "CENTROID_LAT": 35.272194611895316 }, "geometry": { "type": "MultiPolygon", "coordinates": [ [ [ [ 33.7124075, 34.9800521 ], [ 33.7093887, 35.0232506 ], [ 33.6583328, 35.0555496 ], [ 33.6449966, 35.0972214 ], [ 33.5913849, 35.1088867 ], [ 33.5491638, 35.1266632 ], [ 33.570549, 35.1669388 ], [ 33.5480652, 35.2899323 ], [ 33.6508331, 35.3247147 ], [ 33.6523786, 35.3590608 ], [ 33.771164, 35.414181 ], [ 33.8498759, 35.4127613 ], [ 33.977466, 35.445836 ], [ 34.07544, 35.493055 ], [ 34.129063, 35.507983 ], [ 34.172548, 35.559216 ], [ 34.2144017, 35.5556585 ], [ 34.291055, 35.576249 ], [ 34.3478, 35.621621 ], [ 34.408459, 35.635188 ], [ 34.5867486, 35.6929138 ], [ 34.5574837, 35.6420308 ], [ 34.4359603, 35.6005398 ], [ 34.4091474, 35.5568306 ], [ 34.357981, 35.535043 ], [ 34.284172, 35.479836 ], [ 34.183754, 35.444375 ], [ 34.134212, 35.415943 ], [ 34.07987, 35.366076 ], [ 34.064462, 35.32741 ], [ 33.975381, 35.324949 ], [ 33.941586, 35.30376 ], [ 33.9038228, 35.2482849 ], [ 33.912261, 35.162648 ], [ 33.9835177, 35.0810556 ], [ 34.0344149, 35.0434226 ], [ 34.0787816, 34.9863478 ], [ 33.9568094, 34.9855668 ], [ 33.9062684, 34.9731145 ], [ 33.8578684, 34.9423705 ], [ 33.7759559, 34.9803955 ], [ 33.7124075, 34.9800521 ] ] ] ] } },
{ "type": "Feature", "properties": { "POLYGON_ID": "CYP_GAUL1997_ADM1_1025", "ADM0_ISO3": "CYP", "ADM0_NAME": "Cyprus", "ADM0_CODE": 64, "ADM1_NAME": "Kyrenia", "ADM1_CODE": 1025, "GEOSET": "GAUL", "GEOSET_YEAR": 1997.0, "GEOSET_VERSION": "GAUL_v1", "GEOSET_UNIT": "ADM1", "CENTROID_LONG": 33.237938334019674, "CENTROID_LAT": 35.304351194265109 }, "geometry": { "type": "MultiPolygon", "coordinates": [ [ [ [ 33.6523786, 35.3590608 ], [ 33.6508331, 35.3247147 ], [ 33.5480652, 35.2899323 ], [ 33.4611053, 35.2805481 ], [ 33.4474945, 35.2474976 ], [ 33.3724976, 35.234993 ], [ 33.2455521, 35.2436066 ], [ 33.2141647, 35.2286072 ], [ 33.1708298, 35.2566605 ], [ 33.1449966, 35.2455521 ], [ 33.034996, 35.2594376 ], [ 32.9341811, 35.260717 ], [ 32.9351478, 35.3417153 ], [ 32.9196051, 35.3982927 ], [ 32.9921724, 35.3687238 ], [ 33.097222, 35.353807 ], [ 33.1172805, 35.3645365 ], [ 33.1968045, 35.3587402 ], [ 33.3480765, 35.3349208 ], [ 33.482511, 35.332418 ], [ 33.531519, 35.345833 ], [ 33.6523786, 35.3590608 ] ] ] ] } },
{ "type": "Feature", "properties": { "POLYGON_ID": "CYP_GAUL1997_ADM1_1026", "ADM0_ISO3": "CYP", "ADM0_NAME": "Cyprus", "ADM0_CODE": 64, "ADM1_NAME": "Larnaca", "ADM1_CODE": 1026, "GEOSET": "GAUL", "GEOSET_YEAR": 1997.0, "GEOSET_VERSION": "GAUL_v1", "GEOSET_UNIT": "ADM1", "CENTROID_LONG": 33.457370645341427, "CENTROID_LAT": 34.899645732848889 }, "geometry": { "type": "MultiPolygon", "coordinates": [ [ [ [ 33.7124075, 34.9800521 ], [ 33.6669055, 34.9664815 ], [ 33.6426032, 34.9374305 ], [ 33.6395441, 34.8657133 ], [ 33.583282, 34.820437 ], [ 33.415272, 34.750964 ], [ 33.26916, 34.7074777 ], [ 33.2730484, 34.7736053 ], [ 33.2180481, 34.8363876 ], [ 33.1277771, 34.8577728 ], [ 33.1309052, 34.8795776 ], [ 33.1738815, 34.9124985 ], [ 33.2655487, 34.890274 ], [ 33.3213882, 34.9355545 ], [ 33.4019394, 34.9280548 ], [ 33.4736099, 34.9680481 ], [ 33.5097198, 35.0116653 ], [ 33.488884, 35.0483322 ], [ 33.5252762, 35.1077728 ], [ 33.5788879, 35.0886078 ], [ 33.5913849, 35.1088867 ], [ 33.6449966, 35.0972214 ], [ 33.6583328, 35.0555496 ], [ 33.7093887, 35.0232506 ], [ 33.7124075, 34.9800521 ] ] ] ] } },
{ "type": "Feature", "properties": { "POLYGON_ID": "CYP_GAUL1997_ADM1_1027", "ADM0_ISO3": "CYP", "ADM0_NAME": "Cyprus", "ADM0_CODE": 64, "ADM1_NAME": "Limassol", "ADM1_CODE": 1027, "GEOSET": "GAUL", "GEOSET_YEAR": 1997.0, "GEOSET_VERSION": "GAUL_v1", "GEOSET_UNIT": "ADM1", "CENTROID_LONG": 32.947360401346295, "CENTROID_LAT": 34.775374200143176 }, "geometry": { "type": "MultiPolygon", "coordinates": [ [ [ [ 33.1309052, 34.8795776 ], [ 33.1277771, 34.8577728 ], [ 33.2180481, 34.8363876 ], [ 33.2730484, 34.7736053 ], [ 33.26916, 34.7074777 ], [ 33.1489635, 34.7127083 ], [ 33.063672, 34.685861 ], [ 33.0167712, 34.6548377 ], [ 33.0085877, 34.5937885 ], [ 33.030336, 34.562894 ], [ 32.9403494, 34.574068 ], [ 32.9093224, 34.638803 ], [ 32.8750247, 34.6667509 ], [ 32.7911222, 34.664291 ], [ 32.705709, 34.641317 ], [ 32.641188, 34.6604752 ], [ 32.6344376, 34.6966629 ], [ 32.711937, 34.746109 ], [ 32.6980515, 34.7830505 ], [ 32.7891617, 34.8730545 ], [ 32.7674942, 34.9024963 ], [ 32.7738876, 34.9447174 ], [ 32.8022156, 34.9574966 ], [ 32.8774948, 34.9319382 ], [ 32.9233322, 34.9366608 ], [ 32.9649963, 34.9605484 ], [ 33.0380554, 34.9169388 ], [ 33.0541611, 34.8894424 ], [ 33.1309052, 34.8795776 ] ] ] ] } },
{ "type": "Feature", "properties": { "POLYGON_ID": "CYP_GAUL1997_ADM1_1028", "ADM0_ISO3": "CYP", "ADM0_NAME": "Cyprus", "ADM0_CODE": 64, "ADM1_NAME": "Nicosia", "ADM1_CODE": 1028, "GEOSET": "GAUL", "GEOSET_YEAR": 1997.0, "GEOSET_VERSION": "GAUL_v1", "GEOSET_UNIT": "ADM1", "CENTROID_LONG": 33.104202974673399, "CENTROID_LAT": 35.081978869436412 }, "geometry": { "type": "MultiPolygon", "coordinates": [ [ [ [ 33.5913849, 35.1088867 ], [ 33.5788879, 35.0886078 ], [ 33.5252762, 35.1077728 ], [ 33.488884, 35.0483322 ], [ 33.5097198, 35.0116653 ], [ 33.4736099, 34.9680481 ], [ 33.4019394, 34.9280548 ], [ 33.3213882, 34.9355545 ], [ 33.2655487, 34.890274 ], [ 33.1738815, 34.9124985 ], [ 33.1309052, 34.8795776 ], [ 33.0541611, 34.8894424 ], [ 33.0380554, 34.9169388 ], [ 32.9649963, 34.9605484 ], [ 32.9233322, 34.9366608 ], [ 32.8774948, 34.9319382 ], [ 32.8022156, 34.9574966 ], [ 32.7738876, 34.9447174 ], [ 32.7674942, 34.9024963 ], [ 32.7361069, 34.9119415 ], [ 32.6913834, 34.8866653 ], [ 32.6608276, 34.9127731 ], [ 32.6733322, 34.9808273 ], [ 32.6241608, 35.031662 ], [ 32.6311035, 35.1077728 ], [ 32.5505451, 35.1744168 ], [ 32.648627, 35.194998 ], [ 32.714413, 35.182965 ], [ 32.8278152, 35.1408457 ], [ 32.8815537, 35.1621239 ], [ 32.9179026, 35.210257 ], [ 32.9341811, 35.260717 ], [ 33.034996, 35.2594376 ], [ 33.1449966, 35.2455521 ], [ 33.1708298, 35.2566605 ], [ 33.2141647, 35.2286072 ], [ 33.2455521, 35.2436066 ], [ 33.3724976, 35.234993 ], [ 33.4474945, 35.2474976 ], [ 33.4611053, 35.2805481 ], [ 33.5480652, 35.2899323 ], [ 33.570549, 35.1669388 ], [ 33.5491638, 35.1266632 ], [ 33.5913849, 35.1088867 ] ] ] ] } },
{ "type": "Feature", "properties": { "POLYGON_ID": "CYP_GAUL1997_ADM1_1029", "ADM0_ISO3": "CYP", "ADM0_NAME": "Cyprus", "ADM0_CODE": 64, "ADM1_NAME": "Paphos", "ADM1_CODE": 1029, "GEOSET": "GAUL", "GEOSET_YEAR": 1997.0, "GEOSET_VERSION": "GAUL_v1", "GEOSET_UNIT": "ADM1", "CENTROID_LONG": 32.526700247890744, "CENTROID_LAT": 34.906269869909032 }, "geometry": { "type": "MultiPolygon", "coordinates": [ [ [ [ 32.7674942, 34.9024963 ], [ 32.7891617, 34.8730545 ], [ 32.6980515, 34.7830505 ], [ 32.711937, 34.746109 ], [ 32.6344376, 34.6966629 ], [ 32.641188, 34.6604752 ], [ 32.554897, 34.697915 ], [ 32.4877223, 34.7099353 ], [ 32.4347886, 34.7376325 ], [ 32.393943, 34.793469 ], [ 32.388143, 34.840471 ], [ 32.350148, 34.856079 ], [ 32.3154976, 34.9022002 ], [ 32.308674, 35.005806 ], [ 32.2757254, 35.0367205 ], [ 32.269213, 35.070336 ], [ 32.304838, 35.0833446 ], [ 32.3625947, 35.0464076 ], [ 32.4068217, 35.0401553 ], [ 32.4716332, 35.0685687 ], [ 32.5505451, 35.1744168 ], [ 32.6311035, 35.1077728 ], [ 32.6241608, 35.031662 ], [ 32.6733322, 34.9808273 ], [ 32.6608276, 34.9127731 ], [ 32.6913834, 34.8866653 ], [ 32.7361069, 34.9119415 ], [ 32.7674942, 34.9024963 ] ] ] ] } }
]
}
