{
"type": "FeatureCollection",
"name": "CZE_GAUL2008_ADM0",
"crs": { "type": "name", "properties": { "name": "urn:ogc:def:crs:OGC:1.3:CRS84" } },
"features": [
{ "type": "Feature", "properties": { "POLYGON_ID": "CZE_GAUL2008_ADM0_65", "ADM0_ISO3": "CZE", "ADM0_NAME": "Czech Republic", "ADM0_CODE": 65, "GEOSET": "GAUL", "GEOSET_YEAR": 2008.0, "GEOSET_VERSION": "GAUL_v1", "GEOSET_UNIT": "ADM0", "CENTROID_LONG": 15.333751786505008, "CENTROID_LAT": 49.739145456685762 }, "geometry": { "type": "MultiPolygon", "coordinates": [ [ [ [ 14.82523, 50.87399 ], [ 14.86938, 50.87941 ], [ 14.953, 50.86569 ], [ 14.995, 50.87122 ], [ 15.00282, 50.90909 ], [ 14.98328, 50.9259 ], [ 15.0170276, 50.9464079 ], [ 15.00857, 50.9883 ], [ 14.98701, 51.01237 ], [ 15.09972, 51.01537 ], [ 15.10236, 50.99769 ], [ 15.17237, 51.02025 ], [ 15.17456, 50.98625 ], [ 15.23785, 50.99982 ], [ 15.2942395, 50.9560803 ], [ 15.26722, 50.92194 ], [ 15.30955, 50.86564 ], [ 15.35379, 50.85153 ], [ 15.37095, 50.8247 ], [ 15.37282, 50.78588 ], [ 15.42147, 50.80756 ], [ 15.52326, 50.77984 ], [ 15.60567, 50.77838 ], [ 15.6843393, 50.753647 ], [ 15.69908, 50.73983 ], [ 15.78113, 50.74426 ], [ 15.81521, 50.75356 ], [ 15.8490389, 50.7114904 ], [ 15.8607, 50.67486 ], [ 15.95782, 50.69362 ], [ 15.98576, 50.68839 ], [ 16.00131, 50.65106 ], [ 15.98792, 50.61539 ], [ 16.02917, 50.60676 ], [ 16.05821, 50.61584 ], [ 16.09765, 50.66231 ], [ 16.1524, 50.65314 ], [ 16.18791, 50.62625 ], [ 16.22074, 50.63926 ], [ 16.23667, 50.67272 ], [ 16.28494, 50.66148 ], [ 16.3498996, 50.6581801 ], [ 16.44623, 50.58015 ], [ 16.4028, 50.56851 ], [ 16.39238, 50.5246 ], [ 16.3498792, 50.4977001 ], [ 16.2682, 50.48351 ], [ 16.20232, 50.44871 ], [ 16.21394, 50.40957 ], [ 16.24101, 50.41116 ], [ 16.27941, 50.36919 ], [ 16.30633, 50.38241 ], [ 16.35646, 50.37716 ], [ 16.36266, 50.34705 ], [ 16.38797, 50.32365 ], [ 16.43252, 50.32243 ], [ 16.52092, 50.24146 ], [ 16.55535, 50.22479 ], [ 16.56434, 50.16212 ], [ 16.58468, 50.13805 ], [ 16.6358795, 50.1087303 ], [ 16.7126, 50.09897 ], [ 16.74098, 50.13336 ], [ 16.78728, 50.15751 ], [ 16.80527, 50.18739 ], [ 16.84314, 50.20865 ], [ 16.95751, 50.22796 ], [ 17.01144, 50.2191 ], [ 16.99845, 50.29895 ], [ 16.94219, 50.31345 ], [ 16.90673, 50.38497 ], [ 16.85988, 50.40894 ], [ 16.88265, 50.43845 ], [ 16.912159, 50.4451599 ], [ 16.96029, 50.42636 ], [ 17.01993, 50.41866 ], [ 17.04079, 50.40499 ], [ 17.09889, 50.40514 ], [ 17.1075, 50.38979 ], [ 17.1841, 50.3702 ], [ 17.27409, 50.321 ], [ 17.32674, 50.31917 ], [ 17.36059, 50.27731 ], [ 17.40338, 50.28562 ], [ 17.458, 50.26641 ], [ 17.6529492, 50.2749599 ], [ 17.68713, 50.3 ], [ 17.68593, 50.32612 ], [ 17.752719, 50.2952713 ], [ 17.72799, 50.26147 ], [ 17.7593, 50.23171 ], [ 17.7561, 50.20456 ], [ 17.7133097, 50.2029196 ], [ 17.7044, 50.18263 ], [ 17.59306, 50.16504 ], [ 17.5942482, 50.152023 ], [ 17.65965, 50.10878 ], [ 17.6939064, 50.1134597 ], [ 17.73466, 50.10041 ], [ 17.78249, 50.01773 ], [ 17.83394, 49.9845 ], [ 17.87964, 49.97403 ], [ 17.92695, 49.98103 ], [ 18.002, 50.01759 ], [ 18.05042, 50.01152 ], [ 18.04433, 50.06128 ], [ 18.10341, 50.02538 ], [ 18.10342, 50.00502 ], [ 18.16124, 49.98282 ], [ 18.20941, 49.99848 ], [ 18.21883, 49.96859 ], [ 18.2750896, 49.9622301 ], [ 18.28199, 49.93362 ], [ 18.31844, 49.91717 ], [ 18.36398, 49.93678 ], [ 18.41595, 49.93317 ], [ 18.49824, 49.90252 ], [ 18.5816892, 49.9096814 ], [ 18.56843, 49.8737 ], [ 18.6026475, 49.8598377 ], [ 18.57419, 49.83433 ], [ 18.61519, 49.77557 ], [ 18.63246, 49.71726 ], [ 18.71258, 49.70254 ], [ 18.74131, 49.67931 ], [ 18.80825, 49.67703 ], [ 18.83849, 49.57217 ], [ 18.8601, 49.54702 ], [ 18.847068, 49.5258593 ], [ 18.79473, 49.49938 ], [ 18.75256, 49.49123 ], [ 18.72493, 49.50465 ], [ 18.67912, 49.50465 ], [ 18.61149, 49.49266 ], [ 18.59841, 49.50897 ], [ 18.55041, 49.48355 ], [ 18.54896, 49.46389 ], [ 18.4617, 49.39676 ], [ 18.41298, 49.38908 ], [ 18.40062, 49.33537 ], [ 18.35045, 49.31284 ], [ 18.18175, 49.28071 ], [ 18.14976, 49.25577 ], [ 18.15485, 49.21357 ], [ 18.13158, 49.18096 ], [ 18.08577, 49.07067 ], [ 18.06614, 49.04717 ], [ 18.0007, 49.02703 ], [ 17.93962, 49.02991 ], [ 17.89308, 48.99202 ], [ 17.89381, 48.96661 ], [ 17.86763, 48.93208 ], [ 17.78401, 48.92681 ], [ 17.68657, 48.8659 ], [ 17.61895, 48.85631 ], [ 17.56733, 48.8237 ], [ 17.51279, 48.81555 ], [ 17.45316, 48.85152 ], [ 17.37754, 48.82083 ], [ 17.33755, 48.8237 ], [ 17.30192, 48.84768 ], [ 17.18485, 48.87022 ], [ 17.10123, 48.82658 ], [ 17.09105, 48.80308 ], [ 17.00379, 48.72828 ], [ 16.99724, 48.69183 ], [ 16.96671, 48.66785 ], [ 16.94749, 48.61522 ], [ 16.92252, 48.62488 ], [ 16.92182, 48.69472 ], [ 16.90315, 48.71388 ], [ 16.79672, 48.70339 ], [ 16.71061, 48.7345 ], [ 16.67335, 48.73335 ], [ 16.66875, 48.7709 ], [ 16.60111, 48.77733 ], [ 16.53641, 48.80704 ], [ 16.51931, 48.79467 ], [ 16.45119, 48.7918 ], [ 16.42365, 48.75643 ], [ 16.38148, 48.72698 ], [ 16.33353, 48.72677 ], [ 16.17901, 48.74169 ], [ 16.11, 48.73977 ], [ 16.03872, 48.75794 ], [ 15.9486, 48.80597 ], [ 15.91556, 48.83725 ], [ 15.84646, 48.85492 ], [ 15.82651, 48.87106 ], [ 15.77662, 48.87445 ], [ 15.75202, 48.85274 ], [ 15.68359, 48.85736 ], [ 15.61485, 48.89648 ], [ 15.57496, 48.89552 ], [ 15.50911, 48.91477 ], [ 15.49493, 48.93844 ], [ 15.42459, 48.95063 ], [ 15.36783, 48.98035 ], [ 15.29594, 48.97831 ], [ 15.25749, 48.95412 ], [ 15.16733, 48.95294 ], [ 15.15489, 48.99366 ], [ 15.02669, 49.01706 ], [ 14.97756, 48.97864 ], [ 14.97453, 48.93426 ], [ 14.99194, 48.90148 ], [ 14.97248, 48.87097 ], [ 14.95451, 48.79163 ], [ 14.97039, 48.76034 ], [ 14.86982, 48.78154 ], [ 14.80831, 48.77914 ], [ 14.80705, 48.73603 ], [ 14.73551, 48.70169 ], [ 14.71153, 48.65265 ], [ 14.71755, 48.60902 ], [ 14.70036, 48.58637 ], [ 14.6618, 48.58524 ], [ 14.62304, 48.60639 ], [ 14.60383, 48.63095 ], [ 14.5591699, 48.60701 ], [ 14.50176, 48.62001 ], [ 14.4677, 48.64949 ], [ 14.43772, 48.60427 ], [ 14.390199, 48.5767912 ], [ 14.35574, 48.57068 ], [ 14.31861, 48.54292 ], [ 14.26566, 48.58464 ], [ 14.19332, 48.59504 ], [ 14.06477, 48.60178 ], [ 14.01154, 48.64338 ], [ 14.05681, 48.66864 ], [ 13.99883, 48.71146 ], [ 13.9552, 48.71614 ], [ 13.89109, 48.76067 ], [ 13.8421781, 48.7730001 ], [ 13.7691798, 48.8356703 ], [ 13.73565, 48.88253 ], [ 13.67625, 48.88004 ], [ 13.63462, 48.92943 ], [ 13.58346, 48.96859 ], [ 13.50959, 48.96781 ], [ 13.49285, 48.94244 ], [ 13.40428, 48.98629 ], [ 13.40015, 49.05008 ], [ 13.28313, 49.12028 ], [ 13.23885, 49.11528 ], [ 13.17531, 49.14119 ], [ 13.17812, 49.16763 ], [ 13.11734, 49.1993 ], [ 13.02718, 49.2773 ], [ 13.01155, 49.30523 ], [ 12.94892, 49.34378 ], [ 12.88475, 49.35164 ], [ 12.84835, 49.34376 ], [ 12.78409, 49.34538 ], [ 12.75638, 49.39867 ], [ 12.70977, 49.42453 ], [ 12.6603492, 49.433543 ], [ 12.64375, 49.52175 ], [ 12.60806, 49.53186 ], [ 12.5749995, 49.5608416 ], [ 12.57689, 49.59101 ], [ 12.5527476, 49.6243394 ], [ 12.5231, 49.63273 ], [ 12.52116, 49.68991 ], [ 12.4492998, 49.7056801 ], [ 12.40317, 49.75452 ], [ 12.46952, 49.78949 ], [ 12.47682, 49.8446 ], [ 12.49692, 49.84107 ], [ 12.55153, 49.9119 ], [ 12.54343, 49.92698 ], [ 12.47796, 49.93991 ], [ 12.49361, 49.97856 ], [ 12.46718, 49.99799 ], [ 12.37681, 50.02059 ], [ 12.32263, 50.05555 ], [ 12.21145, 50.10904 ], [ 12.20087, 50.14415 ], [ 12.22018, 50.16341 ], [ 12.19648, 50.19914 ], [ 12.16109, 50.22649 ], [ 12.11895, 50.23557 ], [ 12.10243, 50.25994 ], [ 12.1431988, 50.2763727 ], [ 12.13186, 50.31496 ], [ 12.19116, 50.32088 ], [ 12.21071, 50.27022 ], [ 12.29574, 50.22168 ], [ 12.28268, 50.19526 ], [ 12.3256, 50.1721 ], [ 12.3408696, 50.1958803 ], [ 12.33381, 50.23291 ], [ 12.38009, 50.28613 ], [ 12.4044087, 50.2922794 ], [ 12.40545, 50.32203 ], [ 12.49425, 50.35249 ], [ 12.50997, 50.39046 ], [ 12.62034, 50.41402 ], [ 12.6986, 50.40084 ], [ 12.7453, 50.43283 ], [ 12.8234695, 50.4578682 ], [ 12.94204, 50.40729 ], [ 12.98243, 50.41727 ], [ 13.0237476, 50.4448589 ], [ 13.03776, 50.51224 ], [ 13.06168, 50.50038 ], [ 13.19826, 50.50614 ], [ 13.25819, 50.5939 ], [ 13.28974, 50.57742 ], [ 13.3282776, 50.5853376 ], [ 13.33017, 50.60657 ], [ 13.39936, 50.63736 ], [ 13.4303, 50.61162 ], [ 13.4655, 50.60085 ], [ 13.5265686, 50.6445879 ], [ 13.55798, 50.71438 ], [ 13.59834, 50.71131 ], [ 13.66755, 50.73245 ], [ 13.70765, 50.71787 ], [ 13.76662, 50.73774 ], [ 13.85301, 50.72834 ], [ 13.9031589, 50.7514389 ], [ 13.88918, 50.77212 ], [ 13.98672, 50.81931 ], [ 14.03288, 50.80883 ], [ 14.16053, 50.85105 ], [ 14.20709, 50.85657 ], [ 14.23846, 50.89155 ], [ 14.33418, 50.89337 ], [ 14.39044, 50.9067 ], [ 14.39399, 50.9437 ], [ 14.31339, 50.95519 ], [ 14.29278, 50.98043 ], [ 14.26029, 50.98852 ], [ 14.27945, 51.03945 ], [ 14.31284, 51.05889 ], [ 14.37515, 51.04356 ], [ 14.39402, 51.02554 ], [ 14.44709, 51.03606 ], [ 14.4986, 51.03057 ], [ 14.5338496, 51.0063706 ], [ 14.56257, 51.01272 ], [ 14.59344, 50.9865 ], [ 14.58902, 50.96035 ], [ 14.56245, 50.92995 ], [ 14.58056, 50.91884 ], [ 14.64921, 50.93166 ], [ 14.61862, 50.86269 ], [ 14.76923, 50.82291 ], [ 14.79951, 50.8261 ], [ 14.82523, 50.87399 ] ] ] ] } }
]
}
