{
"type": "FeatureCollection",
"name": "DJI_GAUL2007_ADM1",
"crs": { "type": "name", "properties": { "name": "urn:ogc:def:crs:OGC:1.3:CRS84" } },
"features": [
{ "type": "Feature", "properties": { "POLYGON_ID": "DJI_GAUL2007_ADM1_1093", "ADM0_ISO3": "DJI", "ADM0_NAME": "Djibouti", "ADM0_CODE": 70, "ADM1_NAME": "Ali Sabieh", "ADM1_CODE": 1093, "GEOSET": "GAUL", "GEOSET_YEAR": 2007.0, "GEOSET_VERSION": "GAUL_v1", "GEOSET_UNIT": "ADM1", "CENTROID_LONG": 42.906494173292558, "CENTROID_LAT": 11.237803391115067 }, "geometry": { "type": "MultiPolygon", "coordinates": [ [ [ [ 43.2020564, 11.3682634 ], [ 42.968055, 10.997431 ], [ 42.9368007, 10.9920096 ], [ 42.927046, 10.982426 ], [ 42.8856614, 10.970531 ], [ 42.790423, 10.9891141 ], [ 42.7838899, 11.0335393 ], [ 42.762258, 11.0599622 ], [ 42.7619926, 11.0664635 ], [ 42.7451008, 11.0713223 ], [ 42.7448363, 11.0699796 ], [ 42.6946038, 11.0593815 ], [ 42.675602, 11.0710381 ], [ 42.6639057, 11.0789556 ], [ 42.6673012, 11.1759596 ], [ 42.6609993, 11.3270597 ], [ 42.6958313, 11.35044 ], [ 42.7950096, 11.3843002 ], [ 42.8183289, 11.4076004 ], [ 42.9198418, 11.4479198 ], [ 43.0019188, 11.4908895 ], [ 43.0577583, 11.4779501 ], [ 43.0944405, 11.4424105 ], [ 43.2020564, 11.3682634 ] ] ] ] } },
{ "type": "Feature", "properties": { "POLYGON_ID": "DJI_GAUL2007_ADM1_1094", "ADM0_ISO3": "DJI", "ADM0_NAME": "Djibouti", "ADM0_CODE": 70, "ADM1_NAME": "Dikhil", "ADM1_CODE": 1094, "GEOSET": "GAUL", "GEOSET_YEAR": 2007.0, "GEOSET_VERSION": "GAUL_v1", "GEOSET_UNIT": "ADM1", "CENTROID_LONG": 42.20056141112611, "CENTROID_LAT": 11.363060059059466 }, "geometry": { "type": "MultiPolygon", "coordinates": [ [ [ [ 42.7527131, 11.5675064 ], [ 42.8183289, 11.4076004 ], [ 42.7950096, 11.3843002 ], [ 42.6958313, 11.35044 ], [ 42.6609993, 11.3270597 ], [ 42.6673012, 11.1759596 ], [ 42.6639057, 11.0789556 ], [ 42.6260786, 11.0952411 ], [ 42.607931, 11.0731736 ], [ 42.6050274, 11.0715766 ], [ 42.5511654, 11.0560423 ], [ 42.5106601, 11.0422502 ], [ 42.5047076, 11.0390562 ], [ 42.4232614, 10.9820002 ], [ 42.3535747, 10.9982604 ], [ 42.3502355, 11.0029062 ], [ 42.3471867, 11.002761 ], [ 42.3352819, 10.9973894 ], [ 42.2684989, 10.9718376 ], [ 42.1977959, 10.9651593 ], [ 42.1651303, 10.9769189 ], [ 42.1088003, 10.9711117 ], [ 42.0758443, 10.9525286 ], [ 42.0693111, 10.9250894 ], [ 41.9955594, 10.9240732 ], [ 41.8230552, 10.9657341 ], [ 41.8077857, 10.9738614 ], [ 41.8006572, 10.9774257 ], [ 41.794979, 10.9802648 ], [ 41.7944864, 10.9913475 ], [ 41.8033526, 11.0048931 ], [ 41.8033526, 11.3639735 ], [ 41.7739371, 11.4838983 ], [ 41.7713358, 11.4945034 ], [ 41.7766709, 11.5066554 ], [ 41.7832514, 11.5295796 ], [ 41.7855317, 11.5407074 ], [ 41.8050766, 11.5720825 ], [ 41.8075394, 11.63784 ], [ 41.8078708, 11.6468989 ], [ 41.8082783, 11.6580352 ], [ 41.8336454, 11.7319201 ], [ 41.8906562, 11.7539888 ], [ 41.8955841, 11.7744946 ], [ 41.8964475, 11.7934908 ], [ 41.9437995, 11.8086902 ], [ 41.9562943, 11.8127009 ], [ 42.0394974, 11.9323347 ], [ 42.1301613, 11.8625498 ], [ 42.1654396, 11.82232 ], [ 42.3459015, 11.6633596 ], [ 42.4174194, 11.6170702 ], [ 42.5312911, 11.5569406 ], [ 42.5279463, 11.5211111 ], [ 42.5994239, 11.4681427 ], [ 42.6395024, 11.4837927 ], [ 42.6858441, 11.5484235 ], [ 42.7527131, 11.5675064 ] ] ] ] } },
{ "type": "Feature", "properties": { "POLYGON_ID": "DJI_GAUL2007_ADM1_1095", "ADM0_ISO3": "DJI", "ADM0_NAME": "Djibouti", "ADM0_CODE": 70, "ADM1_NAME": "Djibouti", "ADM1_CODE": 1095, "GEOSET": "GAUL", "GEOSET_YEAR": 2007.0, "GEOSET_VERSION": "GAUL_v1", "GEOSET_UNIT": "ADM1", "CENTROID_LONG": 43.006742568168555, "CENTROID_LAT": 11.507141958341823 }, "geometry": { "type": "MultiPolygon", "coordinates": [ [ [ [ 43.2603164, 11.4605905 ], [ 43.2020564, 11.3682634 ], [ 43.0944405, 11.4424105 ], [ 43.0577583, 11.4779501 ], [ 43.0019188, 11.4908895 ], [ 42.9198418, 11.4479198 ], [ 42.8183289, 11.4076004 ], [ 42.7527131, 11.5675064 ], [ 42.8042528, 11.587335 ], [ 42.8886513, 11.5851301 ], [ 43.0781762, 11.5969613 ], [ 43.1252281, 11.5835305 ], [ 43.1516958, 11.5957496 ], [ 43.1899124, 11.5203995 ], [ 43.2358095, 11.496173 ], [ 43.2603164, 11.4605905 ] ] ] ] } },
{ "type": "Feature", "properties": { "POLYGON_ID": "DJI_GAUL2007_ADM1_1096", "ADM0_ISO3": "DJI", "ADM0_NAME": "Djibouti", "ADM0_CODE": 70, "ADM1_NAME": "Obock", "ADM1_CODE": 1096, "GEOSET": "GAUL", "GEOSET_YEAR": 2007.0, "GEOSET_VERSION": "GAUL_v1", "GEOSET_UNIT": "ADM1", "CENTROID_LONG": 43.085408748368238, "CENTROID_LAT": 12.278582672832572 }, "geometry": { "type": "MultiPolygon", "coordinates": [ [ [ [ 43.06914, 11.8298727 ], [ 43.0433998, 11.8556995 ], [ 42.9467812, 12.0059605 ], [ 42.8269196, 12.1622801 ], [ 42.8107681, 12.1992598 ], [ 42.7094803, 12.3458309 ], [ 42.7091349, 12.3753148 ], [ 42.7502661, 12.3834368 ], [ 42.7633607, 12.410955 ], [ 42.8258771, 12.4345312 ], [ 42.7972876, 12.4776714 ], [ 42.8286921, 12.5438075 ], [ 42.8619978, 12.5569323 ], [ 42.8876423, 12.6209463 ], [ 42.9205806, 12.6141605 ], [ 42.9622542, 12.6425109 ], [ 43.1260508, 12.7100586 ], [ 43.1541099, 12.6499805 ], [ 43.2363896, 12.5485229 ], [ 43.3009879, 12.454907 ], [ 43.3218325, 12.4542644 ], [ 43.3537094, 12.3877337 ], [ 43.3747419, 12.2708939 ], [ 43.4084648, 12.217245 ], [ 43.4167967, 12.0928512 ], [ 43.3704739, 11.981669 ], [ 43.30533, 11.9790931 ], [ 43.2910552, 11.9596495 ], [ 43.1825355, 11.9503719 ], [ 43.06914, 11.8298727 ] ] ] ] } },
{ "type": "Feature", "properties": { "POLYGON_ID": "DJI_GAUL2007_ADM1_1097", "ADM0_ISO3": "DJI", "ADM0_NAME": "Djibouti", "ADM0_CODE": 70, "ADM1_NAME": "Tadjourah", "ADM1_CODE": 1097, "GEOSET": "GAUL", "GEOSET_YEAR": 2007.0, "GEOSET_VERSION": "GAUL_v1", "GEOSET_UNIT": "ADM1", "CENTROID_LONG": 42.53347883959632, "CENTROID_LAT": 12.002436563865929 }, "geometry": { "type": "MultiPolygon", "coordinates": [ [ [ [ 42.7091349, 12.3753148 ], [ 42.7094803, 12.3458309 ], [ 42.8107681, 12.1992598 ], [ 42.8269196, 12.1622801 ], [ 42.9467812, 12.0059605 ], [ 43.0433998, 11.8556995 ], [ 43.06914, 11.8298727 ], [ 43.0566339, 11.8110685 ], [ 42.9790149, 11.8055032 ], [ 42.9444984, 11.7707389 ], [ 42.87055, 11.7855772 ], [ 42.8165533, 11.7515 ], [ 42.7771436, 11.7439839 ], [ 42.7483812, 11.6807861 ], [ 42.6984676, 11.633516 ], [ 42.6778437, 11.5684484 ], [ 42.6394217, 11.5560332 ], [ 42.5868684, 11.5626822 ], [ 42.5555872, 11.5858549 ], [ 42.5312911, 11.5569406 ], [ 42.4174194, 11.6170702 ], [ 42.3459015, 11.6633596 ], [ 42.1654396, 11.82232 ], [ 42.1301613, 11.8625498 ], [ 42.0394974, 11.9323347 ], [ 42.0676141, 11.9818972 ], [ 42.1469172, 12.0777013 ], [ 42.1604628, 12.1180917 ], [ 42.2232649, 12.2161122 ], [ 42.3161136, 12.3077295 ], [ 42.3395104, 12.3801366 ], [ 42.4042778, 12.4686389 ], [ 42.4617611, 12.5240975 ], [ 42.541895, 12.492917 ], [ 42.5878837, 12.4572726 ], [ 42.6432156, 12.3974043 ], [ 42.6763253, 12.37422 ], [ 42.7091349, 12.3753148 ] ] ] ] } }
]
}
