{
"type": "FeatureCollection",
"name": "DMA_GAUL2001_ADM2",
"crs": { "type": "name", "properties": { "name": "urn:ogc:def:crs:OGC:1.3:CRS84" } },
"features": [
{ "type": "Feature", "properties": { "POLYGON_ID": "DMA_GAUL2001_ADM2_15283", "ADM0_ISO3": "DMA", "ADM0_NAME": "Dominica", "ADM0_CODE": 71, "ADM1_NAME": "St. Andrew", "ADM1_CODE": 1098, "ADM2_NAME": "Administrative unit not available", "ADM2_CODE": 15283, "GEOSET": "GAUL", "GEOSET_YEAR": 2001.0, "GEOSET_VERSION": "GAUL_v1", "GEOSET_UNIT": "ADM2", "CENTROID_LONG": -61.362770212584337, "CENTROID_LAT": 15.54756244367408 }, "geometry": { "type": "MultiPolygon", "coordinates": [ [ [ [ -61.2752241, 15.5214549 ], [ -61.3419685, 15.4755239 ], [ -61.404232, 15.5099621 ], [ -61.4104309, 15.5241833 ], [ -61.4546189, 15.6380401 ], [ -61.3953236, 15.6004519 ], [ -61.3051094, 15.5749572 ], [ -61.2752241, 15.5214549 ] ] ] ] } },
{ "type": "Feature", "properties": { "POLYGON_ID": "DMA_GAUL2001_ADM2_15285", "ADM0_ISO3": "DMA", "ADM0_NAME": "Dominica", "ADM0_CODE": 71, "ADM1_NAME": "St. George", "ADM1_CODE": 1100, "ADM2_NAME": "Administrative unit not available", "ADM2_CODE": 15285, "GEOSET": "GAUL", "GEOSET_YEAR": 2001.0, "GEOSET_VERSION": "GAUL_v1", "GEOSET_UNIT": "ADM2", "CENTROID_LONG": -61.355509320007641, "CENTROID_LAT": 15.298279750377196 }, "geometry": { "type": "MultiPolygon", "coordinates": [ [ [ [ -61.3172302, 15.3099203 ], [ -61.3546596, 15.2571427 ], [ -61.3778248, 15.2598037 ], [ -61.3893793, 15.3160008 ], [ -61.3334274, 15.3369818 ], [ -61.3172302, 15.3099203 ] ] ] ] } },
{ "type": "Feature", "properties": { "POLYGON_ID": "DMA_GAUL2001_ADM2_15286", "ADM0_ISO3": "DMA", "ADM0_NAME": "Dominica", "ADM0_CODE": 71, "ADM1_NAME": "St. John", "ADM1_CODE": 1101, "ADM2_NAME": "Administrative unit not available", "ADM2_CODE": 15286, "GEOSET": "GAUL", "GEOSET_YEAR": 2001.0, "GEOSET_VERSION": "GAUL_v1", "GEOSET_UNIT": "ADM2", "CENTROID_LONG": -61.446603366666672, "CENTROID_LAT": 15.5641674 }, "geometry": { "type": "MultiPolygon", "coordinates": [ [ [ [ -61.4546189, 15.6380401 ], [ -61.4104309, 15.5241833 ], [ -61.4747603, 15.5302788 ], [ -61.4546189, 15.6380401 ] ] ] ] } },
{ "type": "Feature", "properties": { "POLYGON_ID": "DMA_GAUL2001_ADM2_15287", "ADM0_ISO3": "DMA", "ADM0_NAME": "Dominica", "ADM0_CODE": 71, "ADM1_NAME": "St. Joseph", "ADM1_CODE": 1102, "ADM2_NAME": "Administrative unit not available", "ADM2_CODE": 15287, "GEOSET": "GAUL", "GEOSET_YEAR": 2001.0, "GEOSET_VERSION": "GAUL_v1", "GEOSET_UNIT": "ADM2", "CENTROID_LONG": -61.396255556438007, "CENTROID_LAT": 15.448580612178622 }, "geometry": { "type": "MultiPolygon", "coordinates": [ [ [ [ -61.3419685, 15.4755239 ], [ -61.3504944, 15.3990517 ], [ -61.4196749, 15.3894354 ], [ -61.4595151, 15.4773823 ], [ -61.404232, 15.5099621 ], [ -61.3419685, 15.4755239 ] ] ] ] } },
{ "type": "Feature", "properties": { "POLYGON_ID": "DMA_GAUL2001_ADM2_15288", "ADM0_ISO3": "DMA", "ADM0_NAME": "Dominica", "ADM0_CODE": 71, "ADM1_NAME": "St. Luke", "ADM1_CODE": 1103, "ADM2_NAME": "Administrative unit not available", "ADM2_CODE": 15288, "GEOSET": "GAUL", "GEOSET_YEAR": 2001.0, "GEOSET_VERSION": "GAUL_v1", "GEOSET_UNIT": "ADM2", "CENTROID_LONG": -61.362784942277834, "CENTROID_LAT": 15.245395728720565 }, "geometry": { "type": "MultiPolygon", "coordinates": [ [ [ [ -61.3546596, 15.2571427 ], [ -61.3540312, 15.2282239 ], [ -61.3610203, 15.2260759 ], [ -61.3778248, 15.2598037 ], [ -61.3546596, 15.2571427 ] ] ] ] } },
{ "type": "Feature", "properties": { "POLYGON_ID": "DMA_GAUL2001_ADM2_15289", "ADM0_ISO3": "DMA", "ADM0_NAME": "Dominica", "ADM0_CODE": 71, "ADM1_NAME": "St. Mark", "ADM1_CODE": 1104, "ADM2_NAME": "Administrative unit not available", "ADM2_CODE": 15289, "GEOSET": "GAUL", "GEOSET_YEAR": 2001.0, "GEOSET_VERSION": "GAUL_v1", "GEOSET_UNIT": "ADM2", "CENTROID_LONG": -61.35303953333333, "CENTROID_LAT": 15.221126566666666 }, "geometry": { "type": "MultiPolygon", "coordinates": [ [ [ [ -61.3440671, 15.2090799 ], [ -61.3610203, 15.2260759 ], [ -61.3540312, 15.2282239 ], [ -61.3440671, 15.2090799 ] ] ] ] } },
{ "type": "Feature", "properties": { "POLYGON_ID": "DMA_GAUL2001_ADM2_15290", "ADM0_ISO3": "DMA", "ADM0_NAME": "Dominica", "ADM0_CODE": 71, "ADM1_NAME": "St. Patrick", "ADM1_CODE": 1105, "ADM2_NAME": "Administrative unit not available", "ADM2_CODE": 15290, "GEOSET": "GAUL", "GEOSET_YEAR": 2001.0, "GEOSET_VERSION": "GAUL_v1", "GEOSET_UNIT": "ADM2", "CENTROID_LONG": -61.300259774796068, "CENTROID_LAT": 15.276196400220012 }, "geometry": { "type": "MultiPolygon", "coordinates": [ [ [ [ -61.3440671, 15.2090799 ], [ -61.3540312, 15.2282239 ], [ -61.3546596, 15.2571427 ], [ -61.3172302, 15.3099203 ], [ -61.2462865, 15.339821 ], [ -61.25956, 15.2518543 ], [ -61.3029117, 15.2453753 ], [ -61.3440671, 15.2090799 ] ] ] ] } },
{ "type": "Feature", "properties": { "POLYGON_ID": "DMA_GAUL2001_ADM2_15291", "ADM0_ISO3": "DMA", "ADM0_NAME": "Dominica", "ADM0_CODE": 71, "ADM1_NAME": "St. Paul", "ADM1_CODE": 1106, "ADM2_NAME": "Administrative unit not available", "ADM2_CODE": 15291, "GEOSET": "GAUL", "GEOSET_YEAR": 2001.0, "GEOSET_VERSION": "GAUL_v1", "GEOSET_UNIT": "ADM2", "CENTROID_LONG": -61.374547999311446, "CENTROID_LAT": 15.360883869176257 }, "geometry": { "type": "MultiPolygon", "coordinates": [ [ [ [ -61.3334274, 15.3369818 ], [ -61.3893793, 15.3160008 ], [ -61.4196749, 15.3894354 ], [ -61.3504944, 15.3990517 ], [ -61.3334274, 15.3369818 ] ] ] ] } },
{ "type": "Feature", "properties": { "POLYGON_ID": "DMA_GAUL2001_ADM2_15292", "ADM0_ISO3": "DMA", "ADM0_NAME": "Dominica", "ADM0_CODE": 71, "ADM1_NAME": "St. Peter", "ADM1_CODE": 1107, "ADM2_NAME": "Administrative unit not available", "ADM2_CODE": 15292, "GEOSET": "GAUL", "GEOSET_YEAR": 2001.0, "GEOSET_VERSION": "GAUL_v1", "GEOSET_UNIT": "ADM2", "CENTROID_LONG": -61.442830421845684, "CENTROID_LAT": 15.509057808028111 }, "geometry": { "type": "MultiPolygon", "coordinates": [ [ [ [ -61.4747603, 15.5302788 ], [ -61.4104309, 15.5241833 ], [ -61.404232, 15.5099621 ], [ -61.4595151, 15.4773823 ], [ -61.4747603, 15.5302788 ] ] ] ] } },
{ "type": "Feature", "properties": { "POLYGON_ID": "DMA_GAUL2001_ADM2_15284", "ADM0_ISO3": "DMA", "ADM0_NAME": "Dominica", "ADM0_CODE": 71, "ADM1_NAME": "St. David", "ADM1_CODE": 1099, "ADM2_NAME": "Administrative unit not available", "ADM2_CODE": 15284, "GEOSET": "GAUL", "GEOSET_YEAR": 2001.0, "GEOSET_VERSION": "GAUL_v1", "GEOSET_UNIT": "ADM2", "CENTROID_LONG": -61.296204865785398, "CENTROID_LAT": 15.412829891411166 }, "geometry": { "type": "MultiPolygon", "coordinates": [ [ [ [ -61.2462865, 15.339821 ], [ -61.3172302, 15.3099203 ], [ -61.3334274, 15.3369818 ], [ -61.3504944, 15.3990517 ], [ -61.3419685, 15.4755239 ], [ -61.2752241, 15.5214549 ], [ -61.2420881, 15.4656173 ], [ -61.2546791, 15.4429353 ], [ -61.2462865, 15.339821 ] ] ] ] } }
]
}
