{
"type": "FeatureCollection",
"name": "DMA_GAUL2004_ADM0",
"crs": { "type": "name", "properties": { "name": "urn:ogc:def:crs:OGC:1.3:CRS84" } },
"features": [
{ "type": "Feature", "properties": { "POLYGON_ID": "DMA_GAUL2004_ADM0_71", "ADM0_ISO3": "DMA", "ADM0_NAME": "Dominica", "ADM0_CODE": 71, "GEOSET": "GAUL", "GEOSET_YEAR": 2004.0, "GEOSET_VERSION": "GAUL_v1", "GEOSET_UNIT": "ADM0", "CENTROID_LONG": -61.349979274310677, "CENTROID_LAT": 15.43426078390001 }, "geometry": { "type": "MultiPolygon", "coordinates": [ [ [ [ -61.4305141, 15.6395115 ], [ -61.3953236, 15.6004519 ], [ -61.3381542, 15.5960723 ], [ -61.3051094, 15.5749572 ], [ -61.2753717, 15.5219341 ], [ -61.2560744, 15.5174015 ], [ -61.2420881, 15.4656173 ], [ -61.2546791, 15.4429353 ], [ -61.2411827, 15.3969056 ], [ -61.2517489, 15.3920738 ], [ -61.2412124, 15.3320996 ], [ -61.25956, 15.2518543 ], [ -61.3029117, 15.2453753 ], [ -61.3301889, 15.2141214 ], [ -61.3534229, 15.2076948 ], [ -61.3909778, 15.2989089 ], [ -61.3946707, 15.3563212 ], [ -61.4270769, 15.3949475 ], [ -61.4273184, 15.4151182 ], [ -61.4706382, 15.497255 ], [ -61.4795062, 15.5399401 ], [ -61.456185, 15.5709802 ], [ -61.4670513, 15.5902664 ], [ -61.458458, 15.6385045 ], [ -61.4305141, 15.6395115 ] ] ] ] } }
]
}
