{
"type": "FeatureCollection",
"name": "DNK_GAUL2010_ADM0",
"crs": { "type": "name", "properties": { "name": "urn:ogc:def:crs:OGC:1.3:CRS84" } },
"features": [
{ "type": "Feature", "properties": { "POLYGON_ID": "DNK_GAUL2010_ADM0_69", "ADM0_ISO3": "DNK", "ADM0_NAME": "Denmark", "ADM0_CODE": 69, "GEOSET": "GAUL", "GEOSET_YEAR": 2010.0, "GEOSET_VERSION": "GAUL_v1", "GEOSET_UNIT": "ADM0", "CENTROID_LONG": 10.021203568729153, "CENTROID_LAT": 55.989477647200957 }, "geometry": { "type": "MultiPolygon", "coordinates": [ [ [ [ 14.9396496, 55.2100067 ], [ 15.0615292, 55.1598091 ], [ 15.1579733, 55.1316109 ], [ 15.1453075, 55.1124687 ], [ 15.1582212, 55.0812836 ], [ 15.1095724, 55.0360413 ], [ 15.1213369, 55.0150452 ], [ 15.0742092, 54.9848518 ], [ 14.9596663, 55.0027008 ], [ 14.8883123, 55.0296059 ], [ 14.7758865, 55.0510445 ], [ 14.6891975, 55.0927963 ], [ 14.7050323, 55.1423035 ], [ 14.6991262, 55.1952438 ], [ 14.7082033, 55.2217598 ], [ 14.7722359, 55.3001366 ], [ 14.8222294, 55.253582 ], [ 14.9396496, 55.2100067 ] ] ], [ [ [ 12.7745543, 55.6734962 ], [ 12.7874556, 55.6097298 ], [ 12.7355204, 55.6357307 ], [ 12.745924, 55.6684265 ], [ 12.7745543, 55.6734962 ] ] ], [ [ [ 12.6580563, 55.6390915 ], [ 12.6745367, 55.6300926 ], [ 12.6703835, 55.5870399 ], [ 12.596056, 55.5577278 ], [ 12.5341368, 55.5760956 ], [ 12.5144281, 55.6140442 ], [ 12.6024141, 55.679615 ], [ 12.6580563, 55.6390915 ] ] ], [ [ [ 12.4214821, 56.0884972 ], [ 12.4975758, 56.086647 ], [ 12.5484095, 56.0723228 ], [ 12.6351137, 56.0291862 ], [ 12.5578632, 55.9833183 ], [ 12.5227127, 55.9217758 ], [ 12.5717802, 55.8578262 ], [ 12.6064634, 55.7622452 ], [ 12.5975161, 55.6878471 ], [ 12.4981117, 55.6069984 ], [ 12.4432545, 55.6188202 ], [ 12.3871193, 55.6155777 ], [ 12.2655172, 55.5600204 ], [ 12.2358818, 55.5370445 ], [ 12.1960182, 55.4696655 ], [ 12.2300425, 55.4258957 ], [ 12.3112764, 55.40271 ], [ 12.3746042, 55.3960457 ], [ 12.4431496, 55.3543358 ], [ 12.456831, 55.3312988 ], [ 12.4491472, 55.2780914 ], [ 12.3600845, 55.2378807 ], [ 12.2650471, 55.2418098 ], [ 12.1562176, 55.210331 ], [ 12.1106815, 55.1761093 ], [ 12.0327263, 55.1656456 ], [ 12.0161171, 55.1478043 ], [ 12.0390072, 55.1269455 ], [ 12.1141777, 55.1318016 ], [ 12.1854115, 55.1122932 ], [ 12.127758, 55.0481606 ], [ 12.1741133, 55.0 ], [ 12.1126165, 54.9888458 ], [ 12.0805683, 54.9680023 ], [ 12.029563, 54.9603043 ], [ 11.9824791, 54.9743881 ], [ 11.9538269, 54.9963951 ], [ 11.9079447, 54.9916382 ], [ 11.8297138, 55.0412483 ], [ 11.8115368, 55.0719452 ], [ 11.7641907, 55.075428 ], [ 11.7253695, 55.1105804 ], [ 11.7641554, 55.1184349 ], [ 11.7927294, 55.1539001 ], [ 11.7359858, 55.1529388 ], [ 11.7457304, 55.1811447 ], [ 11.7183609, 55.2094345 ], [ 11.6775665, 55.2021027 ], [ 11.6503115, 55.1773148 ], [ 11.5536652, 55.1903801 ], [ 11.4322004, 55.2175446 ], [ 11.3693686, 55.1981201 ], [ 11.2655144, 55.2009354 ], [ 11.2372351, 55.2424011 ], [ 11.2492409, 55.2611809 ], [ 11.2341261, 55.2916565 ], [ 11.1763, 55.3083076 ], [ 11.2102947, 55.3462524 ], [ 11.1341419, 55.3342934 ], [ 11.0972996, 55.3526192 ], [ 11.2204351, 55.3954506 ], [ 11.1999807, 55.4254189 ], [ 11.2078819, 55.4505119 ], [ 11.1498547, 55.5395813 ], [ 11.1640806, 55.5674286 ], [ 11.1256905, 55.6233482 ], [ 11.0421534, 55.6535759 ], [ 11.1086216, 55.6680183 ], [ 11.034709, 55.698597 ], [ 10.9755812, 55.7325287 ], [ 10.9814959, 55.7508354 ], [ 11.0559464, 55.7358093 ], [ 11.1352205, 55.7552948 ], [ 11.1847715, 55.7572556 ], [ 11.2682562, 55.7328873 ], [ 11.312952, 55.7569008 ], [ 11.3479061, 55.7584 ], [ 11.3862638, 55.7901573 ], [ 11.392417, 55.8340302 ], [ 11.4526196, 55.850132 ], [ 11.4966555, 55.8487511 ], [ 11.5320473, 55.8741798 ], [ 11.5251675, 55.9267502 ], [ 11.4696693, 55.9493446 ], [ 11.3811216, 55.9534492 ], [ 11.3830662, 55.9670868 ], [ 11.5382233, 55.9516258 ], [ 11.5945854, 55.9607277 ], [ 11.6508675, 55.9382782 ], [ 11.7048054, 55.947422 ], [ 11.7823238, 55.9761963 ], [ 11.7953892, 55.9567223 ], [ 11.7588205, 55.9403191 ], [ 11.7542562, 55.9062195 ], [ 11.6740866, 55.9150047 ], [ 11.6699524, 55.8872871 ], [ 11.6968985, 55.875061 ], [ 11.7399855, 55.828846 ], [ 11.7193308, 55.8088455 ], [ 11.6777506, 55.8202629 ], [ 11.6359615, 55.7754631 ], [ 11.7402716, 55.7977524 ], [ 11.7737579, 55.7534866 ], [ 11.7524233, 55.7410584 ], [ 11.6618996, 55.7349396 ], [ 11.6691532, 55.7177505 ], [ 11.7880859, 55.7250404 ], [ 11.8434525, 55.6920052 ], [ 11.8634825, 55.7330437 ], [ 11.8570042, 55.7591286 ], [ 11.8802538, 55.8126068 ], [ 11.9487696, 55.8256416 ], [ 11.9635525, 55.8495026 ], [ 11.9041948, 55.9207649 ], [ 11.9676228, 55.9295616 ], [ 12.0319023, 55.9015846 ], [ 12.0054712, 55.8823204 ], [ 12.0358286, 55.8531952 ], [ 12.044816, 55.8064194 ], [ 12.069828, 55.7678986 ], [ 12.0689983, 55.7363815 ], [ 11.9942837, 55.7405891 ], [ 11.9592123, 55.6775398 ], [ 11.9978542, 55.6796303 ], [ 12.011837, 55.7037506 ], [ 12.0607748, 55.6756744 ], [ 12.0994148, 55.6932793 ], [ 12.105607, 55.756588 ], [ 12.0498095, 55.8514786 ], [ 12.0718746, 55.8777733 ], [ 12.0513973, 55.9204445 ], [ 12.0109406, 55.9694061 ], [ 11.8992634, 55.9418983 ], [ 11.8600788, 55.9439049 ], [ 11.8555164, 55.9758492 ], [ 11.9537096, 56.002861 ], [ 12.1872606, 56.102066 ], [ 12.2996378, 56.1206017 ], [ 12.4214821, 56.0884972 ] ] ], [ [ [ 12.2739029, 55.0549126 ], [ 12.3148766, 55.0277138 ], [ 12.4665775, 55.0227776 ], [ 12.5234642, 55.0082893 ], [ 12.5563765, 54.9586983 ], [ 12.5103607, 54.941803 ], [ 12.4317608, 54.9595604 ], [ 12.3448048, 54.9597816 ], [ 12.2912903, 54.939476 ], [ 12.210145, 54.8800659 ], [ 12.1459084, 54.8798561 ], [ 12.1144714, 54.9162178 ], [ 12.1492729, 54.9401398 ], [ 12.1666517, 54.9702911 ], [ 12.2078304, 54.9662323 ], [ 12.2919416, 54.9817009 ], [ 12.2881575, 55.015152 ], [ 12.2582645, 55.038887 ], [ 12.2739029, 55.0549126 ] ] ], [ [ [ 11.8448076, 54.9572983 ], [ 11.8960304, 54.9202766 ], [ 11.9783716, 54.9349709 ], [ 11.9933758, 54.8993378 ], [ 12.1224718, 54.8856659 ], [ 12.1700668, 54.8334999 ], [ 12.0878296, 54.7905464 ], [ 12.0454454, 54.758461 ], [ 12.0254927, 54.7284012 ], [ 11.9886389, 54.7081985 ], [ 11.9653854, 54.6636162 ], [ 11.9765882, 54.5626602 ], [ 11.9244785, 54.5771866 ], [ 11.9166422, 54.6097832 ], [ 11.8773394, 54.6461906 ], [ 11.8827429, 54.6908302 ], [ 11.9162455, 54.7164612 ], [ 11.8741083, 54.73032 ], [ 11.8884125, 54.7505608 ], [ 11.8677206, 54.7754326 ], [ 11.79879, 54.8104858 ], [ 11.8081627, 54.8458061 ], [ 11.7622871, 54.8595352 ], [ 11.7447424, 54.8886032 ], [ 11.7594805, 54.9159317 ], [ 11.7109833, 54.9283714 ], [ 11.7357693, 54.953476 ], [ 11.7740154, 54.9613419 ], [ 11.8054075, 54.9351501 ], [ 11.8448076, 54.9572983 ] ] ], [ [ [ 12.0718241, 54.9365616 ], [ 12.0791569, 54.9067268 ], [ 12.0100775, 54.9187813 ], [ 12.0122662, 54.9363098 ], [ 12.0718241, 54.9365616 ] ] ], [ [ [ 11.2652559, 54.9542351 ], [ 11.3205814, 54.9229736 ], [ 11.3541679, 54.9183235 ], [ 11.3831825, 54.8829536 ], [ 11.4696178, 54.8589363 ], [ 11.4658403, 54.8428345 ], [ 11.5630598, 54.8242912 ], [ 11.5861397, 54.8565788 ], [ 11.6376448, 54.8568802 ], [ 11.6628094, 54.8995972 ], [ 11.7225313, 54.8716354 ], [ 11.7461128, 54.8466797 ], [ 11.7926455, 54.8285789 ], [ 11.7857847, 54.8075714 ], [ 11.8594418, 54.7723389 ], [ 11.8703871, 54.7387085 ], [ 11.8235455, 54.7300835 ], [ 11.8214102, 54.7056808 ], [ 11.8554163, 54.6768379 ], [ 11.8046722, 54.6447945 ], [ 11.7570152, 54.6549454 ], [ 11.5660257, 54.6594467 ], [ 11.5052748, 54.6377411 ], [ 11.4659691, 54.6135979 ], [ 11.3587961, 54.652359 ], [ 11.2681007, 54.7032356 ], [ 11.009963, 54.7634773 ], [ 10.9808636, 54.7919579 ], [ 11.0286589, 54.8156662 ], [ 11.0741215, 54.8001671 ], [ 11.0918055, 54.8338585 ], [ 11.0201635, 54.8920975 ], [ 11.0734463, 54.9367027 ], [ 11.1792641, 54.9588776 ], [ 11.2652559, 54.9542351 ] ] ], [ [ [ 11.8467531, 55.7940483 ], [ 11.8173618, 55.7526932 ], [ 11.7791414, 55.784359 ], [ 11.8467531, 55.7940483 ] ] ], [ [ [ 11.664176, 56.7344284 ], [ 11.5474014, 56.6862755 ], [ 11.5154133, 56.7176971 ], [ 11.664176, 56.7344284 ] ] ], [ [ [ 11.4236479, 54.9622002 ], [ 11.4358997, 54.9439049 ], [ 11.4059219, 54.9203148 ], [ 11.3811445, 54.9546165 ], [ 11.4236479, 54.9622002 ] ] ], [ [ [ 11.1664314, 57.2950172 ], [ 11.1217518, 57.2936707 ], [ 11.033412, 57.2214432 ], [ 11.0334663, 57.1990433 ], [ 10.9025831, 57.2222366 ], [ 10.8720245, 57.2612724 ], [ 10.9312305, 57.2933578 ], [ 11.0306492, 57.3160667 ], [ 11.092226, 57.316761 ], [ 11.1322994, 57.3279495 ], [ 11.1922045, 57.324482 ], [ 11.1664314, 57.2950172 ] ] ], [ [ [ 10.8866053, 54.9841042 ], [ 10.8440495, 54.9463959 ], [ 10.8124762, 54.8738022 ], [ 10.7900238, 54.8459473 ], [ 10.7389259, 54.7444649 ], [ 10.7002583, 54.723278 ], [ 10.648838, 54.8117561 ], [ 10.6723537, 54.8480606 ], [ 10.6779613, 54.9084625 ], [ 10.7277575, 54.953537 ], [ 10.8140736, 54.993309 ], [ 10.8527365, 55.0357246 ], [ 10.8890743, 55.114315 ], [ 10.9355555, 55.1612473 ], [ 10.9596777, 55.1474228 ], [ 10.9415741, 55.0858498 ], [ 10.8866053, 54.9841042 ] ] ], [ [ [ 9.4231949, 54.8322449 ], [ 9.382995, 54.839218 ], [ 9.343752, 54.800235 ], [ 9.250267, 54.809684 ], [ 9.240322, 54.850034 ], [ 9.148701, 54.872113 ], [ 9.048086, 54.871985 ], [ 8.948375, 54.902508 ], [ 8.83229, 54.906951 ], [ 8.727892, 54.892756 ], [ 8.6516469, 54.9096616 ], [ 8.675519, 54.9654846 ], [ 8.6346922, 55.036869 ], [ 8.6516705, 55.0882111 ], [ 8.6883965, 55.1616211 ], [ 8.663064, 55.2355003 ], [ 8.6556749, 55.2929001 ], [ 8.6742601, 55.3327904 ], [ 8.6257095, 55.4277573 ], [ 8.5468769, 55.4580917 ], [ 8.5046349, 55.454567 ], [ 8.4324617, 55.4641991 ], [ 8.4153633, 55.4881516 ], [ 8.2983017, 55.5671768 ], [ 8.2664127, 55.5969849 ], [ 8.2394505, 55.562397 ], [ 8.2583895, 55.5300102 ], [ 8.3097696, 55.4967728 ], [ 8.3040352, 55.4717484 ], [ 8.1885195, 55.5301209 ], [ 8.0770683, 55.561657 ], [ 8.1581364, 55.7033577 ], [ 8.1801767, 55.7706261 ], [ 8.1371731, 55.9715243 ], [ 8.1738358, 55.9533463 ], [ 8.1719522, 55.9098167 ], [ 8.2631273, 55.886898 ], [ 8.2737837, 55.8457298 ], [ 8.3825035, 55.9043846 ], [ 8.3773556, 55.9491386 ], [ 8.3236103, 55.9871941 ], [ 8.3093376, 56.0451126 ], [ 8.2399158, 56.0937462 ], [ 8.1981792, 56.1053085 ], [ 8.1471376, 56.0951386 ], [ 8.1098356, 56.1019783 ], [ 8.1349716, 56.2052422 ], [ 8.131505, 56.3034592 ], [ 8.1173773, 56.4059906 ], [ 8.1265469, 56.5456963 ], [ 8.1624641, 56.6430779 ], [ 8.20298, 56.6959648 ], [ 8.2211905, 56.6913681 ], [ 8.1793022, 56.6398277 ], [ 8.2373343, 56.6238365 ], [ 8.2423153, 56.6079483 ], [ 8.3019123, 56.5974541 ], [ 8.2954073, 56.5799255 ], [ 8.4097767, 56.5715561 ], [ 8.5296297, 56.5433044 ], [ 8.5552454, 56.5550499 ], [ 8.5043325, 56.6195793 ], [ 8.4326468, 56.6596298 ], [ 8.3668804, 56.6741676 ], [ 8.3220425, 56.7179642 ], [ 8.3143272, 56.7479744 ], [ 8.268424, 56.7716064 ], [ 8.2271061, 56.7578278 ], [ 8.2564821, 56.8280449 ], [ 8.3082914, 56.8903084 ], [ 8.3694019, 56.9479561 ], [ 8.4311352, 56.9886589 ], [ 8.4801121, 57.0395775 ], [ 8.5173721, 57.0456314 ], [ 8.6232061, 57.1203156 ], [ 8.7455835, 57.0978012 ], [ 8.8553257, 57.1069489 ], [ 8.9670258, 57.1473541 ], [ 9.0292368, 57.1536789 ], [ 9.0999174, 57.1367874 ], [ 9.2512608, 57.1329803 ], [ 9.3967066, 57.1549721 ], [ 9.5343027, 57.2157784 ], [ 9.6168461, 57.2739487 ], [ 9.7427979, 57.3954201 ], [ 9.7983084, 57.4719162 ], [ 9.8822107, 57.5203209 ], [ 9.9445696, 57.5847015 ], [ 10.0068188, 57.5889015 ], [ 10.0729771, 57.5828438 ], [ 10.1870584, 57.5919533 ], [ 10.2799978, 57.6163712 ], [ 10.3879652, 57.6611481 ], [ 10.4943438, 57.7147408 ], [ 10.5676899, 57.743187 ], [ 10.6612167, 57.7398796 ], [ 10.5496635, 57.6962395 ], [ 10.4702549, 57.6330032 ], [ 10.433013, 57.5783997 ], [ 10.4533958, 57.5339279 ], [ 10.5156078, 57.4939919 ], [ 10.5587053, 57.4491501 ], [ 10.5343885, 57.3832092 ], [ 10.5417957, 57.3174095 ], [ 10.557169, 57.2786179 ], [ 10.5597067, 57.2242317 ], [ 10.5017414, 57.1944847 ], [ 10.4399347, 57.1509781 ], [ 10.3938885, 57.0819321 ], [ 10.3839254, 57.036396 ], [ 10.3426456, 56.9904442 ], [ 10.2925396, 56.9517365 ], [ 10.2794094, 56.9059448 ], [ 10.2780571, 56.8387527 ], [ 10.3015776, 56.7557335 ], [ 10.3388767, 56.7207794 ], [ 10.3296423, 56.7065582 ], [ 10.2249889, 56.7122574 ], [ 10.1896219, 56.7010956 ], [ 10.2030144, 56.6789665 ], [ 10.3144159, 56.7012062 ], [ 10.3553276, 56.6882057 ], [ 10.3649979, 56.641655 ], [ 10.3442755, 56.6040611 ], [ 10.3616476, 56.5641861 ], [ 10.4430294, 56.5196419 ], [ 10.5224295, 56.5086136 ], [ 10.6151829, 56.5124359 ], [ 10.6348705, 56.5209656 ], [ 10.7326117, 56.5251694 ], [ 10.7915363, 56.5344658 ], [ 10.8630695, 56.5163383 ], [ 10.8843174, 56.484623 ], [ 10.9376087, 56.4602585 ], [ 10.9566908, 56.4308128 ], [ 10.923502, 56.4029083 ], [ 10.9181147, 56.3359756 ], [ 10.842165, 56.2824059 ], [ 10.8121328, 56.2464867 ], [ 10.7441053, 56.2109146 ], [ 10.7453518, 56.1688995 ], [ 10.6962757, 56.1365509 ], [ 10.6471853, 56.175663 ], [ 10.6773129, 56.1855888 ], [ 10.6753588, 56.2118416 ], [ 10.6171303, 56.2214508 ], [ 10.5576992, 56.1737022 ], [ 10.5620728, 56.1008759 ], [ 10.5180836, 56.0967903 ], [ 10.4950476, 56.1323051 ], [ 10.5100479, 56.1634369 ], [ 10.4587793, 56.1741409 ], [ 10.3969669, 56.1580429 ], [ 10.3781147, 56.1812286 ], [ 10.4107885, 56.2040253 ], [ 10.4873142, 56.2023773 ], [ 10.4728327, 56.2349625 ], [ 10.4994974, 56.2561073 ], [ 10.4658031, 56.2849426 ], [ 10.4079733, 56.286232 ], [ 10.3561077, 56.256691 ], [ 10.3432436, 56.2257805 ], [ 10.3147497, 56.2185173 ], [ 10.2566948, 56.1811333 ], [ 10.2264175, 56.131588 ], [ 10.2552862, 56.1018753 ], [ 10.2841387, 56.0347099 ], [ 10.2579346, 55.9128952 ], [ 10.2080097, 55.888443 ], [ 10.1870928, 55.8417549 ], [ 10.1316643, 55.8820152 ], [ 10.0785971, 55.8874969 ], [ 9.9663792, 55.8624878 ], [ 9.9088659, 55.8680077 ], [ 9.8804245, 55.8508987 ], [ 9.9793425, 55.831356 ], [ 10.0516462, 55.8293037 ], [ 10.0605469, 55.8089943 ], [ 10.0181408, 55.7792587 ], [ 10.0399742, 55.738533 ], [ 10.0345068, 55.7000961 ], [ 9.9224157, 55.6960526 ], [ 9.8254423, 55.6723824 ], [ 9.7493124, 55.6846733 ], [ 9.7158079, 55.7069016 ], [ 9.6727352, 55.6969261 ], [ 9.7388, 55.6618652 ], [ 9.759635, 55.6266861 ], [ 9.8598185, 55.6252213 ], [ 9.7981434, 55.5970192 ], [ 9.7718925, 55.5624847 ], [ 9.7371693, 55.5605583 ], [ 9.7431965, 55.5268631 ], [ 9.6705894, 55.5285301 ], [ 9.646183, 55.5126495 ], [ 9.5880013, 55.5016212 ], [ 9.5173473, 55.5017929 ], [ 9.517169, 55.4869614 ], [ 9.62854, 55.5014038 ], [ 9.6951942, 55.4615402 ], [ 9.6749516, 55.4473915 ], [ 9.5951099, 55.4231644 ], [ 9.6231804, 55.3942299 ], [ 9.6160707, 55.372242 ], [ 9.6492701, 55.3429565 ], [ 9.6410103, 55.3159714 ], [ 9.7155104, 55.2615204 ], [ 9.6942863, 55.226387 ], [ 9.6972303, 55.200058 ], [ 9.6421604, 55.175972 ], [ 9.5813322, 55.1896706 ], [ 9.5007544, 55.1578674 ], [ 9.5082836, 55.1268768 ], [ 9.5549021, 55.0799522 ], [ 9.5058575, 55.0469971 ], [ 9.433671, 55.0421486 ], [ 9.4540224, 55.0188789 ], [ 9.6076241, 55.0367546 ], [ 9.6336632, 55.0110435 ], [ 9.6944828, 54.9897728 ], [ 9.7379913, 54.9880714 ], [ 9.7583256, 54.928196 ], [ 9.7824373, 54.9109459 ], [ 9.7424192, 54.8824272 ], [ 9.765275, 54.8533287 ], [ 9.659606, 54.8574028 ], [ 9.6587992, 54.8802681 ], [ 9.6078701, 54.9111252 ], [ 9.5690947, 54.8816147 ], [ 9.5098505, 54.8708115 ], [ 9.4851856, 54.8501053 ], [ 9.4231949, 54.8322449 ] ] ], [ [ [ 10.4270334, 55.5888023 ], [ 10.5176344, 55.5446167 ], [ 10.4777679, 55.5350456 ], [ 10.4943199, 55.5089836 ], [ 10.4332705, 55.4674797 ], [ 10.4324913, 55.4447632 ], [ 10.4770422, 55.4416504 ], [ 10.5244722, 55.4692726 ], [ 10.5857582, 55.4852676 ], [ 10.6252089, 55.5078392 ], [ 10.5721321, 55.5249634 ], [ 10.6381454, 55.5688896 ], [ 10.6215897, 55.6241646 ], [ 10.7116842, 55.5424309 ], [ 10.7228699, 55.5121613 ], [ 10.754364, 55.4844551 ], [ 10.7057362, 55.4756851 ], [ 10.6735334, 55.4492607 ], [ 10.7745523, 55.3858109 ], [ 10.8062077, 55.3487091 ], [ 10.8187323, 55.3046684 ], [ 10.785511, 55.3002396 ], [ 10.8196554, 55.2319717 ], [ 10.806777, 55.1731949 ], [ 10.7848463, 55.1233826 ], [ 10.7462559, 55.069294 ], [ 10.6492252, 55.0563164 ], [ 10.6203032, 55.0608711 ], [ 10.5945854, 55.0474434 ], [ 10.5190821, 55.0277977 ], [ 10.4726915, 55.0421944 ], [ 10.4192905, 55.0403252 ], [ 10.3259172, 55.0541878 ], [ 10.2876034, 55.0806236 ], [ 10.2316875, 55.0775986 ], [ 10.1192265, 55.0881691 ], [ 10.0849018, 55.1066666 ], [ 10.1646032, 55.1328774 ], [ 10.1123323, 55.1911507 ], [ 10.0852442, 55.1763306 ], [ 9.9913387, 55.1780701 ], [ 10.0429716, 55.1351738 ], [ 10.007041, 55.1235352 ], [ 9.9837885, 55.167984 ], [ 9.9905567, 55.2041283 ], [ 9.9334726, 55.2190399 ], [ 9.8941031, 55.2419434 ], [ 9.8925648, 55.3120918 ], [ 9.8749237, 55.3543129 ], [ 9.8372259, 55.3531723 ], [ 9.820673, 55.443985 ], [ 9.7080584, 55.495945 ], [ 9.7583199, 55.5137253 ], [ 9.7683172, 55.5408859 ], [ 9.8051128, 55.5548515 ], [ 9.8516722, 55.5537376 ], [ 9.8697462, 55.5158615 ], [ 9.9443798, 55.5147095 ], [ 10.0453854, 55.5626183 ], [ 10.140995, 55.5809097 ], [ 10.2124138, 55.6025238 ], [ 10.3261871, 55.6238441 ], [ 10.4270334, 55.5888023 ] ] ], [ [ [ 10.6487494, 55.9220505 ], [ 10.6161489, 55.9077301 ], [ 10.6671515, 55.8637314 ], [ 10.6415939, 55.8334541 ], [ 10.6483421, 55.8019676 ], [ 10.6253634, 55.7684097 ], [ 10.5522385, 55.7735519 ], [ 10.5356302, 55.7909355 ], [ 10.5348883, 55.8535118 ], [ 10.5909033, 55.8719521 ], [ 10.6051388, 55.9071426 ], [ 10.574131, 55.9359131 ], [ 10.5410509, 55.9382553 ], [ 10.5281029, 55.9785767 ], [ 10.5615931, 56.0 ], [ 10.5818787, 55.9537163 ], [ 10.6487494, 55.9220505 ] ] ], [ [ [ 10.6539383, 55.021431 ], [ 10.624054, 54.9469261 ], [ 10.5586004, 54.9420547 ], [ 10.5165005, 55.0077667 ], [ 10.5584946, 55.0199928 ], [ 10.6396694, 55.0561523 ], [ 10.6539383, 55.021431 ] ] ], [ [ [ 10.2101393, 54.9701157 ], [ 10.2530708, 54.9426575 ], [ 10.2871647, 54.9380531 ], [ 10.3396339, 54.897953 ], [ 10.37292, 54.8844337 ], [ 10.4072905, 54.8962135 ], [ 10.4490013, 54.8628006 ], [ 10.4753323, 54.8832855 ], [ 10.5268221, 54.8484726 ], [ 10.4433985, 54.8348541 ], [ 10.4178438, 54.8182297 ], [ 10.3736172, 54.8371048 ], [ 10.318985, 54.8784294 ], [ 10.246027, 54.9197731 ], [ 10.2101393, 54.9701157 ] ] ], [ [ [ 9.8534365, 55.0478859 ], [ 9.8789425, 55.0276146 ], [ 9.9595375, 55.0118942 ], [ 9.9984951, 54.9869156 ], [ 10.0674315, 54.8948784 ], [ 9.9915733, 54.8552628 ], [ 9.9379196, 54.8568573 ], [ 9.8809261, 54.8722191 ], [ 9.9088955, 54.9078522 ], [ 9.8336058, 54.8905182 ], [ 9.7876911, 54.9069366 ], [ 9.7675095, 54.9348297 ], [ 9.8498278, 54.9693489 ], [ 9.7876501, 54.9836922 ], [ 9.7928514, 55.0118904 ], [ 9.7052441, 55.0075684 ], [ 9.6601343, 55.0266571 ], [ 9.6424122, 55.0519562 ], [ 9.7054615, 55.0788269 ], [ 9.7642155, 55.0833855 ], [ 9.8534365, 55.0478859 ] ] ], [ [ [ 8.5366488, 55.206974 ], [ 8.5871515, 55.1953011 ], [ 8.5559521, 55.1361732 ], [ 8.5695534, 55.0821075 ], [ 8.5008764, 55.0641212 ], [ 8.4688244, 55.0965157 ], [ 8.4850168, 55.1818924 ], [ 8.5366488, 55.206974 ] ] ], [ [ [ 8.4182148, 55.4283371 ], [ 8.4533825, 55.4360886 ], [ 8.4693956, 55.4062119 ], [ 8.4762716, 55.3392601 ], [ 8.4276705, 55.3535957 ], [ 8.3542404, 55.4526482 ], [ 8.4116411, 55.4649277 ], [ 8.4182148, 55.4283371 ] ] ] ] } }
]
}
