{
"type": "FeatureCollection",
"name": "DOM_GAUL1993_ADM1",
"crs": { "type": "name", "properties": { "name": "urn:ogc:def:crs:OGC:1.3:CRS84" } },
"features": [
{ "type": "Feature", "properties": { "POLYGON_ID": "DOM_GAUL1993_ADM1_1108", "ADM0_ISO3": "DOM", "ADM0_NAME": "Dominican Republic", "ADM0_CODE": 72, "ADM1_NAME": "Azua", "ADM1_CODE": 1108, "GEOSET": "GAUL", "GEOSET_YEAR": 1993.0, "GEOSET_VERSION": "GAUL_v1", "GEOSET_UNIT": "ADM1", "CENTROID_LONG": -70.836090252048393, "CENTROID_LAT": 18.584211260546503 }, "geometry": { "type": "MultiPolygon", "coordinates": [ [ [ [ -70.6843185, 18.6855564 ], [ -70.6663437, 18.6648121 ], [ -70.674881, 18.5981712 ], [ -70.6408691, 18.575386 ], [ -70.6122131, 18.5312824 ], [ -70.5138397, 18.4951191 ], [ -70.4976883, 18.4330616 ], [ -70.4778976, 18.4195423 ], [ -70.5031128, 18.2877312 ], [ -70.5888641, 18.2734137 ], [ -70.5720249, 18.3118873 ], [ -70.5807459, 18.4047587 ], [ -70.6702645, 18.4319292 ], [ -70.7105584, 18.40918 ], [ -70.7252239, 18.3564415 ], [ -70.8568089, 18.3387073 ], [ -70.8779618, 18.2981784 ], [ -70.9313686, 18.2551749 ], [ -70.9686504, 18.2578664 ], [ -70.9484177, 18.3116951 ], [ -70.9712906, 18.3533039 ], [ -71.027359, 18.3794861 ], [ -71.0243378, 18.4118576 ], [ -70.9950714, 18.4869499 ], [ -71.0470276, 18.4904118 ], [ -71.0308685, 18.5268936 ], [ -71.0879593, 18.5648174 ], [ -71.1226425, 18.5610123 ], [ -71.1634064, 18.6205082 ], [ -71.1405334, 18.6225281 ], [ -71.0863419, 18.669117 ], [ -71.0515137, 18.6784554 ], [ -71.0544739, 18.7674904 ], [ -71.0306778, 18.7798615 ], [ -70.9868164, 18.7636719 ], [ -70.9726639, 18.8122272 ], [ -70.9961243, 18.8496914 ], [ -70.9947357, 18.9001522 ], [ -70.9253693, 18.9246178 ], [ -70.9235153, 18.9588699 ], [ -70.8909225, 18.9923363 ], [ -70.8389587, 18.9881897 ], [ -70.8371582, 18.8821507 ], [ -70.8164597, 18.8394508 ], [ -70.7854309, 18.8284779 ], [ -70.7557526, 18.7739277 ], [ -70.6985168, 18.7755909 ], [ -70.6824341, 18.749752 ], [ -70.6843185, 18.6855564 ] ] ] ] } },
{ "type": "Feature", "properties": { "POLYGON_ID": "DOM_GAUL1993_ADM1_1109", "ADM0_ISO3": "DOM", "ADM0_NAME": "Dominican Republic", "ADM0_CODE": 72, "ADM1_NAME": "Baoruco", "ADM1_CODE": 1109, "GEOSET": "GAUL", "GEOSET_YEAR": 1993.0, "GEOSET_VERSION": "GAUL_v1", "GEOSET_UNIT": "ADM1", "CENTROID_LONG": -71.344967435299253, "CENTROID_LAT": 18.511712462653744 }, "geometry": { "type": "MultiPolygon", "coordinates": [ [ [ [ -71.1634064, 18.6205082 ], [ -71.1226425, 18.5610123 ], [ -71.0879593, 18.5648174 ], [ -71.0308685, 18.5268936 ], [ -71.0470276, 18.4904118 ], [ -71.0843048, 18.4565964 ], [ -71.1454086, 18.4398003 ], [ -71.2069626, 18.3776493 ], [ -71.2127457, 18.3265114 ], [ -71.2412643, 18.3376961 ], [ -71.2980957, 18.4186096 ], [ -71.4119644, 18.3727188 ], [ -71.4403915, 18.4190578 ], [ -71.4937897, 18.4446754 ], [ -71.6143799, 18.4611416 ], [ -71.6448746, 18.4896164 ], [ -71.5786057, 18.6537819 ], [ -71.578331, 18.6540203 ], [ -71.4785309, 18.6242237 ], [ -71.3927765, 18.6114941 ], [ -71.3685913, 18.5900135 ], [ -71.3175201, 18.6260166 ], [ -71.280304, 18.614584 ], [ -71.1634064, 18.6205082 ] ] ] ] } },
{ "type": "Feature", "properties": { "POLYGON_ID": "DOM_GAUL1993_ADM1_1110", "ADM0_ISO3": "DOM", "ADM0_NAME": "Dominican Republic", "ADM0_CODE": 72, "ADM1_NAME": "Barahona", "ADM1_CODE": 1110, "GEOSET": "GAUL", "GEOSET_YEAR": 1993.0, "GEOSET_VERSION": "GAUL_v1", "GEOSET_UNIT": "ADM1", "CENTROID_LONG": -71.213372932844521, "CENTROID_LAT": 18.169369461181951 }, "geometry": { "type": "MultiPolygon", "coordinates": [ [ [ [ -70.9686504, 18.2578664 ], [ -70.9975886, 18.3000137 ], [ -71.0564186, 18.3174367 ], [ -71.0983105, 18.2838124 ], [ -71.1088906, 18.2539642 ], [ -71.0580028, 18.1555984 ], [ -71.095271, 18.0684299 ], [ -71.1363641, 18.0294957 ], [ -71.1994631, 17.9313829 ], [ -71.2733447, 17.8536855 ], [ -71.3098297, 17.9214821 ], [ -71.3902359, 17.9316864 ], [ -71.3922119, 17.958643 ], [ -71.4377289, 17.9810619 ], [ -71.4299393, 18.0190945 ], [ -71.3896484, 18.0596485 ], [ -71.3932343, 18.1274338 ], [ -71.4263916, 18.1370602 ], [ -71.4091949, 18.1833553 ], [ -71.3461609, 18.1744308 ], [ -71.3923187, 18.2751675 ], [ -71.3586884, 18.3060265 ], [ -71.2735138, 18.2662392 ], [ -71.2473526, 18.2786179 ], [ -71.2127457, 18.3265114 ], [ -71.2069626, 18.3776493 ], [ -71.1454086, 18.4398003 ], [ -71.0843048, 18.4565964 ], [ -71.0470276, 18.4904118 ], [ -70.9950714, 18.4869499 ], [ -71.0243378, 18.4118576 ], [ -71.027359, 18.3794861 ], [ -70.9712906, 18.3533039 ], [ -70.9484177, 18.3116951 ], [ -70.9686504, 18.2578664 ] ] ] ] } },
{ "type": "Feature", "properties": { "POLYGON_ID": "DOM_GAUL1993_ADM1_1111", "ADM0_ISO3": "DOM", "ADM0_NAME": "Dominican Republic", "ADM0_CODE": 72, "ADM1_NAME": "Dajabon", "ADM1_CODE": 1111, "GEOSET": "GAUL", "GEOSET_YEAR": 1993.0, "GEOSET_VERSION": "GAUL_v1", "GEOSET_UNIT": "ADM1", "CENTROID_LONG": -71.602220427348897, "CENTROID_LAT": 19.434588922728032 }, "geometry": { "type": "MultiPolygon", "coordinates": [ [ [ [ -71.4279175, 19.5352478 ], [ -71.4671173, 19.4923115 ], [ -71.4687271, 19.384346 ], [ -71.5026398, 19.3068199 ], [ -71.5224533, 19.2631302 ], [ -71.5912933, 19.2828026 ], [ -71.6047897, 19.2470036 ], [ -71.6447449, 19.231699 ], [ -71.6818276, 19.2379569 ], [ -71.6835907, 19.2380745 ], [ -71.68922, 19.23845 ], [ -71.6983, 19.2428 ], [ -71.70379, 19.24817 ], [ -71.7158468, 19.2656114 ], [ -71.71863, 19.26684 ], [ -71.7196268, 19.2707491 ], [ -71.72055, 19.27437 ], [ -71.72584, 19.27308 ], [ -71.7294609, 19.26494 ], [ -71.732263, 19.2650107 ], [ -71.73382, 19.26505 ], [ -71.73511, 19.26686 ], [ -71.7358319, 19.2755603 ], [ -71.7392791, 19.2761613 ], [ -71.74386, 19.27696 ], [ -71.74708, 19.27917 ], [ -71.7493959, 19.2832716 ], [ -71.76489, 19.31566 ], [ -71.7736568, 19.3239578 ], [ -71.77835, 19.3284 ], [ -71.78707, 19.33363 ], [ -71.7822284, 19.3345469 ], [ -71.76167, 19.33844 ], [ -71.7539695, 19.3398925 ], [ -71.75006, 19.34063 ], [ -71.7197606, 19.363895 ], [ -71.71316, 19.36669 ], [ -71.7077756, 19.36752 ], [ -71.7033, 19.36821 ], [ -71.6906667, 19.3654115 ], [ -71.69066, 19.36541 ], [ -71.6916396, 19.3724156 ], [ -71.6924926, 19.3785158 ], [ -71.6937323, 19.3873818 ], [ -71.69484, 19.39539 ], [ -71.6928611, 19.3988473 ], [ -71.67503, 19.44168 ], [ -71.6890299, 19.4727604 ], [ -71.69143, 19.47317 ], [ -71.69401, 19.47839 ], [ -71.69252, 19.49313 ], [ -71.6874704, 19.5026549 ], [ -71.68726, 19.51188 ], [ -71.6911851, 19.5119894 ], [ -71.70218, 19.53215 ], [ -71.70658, 19.53341 ], [ -71.71006, 19.53631 ], [ -71.71091, 19.54846 ], [ -71.7153978, 19.5561563 ], [ -71.7214, 19.55852 ], [ -71.7267194, 19.5670108 ], [ -71.72765, 19.57071 ], [ -71.73875, 19.58481 ], [ -71.7399139, 19.5917454 ], [ -71.73952, 19.63637 ], [ -71.7390872, 19.6409023 ], [ -71.6930542, 19.6325493 ], [ -71.6724548, 19.6081867 ], [ -71.5834808, 19.6223717 ], [ -71.53862, 19.5886459 ], [ -71.4572449, 19.5605888 ], [ -71.4279175, 19.5352478 ] ] ] ] } },
{ "type": "Feature", "properties": { "POLYGON_ID": "DOM_GAUL1993_ADM1_1112", "ADM0_ISO3": "DOM", "ADM0_NAME": "Dominican Republic", "ADM0_CODE": 72, "ADM1_NAME": "Santo Domingo", "ADM1_CODE": 1112, "GEOSET": "GAUL", "GEOSET_YEAR": 1993.0, "GEOSET_VERSION": "GAUL_v1", "GEOSET_UNIT": "ADM1", "CENTROID_LONG": -69.848195649699363, "CENTROID_LAT": 18.567991939506015 }, "geometry": { "type": "MultiPolygon", "coordinates": [ [ [ [ -69.5717087, 18.6517296 ], [ -69.5729752, 18.5838337 ], [ -69.5972748, 18.5367661 ], [ -69.599205, 18.4974079 ], [ -69.5210953, 18.4636192 ], [ -69.5210572, 18.403684 ], [ -69.5881424, 18.4444949 ], [ -69.6327355, 18.4386671 ], [ -69.6650811, 18.4074669 ], [ -69.6837188, 18.4485434 ], [ -69.7428672, 18.4630651 ], [ -69.8803556, 18.4751917 ], [ -69.8803963, 18.4755289 ], [ -69.8824472, 18.479187 ], [ -69.8764725, 18.5051098 ], [ -69.9608383, 18.5217781 ], [ -69.9991837, 18.5019646 ], [ -69.9682922, 18.4757462 ], [ -69.9891059, 18.4225412 ], [ -70.0169988, 18.4277048 ], [ -70.0026627, 18.4490833 ], [ -70.0490265, 18.4769287 ], [ -70.0912704, 18.5345364 ], [ -70.1200714, 18.5421524 ], [ -70.1529007, 18.595396 ], [ -70.1378784, 18.6395378 ], [ -70.1641693, 18.7278194 ], [ -70.1426086, 18.7281666 ], [ -70.0950317, 18.6836777 ], [ -70.0438461, 18.6678352 ], [ -69.9873047, 18.6686268 ], [ -69.9458542, 18.7073803 ], [ -69.9156418, 18.6947975 ], [ -69.885994, 18.7090721 ], [ -69.8197556, 18.6527767 ], [ -69.7868195, 18.5755253 ], [ -69.755928, 18.5961056 ], [ -69.7273026, 18.6417656 ], [ -69.6898499, 18.6409931 ], [ -69.6302872, 18.6696396 ], [ -69.5717087, 18.6517296 ] ] ] ] } },
{ "type": "Feature", "properties": { "POLYGON_ID": "DOM_GAUL1993_ADM1_1113", "ADM0_ISO3": "DOM", "ADM0_NAME": "Dominican Republic", "ADM0_CODE": 72, "ADM1_NAME": "Duarte", "ADM1_CODE": 1113, "GEOSET": "GAUL", "GEOSET_YEAR": 1993.0, "GEOSET_VERSION": "GAUL_v1", "GEOSET_UNIT": "ADM1", "CENTROID_LONG": -70.084462346334661, "CENTROID_LAT": 19.260047814279158 }, "geometry": { "type": "MultiPolygon", "coordinates": [ [ [ [ -70.1965408, 19.5181446 ], [ -70.1382523, 19.5094261 ], [ -70.1141129, 19.4358788 ], [ -70.080368, 19.4288101 ], [ -70.0972519, 19.3468571 ], [ -70.0190506, 19.3234978 ], [ -70.0027313, 19.2719097 ], [ -69.8612823, 19.2343388 ], [ -69.7982178, 19.2012234 ], [ -69.75, 19.2248421 ], [ -69.6842499, 19.2181835 ], [ -69.6752014, 19.1735268 ], [ -69.723999, 19.1380386 ], [ -69.7333832, 19.0961304 ], [ -69.7757416, 19.1021061 ], [ -69.8045578, 19.0805531 ], [ -69.8717117, 19.0800056 ], [ -69.9063187, 19.0491772 ], [ -69.898674, 19.0991783 ], [ -69.9842911, 19.108799 ], [ -70.0149002, 19.0857983 ], [ -70.0449066, 19.135004 ], [ -70.0928497, 19.1537972 ], [ -70.1718674, 19.1638966 ], [ -70.2093582, 19.1415405 ], [ -70.2823257, 19.155653 ], [ -70.3582687, 19.2149467 ], [ -70.3603439, 19.2302265 ], [ -70.3722153, 19.2599506 ], [ -70.3104553, 19.4021797 ], [ -70.2758102, 19.4508972 ], [ -70.2451935, 19.5226822 ], [ -70.1965408, 19.5181446 ] ] ] ] } },
{ "type": "Feature", "properties": { "POLYGON_ID": "DOM_GAUL1993_ADM1_1114", "ADM0_ISO3": "DOM", "ADM0_NAME": "Dominican Republic", "ADM0_CODE": 72, "ADM1_NAME": "El Seibo", "ADM1_CODE": 1114, "GEOSET": "GAUL", "GEOSET_YEAR": 1993.0, "GEOSET_VERSION": "GAUL_v1", "GEOSET_UNIT": "ADM1", "CENTROID_LONG": -69.045722586706191, "CENTROID_LAT": 18.821373597915198 }, "geometry": { "type": "MultiPolygon", "coordinates": [ [ [ [ -68.7770281, 18.9743984 ], [ -68.8366776, 18.904438 ], [ -68.8051758, 18.8050041 ], [ -68.8455963, 18.7736588 ], [ -68.8698654, 18.7238045 ], [ -68.9259186, 18.7215233 ], [ -68.9279175, 18.6568069 ], [ -68.9789505, 18.6615582 ], [ -68.9892578, 18.6159821 ], [ -69.0158234, 18.5763817 ], [ -69.084877, 18.5272942 ], [ -69.071228, 18.5878181 ], [ -69.1386185, 18.5916786 ], [ -69.2010117, 18.6360626 ], [ -69.2267609, 18.6750069 ], [ -69.196579, 18.750124 ], [ -69.2143021, 18.7902317 ], [ -69.2547302, 18.8141098 ], [ -69.2640991, 18.848484 ], [ -69.328537, 18.8902645 ], [ -69.3227997, 18.9362183 ], [ -69.2927322, 18.956543 ], [ -69.2032318, 18.9332809 ], [ -69.1611557, 18.9470024 ], [ -69.1862793, 18.9814491 ], [ -69.1802963, 19.0068185 ], [ -69.1151233, 19.0116684 ], [ -69.0737076, 18.9867089 ], [ -69.0084082, 18.9901496 ], [ -68.9686372, 19.031798 ], [ -68.9195209, 19.0282016 ], [ -68.8653094, 18.9922976 ], [ -68.8345353, 18.995124 ], [ -68.7770281, 18.9743984 ] ] ] ] } },
{ "type": "Feature", "properties": { "POLYGON_ID": "DOM_GAUL1993_ADM1_1115", "ADM0_ISO3": "DOM", "ADM0_NAME": "Dominican Republic", "ADM0_CODE": 72, "ADM1_NAME": "Espaillat", "ADM1_CODE": 1115, "GEOSET": "GAUL", "GEOSET_YEAR": 1993.0, "GEOSET_VERSION": "GAUL_v1", "GEOSET_UNIT": "ADM1", "CENTROID_LONG": -70.391785605180687, "CENTROID_LAT": 19.532740155385742 }, "geometry": { "type": "MultiPolygon", "coordinates": [ [ [ [ -70.0866382, 19.6360144 ], [ -70.0870056, 19.5865631 ], [ -70.1373215, 19.5575542 ], [ -70.2012405, 19.5542469 ], [ -70.1965408, 19.5181446 ], [ -70.2451935, 19.5226822 ], [ -70.3373184, 19.5538559 ], [ -70.3418045, 19.5210705 ], [ -70.3992462, 19.5404987 ], [ -70.4299164, 19.5320015 ], [ -70.4418259, 19.500946 ], [ -70.4229813, 19.4469509 ], [ -70.4577332, 19.3441887 ], [ -70.4753647, 19.3131733 ], [ -70.514534, 19.3567238 ], [ -70.5804977, 19.3494167 ], [ -70.6124649, 19.3759289 ], [ -70.5953293, 19.3900528 ], [ -70.5837173, 19.4787979 ], [ -70.5442429, 19.5170708 ], [ -70.5364456, 19.5635376 ], [ -70.4886932, 19.574461 ], [ -70.5037308, 19.6184425 ], [ -70.3682785, 19.6770706 ], [ -70.3696896, 19.711272 ], [ -70.2994617, 19.6514077 ], [ -70.1721814, 19.621233 ], [ -70.0866382, 19.6360144 ] ] ] ] } },
{ "type": "Feature", "properties": { "POLYGON_ID": "DOM_GAUL1993_ADM1_1116", "ADM0_ISO3": "DOM", "ADM0_NAME": "Dominican Republic", "ADM0_CODE": 72, "ADM1_NAME": "Independencia", "ADM1_CODE": 1116, "GEOSET": "GAUL", "GEOSET_YEAR": 1993.0, "GEOSET_VERSION": "GAUL_v1", "GEOSET_UNIT": "ADM1", "CENTROID_LONG": -71.619964951395261, "CENTROID_LAT": 18.42326348995968 }, "geometry": { "type": "MultiPolygon", "coordinates": [ [ [ [ -71.5786057, 18.6537819 ], [ -71.6448746, 18.4896164 ], [ -71.6143799, 18.4611416 ], [ -71.4937897, 18.4446754 ], [ -71.4403915, 18.4190578 ], [ -71.4119644, 18.3727188 ], [ -71.2980957, 18.4186096 ], [ -71.2412643, 18.3376961 ], [ -71.2127457, 18.3265114 ], [ -71.2473526, 18.2786179 ], [ -71.2735138, 18.2662392 ], [ -71.3586884, 18.3060265 ], [ -71.3923187, 18.2751675 ], [ -71.3461609, 18.1744308 ], [ -71.4091949, 18.1833553 ], [ -71.4263916, 18.1370602 ], [ -71.5085373, 18.2031231 ], [ -71.5682678, 18.2061157 ], [ -71.6208191, 18.2267418 ], [ -71.7216958, 18.2914055 ], [ -71.7200443, 18.2942557 ], [ -71.69286, 18.34117 ], [ -71.79956, 18.3876 ], [ -71.80804, 18.3984 ], [ -71.876433, 18.4464782 ], [ -71.90025, 18.45815 ], [ -71.90446, 18.48462 ], [ -71.88625, 18.48967 ], [ -71.879016, 18.4946297 ], [ -71.877922, 18.505082 ], [ -71.95224, 18.58185 ], [ -71.95806, 18.58576 ], [ -71.9580606, 18.5857673 ], [ -71.95923, 18.60068 ], [ -71.9885248, 18.6217889 ], [ -71.99762, 18.62 ], [ -72.00349, 18.62527 ], [ -71.99802, 18.63289 ], [ -71.9912984, 18.6337613 ], [ -71.98452, 18.63464 ], [ -71.96585, 18.65351 ], [ -71.9627846, 18.6540863 ], [ -71.92693, 18.64033 ], [ -71.91907, 18.63987 ], [ -71.9169039, 18.6413336 ], [ -71.90649, 18.64837 ], [ -71.9037706, 18.6482469 ], [ -71.87748, 18.63218 ], [ -71.87027, 18.62966 ], [ -71.8666879, 18.6323811 ], [ -71.85912, 18.63813 ], [ -71.8340818, 18.6308166 ], [ -71.82051, 18.63511 ], [ -71.8133236, 18.6332609 ], [ -71.8122368, 18.6339507 ], [ -71.81114, 18.63465 ], [ -71.80773, 18.63681 ], [ -71.8058631, 18.6412998 ], [ -71.8049138, 18.6537559 ], [ -71.80548, 18.65726 ], [ -71.7972915, 18.6881413 ], [ -71.79586, 18.69354 ], [ -71.7945641, 18.6939076 ], [ -71.682991, 18.6647491 ], [ -71.6105728, 18.6678715 ], [ -71.5786057, 18.6537819 ] ] ] ] } },
{ "type": "Feature", "properties": { "POLYGON_ID": "DOM_GAUL1993_ADM1_1117", "ADM0_ISO3": "DOM", "ADM0_NAME": "Dominican Republic", "ADM0_CODE": 72, "ADM1_NAME": "La Altagracia", "ADM1_CODE": 1117, "GEOSET": "GAUL", "GEOSET_YEAR": 1993.0, "GEOSET_VERSION": "GAUL_v1", "GEOSET_UNIT": "ADM1", "CENTROID_LONG": -68.656477397658279, "CENTROID_LAT": 18.579924251506199 }, "geometry": { "type": "MultiPolygon", "coordinates": [ [ [ [ -68.8982271, 18.4004666 ], [ -68.8789215, 18.466608 ], [ -68.8444672, 18.5119286 ], [ -68.847435, 18.5539494 ], [ -68.9065094, 18.6113491 ], [ -68.9279175, 18.6568069 ], [ -68.9259186, 18.7215233 ], [ -68.8698654, 18.7238045 ], [ -68.8455963, 18.7736588 ], [ -68.8051758, 18.8050041 ], [ -68.8366776, 18.904438 ], [ -68.7770281, 18.9743984 ], [ -68.7383151, 18.9553495 ], [ -68.6499826, 18.8834857 ], [ -68.5381544, 18.7746647 ], [ -68.5209307, 18.771214 ], [ -68.3939735, 18.6640927 ], [ -68.3462291, 18.6444547 ], [ -68.3251413, 18.6168447 ], [ -68.3310121, 18.5734282 ], [ -68.4074521, 18.4578432 ], [ -68.4438097, 18.4267614 ], [ -68.4506726, 18.3654697 ], [ -68.4894282, 18.3373703 ], [ -68.5624986, 18.3606165 ], [ -68.6024653, 18.3409469 ], [ -68.6409659, 18.25733 ], [ -68.6406895, 18.2239225 ], [ -68.6880272, 18.2103345 ], [ -68.7443752, 18.2231545 ], [ -68.8410043, 18.3716967 ], [ -68.8982271, 18.4004666 ] ] ] ] } },
{ "type": "Feature", "properties": { "POLYGON_ID": "DOM_GAUL1993_ADM1_1118", "ADM0_ISO3": "DOM", "ADM0_NAME": "Dominican Republic", "ADM0_CODE": 72, "ADM1_NAME": "Elias Pina", "ADM1_CODE": 1118, "GEOSET": "GAUL", "GEOSET_YEAR": 1993.0, "GEOSET_VERSION": "GAUL_v1", "GEOSET_UNIT": "ADM1", "CENTROID_LONG": -71.606616513170366, "CENTROID_LAT": 19.004517375539198 }, "geometry": { "type": "MultiPolygon", "coordinates": [ [ [ [ -71.3164673, 19.1716576 ], [ -71.3402863, 19.1716614 ], [ -71.3441772, 19.1126423 ], [ -71.4630051, 19.1242561 ], [ -71.5030823, 19.0639114 ], [ -71.5235062, 18.9985104 ], [ -71.5643158, 19.0042915 ], [ -71.6445541, 18.944891 ], [ -71.6183319, 18.9341927 ], [ -71.6176987, 18.8414211 ], [ -71.627243, 18.8045559 ], [ -71.5934296, 18.7975998 ], [ -71.5707397, 18.7612877 ], [ -71.578331, 18.6540203 ], [ -71.5786057, 18.6537819 ], [ -71.6105728, 18.6678715 ], [ -71.682991, 18.6647491 ], [ -71.7945641, 18.6939076 ], [ -71.790103, 18.6951732 ], [ -71.78525, 18.69655 ], [ -71.7799705, 18.7041827 ], [ -71.77567, 18.7104 ], [ -71.7368772, 18.7326585 ], [ -71.7311, 18.74762 ], [ -71.7272594, 18.7632674 ], [ -71.7241867, 18.775786 ], [ -71.7205703, 18.8756677 ], [ -71.7252981, 18.8758231 ], [ -71.7320018, 18.8760433 ], [ -71.73955, 18.89011 ], [ -71.7438767, 18.8940013 ], [ -71.74909, 18.89869 ], [ -71.76581, 18.90844 ], [ -71.7676477, 18.9151507 ], [ -71.7714012, 18.9288576 ], [ -71.77929, 18.94795 ], [ -71.7820759, 18.9518556 ], [ -71.79246, 18.95219 ], [ -71.8018, 18.95722 ], [ -71.81051, 18.95767 ], [ -71.83035, 18.96677 ], [ -71.8369494, 18.9670944 ], [ -71.84551, 18.9567 ], [ -71.85429, 18.9599 ], [ -71.8580596, 18.9586697 ], [ -71.8793946, 18.9420028 ], [ -71.8800261, 18.9420179 ], [ -71.88345, 18.9421 ], [ -71.8830471, 18.9467368 ], [ -71.88239, 18.9543 ], [ -71.87241, 18.95986 ], [ -71.87429, 18.96578 ], [ -71.86701, 18.98046 ], [ -71.862528, 18.9799155 ], [ -71.8624, 18.9799 ], [ -71.8584186, 18.9750681 ], [ -71.8513506, 18.9809898 ], [ -71.84096, 18.99726 ], [ -71.8317191, 18.998628 ], [ -71.82314, 18.99155 ], [ -71.7976221, 19.0023498 ], [ -71.79612, 18.99252 ], [ -71.78745, 18.99367 ], [ -71.7884199, 18.9967556 ], [ -71.7896, 19.00051 ], [ -71.7763913, 19.0112027 ], [ -71.77924, 19.01733 ], [ -71.76891, 19.02726 ], [ -71.76307, 19.02604 ], [ -71.76185, 19.03342 ], [ -71.74774, 19.0462 ], [ -71.74334, 19.04472 ], [ -71.7421216, 19.0434987 ], [ -71.72514, 19.05026 ], [ -71.7213808, 19.0527969 ], [ -71.7048978, 19.0702324 ], [ -71.70563, 19.07306 ], [ -71.71094, 19.07615 ], [ -71.71149, 19.07843 ], [ -71.7009764, 19.0835804 ], [ -71.69805, 19.08982 ], [ -71.6997405, 19.0933249 ], [ -71.70581, 19.09857 ], [ -71.7052496, 19.0995175 ], [ -71.65571, 19.10473 ], [ -71.63719, 19.1569 ], [ -71.630454, 19.1643478 ], [ -71.61336, 19.20164 ], [ -71.63229, 19.22802 ], [ -71.6818276, 19.2379569 ], [ -71.6447449, 19.231699 ], [ -71.6047897, 19.2470036 ], [ -71.5912933, 19.2828026 ], [ -71.5224533, 19.2631302 ], [ -71.5026398, 19.3068199 ], [ -71.4539185, 19.2857246 ], [ -71.4368591, 19.2480392 ], [ -71.3619156, 19.1909885 ], [ -71.3164673, 19.1716576 ] ] ] ] } },
{ "type": "Feature", "properties": { "POLYGON_ID": "DOM_GAUL1993_ADM1_1119", "ADM0_ISO3": "DOM", "ADM0_NAME": "Dominican Republic", "ADM0_CODE": 72, "ADM1_NAME": "La Romana", "ADM1_CODE": 1119, "GEOSET": "GAUL", "GEOSET_YEAR": 1993.0, "GEOSET_VERSION": "GAUL_v1", "GEOSET_UNIT": "ADM1", "CENTROID_LONG": -68.929136024501275, "CENTROID_LAT": 18.45243255924062 }, "geometry": { "type": "MultiPolygon", "coordinates": [ [ [ [ -68.6964801, 18.1715709 ], [ -68.588411, 18.1532294 ], [ -68.5895742, 18.1181219 ], [ -68.6471584, 18.1295048 ], [ -68.6877414, 18.1137044 ], [ -68.7512813, 18.1360621 ], [ -68.7833531, 18.1775188 ], [ -68.7673654, 18.1960018 ], [ -68.6964801, 18.1715709 ] ] ], [ [ [ -68.9279175, 18.6568069 ], [ -68.9065094, 18.6113491 ], [ -68.847435, 18.5539494 ], [ -68.8444672, 18.5119286 ], [ -68.8789215, 18.466608 ], [ -68.8982271, 18.4004666 ], [ -68.9584458, 18.414617 ], [ -68.9803141, 18.4003432 ], [ -69.0848837, 18.3939831 ], [ -69.0902634, 18.4407578 ], [ -69.1196518, 18.4758053 ], [ -69.084877, 18.5272942 ], [ -69.0158234, 18.5763817 ], [ -68.9892578, 18.6159821 ], [ -68.9789505, 18.6615582 ], [ -68.9279175, 18.6568069 ] ] ] ] } },
{ "type": "Feature", "properties": { "POLYGON_ID": "DOM_GAUL1993_ADM1_1120", "ADM0_ISO3": "DOM", "ADM0_NAME": "Dominican Republic", "ADM0_CODE": 72, "ADM1_NAME": "La Vega", "ADM1_CODE": 1120, "GEOSET": "GAUL", "GEOSET_YEAR": 1993.0, "GEOSET_VERSION": "GAUL_v1", "GEOSET_UNIT": "ADM1", "CENTROID_LONG": -70.63057774022441, "CENTROID_LAT": 19.054473302137094 }, "geometry": { "type": "MultiPolygon", "coordinates": [ [ [ [ -70.4577332, 19.3441887 ], [ -70.4152374, 19.2852211 ], [ -70.4089584, 19.2296734 ], [ -70.3603439, 19.2302265 ], [ -70.3582687, 19.2149467 ], [ -70.2823257, 19.155653 ], [ -70.315361, 19.1541119 ], [ -70.3485794, 19.0860882 ], [ -70.3797302, 19.0650959 ], [ -70.4466248, 19.112318 ], [ -70.5225449, 19.0653133 ], [ -70.5173187, 19.000433 ], [ -70.534317, 18.9945374 ], [ -70.5836639, 18.9017696 ], [ -70.5561295, 18.8611145 ], [ -70.5664444, 18.8372498 ], [ -70.5442276, 18.7971306 ], [ -70.5546265, 18.747879 ], [ -70.6161041, 18.6836681 ], [ -70.6843185, 18.6855564 ], [ -70.6824341, 18.749752 ], [ -70.6985168, 18.7755909 ], [ -70.7557526, 18.7739277 ], [ -70.7854309, 18.8284779 ], [ -70.8164597, 18.8394508 ], [ -70.8371582, 18.8821507 ], [ -70.8389587, 18.9881897 ], [ -70.8909225, 18.9923363 ], [ -70.9124603, 19.0241795 ], [ -70.9600296, 19.0457134 ], [ -70.9478531, 19.0957508 ], [ -70.8471985, 19.0972786 ], [ -70.8073807, 19.1385078 ], [ -70.7776184, 19.1394959 ], [ -70.7162857, 19.1978264 ], [ -70.6902771, 19.180542 ], [ -70.6770172, 19.2383804 ], [ -70.6745071, 19.3226089 ], [ -70.6124649, 19.3759289 ], [ -70.5804977, 19.3494167 ], [ -70.514534, 19.3567238 ], [ -70.4753647, 19.3131733 ], [ -70.4577332, 19.3441887 ] ] ] ] } },
{ "type": "Feature", "properties": { "POLYGON_ID": "DOM_GAUL1993_ADM1_1121", "ADM0_ISO3": "DOM", "ADM0_NAME": "Dominican Republic", "ADM0_CODE": 72, "ADM1_NAME": "Maria Trinidad Sanches", "ADM1_CODE": 1121, "GEOSET": "GAUL", "GEOSET_YEAR": 1993.0, "GEOSET_VERSION": "GAUL_v1", "GEOSET_UNIT": "ADM1", "CENTROID_LONG": -69.966893236754558, "CENTROID_LAT": 19.445548378385702 }, "geometry": { "type": "MultiPolygon", "coordinates": [ [ [ [ -69.7431054, 19.2824282 ], [ -69.75, 19.2248421 ], [ -69.7982178, 19.2012234 ], [ -69.8612823, 19.2343388 ], [ -70.0027313, 19.2719097 ], [ -70.0190506, 19.3234978 ], [ -70.0972519, 19.3468571 ], [ -70.080368, 19.4288101 ], [ -70.1141129, 19.4358788 ], [ -70.1382523, 19.5094261 ], [ -70.1965408, 19.5181446 ], [ -70.2012405, 19.5542469 ], [ -70.1373215, 19.5575542 ], [ -70.0870056, 19.5865631 ], [ -70.0866382, 19.6360144 ], [ -70.0567295, 19.6736078 ], [ -69.9664106, 19.6823138 ], [ -69.9008854, 19.6459608 ], [ -69.8843245, 19.6121284 ], [ -69.9049711, 19.5476364 ], [ -69.872874, 19.5026111 ], [ -69.8749001, 19.4470158 ], [ -69.8406086, 19.3692317 ], [ -69.7776221, 19.3007514 ], [ -69.7431054, 19.2824282 ] ] ] ] } },
{ "type": "Feature", "properties": { "POLYGON_ID": "DOM_GAUL1993_ADM1_1122", "ADM0_ISO3": "DOM", "ADM0_NAME": "Dominican Republic", "ADM0_CODE": 72, "ADM1_NAME": "Monte Cristi", "ADM1_CODE": 1122, "GEOSET": "GAUL", "GEOSET_YEAR": 1993.0, "GEOSET_VERSION": "GAUL_v1", "GEOSET_UNIT": "ADM1", "CENTROID_LONG": -71.4504243825087, "CENTROID_LAT": 19.72039947629241 }, "geometry": { "type": "MultiPolygon", "coordinates": [ [ [ [ -71.2565983, 19.8310276 ], [ -71.2224808, 19.7851715 ], [ -71.1331406, 19.7579327 ], [ -71.1660461, 19.7082329 ], [ -71.1605148, 19.6469707 ], [ -71.1899414, 19.6170464 ], [ -71.1730804, 19.5871944 ], [ -71.1893616, 19.5311413 ], [ -71.2330933, 19.5250168 ], [ -71.3036041, 19.5612335 ], [ -71.3360062, 19.5482998 ], [ -71.4169083, 19.5619526 ], [ -71.4279175, 19.5352478 ], [ -71.4572449, 19.5605888 ], [ -71.53862, 19.5886459 ], [ -71.5834808, 19.6223717 ], [ -71.6724548, 19.6081867 ], [ -71.6930542, 19.6325493 ], [ -71.7390872, 19.6409023 ], [ -71.73458, 19.64914 ], [ -71.73354, 19.65468 ], [ -71.75413, 19.68582 ], [ -71.7579266, 19.6907756 ], [ -71.75793, 19.69078 ], [ -71.75565, 19.69566 ], [ -71.7579136, 19.7019826 ], [ -71.7266529, 19.7296404 ], [ -71.7791786, 19.7783683 ], [ -71.7423264, 19.8159219 ], [ -71.6913452, 19.8307613 ], [ -71.640666, 19.8938866 ], [ -71.5794891, 19.9100175 ], [ -71.490104, 19.9089838 ], [ -71.3775935, 19.8572121 ], [ -71.2899216, 19.8461142 ], [ -71.2565983, 19.8310276 ] ] ] ] } },
{ "type": "Feature", "properties": { "POLYGON_ID": "DOM_GAUL1993_ADM1_1123", "ADM0_ISO3": "DOM", "ADM0_NAME": "Dominican Republic", "ADM0_CODE": 72, "ADM1_NAME": "Pedernales", "ADM1_CODE": 1123, "GEOSET": "GAUL", "GEOSET_YEAR": 1993.0, "GEOSET_VERSION": "GAUL_v1", "GEOSET_UNIT": "ADM1", "CENTROID_LONG": -71.533236396187959, "CENTROID_LAT": 17.960238489773694 }, "geometry": { "type": "MultiPolygon", "coordinates": [ [ [ [ -71.4263916, 18.1370602 ], [ -71.3932343, 18.1274338 ], [ -71.3896484, 18.0596485 ], [ -71.4299393, 18.0190945 ], [ -71.4377289, 17.9810619 ], [ -71.3922119, 17.958643 ], [ -71.3902359, 17.9316864 ], [ -71.3098297, 17.9214821 ], [ -71.2733447, 17.8536855 ], [ -71.32895, 17.7980477 ], [ -71.3488459, 17.7610427 ], [ -71.3692141, 17.6836095 ], [ -71.4223087, 17.6039387 ], [ -71.4704416, 17.6606961 ], [ -71.49839, 17.7267973 ], [ -71.5576355, 17.7669016 ], [ -71.645378, 17.7572422 ], [ -71.6591834, 17.7875131 ], [ -71.6279763, 17.8265052 ], [ -71.655896, 17.8884685 ], [ -71.6548309, 17.9370512 ], [ -71.6712108, 17.9720898 ], [ -71.7536184, 18.0307427 ], [ -71.7333, 18.09869 ], [ -71.7408, 18.10032 ], [ -71.7457655, 18.1431868 ], [ -71.75073, 18.14276 ], [ -71.75454, 18.14955 ], [ -71.7548384, 18.1496874 ], [ -71.76112, 18.15258 ], [ -71.7623083, 18.1568633 ], [ -71.76626, 18.16347 ], [ -71.77481, 18.16806 ], [ -71.76532, 18.21728 ], [ -71.7216958, 18.2914055 ], [ -71.6208191, 18.2267418 ], [ -71.5682678, 18.2061157 ], [ -71.5085373, 18.2031231 ], [ -71.4263916, 18.1370602 ] ] ], [ [ [ -71.5126345, 17.6116343 ], [ -71.4780943, 17.570246 ], [ -71.5313033, 17.5425327 ], [ -71.5538639, 17.5503021 ], [ -71.5371411, 17.59668 ], [ -71.5126345, 17.6116343 ] ] ] ] } },
{ "type": "Feature", "properties": { "POLYGON_ID": "DOM_GAUL1993_ADM1_1124", "ADM0_ISO3": "DOM", "ADM0_NAME": "Dominican Republic", "ADM0_CODE": 72, "ADM1_NAME": "Peravia", "ADM1_CODE": 1124, "GEOSET": "GAUL", "GEOSET_YEAR": 1993.0, "GEOSET_VERSION": "GAUL_v1", "GEOSET_UNIT": "ADM1", "CENTROID_LONG": -70.371839993273369, "CENTROID_LAT": 18.333863350079799 }, "geometry": { "type": "MultiPolygon", "coordinates": [ [ [ [ -70.1873355, 18.2298109 ], [ -70.2367425, 18.222669 ], [ -70.277879, 18.2383682 ], [ -70.3322013, 18.2265498 ], [ -70.3927268, 18.2374189 ], [ -70.4638045, 18.2047922 ], [ -70.5141555, 18.1954551 ], [ -70.5314731, 18.2300044 ], [ -70.5888641, 18.2734137 ], [ -70.5031128, 18.2877312 ], [ -70.4778976, 18.4195423 ], [ -70.469101, 18.4505577 ], [ -70.3750153, 18.4817791 ], [ -70.3519592, 18.5068264 ], [ -70.3068314, 18.4885311 ], [ -70.2444, 18.4153328 ], [ -70.2890091, 18.3864212 ], [ -70.2520294, 18.3643608 ], [ -70.2425613, 18.3339176 ], [ -70.1875381, 18.2786293 ], [ -70.1873355, 18.2298109 ] ] ] ] } },
{ "type": "Feature", "properties": { "POLYGON_ID": "DOM_GAUL1993_ADM1_1125", "ADM0_ISO3": "DOM", "ADM0_NAME": "Dominican Republic", "ADM0_CODE": 72, "ADM1_NAME": "Puerto Plata", "ADM1_CODE": 1125, "GEOSET": "GAUL", "GEOSET_YEAR": 1993.0, "GEOSET_VERSION": "GAUL_v1", "GEOSET_UNIT": "ADM1", "CENTROID_LONG": -70.794142277521942, "CENTROID_LAT": 19.742880624549318 }, "geometry": { "type": "MultiPolygon", "coordinates": [ [ [ [ -70.3696896, 19.711272 ], [ -70.3682785, 19.6770706 ], [ -70.5037308, 19.6184425 ], [ -70.4886932, 19.574461 ], [ -70.5364456, 19.5635376 ], [ -70.5442429, 19.5170708 ], [ -70.5792618, 19.5421906 ], [ -70.6274033, 19.5503197 ], [ -70.6422958, 19.6179695 ], [ -70.6829681, 19.6300545 ], [ -70.7454681, 19.5816402 ], [ -70.8145447, 19.6368485 ], [ -70.8982849, 19.650631 ], [ -70.9485703, 19.6699753 ], [ -70.9849396, 19.7038803 ], [ -71.0532684, 19.7134533 ], [ -71.0728226, 19.7362442 ], [ -71.1331406, 19.7579327 ], [ -71.2224808, 19.7851715 ], [ -71.2565983, 19.8310276 ], [ -71.1845639, 19.8526271 ], [ -71.1320226, 19.8567749 ], [ -71.0804743, 19.8827058 ], [ -71.0608932, 19.9187427 ], [ -70.9890123, 19.9304139 ], [ -70.9490584, 19.9072179 ], [ -70.8489197, 19.9064001 ], [ -70.8047055, 19.8756021 ], [ -70.7834467, 19.8356642 ], [ -70.7481355, 19.838184 ], [ -70.6522824, 19.7749206 ], [ -70.5919108, 19.7564536 ], [ -70.5303674, 19.7564573 ], [ -70.511935, 19.7791868 ], [ -70.4513904, 19.7836245 ], [ -70.3925128, 19.744279 ], [ -70.3696896, 19.711272 ] ] ] ] } },
{ "type": "Feature", "properties": { "POLYGON_ID": "DOM_GAUL1993_ADM1_1126", "ADM0_ISO3": "DOM", "ADM0_NAME": "Dominican Republic", "ADM0_CODE": 72, "ADM1_NAME": "Salcedo", "ADM1_CODE": 1126, "GEOSET": "GAUL", "GEOSET_YEAR": 1993.0, "GEOSET_VERSION": "GAUL_v1", "GEOSET_UNIT": "ADM1", "CENTROID_LONG": -70.366431198395944, "CENTROID_LAT": 19.417124916251449 }, "geometry": { "type": "MultiPolygon", "coordinates": [ [ [ [ -70.2451935, 19.5226822 ], [ -70.2758102, 19.4508972 ], [ -70.3104553, 19.4021797 ], [ -70.3722153, 19.2599506 ], [ -70.3603439, 19.2302265 ], [ -70.4089584, 19.2296734 ], [ -70.4152374, 19.2852211 ], [ -70.4577332, 19.3441887 ], [ -70.4229813, 19.4469509 ], [ -70.4418259, 19.500946 ], [ -70.4299164, 19.5320015 ], [ -70.3992462, 19.5404987 ], [ -70.3418045, 19.5210705 ], [ -70.3373184, 19.5538559 ], [ -70.2451935, 19.5226822 ] ] ] ] } },
{ "type": "Feature", "properties": { "POLYGON_ID": "DOM_GAUL1993_ADM1_1127", "ADM0_ISO3": "DOM", "ADM0_NAME": "Dominican Republic", "ADM0_CODE": 72, "ADM1_NAME": "Samana", "ADM1_CODE": 1127, "GEOSET": "GAUL", "GEOSET_YEAR": 1993.0, "GEOSET_VERSION": "GAUL_v1", "GEOSET_UNIT": "ADM1", "CENTROID_LONG": -69.485163139142358, "CENTROID_LAT": 19.225713738588144 }, "geometry": { "type": "MultiPolygon", "coordinates": [ [ [ [ -69.6042473, 19.0789733 ], [ -69.6242905, 18.9931564 ], [ -69.6632385, 19.0141411 ], [ -69.7333832, 19.0961304 ], [ -69.723999, 19.1380386 ], [ -69.6752014, 19.1735268 ], [ -69.6842499, 19.2181835 ], [ -69.75, 19.2248421 ], [ -69.7431054, 19.2824282 ], [ -69.7198954, 19.2762287 ], [ -69.6560251, 19.2936458 ], [ -69.5917773, 19.2973252 ], [ -69.5522956, 19.3252612 ], [ -69.4139826, 19.3214852 ], [ -69.3750121, 19.3025788 ], [ -69.3253587, 19.3027628 ], [ -69.2860067, 19.3318955 ], [ -69.2156305, 19.3525035 ], [ -69.2548822, 19.2960053 ], [ -69.2317365, 19.2853342 ], [ -69.1522413, 19.301565 ], [ -69.1686039, 19.2595698 ], [ -69.2068313, 19.2335827 ], [ -69.2215783, 19.1834348 ], [ -69.2546631, 19.1807579 ], [ -69.3264958, 19.2019326 ], [ -69.4271605, 19.1934573 ], [ -69.4716917, 19.207643 ], [ -69.5882611, 19.2168827 ], [ -69.6187737, 19.2259909 ], [ -69.6378008, 19.1359082 ], [ -69.6268776, 19.0820067 ], [ -69.6042473, 19.0789733 ] ] ] ] } },
{ "type": "Feature", "properties": { "POLYGON_ID": "DOM_GAUL1993_ADM1_1128", "ADM0_ISO3": "DOM", "ADM0_NAME": "Dominican Republic", "ADM0_CODE": 72, "ADM1_NAME": "San Cristobal", "ADM1_CODE": 1128, "GEOSET": "GAUL", "GEOSET_YEAR": 1993.0, "GEOSET_VERSION": "GAUL_v1", "GEOSET_UNIT": "ADM1", "CENTROID_LONG": -70.207568148530896, "CENTROID_LAT": 18.525160128594781 }, "geometry": { "type": "MultiPolygon", "coordinates": [ [ [ [ -70.1641693, 18.7278194 ], [ -70.1378784, 18.6395378 ], [ -70.1529007, 18.595396 ], [ -70.1200714, 18.5421524 ], [ -70.0912704, 18.5345364 ], [ -70.0490265, 18.4769287 ], [ -70.0026627, 18.4490833 ], [ -70.0169988, 18.4277048 ], [ -70.0864831, 18.3105672 ], [ -70.1006923, 18.3053373 ], [ -70.1537544, 18.2312385 ], [ -70.1873355, 18.2298109 ], [ -70.1875381, 18.2786293 ], [ -70.2425613, 18.3339176 ], [ -70.2520294, 18.3643608 ], [ -70.2890091, 18.3864212 ], [ -70.2444, 18.4153328 ], [ -70.3068314, 18.4885311 ], [ -70.3519592, 18.5068264 ], [ -70.3825302, 18.5543652 ], [ -70.3678513, 18.5743446 ], [ -70.3761749, 18.6569958 ], [ -70.3427658, 18.7261047 ], [ -70.2997284, 18.7382603 ], [ -70.3025818, 18.7760582 ], [ -70.2485504, 18.8086205 ], [ -70.186821, 18.7588272 ], [ -70.1641693, 18.7278194 ] ] ] ] } },
{ "type": "Feature", "properties": { "POLYGON_ID": "DOM_GAUL1993_ADM1_1129", "ADM0_ISO3": "DOM", "ADM0_NAME": "Dominican Republic", "ADM0_CODE": 72, "ADM1_NAME": "San Juan", "ADM1_CODE": 1129, "GEOSET": "GAUL", "GEOSET_YEAR": 1993.0, "GEOSET_VERSION": "GAUL_v1", "GEOSET_UNIT": "ADM1", "CENTROID_LONG": -71.289453704345405, "CENTROID_LAT": 18.877481120189675 }, "geometry": { "type": "MultiPolygon", "coordinates": [ [ [ [ -70.9600296, 19.0457134 ], [ -70.9124603, 19.0241795 ], [ -70.8909225, 18.9923363 ], [ -70.9235153, 18.9588699 ], [ -70.9253693, 18.9246178 ], [ -70.9947357, 18.9001522 ], [ -70.9961243, 18.8496914 ], [ -70.9726639, 18.8122272 ], [ -70.9868164, 18.7636719 ], [ -71.0306778, 18.7798615 ], [ -71.0544739, 18.7674904 ], [ -71.0515137, 18.6784554 ], [ -71.0863419, 18.669117 ], [ -71.1405334, 18.6225281 ], [ -71.1634064, 18.6205082 ], [ -71.280304, 18.614584 ], [ -71.3175201, 18.6260166 ], [ -71.3685913, 18.5900135 ], [ -71.3927765, 18.6114941 ], [ -71.4785309, 18.6242237 ], [ -71.578331, 18.6540203 ], [ -71.5707397, 18.7612877 ], [ -71.5934296, 18.7975998 ], [ -71.627243, 18.8045559 ], [ -71.6176987, 18.8414211 ], [ -71.6183319, 18.9341927 ], [ -71.6445541, 18.944891 ], [ -71.5643158, 19.0042915 ], [ -71.5235062, 18.9985104 ], [ -71.5030823, 19.0639114 ], [ -71.4630051, 19.1242561 ], [ -71.3441772, 19.1126423 ], [ -71.3402863, 19.1716614 ], [ -71.3164673, 19.1716576 ], [ -71.2168808, 19.1790009 ], [ -71.1309891, 19.1163044 ], [ -71.1318436, 19.0794392 ], [ -71.0568542, 19.0478191 ], [ -71.0443726, 19.0229454 ], [ -70.9600296, 19.0457134 ] ] ] ] } },
{ "type": "Feature", "properties": { "POLYGON_ID": "DOM_GAUL1993_ADM1_1130", "ADM0_ISO3": "DOM", "ADM0_NAME": "Dominican Republic", "ADM0_CODE": 72, "ADM1_NAME": "San Pedro de Macoris", "ADM1_CODE": 1130, "GEOSET": "GAUL", "GEOSET_YEAR": 1993.0, "GEOSET_VERSION": "GAUL_v1", "GEOSET_UNIT": "ADM1", "CENTROID_LONG": -69.360028320461524, "CENTROID_LAT": 18.552361392761451 }, "geometry": { "type": "MultiPolygon", "coordinates": [ [ [ [ -69.4491119, 18.8085518 ], [ -69.4235687, 18.6927471 ], [ -69.4371948, 18.6725197 ], [ -69.3827515, 18.5998325 ], [ -69.3690948, 18.5467014 ], [ -69.3445053, 18.5388641 ], [ -69.2982712, 18.5737801 ], [ -69.2954712, 18.6194668 ], [ -69.2524643, 18.6329403 ], [ -69.2267609, 18.6750069 ], [ -69.2010117, 18.6360626 ], [ -69.1386185, 18.5916786 ], [ -69.071228, 18.5878181 ], [ -69.084877, 18.5272942 ], [ -69.1196518, 18.4758053 ], [ -69.0902634, 18.4407578 ], [ -69.0848837, 18.3939831 ], [ -69.1852476, 18.4211788 ], [ -69.2096495, 18.452019 ], [ -69.3319262, 18.4252991 ], [ -69.4482487, 18.4218033 ], [ -69.5210572, 18.403684 ], [ -69.5210953, 18.4636192 ], [ -69.599205, 18.4974079 ], [ -69.5972748, 18.5367661 ], [ -69.5729752, 18.5838337 ], [ -69.5717087, 18.6517296 ], [ -69.5405197, 18.6919518 ], [ -69.5325088, 18.7394714 ], [ -69.4911423, 18.7930393 ], [ -69.4491119, 18.8085518 ] ] ] ] } },
{ "type": "Feature", "properties": { "POLYGON_ID": "DOM_GAUL1993_ADM1_1131", "ADM0_ISO3": "DOM", "ADM0_NAME": "Dominican Republic", "ADM0_CODE": 72, "ADM1_NAME": "Sanchez Ramirez", "ADM1_CODE": 1131, "GEOSET": "GAUL", "GEOSET_YEAR": 1993.0, "GEOSET_VERSION": "GAUL_v1", "GEOSET_UNIT": "ADM1", "CENTROID_LONG": -70.139140861197262, "CENTROID_LAT": 19.01914054920147 }, "geometry": { "type": "MultiPolygon", "coordinates": [ [ [ [ -69.9063187, 19.0491772 ], [ -69.9318848, 19.0104313 ], [ -69.9223022, 18.9706268 ], [ -69.952774, 18.905468 ], [ -69.9982834, 18.8891239 ], [ -70.0166473, 18.9166241 ], [ -70.0488434, 18.8818417 ], [ -70.1171036, 18.8896103 ], [ -70.1181107, 18.8664055 ], [ -70.2073975, 18.8702888 ], [ -70.2455063, 18.8413811 ], [ -70.2224274, 18.8747768 ], [ -70.2643814, 18.9265041 ], [ -70.2962875, 18.9350815 ], [ -70.3277588, 18.9842072 ], [ -70.3652573, 18.9972134 ], [ -70.3797302, 19.0650959 ], [ -70.3485794, 19.0860882 ], [ -70.315361, 19.1541119 ], [ -70.2823257, 19.155653 ], [ -70.2093582, 19.1415405 ], [ -70.1718674, 19.1638966 ], [ -70.0928497, 19.1537972 ], [ -70.0449066, 19.135004 ], [ -70.0149002, 19.0857983 ], [ -69.9842911, 19.108799 ], [ -69.898674, 19.0991783 ], [ -69.9063187, 19.0491772 ] ] ] ] } },
{ "type": "Feature", "properties": { "POLYGON_ID": "DOM_GAUL1993_ADM1_1132", "ADM0_ISO3": "DOM", "ADM0_NAME": "Dominican Republic", "ADM0_CODE": 72, "ADM1_NAME": "Santiago", "ADM1_CODE": 1132, "GEOSET": "GAUL", "GEOSET_YEAR": 1993.0, "GEOSET_VERSION": "GAUL_v1", "GEOSET_UNIT": "ADM1", "CENTROID_LONG": -70.900786085204032, "CENTROID_LAT": 19.329202979148302 }, "geometry": { "type": "MultiPolygon", "coordinates": [ [ [ [ -70.5442429, 19.5170708 ], [ -70.5837173, 19.4787979 ], [ -70.5953293, 19.3900528 ], [ -70.6124649, 19.3759289 ], [ -70.6745071, 19.3226089 ], [ -70.6770172, 19.2383804 ], [ -70.6902771, 19.180542 ], [ -70.7162857, 19.1978264 ], [ -70.7776184, 19.1394959 ], [ -70.8073807, 19.1385078 ], [ -70.8471985, 19.0972786 ], [ -70.9478531, 19.0957508 ], [ -70.9600296, 19.0457134 ], [ -71.0443726, 19.0229454 ], [ -71.0568542, 19.0478191 ], [ -71.1318436, 19.0794392 ], [ -71.1309891, 19.1163044 ], [ -71.2168808, 19.1790009 ], [ -71.2442322, 19.2667656 ], [ -71.2528, 19.3278103 ], [ -71.220993, 19.3701935 ], [ -71.137291, 19.3921833 ], [ -71.0828781, 19.4247684 ], [ -71.0854187, 19.4729481 ], [ -71.035408, 19.4450722 ], [ -70.9535828, 19.4579811 ], [ -70.9225845, 19.4406261 ], [ -70.8847122, 19.4545708 ], [ -70.9086914, 19.4905643 ], [ -70.8821411, 19.5944099 ], [ -70.8982849, 19.650631 ], [ -70.8145447, 19.6368485 ], [ -70.7454681, 19.5816402 ], [ -70.6829681, 19.6300545 ], [ -70.6422958, 19.6179695 ], [ -70.6274033, 19.5503197 ], [ -70.5792618, 19.5421906 ], [ -70.5442429, 19.5170708 ] ] ] ] } },
{ "type": "Feature", "properties": { "POLYGON_ID": "DOM_GAUL1993_ADM1_1133", "ADM0_ISO3": "DOM", "ADM0_NAME": "Dominican Republic", "ADM0_CODE": 72, "ADM1_NAME": "Santiago Rodriguez", "ADM1_CODE": 1133, "GEOSET": "GAUL", "GEOSET_YEAR": 1993.0, "GEOSET_VERSION": "GAUL_v1", "GEOSET_UNIT": "ADM1", "CENTROID_LONG": -71.319449006867202, "CENTROID_LAT": 19.383021125133926 }, "geometry": { "type": "MultiPolygon", "coordinates": [ [ [ [ -71.1893616, 19.5311413 ], [ -71.180481, 19.4754639 ], [ -71.0854187, 19.4729481 ], [ -71.0828781, 19.4247684 ], [ -71.137291, 19.3921833 ], [ -71.220993, 19.3701935 ], [ -71.2528, 19.3278103 ], [ -71.2442322, 19.2667656 ], [ -71.2168808, 19.1790009 ], [ -71.3164673, 19.1716576 ], [ -71.3619156, 19.1909885 ], [ -71.4368591, 19.2480392 ], [ -71.4539185, 19.2857246 ], [ -71.5026398, 19.3068199 ], [ -71.4687271, 19.384346 ], [ -71.4671173, 19.4923115 ], [ -71.4279175, 19.5352478 ], [ -71.4169083, 19.5619526 ], [ -71.3360062, 19.5482998 ], [ -71.3036041, 19.5612335 ], [ -71.2330933, 19.5250168 ], [ -71.1893616, 19.5311413 ] ] ] ] } },
{ "type": "Feature", "properties": { "POLYGON_ID": "DOM_GAUL1993_ADM1_1134", "ADM0_ISO3": "DOM", "ADM0_NAME": "Dominican Republic", "ADM0_CODE": 72, "ADM1_NAME": "Valverde", "ADM1_CODE": 1134, "GEOSET": "GAUL", "GEOSET_YEAR": 1993.0, "GEOSET_VERSION": "GAUL_v1", "GEOSET_UNIT": "ADM1", "CENTROID_LONG": -71.041071565699113, "CENTROID_LAT": 19.584491895665167 }, "geometry": { "type": "MultiPolygon", "coordinates": [ [ [ [ -70.8982849, 19.650631 ], [ -70.8821411, 19.5944099 ], [ -70.9086914, 19.4905643 ], [ -70.8847122, 19.4545708 ], [ -70.9225845, 19.4406261 ], [ -70.9535828, 19.4579811 ], [ -71.035408, 19.4450722 ], [ -71.0854187, 19.4729481 ], [ -71.180481, 19.4754639 ], [ -71.1893616, 19.5311413 ], [ -71.1730804, 19.5871944 ], [ -71.1899414, 19.6170464 ], [ -71.1605148, 19.6469707 ], [ -71.1660461, 19.7082329 ], [ -71.1331406, 19.7579327 ], [ -71.0728226, 19.7362442 ], [ -71.0532684, 19.7134533 ], [ -70.9849396, 19.7038803 ], [ -70.9485703, 19.6699753 ], [ -70.8982849, 19.650631 ] ] ] ] } },
{ "type": "Feature", "properties": { "POLYGON_ID": "DOM_GAUL1993_ADM1_36854", "ADM0_ISO3": "DOM", "ADM0_NAME": "Dominican Republic", "ADM0_CODE": 72, "ADM1_NAME": "Hato Mayor", "ADM1_CODE": 36854, "GEOSET": "GAUL", "GEOSET_YEAR": 1993.0, "GEOSET_VERSION": "GAUL_v1", "GEOSET_UNIT": "ADM1", "CENTROID_LONG": -69.372046149469213, "CENTROID_LAT": 18.863098152144222 }, "geometry": { "type": "MultiPolygon", "coordinates": [ [ [ [ -69.1802963, 19.0068185 ], [ -69.1862793, 18.9814491 ], [ -69.1611557, 18.9470024 ], [ -69.2032318, 18.9332809 ], [ -69.2927322, 18.956543 ], [ -69.3227997, 18.9362183 ], [ -69.328537, 18.8902645 ], [ -69.2640991, 18.848484 ], [ -69.2547302, 18.8141098 ], [ -69.2143021, 18.7902317 ], [ -69.196579, 18.750124 ], [ -69.2267609, 18.6750069 ], [ -69.2524643, 18.6329403 ], [ -69.2954712, 18.6194668 ], [ -69.2982712, 18.5737801 ], [ -69.3445053, 18.5388641 ], [ -69.3690948, 18.5467014 ], [ -69.3827515, 18.5998325 ], [ -69.4371948, 18.6725197 ], [ -69.4235687, 18.6927471 ], [ -69.4491119, 18.8085518 ], [ -69.421463, 18.8467159 ], [ -69.4271011, 18.8856792 ], [ -69.5773392, 18.9808311 ], [ -69.6242905, 18.9931564 ], [ -69.6042473, 19.0789733 ], [ -69.5747966, 19.0889438 ], [ -69.4428783, 19.0737884 ], [ -69.4139635, 19.1030338 ], [ -69.3786136, 19.0581661 ], [ -69.3081454, 19.0477628 ], [ -69.2624851, 19.0159759 ], [ -69.2304088, 19.0278375 ], [ -69.1802963, 19.0068185 ] ] ] ] } },
{ "type": "Feature", "properties": { "POLYGON_ID": "DOM_GAUL1993_ADM1_36855", "ADM0_ISO3": "DOM", "ADM0_NAME": "Dominican Republic", "ADM0_CODE": 72, "ADM1_NAME": "Monsenor Nouel", "ADM1_CODE": 36855, "GEOSET": "GAUL", "GEOSET_YEAR": 1993.0, "GEOSET_VERSION": "GAUL_v1", "GEOSET_UNIT": "ADM1", "CENTROID_LONG": -70.414812579845886, "CENTROID_LAT": 18.901294107778337 }, "geometry": { "type": "MultiPolygon", "coordinates": [ [ [ [ -70.3797302, 19.0650959 ], [ -70.3652573, 18.9972134 ], [ -70.3277588, 18.9842072 ], [ -70.2962875, 18.9350815 ], [ -70.2643814, 18.9265041 ], [ -70.2224274, 18.8747768 ], [ -70.2455063, 18.8413811 ], [ -70.2485504, 18.8086205 ], [ -70.3025818, 18.7760582 ], [ -70.2997284, 18.7382603 ], [ -70.3427658, 18.7261047 ], [ -70.4116287, 18.7614746 ], [ -70.5005417, 18.7717609 ], [ -70.5442276, 18.7971306 ], [ -70.5664444, 18.8372498 ], [ -70.5561295, 18.8611145 ], [ -70.5836639, 18.9017696 ], [ -70.534317, 18.9945374 ], [ -70.5173187, 19.000433 ], [ -70.5225449, 19.0653133 ], [ -70.4466248, 19.112318 ], [ -70.3797302, 19.0650959 ] ] ] ] } },
{ "type": "Feature", "properties": { "POLYGON_ID": "DOM_GAUL1993_ADM1_36856", "ADM0_ISO3": "DOM", "ADM0_NAME": "Dominican Republic", "ADM0_CODE": 72, "ADM1_NAME": "Monte Plata", "ADM1_CODE": 36856, "GEOSET": "GAUL", "GEOSET_YEAR": 1993.0, "GEOSET_VERSION": "GAUL_v1", "GEOSET_UNIT": "ADM1", "CENTROID_LONG": -69.804032111507638, "CENTROID_LAT": 18.836437404970898 }, "geometry": { "type": "MultiPolygon", "coordinates": [ [ [ [ -69.7333832, 19.0961304 ], [ -69.6632385, 19.0141411 ], [ -69.6242905, 18.9931564 ], [ -69.5773392, 18.9808311 ], [ -69.4271011, 18.8856792 ], [ -69.421463, 18.8467159 ], [ -69.4491119, 18.8085518 ], [ -69.4911423, 18.7930393 ], [ -69.5325088, 18.7394714 ], [ -69.5405197, 18.6919518 ], [ -69.5717087, 18.6517296 ], [ -69.6302872, 18.6696396 ], [ -69.6898499, 18.6409931 ], [ -69.7273026, 18.6417656 ], [ -69.755928, 18.5961056 ], [ -69.7868195, 18.5755253 ], [ -69.8197556, 18.6527767 ], [ -69.885994, 18.7090721 ], [ -69.9156418, 18.6947975 ], [ -69.9458542, 18.7073803 ], [ -69.9873047, 18.6686268 ], [ -70.0438461, 18.6678352 ], [ -70.0950317, 18.6836777 ], [ -70.1426086, 18.7281666 ], [ -70.1641693, 18.7278194 ], [ -70.186821, 18.7588272 ], [ -70.2485504, 18.8086205 ], [ -70.2455063, 18.8413811 ], [ -70.2073975, 18.8702888 ], [ -70.1181107, 18.8664055 ], [ -70.1171036, 18.8896103 ], [ -70.0488434, 18.8818417 ], [ -70.0166473, 18.9166241 ], [ -69.9982834, 18.8891239 ], [ -69.952774, 18.905468 ], [ -69.9223022, 18.9706268 ], [ -69.9318848, 19.0104313 ], [ -69.9063187, 19.0491772 ], [ -69.8717117, 19.0800056 ], [ -69.8045578, 19.0805531 ], [ -69.7757416, 19.1021061 ], [ -69.7333832, 19.0961304 ] ] ] ] } },
{ "type": "Feature", "properties": { "POLYGON_ID": "DOM_GAUL1993_ADM1_36857", "ADM0_ISO3": "DOM", "ADM0_NAME": "Dominican Republic", "ADM0_CODE": 72, "ADM1_NAME": "San José de Ocoa", "ADM1_CODE": 36857, "GEOSET": "GAUL", "GEOSET_YEAR": 1993.0, "GEOSET_VERSION": "GAUL_v1", "GEOSET_UNIT": "ADM1", "CENTROID_LONG": -70.496164026443552, "CENTROID_LAT": 18.619327558478112 }, "geometry": { "type": "MultiPolygon", "coordinates": [ [ [ [ -70.3427658, 18.7261047 ], [ -70.3761749, 18.6569958 ], [ -70.3678513, 18.5743446 ], [ -70.3825302, 18.5543652 ], [ -70.3519592, 18.5068264 ], [ -70.3750153, 18.4817791 ], [ -70.469101, 18.4505577 ], [ -70.4778976, 18.4195423 ], [ -70.4976883, 18.4330616 ], [ -70.5138397, 18.4951191 ], [ -70.6122131, 18.5312824 ], [ -70.6408691, 18.575386 ], [ -70.674881, 18.5981712 ], [ -70.6663437, 18.6648121 ], [ -70.6843185, 18.6855564 ], [ -70.6161041, 18.6836681 ], [ -70.5546265, 18.747879 ], [ -70.5442276, 18.7971306 ], [ -70.5005417, 18.7717609 ], [ -70.4116287, 18.7614746 ], [ -70.3427658, 18.7261047 ] ] ] ] } },
{ "type": "Feature", "properties": { "POLYGON_ID": "DOM_GAUL1993_ADM1_36858", "ADM0_ISO3": "DOM", "ADM0_NAME": "Dominican Republic", "ADM0_CODE": 72, "ADM1_NAME": "Distrito Nacional", "ADM1_CODE": 36858, "GEOSET": "GAUL", "GEOSET_YEAR": 1993.0, "GEOSET_VERSION": "GAUL_v1", "GEOSET_UNIT": "ADM1", "CENTROID_LONG": -69.939575323168924, "CENTROID_LAT": 18.479174653180113 }, "geometry": { "type": "MultiPolygon", "coordinates": [ [ [ [ -69.8824472, 18.479187 ], [ -69.9347771, 18.4379047 ], [ -69.9891059, 18.4225412 ], [ -69.9682922, 18.4757462 ], [ -69.9991837, 18.5019646 ], [ -69.9608383, 18.5217781 ], [ -69.8764725, 18.5051098 ], [ -69.8824472, 18.479187 ] ] ] ] } }
]
}
