{
"type": "FeatureCollection",
"name": "ECU_GAUL1998_ADM0",
"crs": { "type": "name", "properties": { "name": "urn:ogc:def:crs:OGC:1.3:CRS84" } },
"features": [
{ "type": "Feature", "properties": { "POLYGON_ID": "ECU_GAUL1998_ADM0_73", "ADM0_ISO3": "ECU", "ADM0_NAME": "Ecuador", "ADM0_CODE": 73, "GEOSET": "GAUL", "GEOSET_YEAR": 1998.0, "GEOSET_VERSION": "GAUL_v1", "GEOSET_UNIT": "ADM0", "CENTROID_LONG": -78.76427947596919, "CENTROID_LAT": -1.4313773071307039 }, "geometry": { "type": "MultiPolygon", "coordinates": [ [ [ [ -78.7508964, 1.3888211 ], [ -78.7307529, 1.3692032 ], [ -78.72537, 1.35593 ], [ -78.72103, 1.35272 ], [ -78.70299, 1.34768 ], [ -78.68974, 1.33734 ], [ -78.6850733, 1.3252827 ], [ -78.67392, 1.29461 ], [ -78.64261, 1.26522 ], [ -78.62594, 1.25673 ], [ -78.61771, 1.24731 ], [ -78.58482, 1.23011 ], [ -78.55122, 1.1952 ], [ -78.5231024, 1.1918655 ], [ -78.51515, 1.18787 ], [ -78.5087711, 1.1865872 ], [ -78.50053, 1.18493 ], [ -78.49717, 1.18586 ], [ -78.4859501, 1.18188 ], [ -78.43632, 1.14903 ], [ -78.43133, 1.14484 ], [ -78.42511, 1.13585 ], [ -78.40995, 1.10134 ], [ -78.3734, 1.06368 ], [ -78.33312, 1.03877 ], [ -78.32378, 1.03374 ], [ -78.24882, 1.01549 ], [ -78.20957, 0.99894 ], [ -78.19774, 0.99245 ], [ -78.1571, 0.94538 ], [ -78.1320433, 0.9229593 ], [ -78.05779, 0.8705 ], [ -78.01512, 0.85396 ], [ -77.97404, 0.81789 ], [ -77.95555, 0.81055 ], [ -77.93799, 0.8071 ], [ -77.84583, 0.79652 ], [ -77.82164, 0.8018 ], [ -77.80002, 0.82203 ], [ -77.76949, 0.83055 ], [ -77.76347, 0.83138 ], [ -77.7099, 0.83966 ], [ -77.6737016, 0.8171555 ], [ -77.66948, 0.81312 ], [ -77.6551206, 0.8015305 ], [ -77.65466, 0.78315 ], [ -77.6777, 0.7657 ], [ -77.69343, 0.75629 ], [ -77.70187, 0.74412 ], [ -77.7010542, 0.7392249 ], [ -77.67654, 0.71838 ], [ -77.6626872, 0.7183728 ], [ -77.65738, 0.71837 ], [ -77.65145, 0.71607 ], [ -77.64369, 0.71033 ], [ -77.6286833, 0.6940734 ], [ -77.60012, 0.66735 ], [ -77.56819, 0.65379 ], [ -77.558286, 0.6478603 ], [ -77.54258, 0.6496 ], [ -77.5378213, 0.6503944 ], [ -77.5319315, 0.6496108 ], [ -77.52639, 0.64832 ], [ -77.4821677, 0.6064188 ], [ -77.48037, 0.59975 ], [ -77.4924949, 0.5388172 ], [ -77.49291, 0.53207 ], [ -77.47933, 0.44658 ], [ -77.4721, 0.41899 ], [ -77.4645506, 0.3949119 ], [ -77.4186202, 0.3767972 ], [ -77.413216, 0.370486 ], [ -77.39442, 0.35972 ], [ -77.37321, 0.38702 ], [ -77.25369, 0.35161 ], [ -77.2176256, 0.3587635 ], [ -77.2155, 0.35914 ], [ -77.18518, 0.37433 ], [ -77.12106, 0.37001 ], [ -77.1082013, 0.3525524 ], [ -77.10161, 0.33821 ], [ -77.0963479, 0.3298329 ], [ -77.09438, 0.3267 ], [ -77.0853788, 0.317415 ], [ -77.0825808, 0.3107928 ], [ -77.0832546, 0.3084874 ], [ -77.08362, 0.30724 ], [ -77.08675, 0.30161 ], [ -77.06997, 0.28381 ], [ -77.0542, 0.28524 ], [ -77.0523428, 0.2845814 ], [ -77.0138, 0.28106 ], [ -76.99024, 0.26795 ], [ -76.9716037, 0.267348 ], [ -76.92528, 0.25432 ], [ -76.90568, 0.24879 ], [ -76.89679, 0.24763 ], [ -76.88949, 0.24854 ], [ -76.88186, 0.24839 ], [ -76.85862, 0.2459 ], [ -76.852019, 0.2435463 ], [ -76.83225, 0.25419 ], [ -76.8279, 0.25543 ], [ -76.82561, 0.2548 ], [ -76.81896, 0.25917 ], [ -76.80319, 0.26498 ], [ -76.79489, 0.26224 ], [ -76.77977, 0.25196 ], [ -76.7729144, 0.2522471 ], [ -76.75486, 0.25629 ], [ -76.75278, 0.26046 ], [ -76.759192, 0.2682033 ], [ -76.76043, 0.2703 ], [ -76.7411626, 0.2803024 ], [ -76.73675, 0.2811 ], [ -76.72886, 0.28567 ], [ -76.72347, 0.28503 ], [ -76.67079, 0.27527 ], [ -76.6645721, 0.2719112 ], [ -76.6558064, 0.2582806 ], [ -76.65465, 0.2581 ], [ -76.64011, 0.26578 ], [ -76.62788, 0.25948 ], [ -76.61692, 0.24274 ], [ -76.60759, 0.23958 ], [ -76.5882341, 0.2359035 ], [ -76.57764, 0.2428 ], [ -76.54229, 0.25835 ], [ -76.5358743, 0.2577088 ], [ -76.52588, 0.25671 ], [ -76.50332, 0.24772 ], [ -76.43606, 0.26 ], [ -76.4276318, 0.2464329 ], [ -76.4226261, 0.2470728 ], [ -76.41533, 0.24801 ], [ -76.4081368, 0.2480034 ], [ -76.39796, 0.27531 ], [ -76.4034396, 0.3763913 ], [ -76.40261, 0.38415 ], [ -76.3855, 0.39698 ], [ -76.33692, 0.40516 ], [ -76.3287, 0.41708 ], [ -76.31591, 0.43061 ], [ -76.3059751, 0.4348946 ], [ -76.26915, 0.44107 ], [ -76.21744, 0.4017 ], [ -76.19489, 0.39476 ], [ -76.13219, 0.39393 ], [ -76.11305, 0.38126 ], [ -76.09738, 0.34701 ], [ -76.05268, 0.3554 ], [ -76.0401421, 0.349401 ], [ -76.01511, 0.32661 ], [ -75.98829, 0.2804 ], [ -75.95689, 0.25116 ], [ -75.92574, 0.20287 ], [ -75.8832, 0.15661 ], [ -75.83016, 0.12135 ], [ -75.80174, 0.09282 ], [ -75.76098, 0.07067 ], [ -75.73364, 0.0644 ], [ -75.66527, 0.06535 ], [ -75.61739, 0.07348 ], [ -75.57281, 0.04308 ], [ -75.57628, 0.01289 ], [ -75.5806079, 0.0011703 ], [ -75.58186, -0.00208 ], [ -75.580954, -0.007506 ], [ -75.5804256, -0.0084371 ], [ -75.57774, -0.01286 ], [ -75.5397, -0.01278 ], [ -75.47263, -0.04844 ], [ -75.4685147, -0.0511924 ], [ -75.46647, -0.05256 ], [ -75.44502, -0.06445 ], [ -75.41309, -0.07792 ], [ -75.36343, -0.07482 ], [ -75.2882002, -0.093691 ], [ -75.29162, -0.10902 ], [ -75.2937381, -0.1123017 ], [ -75.3018, -0.13063 ], [ -75.34918, -0.13538 ], [ -75.38765, -0.14905 ], [ -75.4435572, -0.1367286 ], [ -75.45242, -0.13687 ], [ -75.47846, -0.1186 ], [ -75.5356316, -0.1132645 ], [ -75.53658, -0.1174 ], [ -75.54341, -0.11696 ], [ -75.54636, -0.12294 ], [ -75.55798, -0.12435 ], [ -75.59179, -0.11773 ], [ -75.59414, -0.11756 ], [ -75.60507, -0.11598 ], [ -75.6074597, -0.1137563 ], [ -75.61443, -0.10727 ], [ -75.62216, -0.11395 ], [ -75.62278, -0.13874 ], [ -75.62618, -0.25192 ], [ -75.62205, -0.26339 ], [ -75.54626, -0.31994 ], [ -75.49859, -0.33408 ], [ -75.46397, -0.32482 ], [ -75.44915, -0.32869 ], [ -75.43787, -0.35244 ], [ -75.43709, -0.35446 ], [ -75.4362249, -0.3580209 ], [ -75.43408, -0.36685 ], [ -75.41451, -0.42373 ], [ -75.38735, -0.43444 ], [ -75.3818718, -0.4351098 ], [ -75.3791701, -0.4396762 ], [ -75.36449, -0.45112 ], [ -75.3608228, -0.4461164 ], [ -75.35859, -0.44307 ], [ -75.33962, -0.45655 ], [ -75.3376002, -0.4605848 ], [ -75.33549, -0.4648 ], [ -75.3164483, -0.4920186 ], [ -75.3137331, -0.4913608 ], [ -75.30738, -0.48193 ], [ -75.29435, -0.4913 ], [ -75.29021, -0.503 ], [ -75.27671, -0.50968 ], [ -75.27197, -0.50408 ], [ -75.26878, -0.50292 ], [ -75.2593701, -0.5194202 ], [ -75.2612759, -0.5268232 ], [ -75.26162, -0.52816 ], [ -75.24495, -0.53499 ], [ -75.2444707, -0.5370453 ], [ -75.24356, -0.54095 ], [ -75.24418, -0.55519 ], [ -75.25069, -0.58576 ], [ -75.24316, -0.58596 ], [ -75.24587, -0.59355 ], [ -75.2432817, -0.5985714 ], [ -75.2422, -0.60067 ], [ -75.2375851, -0.6041233 ], [ -75.23489, -0.60614 ], [ -75.2351, -0.61005 ], [ -75.2433, -0.61421 ], [ -75.26878, -0.62923 ], [ -75.28146, -0.65347 ], [ -75.2787004, -0.660809 ], [ -75.2785367, -0.66104 ], [ -75.27366, -0.66791 ], [ -75.2576703, -0.6828078 ], [ -75.26312, -0.68833 ], [ -75.28017, -0.71088 ], [ -75.2774, -0.72305 ], [ -75.27533, -0.72879 ], [ -75.27144, -0.73406 ], [ -75.25063, -0.7556 ], [ -75.26108, -0.77286 ], [ -75.2614517, -0.7757661 ], [ -75.24051, -0.78888 ], [ -75.24224, -0.8228801 ], [ -75.21889, -0.85545 ], [ -75.21626, -0.90024 ], [ -75.22782, -0.92462 ], [ -75.18936, -0.97576 ], [ -75.20236, -0.97602 ], [ -75.2051, -0.97533 ], [ -75.208578, -0.9756074 ], [ -75.2127069, -0.9759317 ], [ -75.21719, -0.97628 ], [ -75.22814, -0.97516 ], [ -75.2339987, -0.9732134 ], [ -75.25712, -0.97179 ], [ -75.2579581, -0.9720369 ], [ -75.28332, -0.98058 ], [ -75.2880312, -0.9805947 ], [ -75.32167, -0.96965 ], [ -75.3518642, -0.9445643 ], [ -75.35298, -0.94422 ], [ -75.3535908, -0.94431 ], [ -75.3604154, -0.9495115 ], [ -75.36436, -0.95573 ], [ -75.39489, -1.05644 ], [ -75.40234, -1.08024 ], [ -75.4256, -1.15564 ], [ -75.43449, -1.18635 ], [ -75.53519, -1.52901 ], [ -75.54247, -1.54098 ], [ -75.5460107, -1.5430494 ], [ -75.5490317, -1.5444693 ], [ -75.55364, -1.54468 ], [ -75.5576616, -1.5438807 ], [ -75.56164, -1.54309 ], [ -75.5740373, -1.5464535 ], [ -75.57669, -1.54772 ], [ -75.5792753, -1.5496196 ], [ -75.58672, -1.55509 ], [ -75.59628, -1.56339 ], [ -75.599692, -1.5668417 ], [ -75.61907, -1.58611 ], [ -75.64773, -1.62303 ], [ -75.862425, -1.8958321 ], [ -75.89341, -1.93506 ], [ -75.92873, -1.98057 ], [ -75.96632, -2.02868 ], [ -76.00546, -2.07785 ], [ -76.0447, -2.12814 ], [ -76.20119, -2.25299 ], [ -76.21031, -2.26013 ], [ -76.30409, -2.3343 ], [ -76.3168272, -2.3441406 ], [ -76.47208, -2.4674 ], [ -76.540517, -2.5213912 ], [ -76.6136702, -2.5796531 ], [ -76.62732, -2.59059 ], [ -76.6474, -2.59869 ], [ -76.69128, -2.61386 ], [ -77.0183979, -2.7260643 ], [ -77.02511, -2.72834 ], [ -77.17868, -2.7799 ], [ -77.22348, -2.79462 ], [ -77.4109726, -2.8577309 ], [ -77.50134, -2.88801 ], [ -77.5625521, -2.9084404 ], [ -77.62604, -2.92887 ], [ -77.8049406, -2.9897982 ], [ -77.82405, -2.99754 ], [ -77.83366, -3.00282 ], [ -77.8446371, -3.0121389 ], [ -77.95168, -3.09843 ], [ -77.9734417, -3.1155656 ], [ -77.98348, -3.12347 ], [ -78.02605, -3.17611 ], [ -78.03841, -3.19428 ], [ -78.04734, -3.20922 ], [ -78.05581, -3.22141 ], [ -78.06222, -3.22485 ], [ -78.0636961, -3.2246982 ], [ -78.086, -3.21723 ], [ -78.0884015, -3.2184386 ], [ -78.09057, -3.21953 ], [ -78.09401, -3.22988 ], [ -78.0954, -3.2538 ], [ -78.09655, -3.26162 ], [ -78.0967571, -3.2621916 ], [ -78.0993, -3.26921 ], [ -78.1070862, -3.281394 ], [ -78.1294326, -3.3074041 ], [ -78.14165, -3.31955 ], [ -78.19521, -3.36411 ], [ -78.19089, -3.38896 ], [ -78.1854, -3.3961 ], [ -78.1805187, -3.4053625 ], [ -78.1765, -3.41176 ], [ -78.1725326, -3.4155358 ], [ -78.1637, -3.42741 ], [ -78.13993, -3.45574 ], [ -78.12279, -3.47922 ], [ -78.12441, -3.5082 ], [ -78.14479, -3.52681 ], [ -78.19832, -3.51548 ], [ -78.21595, -3.53548 ], [ -78.22442, -3.53616 ], [ -78.24451, -3.49956 ], [ -78.24036, -3.45309 ], [ -78.24332, -3.43836 ], [ -78.24857, -3.42869 ], [ -78.28629, -3.41048 ], [ -78.31078, -3.42126 ], [ -78.31948, -3.4293 ], [ -78.33369, -3.4509 ], [ -78.34589, -3.52036 ], [ -78.3472045, -3.5334421 ], [ -78.34715, -3.64344 ], [ -78.35684, -3.71245 ], [ -78.3590615, -3.7216389 ], [ -78.3766013, -3.7871824 ], [ -78.3993, -3.82373 ], [ -78.4337568, -3.8633621 ], [ -78.44261, -3.87244 ], [ -78.47218, -3.90484 ], [ -78.48364, -3.92024 ], [ -78.49419, -3.93932 ], [ -78.52266, -4.00852 ], [ -78.53299, -4.03151 ], [ -78.5331629, -4.0318555 ], [ -78.55006, -4.06562 ], [ -78.5547762, -4.0794045 ], [ -78.55939, -4.09289 ], [ -78.55985, -4.09565 ], [ -78.56261, -4.10623 ], [ -78.5652749, -4.1134852 ], [ -78.57527, -4.15613 ], [ -78.5751768, -4.1613396 ], [ -78.57506, -4.16787 ], [ -78.5744905, -4.175422 ], [ -78.56828, -4.23735 ], [ -78.57702, -4.26288 ], [ -78.60773, -4.28399 ], [ -78.61484, -4.29042 ], [ -78.62149, -4.30053 ], [ -78.63071, -4.34031 ], [ -78.630896, -4.3486956 ], [ -78.61729, -4.40567 ], [ -78.61524, -4.41465 ], [ -78.61227, -4.42247 ], [ -78.6107413, -4.4344163 ], [ -78.60909, -4.44732 ], [ -78.62084, -4.49654 ], [ -78.6273668, -4.5091853 ], [ -78.65529, -4.55583 ], [ -78.657561, -4.5590854 ], [ -78.69729, -4.60959 ], [ -78.7122, -4.62727 ], [ -78.71909, -4.636 ], [ -78.73102, -4.64909 ], [ -78.81559, -4.67148 ], [ -78.85641, -4.69303 ], [ -78.88902, -4.73414 ], [ -78.8991155, -4.7567283 ], [ -78.90258, -4.76448 ], [ -78.9147568, -4.7837749 ], [ -78.91915, -4.80355 ], [ -78.91299, -4.81874 ], [ -78.9640965, -4.8873468 ], [ -78.97065, -4.90006 ], [ -78.98633, -4.9596 ], [ -78.9999, -4.97936 ], [ -79.00517, -4.9821 ], [ -79.01503, -4.98392 ], [ -79.04552, -4.98639 ], [ -79.05743, -4.98659 ], [ -79.06136, -4.9854 ], [ -79.06598, -4.9844 ], [ -79.0709417, -4.9702618 ], [ -79.07261, -4.9699 ], [ -79.08201, -4.97127 ], [ -79.0871344, -4.9731924 ], [ -79.09118, -4.97471 ], [ -79.0954956, -4.9747748 ], [ -79.10516, -4.97492 ], [ -79.1149659, -4.972675 ], [ -79.11525, -4.97261 ], [ -79.13977, -4.96246 ], [ -79.1533, -4.96359 ], [ -79.1593365, -4.9627182 ], [ -79.17255, -4.96081 ], [ -79.18877, -4.96128 ], [ -79.1984847, -4.962693 ], [ -79.20373, -4.96467 ], [ -79.21266, -4.96328 ], [ -79.2265464, -4.963781 ], [ -79.23123, -4.96395 ], [ -79.2351091, -4.9651266 ], [ -79.24178, -4.96715 ], [ -79.2567263, -4.967319 ], [ -79.2597652, -4.9673534 ], [ -79.2949, -4.91578 ], [ -79.29444, -4.90705 ], [ -79.30038, -4.89784 ], [ -79.3065365, -4.8956429 ], [ -79.3089784, -4.8944605 ], [ -79.31111, -4.89288 ], [ -79.32214, -4.8863 ], [ -79.3299691, -4.8864011 ], [ -79.33841, -4.88651 ], [ -79.34711, -4.87775 ], [ -79.3500267, -4.8705135 ], [ -79.35054, -4.86924 ], [ -79.35441, -4.84669 ], [ -79.3576, -4.83932 ], [ -79.36997, -4.83217 ], [ -79.38373, -4.83445 ], [ -79.3853387, -4.8338434 ], [ -79.38739, -4.83307 ], [ -79.4162202, -4.7985184 ], [ -79.41685, -4.79447 ], [ -79.417243, -4.791971 ], [ -79.42508, -4.74214 ], [ -79.4277936, -4.7363491 ], [ -79.45092, -4.70484 ], [ -79.4584, -4.64709 ], [ -79.47922, -4.62129 ], [ -79.4823721, -4.5740411 ], [ -79.47616, -4.56999 ], [ -79.48183, -4.52881 ], [ -79.508038, -4.5134317 ], [ -79.51871, -4.52299 ], [ -79.5214495, -4.5230299 ], [ -79.530676, -4.5231641 ], [ -79.53314, -4.5232 ], [ -79.54116, -4.52778 ], [ -79.5411438, -4.5271502 ], [ -79.54093, -4.51881 ], [ -79.5574, -4.51166 ], [ -79.59445, -4.46558 ], [ -79.5949089, -4.4621139 ], [ -79.63059, -4.43492 ], [ -79.63678, -4.43399 ], [ -79.6430109, -4.4332722 ], [ -79.6441, -4.4342 ], [ -79.6449, -4.4342393 ], [ -79.65305, -4.43464 ], [ -79.6670461, -4.4442102 ], [ -79.67117, -4.44703 ], [ -79.6746473, -4.448124 ], [ -79.67918, -4.44955 ], [ -79.6971703, -4.465563 ], [ -79.7035, -4.46882 ], [ -79.7141279, -4.4677768 ], [ -79.71542, -4.46765 ], [ -79.72023, -4.46902 ], [ -79.73995, -4.47979 ], [ -79.7494431, -4.4796016 ], [ -79.7498325, -4.4795939 ], [ -79.75255, -4.47954 ], [ -79.7951432, -4.4872739 ], [ -79.80526, -4.48725 ], [ -79.847571, -4.4526582 ], [ -79.85191, -4.44506 ], [ -79.86674, -4.41167 ], [ -79.91478, -4.38166 ], [ -79.94573, -4.39125 ], [ -79.95833, -4.39237 ], [ -79.97455, -4.376 ], [ -80.0085, -4.36394 ], [ -80.01072, -4.36188 ], [ -80.0146, -4.35382 ], [ -80.04799, -4.32821 ], [ -80.06031, -4.30587 ], [ -80.09608, -4.29585 ], [ -80.097296, -4.2953241 ], [ -80.10082, -4.2938 ], [ -80.1031391, -4.2942652 ], [ -80.10426, -4.29449 ], [ -80.10839, -4.29862 ], [ -80.11686, -4.29469 ], [ -80.12213, -4.29444 ], [ -80.1268202, -4.2960034 ], [ -80.13107, -4.29742 ], [ -80.13336, -4.29649 ], [ -80.13242, -4.28844 ], [ -80.1363066, -4.2852128 ], [ -80.136447, -4.2853435 ], [ -80.15513, -4.30356 ], [ -80.16473, -4.29319 ], [ -80.16908, -4.2941 ], [ -80.1897577, -4.3382147 ], [ -80.19438, -4.3382 ], [ -80.1943767, -4.338203 ], [ -80.19026, -4.34189 ], [ -80.19623, -4.34464 ], [ -80.1977399, -4.3448049 ], [ -80.20035, -4.34509 ], [ -80.20472, -4.35083 ], [ -80.20815, -4.35105 ], [ -80.2148, -4.35034 ], [ -80.21528, -4.3607 ], [ -80.2178, -4.36391 ], [ -80.21713, -4.36966 ], [ -80.2199552, -4.3733783 ], [ -80.22172, -4.3731 ], [ -80.22286, -4.36827 ], [ -80.2262955, -4.3698679 ], [ -80.2263, -4.36987 ], [ -80.2298333, -4.3773909 ], [ -80.23159, -4.38113 ], [ -80.24306, -4.39007 ], [ -80.2473447, -4.3986179 ], [ -80.24924, -4.39839 ], [ -80.25156, -4.3981 ], [ -80.25593, -4.40591 ], [ -80.26074, -4.40682 ], [ -80.26738, -4.40174 ], [ -80.2731, -4.40195 ], [ -80.27747, -4.40585 ], [ -80.2848509, -4.4263076 ], [ -80.28348, -4.42907 ], [ -80.28922, -4.43619 ], [ -80.292134, -4.4360169 ], [ -80.29747, -4.4357 ], [ -80.3000677, -4.4391918 ], [ -80.30482, -4.44558 ], [ -80.308126, -4.4470889 ], [ -80.31331, -4.44648 ], [ -80.31721, -4.44853 ], [ -80.32364, -4.45749 ], [ -80.3238491, -4.4576289 ], [ -80.32915, -4.46115 ], [ -80.33467, -4.47011 ], [ -80.3576033, -4.4799392 ], [ -80.37158, -4.47673 ], [ -80.3719086, -4.4768124 ], [ -80.37776, -4.47828 ], [ -80.3792552, -4.4798368 ], [ -80.3856283, -4.48307 ], [ -80.38831, -4.48285 ], [ -80.40041, -4.46625 ], [ -80.4016581, -4.4647709 ], [ -80.4123, -4.45678 ], [ -80.41622, -4.46321 ], [ -80.41918, -4.45976 ], [ -80.4191814, -4.4597554 ], [ -80.4194329, -4.4589535 ], [ -80.4434, -4.43691 ], [ -80.44491, -4.40102 ], [ -80.44673, -4.39596 ], [ -80.4448188, -4.3921377 ], [ -80.44312, -4.37045 ], [ -80.4389995, -4.3652336 ], [ -80.43748, -4.36331 ], [ -80.4258121, -4.3524534 ], [ -80.42022, -4.33369 ], [ -80.41539, -4.32404 ], [ -80.40689, -4.31463 ], [ -80.40313, -4.31123 ], [ -80.38186, -4.29193 ], [ -80.37315, -4.28758 ], [ -80.36649, -4.28115 ], [ -80.36348, -4.26966 ], [ -80.31111, -4.2093 ], [ -80.3070397, -4.2035145 ], [ -80.33661, -4.20273 ], [ -80.34074, -4.20616 ], [ -80.36659, -4.19663 ], [ -80.3752482, -4.201933 ], [ -80.37668, -4.20281 ], [ -80.38721, -4.20139 ], [ -80.40671, -4.21213 ], [ -80.4170919, -4.1991501 ], [ -80.44397, -4.1945 ], [ -80.44463, -4.12082 ], [ -80.45747, -4.12746 ], [ -80.4602117, -4.1269843 ], [ -80.4606307, -4.1255718 ], [ -80.46226, -4.12008 ], [ -80.46132, -4.11157 ], [ -80.48139, -4.0839 ], [ -80.4803431, -4.0802623 ], [ -80.48, -4.07907 ], [ -80.4701524, -4.0770305 ], [ -80.47427, -4.06052 ], [ -80.47651, -4.05723 ], [ -80.4492, -4.03177 ], [ -80.42986, -3.9918 ], [ -80.42314, -3.99135 ], [ -80.42001, -3.99114 ], [ -80.41611, -3.98816 ], [ -80.410237, -3.9878977 ], [ -80.40626, -3.98772 ], [ -80.39755, -3.98407 ], [ -80.39366, -3.98615 ], [ -80.36206, -3.98394 ], [ -80.3602542, -3.9849675 ], [ -80.3430022, -3.9947839 ], [ -80.33851, -3.99734 ], [ -80.32752, -3.99806 ], [ -80.3228449, -4.0019274 ], [ -80.31702, -4.0112 ], [ -80.30604, -4.01376 ], [ -80.2922289, -4.0166734 ], [ -80.26871, -4.00949 ], [ -80.2495093, -3.9809657 ], [ -80.24825, -3.97458 ], [ -80.23769, -3.96287 ], [ -80.23491, -3.95184 ], [ -80.23124, -3.95001 ], [ -80.2218761, -3.9514419 ], [ -80.21293, -3.95281 ], [ -80.2070554, -3.9486191 ], [ -80.1929078, -3.9392418 ], [ -80.18357, -3.92942 ], [ -80.164093, -3.9223411 ], [ -80.1636625, -3.9217598 ], [ -80.16199, -3.91949 ], [ -80.15606, -3.91151 ], [ -80.1556702, -3.8954897 ], [ -80.16109, -3.88106 ], [ -80.16251, -3.85744 ], [ -80.1618, -3.81871 ], [ -80.1621399, -3.812185 ], [ -80.16241, -3.807 ], [ -80.16336, -3.80386 ], [ -80.16655, -3.79741 ], [ -80.1678169, -3.7971557 ], [ -80.1753359, -3.7941673 ], [ -80.17765, -3.78855 ], [ -80.1840283, -3.7770564 ], [ -80.18802, -3.7755 ], [ -80.18961, -3.77182 ], [ -80.1883778, -3.7606862 ], [ -80.1888228, -3.7546396 ], [ -80.18933, -3.75089 ], [ -80.18864, -3.74905 ], [ -80.1831914, -3.7488317 ], [ -80.1831513, -3.74883 ], [ -80.18405, -3.74515 ], [ -80.1813, -3.74263 ], [ -80.18089, -3.7293419 ], [ -80.18081, -3.72675 ], [ -80.1825671, -3.7219153 ], [ -80.18399, -3.718 ], [ -80.1846869, -3.7174335 ], [ -80.19222, -3.71131 ], [ -80.19335, -3.70624 ], [ -80.1926504, -3.7016424 ], [ -80.1939723, -3.6978927 ], [ -80.1949, -3.68438 ], [ -80.18731, -3.6683 ], [ -80.18638, -3.66324 ], [ -80.1868588, -3.6607528 ], [ -80.18864, -3.6515 ], [ -80.1863082, -3.6432842 ], [ -80.18564, -3.64093 ], [ -80.187217, -3.6366982 ], [ -80.19019, -3.62872 ], [ -80.19544, -3.62434 ], [ -80.19635, -3.62089 ], [ -80.1942548, -3.6141457 ], [ -80.19128, -3.60457 ], [ -80.1916161, -3.6023947 ], [ -80.1974301, -3.5942 ], [ -80.20864, -3.5921 ], [ -80.21161, -3.5891 ], [ -80.2126, -3.58594 ], [ -80.21593, -3.57528 ], [ -80.21084, -3.56286 ], [ -80.2100715, -3.5609799 ], [ -80.20925, -3.55897 ], [ -80.2076498, -3.552119 ], [ -80.2069401, -3.5490803 ], [ -80.21101, -3.53205 ], [ -80.2149, -3.52698 ], [ -80.21373, -3.5164 ], [ -80.21484, -3.50328 ], [ -80.2154568, -3.5024464 ], [ -80.21757, -3.49959 ], [ -80.2203893, -3.4999764 ], [ -80.220903, -3.5000468 ], [ -80.2242115, -3.5004969 ], [ -80.2258772, -3.4970276 ], [ -80.23946, -3.46526 ], [ -80.2343284, -3.4546584 ], [ -80.23279, -3.45148 ], [ -80.2266565, -3.4491043 ], [ -80.2256914, -3.4487305 ], [ -80.2241927, -3.4472327 ], [ -80.2217806, -3.4437823 ], [ -80.2199947, -3.4406619 ], [ -80.1752008, -3.4418487 ], [ -80.122887, -3.4226448 ], [ -80.0647233, -3.4187088 ], [ -80.0537771, -3.3838839 ], [ -80.0236906, -3.360413 ], [ -80.0338247, -3.3481656 ], [ -80.0287737, -3.3138106 ], [ -80.0022765, -3.2726075 ], [ -79.9939683, -3.2246807 ], [ -79.9068089, -3.1581399 ], [ -79.901057, -3.1028737 ], [ -79.8468491, -3.0261424 ], [ -79.8519689, -2.9783584 ], [ -79.8515094, -2.8788189 ], [ -79.8238995, -2.8433361 ], [ -79.8178464, -2.797322 ], [ -79.8050185, -2.7877926 ], [ -79.7783403, -2.6639466 ], [ -79.7314591, -2.6416285 ], [ -79.7174319, -2.6111491 ], [ -79.724032, -2.5737159 ], [ -79.696131, -2.5598081 ], [ -79.6934389, -2.522799 ], [ -79.7240403, -2.5000854 ], [ -79.7722977, -2.520839 ], [ -79.7952462, -2.4853916 ], [ -79.7966518, -2.4490784 ], [ -79.8134746, -2.414434 ], [ -79.8321857, -2.3974545 ], [ -79.8250992, -2.3466331 ], [ -79.8503712, -2.3464699 ], [ -79.8593908, -2.3817665 ], [ -79.8590901, -2.4262238 ], [ -79.8780026, -2.4510324 ], [ -79.895963, -2.4264448 ], [ -79.8894062, -2.401816 ], [ -79.9218011, -2.3629167 ], [ -79.9105562, -2.3495296 ], [ -79.9152013, -2.3184753 ], [ -79.9052575, -2.2833161 ], [ -79.9149108, -2.2245557 ], [ -79.9584857, -2.2310656 ], [ -79.9815649, -2.252223 ], [ -79.9787457, -2.2694652 ], [ -79.9994532, -2.2947644 ], [ -79.9820891, -2.3082177 ], [ -79.9772787, -2.3431416 ], [ -80.0067165, -2.3432107 ], [ -80.0293389, -2.3627956 ], [ -80.0332871, -2.3916099 ], [ -80.0642482, -2.3908117 ], [ -80.1007349, -2.4124195 ], [ -80.0811849, -2.426858 ], [ -80.0897034, -2.4397744 ], [ -80.0883003, -2.449787 ], [ -80.0771762, -2.4599998 ], [ -80.0823243, -2.4892852 ], [ -80.1068274, -2.5294338 ], [ -80.1731713, -2.5970128 ], [ -80.2066917, -2.6035004 ], [ -80.2232399, -2.6309501 ], [ -80.2496071, -2.6470567 ], [ -80.2530403, -2.6828951 ], [ -80.2413888, -2.7061088 ], [ -80.2488447, -2.7379994 ], [ -80.2811301, -2.73489 ], [ -80.31524, -2.7149299 ], [ -80.3690672, -2.6700415 ], [ -80.3913196, -2.6406177 ], [ -80.43552, -2.64214 ], [ -80.4954503, -2.5737662 ], [ -80.6591499, -2.4190799 ], [ -80.72324, -2.39099 ], [ -80.7863519, -2.3847711 ], [ -80.8381914, -2.3462541 ], [ -80.8958944, -2.3164673 ], [ -80.9251636, -2.271805 ], [ -80.9727052, -2.2230821 ], [ -80.9084953, -2.2203462 ], [ -80.8411525, -2.1870256 ], [ -80.8168453, -2.1562002 ], [ -80.7897399, -2.1511226 ], [ -80.75558, -2.11807 ], [ -80.73522, -2.0567 ], [ -80.7365384, -2.0306641 ], [ -80.76124, -1.98154 ], [ -80.7281899, -1.9489199 ], [ -80.7331999, -1.8906499 ], [ -80.755144, -1.8243594 ], [ -80.7749899, -1.74729 ], [ -80.80561, -1.7073299 ], [ -80.8213699, -1.65911 ], [ -80.84328, -1.6272699 ], [ -80.84085, -1.56938 ], [ -80.8147069, -1.560946 ], [ -80.81729, -1.51549 ], [ -80.7915711, -1.4786018 ], [ -80.7693083, -1.4779489 ], [ -80.7673185, -1.4369833 ], [ -80.7520065, -1.4172907 ], [ -80.7584524, -1.3936629 ], [ -80.7389, -1.3664499 ], [ -80.7535101, -1.32546 ], [ -80.8521499, -1.20196 ], [ -80.8782799, -1.15503 ], [ -80.9127802, -1.0585166 ], [ -80.9032601, -1.03797 ], [ -80.8738751, -1.0183401 ], [ -80.8310299, -0.9596785 ], [ -80.7835515, -0.956498 ], [ -80.76417, -0.9431999 ], [ -80.7259419, -0.9396603 ], [ -80.7104924, -0.9500101 ], [ -80.6641647, -0.9283176 ], [ -80.6312943, -0.9468123 ], [ -80.5892537, -0.930786 ], [ -80.5440217, -0.8779386 ], [ -80.52801, -0.8285701 ], [ -80.5047199, -0.73291 ], [ -80.4702764, -0.6392194 ], [ -80.4523922, -0.610433 ], [ -80.4314254, -0.6031291 ], [ -80.4069704, -0.6457047 ], [ -80.3778287, -0.6590994 ], [ -80.3569518, -0.6538687 ], [ -80.323721, -0.6804381 ], [ -80.2993438, -0.6515441 ], [ -80.3469617, -0.6380096 ], [ -80.382405, -0.6436591 ], [ -80.4076821, -0.6093969 ], [ -80.4137413, -0.5827236 ], [ -80.4361559, -0.5698211 ], [ -80.4437352, -0.51658 ], [ -80.4602869, -0.455549 ], [ -80.4770455, -0.4415669 ], [ -80.493274, -0.3998939 ], [ -80.4885353, -0.3659283 ], [ -80.462502, -0.3617331 ], [ -80.4042992, -0.3064957 ], [ -80.3835011, -0.2410971 ], [ -80.3387179, -0.2011032 ], [ -80.3260936, -0.1716479 ], [ -80.2972134, -0.1872181 ], [ -80.2343282, -0.1379597 ], [ -80.1707352, -0.0697781 ], [ -80.1414561, -0.0479161 ], [ -80.1011404, 0.0108532 ], [ -80.088104, 0.049549 ], [ -80.0598976, 0.0662478 ], [ -80.0408919, 0.1241439 ], [ -80.03058, 0.21308 ], [ -80.03569, 0.3180099 ], [ -80.0420695, 0.3643596 ], [ -80.0173049, 0.3554312 ], [ -79.9960053, 0.3177803 ], [ -79.9909537, 0.281794 ], [ -79.9969, 0.2329301 ], [ -79.9777, 0.2135901 ], [ -79.96948, 0.1812746 ], [ -79.9440361, 0.2081869 ], [ -79.9371388, 0.2327838 ], [ -79.9846466, 0.294512 ], [ -79.9799416, 0.368267 ], [ -79.99868, 0.4044999 ], [ -80.0376, 0.4300301 ], [ -80.0388632, 0.4775784 ], [ -80.0473746, 0.4921405 ], [ -80.0180385, 0.5140529 ], [ -80.0089481, 0.5491818 ], [ -79.986499, 0.5568184 ], [ -80.0042724, 0.6053302 ], [ -80.0707453, 0.6544113 ], [ -80.087637, 0.6510244 ], [ -80.1028879, 0.6942718 ], [ -80.0955124, 0.7076842 ], [ -80.0997679, 0.7521665 ], [ -80.0924843, 0.7756588 ], [ -80.0545254, 0.8188069 ], [ -79.9951403, 0.8173613 ], [ -79.9508675, 0.8266454 ], [ -79.9190258, 0.8544619 ], [ -79.8818053, 0.8718053 ], [ -79.8679183, 0.8648603 ], [ -79.8034623, 0.899317 ], [ -79.7435424, 0.9610693 ], [ -79.6954737, 0.9738888 ], [ -79.6518415, 0.9939462 ], [ -79.6506738, 0.960582 ], [ -79.6335942, 0.9571945 ], [ -79.6124814, 0.9860325 ], [ -79.5510905, 0.9945117 ], [ -79.4171801, 1.07584 ], [ -79.33577, 1.07168 ], [ -79.2597, 1.08684 ], [ -79.2487, 1.0734301 ], [ -79.1543763, 1.1020946 ], [ -79.1016053, 1.1540387 ], [ -79.0467322, 1.2412913 ], [ -78.9988045, 1.2695795 ], [ -78.9596792, 1.2239025 ], [ -78.9405946, 1.2444562 ], [ -78.9834664, 1.2718425 ], [ -78.9643874, 1.3166297 ], [ -78.9085338, 1.3749319 ], [ -78.8918596, 1.3561264 ], [ -78.9057239, 1.3140771 ], [ -78.8723917, 1.2964542 ], [ -78.8282425, 1.288583 ], [ -78.8252054, 1.3220827 ], [ -78.8476867, 1.3543153 ], [ -78.8316766, 1.3782307 ], [ -78.8360429, 1.4067706 ], [ -78.8023033, 1.4125363 ], [ -78.7801762, 1.3910977 ], [ -78.7508964, 1.3888211 ] ] ], [ [ [ -78.8504304, 1.3544631 ], [ -78.8266251, 1.3224216 ], [ -78.8458746, 1.3065427 ], [ -78.878053, 1.313771 ], [ -78.8767827, 1.3460984 ], [ -78.8504304, 1.3544631 ] ] ], [ [ [ -78.8484012, 1.4290266 ], [ -78.838408, 1.4098767 ], [ -78.8448353, 1.3809098 ], [ -78.8673749, 1.3751429 ], [ -78.8484012, 1.4290266 ] ] ], [ [ [ -78.8502646, 1.4313783 ], [ -78.8880502, 1.3995162 ], [ -78.8802845, 1.4513262 ], [ -78.8502646, 1.4313783 ] ] ], [ [ [ -79.7062185, -2.5138116 ], [ -79.6966385, -2.5561284 ], [ -79.7279049, -2.5427662 ], [ -79.7062185, -2.5138116 ] ] ], [ [ [ -79.730056, -2.5489725 ], [ -79.7257669, -2.6097626 ], [ -79.7526551, -2.636953 ], [ -79.7961825, -2.594914 ], [ -79.783536, -2.5423052 ], [ -79.7363147, -2.5238126 ], [ -79.730056, -2.5489725 ] ] ], [ [ [ -79.7937734, -2.5311233 ], [ -79.8046998, -2.5257585 ], [ -79.8424791, -2.4504244 ], [ -79.8379693, -2.4181836 ], [ -79.8070021, -2.4402116 ], [ -79.8022919, -2.4901738 ], [ -79.7834511, -2.5202102 ], [ -79.7937734, -2.5311233 ] ] ], [ [ [ -79.8354639, -2.6197261 ], [ -79.8386708, -2.6596704 ], [ -79.8541024, -2.665748 ], [ -79.8875769, -2.6526627 ], [ -79.8814636, -2.6016056 ], [ -79.8638254, -2.5420363 ], [ -79.854405, -2.4794606 ], [ -79.8392163, -2.4829119 ], [ -79.815803, -2.5503224 ], [ -79.8354639, -2.6197261 ] ] ], [ [ [ -79.9160367, -2.4944705 ], [ -79.8886697, -2.5075855 ], [ -79.9021502, -2.5523716 ], [ -79.9251726, -2.5905391 ], [ -79.9442662, -2.5493872 ], [ -79.9812871, -2.5246798 ], [ -79.9721512, -2.512661 ], [ -79.9364198, -2.5149348 ], [ -79.9160367, -2.4944705 ] ] ], [ [ [ -80.0358795, -2.6755575 ], [ -79.9863224, -2.6928339 ], [ -79.9719599, -2.7083699 ], [ -79.89963, -2.7459399 ], [ -79.90985, -2.77586 ], [ -79.93112, -2.79302 ], [ -79.9716201, -2.7953801 ], [ -79.9934101, -2.8081601 ], [ -80.0321552, -2.8597489 ], [ -80.0599155, -2.8419737 ], [ -80.09517, -2.83428 ], [ -80.1324308, -2.8383942 ], [ -80.1456904, -2.8819188 ], [ -80.116123, -2.9066296 ], [ -80.1191795, -2.9254639 ], [ -80.0934637, -2.9508603 ], [ -80.0965676, -2.9698424 ], [ -80.1240194, -3.0141176 ], [ -80.1398162, -3.02553 ], [ -80.1965599, -3.0425401 ], [ -80.2214499, -3.0301801 ], [ -80.26094, -3.02647 ], [ -80.2725, -3.00147 ], [ -80.2621399, -2.9607299 ], [ -80.2623301, -2.8619801 ], [ -80.23674, -2.78643 ], [ -80.2176501, -2.7675901 ], [ -80.2190801, -2.7418101 ], [ -80.174854, -2.7200473 ], [ -80.1258148, -2.7077798 ], [ -80.11118, -2.69353 ], [ -80.0358795, -2.6755575 ] ] ], [ [ [ -79.9294005, -2.3150536 ], [ -79.9126092, -2.3507037 ], [ -79.9433859, -2.3560901 ], [ -79.9448558, -2.3265882 ], [ -79.9294005, -2.3150536 ] ] ], [ [ [ -79.9282249, -2.4637036 ], [ -79.9410405, -2.5013043 ], [ -79.9502416, -2.5104693 ], [ -79.961526, -2.4877828 ], [ -79.9724803, -2.4778197 ], [ -79.9849941, -2.4717398 ], [ -79.9956426, -2.4709372 ], [ -79.9949414, -2.4657218 ], [ -79.9813353, -2.4591152 ], [ -79.9801369, -2.463925 ], [ -79.9723894, -2.4654288 ], [ -79.9662024, -2.4633618 ], [ -79.9646536, -2.4589656 ], [ -79.9695894, -2.4538292 ], [ -79.9657463, -2.4431799 ], [ -79.9569871, -2.4360533 ], [ -79.9282249, -2.4637036 ] ] ], [ [ [ -79.9525634, -2.2358084 ], [ -79.9290458, -2.2529786 ], [ -79.9325906, -2.2945479 ], [ -79.9532929, -2.3145989 ], [ -79.9762526, -2.26044 ], [ -79.9525634, -2.2358084 ] ] ], [ [ [ -79.9694294, -2.5083209 ], [ -79.9862669, -2.5217844 ], [ -79.9784071, -2.542497 ], [ -79.9463794, -2.5538252 ], [ -79.9330505, -2.6012802 ], [ -79.96134, -2.6062844 ], [ -79.9992942, -2.5933211 ], [ -80.0634333, -2.5961243 ], [ -80.0247995, -2.5496703 ], [ -80.0161808, -2.5086212 ], [ -79.9961875, -2.49115 ], [ -79.9694294, -2.5083209 ] ] ], [ [ [ -79.9888717, -2.4105333 ], [ -79.9332701, -2.4145352 ], [ -79.9491125, -2.4415351 ], [ -79.9888717, -2.4105333 ] ] ], [ [ [ -79.9367185, -2.6358448 ], [ -79.9450737, -2.657806 ], [ -79.9987343, -2.6423269 ], [ -79.9422972, -2.6093775 ], [ -79.9367185, -2.6358448 ] ] ], [ [ [ -79.9821351, -2.6029112 ], [ -79.966481, -2.6196017 ], [ -80.018586, -2.6286111 ], [ -80.0101177, -2.6052347 ], [ -79.9821351, -2.6029112 ] ] ], [ [ [ -79.9947704, -2.4386928 ], [ -79.9698614, -2.4477637 ], [ -79.970378, -2.4543847 ], [ -79.9666766, -2.4628846 ], [ -79.9775991, -2.4642072 ], [ -79.9809055, -2.4584902 ], [ -79.9857289, -2.4593706 ], [ -79.994706, -2.4647513 ], [ -79.9982493, -2.4680944 ], [ -80.0001484, -2.4752825 ], [ -80.0128415, -2.484713 ], [ -80.0355359, -2.5008901 ], [ -80.0227934, -2.4492141 ], [ -79.9947704, -2.4386928 ] ] ], [ [ [ -79.9918939, -2.3645297 ], [ -79.9694035, -2.3931417 ], [ -79.9842186, -2.4069646 ], [ -80.010437, -2.3858412 ], [ -79.9918939, -2.3645297 ] ] ], [ [ [ -80.0256, -3.2188701 ], [ -80.011402, -3.2619534 ], [ -80.026615, -3.2811082 ], [ -80.0595109, -3.2790407 ], [ -80.0427945, -3.2251124 ], [ -80.0256, -3.2188701 ] ] ], [ [ [ -80.08876, -2.8412299 ], [ -80.0600248, -2.8442484 ], [ -80.0308073, -2.8659974 ], [ -80.0562132, -2.9121156 ], [ -80.1005018, -2.8968574 ], [ -80.1113165, -2.8781701 ], [ -80.08876, -2.8412299 ] ] ], [ [ [ -80.0694224, -3.3367453 ], [ -80.0477196, -3.3400056 ], [ -80.0332945, -3.3642365 ], [ -80.0700283, -3.3941412 ], [ -80.0837297, -3.3873075 ], [ -80.0922684, -3.3355052 ], [ -80.0694224, -3.3367453 ] ] ], [ [ [ -80.0358345, -3.2810058 ], [ -80.0387201, -3.3387878 ], [ -80.1091301, -3.3228399 ], [ -80.0706801, -3.29122 ], [ -80.0358345, -3.2810058 ] ] ], [ [ [ -80.053161, -2.4242073 ], [ -80.0674392, -2.4632072 ], [ -80.0880633, -2.4448544 ], [ -80.0681907, -2.4126114 ], [ -80.053161, -2.4242073 ] ] ], [ [ [ -80.2150509, -3.3381203 ], [ -80.165774, -3.3417671 ], [ -80.1712256, -3.3565171 ], [ -80.1711128, -3.3682924 ], [ -80.1623126, -3.3726275 ], [ -80.1516519, -3.3669716 ], [ -80.1434807, -3.3775049 ], [ -80.1358268, -3.3782103 ], [ -80.1268741, -3.372321 ], [ -80.1248384, -3.3476196 ], [ -80.1027332, -3.3448998 ], [ -80.0841313, -3.3857742 ], [ -80.1039555, -3.4082462 ], [ -80.1583351, -3.418215 ], [ -80.1795122, -3.3945083 ], [ -80.1978179, -3.4015967 ], [ -80.2150509, -3.3381203 ] ] ], [ [ [ -80.1199304, -3.3371477 ], [ -80.12689, -3.3480121 ], [ -80.1291069, -3.3632639 ], [ -80.1384621, -3.3777818 ], [ -80.1481261, -3.3660668 ], [ -80.1645734, -3.3690795 ], [ -80.1705056, -3.363013 ], [ -80.1610836, -3.3391611 ], [ -80.1199304, -3.3371477 ] ] ], [ [ [ -80.2726089, -3.341501 ], [ -80.284405, -3.3552134 ], [ -80.2532233, -3.4054607 ], [ -80.2832833, -3.4057985 ], [ -80.3045445, -3.3778882 ], [ -80.2726089, -3.341501 ] ] ], [ [ [ -89.350798, -0.686584 ], [ -89.272993, -0.7028891 ], [ -89.242429, -0.724125 ], [ -89.273796, -0.753222 ], [ -89.283023, -0.778209 ], [ -89.306832, -0.791078 ], [ -89.323994, -0.816187 ], [ -89.35868, -0.826859 ], [ -89.361894, -0.851847 ], [ -89.395322, -0.897682 ], [ -89.398531, -0.913653 ], [ -89.431559, -0.933209 ], [ -89.489144, -0.939093 ], [ -89.517817, -0.954271 ], [ -89.561064, -0.951921 ], [ -89.6070872, -0.9340508 ], [ -89.627954, -0.917097 ], [ -89.6112723, -0.8876352 ], [ -89.5419592, -0.8445436 ], [ -89.5372375, -0.8174226 ], [ -89.511843, -0.824059 ], [ -89.4680428, -0.8019857 ], [ -89.4637665, -0.7601359 ], [ -89.437453, -0.737419 ], [ -89.362323, -0.702938 ], [ -89.350798, -0.686584 ] ] ], [ [ [ -89.6664877, -1.3454075 ], [ -89.6320851, -1.367791 ], [ -89.6308009, -1.4107323 ], [ -89.7042032, -1.3955162 ], [ -89.7393983, -1.3735217 ], [ -89.7326917, -1.3597316 ], [ -89.6664877, -1.3454075 ] ] ], [ [ [ -89.9493336, 0.3462315 ], [ -89.9417335, 0.3156676 ], [ -89.9727876, 0.3097019 ], [ -89.97161, 0.33797 ], [ -89.9493336, 0.3462315 ] ] ], [ [ [ -90.08179, -0.7997 ], [ -90.04445, -0.80005 ], [ -90.03048, -0.83803 ], [ -90.05542, -0.83921 ], [ -90.09124, -0.82495 ], [ -90.08179, -0.7997 ] ] ], [ [ [ -90.24864, -0.48896 ], [ -90.23583, -0.52372 ], [ -90.16942, -0.57185 ], [ -90.18399, -0.60817 ], [ -90.17884, -0.67139 ], [ -90.19353, -0.69084 ], [ -90.23126, -0.71623 ], [ -90.24914, -0.74831 ], [ -90.3073492, -0.7415659 ], [ -90.3082424, -0.7648082 ], [ -90.3502, -0.76305 ], [ -90.3964532, -0.7738897 ], [ -90.44962, -0.74483 ], [ -90.4669, -0.72204 ], [ -90.52603, -0.70443 ], [ -90.54524, -0.6546 ], [ -90.54884, -0.62458 ], [ -90.53797, -0.6068 ], [ -90.53428, -0.56661 ], [ -90.50845, -0.53195 ], [ -90.45063, -0.51131 ], [ -90.4051643, -0.5043508 ], [ -90.3726212, -0.5093705 ], [ -90.3556394, -0.4937089 ], [ -90.3247214, -0.4985927 ], [ -90.2800329, -0.4870001 ], [ -90.24864, -0.48896 ] ] ], [ [ [ -90.2762974, -0.4109911 ], [ -90.2480144, -0.4648803 ], [ -90.2936483, -0.4840382 ], [ -90.2981309, -0.4615642 ], [ -90.282638, -0.4447249 ], [ -90.2762974, -0.4109911 ] ] ], [ [ [ -90.4251935, -1.2203301 ], [ -90.4214168, -1.2328183 ], [ -90.3593908, -1.2631234 ], [ -90.3644306, -1.3003048 ], [ -90.386008, -1.3309623 ], [ -90.4256338, -1.3575123 ], [ -90.454805, -1.3598622 ], [ -90.4979895, -1.3382397 ], [ -90.5099112, -1.3173881 ], [ -90.489913, -1.2823426 ], [ -90.4750061, -1.2306064 ], [ -90.4521068, -1.236207 ], [ -90.4251935, -1.2203301 ] ] ], [ [ [ -90.48445, 0.38666 ], [ -90.46091, 0.38497 ], [ -90.42382, 0.35045 ], [ -90.40104, 0.31489 ], [ -90.42897, 0.28967 ], [ -90.47245, 0.27692 ], [ -90.50298, 0.2877 ], [ -90.53743, 0.31132 ], [ -90.5419, 0.34995 ], [ -90.52821, 0.3698 ], [ -90.48445, 0.38666 ] ] ], [ [ [ -90.78979, -0.14725 ], [ -90.74884, -0.15138 ], [ -90.6744547, -0.195522 ], [ -90.648, -0.19592 ], [ -90.60399, -0.21911 ], [ -90.58287, -0.2392 ], [ -90.57378, -0.28016 ], [ -90.54639, -0.31854 ], [ -90.56878, -0.33116 ], [ -90.57939, -0.36466 ], [ -90.59858, -0.37535 ], [ -90.65398, -0.36365 ], [ -90.67356, -0.35257 ], [ -90.73985, -0.36019 ], [ -90.77069, -0.33533 ], [ -90.83327, -0.32685 ], [ -90.83211, -0.29953 ], [ -90.84787, -0.27544 ], [ -90.87014, -0.26991 ], [ -90.83125, -0.20909 ], [ -90.83713, -0.17663 ], [ -90.78979, -0.14725 ] ] ], [ [ [ -90.6714418, -0.5874627 ], [ -90.64289, -0.61638 ], [ -90.64941, -0.63158 ], [ -90.68244, -0.62348 ], [ -90.6714418, -0.5874627 ] ] ], [ [ [ -90.77609, 0.64246 ], [ -90.75869, 0.63395 ], [ -90.73004, 0.59838 ], [ -90.71905, 0.56487 ], [ -90.72239, 0.54015 ], [ -90.7618, 0.54532 ], [ -90.78265, 0.55769 ], [ -90.79031, 0.60485 ], [ -90.77609, 0.64246 ] ] ], [ [ [ -91.35614, 0.15916 ], [ -91.33937, 0.16134 ], [ -91.3121051, 0.13339 ], [ -91.28996, 0.0692 ], [ -91.26897, 0.04137 ], [ -91.19959, -0.02126 ], [ -91.18487, -0.10734 ], [ -91.19396, -0.15115 ], [ -91.17911, -0.21532 ], [ -91.13558, -0.26351 ], [ -91.11561, -0.27536 ], [ -91.10767, -0.30964 ], [ -91.0442669, -0.3445793 ], [ -90.99937, -0.38254 ], [ -90.94406, -0.46524 ], [ -90.9564608, -0.6128521 ], [ -90.93274, -0.62681 ], [ -90.8941, -0.60798 ], [ -90.87975, -0.64224 ], [ -90.85594, -0.66066 ], [ -90.85081, -0.70021 ], [ -90.8075605, -0.7409517 ], [ -90.78103, -0.75763 ], [ -90.80162, -0.78585 ], [ -90.823372, -0.7889716 ], [ -90.85161, -0.88547 ], [ -90.84941, -0.91536 ], [ -90.88793, -0.92053 ], [ -90.90673, -0.95482 ], [ -90.94179, -0.96553 ], [ -90.9948436, -0.9597707 ], [ -91.0173, -0.98915 ], [ -91.06875, -1.00934 ], [ -91.1225922, -1.0176328 ], [ -91.1399993, -1.0315853 ], [ -91.21159, -1.04725 ], [ -91.22516, -1.0327 ], [ -91.31837, -1.01625 ], [ -91.37982, -1.02273 ], [ -91.44078, -1.00059 ], [ -91.4553744, -0.9491726 ], [ -91.48587, -0.94069 ], [ -91.51188, -0.90796 ], [ -91.50971, -0.88167 ], [ -91.48668, -0.84661 ], [ -91.45468, -0.82185 ], [ -91.43344, -0.78782 ], [ -91.37047, -0.75403 ], [ -91.36612, -0.74075 ], [ -91.30161, -0.69562 ], [ -91.25041, -0.68903 ], [ -91.21318, -0.66943 ], [ -91.18462, -0.69055 ], [ -91.15211, -0.67663 ], [ -91.14341, -0.65549 ], [ -91.09964, -0.64272 ], [ -91.0789381, -0.6171292 ], [ -91.0847515, -0.5868184 ], [ -91.14422, -0.54648 ], [ -91.17264, -0.51453 ], [ -91.21297, -0.48826 ], [ -91.2245, -0.46893 ], [ -91.22336, -0.40037 ], [ -91.261, -0.3835 ], [ -91.28455, -0.354 ], [ -91.33192, -0.33622 ], [ -91.3811994, -0.268255 ], [ -91.39261, -0.23416 ], [ -91.38545, -0.19215 ], [ -91.40362, -0.16689 ], [ -91.40582, -0.05915 ], [ -91.41874, -0.03106 ], [ -91.43845, -0.01804 ], [ -91.47634, -0.0165 ], [ -91.54803, -0.05168 ], [ -91.56775, -0.04885 ], [ -91.59323, -0.01276 ], [ -91.58721, 0.00528 ], [ -91.52141, 0.0357 ], [ -91.49081, 0.08055 ], [ -91.49042, 0.09782 ], [ -91.44203, 0.10671 ], [ -91.3875, 0.12617 ], [ -91.35614, 0.15916 ] ] ], [ [ [ -91.45687, -0.26265 ], [ -91.4063, -0.29731 ], [ -91.38069, -0.34989 ], [ -91.3771, -0.39474 ], [ -91.39168, -0.42618 ], [ -91.38745, -0.45247 ], [ -91.4302, -0.4954 ], [ -91.5065, -0.50676 ], [ -91.55874, -0.49014 ], [ -91.60099, -0.48629 ], [ -91.62557, -0.45201 ], [ -91.65157, -0.39247 ], [ -91.65299, -0.30366 ], [ -91.57464, -0.2985 ], [ -91.50833, -0.28289 ], [ -91.48759, -0.26588 ], [ -91.45687, -0.26265 ] ] ] ] } }
]
}
