{
"type": "FeatureCollection",
"name": "ERI_GAUL1991_ADM2",
"crs": { "type": "name", "properties": { "name": "urn:ogc:def:crs:OGC:1.3:CRS84" } },
"features": [
{ "type": "Feature", "properties": { "POLYGON_ID": "ERI_GAUL1991_ADM2_15835", "ADM0_ISO3": "ERI", "ADM0_NAME": "Eritrea", "ADM0_CODE": 77, "ADM1_NAME": "Anseba", "ADM1_CODE": 1205, "ADM2_NAME": "Adi Tekeliezan", "ADM2_CODE": 15835, "GEOSET": "GAUL", "GEOSET_YEAR": 1991.0, "GEOSET_VERSION": "GAUL_v1", "GEOSET_UNIT": "ADM2", "CENTROID_LONG": 38.774029821961108, "CENTROID_LAT": 15.619455892058603 }, "geometry": { "type": "MultiPolygon", "coordinates": [ [ [ [ 38.8633385, 15.695713 ], [ 38.8658142, 15.6212254 ], [ 38.8916359, 15.5676413 ], [ 38.7668915, 15.5086203 ], [ 38.7403831, 15.5169477 ], [ 38.6880836, 15.5899715 ], [ 38.6501961, 15.6687593 ], [ 38.712162, 15.7067175 ], [ 38.7880592, 15.7091618 ], [ 38.8633385, 15.695713 ] ] ] ] } },
{ "type": "Feature", "properties": { "POLYGON_ID": "ERI_GAUL1991_ADM2_15836", "ADM0_ISO3": "ERI", "ADM0_NAME": "Eritrea", "ADM0_CODE": 77, "ADM1_NAME": "Anseba", "ADM1_CODE": 1205, "ADM2_NAME": "Asmat", "ADM2_CODE": 15836, "GEOSET": "GAUL", "GEOSET_YEAR": 1991.0, "GEOSET_VERSION": "GAUL_v1", "GEOSET_UNIT": "ADM2", "CENTROID_LONG": 37.976234115268021, "CENTROID_LAT": 16.363036126898809 }, "geometry": { "type": "MultiPolygon", "coordinates": [ [ [ [ 38.0470657, 16.655138 ], [ 38.0735664, 16.623188 ], [ 38.0915489, 16.5285969 ], [ 38.1265907, 16.4993877 ], [ 38.1694794, 16.429245 ], [ 38.2122154, 16.3184891 ], [ 38.2637177, 16.212225 ], [ 38.2284164, 16.1749535 ], [ 38.1327171, 16.1363869 ], [ 38.0997543, 16.0884953 ], [ 38.1150551, 16.0576229 ], [ 38.0650253, 16.0036106 ], [ 37.8881264, 16.0725555 ], [ 37.868515, 16.1139393 ], [ 37.8013306, 16.1311779 ], [ 37.7486839, 16.1272907 ], [ 37.7760696, 16.1957569 ], [ 37.8126984, 16.2196369 ], [ 37.81744, 16.2796726 ], [ 37.7458534, 16.3470974 ], [ 37.7665215, 16.3828793 ], [ 37.8354301, 16.4471855 ], [ 37.7743683, 16.513319 ], [ 37.7550964, 16.6132679 ], [ 37.7869987, 16.6739006 ], [ 37.8338776, 16.7169132 ], [ 37.9827118, 16.7382717 ], [ 37.9822807, 16.6717987 ], [ 38.0470657, 16.655138 ] ] ] ] } },
{ "type": "Feature", "properties": { "POLYGON_ID": "ERI_GAUL1991_ADM2_15837", "ADM0_ISO3": "ERI", "ADM0_NAME": "Eritrea", "ADM0_CODE": 77, "ADM1_NAME": "Anseba", "ADM1_CODE": 1205, "ADM2_NAME": "Elabered", "ADM2_CODE": 15837, "GEOSET": "GAUL", "GEOSET_YEAR": 1991.0, "GEOSET_VERSION": "GAUL_v1", "GEOSET_UNIT": "ADM2", "CENTROID_LONG": 38.564697076823848, "CENTROID_LAT": 15.693893808599249 }, "geometry": { "type": "MultiPolygon", "coordinates": [ [ [ [ 38.5967636, 15.8010921 ], [ 38.6307793, 15.7689867 ], [ 38.7076607, 15.7560463 ], [ 38.7880592, 15.7091618 ], [ 38.712162, 15.7067175 ], [ 38.6501961, 15.6687593 ], [ 38.6880836, 15.5899715 ], [ 38.5944443, 15.5798368 ], [ 38.519928, 15.5414581 ], [ 38.5145149, 15.5979786 ], [ 38.4873199, 15.6328421 ], [ 38.3823624, 15.6754465 ], [ 38.4468536, 15.7547674 ], [ 38.4882355, 15.8107586 ], [ 38.5540276, 15.8193188 ], [ 38.5967636, 15.8010921 ] ] ] ] } },
{ "type": "Feature", "properties": { "POLYGON_ID": "ERI_GAUL1991_ADM2_15838", "ADM0_ISO3": "ERI", "ADM0_NAME": "Eritrea", "ADM0_CODE": 77, "ADM1_NAME": "Anseba", "ADM1_CODE": 1205, "ADM2_NAME": "Geleb", "ADM2_CODE": 15838, "GEOSET": "GAUL", "GEOSET_YEAR": 1991.0, "GEOSET_VERSION": "GAUL_v1", "GEOSET_UNIT": "ADM2", "CENTROID_LONG": 38.721081807714896, "CENTROID_LAT": 15.811523655075888 }, "geometry": { "type": "MultiPolygon", "coordinates": [ [ [ [ 38.8633385, 15.695713 ], [ 38.7880592, 15.7091618 ], [ 38.7076607, 15.7560463 ], [ 38.6307793, 15.7689867 ], [ 38.5967636, 15.8010921 ], [ 38.544239, 15.8580236 ], [ 38.5784264, 15.894659 ], [ 38.6122437, 15.8746758 ], [ 38.6779671, 15.8932219 ], [ 38.7280159, 15.8737373 ], [ 38.7490616, 15.8994198 ], [ 38.7820358, 15.891449 ], [ 38.843998, 15.8380041 ], [ 38.8337326, 15.7788534 ], [ 38.8633385, 15.695713 ] ] ] ] } },
{ "type": "Feature", "properties": { "POLYGON_ID": "ERI_GAUL1991_ADM2_15839", "ADM0_ISO3": "ERI", "ADM0_NAME": "Eritrea", "ADM0_CODE": 77, "ADM1_NAME": "Anseba", "ADM1_CODE": 1205, "ADM2_NAME": "Habero", "ADM2_CODE": 15839, "GEOSET": "GAUL", "GEOSET_YEAR": 1991.0, "GEOSET_VERSION": "GAUL_v1", "GEOSET_UNIT": "ADM2", "CENTROID_LONG": 38.309667682267261, "CENTROID_LAT": 16.329682894474757 }, "geometry": { "type": "MultiPolygon", "coordinates": [ [ [ [ 38.4277153, 16.3860092 ], [ 38.4684715, 16.3467083 ], [ 38.4645157, 16.2725601 ], [ 38.4872856, 16.2618999 ], [ 38.4824448, 16.1691418 ], [ 38.4554672, 16.0962391 ], [ 38.4899902, 16.0396996 ], [ 38.4674721, 15.9778471 ], [ 38.4114342, 15.9482489 ], [ 38.3901367, 16.0223312 ], [ 38.3677788, 16.0266819 ], [ 38.3212051, 16.1275578 ], [ 38.2637177, 16.212225 ], [ 38.2122154, 16.3184891 ], [ 38.1694794, 16.429245 ], [ 38.1265907, 16.4993877 ], [ 38.0915489, 16.5285969 ], [ 38.0735664, 16.623188 ], [ 38.0470657, 16.655138 ], [ 38.1378632, 16.643961 ], [ 38.1503601, 16.611639 ], [ 38.2419357, 16.6129951 ], [ 38.3215103, 16.575964 ], [ 38.2957115, 16.5139828 ], [ 38.3434792, 16.4704323 ], [ 38.3551979, 16.4350376 ], [ 38.3270149, 16.4019241 ], [ 38.3688812, 16.3739262 ], [ 38.4277153, 16.3860092 ] ] ] ] } },
{ "type": "Feature", "properties": { "POLYGON_ID": "ERI_GAUL1991_ADM2_15840", "ADM0_ISO3": "ERI", "ADM0_NAME": "Eritrea", "ADM0_CODE": 77, "ADM1_NAME": "Anseba", "ADM1_CODE": 1205, "ADM2_NAME": "Hagaz", "ADM2_CODE": 15840, "GEOSET": "GAUL", "GEOSET_YEAR": 1991.0, "GEOSET_VERSION": "GAUL_v1", "GEOSET_UNIT": "ADM2", "CENTROID_LONG": 38.254224820143079, "CENTROID_LAT": 15.749375802498561 }, "geometry": { "type": "MultiPolygon", "coordinates": [ [ [ [ 38.3171196, 15.8511486 ], [ 38.3583374, 15.8488512 ], [ 38.3436356, 15.7991629 ], [ 38.3904953, 15.7914066 ], [ 38.4468536, 15.7547674 ], [ 38.3823624, 15.6754465 ], [ 38.4873199, 15.6328421 ], [ 38.5145149, 15.5979786 ], [ 38.519928, 15.5414581 ], [ 38.4424438, 15.5498438 ], [ 38.3644524, 15.6033421 ], [ 38.2792702, 15.6292372 ], [ 38.1960144, 15.6185827 ], [ 38.1723328, 15.6666727 ], [ 38.185585, 15.696146 ], [ 38.126976, 15.7722673 ], [ 38.0236511, 15.7665939 ], [ 38.0205269, 15.806035 ], [ 38.0321922, 15.9371042 ], [ 38.0464821, 15.970439 ], [ 38.0827942, 15.9335451 ], [ 38.2384682, 15.8623638 ], [ 38.3171196, 15.8511486 ] ] ] ] } },
{ "type": "Feature", "properties": { "POLYGON_ID": "ERI_GAUL1991_ADM2_15841", "ADM0_ISO3": "ERI", "ADM0_NAME": "Eritrea", "ADM0_CODE": 77, "ADM1_NAME": "Anseba", "ADM1_CODE": 1205, "ADM2_NAME": "Halhal", "ADM2_CODE": 15841, "GEOSET": "GAUL", "GEOSET_YEAR": 1991.0, "GEOSET_VERSION": "GAUL_v1", "GEOSET_UNIT": "ADM2", "CENTROID_LONG": 38.218506581487908, "CENTROID_LAT": 16.019675021900749 }, "geometry": { "type": "MultiPolygon", "coordinates": [ [ [ [ 38.3677788, 16.0266819 ], [ 38.3181496, 15.9822702 ], [ 38.3171196, 15.8511486 ], [ 38.2384682, 15.8623638 ], [ 38.0827942, 15.9335451 ], [ 38.0464821, 15.970439 ], [ 38.0650253, 16.0036106 ], [ 38.1150551, 16.0576229 ], [ 38.0997543, 16.0884953 ], [ 38.1327171, 16.1363869 ], [ 38.2284164, 16.1749535 ], [ 38.2637177, 16.212225 ], [ 38.3212051, 16.1275578 ], [ 38.3677788, 16.0266819 ] ] ] ] } },
{ "type": "Feature", "properties": { "POLYGON_ID": "ERI_GAUL1991_ADM2_15842", "ADM0_ISO3": "ERI", "ADM0_NAME": "Eritrea", "ADM0_CODE": 77, "ADM1_NAME": "Anseba", "ADM1_CODE": 1205, "ADM2_NAME": "Hamelmalo", "ADM2_CODE": 15842, "GEOSET": "GAUL", "GEOSET_YEAR": 1991.0, "GEOSET_VERSION": "GAUL_v1", "GEOSET_UNIT": "ADM2", "CENTROID_LONG": 38.436451208482211, "CENTROID_LAT": 15.902582005176901 }, "geometry": { "type": "MultiPolygon", "coordinates": [ [ [ [ 38.4674721, 15.9778471 ], [ 38.5138321, 15.9664469 ], [ 38.5784264, 15.894659 ], [ 38.544239, 15.8580236 ], [ 38.5967636, 15.8010921 ], [ 38.5540276, 15.8193188 ], [ 38.4882355, 15.8107586 ], [ 38.4247208, 15.8189287 ], [ 38.3583374, 15.8488512 ], [ 38.3171196, 15.8511486 ], [ 38.3181496, 15.9822702 ], [ 38.3677788, 16.0266819 ], [ 38.3901367, 16.0223312 ], [ 38.4114342, 15.9482489 ], [ 38.4674721, 15.9778471 ] ] ] ] } },
{ "type": "Feature", "properties": { "POLYGON_ID": "ERI_GAUL1991_ADM2_15843", "ADM0_ISO3": "ERI", "ADM0_NAME": "Eritrea", "ADM0_CODE": 77, "ADM1_NAME": "Anseba", "ADM1_CODE": 1205, "ADM2_NAME": "Keren", "ADM2_CODE": 15843, "GEOSET": "GAUL", "GEOSET_YEAR": 1991.0, "GEOSET_VERSION": "GAUL_v1", "GEOSET_UNIT": "ADM2", "CENTROID_LONG": 38.412741603376098, "CENTROID_LAT": 15.80296285286845 }, "geometry": { "type": "MultiPolygon", "coordinates": [ [ [ [ 38.4882355, 15.8107586 ], [ 38.4468536, 15.7547674 ], [ 38.3904953, 15.7914066 ], [ 38.3436356, 15.7991629 ], [ 38.3583374, 15.8488512 ], [ 38.4247208, 15.8189287 ], [ 38.4882355, 15.8107586 ] ] ] ] } },
{ "type": "Feature", "properties": { "POLYGON_ID": "ERI_GAUL1991_ADM2_15844", "ADM0_ISO3": "ERI", "ADM0_NAME": "Eritrea", "ADM0_CODE": 77, "ADM1_NAME": "Anseba", "ADM1_CODE": 1205, "ADM2_NAME": "Kerkebet", "ADM2_CODE": 15844, "GEOSET": "GAUL", "GEOSET_YEAR": 1991.0, "GEOSET_VERSION": "GAUL_v1", "GEOSET_UNIT": "ADM2", "CENTROID_LONG": 37.574573081586735, "CENTROID_LAT": 16.112622696844817 }, "geometry": { "type": "MultiPolygon", "coordinates": [ [ [ [ 37.7458534, 16.3470974 ], [ 37.81744, 16.2796726 ], [ 37.8126984, 16.2196369 ], [ 37.7760696, 16.1957569 ], [ 37.7486839, 16.1272907 ], [ 37.8013306, 16.1311779 ], [ 37.868515, 16.1139393 ], [ 37.8881264, 16.0725555 ], [ 38.0650253, 16.0036106 ], [ 38.0464821, 15.970439 ], [ 38.0321922, 15.9371042 ], [ 38.0205269, 15.806035 ], [ 37.9927216, 15.7988482 ], [ 37.9722481, 15.8725071 ], [ 37.9128418, 15.8448267 ], [ 37.8816757, 15.8545456 ], [ 37.7625885, 15.8507462 ], [ 37.7485466, 15.8747597 ], [ 37.682209, 15.8892527 ], [ 37.6144829, 15.866581 ], [ 37.460289, 15.8858404 ], [ 37.414711, 15.9256725 ], [ 37.399765, 15.9842672 ], [ 37.3596611, 16.0141582 ], [ 37.2712936, 16.0390129 ], [ 37.2976189, 16.0978146 ], [ 37.2156029, 16.1461906 ], [ 37.1643944, 16.2002697 ], [ 37.0332832, 16.3061352 ], [ 37.1091537, 16.3280449 ], [ 37.2709274, 16.3251858 ], [ 37.323616, 16.4032974 ], [ 37.3616982, 16.4308014 ], [ 37.4288025, 16.3901024 ], [ 37.4950256, 16.3887005 ], [ 37.5198135, 16.3645401 ], [ 37.5403862, 16.2879829 ], [ 37.5693512, 16.2745953 ], [ 37.6607666, 16.3197441 ], [ 37.7458534, 16.3470974 ] ] ] ] } },
{ "type": "Feature", "properties": { "POLYGON_ID": "ERI_GAUL1991_ADM2_15845", "ADM0_ISO3": "ERI", "ADM0_NAME": "Eritrea", "ADM0_CODE": 77, "ADM1_NAME": "Anseba", "ADM1_CODE": 1205, "ADM2_NAME": "Sel'a", "ADM2_CODE": 15845, "GEOSET": "GAUL", "GEOSET_YEAR": 1991.0, "GEOSET_VERSION": "GAUL_v1", "GEOSET_UNIT": "ADM2", "CENTROID_LONG": 37.45330630359684, "CENTROID_LAT": 16.798772780893572 }, "geometry": { "type": "MultiPolygon", "coordinates": [ [ [ [ 37.8753161, 17.4524468 ], [ 37.8999367, 17.3823032 ], [ 37.910881, 17.2553597 ], [ 37.8666763, 17.1933327 ], [ 37.8518372, 17.1150112 ], [ 37.8810272, 17.0091438 ], [ 37.8729324, 16.9208431 ], [ 37.9223976, 16.878334 ], [ 37.9415741, 16.8259945 ], [ 37.9897919, 16.826252 ], [ 37.9827118, 16.7382717 ], [ 37.8338776, 16.7169132 ], [ 37.7869987, 16.6739006 ], [ 37.7550964, 16.6132679 ], [ 37.7743683, 16.513319 ], [ 37.8354301, 16.4471855 ], [ 37.7665215, 16.3828793 ], [ 37.7458534, 16.3470974 ], [ 37.6607666, 16.3197441 ], [ 37.5693512, 16.2745953 ], [ 37.5403862, 16.2879829 ], [ 37.5198135, 16.3645401 ], [ 37.4950256, 16.3887005 ], [ 37.4288025, 16.3901024 ], [ 37.3616982, 16.4308014 ], [ 37.323616, 16.4032974 ], [ 37.2709274, 16.3251858 ], [ 37.1091537, 16.3280449 ], [ 37.0332832, 16.3061352 ], [ 36.959058, 16.2913205 ], [ 36.93365, 16.3541 ], [ 36.9625703, 16.4354995 ], [ 36.89964, 16.49641 ], [ 36.88745, 16.54543 ], [ 36.90379, 16.61065 ], [ 36.9011001, 16.6757973 ], [ 36.9557613, 16.6865199 ], [ 36.9826825, 16.7497393 ], [ 37.0292711, 16.8010994 ], [ 37.0019623, 16.8302011 ], [ 37.0041393, 16.9414307 ], [ 36.9835221, 16.969113 ], [ 37.0182264, 17.0293413 ], [ 37.0044978, 17.0723548 ], [ 37.0046343, 17.07259 ], [ 37.0212527, 17.0960482 ], [ 37.11116, 17.08196 ], [ 37.12882, 17.05717 ], [ 37.1973605, 17.063363 ], [ 37.31103, 17.09437 ], [ 37.3946504, 17.0471308 ], [ 37.43705, 17.10242 ], [ 37.51738, 17.2588 ], [ 37.4924434, 17.3068874 ], [ 37.51531, 17.33686 ], [ 37.6123209, 17.3741501 ], [ 37.76554, 17.3839813 ], [ 37.7748426, 17.4804694 ], [ 37.8370362, 17.5000501 ], [ 37.8753161, 17.4524468 ] ] ] ] } },
{ "type": "Feature", "properties": { "POLYGON_ID": "ERI_GAUL1991_ADM2_15846", "ADM0_ISO3": "ERI", "ADM0_NAME": "Eritrea", "ADM0_CODE": 77, "ADM1_NAME": "Archipelagos", "ADM1_CODE": 1206, "ADM2_NAME": "Dahlak", "ADM2_CODE": 15846, "GEOSET": "GAUL", "GEOSET_YEAR": 1991.0, "GEOSET_VERSION": "GAUL_v1", "GEOSET_UNIT": "ADM2", "CENTROID_LONG": 40.138510621267841, "CENTROID_LAT": 15.721436770594755 }, "geometry": { "type": "MultiPolygon", "coordinates": [ [ [ [ 39.9613252, 15.8846585 ], [ 40.0187957, 15.8793719 ], [ 40.09469, 15.8362367 ], [ 40.09782, 15.7751657 ], [ 40.1349548, 15.7297552 ], [ 40.1594458, 15.6393323 ], [ 40.230282, 15.6147309 ], [ 40.251715, 15.6423032 ], [ 40.2400667, 15.6945344 ], [ 40.3288259, 15.6856414 ], [ 40.3488011, 15.6500988 ], [ 40.4132756, 15.6315328 ], [ 40.4203865, 15.5639974 ], [ 40.3639884, 15.5747863 ], [ 40.3118183, 15.5619657 ], [ 40.222977, 15.5931325 ], [ 40.1663135, 15.5844238 ], [ 40.1217554, 15.6017876 ], [ 40.0557112, 15.5778982 ], [ 39.9602626, 15.6285731 ], [ 39.9559856, 15.6807613 ], [ 40.0426642, 15.6258785 ], [ 40.0771801, 15.6682192 ], [ 40.0253573, 15.727077 ], [ 39.9234972, 15.7593495 ], [ 40.040455, 15.8451249 ], [ 39.9613252, 15.8846585 ] ] ], [ [ [ 40.1985826, 15.7399769 ], [ 40.2097672, 15.6747399 ], [ 40.1615607, 15.6842752 ], [ 40.1985826, 15.7399769 ] ] ], [ [ [ 40.0509199, 16.1166007 ], [ 40.1179811, 16.0758159 ], [ 40.0751618, 16.0157541 ], [ 39.9931942, 16.0031388 ], [ 39.9914399, 16.0524812 ], [ 40.0469707, 16.0493833 ], [ 40.0509199, 16.1166007 ] ] ] ] } },
{ "type": "Feature", "properties": { "POLYGON_ID": "ERI_GAUL1991_ADM2_15847", "ADM0_ISO3": "ERI", "ADM0_NAME": "Eritrea", "ADM0_CODE": 77, "ADM1_NAME": "Debub", "ADM1_CODE": 1207, "ADM2_NAME": "Adi Keih", "ADM2_CODE": 15847, "GEOSET": "GAUL", "GEOSET_YEAR": 1991.0, "GEOSET_VERSION": "GAUL_v1", "GEOSET_UNIT": "ADM2", "CENTROID_LONG": 39.3905205724041, "CENTROID_LAT": 14.89956191407931 }, "geometry": { "type": "MultiPolygon", "coordinates": [ [ [ [ 39.5280952, 14.9275332 ], [ 39.4847298, 14.7913008 ], [ 39.4859085, 14.7578011 ], [ 39.4257469, 14.7370977 ], [ 39.3715553, 14.7478886 ], [ 39.3263855, 14.7917652 ], [ 39.2521553, 14.8015804 ], [ 39.2831116, 14.8244352 ], [ 39.2694206, 14.8850975 ], [ 39.2878151, 15.0124168 ], [ 39.3211937, 15.1034565 ], [ 39.3517799, 15.0521374 ], [ 39.5258904, 14.9715071 ], [ 39.5280952, 14.9275332 ] ] ] ] } },
{ "type": "Feature", "properties": { "POLYGON_ID": "ERI_GAUL1991_ADM2_15848", "ADM0_ISO3": "ERI", "ADM0_NAME": "Eritrea", "ADM0_CODE": 77, "ADM1_NAME": "Debub", "ADM1_CODE": 1207, "ADM2_NAME": "Adi Kuala", "ADM2_CODE": 15848, "GEOSET": "GAUL", "GEOSET_YEAR": 1991.0, "GEOSET_VERSION": "GAUL_v1", "GEOSET_UNIT": "ADM2", "CENTROID_LONG": 38.850014818984071, "CENTROID_LAT": 14.598498903385655 }, "geometry": { "type": "MultiPolygon", "coordinates": [ [ [ [ 39.0206302, 14.6283181 ], [ 39.0194308, 14.6272664 ], [ 39.0145726, 14.6239946 ], [ 39.0133531, 14.6231733 ], [ 39.0130874, 14.6181056 ], [ 39.0170742, 14.5966123 ], [ 39.0052154, 14.5910915 ], [ 39.0035013, 14.5880717 ], [ 39.0045542, 14.5859337 ], [ 38.9969034, 14.569322 ], [ 38.9931244, 14.5643629 ], [ 38.9902994, 14.5636159 ], [ 38.9879149, 14.5611389 ], [ 38.9855164, 14.5570809 ], [ 38.9781942, 14.5457989 ], [ 38.9750505, 14.5440469 ], [ 38.9558545, 14.5400882 ], [ 38.9531387, 14.5358653 ], [ 38.9526296, 14.5350737 ], [ 38.9514295, 14.5358468 ], [ 38.9360394, 14.5402825 ], [ 38.9295251, 14.5380985 ], [ 38.900173, 14.5052821 ], [ 38.8167372, 14.484167 ], [ 38.8196344, 14.4800077 ], [ 38.8168047, 14.477135 ], [ 38.8128877, 14.4765797 ], [ 38.7047677, 14.4710612 ], [ 38.7005541, 14.4660229 ], [ 38.6916748, 14.4651057 ], [ 38.6839108, 14.4592592 ], [ 38.6932755, 14.5703793 ], [ 38.8129311, 14.6970444 ], [ 38.8166962, 14.7248173 ], [ 38.9103775, 14.7684984 ], [ 38.9226074, 14.7097397 ], [ 39.0213242, 14.644968 ], [ 39.0206302, 14.6283181 ] ] ] ] } },
{ "type": "Feature", "properties": { "POLYGON_ID": "ERI_GAUL1991_ADM2_15849", "ADM0_ISO3": "ERI", "ADM0_NAME": "Eritrea", "ADM0_CODE": 77, "ADM1_NAME": "Debub", "ADM1_CODE": 1207, "ADM2_NAME": "Areza", "ADM2_CODE": 15849, "GEOSET": "GAUL", "GEOSET_YEAR": 1991.0, "GEOSET_VERSION": "GAUL_v1", "GEOSET_UNIT": "ADM2", "CENTROID_LONG": 38.503919499335304, "CENTROID_LAT": 14.871312975759951 }, "geometry": { "type": "MultiPolygon", "coordinates": [ [ [ [ 38.6831017, 14.9900913 ], [ 38.6677208, 14.9342709 ], [ 38.6789055, 14.8603497 ], [ 38.6856689, 14.8271847 ], [ 38.6100426, 14.796257 ], [ 38.6243286, 14.7225552 ], [ 38.6054153, 14.6969032 ], [ 38.4165535, 14.6663132 ], [ 38.3593369, 14.671402 ], [ 38.4158974, 14.8036776 ], [ 38.2577629, 14.8529215 ], [ 38.2357063, 14.8783665 ], [ 38.268837, 14.9195118 ], [ 38.3107719, 14.9010487 ], [ 38.4127808, 14.9689751 ], [ 38.4625778, 14.9830351 ], [ 38.4752312, 15.0228596 ], [ 38.4624977, 15.0813503 ], [ 38.556778, 15.088151 ], [ 38.6172333, 15.0520658 ], [ 38.6831017, 14.9900913 ] ] ] ] } },
{ "type": "Feature", "properties": { "POLYGON_ID": "ERI_GAUL1991_ADM2_15850", "ADM0_ISO3": "ERI", "ADM0_NAME": "Eritrea", "ADM0_CODE": 77, "ADM1_NAME": "Debub", "ADM1_CODE": 1207, "ADM2_NAME": "Dbarwa", "ADM2_CODE": 15850, "GEOSET": "GAUL", "GEOSET_YEAR": 1991.0, "GEOSET_VERSION": "GAUL_v1", "GEOSET_UNIT": "ADM2", "CENTROID_LONG": 38.716430504238794, "CENTROID_LAT": 15.106934298046696 }, "geometry": { "type": "MultiPolygon", "coordinates": [ [ [ [ 38.9118271, 15.1795111 ], [ 38.9216309, 15.1003237 ], [ 38.9117088, 14.9703951 ], [ 38.8518219, 14.9978762 ], [ 38.6831017, 14.9900913 ], [ 38.6172333, 15.0520658 ], [ 38.556778, 15.088151 ], [ 38.4624977, 15.0813503 ], [ 38.4270058, 15.087965 ], [ 38.3777008, 15.1738729 ], [ 38.506794, 15.1565094 ], [ 38.6359596, 15.1723347 ], [ 38.7119598, 15.2103443 ], [ 38.7335014, 15.2343788 ], [ 38.80933, 15.2263012 ], [ 38.9118271, 15.1795111 ] ] ] ] } },
{ "type": "Feature", "properties": { "POLYGON_ID": "ERI_GAUL1991_ADM2_15851", "ADM0_ISO3": "ERI", "ADM0_NAME": "Eritrea", "ADM0_CODE": 77, "ADM1_NAME": "Debub", "ADM1_CODE": 1207, "ADM2_NAME": "Dekemhare", "ADM2_CODE": 15851, "GEOSET": "GAUL", "GEOSET_YEAR": 1991.0, "GEOSET_VERSION": "GAUL_v1", "GEOSET_UNIT": "ADM2", "CENTROID_LONG": 39.029818261407918, "CENTROID_LAT": 15.08704162882896 }, "geometry": { "type": "MultiPolygon", "coordinates": [ [ [ [ 39.1776047, 15.244812 ], [ 39.1209946, 15.1235724 ], [ 39.1026344, 14.9903698 ], [ 39.0804672, 14.9240446 ], [ 38.9999886, 14.9322758 ], [ 38.9813576, 14.9180326 ], [ 38.963459, 14.9507637 ], [ 38.9117088, 14.9703951 ], [ 38.9216309, 15.1003237 ], [ 38.9118271, 15.1795111 ], [ 38.9543457, 15.1680632 ], [ 39.024807, 15.2255945 ], [ 39.0774345, 15.2143364 ], [ 39.0807648, 15.2566776 ], [ 39.1776047, 15.244812 ] ] ] ] } },
{ "type": "Feature", "properties": { "POLYGON_ID": "ERI_GAUL1991_ADM2_15852", "ADM0_ISO3": "ERI", "ADM0_NAME": "Eritrea", "ADM0_CODE": 77, "ADM1_NAME": "Debub", "ADM1_CODE": 1207, "ADM2_NAME": "Emni Haili", "ADM2_CODE": 15852, "GEOSET": "GAUL", "GEOSET_YEAR": 1991.0, "GEOSET_VERSION": "GAUL_v1", "GEOSET_UNIT": "ADM2", "CENTROID_LONG": 38.71377549269701, "CENTROID_LAT": 14.729944751984476 }, "geometry": { "type": "MultiPolygon", "coordinates": [ [ [ [ 38.8166962, 14.7248173 ], [ 38.8129311, 14.6970444 ], [ 38.6932755, 14.5703793 ], [ 38.6812325, 14.656332 ], [ 38.6054153, 14.6969032 ], [ 38.6243286, 14.7225552 ], [ 38.6100426, 14.796257 ], [ 38.6856689, 14.8271847 ], [ 38.6789055, 14.8603497 ], [ 38.8005295, 14.7974062 ], [ 38.8166962, 14.7248173 ] ] ] ] } },
{ "type": "Feature", "properties": { "POLYGON_ID": "ERI_GAUL1991_ADM2_15853", "ADM0_ISO3": "ERI", "ADM0_NAME": "Eritrea", "ADM0_CODE": 77, "ADM1_NAME": "Debub", "ADM1_CODE": 1207, "ADM2_NAME": "Mai Aini", "ADM2_CODE": 15853, "GEOSET": "GAUL", "GEOSET_YEAR": 1991.0, "GEOSET_VERSION": "GAUL_v1", "GEOSET_UNIT": "ADM2", "CENTROID_LONG": 39.071586425726331, "CENTROID_LAT": 14.807977683873544 }, "geometry": { "type": "MultiPolygon", "coordinates": [ [ [ [ 39.0804672, 14.9240446 ], [ 39.1576805, 14.9221697 ], [ 39.231472, 14.8773394 ], [ 39.2694206, 14.8850975 ], [ 39.2831116, 14.8244352 ], [ 39.2521553, 14.8015804 ], [ 39.1706352, 14.7534008 ], [ 39.0662918, 14.7170668 ], [ 39.0733261, 14.6622057 ], [ 39.0415092, 14.6353456 ], [ 39.0324175, 14.6389763 ], [ 39.0260862, 14.6331367 ], [ 39.0206302, 14.6283181 ], [ 39.0213242, 14.644968 ], [ 38.9226074, 14.7097397 ], [ 38.9103775, 14.7684984 ], [ 38.9497833, 14.8580589 ], [ 38.9354286, 14.9034834 ], [ 38.9813576, 14.9180326 ], [ 38.9999886, 14.9322758 ], [ 39.0804672, 14.9240446 ] ] ] ] } },
{ "type": "Feature", "properties": { "POLYGON_ID": "ERI_GAUL1991_ADM2_15854", "ADM0_ISO3": "ERI", "ADM0_NAME": "Eritrea", "ADM0_CODE": 77, "ADM1_NAME": "Debub", "ADM1_CODE": 1207, "ADM2_NAME": "Mai Mne", "ADM2_CODE": 15854, "GEOSET": "GAUL", "GEOSET_YEAR": 1991.0, "GEOSET_VERSION": "GAUL_v1", "GEOSET_UNIT": "ADM2", "CENTROID_LONG": 38.508993502723264, "CENTROID_LAT": 14.563646877856069 }, "geometry": { "type": "MultiPolygon", "coordinates": [ [ [ [ 38.6054153, 14.6969032 ], [ 38.6812325, 14.656332 ], [ 38.6932755, 14.5703793 ], [ 38.6839108, 14.4592592 ], [ 38.6680505, 14.4529175 ], [ 38.6663724, 14.4491058 ], [ 38.6642997, 14.4491783 ], [ 38.5699358, 14.4330502 ], [ 38.5698211, 14.4306903 ], [ 38.5635708, 14.4309232 ], [ 38.5563587, 14.4293351 ], [ 38.5549019, 14.4264121 ], [ 38.5522959, 14.4258475 ], [ 38.5225009, 14.4129913 ], [ 38.5222295, 14.4120125 ], [ 38.5210676, 14.4078228 ], [ 38.5175496, 14.4091475 ], [ 38.479152, 14.4210666 ], [ 38.4766085, 14.4165621 ], [ 38.4762232, 14.4158796 ], [ 38.4539204, 14.4138166 ], [ 38.4315372, 14.4372959 ], [ 38.3985514, 14.4878667 ], [ 38.3641011, 14.4927559 ], [ 38.2642643, 14.6719357 ], [ 38.3593369, 14.671402 ], [ 38.4165535, 14.6663132 ], [ 38.6054153, 14.6969032 ] ] ] ] } },
{ "type": "Feature", "properties": { "POLYGON_ID": "ERI_GAUL1991_ADM2_15855", "ADM0_ISO3": "ERI", "ADM0_NAME": "Eritrea", "ADM0_CODE": 77, "ADM1_NAME": "Debub", "ADM1_CODE": 1207, "ADM2_NAME": "Mendefera", "ADM2_CODE": 15855, "GEOSET": "GAUL", "GEOSET_YEAR": 1991.0, "GEOSET_VERSION": "GAUL_v1", "GEOSET_UNIT": "ADM2", "CENTROID_LONG": 38.820306312362199, "CENTROID_LAT": 14.887658179943587 }, "geometry": { "type": "MultiPolygon", "coordinates": [ [ [ [ 38.9117088, 14.9703951 ], [ 38.963459, 14.9507637 ], [ 38.9813576, 14.9180326 ], [ 38.9354286, 14.9034834 ], [ 38.9497833, 14.8580589 ], [ 38.9103775, 14.7684984 ], [ 38.8166962, 14.7248173 ], [ 38.8005295, 14.7974062 ], [ 38.6789055, 14.8603497 ], [ 38.6677208, 14.9342709 ], [ 38.6831017, 14.9900913 ], [ 38.8518219, 14.9978762 ], [ 38.9117088, 14.9703951 ] ] ] ] } },
{ "type": "Feature", "properties": { "POLYGON_ID": "ERI_GAUL1991_ADM2_15856", "ADM0_ISO3": "ERI", "ADM0_NAME": "Eritrea", "ADM0_CODE": 77, "ADM1_NAME": "Debub", "ADM1_CODE": 1207, "ADM2_NAME": "Segeneiti", "ADM2_CODE": 15856, "GEOSET": "GAUL", "GEOSET_YEAR": 1991.0, "GEOSET_VERSION": "GAUL_v1", "GEOSET_UNIT": "ADM2", "CENTROID_LONG": 39.199056614679058, "CENTROID_LAT": 15.039918654716868 }, "geometry": { "type": "MultiPolygon", "coordinates": [ [ [ [ 39.1834679, 15.2413902 ], [ 39.2618217, 15.1231871 ], [ 39.3211937, 15.1034565 ], [ 39.2878151, 15.0124168 ], [ 39.2694206, 14.8850975 ], [ 39.231472, 14.8773394 ], [ 39.1576805, 14.9221697 ], [ 39.0804672, 14.9240446 ], [ 39.1026344, 14.9903698 ], [ 39.1209946, 15.1235724 ], [ 39.1776047, 15.244812 ], [ 39.1834679, 15.2413902 ] ] ] ] } },
{ "type": "Feature", "properties": { "POLYGON_ID": "ERI_GAUL1991_ADM2_15857", "ADM0_ISO3": "ERI", "ADM0_NAME": "Eritrea", "ADM0_CODE": 77, "ADM1_NAME": "Debub", "ADM1_CODE": 1207, "ADM2_NAME": "Senafe", "ADM2_CODE": 15857, "GEOSET": "GAUL", "GEOSET_YEAR": 1991.0, "GEOSET_VERSION": "GAUL_v1", "GEOSET_UNIT": "ADM2", "CENTROID_LONG": 39.49282335701124, "CENTROID_LAT": 14.684311340076599 }, "geometry": { "type": "MultiPolygon", "coordinates": [ [ [ [ 39.653553, 14.8345194 ], [ 39.6482925, 14.7656841 ], [ 39.6074371, 14.6833754 ], [ 39.6447571, 14.6027023 ], [ 39.6345866, 14.6011912 ], [ 39.6305553, 14.5994138 ], [ 39.5810883, 14.604965 ], [ 39.5084527, 14.5499322 ], [ 39.5084757, 14.4864699 ], [ 39.506657, 14.4851687 ], [ 39.495861, 14.484056 ], [ 39.493639, 14.502333 ], [ 39.489444, 14.505194 ], [ 39.472861, 14.500167 ], [ 39.466667, 14.507556 ], [ 39.447583, 14.505306 ], [ 39.406139, 14.525917 ], [ 39.403361, 14.537028 ], [ 39.373111, 14.5395 ], [ 39.370583, 14.537222 ], [ 39.368639, 14.526583 ], [ 39.360944, 14.533194 ], [ 39.3627109, 14.4999969 ], [ 39.3201408, 14.5367537 ], [ 39.3346519, 14.5794468 ], [ 39.3170433, 14.6598625 ], [ 39.3715553, 14.7478886 ], [ 39.4257469, 14.7370977 ], [ 39.4859085, 14.7578011 ], [ 39.4847298, 14.7913008 ], [ 39.5280952, 14.9275332 ], [ 39.5836716, 14.8767509 ], [ 39.653553, 14.8345194 ] ] ] ] } },
{ "type": "Feature", "properties": { "POLYGON_ID": "ERI_GAUL1991_ADM2_15858", "ADM0_ISO3": "ERI", "ADM0_NAME": "Eritrea", "ADM0_CODE": 77, "ADM1_NAME": "Debub", "ADM1_CODE": 1207, "ADM2_NAME": "Tsorona", "ADM2_CODE": 15858, "GEOSET": "GAUL", "GEOSET_YEAR": 1991.0, "GEOSET_VERSION": "GAUL_v1", "GEOSET_UNIT": "ADM2", "CENTROID_LONG": 39.240408280270422, "CENTROID_LAT": 14.649892248048143 }, "geometry": { "type": "MultiPolygon", "coordinates": [ [ [ [ 39.3715553, 14.7478886 ], [ 39.3170433, 14.6598625 ], [ 39.3346519, 14.5794468 ], [ 39.3201408, 14.5367537 ], [ 39.3627109, 14.4999969 ], [ 39.366389, 14.495194 ], [ 39.324972, 14.47075 ], [ 39.301333, 14.469917 ], [ 39.2506584, 14.4104601 ], [ 39.244567, 14.4141205 ], [ 39.228444, 14.4463864 ], [ 39.2637802, 14.4819912 ], [ 39.2410074, 14.5632348 ], [ 39.23975, 14.563417 ], [ 39.205278, 14.565333 ], [ 39.158861, 14.613667 ], [ 39.157, 14.626806 ], [ 39.1535471, 14.6534553 ], [ 39.0812884, 14.6403786 ], [ 39.0805442, 14.6368348 ], [ 39.0698773, 14.6374018 ], [ 39.0491033, 14.6384466 ], [ 39.0494564, 14.6368112 ], [ 39.0432808, 14.6349565 ], [ 39.0415092, 14.6353456 ], [ 39.0733261, 14.6622057 ], [ 39.0662918, 14.7170668 ], [ 39.1706352, 14.7534008 ], [ 39.2521553, 14.8015804 ], [ 39.3263855, 14.7917652 ], [ 39.3715553, 14.7478886 ] ] ] ] } },
{ "type": "Feature", "properties": { "POLYGON_ID": "ERI_GAUL1991_ADM2_15859", "ADM0_ISO3": "ERI", "ADM0_NAME": "Eritrea", "ADM0_CODE": 77, "ADM1_NAME": "Debubawi Keih Bahri", "ADM1_CODE": 1208, "ADM2_NAME": "Ara'eta", "ADM2_CODE": 15859, "GEOSET": "GAUL", "GEOSET_YEAR": 1991.0, "GEOSET_VERSION": "GAUL_v1", "GEOSET_UNIT": "ADM2", "CENTROID_LONG": 40.955306738457558, "CENTROID_LAT": 14.375685858048891 }, "geometry": { "type": "MultiPolygon", "coordinates": [ [ [ [ 41.5336332, 14.1632725 ], [ 41.4377975, 14.1411858 ], [ 41.3355865, 14.0669041 ], [ 41.3130112, 14.0327368 ], [ 41.3046188, 13.9550753 ], [ 41.2719345, 13.9036446 ], [ 41.1283884, 13.8048193 ], [ 41.115778, 13.827861 ], [ 41.070306, 13.891333 ], [ 40.994611, 14.015444 ], [ 40.942167, 14.081639 ], [ 40.808722, 14.172417 ], [ 40.6613275, 14.2348281 ], [ 40.573111, 14.269 ], [ 40.4746066, 14.3002036 ], [ 40.4949722, 14.3878641 ], [ 40.4827766, 14.4423752 ], [ 40.4940529, 14.6292076 ], [ 40.5491867, 14.6658182 ], [ 40.5707016, 14.7111301 ], [ 40.5308189, 14.8663511 ], [ 40.5201762, 14.94697 ], [ 40.5200817, 14.9484633 ], [ 40.5200715, 14.9486247 ], [ 40.5200533, 14.9489133 ], [ 40.5184983, 14.9512854 ], [ 40.5206915, 14.9731885 ], [ 40.634189, 14.9497361 ], [ 40.6308097, 14.888068 ], [ 40.6838145, 14.892193 ], [ 40.7376567, 14.8353822 ], [ 40.7274616, 14.7684891 ], [ 40.7943886, 14.7146617 ], [ 40.9024526, 14.7256471 ], [ 40.9984784, 14.663671 ], [ 41.0342557, 14.6705716 ], [ 41.1893393, 14.6237103 ], [ 41.2220387, 14.5615974 ], [ 41.3112352, 14.4948125 ], [ 41.3389114, 14.4118816 ], [ 41.3991021, 14.3582349 ], [ 41.4211893, 14.299818 ], [ 41.4866132, 14.2463601 ], [ 41.5336332, 14.1632725 ] ] ] ] } },
{ "type": "Feature", "properties": { "POLYGON_ID": "ERI_GAUL1991_ADM2_15860", "ADM0_ISO3": "ERI", "ADM0_NAME": "Eritrea", "ADM0_CODE": 77, "ADM1_NAME": "Debubawi Keih Bahri", "ADM1_CODE": 1208, "ADM2_NAME": "Assab", "ADM2_CODE": 15860, "GEOSET": "GAUL", "GEOSET_YEAR": 1991.0, "GEOSET_VERSION": "GAUL_v1", "GEOSET_UNIT": "ADM2", "CENTROID_LONG": 42.671875918197593, "CENTROID_LAT": 12.968582827029737 }, "geometry": { "type": "MultiPolygon", "coordinates": [ [ [ [ 42.7582776, 12.8780769 ], [ 42.6580505, 12.8530741 ], [ 42.6206932, 12.8866491 ], [ 42.5823784, 13.0257225 ], [ 42.6030464, 13.0833769 ], [ 42.6490737, 13.094397 ], [ 42.6730163, 13.0541355 ], [ 42.7114514, 13.0528742 ], [ 42.7490445, 13.0194753 ], [ 42.738614, 12.9752673 ], [ 42.7697558, 12.9135979 ], [ 42.7582776, 12.8780769 ] ] ] ] } },
{ "type": "Feature", "properties": { "POLYGON_ID": "ERI_GAUL1991_ADM2_15862", "ADM0_ISO3": "ERI", "ADM0_NAME": "Eritrea", "ADM0_CODE": 77, "ADM1_NAME": "Debubawi Keih Bahri", "ADM1_CODE": 1208, "ADM2_NAME": "Southern Srs", "ADM2_CODE": 15862, "GEOSET": "GAUL", "GEOSET_YEAR": 1991.0, "GEOSET_VERSION": "GAUL_v1", "GEOSET_UNIT": "ADM2", "CENTROID_LONG": 42.295273069954646, "CENTROID_LAT": 13.0542425352349 }, "geometry": { "type": "MultiPolygon", "coordinates": [ [ [ [ 42.6490737, 13.094397 ], [ 42.6030464, 13.0833769 ], [ 42.5823784, 13.0257225 ], [ 42.6206932, 12.8866491 ], [ 42.6580505, 12.8530741 ], [ 42.7582776, 12.8780769 ], [ 42.7844239, 12.8428977 ], [ 42.8283605, 12.8614218 ], [ 42.9229737, 12.783888 ], [ 42.9951778, 12.8293946 ], [ 43.01017, 12.8756151 ], [ 43.0802765, 12.8228174 ], [ 43.0980945, 12.7394868 ], [ 43.1260508, 12.7100586 ], [ 42.9622542, 12.6425109 ], [ 42.8876423, 12.6209463 ], [ 42.8619978, 12.5569323 ], [ 42.8286921, 12.5438075 ], [ 42.7972876, 12.4776714 ], [ 42.8258771, 12.4345312 ], [ 42.7091349, 12.3753148 ], [ 42.6763253, 12.37422 ], [ 42.541895, 12.492917 ], [ 42.4617611, 12.5240975 ], [ 42.4042778, 12.4686389 ], [ 42.278722, 12.635306 ], [ 42.2183283, 12.7650007 ], [ 42.131944, 12.7775 ], [ 42.056389, 12.801222 ], [ 42.027056, 12.867444 ], [ 41.966333, 12.924556 ], [ 41.891083, 13.073417 ], [ 41.877004, 13.0897516 ], [ 41.8282601, 13.1463048 ], [ 41.735583, 13.236639 ], [ 41.720972, 13.275472 ], [ 41.6682682, 13.3229713 ], [ 41.7156296, 13.4152918 ], [ 41.7190971, 13.5536919 ], [ 41.8070335, 13.6419163 ], [ 41.9572258, 13.7773571 ], [ 42.0062486, 13.805503 ], [ 42.0639714, 13.728261 ], [ 42.114615, 13.6345167 ], [ 42.145494, 13.6494182 ], [ 42.1984554, 13.5779418 ], [ 42.2348712, 13.6259742 ], [ 42.2913958, 13.5624924 ], [ 42.3077583, 13.4764231 ], [ 42.354127, 13.4102334 ], [ 42.3803383, 13.2230699 ], [ 42.3967221, 13.2022527 ], [ 42.4980815, 13.1842096 ], [ 42.5649508, 13.1852406 ], [ 42.6490737, 13.094397 ] ] ] ] } },
{ "type": "Feature", "properties": { "POLYGON_ID": "ERI_GAUL1991_ADM2_15863", "ADM0_ISO3": "ERI", "ADM0_NAME": "Eritrea", "ADM0_CODE": 77, "ADM1_NAME": "Gash Barka", "ADM1_CODE": 1209, "ADM2_NAME": "Akurdet", "ADM2_CODE": 15863, "GEOSET": "GAUL", "GEOSET_YEAR": 1991.0, "GEOSET_VERSION": "GAUL_v1", "GEOSET_UNIT": "ADM2", "CENTROID_LONG": 37.920962064564954, "CENTROID_LAT": 15.556260847333979 }, "geometry": { "type": "MultiPolygon", "coordinates": [ [ [ [ 37.9620438, 15.6197672 ], [ 38.0592117, 15.5609894 ], [ 38.0197105, 15.5066175 ], [ 37.9280472, 15.4766541 ], [ 37.8444786, 15.4773035 ], [ 37.8077621, 15.5890465 ], [ 37.8578949, 15.6372404 ], [ 37.9285812, 15.6432037 ], [ 37.9620438, 15.6197672 ] ] ] ] } },
{ "type": "Feature", "properties": { "POLYGON_ID": "ERI_GAUL1991_ADM2_15864", "ADM0_ISO3": "ERI", "ADM0_NAME": "Eritrea", "ADM0_CODE": 77, "ADM1_NAME": "Gash Barka", "ADM1_CODE": 1209, "ADM2_NAME": "Barentu", "ADM2_CODE": 15864, "GEOSET": "GAUL", "GEOSET_YEAR": 1991.0, "GEOSET_VERSION": "GAUL_v1", "GEOSET_UNIT": "ADM2", "CENTROID_LONG": 37.657301258640274, "CENTROID_LAT": 15.099846963018043 }, "geometry": { "type": "MultiPolygon", "coordinates": [ [ [ [ 37.7471771, 15.1473131 ], [ 37.7917709, 15.120038 ], [ 37.7572823, 15.0685091 ], [ 37.6672707, 15.0020781 ], [ 37.5950508, 15.0612812 ], [ 37.5207214, 15.0985909 ], [ 37.5696945, 15.1760139 ], [ 37.6413116, 15.1556187 ], [ 37.708477, 15.1619778 ], [ 37.7471771, 15.1473131 ] ] ] ] } },
{ "type": "Feature", "properties": { "POLYGON_ID": "ERI_GAUL1991_ADM2_15865", "ADM0_ISO3": "ERI", "ADM0_NAME": "Eritrea", "ADM0_CODE": 77, "ADM1_NAME": "Gash Barka", "ADM1_CODE": 1209, "ADM2_NAME": "Dge", "ADM2_CODE": 15865, "GEOSET": "GAUL", "GEOSET_YEAR": 1991.0, "GEOSET_VERSION": "GAUL_v1", "GEOSET_UNIT": "ADM2", "CENTROID_LONG": 37.531541121100588, "CENTROID_LAT": 15.693662173568798 }, "geometry": { "type": "MultiPolygon", "coordinates": [ [ [ [ 37.9927216, 15.7988482 ], [ 37.9706001, 15.7322311 ], [ 37.9620438, 15.6197672 ], [ 37.9285812, 15.6432037 ], [ 37.8578949, 15.6372404 ], [ 37.8077621, 15.5890465 ], [ 37.8444786, 15.4773035 ], [ 37.7429428, 15.4278727 ], [ 37.69207, 15.4697428 ], [ 37.5399666, 15.4920702 ], [ 37.4647064, 15.4778385 ], [ 37.3340378, 15.4752884 ], [ 37.2607803, 15.5107031 ], [ 37.204258, 15.513607 ], [ 37.1244049, 15.5333328 ], [ 37.1160355, 15.6351147 ], [ 37.1722412, 15.7607365 ], [ 37.2067146, 15.864193 ], [ 37.3226471, 15.963129 ], [ 37.3596611, 16.0141582 ], [ 37.399765, 15.9842672 ], [ 37.414711, 15.9256725 ], [ 37.460289, 15.8858404 ], [ 37.6144829, 15.866581 ], [ 37.682209, 15.8892527 ], [ 37.7485466, 15.8747597 ], [ 37.7625885, 15.8507462 ], [ 37.8816757, 15.8545456 ], [ 37.9128418, 15.8448267 ], [ 37.9722481, 15.8725071 ], [ 37.9927216, 15.7988482 ] ] ] ] } },
{ "type": "Feature", "properties": { "POLYGON_ID": "ERI_GAUL1991_ADM2_15866", "ADM0_ISO3": "ERI", "ADM0_NAME": "Eritrea", "ADM0_CODE": 77, "ADM1_NAME": "Gash Barka", "ADM1_CODE": 1209, "ADM2_NAME": "Forto", "ADM2_CODE": 15866, "GEOSET": "GAUL", "GEOSET_YEAR": 1991.0, "GEOSET_VERSION": "GAUL_v1", "GEOSET_UNIT": "ADM2", "CENTROID_LONG": 36.966720010032425, "CENTROID_LAT": 15.802866350363001 }, "geometry": { "type": "MultiPolygon", "coordinates": [ [ [ [ 37.0332832, 16.3061352 ], [ 37.1643944, 16.2002697 ], [ 37.2156029, 16.1461906 ], [ 37.2976189, 16.0978146 ], [ 37.2712936, 16.0390129 ], [ 37.3596611, 16.0141582 ], [ 37.3226471, 15.963129 ], [ 37.2067146, 15.864193 ], [ 37.1722412, 15.7607365 ], [ 37.1160355, 15.6351147 ], [ 37.1244049, 15.5333328 ], [ 37.204258, 15.513607 ], [ 37.1853943, 15.4707785 ], [ 37.0979385, 15.4353647 ], [ 37.0073853, 15.4346113 ], [ 36.7556229, 15.4011707 ], [ 36.7081871, 15.3727655 ], [ 36.6318893, 15.3234711 ], [ 36.5791473, 15.3254623 ], [ 36.6302575, 15.4680404 ], [ 36.63879, 15.52195 ], [ 36.69969, 15.71301 ], [ 36.7601379, 15.8203295 ], [ 36.81642, 15.95854 ], [ 36.89927, 16.2264 ], [ 36.959058, 16.2913205 ], [ 37.0332832, 16.3061352 ] ] ] ] } },
{ "type": "Feature", "properties": { "POLYGON_ID": "ERI_GAUL1991_ADM2_15867", "ADM0_ISO3": "ERI", "ADM0_NAME": "Eritrea", "ADM0_CODE": 77, "ADM1_NAME": "Gash Barka", "ADM1_CODE": 1209, "ADM2_NAME": "Gonei", "ADM2_CODE": 15867, "GEOSET": "GAUL", "GEOSET_YEAR": 1991.0, "GEOSET_VERSION": "GAUL_v1", "GEOSET_UNIT": "ADM2", "CENTROID_LONG": 37.392999919333938, "CENTROID_LAT": 15.139078288821608 }, "geometry": { "type": "MultiPolygon", "coordinates": [ [ [ [ 37.5399666, 15.4920702 ], [ 37.5102234, 15.3964233 ], [ 37.4612808, 15.3333635 ], [ 37.4361153, 15.2494373 ], [ 37.5090256, 15.1937065 ], [ 37.5696945, 15.1760139 ], [ 37.5207214, 15.0985909 ], [ 37.5950508, 15.0612812 ], [ 37.6672707, 15.0020781 ], [ 37.6889076, 14.9670324 ], [ 37.6415329, 14.9447842 ], [ 37.5836143, 14.8350763 ], [ 37.5, 14.775506 ], [ 37.4478149, 14.7774649 ], [ 37.4080772, 14.8363028 ], [ 37.3089066, 14.8451195 ], [ 37.2956314, 14.8628922 ], [ 37.2891464, 14.9802637 ], [ 37.2514343, 14.9803238 ], [ 37.1684532, 15.0654202 ], [ 37.2145958, 15.1180925 ], [ 37.2030525, 15.2454853 ], [ 37.2064362, 15.3516331 ], [ 37.1851654, 15.3796473 ], [ 37.2067032, 15.4209948 ], [ 37.1853943, 15.4707785 ], [ 37.204258, 15.513607 ], [ 37.2607803, 15.5107031 ], [ 37.3340378, 15.4752884 ], [ 37.4647064, 15.4778385 ], [ 37.5399666, 15.4920702 ] ] ] ] } },
{ "type": "Feature", "properties": { "POLYGON_ID": "ERI_GAUL1991_ADM2_15868", "ADM0_ISO3": "ERI", "ADM0_NAME": "Eritrea", "ADM0_CODE": 77, "ADM1_NAME": "Gash Barka", "ADM1_CODE": 1209, "ADM2_NAME": "Haikota", "ADM2_CODE": 15868, "GEOSET": "GAUL", "GEOSET_YEAR": 1991.0, "GEOSET_VERSION": "GAUL_v1", "GEOSET_UNIT": "ADM2", "CENTROID_LONG": 36.985875881020313, "CENTROID_LAT": 15.227377196037883 }, "geometry": { "type": "MultiPolygon", "coordinates": [ [ [ [ 37.1684532, 15.0654202 ], [ 37.1216087, 14.9595604 ], [ 36.942421, 14.9958191 ], [ 36.7820206, 15.1246529 ], [ 36.7268257, 15.1914835 ], [ 36.7281799, 15.3251085 ], [ 36.7081871, 15.3727655 ], [ 36.7556229, 15.4011707 ], [ 37.0073853, 15.4346113 ], [ 37.0979385, 15.4353647 ], [ 37.1853943, 15.4707785 ], [ 37.2067032, 15.4209948 ], [ 37.1851654, 15.3796473 ], [ 37.2064362, 15.3516331 ], [ 37.2030525, 15.2454853 ], [ 37.2145958, 15.1180925 ], [ 37.1684532, 15.0654202 ] ] ] ] } },
{ "type": "Feature", "properties": { "POLYGON_ID": "ERI_GAUL1991_ADM2_15869", "ADM0_ISO3": "ERI", "ADM0_NAME": "Eritrea", "ADM0_CODE": 77, "ADM1_NAME": "Gash Barka", "ADM1_CODE": 1209, "ADM2_NAME": "La'elay Gash", "ADM2_CODE": 15869, "GEOSET": "GAUL", "GEOSET_YEAR": 1991.0, "GEOSET_VERSION": "GAUL_v1", "GEOSET_UNIT": "ADM2", "CENTROID_LONG": 37.405770799719839, "CENTROID_LAT": 14.632931294824338 }, "geometry": { "type": "MultiPolygon", "coordinates": [ [ [ [ 37.6889076, 14.9670324 ], [ 37.7377319, 14.9268103 ], [ 37.7307587, 14.8458061 ], [ 37.7027473, 14.7621374 ], [ 37.7360802, 14.6827269 ], [ 37.7822271, 14.6533024 ], [ 37.528556, 14.185167 ], [ 37.506613, 14.1810262 ], [ 37.466432, 14.2206232 ], [ 37.4716143, 14.2502206 ], [ 37.3932055, 14.3032634 ], [ 37.3930772, 14.3035033 ], [ 37.3993735, 14.3107568 ], [ 37.4036972, 14.3144153 ], [ 37.4042446, 14.3351444 ], [ 37.3801579, 14.3432463 ], [ 37.3804134, 14.355764 ], [ 37.390035, 14.3597004 ], [ 37.3503051, 14.4129152 ], [ 37.3500131, 14.4155063 ], [ 37.3470546, 14.41561 ], [ 37.3411083, 14.4136086 ], [ 37.3119489, 14.4478773 ], [ 37.227974, 14.4457241 ], [ 37.1708064, 14.4189268 ], [ 37.1629765, 14.4178785 ], [ 37.1613244, 14.4185901 ], [ 37.1368999, 14.4095941 ], [ 37.0964851, 14.4965057 ], [ 37.0596199, 14.6683331 ], [ 37.094677, 14.8674812 ], [ 37.1216087, 14.9595604 ], [ 37.1684532, 15.0654202 ], [ 37.2514343, 14.9803238 ], [ 37.2891464, 14.9802637 ], [ 37.2956314, 14.8628922 ], [ 37.3089066, 14.8451195 ], [ 37.4080772, 14.8363028 ], [ 37.4478149, 14.7774649 ], [ 37.5, 14.775506 ], [ 37.5836143, 14.8350763 ], [ 37.6415329, 14.9447842 ], [ 37.6889076, 14.9670324 ] ] ] ] } },
{ "type": "Feature", "properties": { "POLYGON_ID": "ERI_GAUL1991_ADM2_15870", "ADM0_ISO3": "ERI", "ADM0_NAME": "Eritrea", "ADM0_CODE": 77, "ADM1_NAME": "Gash Barka", "ADM1_CODE": 1209, "ADM2_NAME": "Logo Anseba", "ADM2_CODE": 15870, "GEOSET": "GAUL", "GEOSET_YEAR": 1991.0, "GEOSET_VERSION": "GAUL_v1", "GEOSET_UNIT": "ADM2", "CENTROID_LONG": 38.661410075232787, "CENTROID_LAT": 15.430001165236055 }, "geometry": { "type": "MultiPolygon", "coordinates": [ [ [ [ 38.7403831, 15.5169477 ], [ 38.7511444, 15.4896965 ], [ 38.7720451, 15.4148273 ], [ 38.7327995, 15.321599 ], [ 38.6954803, 15.2790871 ], [ 38.7335014, 15.2343788 ], [ 38.7119598, 15.2103443 ], [ 38.6212349, 15.2879791 ], [ 38.5813484, 15.3629084 ], [ 38.5918694, 15.4549036 ], [ 38.519928, 15.5414581 ], [ 38.5944443, 15.5798368 ], [ 38.6880836, 15.5899715 ], [ 38.7403831, 15.5169477 ] ] ] ] } },
{ "type": "Feature", "properties": { "POLYGON_ID": "ERI_GAUL1991_ADM2_15871", "ADM0_ISO3": "ERI", "ADM0_NAME": "Eritrea", "ADM0_CODE": 77, "ADM1_NAME": "Gash Barka", "ADM1_CODE": 1209, "ADM2_NAME": "Mensura", "ADM2_CODE": 15871, "GEOSET": "GAUL", "GEOSET_YEAR": 1991.0, "GEOSET_VERSION": "GAUL_v1", "GEOSET_UNIT": "ADM2", "CENTROID_LONG": 38.238683594579996, "CENTROID_LAT": 15.447860804484018 }, "geometry": { "type": "MultiPolygon", "coordinates": [ [ [ [ 38.0205269, 15.806035 ], [ 38.0236511, 15.7665939 ], [ 38.126976, 15.7722673 ], [ 38.185585, 15.696146 ], [ 38.1723328, 15.6666727 ], [ 38.1960144, 15.6185827 ], [ 38.2792702, 15.6292372 ], [ 38.3644524, 15.6033421 ], [ 38.4424438, 15.5498438 ], [ 38.519928, 15.5414581 ], [ 38.5918694, 15.4549036 ], [ 38.5813484, 15.3629084 ], [ 38.6212349, 15.2879791 ], [ 38.5396767, 15.3199034 ], [ 38.5057373, 15.2898874 ], [ 38.4909592, 15.2332239 ], [ 38.405407, 15.2054634 ], [ 38.3398781, 15.2062864 ], [ 38.2535133, 15.2658806 ], [ 38.1917839, 15.2576723 ], [ 38.0714149, 15.1638021 ], [ 38.0360603, 15.1604204 ], [ 38.0358047, 15.2124767 ], [ 38.0118752, 15.2593002 ], [ 37.9779739, 15.4128428 ], [ 37.9280472, 15.4766541 ], [ 38.0197105, 15.5066175 ], [ 38.0592117, 15.5609894 ], [ 37.9620438, 15.6197672 ], [ 37.9706001, 15.7322311 ], [ 37.9927216, 15.7988482 ], [ 38.0205269, 15.806035 ] ] ] ] } },
{ "type": "Feature", "properties": { "POLYGON_ID": "ERI_GAUL1991_ADM2_15872", "ADM0_ISO3": "ERI", "ADM0_NAME": "Eritrea", "ADM0_CODE": 77, "ADM1_NAME": "Gash Barka", "ADM1_CODE": 1209, "ADM2_NAME": "Mogolo", "ADM2_CODE": 15872, "GEOSET": "GAUL", "GEOSET_YEAR": 1991.0, "GEOSET_VERSION": "GAUL_v1", "GEOSET_UNIT": "ADM2", "CENTROID_LONG": 37.739592667591182, "CENTROID_LAT": 15.312124276162967 }, "geometry": { "type": "MultiPolygon", "coordinates": [ [ [ [ 37.8444786, 15.4773035 ], [ 37.9280472, 15.4766541 ], [ 37.9779739, 15.4128428 ], [ 38.0118752, 15.2593002 ], [ 38.0358047, 15.2124767 ], [ 38.0360603, 15.1604204 ], [ 37.981514, 15.1599846 ], [ 37.8873062, 15.1882925 ], [ 37.8337212, 15.1845732 ], [ 37.7471771, 15.1473131 ], [ 37.708477, 15.1619778 ], [ 37.6413116, 15.1556187 ], [ 37.5696945, 15.1760139 ], [ 37.5090256, 15.1937065 ], [ 37.4361153, 15.2494373 ], [ 37.4612808, 15.3333635 ], [ 37.5102234, 15.3964233 ], [ 37.5399666, 15.4920702 ], [ 37.69207, 15.4697428 ], [ 37.7429428, 15.4278727 ], [ 37.8444786, 15.4773035 ] ] ] ] } },
{ "type": "Feature", "properties": { "POLYGON_ID": "ERI_GAUL1991_ADM2_15873", "ADM0_ISO3": "ERI", "ADM0_NAME": "Eritrea", "ADM0_CODE": 77, "ADM1_NAME": "Gash Barka", "ADM1_CODE": 1209, "ADM2_NAME": "Molqi", "ADM2_CODE": 15873, "GEOSET": "GAUL", "GEOSET_YEAR": 1991.0, "GEOSET_VERSION": "GAUL_v1", "GEOSET_UNIT": "ADM2", "CENTROID_LONG": 38.281772590955754, "CENTROID_LAT": 15.000434223922438 }, "geometry": { "type": "MultiPolygon", "coordinates": [ [ [ [ 38.6212349, 15.2879791 ], [ 38.7119598, 15.2103443 ], [ 38.6359596, 15.1723347 ], [ 38.506794, 15.1565094 ], [ 38.3777008, 15.1738729 ], [ 38.4270058, 15.087965 ], [ 38.4624977, 15.0813503 ], [ 38.4752312, 15.0228596 ], [ 38.4625778, 14.9830351 ], [ 38.4127808, 14.9689751 ], [ 38.3107719, 14.9010487 ], [ 38.268837, 14.9195118 ], [ 38.2357063, 14.8783665 ], [ 38.2577629, 14.8529215 ], [ 38.4158974, 14.8036776 ], [ 38.3593369, 14.671402 ], [ 38.2642643, 14.6719357 ], [ 38.1888316, 14.6934067 ], [ 38.1882963, 14.6831816 ], [ 38.1853976, 14.6792947 ], [ 38.1835976, 14.6826562 ], [ 38.0465113, 14.7176981 ], [ 38.0241693, 14.7375827 ], [ 38.0167668, 14.7438001 ], [ 38.0197387, 14.7535787 ], [ 38.0230062, 14.7586303 ], [ 38.0042879, 14.7683971 ], [ 38.0031404, 14.7683287 ], [ 38.0007956, 14.7706923 ], [ 37.9995532, 14.7764202 ], [ 37.9942111, 14.7749694 ], [ 37.9899538, 14.7770363 ], [ 37.9857321, 14.8011757 ], [ 37.9854132, 14.8093546 ], [ 37.9739714, 14.8010305 ], [ 37.9712314, 14.800688 ], [ 37.9696755, 14.8178053 ], [ 38.1303101, 14.8047323 ], [ 38.138916, 14.8321466 ], [ 38.1051979, 14.8822165 ], [ 38.0738068, 15.0118256 ], [ 38.0714149, 15.1638021 ], [ 38.1917839, 15.2576723 ], [ 38.2535133, 15.2658806 ], [ 38.3398781, 15.2062864 ], [ 38.405407, 15.2054634 ], [ 38.4909592, 15.2332239 ], [ 38.5057373, 15.2898874 ], [ 38.5396767, 15.3199034 ], [ 38.6212349, 15.2879791 ] ] ] ] } },
{ "type": "Feature", "properties": { "POLYGON_ID": "ERI_GAUL1991_ADM2_15874", "ADM0_ISO3": "ERI", "ADM0_NAME": "Eritrea", "ADM0_CODE": 77, "ADM1_NAME": "Gash Barka", "ADM1_CODE": 1209, "ADM2_NAME": "Omhajer", "ADM2_CODE": 15874, "GEOSET": "GAUL", "GEOSET_YEAR": 1991.0, "GEOSET_VERSION": "GAUL_v1", "GEOSET_UNIT": "ADM2", "CENTROID_LONG": 36.790960494849713, "CENTROID_LAT": 14.656207181665144 }, "geometry": { "type": "MultiPolygon", "coordinates": [ [ [ [ 36.942421, 14.9958191 ], [ 37.1216087, 14.9595604 ], [ 37.094677, 14.8674812 ], [ 37.0596199, 14.6683331 ], [ 37.0964851, 14.4965057 ], [ 37.1368999, 14.4095941 ], [ 37.1346929, 14.4095941 ], [ 37.1277223, 14.3963099 ], [ 37.1253502, 14.3826973 ], [ 37.1168468, 14.3727707 ], [ 37.1169928, 14.3645593 ], [ 37.1105332, 14.3602164 ], [ 37.1079056, 14.3514941 ], [ 37.1060808, 14.2910585 ], [ 37.0985994, 14.2857667 ], [ 37.0985642, 14.2785609 ], [ 37.0944754, 14.2727745 ], [ 37.0892202, 14.2707308 ], [ 37.0383367, 14.2650006 ], [ 37.0351346, 14.2607312 ], [ 37.0329973, 14.2598634 ], [ 36.9716699, 14.2926278 ], [ 36.8504686, 14.3214847 ], [ 36.8456004, 14.3136575 ], [ 36.8412687, 14.3108851 ], [ 36.7409138, 14.3225723 ], [ 36.6937766, 14.3009113 ], [ 36.6243353, 14.3120335 ], [ 36.6230092, 14.3071881 ], [ 36.6207369, 14.3038907 ], [ 36.6148248, 14.2953114 ], [ 36.554959, 14.2810876 ], [ 36.5555184, 14.2801401 ], [ 36.5660842, 14.265003 ], [ 36.5606388, 14.26106 ], [ 36.5603404, 14.2577128 ], [ 36.52689, 14.32914 ], [ 36.50539, 14.51196 ], [ 36.4619451, 15.0000396 ], [ 36.5, 15.0000048 ], [ 36.5767136, 15.0443258 ], [ 36.6879692, 15.0268745 ], [ 36.779213, 14.9943008 ], [ 36.942421, 14.9958191 ] ] ] ] } },
{ "type": "Feature", "properties": { "POLYGON_ID": "ERI_GAUL1991_ADM2_15875", "ADM0_ISO3": "ERI", "ADM0_NAME": "Eritrea", "ADM0_CODE": 77, "ADM1_NAME": "Gash Barka", "ADM1_CODE": 1209, "ADM2_NAME": "Shambqo", "ADM2_CODE": 15875, "GEOSET": "GAUL", "GEOSET_YEAR": 1991.0, "GEOSET_VERSION": "GAUL_v1", "GEOSET_UNIT": "ADM2", "CENTROID_LONG": 37.893391220829002, "CENTROID_LAT": 14.960164649163337 }, "geometry": { "type": "MultiPolygon", "coordinates": [ [ [ [ 38.0360603, 15.1604204 ], [ 38.0714149, 15.1638021 ], [ 38.0738068, 15.0118256 ], [ 38.1051979, 14.8822165 ], [ 38.138916, 14.8321466 ], [ 38.1303101, 14.8047323 ], [ 37.9696755, 14.8178053 ], [ 37.9659788, 14.8323907 ], [ 37.9591602, 14.8376081 ], [ 37.912083, 14.892944 ], [ 37.7822271, 14.6533024 ], [ 37.7360802, 14.6827269 ], [ 37.7027473, 14.7621374 ], [ 37.7307587, 14.8458061 ], [ 37.7377319, 14.9268103 ], [ 37.6889076, 14.9670324 ], [ 37.6672707, 15.0020781 ], [ 37.7572823, 15.0685091 ], [ 37.7917709, 15.120038 ], [ 37.7471771, 15.1473131 ], [ 37.8337212, 15.1845732 ], [ 37.8873062, 15.1882925 ], [ 37.981514, 15.1599846 ], [ 38.0360603, 15.1604204 ] ] ] ] } },
{ "type": "Feature", "properties": { "POLYGON_ID": "ERI_GAUL1991_ADM2_15876", "ADM0_ISO3": "ERI", "ADM0_NAME": "Eritrea", "ADM0_CODE": 77, "ADM1_NAME": "Gash Barka", "ADM1_CODE": 1209, "ADM2_NAME": "Tesseney", "ADM2_CODE": 15876, "GEOSET": "GAUL", "GEOSET_YEAR": 1991.0, "GEOSET_VERSION": "GAUL_v1", "GEOSET_UNIT": "ADM2", "CENTROID_LONG": 36.645159388489184, "CENTROID_LAT": 15.141129508496624 }, "geometry": { "type": "MultiPolygon", "coordinates": [ [ [ [ 36.942421, 14.9958191 ], [ 36.779213, 14.9943008 ], [ 36.6879692, 15.0268745 ], [ 36.5767136, 15.0443258 ], [ 36.5, 15.0000048 ], [ 36.4619451, 15.0000396 ], [ 36.4387628, 15.1566335 ], [ 36.4524956, 15.1739761 ], [ 36.54157, 15.22803 ], [ 36.5791473, 15.3254623 ], [ 36.6318893, 15.3234711 ], [ 36.7081871, 15.3727655 ], [ 36.7281799, 15.3251085 ], [ 36.7268257, 15.1914835 ], [ 36.7820206, 15.1246529 ], [ 36.942421, 14.9958191 ] ] ] ] } },
{ "type": "Feature", "properties": { "POLYGON_ID": "ERI_GAUL1991_ADM2_15877", "ADM0_ISO3": "ERI", "ADM0_NAME": "Eritrea", "ADM0_CODE": 77, "ADM1_NAME": "Maekel", "ADM1_CODE": 1210, "ADM2_NAME": "Berik", "ADM2_CODE": 15877, "GEOSET": "GAUL", "GEOSET_YEAR": 1991.0, "GEOSET_VERSION": "GAUL_v1", "GEOSET_UNIT": "ADM2", "CENTROID_LONG": 38.825275667462691, "CENTROID_LAT": 15.371172016253265 }, "geometry": { "type": "MultiPolygon", "coordinates": [ [ [ [ 38.9036942, 15.3843765 ], [ 38.9092979, 15.3423929 ], [ 38.8903923, 15.2833357 ], [ 38.7745132, 15.3031521 ], [ 38.7327995, 15.321599 ], [ 38.7720451, 15.4148273 ], [ 38.7511444, 15.4896965 ], [ 38.8349533, 15.4399433 ], [ 38.8632469, 15.4571981 ], [ 38.9036942, 15.3843765 ] ] ] ] } },
{ "type": "Feature", "properties": { "POLYGON_ID": "ERI_GAUL1991_ADM2_15878", "ADM0_ISO3": "ERI", "ADM0_NAME": "Eritrea", "ADM0_CODE": 77, "ADM1_NAME": "Maekel", "ADM1_CODE": 1210, "ADM2_NAME": "Gala Nefhi", "ADM2_CODE": 15878, "GEOSET": "GAUL", "GEOSET_YEAR": 1991.0, "GEOSET_VERSION": "GAUL_v1", "GEOSET_UNIT": "ADM2", "CENTROID_LONG": 38.895079858324273, "CENTROID_LAT": 15.257074457142274 }, "geometry": { "type": "MultiPolygon", "coordinates": [ [ [ [ 39.0295448, 15.3357382 ], [ 39.0456429, 15.26758 ], [ 39.024807, 15.2255945 ], [ 38.9543457, 15.1680632 ], [ 38.9118271, 15.1795111 ], [ 38.80933, 15.2263012 ], [ 38.7335014, 15.2343788 ], [ 38.6954803, 15.2790871 ], [ 38.7327995, 15.321599 ], [ 38.7745132, 15.3031521 ], [ 38.8903923, 15.2833357 ], [ 38.9365158, 15.2845497 ], [ 38.9652367, 15.304328 ], [ 38.9767036, 15.3563252 ], [ 39.0295448, 15.3357382 ] ] ] ] } },
{ "type": "Feature", "properties": { "POLYGON_ID": "ERI_GAUL1991_ADM2_15879", "ADM0_ISO3": "ERI", "ADM0_NAME": "Eritrea", "ADM0_CODE": 77, "ADM1_NAME": "Maekel", "ADM1_CODE": 1210, "ADM2_NAME": "Northern Asmara", "ADM2_CODE": 15879, "GEOSET": "GAUL", "GEOSET_YEAR": 1991.0, "GEOSET_VERSION": "GAUL_v1", "GEOSET_UNIT": "ADM2", "CENTROID_LONG": 38.958151751592084, "CENTROID_LAT": 15.354157304859246 }, "geometry": { "type": "MultiPolygon", "coordinates": [ [ [ [ 38.9767036, 15.3563252 ], [ 38.9348602, 15.336319 ], [ 38.9342155, 15.336772 ], [ 38.9646187, 15.3706226 ], [ 38.9767036, 15.3563252 ] ] ] ] } },
{ "type": "Feature", "properties": { "POLYGON_ID": "ERI_GAUL1991_ADM2_15880", "ADM0_ISO3": "ERI", "ADM0_NAME": "Eritrea", "ADM0_CODE": 77, "ADM1_NAME": "Maekel", "ADM1_CODE": 1210, "ADM2_NAME": "Northern Merab", "ADM2_CODE": 15880, "GEOSET": "GAUL", "GEOSET_YEAR": 1991.0, "GEOSET_VERSION": "GAUL_v1", "GEOSET_UNIT": "ADM2", "CENTROID_LONG": 38.928822936645808, "CENTROID_LAT": 15.361192012523864 }, "geometry": { "type": "MultiPolygon", "coordinates": [ [ [ [ 38.9646187, 15.3706226 ], [ 38.9342155, 15.336772 ], [ 38.9092979, 15.3423929 ], [ 38.9036942, 15.3843765 ], [ 38.9646187, 15.3706226 ] ] ] ] } },
{ "type": "Feature", "properties": { "POLYGON_ID": "ERI_GAUL1991_ADM2_15881", "ADM0_ISO3": "ERI", "ADM0_NAME": "Eritrea", "ADM0_CODE": 77, "ADM1_NAME": "Maekel", "ADM1_CODE": 1210, "ADM2_NAME": "Serejeqa", "ADM2_CODE": 15881, "GEOSET": "GAUL", "GEOSET_YEAR": 1991.0, "GEOSET_VERSION": "GAUL_v1", "GEOSET_UNIT": "ADM2", "CENTROID_LONG": 38.899523015157762, "CENTROID_LAT": 15.458704461455381 }, "geometry": { "type": "MultiPolygon", "coordinates": [ [ [ [ 38.8916359, 15.5676413 ], [ 38.9360657, 15.4783602 ], [ 38.9847755, 15.4609003 ], [ 39.0241585, 15.4205112 ], [ 39.0077972, 15.3783369 ], [ 39.0295448, 15.3357382 ], [ 38.9767036, 15.3563252 ], [ 38.9646187, 15.3706226 ], [ 38.9036942, 15.3843765 ], [ 38.8632469, 15.4571981 ], [ 38.8349533, 15.4399433 ], [ 38.7511444, 15.4896965 ], [ 38.7403831, 15.5169477 ], [ 38.7668915, 15.5086203 ], [ 38.8916359, 15.5676413 ] ] ] ] } },
{ "type": "Feature", "properties": { "POLYGON_ID": "ERI_GAUL1991_ADM2_15882", "ADM0_ISO3": "ERI", "ADM0_NAME": "Eritrea", "ADM0_CODE": 77, "ADM1_NAME": "Maekel", "ADM1_CODE": 1210, "ADM2_NAME": "Southern Asmara", "ADM2_CODE": 15882, "GEOSET": "GAUL", "GEOSET_YEAR": 1991.0, "GEOSET_VERSION": "GAUL_v1", "GEOSET_UNIT": "ADM2", "CENTROID_LONG": 38.953060184310992, "CENTROID_LAT": 15.321834311809805 }, "geometry": { "type": "MultiPolygon", "coordinates": [ [ [ [ 38.9365158, 15.2845497 ], [ 38.9348602, 15.336319 ], [ 38.9767036, 15.3563252 ], [ 38.9652367, 15.304328 ], [ 38.9365158, 15.2845497 ] ] ] ] } },
{ "type": "Feature", "properties": { "POLYGON_ID": "ERI_GAUL1991_ADM2_15883", "ADM0_ISO3": "ERI", "ADM0_NAME": "Eritrea", "ADM0_CODE": 77, "ADM1_NAME": "Maekel", "ADM1_CODE": 1210, "ADM2_NAME": "Southern Merab", "ADM2_CODE": 15883, "GEOSET": "GAUL", "GEOSET_YEAR": 1991.0, "GEOSET_VERSION": "GAUL_v1", "GEOSET_UNIT": "ADM2", "CENTROID_LONG": 38.916935513290127, "CENTROID_LAT": 15.309259836747005 }, "geometry": { "type": "MultiPolygon", "coordinates": [ [ [ [ 38.9342155, 15.336772 ], [ 38.9348602, 15.336319 ], [ 38.9365158, 15.2845497 ], [ 38.8903923, 15.2833357 ], [ 38.9092979, 15.3423929 ], [ 38.9342155, 15.336772 ] ] ] ] } },
{ "type": "Feature", "properties": { "POLYGON_ID": "ERI_GAUL1991_ADM2_15884", "ADM0_ISO3": "ERI", "ADM0_NAME": "Eritrea", "ADM0_CODE": 77, "ADM1_NAME": "Semenawi Keih Bahri", "ADM1_CODE": 1211, "ADM2_NAME": "Adobhe", "ADM2_CODE": 15884, "GEOSET": "GAUL", "GEOSET_YEAR": 1991.0, "GEOSET_VERSION": "GAUL_v1", "GEOSET_UNIT": "ADM2", "CENTROID_LONG": 38.082466682024751, "CENTROID_LAT": 17.217970662228065 }, "geometry": { "type": "MultiPolygon", "coordinates": [ [ [ [ 38.2511077, 17.5562938 ], [ 38.2720528, 17.4115524 ], [ 38.2842064, 17.391573 ], [ 38.301487, 17.2670422 ], [ 38.3260765, 17.1984577 ], [ 38.2991943, 17.1140137 ], [ 38.3291245, 17.0447025 ], [ 38.1874123, 17.0017071 ], [ 38.1882629, 16.9761105 ], [ 38.1274261, 16.9335957 ], [ 38.0494995, 16.9057026 ], [ 37.9983482, 16.9076099 ], [ 37.9897919, 16.826252 ], [ 37.9415741, 16.8259945 ], [ 37.9223976, 16.878334 ], [ 37.8729324, 16.9208431 ], [ 37.8810272, 17.0091438 ], [ 37.8518372, 17.1150112 ], [ 37.8666763, 17.1933327 ], [ 37.910881, 17.2553597 ], [ 37.8999367, 17.3823032 ], [ 37.8753161, 17.4524468 ], [ 37.9177369, 17.4570699 ], [ 37.9769646, 17.4910103 ], [ 38.0038618, 17.5570803 ], [ 38.0676297, 17.5522606 ], [ 38.0706999, 17.4820214 ], [ 38.10661, 17.48049 ], [ 38.10888, 17.55889 ], [ 38.1303307, 17.57313 ], [ 38.2511077, 17.5562938 ] ] ] ] } },
{ "type": "Feature", "properties": { "POLYGON_ID": "ERI_GAUL1991_ADM2_15885", "ADM0_ISO3": "ERI", "ADM0_NAME": "Eritrea", "ADM0_CODE": 77, "ADM1_NAME": "Semenawi Keih Bahri", "ADM1_CODE": 1211, "ADM2_NAME": "Afabet", "ADM2_CODE": 15885, "GEOSET": "GAUL", "GEOSET_YEAR": 1991.0, "GEOSET_VERSION": "GAUL_v1", "GEOSET_UNIT": "ADM2", "CENTROID_LONG": 38.846059109200304, "CENTROID_LAT": 16.378500758266298 }, "geometry": { "type": "MultiPolygon", "coordinates": [ [ [ [ 39.2632576, 16.0316276 ], [ 39.2045059, 16.0325985 ], [ 39.1069222, 15.9764853 ], [ 39.0028381, 15.972827 ], [ 38.9311714, 15.9858589 ], [ 38.8640862, 15.9805317 ], [ 38.7692566, 15.9305906 ], [ 38.7490616, 15.8994198 ], [ 38.7280159, 15.8737373 ], [ 38.6779671, 15.8932219 ], [ 38.6122437, 15.8746758 ], [ 38.5784264, 15.894659 ], [ 38.5138321, 15.9664469 ], [ 38.4674721, 15.9778471 ], [ 38.4899902, 16.0396996 ], [ 38.4554672, 16.0962391 ], [ 38.4824448, 16.1691418 ], [ 38.4872856, 16.2618999 ], [ 38.4645157, 16.2725601 ], [ 38.4684715, 16.3467083 ], [ 38.4277153, 16.3860092 ], [ 38.4592323, 16.4213924 ], [ 38.5661507, 16.4382553 ], [ 38.5897026, 16.5128231 ], [ 38.573761, 16.5741673 ], [ 38.5423813, 16.6182137 ], [ 38.5533295, 16.7223053 ], [ 38.5845451, 16.7670383 ], [ 38.6870537, 16.7887897 ], [ 38.7564011, 16.8543358 ], [ 38.7837143, 16.9099178 ], [ 38.8268547, 16.9077129 ], [ 39.0593372, 16.9287027 ], [ 39.0647961, 16.8933838 ], [ 39.1179775, 16.7797449 ], [ 39.1489221, 16.6789901 ], [ 39.1384402, 16.5991304 ], [ 39.1620625, 16.570258 ], [ 39.2041662, 16.3424678 ], [ 39.1983741, 16.2873379 ], [ 39.2417275, 16.0726741 ], [ 39.2632576, 16.0316276 ] ] ] ] } },
{ "type": "Feature", "properties": { "POLYGON_ID": "ERI_GAUL1991_ADM2_15886", "ADM0_ISO3": "ERI", "ADM0_NAME": "Eritrea", "ADM0_CODE": 77, "ADM1_NAME": "Semenawi Keih Bahri", "ADM1_CODE": 1211, "ADM2_NAME": "Foro", "ADM2_CODE": 15886, "GEOSET": "GAUL", "GEOSET_YEAR": 1991.0, "GEOSET_VERSION": "GAUL_v1", "GEOSET_UNIT": "ADM2", "CENTROID_LONG": 39.527005118885505, "CENTROID_LAT": 15.184208124674177 }, "geometry": { "type": "MultiPolygon", "coordinates": [ [ [ [ 39.4681286, 15.5228541 ], [ 39.536491, 15.5361037 ], [ 39.6004898, 15.5190633 ], [ 39.6362561, 15.4403797 ], [ 39.6607526, 15.3323522 ], [ 39.7166072, 15.2448362 ], [ 39.6939295, 15.1269019 ], [ 39.715157, 15.0897333 ], [ 39.790197, 15.0650866 ], [ 39.8308525, 14.9981318 ], [ 39.7820816, 14.9167595 ], [ 39.653553, 14.8345194 ], [ 39.5836716, 14.8767509 ], [ 39.5280952, 14.9275332 ], [ 39.5258904, 14.9715071 ], [ 39.3517799, 15.0521374 ], [ 39.3211937, 15.1034565 ], [ 39.2618217, 15.1231871 ], [ 39.1834679, 15.2413902 ], [ 39.2438164, 15.2579861 ], [ 39.3055, 15.3570461 ], [ 39.4156647, 15.400341 ], [ 39.4381828, 15.5175867 ], [ 39.4681286, 15.5228541 ] ] ] ] } },
{ "type": "Feature", "properties": { "POLYGON_ID": "ERI_GAUL1991_ADM2_15887", "ADM0_ISO3": "ERI", "ADM0_NAME": "Eritrea", "ADM0_CODE": 77, "ADM1_NAME": "Semenawi Keih Bahri", "ADM1_CODE": 1211, "ADM2_NAME": "Gel'alo", "ADM2_CODE": 15887, "GEOSET": "GAUL", "GEOSET_YEAR": 1991.0, "GEOSET_VERSION": "GAUL_v1", "GEOSET_UNIT": "ADM2", "CENTROID_LONG": 40.085631735048274, "CENTROID_LAT": 14.810447918736353 }, "geometry": { "type": "MultiPolygon", "coordinates": [ [ [ [ 40.5201762, 14.94697 ], [ 40.5308189, 14.8663511 ], [ 40.5707016, 14.7111301 ], [ 40.5491867, 14.6658182 ], [ 40.4940529, 14.6292076 ], [ 40.4827766, 14.4423752 ], [ 40.4949722, 14.3878641 ], [ 40.4746066, 14.3002036 ], [ 40.4158666, 14.3291698 ], [ 40.4090375, 14.3333045 ], [ 40.2595, 14.411472 ], [ 40.2132927, 14.3867605 ], [ 40.147528, 14.53925 ], [ 40.1165519, 14.5608237 ], [ 40.0541779, 14.5279404 ], [ 39.9979745, 14.4509738 ], [ 39.9942856, 14.4534468 ], [ 39.9731779, 14.4347371 ], [ 39.9748022, 14.4330034 ], [ 39.9764851, 14.4312071 ], [ 39.9703135, 14.427514 ], [ 39.9299508, 14.4149007 ], [ 39.8742581, 14.4670034 ], [ 39.7941815, 14.5030999 ], [ 39.7711249, 14.5450399 ], [ 39.7121486, 14.5561452 ], [ 39.6674681, 14.5946221 ], [ 39.6660024, 14.5925233 ], [ 39.6612784, 14.5932229 ], [ 39.6447571, 14.6027023 ], [ 39.6074371, 14.6833754 ], [ 39.6482925, 14.7656841 ], [ 39.653553, 14.8345194 ], [ 39.7820816, 14.9167595 ], [ 39.8308525, 14.9981318 ], [ 39.790197, 15.0650866 ], [ 39.8533669, 15.1678372 ], [ 39.8139923, 15.2765806 ], [ 39.7769702, 15.3136851 ], [ 39.7917153, 15.3520226 ], [ 39.7762197, 15.3979381 ], [ 39.8299515, 15.453137 ], [ 39.8840002, 15.4822988 ], [ 39.9812505, 15.4004773 ], [ 40.0583275, 15.3605773 ], [ 40.0828667, 15.3051988 ], [ 40.0221705, 15.2413338 ], [ 40.1003394, 15.117302 ], [ 40.0995428, 15.0655218 ], [ 40.1453534, 15.0547324 ], [ 40.1557516, 14.9918183 ], [ 40.2126169, 14.9472113 ], [ 40.2874988, 14.9082902 ], [ 40.3452479, 14.9276628 ], [ 40.376916, 14.9911042 ], [ 40.4656105, 14.9980214 ], [ 40.5201762, 14.94697 ] ] ], [ [ [ 40.30204, 15.0555617 ], [ 40.3439457, 15.0162896 ], [ 40.3073955, 14.9772156 ], [ 40.2677429, 14.9940564 ], [ 40.30204, 15.0555617 ] ] ] ] } },
{ "type": "Feature", "properties": { "POLYGON_ID": "ERI_GAUL1991_ADM2_15888", "ADM0_ISO3": "ERI", "ADM0_NAME": "Eritrea", "ADM0_CODE": 77, "ADM1_NAME": "Semenawi Keih Bahri", "ADM1_CODE": 1211, "ADM2_NAME": "Gindae", "ADM2_CODE": 15888, "GEOSET": "GAUL", "GEOSET_YEAR": 1991.0, "GEOSET_VERSION": "GAUL_v1", "GEOSET_UNIT": "ADM2", "CENTROID_LONG": 39.150898802231652, "CENTROID_LAT": 15.492038454581797 }, "geometry": { "type": "MultiPolygon", "coordinates": [ [ [ [ 39.2909889, 15.6046753 ], [ 39.3142586, 15.5633392 ], [ 39.3610764, 15.5638552 ], [ 39.4381828, 15.5175867 ], [ 39.4156647, 15.400341 ], [ 39.3055, 15.3570461 ], [ 39.2438164, 15.2579861 ], [ 39.1834679, 15.2413902 ], [ 39.1776047, 15.244812 ], [ 39.0807648, 15.2566776 ], [ 39.0774345, 15.2143364 ], [ 39.024807, 15.2255945 ], [ 39.0456429, 15.26758 ], [ 39.0295448, 15.3357382 ], [ 39.0077972, 15.3783369 ], [ 39.0241585, 15.4205112 ], [ 38.9847755, 15.4609003 ], [ 38.9360657, 15.4783602 ], [ 38.8916359, 15.5676413 ], [ 38.8658142, 15.6212254 ], [ 38.9505768, 15.6420212 ], [ 38.9618568, 15.6890936 ], [ 39.0263176, 15.7220726 ], [ 39.1399155, 15.7414932 ], [ 39.2148476, 15.6594553 ], [ 39.2655106, 15.6623621 ], [ 39.2909889, 15.6046753 ] ] ] ] } },
{ "type": "Feature", "properties": { "POLYGON_ID": "ERI_GAUL1991_ADM2_15889", "ADM0_ISO3": "ERI", "ADM0_NAME": "Eritrea", "ADM0_CODE": 77, "ADM1_NAME": "Semenawi Keih Bahri", "ADM1_CODE": 1211, "ADM2_NAME": "Massawa", "ADM2_CODE": 15889, "GEOSET": "GAUL", "GEOSET_YEAR": 1991.0, "GEOSET_VERSION": "GAUL_v1", "GEOSET_UNIT": "ADM2", "CENTROID_LONG": 39.390672516941798, "CENTROID_LAT": 15.639717202954477 }, "geometry": { "type": "MultiPolygon", "coordinates": [ [ [ [ 39.4681286, 15.5228541 ], [ 39.4381828, 15.5175867 ], [ 39.3610764, 15.5638552 ], [ 39.3142586, 15.5633392 ], [ 39.2909889, 15.6046753 ], [ 39.3739738, 15.7608662 ], [ 39.4292999, 15.7704118 ], [ 39.4484389, 15.6809735 ], [ 39.4781552, 15.6507655 ], [ 39.4416007, 15.5926122 ], [ 39.4681286, 15.5228541 ] ] ] ] } },
{ "type": "Feature", "properties": { "POLYGON_ID": "ERI_GAUL1991_ADM2_15890", "ADM0_ISO3": "ERI", "ADM0_NAME": "Eritrea", "ADM0_CODE": 77, "ADM1_NAME": "Semenawi Keih Bahri", "ADM1_CODE": 1211, "ADM2_NAME": "Nakfa", "ADM2_CODE": 15890, "GEOSET": "GAUL", "GEOSET_YEAR": 1991.0, "GEOSET_VERSION": "GAUL_v1", "GEOSET_UNIT": "ADM2", "CENTROID_LONG": 38.324315575105423, "CENTROID_LAT": 16.752701413139729 }, "geometry": { "type": "MultiPolygon", "coordinates": [ [ [ [ 38.5845451, 16.7670383 ], [ 38.5533295, 16.7223053 ], [ 38.5423813, 16.6182137 ], [ 38.573761, 16.5741673 ], [ 38.5897026, 16.5128231 ], [ 38.5661507, 16.4382553 ], [ 38.4592323, 16.4213924 ], [ 38.4277153, 16.3860092 ], [ 38.3688812, 16.3739262 ], [ 38.3270149, 16.4019241 ], [ 38.3551979, 16.4350376 ], [ 38.3434792, 16.4704323 ], [ 38.2957115, 16.5139828 ], [ 38.3215103, 16.575964 ], [ 38.2419357, 16.6129951 ], [ 38.1503601, 16.611639 ], [ 38.1378632, 16.643961 ], [ 38.0470657, 16.655138 ], [ 37.9822807, 16.6717987 ], [ 37.9827118, 16.7382717 ], [ 37.9897919, 16.826252 ], [ 37.9983482, 16.9076099 ], [ 38.0494995, 16.9057026 ], [ 38.1274261, 16.9335957 ], [ 38.1882629, 16.9761105 ], [ 38.1874123, 17.0017071 ], [ 38.3291245, 17.0447025 ], [ 38.4428444, 17.0953007 ], [ 38.4706917, 17.0775528 ], [ 38.4967995, 16.9713764 ], [ 38.5577049, 16.860775 ], [ 38.5845451, 16.7670383 ] ] ] ] } },
{ "type": "Feature", "properties": { "POLYGON_ID": "ERI_GAUL1991_ADM2_15891", "ADM0_ISO3": "ERI", "ADM0_NAME": "Eritrea", "ADM0_CODE": 77, "ADM1_NAME": "Semenawi Keih Bahri", "ADM1_CODE": 1211, "ADM2_NAME": "Quarura", "ADM2_CODE": 15891, "GEOSET": "GAUL", "GEOSET_YEAR": 1991.0, "GEOSET_VERSION": "GAUL_v1", "GEOSET_UNIT": "ADM2", "CENTROID_LONG": 38.626795371629285, "CENTROID_LAT": 17.338866442959279 }, "geometry": { "type": "MultiPolygon", "coordinates": [ [ [ [ 39.0593372, 16.9287027 ], [ 38.8268547, 16.9077129 ], [ 38.7837143, 16.9099178 ], [ 38.7564011, 16.8543358 ], [ 38.6870537, 16.7887897 ], [ 38.5845451, 16.7670383 ], [ 38.5577049, 16.860775 ], [ 38.4967995, 16.9713764 ], [ 38.4706917, 17.0775528 ], [ 38.4428444, 17.0953007 ], [ 38.3291245, 17.0447025 ], [ 38.2991943, 17.1140137 ], [ 38.3260765, 17.1984577 ], [ 38.301487, 17.2670422 ], [ 38.2842064, 17.391573 ], [ 38.2720528, 17.4115524 ], [ 38.2511077, 17.5562938 ], [ 38.28044, 17.62541 ], [ 38.34169, 17.64962 ], [ 38.452392, 17.8983484 ], [ 38.5695511, 18.0050423 ], [ 38.6062073, 17.9253933 ], [ 38.8224694, 17.6125911 ], [ 38.8632422, 17.5139581 ], [ 38.8883635, 17.4846058 ], [ 38.9383328, 17.3710189 ], [ 38.9708189, 17.2185155 ], [ 38.9965533, 17.1924978 ], [ 39.0047268, 17.1291225 ], [ 39.0593372, 16.9287027 ] ] ] ] } },
{ "type": "Feature", "properties": { "POLYGON_ID": "ERI_GAUL1991_ADM2_15892", "ADM0_ISO3": "ERI", "ADM0_NAME": "Eritrea", "ADM0_CODE": 77, "ADM1_NAME": "Semenawi Keih Bahri", "ADM1_CODE": 1211, "ADM2_NAME": "Sheb", "ADM2_CODE": 15892, "GEOSET": "GAUL", "GEOSET_YEAR": 1991.0, "GEOSET_VERSION": "GAUL_v1", "GEOSET_UNIT": "ADM2", "CENTROID_LONG": 39.092853540175476, "CENTROID_LAT": 15.833520979717234 }, "geometry": { "type": "MultiPolygon", "coordinates": [ [ [ [ 39.2632576, 16.0316276 ], [ 39.3079418, 15.8959703 ], [ 39.3810411, 15.8346623 ], [ 39.4323537, 15.808801 ], [ 39.4292999, 15.7704118 ], [ 39.3739738, 15.7608662 ], [ 39.2909889, 15.6046753 ], [ 39.2655106, 15.6623621 ], [ 39.2148476, 15.6594553 ], [ 39.1399155, 15.7414932 ], [ 39.0263176, 15.7220726 ], [ 38.9618568, 15.6890936 ], [ 38.9505768, 15.6420212 ], [ 38.8658142, 15.6212254 ], [ 38.8633385, 15.695713 ], [ 38.8337326, 15.7788534 ], [ 38.843998, 15.8380041 ], [ 38.7820358, 15.891449 ], [ 38.7490616, 15.8994198 ], [ 38.7692566, 15.9305906 ], [ 38.8640862, 15.9805317 ], [ 38.9311714, 15.9858589 ], [ 39.0028381, 15.972827 ], [ 39.1069222, 15.9764853 ], [ 39.2045059, 16.0325985 ], [ 39.2632576, 16.0316276 ] ] ] ] } },
{ "type": "Feature", "properties": { "POLYGON_ID": "ERI_GAUL1991_ADM2_15861", "ADM0_ISO3": "ERI", "ADM0_NAME": "Eritrea", "ADM0_CODE": 77, "ADM1_NAME": "Debubawi Keih Bahri", "ADM1_CODE": 1208, "ADM2_NAME": "Central Srs", "ADM2_CODE": 15861, "GEOSET": "GAUL", "GEOSET_YEAR": 1991.0, "GEOSET_VERSION": "GAUL_v1", "GEOSET_UNIT": "ADM2", "CENTROID_LONG": 41.53866244700864, "CENTROID_LAT": 13.76884304532129 }, "geometry": { "type": "MultiPolygon", "coordinates": [ [ [ [ 41.5336332, 14.1632725 ], [ 41.5510339, 14.1295625 ], [ 41.6223626, 14.0688077 ], [ 41.6885856, 13.93498 ], [ 41.7250246, 13.9180985 ], [ 41.8138735, 13.9209501 ], [ 41.8580014, 13.8661222 ], [ 41.9705861, 13.8524253 ], [ 42.0062486, 13.805503 ], [ 41.9572258, 13.7773571 ], [ 41.8070335, 13.6419163 ], [ 41.7190971, 13.5536919 ], [ 41.7156296, 13.4152918 ], [ 41.6682682, 13.3229713 ], [ 41.643778, 13.385528 ], [ 41.504333, 13.447 ], [ 41.447028, 13.4885 ], [ 41.401722, 13.502472 ], [ 41.307361, 13.579556 ], [ 41.169944, 13.728889 ], [ 41.1415786, 13.7807182 ], [ 41.1283884, 13.8048193 ], [ 41.2719345, 13.9036446 ], [ 41.3046188, 13.9550753 ], [ 41.3130112, 14.0327368 ], [ 41.3355865, 14.0669041 ], [ 41.4377975, 14.1411858 ], [ 41.5336332, 14.1632725 ] ] ] ] } }
]
}
