{
"type": "FeatureCollection",
"name": "FIN_GAUL1999_ADM2",
"crs": { "type": "name", "properties": { "name": "urn:ogc:def:crs:OGC:1.3:CRS84" } },
"features": [
{ "type": "Feature", "properties": { "POLYGON_ID": "FIN_GAUL1999_ADM2_16218", "ADM0_ISO3": "FIN", "ADM0_NAME": "Finland", "ADM0_CODE": 84, "ADM1_NAME": "Aaland", "ADM1_CODE": 1242, "ADM2_NAME": "Aaland", "ADM2_CODE": 16218, "GEOSET": "GAUL", "GEOSET_YEAR": 1999.0, "GEOSET_VERSION": "GAUL_v1", "GEOSET_UNIT": "ADM2", "CENTROID_LONG": 19.951951349686677, "CENTROID_LAT": 60.214885230650694 }, "geometry": { "type": "MultiPolygon", "coordinates": [ [ [ [ 19.926239, 60.4202156 ], [ 20.2684555, 60.2831345 ], [ 20.2442665, 60.2049141 ], [ 20.0548248, 60.1555977 ], [ 20.0487823, 60.0791397 ], [ 20.171896, 60.0940056 ], [ 20.2313614, 60.0554771 ], [ 20.2196903, 59.9900131 ], [ 20.1321259, 60.0026588 ], [ 19.9377594, 60.0898933 ], [ 19.7437782, 60.1134148 ], [ 19.6986141, 60.2009964 ], [ 19.7296429, 60.2917404 ], [ 19.8243694, 60.2398338 ], [ 19.8969536, 60.266861 ], [ 19.9297295, 60.3230591 ], [ 19.8447514, 60.3266258 ], [ 19.8061771, 60.3963089 ], [ 19.926239, 60.4202156 ] ] ], [ [ [ 19.6338558, 60.280201 ], [ 19.6836452, 60.2149925 ], [ 19.6792164, 60.1683922 ], [ 19.5471039, 60.1487961 ], [ 19.5436783, 60.252327 ], [ 19.6338558, 60.280201 ] ] ] ] } },
{ "type": "Feature", "properties": { "POLYGON_ID": "FIN_GAUL1999_ADM2_16219", "ADM0_ISO3": "FIN", "ADM0_NAME": "Finland", "ADM0_CODE": 84, "ADM1_NAME": "Eastern Finland", "ADM1_CODE": 1243, "ADM2_NAME": "North Karelia", "ADM2_CODE": 16219, "GEOSET": "GAUL", "GEOSET_YEAR": 1999.0, "GEOSET_VERSION": "GAUL_v1", "GEOSET_UNIT": "ADM2", "CENTROID_LONG": 29.948089309387917, "CENTROID_LAT": 62.921664065619204 }, "geometry": { "type": "MultiPolygon", "coordinates": [ [ [ [ 29.98095, 63.75448 ], [ 30.04158, 63.71125 ], [ 30.2515, 63.60342 ], [ 30.39274, 63.54311 ], [ 30.50515, 63.46186 ], [ 30.79087, 63.40457 ], [ 30.932907, 63.3535806 ], [ 30.96771, 63.32124 ], [ 31.23126, 63.22584 ], [ 31.25856, 63.1356303 ], [ 31.31877, 63.08893 ], [ 31.50454, 62.99856 ], [ 31.58094, 62.90803 ], [ 31.43502, 62.78026 ], [ 31.37451, 62.6627 ], [ 31.22984, 62.50706 ], [ 30.89096, 62.30725 ], [ 30.7187981, 62.21289 ], [ 30.65824, 62.20592 ], [ 30.60014, 62.13867 ], [ 30.35277, 61.98033 ], [ 30.31838, 61.94698 ], [ 30.1539155, 61.854286 ], [ 30.0509319, 61.8442764 ], [ 29.8039284, 61.77882 ], [ 29.5912037, 61.733223 ], [ 29.6879482, 61.7885132 ], [ 29.7118607, 61.8662224 ], [ 29.6284695, 61.9135017 ], [ 29.6714134, 61.9789085 ], [ 29.5147648, 62.0427055 ], [ 29.4701557, 62.0891342 ], [ 29.4025002, 62.2547874 ], [ 29.3202801, 62.336647 ], [ 29.2770882, 62.4134369 ], [ 29.0952969, 62.428627 ], [ 29.1286278, 62.4961166 ], [ 28.8178272, 62.6389694 ], [ 28.6745739, 62.6581879 ], [ 28.7122574, 62.6956711 ], [ 28.6539154, 62.7667389 ], [ 28.7288208, 62.7789307 ], [ 28.8134556, 62.8372612 ], [ 28.9378128, 62.7787743 ], [ 29.1036396, 62.8510628 ], [ 28.9538689, 62.9202385 ], [ 29.0700283, 63.0092545 ], [ 28.8703156, 63.0622559 ], [ 28.8371506, 63.104084 ], [ 28.7038212, 63.1874161 ], [ 28.6309834, 63.207962 ], [ 28.7623158, 63.329422 ], [ 28.7786522, 63.3839417 ], [ 28.6816921, 63.4309807 ], [ 28.6165943, 63.5338173 ], [ 28.6036491, 63.6627159 ], [ 28.5621548, 63.7040634 ], [ 28.4766159, 63.7023201 ], [ 28.3745842, 63.7581444 ], [ 28.5279655, 63.8800964 ], [ 28.8680248, 63.8462296 ], [ 29.2729702, 63.8533745 ], [ 29.6932487, 63.8839417 ], [ 29.736578, 63.7467575 ], [ 29.98095, 63.75448 ] ] ] ] } },
{ "type": "Feature", "properties": { "POLYGON_ID": "FIN_GAUL1999_ADM2_16220", "ADM0_ISO3": "FIN", "ADM0_NAME": "Finland", "ADM0_CODE": 84, "ADM1_NAME": "Eastern Finland", "ADM1_CODE": 1243, "ADM2_NAME": "Northern Savo", "ADM2_CODE": 16220, "GEOSET": "GAUL", "GEOSET_YEAR": 1999.0, "GEOSET_VERSION": "GAUL_v1", "GEOSET_UNIT": "ADM2", "CENTROID_LONG": 27.472701000335324, "CENTROID_LAT": 63.176145569913047 }, "geometry": { "type": "MultiPolygon", "coordinates": [ [ [ [ 28.3745842, 63.7581444 ], [ 28.4766159, 63.7023201 ], [ 28.5621548, 63.7040634 ], [ 28.6036491, 63.6627159 ], [ 28.6165943, 63.5338173 ], [ 28.6816921, 63.4309807 ], [ 28.7786522, 63.3839417 ], [ 28.7623158, 63.329422 ], [ 28.6309834, 63.207962 ], [ 28.7038212, 63.1874161 ], [ 28.8371506, 63.104084 ], [ 28.8703156, 63.0622559 ], [ 29.0700283, 63.0092545 ], [ 28.9538689, 62.9202385 ], [ 29.1036396, 62.8510628 ], [ 28.9378128, 62.7787743 ], [ 28.8134556, 62.8372612 ], [ 28.7288208, 62.7789307 ], [ 28.6539154, 62.7667389 ], [ 28.7122574, 62.6956711 ], [ 28.6745739, 62.6581879 ], [ 28.5371284, 62.5539055 ], [ 28.4365482, 62.579319 ], [ 28.3869152, 62.5040283 ], [ 28.2935429, 62.4720078 ], [ 28.2554512, 62.4321251 ], [ 28.3371735, 62.3791122 ], [ 28.0869751, 62.3141594 ], [ 28.0779018, 62.2859421 ], [ 27.8453751, 62.2789345 ], [ 27.5708675, 62.4577446 ], [ 27.3533669, 62.4954491 ], [ 27.1788826, 62.4791107 ], [ 27.1205521, 62.4956093 ], [ 26.9607544, 62.4457779 ], [ 26.8884201, 62.4830437 ], [ 26.7766418, 62.4257317 ], [ 26.7163181, 62.4498634 ], [ 26.6434441, 62.4534073 ], [ 26.4789867, 62.5240097 ], [ 26.6039925, 62.5955353 ], [ 26.6042366, 62.6436272 ], [ 26.4587593, 62.7883682 ], [ 26.3754215, 62.7520752 ], [ 26.247345, 62.8228149 ], [ 26.20368, 62.8671227 ], [ 26.0737553, 62.896637 ], [ 26.0535297, 62.9374771 ], [ 26.1381512, 62.954464 ], [ 26.3297844, 62.9591637 ], [ 26.2289963, 63.0351334 ], [ 26.2514534, 63.0746422 ], [ 26.1541443, 63.2048416 ], [ 26.1876621, 63.2455177 ], [ 26.0864563, 63.3619652 ], [ 26.1790104, 63.4371719 ], [ 26.1496735, 63.4581566 ], [ 26.195219, 63.5015106 ], [ 26.2119446, 63.5734024 ], [ 26.3043327, 63.5948982 ], [ 26.2335529, 63.8349648 ], [ 26.5910149, 63.977623 ], [ 26.866312, 64.0414658 ], [ 27.0269718, 64.0038986 ], [ 27.2565804, 63.9927368 ], [ 27.5790939, 63.954277 ], [ 27.7524681, 63.9135246 ], [ 27.9290791, 63.8542824 ], [ 28.2809906, 63.6709557 ], [ 28.3745842, 63.7581444 ] ] ] ] } },
{ "type": "Feature", "properties": { "POLYGON_ID": "FIN_GAUL1999_ADM2_16221", "ADM0_ISO3": "FIN", "ADM0_NAME": "Finland", "ADM0_CODE": 84, "ADM1_NAME": "Eastern Finland", "ADM1_CODE": 1243, "ADM2_NAME": "Southern Savo", "ADM2_CODE": 16221, "GEOSET": "GAUL", "GEOSET_YEAR": 1999.0, "GEOSET_VERSION": "GAUL_v1", "GEOSET_UNIT": "ADM2", "CENTROID_LONG": 27.882104861339922, "CENTROID_LAT": 61.906294921505207 }, "geometry": { "type": "MultiPolygon", "coordinates": [ [ [ [ 29.5912037, 61.733223 ], [ 29.5632839, 61.688446 ], [ 29.4118099, 61.6542931 ], [ 29.2369328, 61.5626526 ], [ 29.0850792, 61.5367699 ], [ 28.8290558, 61.53862 ], [ 28.8035126, 61.4778404 ], [ 28.6634903, 61.4663506 ], [ 28.4357357, 61.4891663 ], [ 28.4373436, 61.4621811 ], [ 28.2199497, 61.3719521 ], [ 27.8929672, 61.3497047 ], [ 27.7748966, 61.3654022 ], [ 27.6220264, 61.3530121 ], [ 27.3751793, 61.3985748 ], [ 27.1790104, 61.4048042 ], [ 27.1491394, 61.319458 ], [ 27.228651, 61.3364487 ], [ 27.3951664, 61.2131386 ], [ 27.3711262, 61.1720276 ], [ 27.2246318, 61.1665802 ], [ 27.0347538, 61.1555977 ], [ 26.9257412, 61.1806564 ], [ 26.938961, 61.2158394 ], [ 26.8638096, 61.2870216 ], [ 26.7532425, 61.2275391 ], [ 26.678051, 61.2485008 ], [ 26.6402283, 61.2953568 ], [ 26.5246582, 61.27491 ], [ 26.4894886, 61.3207779 ], [ 26.3958855, 61.3295631 ], [ 26.296093, 61.3734856 ], [ 26.3272419, 61.4013176 ], [ 26.2626591, 61.513649 ], [ 26.3071289, 61.541584 ], [ 26.324667, 61.6082306 ], [ 26.4138412, 61.6622353 ], [ 26.5201435, 61.62677 ], [ 26.542944, 61.703289 ], [ 26.4600105, 61.7817078 ], [ 26.3895054, 61.8149796 ], [ 26.3451061, 61.9514961 ], [ 26.4225197, 61.977478 ], [ 26.2340813, 62.1193771 ], [ 26.3102474, 62.1946259 ], [ 26.4697742, 62.2202377 ], [ 26.5548897, 62.2705421 ], [ 26.6885796, 62.3101311 ], [ 26.7781582, 62.3555603 ], [ 26.6880341, 62.4063797 ], [ 26.7163181, 62.4498634 ], [ 26.7766418, 62.4257317 ], [ 26.8884201, 62.4830437 ], [ 26.9607544, 62.4457779 ], [ 27.1205521, 62.4956093 ], [ 27.1788826, 62.4791107 ], [ 27.3533669, 62.4954491 ], [ 27.5708675, 62.4577446 ], [ 27.8453751, 62.2789345 ], [ 28.0779018, 62.2859421 ], [ 28.0869751, 62.3141594 ], [ 28.3371735, 62.3791122 ], [ 28.2554512, 62.4321251 ], [ 28.2935429, 62.4720078 ], [ 28.3869152, 62.5040283 ], [ 28.4365482, 62.579319 ], [ 28.5371284, 62.5539055 ], [ 28.6745739, 62.6581879 ], [ 28.8178272, 62.6389694 ], [ 29.1286278, 62.4961166 ], [ 29.0952969, 62.428627 ], [ 29.2770882, 62.4134369 ], [ 29.3202801, 62.336647 ], [ 29.4025002, 62.2547874 ], [ 29.4701557, 62.0891342 ], [ 29.5147648, 62.0427055 ], [ 29.6714134, 61.9789085 ], [ 29.6284695, 61.9135017 ], [ 29.7118607, 61.8662224 ], [ 29.6879482, 61.7885132 ], [ 29.5912037, 61.733223 ] ] ] ] } },
{ "type": "Feature", "properties": { "POLYGON_ID": "FIN_GAUL1999_ADM2_16222", "ADM0_ISO3": "FIN", "ADM0_NAME": "Finland", "ADM0_CODE": 84, "ADM1_NAME": "Lapland", "ADM1_CODE": 1244, "ADM2_NAME": "Lapland", "ADM2_CODE": 16222, "GEOSET": "GAUL", "GEOSET_YEAR": 1999.0, "GEOSET_VERSION": "GAUL_v1", "GEOSET_UNIT": "ADM2", "CENTROID_LONG": 26.332319367355524, "CENTROID_LAT": 67.734463064593925 }, "geometry": { "type": "MultiPolygon", "coordinates": [ [ [ [ 28.35262, 69.88127 ], [ 28.3526204, 69.881264 ], [ 28.353908, 69.8608012 ], [ 28.42846, 69.82108 ], [ 29.1350881, 69.6968903 ], [ 29.13717, 69.6766 ], [ 29.3361695, 69.4844296 ], [ 29.22331, 69.41059 ], [ 28.82457, 69.22921 ], [ 28.80774, 69.12741 ], [ 28.926929, 69.0573803 ], [ 28.43475, 68.90842 ], [ 28.50067, 68.88215 ], [ 28.80354, 68.87493 ], [ 28.71842, 68.73946 ], [ 28.45037, 68.54767 ], [ 28.65979, 68.19511 ], [ 29.33467, 68.07471 ], [ 29.57367, 67.87768 ], [ 29.69452, 67.79375 ], [ 30.0345284, 67.669363 ], [ 29.95916, 67.51733 ], [ 29.5395198, 67.3029478 ], [ 29.5402287, 67.2877392 ], [ 29.05188, 66.97675 ], [ 29.02974, 66.91658 ], [ 29.08628, 66.82427 ], [ 29.3647174, 66.6230546 ], [ 29.4768, 66.54175 ], [ 29.5697512, 66.4410934 ], [ 29.2785568, 66.4373627 ], [ 29.2677269, 66.4144135 ], [ 28.7081509, 66.4907608 ], [ 28.6800747, 66.4186707 ], [ 28.5667267, 66.3875122 ], [ 28.552494, 66.3331985 ], [ 28.6028404, 66.278862 ], [ 28.7623596, 66.265358 ], [ 28.7789059, 66.1870575 ], [ 28.7291336, 66.13974 ], [ 28.6254578, 66.1287079 ], [ 28.6535702, 66.0787277 ], [ 28.7625694, 66.0120926 ], [ 28.5286293, 66.0123901 ], [ 28.3788357, 65.9731216 ], [ 28.5184536, 65.8998489 ], [ 28.5285397, 65.8563004 ], [ 28.2388802, 65.808548 ], [ 27.9455166, 65.8296585 ], [ 27.7785606, 65.8308563 ], [ 27.6868725, 65.9296494 ], [ 27.552887, 65.9289703 ], [ 27.4550762, 65.9668808 ], [ 27.0863876, 65.7369919 ], [ 26.8788795, 65.7121429 ], [ 26.3488903, 65.7207489 ], [ 26.1699142, 65.7373734 ], [ 26.1352615, 65.8204346 ], [ 25.8705883, 65.762146 ], [ 25.7154694, 65.7452393 ], [ 25.445385, 65.7507553 ], [ 25.3677673, 65.7348557 ], [ 25.1358776, 65.6110764 ], [ 25.148386, 65.5671539 ], [ 25.0498848, 65.6218567 ], [ 24.7964001, 65.656723 ], [ 24.6598625, 65.6932068 ], [ 24.490675, 65.7738571 ], [ 24.1559467, 65.8181915 ], [ 24.11577, 65.91915 ], [ 24.04293, 65.95727 ], [ 24.039488, 66.0041415 ], [ 23.94317, 66.08337 ], [ 23.93236, 66.14997 ], [ 23.8547681, 66.1725004 ], [ 23.71929, 66.22298 ], [ 23.65543, 66.30673 ], [ 23.68176, 66.38096 ], [ 23.64264, 66.43592 ], [ 23.88902, 66.57289 ], [ 23.87942, 66.6372 ], [ 23.91309, 66.71933 ], [ 23.89436, 66.75929 ], [ 24.01105, 66.83047 ], [ 23.8935089, 66.9126282 ], [ 23.65581, 67.1209 ], [ 23.5792, 67.16257 ], [ 23.62447, 67.27 ], [ 23.75868, 67.2827 ], [ 23.8129559, 67.3327617 ], [ 23.76509, 67.36315 ], [ 23.78639, 67.42785 ], [ 23.57786, 67.46326 ], [ 23.44128, 67.46446 ], [ 23.4142, 67.50867 ], [ 23.52426, 67.57906 ], [ 23.55627, 67.62753 ], [ 23.48264, 67.72407 ], [ 23.50636, 67.87086 ], [ 23.66198, 67.93673 ], [ 23.55347, 68.00823 ], [ 23.40711, 68.04613 ], [ 23.29587, 68.15262 ], [ 23.17183, 68.13301 ], [ 23.1508464, 68.2425611 ], [ 23.0567, 68.30737 ], [ 22.86933, 68.35714 ], [ 22.3405889, 68.4740402 ], [ 22.03763, 68.48077 ], [ 21.90454, 68.57627 ], [ 21.72017, 68.5881 ], [ 21.7092754, 68.6232425 ], [ 21.58133, 68.67075 ], [ 21.41859, 68.69938 ], [ 21.39353, 68.75533 ], [ 21.30185, 68.76329 ], [ 21.14214, 68.85598 ], [ 20.84878, 68.93126 ], [ 20.91083, 68.96488 ], [ 20.76468, 69.03792 ], [ 20.5573196, 69.0625 ], [ 20.72051, 69.12137 ], [ 21.06034, 69.04433 ], [ 21.12806, 69.10396 ], [ 21.06814, 69.1232 ], [ 21.0246499, 69.2231679 ], [ 21.28713, 69.30796 ], [ 21.64404, 69.27008 ], [ 21.9605188, 69.0824587 ], [ 22.17474, 68.96124 ], [ 22.19843, 68.91603 ], [ 22.33649, 68.83197 ], [ 22.37394, 68.72049 ], [ 22.52133, 68.74408 ], [ 22.79832, 68.69112 ], [ 23.04156, 68.69703 ], [ 23.16076, 68.62904 ], [ 23.44614, 68.69742 ], [ 23.6645, 68.71335 ], [ 23.76792, 68.82236 ], [ 23.87403, 68.83944 ], [ 24.15247, 68.79659 ], [ 24.14114, 68.75901 ], [ 24.30467, 68.72765 ], [ 24.65309, 68.68356 ], [ 24.91608, 68.60983 ], [ 25.1239993, 68.646301 ], [ 25.14213, 68.79647 ], [ 25.3917297, 68.8865599 ], [ 25.48854, 68.90555 ], [ 25.62456, 68.8898 ], [ 25.7834076, 69.0202587 ], [ 25.70682, 69.20571 ], [ 25.7556594, 69.3369686 ], [ 25.83692, 69.3927 ], [ 25.80655, 69.43357 ], [ 25.8679994, 69.4828406 ], [ 25.85059, 69.54704 ], [ 25.95041, 69.5805 ], [ 25.96388, 69.64661 ], [ 25.90225, 69.67165 ], [ 25.99712, 69.72194 ], [ 26.16373, 69.75363 ], [ 26.2584198, 69.8150865 ], [ 26.39593, 69.8616 ], [ 26.46471, 69.93912 ], [ 26.68259, 69.96568 ], [ 26.84919, 69.96153 ], [ 27.0379, 69.91027 ], [ 27.26779, 69.95513 ], [ 27.27167, 69.98145 ], [ 27.53562, 70.03682 ], [ 27.58264, 70.07545 ], [ 27.76109, 70.06886 ], [ 27.9777889, 70.0926203 ], [ 28.00158, 70.02195 ], [ 28.11798, 69.95331 ], [ 28.35262, 69.88127 ] ] ] ] } },
{ "type": "Feature", "properties": { "POLYGON_ID": "FIN_GAUL1999_ADM2_16223", "ADM0_ISO3": "FIN", "ADM0_NAME": "Finland", "ADM0_CODE": 84, "ADM1_NAME": "Oulu", "ADM1_CODE": 1245, "ADM2_NAME": "Kainuu", "ADM2_CODE": 16223, "GEOSET": "GAUL", "GEOSET_YEAR": 1999.0, "GEOSET_VERSION": "GAUL_v1", "GEOSET_UNIT": "ADM2", "CENTROID_LONG": 28.587159253569936, "CENTROID_LAT": 64.52554000371623 }, "geometry": { "type": "MultiPolygon", "coordinates": [ [ [ [ 29.7653884, 65.4950176 ], [ 29.74303, 65.39013 ], [ 29.7685788, 65.3340995 ], [ 29.61862, 65.27339 ], [ 29.65769, 65.22775 ], [ 29.87759, 65.21326 ], [ 29.82288, 65.14042 ], [ 29.8928584, 65.1034396 ], [ 29.7379, 65.09008 ], [ 29.62285, 65.0591587 ], [ 29.59626, 64.98994 ], [ 29.63269, 64.89017 ], [ 29.7544, 64.78806 ], [ 30.04565, 64.79217 ], [ 30.093449, 64.7679509 ], [ 30.05711, 64.71081 ], [ 30.14299, 64.65276 ], [ 30.01828, 64.59172 ], [ 30.01267, 64.51774 ], [ 30.06498, 64.45602 ], [ 30.05301, 64.40425 ], [ 30.11998, 64.35917 ], [ 30.2584, 64.33579 ], [ 30.36952, 64.27724 ], [ 30.48496, 64.25491 ], [ 30.47269, 64.19765 ], [ 30.5503, 64.1259 ], [ 30.5261673, 64.049087 ], [ 30.3211, 63.90189 ], [ 30.23982, 63.81827 ], [ 29.98095, 63.75448 ], [ 29.736578, 63.7467575 ], [ 29.6932487, 63.8839417 ], [ 29.2729702, 63.8533745 ], [ 28.8680248, 63.8462296 ], [ 28.5279655, 63.8800964 ], [ 28.3745842, 63.7581444 ], [ 28.2809906, 63.6709557 ], [ 27.9290791, 63.8542824 ], [ 27.7524681, 63.9135246 ], [ 27.5790939, 63.954277 ], [ 27.2565804, 63.9927368 ], [ 27.0269718, 64.0038986 ], [ 26.866312, 64.0414658 ], [ 26.7869301, 64.0640717 ], [ 26.7789021, 64.2623749 ], [ 26.695097, 64.2807693 ], [ 26.695385, 64.3213806 ], [ 26.5610828, 64.3220901 ], [ 26.477356, 64.3583145 ], [ 26.432476, 64.4326706 ], [ 26.299799, 64.4854431 ], [ 26.4710522, 64.571022 ], [ 26.545599, 64.5695038 ], [ 26.6152058, 64.6163025 ], [ 26.8545437, 64.6708603 ], [ 26.920393, 64.762352 ], [ 27.1546898, 64.838356 ], [ 27.3655396, 64.8179398 ], [ 27.4076252, 64.8550644 ], [ 27.4122581, 64.9289169 ], [ 27.3688145, 64.9803467 ], [ 27.2705574, 65.0295105 ], [ 27.3470478, 65.096489 ], [ 27.5757465, 65.0966339 ], [ 27.6820602, 65.1238785 ], [ 27.9125214, 65.1040192 ], [ 27.9586411, 65.2026138 ], [ 28.0426941, 65.2433929 ], [ 28.5639038, 65.2878037 ], [ 28.6619873, 65.3956604 ], [ 28.9448795, 65.4472046 ], [ 29.1055584, 65.4458694 ], [ 29.2899055, 65.5288239 ], [ 29.5203896, 65.4954758 ], [ 29.7653884, 65.4950176 ] ] ] ] } },
{ "type": "Feature", "properties": { "POLYGON_ID": "FIN_GAUL1999_ADM2_16224", "ADM0_ISO3": "FIN", "ADM0_NAME": "Finland", "ADM0_CODE": 84, "ADM1_NAME": "Oulu", "ADM1_CODE": 1245, "ADM2_NAME": "Northern Ostrobothnia", "ADM2_CODE": 16224, "GEOSET": "GAUL", "GEOSET_YEAR": 1999.0, "GEOSET_VERSION": "GAUL_v1", "GEOSET_UNIT": "ADM2", "CENTROID_LONG": 26.636071000026966, "CENTROID_LAT": 64.97432379863946 }, "geometry": { "type": "MultiPolygon", "coordinates": [ [ [ [ 29.5697512, 66.4410934 ], [ 29.66985, 66.29195 ], [ 29.91758, 66.12783 ], [ 30.06469, 65.9133899 ], [ 30.12778, 65.73491 ], [ 30.12272, 65.6645 ], [ 30.00663, 65.68992 ], [ 29.73441, 65.62791 ], [ 29.8812158, 65.5640975 ], [ 29.7653884, 65.4950176 ], [ 29.5203896, 65.4954758 ], [ 29.2899055, 65.5288239 ], [ 29.1055584, 65.4458694 ], [ 28.9448795, 65.4472046 ], [ 28.6619873, 65.3956604 ], [ 28.5639038, 65.2878037 ], [ 28.0426941, 65.2433929 ], [ 27.9586411, 65.2026138 ], [ 27.9125214, 65.1040192 ], [ 27.6820602, 65.1238785 ], [ 27.5757465, 65.0966339 ], [ 27.3470478, 65.096489 ], [ 27.2705574, 65.0295105 ], [ 27.3688145, 64.9803467 ], [ 27.4122581, 64.9289169 ], [ 27.4076252, 64.8550644 ], [ 27.3655396, 64.8179398 ], [ 27.1546898, 64.838356 ], [ 26.920393, 64.762352 ], [ 26.8545437, 64.6708603 ], [ 26.6152058, 64.6163025 ], [ 26.545599, 64.5695038 ], [ 26.4710522, 64.571022 ], [ 26.299799, 64.4854431 ], [ 26.432476, 64.4326706 ], [ 26.477356, 64.3583145 ], [ 26.5610828, 64.3220901 ], [ 26.695385, 64.3213806 ], [ 26.695097, 64.2807693 ], [ 26.7789021, 64.2623749 ], [ 26.7869301, 64.0640717 ], [ 26.866312, 64.0414658 ], [ 26.5910149, 63.977623 ], [ 26.2335529, 63.8349648 ], [ 26.3043327, 63.5948982 ], [ 26.2119446, 63.5734024 ], [ 26.195219, 63.5015106 ], [ 26.1496735, 63.4581566 ], [ 26.0016918, 63.4349289 ], [ 25.9091606, 63.4385986 ], [ 25.8290405, 63.4962006 ], [ 25.7373486, 63.520813 ], [ 25.4971867, 63.5317917 ], [ 25.2683487, 63.6127243 ], [ 25.148468, 63.5805359 ], [ 25.1207066, 63.5038261 ], [ 25.0330524, 63.4581566 ], [ 24.8133297, 63.5987892 ], [ 24.6327496, 63.6536636 ], [ 24.5603485, 63.696888 ], [ 24.4401627, 63.8431435 ], [ 24.2549801, 63.8762207 ], [ 24.1780167, 63.9456177 ], [ 24.0569553, 64.0904617 ], [ 23.9454365, 64.1038055 ], [ 23.7892323, 64.1501389 ], [ 23.6917343, 64.1624298 ], [ 23.7013969, 64.2209778 ], [ 23.8152065, 64.2366638 ], [ 23.9192047, 64.2852173 ], [ 24.0316582, 64.4171219 ], [ 24.2933006, 64.5006714 ], [ 24.380373, 64.5527725 ], [ 24.3841572, 64.6097946 ], [ 24.443512, 64.6923523 ], [ 24.5663452, 64.7313309 ], [ 24.578949, 64.7932587 ], [ 24.7597771, 64.8778534 ], [ 24.9325466, 64.8822021 ], [ 25.0096569, 64.9149551 ], [ 25.1279297, 64.9199829 ], [ 25.2178841, 64.8722229 ], [ 25.3778362, 64.8815308 ], [ 25.1954956, 64.9779434 ], [ 25.3215866, 64.9927368 ], [ 25.4222088, 64.9498901 ], [ 25.4841385, 64.9545975 ], [ 25.3595753, 65.1080856 ], [ 25.2322102, 65.124176 ], [ 25.2874184, 65.2342072 ], [ 25.3293724, 65.2656479 ], [ 25.2359028, 65.3334122 ], [ 25.2681541, 65.3760147 ], [ 25.3642063, 65.4192505 ], [ 25.3199043, 65.4831619 ], [ 25.148386, 65.5671539 ], [ 25.1358776, 65.6110764 ], [ 25.3677673, 65.7348557 ], [ 25.445385, 65.7507553 ], [ 25.7154694, 65.7452393 ], [ 25.8705883, 65.762146 ], [ 26.1352615, 65.8204346 ], [ 26.1699142, 65.7373734 ], [ 26.3488903, 65.7207489 ], [ 26.8788795, 65.7121429 ], [ 27.0863876, 65.7369919 ], [ 27.4550762, 65.9668808 ], [ 27.552887, 65.9289703 ], [ 27.6868725, 65.9296494 ], [ 27.7785606, 65.8308563 ], [ 27.9455166, 65.8296585 ], [ 28.2388802, 65.808548 ], [ 28.5285397, 65.8563004 ], [ 28.5184536, 65.8998489 ], [ 28.3788357, 65.9731216 ], [ 28.5286293, 66.0123901 ], [ 28.7625694, 66.0120926 ], [ 28.6535702, 66.0787277 ], [ 28.6254578, 66.1287079 ], [ 28.7291336, 66.13974 ], [ 28.7789059, 66.1870575 ], [ 28.7623596, 66.265358 ], [ 28.6028404, 66.278862 ], [ 28.552494, 66.3331985 ], [ 28.5667267, 66.3875122 ], [ 28.6800747, 66.4186707 ], [ 28.7081509, 66.4907608 ], [ 29.2677269, 66.4144135 ], [ 29.2785568, 66.4373627 ], [ 29.5697512, 66.4410934 ] ] ], [ [ [ 24.8648148, 65.0888596 ], [ 24.9255466, 65.0348969 ], [ 24.8585148, 64.9651642 ], [ 24.6402054, 64.9638824 ], [ 24.5592232, 65.0415268 ], [ 24.6494198, 65.0827408 ], [ 24.8648148, 65.0888596 ] ] ] ] } },
{ "type": "Feature", "properties": { "POLYGON_ID": "FIN_GAUL1999_ADM2_16225", "ADM0_ISO3": "FIN", "ADM0_NAME": "Finland", "ADM0_CODE": 84, "ADM1_NAME": "Southern Finland", "ADM1_CODE": 1246, "ADM2_NAME": "Hame", "ADM2_CODE": 16225, "GEOSET": "GAUL", "GEOSET_YEAR": 1999.0, "GEOSET_VERSION": "GAUL_v1", "GEOSET_UNIT": "ADM2", "CENTROID_LONG": 24.330911853489098, "CENTROID_LAT": 60.918955735241383 }, "geometry": { "type": "MultiPolygon", "coordinates": [ [ [ [ 25.1163826, 60.8165932 ], [ 25.1703129, 60.7773628 ], [ 25.1796894, 60.720665 ], [ 24.8905392, 60.654335 ], [ 24.8196735, 60.671402 ], [ 24.7488785, 60.6459999 ], [ 24.6109333, 60.6673851 ], [ 24.5624714, 60.6223106 ], [ 24.5502605, 60.5600967 ], [ 24.4316101, 60.5530243 ], [ 24.4129181, 60.594574 ], [ 24.0186157, 60.6463966 ], [ 23.8997631, 60.6499329 ], [ 23.6944733, 60.6607361 ], [ 23.5727177, 60.6957664 ], [ 23.5014572, 60.7532272 ], [ 23.3382149, 60.7180595 ], [ 23.1638927, 60.7720947 ], [ 23.2059097, 60.8220711 ], [ 23.1377544, 60.8874474 ], [ 23.2711964, 60.8953018 ], [ 23.3034935, 60.9518089 ], [ 23.1997929, 60.9999199 ], [ 23.2664566, 61.0249176 ], [ 23.5167809, 60.9963951 ], [ 23.733572, 61.0090485 ], [ 23.8297424, 61.0016594 ], [ 23.8764057, 61.0762711 ], [ 24.0369492, 61.1210594 ], [ 24.1460056, 61.1280441 ], [ 24.2549515, 61.156147 ], [ 24.3200836, 61.2351074 ], [ 24.4364491, 61.2581253 ], [ 24.5740929, 61.3072395 ], [ 24.6381702, 61.2825127 ], [ 24.7796402, 61.269207 ], [ 24.886982, 61.2858582 ], [ 24.9163895, 61.3249054 ], [ 24.9372234, 61.2855606 ], [ 25.0350399, 61.2508888 ], [ 25.2003326, 61.2421951 ], [ 25.2625675, 61.1876907 ], [ 25.2544727, 61.1258354 ], [ 25.210247, 61.0820122 ], [ 25.0543137, 61.0469284 ], [ 25.062748, 60.984993 ], [ 25.0112667, 60.9288445 ], [ 25.1015129, 60.9196396 ], [ 25.1163826, 60.8165932 ] ] ] ] } },
{ "type": "Feature", "properties": { "POLYGON_ID": "FIN_GAUL1999_ADM2_16226", "ADM0_ISO3": "FIN", "ADM0_NAME": "Finland", "ADM0_CODE": 84, "ADM1_NAME": "Southern Finland", "ADM1_CODE": 1246, "ADM2_NAME": "Ita-uusimaa", "ADM2_CODE": 16226, "GEOSET": "GAUL", "GEOSET_YEAR": 1999.0, "GEOSET_VERSION": "GAUL_v1", "GEOSET_UNIT": "ADM2", "CENTROID_LONG": 25.8480572606991, "CENTROID_LAT": 60.501294469728698 }, "geometry": { "type": "MultiPolygon", "coordinates": [ [ [ [ 26.445715, 60.4936256 ], [ 26.4609032, 60.4315109 ], [ 26.41082, 60.3988037 ], [ 26.3039017, 60.4165497 ], [ 26.1727219, 60.3965988 ], [ 26.0390835, 60.4179955 ], [ 26.0227757, 60.3352623 ], [ 25.9371853, 60.3607941 ], [ 25.8628521, 60.3232574 ], [ 25.8497334, 60.2694054 ], [ 25.7757225, 60.2481537 ], [ 25.6746979, 60.2763023 ], [ 25.6288719, 60.3499451 ], [ 25.5559807, 60.3155174 ], [ 25.50494, 60.2584343 ], [ 25.2102757, 60.2556496 ], [ 25.1914291, 60.2257156 ], [ 25.1946888, 60.2809639 ], [ 25.1548958, 60.3372955 ], [ 25.1587257, 60.4766808 ], [ 25.2356224, 60.5014839 ], [ 25.3673878, 60.4044189 ], [ 25.4698792, 60.4172134 ], [ 25.5130539, 60.4522476 ], [ 25.4477959, 60.481369 ], [ 25.4171257, 60.5409546 ], [ 25.5209122, 60.5796623 ], [ 25.4362679, 60.6699028 ], [ 25.5330315, 60.7082634 ], [ 25.614769, 60.6728134 ], [ 25.7234783, 60.7150726 ], [ 25.7788563, 60.7068901 ], [ 25.9224987, 60.7385559 ], [ 26.1442413, 60.6879692 ], [ 26.2305222, 60.722641 ], [ 26.2246704, 60.7582626 ], [ 26.3125248, 60.746048 ], [ 26.3618069, 60.6621323 ], [ 26.4595451, 60.6451378 ], [ 26.560421, 60.5949059 ], [ 26.5180969, 60.5245667 ], [ 26.445715, 60.4936256 ] ] ] ] } },
{ "type": "Feature", "properties": { "POLYGON_ID": "FIN_GAUL1999_ADM2_16227", "ADM0_ISO3": "FIN", "ADM0_NAME": "Finland", "ADM0_CODE": 84, "ADM1_NAME": "Southern Finland", "ADM1_CODE": 1246, "ADM2_NAME": "Kymenlaakso", "ADM2_CODE": 16227, "GEOSET": "GAUL", "GEOSET_YEAR": 1999.0, "GEOSET_VERSION": "GAUL_v1", "GEOSET_UNIT": "ADM2", "CENTROID_LONG": 26.897133763436752, "CENTROID_LAT": 60.829147031910331 }, "geometry": { "type": "MultiPolygon", "coordinates": [ [ [ [ 27.2246318, 61.1665802 ], [ 27.15625, 61.0569267 ], [ 27.1709919, 61.0036736 ], [ 27.2620468, 60.9681892 ], [ 27.153717, 60.9456711 ], [ 27.2030678, 60.912674 ], [ 27.3554001, 60.890564 ], [ 27.5093403, 60.8020821 ], [ 27.7205276, 60.795845 ], [ 27.7366104, 60.7626953 ], [ 27.8703213, 60.7640419 ], [ 27.9203529, 60.6956825 ], [ 27.9929576, 60.6662151 ], [ 27.8018017, 60.5494003 ], [ 27.7298031, 60.5659828 ], [ 27.7344799, 60.4889565 ], [ 27.6049252, 60.4783287 ], [ 27.5089417, 60.5029945 ], [ 27.2262974, 60.5126457 ], [ 27.0678139, 60.5351181 ], [ 26.9825382, 60.4914742 ], [ 26.9163666, 60.4921646 ], [ 26.6700611, 60.4285126 ], [ 26.6261845, 60.4607086 ], [ 26.5096073, 60.4514961 ], [ 26.445715, 60.4936256 ], [ 26.5180969, 60.5245667 ], [ 26.560421, 60.5949059 ], [ 26.4595451, 60.6451378 ], [ 26.3618069, 60.6621323 ], [ 26.3125248, 60.746048 ], [ 26.2246704, 60.7582626 ], [ 26.1863232, 60.8197632 ], [ 26.0874863, 60.8518562 ], [ 26.1785297, 60.9287567 ], [ 26.0709591, 60.9377441 ], [ 26.1368656, 61.0210609 ], [ 26.0541534, 61.1178703 ], [ 26.144392, 61.1551857 ], [ 26.1904984, 61.1326599 ], [ 26.3815403, 61.1802139 ], [ 26.4590416, 61.2663231 ], [ 26.5246582, 61.27491 ], [ 26.6402283, 61.2953568 ], [ 26.678051, 61.2485008 ], [ 26.7532425, 61.2275391 ], [ 26.8638096, 61.2870216 ], [ 26.938961, 61.2158394 ], [ 26.9257412, 61.1806564 ], [ 27.0347538, 61.1555977 ], [ 27.2246318, 61.1665802 ] ] ] ] } },
{ "type": "Feature", "properties": { "POLYGON_ID": "FIN_GAUL1999_ADM2_16228", "ADM0_ISO3": "FIN", "ADM0_NAME": "Finland", "ADM0_CODE": 84, "ADM1_NAME": "Southern Finland", "ADM1_CODE": 1246, "ADM2_NAME": "Paijat-hame", "ADM2_CODE": 16228, "GEOSET": "GAUL", "GEOSET_YEAR": 1999.0, "GEOSET_VERSION": "GAUL_v1", "GEOSET_UNIT": "ADM2", "CENTROID_LONG": 25.711458960361114, "CENTROID_LAT": 61.211215493200541 }, "geometry": { "type": "MultiPolygon", "coordinates": [ [ [ [ 26.324667, 61.6082306 ], [ 26.3071289, 61.541584 ], [ 26.2626591, 61.513649 ], [ 26.3272419, 61.4013176 ], [ 26.296093, 61.3734856 ], [ 26.3958855, 61.3295631 ], [ 26.4894886, 61.3207779 ], [ 26.5246582, 61.27491 ], [ 26.4590416, 61.2663231 ], [ 26.3815403, 61.1802139 ], [ 26.1904984, 61.1326599 ], [ 26.144392, 61.1551857 ], [ 26.0541534, 61.1178703 ], [ 26.1368656, 61.0210609 ], [ 26.0709591, 60.9377441 ], [ 26.1785297, 60.9287567 ], [ 26.0874863, 60.8518562 ], [ 26.1863232, 60.8197632 ], [ 26.2246704, 60.7582626 ], [ 26.2305222, 60.722641 ], [ 26.1442413, 60.6879692 ], [ 25.9224987, 60.7385559 ], [ 25.7788563, 60.7068901 ], [ 25.7234783, 60.7150726 ], [ 25.614769, 60.6728134 ], [ 25.5330315, 60.7082634 ], [ 25.5030804, 60.776123 ], [ 25.3060799, 60.7596779 ], [ 25.1897278, 60.8203239 ], [ 25.1163826, 60.8165932 ], [ 25.1015129, 60.9196396 ], [ 25.0112667, 60.9288445 ], [ 25.062748, 60.984993 ], [ 25.0543137, 61.0469284 ], [ 25.210247, 61.0820122 ], [ 25.2544727, 61.1258354 ], [ 25.2625675, 61.1876907 ], [ 25.2003326, 61.2421951 ], [ 25.0350399, 61.2508888 ], [ 24.9372234, 61.2855606 ], [ 24.9163895, 61.3249054 ], [ 24.9136581, 61.4179497 ], [ 24.9663887, 61.4582367 ], [ 25.1968784, 61.4796333 ], [ 25.448616, 61.4884491 ], [ 25.5127869, 61.6211281 ], [ 25.5116062, 61.6789627 ], [ 25.599844, 61.6778679 ], [ 25.6728725, 61.7206421 ], [ 25.7795448, 61.6959343 ], [ 25.8426304, 61.7694435 ], [ 25.9801559, 61.761879 ], [ 26.0734692, 61.6743851 ], [ 26.1959057, 61.6463127 ], [ 26.3207531, 61.645649 ], [ 26.324667, 61.6082306 ] ] ] ] } },
{ "type": "Feature", "properties": { "POLYGON_ID": "FIN_GAUL1999_ADM2_16229", "ADM0_ISO3": "FIN", "ADM0_NAME": "Finland", "ADM0_CODE": 84, "ADM1_NAME": "Southern Finland", "ADM1_CODE": 1246, "ADM2_NAME": "South Karelia", "ADM2_CODE": 16229, "GEOSET": "GAUL", "GEOSET_YEAR": 1999.0, "GEOSET_VERSION": "GAUL_v1", "GEOSET_UNIT": "ADM2", "CENTROID_LONG": 28.339570411374037, "CENTROID_LAT": 61.207648728827479 }, "geometry": { "type": "MultiPolygon", "coordinates": [ [ [ [ 30.1539155, 61.854286 ], [ 30.0581797, 61.8014965 ], [ 30.0464, 61.76626 ], [ 29.87684, 61.68771 ], [ 29.75474, 61.60138 ], [ 29.74728, 61.57239 ], [ 29.62898, 61.49768 ], [ 29.50283, 61.48852 ], [ 29.49095, 61.44613 ], [ 29.33398, 61.35296 ], [ 29.26951, 61.29821 ], [ 29.2676138, 61.2967504 ], [ 29.24556, 61.27342 ], [ 28.82885, 61.12583 ], [ 28.72927, 61.05515 ], [ 28.65571, 60.95273 ], [ 28.52766, 60.95329 ], [ 28.23471, 60.78713 ], [ 28.17463, 60.77579 ], [ 27.9929576, 60.6662151 ], [ 27.9203529, 60.6956825 ], [ 27.8703213, 60.7640419 ], [ 27.7366104, 60.7626953 ], [ 27.7205276, 60.795845 ], [ 27.5093403, 60.8020821 ], [ 27.3554001, 60.890564 ], [ 27.2030678, 60.912674 ], [ 27.153717, 60.9456711 ], [ 27.2620468, 60.9681892 ], [ 27.1709919, 61.0036736 ], [ 27.15625, 61.0569267 ], [ 27.2246318, 61.1665802 ], [ 27.3711262, 61.1720276 ], [ 27.3951664, 61.2131386 ], [ 27.228651, 61.3364487 ], [ 27.1491394, 61.319458 ], [ 27.1790104, 61.4048042 ], [ 27.3751793, 61.3985748 ], [ 27.6220264, 61.3530121 ], [ 27.7748966, 61.3654022 ], [ 27.8929672, 61.3497047 ], [ 28.2199497, 61.3719521 ], [ 28.4373436, 61.4621811 ], [ 28.4357357, 61.4891663 ], [ 28.6634903, 61.4663506 ], [ 28.8035126, 61.4778404 ], [ 28.8290558, 61.53862 ], [ 29.0850792, 61.5367699 ], [ 29.2369328, 61.5626526 ], [ 29.4118099, 61.6542931 ], [ 29.5632839, 61.688446 ], [ 29.5912037, 61.733223 ], [ 29.8039284, 61.77882 ], [ 30.0509319, 61.8442764 ], [ 30.1539155, 61.854286 ] ] ] ] } },
{ "type": "Feature", "properties": { "POLYGON_ID": "FIN_GAUL1999_ADM2_16230", "ADM0_ISO3": "FIN", "ADM0_NAME": "Finland", "ADM0_CODE": 84, "ADM1_NAME": "Southern Finland", "ADM1_CODE": 1246, "ADM2_NAME": "Uusimaa", "ADM2_CODE": 16230, "GEOSET": "GAUL", "GEOSET_YEAR": 1999.0, "GEOSET_VERSION": "GAUL_v1", "GEOSET_UNIT": "ADM2", "CENTROID_LONG": 24.326016782663991, "CENTROID_LAT": 60.315425408051389 }, "geometry": { "type": "MultiPolygon", "coordinates": [ [ [ [ 25.5330315, 60.7082634 ], [ 25.4362679, 60.6699028 ], [ 25.5209122, 60.5796623 ], [ 25.4171257, 60.5409546 ], [ 25.4477959, 60.481369 ], [ 25.5130539, 60.4522476 ], [ 25.4698792, 60.4172134 ], [ 25.3673878, 60.4044189 ], [ 25.2356224, 60.5014839 ], [ 25.1587257, 60.4766808 ], [ 25.1548958, 60.3372955 ], [ 25.1946888, 60.2809639 ], [ 25.1914291, 60.2257156 ], [ 25.1850758, 60.1958656 ], [ 24.8440742, 60.1773567 ], [ 24.7237396, 60.1100502 ], [ 24.6297035, 60.0786896 ], [ 24.5211487, 60.0080147 ], [ 24.3633556, 60.0245399 ], [ 24.3826904, 60.07967 ], [ 24.3127518, 60.0872879 ], [ 24.2079353, 60.0283318 ], [ 23.9673786, 60.0202026 ], [ 23.7273064, 59.9389839 ], [ 23.3837261, 59.9349518 ], [ 23.2398548, 59.897007 ], [ 23.2485371, 59.8436165 ], [ 23.0685673, 59.8243446 ], [ 22.9915943, 59.848484 ], [ 23.1656895, 59.8988266 ], [ 23.0652065, 59.918396 ], [ 22.9063416, 59.9140129 ], [ 22.8677769, 59.9710312 ], [ 22.9468193, 59.990799 ], [ 23.0432587, 60.0609055 ], [ 23.0319691, 60.1023178 ], [ 23.1345787, 60.096508 ], [ 23.3202209, 60.170723 ], [ 23.4807739, 60.1710243 ], [ 23.5575466, 60.2052994 ], [ 23.6567478, 60.1967239 ], [ 23.6287937, 60.2619591 ], [ 23.7240715, 60.2964134 ], [ 23.7370987, 60.3625984 ], [ 23.7960968, 60.3874283 ], [ 23.7951317, 60.4451141 ], [ 23.7233753, 60.4864006 ], [ 23.8760529, 60.4997063 ], [ 23.8536549, 60.5542336 ], [ 23.9272747, 60.6016502 ], [ 23.8997631, 60.6499329 ], [ 24.0186157, 60.6463966 ], [ 24.4129181, 60.594574 ], [ 24.4316101, 60.5530243 ], [ 24.5502605, 60.5600967 ], [ 24.5624714, 60.6223106 ], [ 24.6109333, 60.6673851 ], [ 24.7488785, 60.6459999 ], [ 24.8196735, 60.671402 ], [ 24.8905392, 60.654335 ], [ 25.1796894, 60.720665 ], [ 25.1703129, 60.7773628 ], [ 25.1163826, 60.8165932 ], [ 25.1897278, 60.8203239 ], [ 25.3060799, 60.7596779 ], [ 25.5030804, 60.776123 ], [ 25.5330315, 60.7082634 ] ] ] ] } },
{ "type": "Feature", "properties": { "POLYGON_ID": "FIN_GAUL1999_ADM2_16231", "ADM0_ISO3": "FIN", "ADM0_NAME": "Finland", "ADM0_CODE": 84, "ADM1_NAME": "Western Finland", "ADM1_CODE": 1247, "ADM2_NAME": "Central Finland", "ADM2_CODE": 16231, "GEOSET": "GAUL", "GEOSET_YEAR": 1999.0, "GEOSET_VERSION": "GAUL_v1", "GEOSET_UNIT": "ADM2", "CENTROID_LONG": 25.448538106873968, "CENTROID_LAT": 62.54057700381442 }, "geometry": { "type": "MultiPolygon", "coordinates": [ [ [ [ 26.1496735, 63.4581566 ], [ 26.1790104, 63.4371719 ], [ 26.0864563, 63.3619652 ], [ 26.1876621, 63.2455177 ], [ 26.1541443, 63.2048416 ], [ 26.2514534, 63.0746422 ], [ 26.2289963, 63.0351334 ], [ 26.3297844, 62.9591637 ], [ 26.1381512, 62.954464 ], [ 26.0535297, 62.9374771 ], [ 26.0737553, 62.896637 ], [ 26.20368, 62.8671227 ], [ 26.247345, 62.8228149 ], [ 26.3754215, 62.7520752 ], [ 26.4587593, 62.7883682 ], [ 26.6042366, 62.6436272 ], [ 26.6039925, 62.5955353 ], [ 26.4789867, 62.5240097 ], [ 26.6434441, 62.4534073 ], [ 26.7163181, 62.4498634 ], [ 26.6880341, 62.4063797 ], [ 26.7781582, 62.3555603 ], [ 26.6885796, 62.3101311 ], [ 26.5548897, 62.2705421 ], [ 26.4697742, 62.2202377 ], [ 26.3102474, 62.1946259 ], [ 26.2340813, 62.1193771 ], [ 26.4225197, 61.977478 ], [ 26.3451061, 61.9514961 ], [ 26.3895054, 61.8149796 ], [ 26.4600105, 61.7817078 ], [ 26.542944, 61.703289 ], [ 26.5201435, 61.62677 ], [ 26.4138412, 61.6622353 ], [ 26.324667, 61.6082306 ], [ 26.3207531, 61.645649 ], [ 26.1959057, 61.6463127 ], [ 26.0734692, 61.6743851 ], [ 25.9801559, 61.761879 ], [ 25.8426304, 61.7694435 ], [ 25.7795448, 61.6959343 ], [ 25.6728725, 61.7206421 ], [ 25.599844, 61.6778679 ], [ 25.5116062, 61.6789627 ], [ 25.5127869, 61.6211281 ], [ 25.448616, 61.4884491 ], [ 25.1968784, 61.4796333 ], [ 24.9663887, 61.4582367 ], [ 24.862072, 61.5875664 ], [ 24.7889576, 61.619854 ], [ 24.8132629, 61.6551743 ], [ 24.9627113, 61.6292191 ], [ 24.9284, 61.7035942 ], [ 25.0106049, 61.7294884 ], [ 24.9284172, 61.821312 ], [ 24.955019, 61.9276237 ], [ 24.8926563, 62.0622177 ], [ 24.7490177, 62.0264893 ], [ 24.6787415, 62.0538864 ], [ 24.6720467, 62.1205521 ], [ 24.5182838, 62.2038803 ], [ 24.379343, 62.1638412 ], [ 24.3191223, 62.1796227 ], [ 24.2783031, 62.2558289 ], [ 24.1656551, 62.2547264 ], [ 24.0370598, 62.3031998 ], [ 24.0247593, 62.3665314 ], [ 24.2114258, 62.4819298 ], [ 24.4369965, 62.478672 ], [ 24.5209312, 62.5037231 ], [ 24.5785942, 62.6684494 ], [ 24.528286, 62.6908989 ], [ 24.4342136, 62.8067093 ], [ 24.3542213, 62.8617706 ], [ 24.4443569, 62.8721046 ], [ 24.453598, 62.9120102 ], [ 24.350893, 62.9205933 ], [ 24.3554363, 62.97715 ], [ 24.2708931, 63.06147 ], [ 24.3664112, 63.124836 ], [ 24.5361633, 63.1626549 ], [ 24.6591721, 63.1466141 ], [ 24.7374172, 63.1612434 ], [ 24.8127193, 63.2868576 ], [ 24.78125, 63.3621063 ], [ 24.908638, 63.435997 ], [ 25.0330524, 63.4581566 ], [ 25.1207066, 63.5038261 ], [ 25.148468, 63.5805359 ], [ 25.2683487, 63.6127243 ], [ 25.4971867, 63.5317917 ], [ 25.7373486, 63.520813 ], [ 25.8290405, 63.4962006 ], [ 25.9091606, 63.4385986 ], [ 26.0016918, 63.4349289 ], [ 26.1496735, 63.4581566 ] ] ] ] } },
{ "type": "Feature", "properties": { "POLYGON_ID": "FIN_GAUL1999_ADM2_16232", "ADM0_ISO3": "FIN", "ADM0_NAME": "Finland", "ADM0_CODE": 84, "ADM1_NAME": "Western Finland", "ADM1_CODE": 1247, "ADM2_NAME": "Central Ostrobothnia", "ADM2_CODE": 16232, "GEOSET": "GAUL", "GEOSET_YEAR": 1999.0, "GEOSET_VERSION": "GAUL_v1", "GEOSET_UNIT": "ADM2", "CENTROID_LONG": 24.064003734535721, "CENTROID_LAT": 63.632030388875755 }, "geometry": { "type": "MultiPolygon", "coordinates": [ [ [ [ 25.0330524, 63.4581566 ], [ 24.908638, 63.435997 ], [ 24.78125, 63.3621063 ], [ 24.8127193, 63.2868576 ], [ 24.7374172, 63.1612434 ], [ 24.6591721, 63.1466141 ], [ 24.5361633, 63.1626549 ], [ 24.3664112, 63.124836 ], [ 24.2542706, 63.1356888 ], [ 24.229702, 63.1789017 ], [ 24.1154842, 63.2453117 ], [ 24.0307732, 63.272213 ], [ 23.8536224, 63.2870178 ], [ 23.7741489, 63.3158722 ], [ 23.7164383, 63.3831596 ], [ 23.6615944, 63.4452286 ], [ 23.6532993, 63.5372353 ], [ 23.5822544, 63.5570183 ], [ 23.5382042, 63.6328011 ], [ 23.6545753, 63.6713524 ], [ 23.7537022, 63.6762886 ], [ 23.4907265, 63.780529 ], [ 23.429184, 63.7542114 ], [ 23.2921066, 63.7608566 ], [ 23.245985, 63.7195587 ], [ 23.0372067, 63.7876434 ], [ 23.0219803, 63.8416748 ], [ 23.1610661, 63.9147224 ], [ 23.2699471, 63.9072113 ], [ 23.3769646, 63.9619141 ], [ 23.3851414, 64.0619583 ], [ 23.6199684, 64.0448303 ], [ 23.5887375, 64.1171417 ], [ 23.6917343, 64.1624298 ], [ 23.7892323, 64.1501389 ], [ 23.9454365, 64.1038055 ], [ 24.0569553, 64.0904617 ], [ 24.1780167, 63.9456177 ], [ 24.2549801, 63.8762207 ], [ 24.4401627, 63.8431435 ], [ 24.5603485, 63.696888 ], [ 24.6327496, 63.6536636 ], [ 24.8133297, 63.5987892 ], [ 25.0330524, 63.4581566 ] ] ], [ [ [ 22.9910183, 63.7841682 ], [ 22.9314472, 63.7652561 ], [ 22.8637199, 63.8044357 ], [ 22.8521633, 63.8375168 ], [ 22.9667511, 63.8673058 ], [ 22.9910183, 63.7841682 ] ] ] ] } },
{ "type": "Feature", "properties": { "POLYGON_ID": "FIN_GAUL1999_ADM2_16233", "ADM0_ISO3": "FIN", "ADM0_NAME": "Finland", "ADM0_CODE": 84, "ADM1_NAME": "Western Finland", "ADM1_CODE": 1247, "ADM2_NAME": "Ostrobothnia", "ADM2_CODE": 16233, "GEOSET": "GAUL", "GEOSET_YEAR": 1999.0, "GEOSET_VERSION": "GAUL_v1", "GEOSET_UNIT": "ADM2", "CENTROID_LONG": 22.170101868625046, "CENTROID_LAT": 63.065064099757869 }, "geometry": { "type": "MultiPolygon", "coordinates": [ [ [ [ 23.0372067, 63.7876434 ], [ 23.245985, 63.7195587 ], [ 23.2921066, 63.7608566 ], [ 23.429184, 63.7542114 ], [ 23.4907265, 63.780529 ], [ 23.7537022, 63.6762886 ], [ 23.6545753, 63.6713524 ], [ 23.5382042, 63.6328011 ], [ 23.5822544, 63.5570183 ], [ 23.6532993, 63.5372353 ], [ 23.6615944, 63.4452286 ], [ 23.7164383, 63.3831596 ], [ 23.5796757, 63.4346809 ], [ 23.5683498, 63.4600601 ], [ 23.3930378, 63.5000839 ], [ 23.2670898, 63.4689331 ], [ 23.2140732, 63.403553 ], [ 23.1240063, 63.3516235 ], [ 23.0191059, 63.3849754 ], [ 22.9012699, 63.3561172 ], [ 22.7612572, 63.35709 ], [ 22.571825, 63.2739639 ], [ 22.5914822, 63.1914978 ], [ 22.6861, 63.1887703 ], [ 22.6880913, 63.138504 ], [ 22.5128345, 63.0440063 ], [ 22.4287033, 62.9570389 ], [ 22.4125786, 62.8705635 ], [ 22.2040367, 62.753788 ], [ 22.0421543, 62.7712708 ], [ 21.8597603, 62.813488 ], [ 21.7805462, 62.8643265 ], [ 21.7309914, 62.8163185 ], [ 21.7288475, 62.7622032 ], [ 21.7871895, 62.697361 ], [ 21.5891552, 62.6016998 ], [ 21.619978, 62.5555992 ], [ 21.5655174, 62.4764557 ], [ 21.5633907, 62.36092 ], [ 21.6724281, 62.365242 ], [ 21.6871929, 62.2622108 ], [ 21.7631779, 62.2206535 ], [ 21.6711216, 62.1922112 ], [ 21.6388836, 62.1468048 ], [ 21.6498547, 62.0248795 ], [ 21.4406605, 62.0193405 ], [ 21.3307515, 61.9566007 ], [ 21.2920418, 61.9891891 ], [ 21.3926735, 62.268837 ], [ 21.3117771, 62.3683395 ], [ 21.1696301, 62.4209976 ], [ 21.1340866, 62.4703407 ], [ 21.1610088, 62.6165237 ], [ 21.0971565, 62.6715469 ], [ 21.167305, 62.7172813 ], [ 21.1230183, 62.7944222 ], [ 21.2308521, 62.8157349 ], [ 21.2788639, 62.8921623 ], [ 21.4054127, 62.8706207 ], [ 21.4901161, 63.0065308 ], [ 21.4730492, 63.0565491 ], [ 21.6166515, 63.0792694 ], [ 21.5239735, 63.185379 ], [ 21.5326691, 63.2388992 ], [ 21.7495461, 63.2254982 ], [ 21.9265022, 63.2690163 ], [ 22.1358433, 63.2359505 ], [ 22.2446976, 63.25177 ], [ 22.2890549, 63.3108749 ], [ 22.381506, 63.3479538 ], [ 22.2022839, 63.4535255 ], [ 22.493124, 63.5346603 ], [ 22.5113297, 63.6479988 ], [ 22.6262512, 63.6966248 ], [ 22.7201939, 63.7126923 ], [ 22.820715, 63.669651 ], [ 22.8972931, 63.6977386 ], [ 22.9314472, 63.7652561 ], [ 22.9910183, 63.7841682 ], [ 23.0372067, 63.7876434 ] ] ], [ [ [ 22.8521633, 63.8375168 ], [ 22.8637199, 63.8044357 ], [ 22.7006035, 63.7911072 ], [ 22.7368202, 63.8442497 ], [ 22.8521633, 63.8375168 ] ] ], [ [ [ 22.2263775, 63.3418922 ], [ 22.2164574, 63.2747917 ], [ 22.0881481, 63.2599792 ], [ 22.078743, 63.317749 ], [ 22.1899185, 63.313427 ], [ 22.2263775, 63.3418922 ] ] ], [ [ [ 21.2248001, 63.3196945 ], [ 21.2948971, 63.2398186 ], [ 21.3907108, 63.279541 ], [ 21.4577255, 63.2058601 ], [ 21.3362141, 63.1867294 ], [ 21.2746258, 63.1556091 ], [ 21.1682148, 63.1834869 ], [ 21.1210842, 63.2497406 ], [ 21.2016659, 63.2774162 ], [ 21.2248001, 63.3196945 ] ] ], [ [ [ 21.4035473, 63.3728027 ], [ 21.393837, 63.3159409 ], [ 21.3020592, 63.3110962 ], [ 21.2404766, 63.3427925 ], [ 21.4035473, 63.3728027 ] ] ] ] } },
{ "type": "Feature", "properties": { "POLYGON_ID": "FIN_GAUL1999_ADM2_16234", "ADM0_ISO3": "FIN", "ADM0_NAME": "Finland", "ADM0_CODE": 84, "ADM1_NAME": "Western Finland", "ADM1_CODE": 1247, "ADM2_NAME": "Satakunta", "ADM2_CODE": 16234, "GEOSET": "GAUL", "GEOSET_YEAR": 1999.0, "GEOSET_VERSION": "GAUL_v1", "GEOSET_UNIT": "ADM2", "CENTROID_LONG": 22.205156504960108, "CENTROID_LAT": 61.513808951698095 }, "geometry": { "type": "MultiPolygon", "coordinates": [ [ [ [ 23.2664566, 61.0249176 ], [ 23.1997929, 60.9999199 ], [ 23.1488361, 61.0370445 ], [ 23.0174294, 61.0264854 ], [ 22.8382893, 61.0704803 ], [ 22.8369961, 61.0051193 ], [ 22.7266617, 60.9859314 ], [ 22.6136379, 60.9950142 ], [ 22.5664845, 60.9499207 ], [ 21.9951115, 60.8988419 ], [ 21.9557495, 60.9791451 ], [ 21.8814201, 60.987854 ], [ 21.8126087, 61.0293159 ], [ 21.740715, 61.0021477 ], [ 21.6047764, 61.0122528 ], [ 21.4912682, 60.9970741 ], [ 21.4344997, 61.0473099 ], [ 21.4746513, 61.1413689 ], [ 21.4489918, 61.1938591 ], [ 21.5342312, 61.2062416 ], [ 21.5034046, 61.2585182 ], [ 21.5380287, 61.4028206 ], [ 21.5950146, 61.4325905 ], [ 21.5418663, 61.4820213 ], [ 21.5303078, 61.591423 ], [ 21.6620178, 61.5545464 ], [ 21.590517, 61.6597023 ], [ 21.5340576, 61.6912422 ], [ 21.5545006, 61.7539978 ], [ 21.4453239, 61.917366 ], [ 21.3307515, 61.9566007 ], [ 21.4406605, 62.0193405 ], [ 21.6498547, 62.0248795 ], [ 21.9939938, 61.9828873 ], [ 22.1013012, 62.027565 ], [ 22.2048454, 62.1071472 ], [ 22.3096104, 62.102993 ], [ 22.462162, 62.2041969 ], [ 22.5405083, 62.2290001 ], [ 22.5957775, 62.3141251 ], [ 22.6770401, 62.2903252 ], [ 22.8414726, 62.274868 ], [ 22.8582897, 62.1713409 ], [ 22.7800159, 62.1563988 ], [ 22.7825317, 62.0629654 ], [ 22.6749153, 62.0550308 ], [ 22.5473595, 61.9994621 ], [ 22.6514683, 61.9682007 ], [ 22.6689053, 61.9312515 ], [ 22.7947693, 61.8722992 ], [ 22.8288155, 61.8150024 ], [ 22.8073044, 61.7628365 ], [ 22.6866951, 61.7321281 ], [ 22.653162, 61.6542206 ], [ 22.7014122, 61.607357 ], [ 22.6041412, 61.5375557 ], [ 22.6621552, 61.4872437 ], [ 22.7371521, 61.4782677 ], [ 22.6374455, 61.3871841 ], [ 22.5660591, 61.4021187 ], [ 22.658371, 61.247715 ], [ 22.7743168, 61.2463837 ], [ 23.0013657, 61.1876793 ], [ 23.1701488, 61.2142448 ], [ 23.3699284, 61.146595 ], [ 23.2458076, 61.1212349 ], [ 23.2954636, 61.0566978 ], [ 23.2664566, 61.0249176 ] ] ] ] } },
{ "type": "Feature", "properties": { "POLYGON_ID": "FIN_GAUL1999_ADM2_16235", "ADM0_ISO3": "FIN", "ADM0_NAME": "Finland", "ADM0_CODE": 84, "ADM1_NAME": "Western Finland", "ADM1_CODE": 1247, "ADM2_NAME": "South Ostrobothnia", "ADM2_CODE": 16235, "GEOSET": "GAUL", "GEOSET_YEAR": 1999.0, "GEOSET_VERSION": "GAUL_v1", "GEOSET_UNIT": "ADM2", "CENTROID_LONG": 23.063227908205274, "CENTROID_LAT": 62.739886904012423 }, "geometry": { "type": "MultiPolygon", "coordinates": [ [ [ [ 23.7164383, 63.3831596 ], [ 23.7741489, 63.3158722 ], [ 23.8536224, 63.2870178 ], [ 24.0307732, 63.272213 ], [ 24.1154842, 63.2453117 ], [ 24.229702, 63.1789017 ], [ 24.2542706, 63.1356888 ], [ 24.3664112, 63.124836 ], [ 24.2708931, 63.06147 ], [ 24.3554363, 62.97715 ], [ 24.350893, 62.9205933 ], [ 24.453598, 62.9120102 ], [ 24.4443569, 62.8721046 ], [ 24.3542213, 62.8617706 ], [ 24.4342136, 62.8067093 ], [ 24.528286, 62.6908989 ], [ 24.5785942, 62.6684494 ], [ 24.5209312, 62.5037231 ], [ 24.4369965, 62.478672 ], [ 24.2114258, 62.4819298 ], [ 24.0247593, 62.3665314 ], [ 23.9354305, 62.3935585 ], [ 23.8707581, 62.462204 ], [ 23.7504578, 62.4529152 ], [ 23.679081, 62.4121933 ], [ 23.5097733, 62.4189034 ], [ 23.4241467, 62.3793869 ], [ 23.2938747, 62.4197998 ], [ 23.220993, 62.338623 ], [ 22.9378929, 62.2788963 ], [ 22.8414726, 62.274868 ], [ 22.6770401, 62.2903252 ], [ 22.5957775, 62.3141251 ], [ 22.5405083, 62.2290001 ], [ 22.462162, 62.2041969 ], [ 22.3096104, 62.102993 ], [ 22.2048454, 62.1071472 ], [ 22.1013012, 62.027565 ], [ 21.9939938, 61.9828873 ], [ 21.6498547, 62.0248795 ], [ 21.6388836, 62.1468048 ], [ 21.6711216, 62.1922112 ], [ 21.7631779, 62.2206535 ], [ 21.6871929, 62.2622108 ], [ 21.6724281, 62.365242 ], [ 21.5633907, 62.36092 ], [ 21.5655174, 62.4764557 ], [ 21.619978, 62.5555992 ], [ 21.5891552, 62.6016998 ], [ 21.7871895, 62.697361 ], [ 21.7288475, 62.7622032 ], [ 21.7309914, 62.8163185 ], [ 21.7805462, 62.8643265 ], [ 21.8597603, 62.813488 ], [ 22.0421543, 62.7712708 ], [ 22.2040367, 62.753788 ], [ 22.4125786, 62.8705635 ], [ 22.4287033, 62.9570389 ], [ 22.5128345, 63.0440063 ], [ 22.6880913, 63.138504 ], [ 22.6861, 63.1887703 ], [ 22.5914822, 63.1914978 ], [ 22.571825, 63.2739639 ], [ 22.7612572, 63.35709 ], [ 22.9012699, 63.3561172 ], [ 23.0191059, 63.3849754 ], [ 23.1240063, 63.3516235 ], [ 23.2140732, 63.403553 ], [ 23.2670898, 63.4689331 ], [ 23.3930378, 63.5000839 ], [ 23.5683498, 63.4600601 ], [ 23.5796757, 63.4346809 ], [ 23.7164383, 63.3831596 ] ] ] ] } },
{ "type": "Feature", "properties": { "POLYGON_ID": "FIN_GAUL1999_ADM2_16236", "ADM0_ISO3": "FIN", "ADM0_NAME": "Finland", "ADM0_CODE": 84, "ADM1_NAME": "Western Finland", "ADM1_CODE": 1247, "ADM2_NAME": "South-west Finland", "ADM2_CODE": 16236, "GEOSET": "GAUL", "GEOSET_YEAR": 1999.0, "GEOSET_VERSION": "GAUL_v1", "GEOSET_UNIT": "ADM2", "CENTROID_LONG": 22.628000937245108, "CENTROID_LAT": 60.583948478595588 }, "geometry": { "type": "MultiPolygon", "coordinates": [ [ [ [ 21.7705803, 60.5048599 ], [ 21.8298168, 60.5421295 ], [ 21.7679424, 60.598629 ], [ 21.692955, 60.5843811 ], [ 21.6599236, 60.519989 ], [ 21.4464684, 60.596508 ], [ 21.3675995, 60.6922188 ], [ 21.4691639, 60.7194672 ], [ 21.3974667, 60.7766228 ], [ 21.4009533, 60.820343 ], [ 21.3281937, 60.8906288 ], [ 21.2571297, 60.9232101 ], [ 21.4138145, 60.9642372 ], [ 21.3016815, 61.0816269 ], [ 21.4344997, 61.0473099 ], [ 21.4912682, 60.9970741 ], [ 21.6047764, 61.0122528 ], [ 21.740715, 61.0021477 ], [ 21.8126087, 61.0293159 ], [ 21.8814201, 60.987854 ], [ 21.9557495, 60.9791451 ], [ 21.9951115, 60.8988419 ], [ 22.5664845, 60.9499207 ], [ 22.6136379, 60.9950142 ], [ 22.7266617, 60.9859314 ], [ 22.8369961, 61.0051193 ], [ 22.8382893, 61.0704803 ], [ 23.0174294, 61.0264854 ], [ 23.1488361, 61.0370445 ], [ 23.1997929, 60.9999199 ], [ 23.3034935, 60.9518089 ], [ 23.2711964, 60.8953018 ], [ 23.1377544, 60.8874474 ], [ 23.2059097, 60.8220711 ], [ 23.1638927, 60.7720947 ], [ 23.3382149, 60.7180595 ], [ 23.5014572, 60.7532272 ], [ 23.5727177, 60.6957664 ], [ 23.6944733, 60.6607361 ], [ 23.8997631, 60.6499329 ], [ 23.9272747, 60.6016502 ], [ 23.8536549, 60.5542336 ], [ 23.8760529, 60.4997063 ], [ 23.7233753, 60.4864006 ], [ 23.7951317, 60.4451141 ], [ 23.7960968, 60.3874283 ], [ 23.7370987, 60.3625984 ], [ 23.7240715, 60.2964134 ], [ 23.6287937, 60.2619591 ], [ 23.6567478, 60.1967239 ], [ 23.5575466, 60.2052994 ], [ 23.4807739, 60.1710243 ], [ 23.3202209, 60.170723 ], [ 23.1345787, 60.096508 ], [ 23.0319691, 60.1023178 ], [ 23.0225544, 60.1304703 ], [ 22.9060745, 60.143856 ], [ 22.8762665, 60.198822 ], [ 23.0121002, 60.289856 ], [ 22.9823761, 60.3316689 ], [ 22.8811913, 60.3086014 ], [ 22.8014622, 60.258728 ], [ 22.6583042, 60.2410965 ], [ 22.471386, 60.2805481 ], [ 22.5916786, 60.3531952 ], [ 22.4495144, 60.4116097 ], [ 22.3003883, 60.386425 ], [ 22.2003899, 60.4467735 ], [ 22.0881195, 60.4446259 ], [ 22.0130501, 60.4699287 ], [ 21.9657993, 60.5263481 ], [ 21.8961124, 60.4818306 ], [ 21.8311958, 60.5016747 ], [ 21.7705803, 60.5048599 ] ] ], [ [ [ 22.9679852, 60.2822075 ], [ 22.9077358, 60.2510567 ], [ 22.8616886, 60.1821594 ], [ 22.8800106, 60.1355248 ], [ 22.7743359, 60.0684738 ], [ 22.7783375, 60.0149002 ], [ 22.5584888, 60.0255203 ], [ 22.4759922, 60.0121613 ], [ 22.3795395, 60.0376282 ], [ 22.3684559, 60.0841637 ], [ 22.5527077, 60.2060394 ], [ 22.6886997, 60.2350159 ], [ 22.8655834, 60.2432938 ], [ 22.9679852, 60.2822075 ] ] ], [ [ [ 22.4508533, 60.3455124 ], [ 22.4558373, 60.3100433 ], [ 22.3080902, 60.3312607 ], [ 22.3997917, 60.3706665 ], [ 22.4508533, 60.3455124 ] ] ], [ [ [ 22.2468166, 60.3341942 ], [ 22.3346958, 60.2834778 ], [ 22.162653, 60.2670364 ], [ 22.0909233, 60.2921677 ], [ 22.1090183, 60.3273163 ], [ 22.2468166, 60.3341942 ] ] ], [ [ [ 22.1085415, 60.2000694 ], [ 22.0522213, 60.156044 ], [ 21.9637909, 60.1933212 ], [ 22.0668201, 60.2182541 ], [ 22.1085415, 60.2000694 ] ] ], [ [ [ 21.8526592, 60.4903336 ], [ 21.8957615, 60.4762344 ], [ 22.0477734, 60.3593636 ], [ 21.9120197, 60.3489876 ], [ 21.7967548, 60.4028893 ], [ 21.8004932, 60.4368401 ], [ 21.8526592, 60.4903336 ] ] ], [ [ [ 22.0366097, 60.3245659 ], [ 21.9048481, 60.2822914 ], [ 21.8812447, 60.3105965 ], [ 22.0366097, 60.3245659 ] ] ], [ [ [ 21.7877808, 60.215416 ], [ 21.8962917, 60.2064247 ], [ 21.8084011, 60.1367683 ], [ 21.7182522, 60.1326942 ], [ 21.7330265, 60.2017403 ], [ 21.7877808, 60.215416 ] ] ], [ [ [ 21.6195393, 60.1843987 ], [ 21.6877842, 60.1772957 ], [ 21.6663551, 60.116684 ], [ 21.5237007, 60.1126175 ], [ 21.5105362, 60.1448441 ], [ 21.6195393, 60.1843987 ] ] ], [ [ [ 21.3837929, 60.5987358 ], [ 21.480093, 60.5352478 ], [ 21.4349365, 60.5021591 ], [ 21.3361397, 60.5421715 ], [ 21.3837929, 60.5987358 ] ] ] ] } },
{ "type": "Feature", "properties": { "POLYGON_ID": "FIN_GAUL1999_ADM2_16237", "ADM0_ISO3": "FIN", "ADM0_NAME": "Finland", "ADM0_CODE": 84, "ADM1_NAME": "Western Finland", "ADM1_CODE": 1247, "ADM2_NAME": "Tampere Region", "ADM2_CODE": 16237, "GEOSET": "GAUL", "GEOSET_YEAR": 1999.0, "GEOSET_VERSION": "GAUL_v1", "GEOSET_UNIT": "ADM2", "CENTROID_LONG": 23.750873668118551, "CENTROID_LAT": 61.717753920229192 }, "geometry": { "type": "MultiPolygon", "coordinates": [ [ [ [ 24.0247593, 62.3665314 ], [ 24.0370598, 62.3031998 ], [ 24.1656551, 62.2547264 ], [ 24.2783031, 62.2558289 ], [ 24.3191223, 62.1796227 ], [ 24.379343, 62.1638412 ], [ 24.5182838, 62.2038803 ], [ 24.6720467, 62.1205521 ], [ 24.6787415, 62.0538864 ], [ 24.7490177, 62.0264893 ], [ 24.8926563, 62.0622177 ], [ 24.955019, 61.9276237 ], [ 24.9284172, 61.821312 ], [ 25.0106049, 61.7294884 ], [ 24.9284, 61.7035942 ], [ 24.9627113, 61.6292191 ], [ 24.8132629, 61.6551743 ], [ 24.7889576, 61.619854 ], [ 24.862072, 61.5875664 ], [ 24.9663887, 61.4582367 ], [ 24.9136581, 61.4179497 ], [ 24.9163895, 61.3249054 ], [ 24.886982, 61.2858582 ], [ 24.7796402, 61.269207 ], [ 24.6381702, 61.2825127 ], [ 24.5740929, 61.3072395 ], [ 24.4364491, 61.2581253 ], [ 24.3200836, 61.2351074 ], [ 24.2549515, 61.156147 ], [ 24.1460056, 61.1280441 ], [ 24.0369492, 61.1210594 ], [ 23.8764057, 61.0762711 ], [ 23.8297424, 61.0016594 ], [ 23.733572, 61.0090485 ], [ 23.5167809, 60.9963951 ], [ 23.2664566, 61.0249176 ], [ 23.2954636, 61.0566978 ], [ 23.2458076, 61.1212349 ], [ 23.3699284, 61.146595 ], [ 23.1701488, 61.2142448 ], [ 23.0013657, 61.1876793 ], [ 22.7743168, 61.2463837 ], [ 22.658371, 61.247715 ], [ 22.5660591, 61.4021187 ], [ 22.6374455, 61.3871841 ], [ 22.7371521, 61.4782677 ], [ 22.6621552, 61.4872437 ], [ 22.6041412, 61.5375557 ], [ 22.7014122, 61.607357 ], [ 22.653162, 61.6542206 ], [ 22.6866951, 61.7321281 ], [ 22.8073044, 61.7628365 ], [ 22.8288155, 61.8150024 ], [ 22.7947693, 61.8722992 ], [ 22.6689053, 61.9312515 ], [ 22.6514683, 61.9682007 ], [ 22.5473595, 61.9994621 ], [ 22.6749153, 62.0550308 ], [ 22.7825317, 62.0629654 ], [ 22.7800159, 62.1563988 ], [ 22.8582897, 62.1713409 ], [ 22.8414726, 62.274868 ], [ 22.9378929, 62.2788963 ], [ 23.220993, 62.338623 ], [ 23.2938747, 62.4197998 ], [ 23.4241467, 62.3793869 ], [ 23.5097733, 62.4189034 ], [ 23.679081, 62.4121933 ], [ 23.7504578, 62.4529152 ], [ 23.8707581, 62.462204 ], [ 23.9354305, 62.3935585 ], [ 24.0247593, 62.3665314 ] ] ] ] } }
]
}
