{
"type": "FeatureCollection",
"name": "FIN_GAUL2012_ADM0",
"crs": { "type": "name", "properties": { "name": "urn:ogc:def:crs:OGC:1.3:CRS84" } },
"features": [
{ "type": "Feature", "properties": { "POLYGON_ID": "FIN_GAUL2012_ADM0_84", "ADM0_ISO3": "FIN", "ADM0_NAME": "Finland", "ADM0_CODE": 84, "GEOSET": "GAUL", "GEOSET_YEAR": 2012.0, "GEOSET_VERSION": "GAUL_v1", "GEOSET_UNIT": "ADM0", "CENTROID_LONG": 26.253972308912388, "CENTROID_LAT": 64.493317745353181 }, "geometry": { "type": "MultiPolygon", "coordinates": [ [ [ [ 21.7705803, 60.5048599 ], [ 21.8015804, 60.5055733 ], [ 21.8298168, 60.5421295 ], [ 21.8166924, 60.6321068 ], [ 21.7679424, 60.598629 ], [ 21.692955, 60.5843811 ], [ 21.6599236, 60.519989 ], [ 21.6318665, 60.5014915 ], [ 21.5780621, 60.5570221 ], [ 21.4464684, 60.596508 ], [ 21.4396839, 60.628624 ], [ 21.3675995, 60.6922188 ], [ 21.3681755, 60.7171097 ], [ 21.4691639, 60.7194672 ], [ 21.3974667, 60.7766228 ], [ 21.4009533, 60.820343 ], [ 21.3572712, 60.8252335 ], [ 21.3698368, 60.8611832 ], [ 21.3281937, 60.8906288 ], [ 21.2391758, 60.8916245 ], [ 21.2571297, 60.9232101 ], [ 21.3256359, 60.9287033 ], [ 21.3269196, 60.9566765 ], [ 21.2575817, 60.9768867 ], [ 21.303688, 61.0038033 ], [ 21.3600616, 60.9624405 ], [ 21.4138145, 60.9642372 ], [ 21.349802, 61.0283737 ], [ 21.3238583, 61.0374222 ], [ 21.3016815, 61.0816269 ], [ 21.4344997, 61.0473099 ], [ 21.4337921, 61.0706825 ], [ 21.4746513, 61.1413689 ], [ 21.441349, 61.1620903 ], [ 21.4489918, 61.1938591 ], [ 21.5342312, 61.2062416 ], [ 21.5417233, 61.2310219 ], [ 21.5034046, 61.2585182 ], [ 21.5200348, 61.3075333 ], [ 21.5800152, 61.3352699 ], [ 21.5374374, 61.353363 ], [ 21.5380287, 61.4028206 ], [ 21.5950146, 61.4325905 ], [ 21.5418663, 61.4820213 ], [ 21.6315784, 61.5039291 ], [ 21.6004829, 61.5283813 ], [ 21.547514, 61.536087 ], [ 21.5191422, 61.5684166 ], [ 21.5303078, 61.591423 ], [ 21.6620178, 61.5545464 ], [ 21.6880722, 61.5718498 ], [ 21.619524, 61.6026039 ], [ 21.6230087, 61.6242332 ], [ 21.590517, 61.6597023 ], [ 21.5340576, 61.6912422 ], [ 21.5545006, 61.7539978 ], [ 21.5101681, 61.7789345 ], [ 21.5144844, 61.8224411 ], [ 21.4676476, 61.8661804 ], [ 21.4453239, 61.917366 ], [ 21.3937054, 61.9500084 ], [ 21.3261337, 61.9589844 ], [ 21.2920418, 61.9891891 ], [ 21.3379993, 62.1344719 ], [ 21.3667336, 62.1483231 ], [ 21.3611431, 62.1800804 ], [ 21.4094639, 62.1909637 ], [ 21.4272842, 62.213829 ], [ 21.3829002, 62.2281075 ], [ 21.3926735, 62.268837 ], [ 21.3567295, 62.3281364 ], [ 21.3695755, 62.3686638 ], [ 21.3117771, 62.3683395 ], [ 21.2290344, 62.4027176 ], [ 21.2459831, 62.4327164 ], [ 21.1696301, 62.4209976 ], [ 21.2051201, 62.4707108 ], [ 21.1340866, 62.4703407 ], [ 21.1558666, 62.532795 ], [ 21.1527443, 62.5701065 ], [ 21.2114182, 62.6064949 ], [ 21.1610088, 62.6165237 ], [ 21.0971565, 62.6715469 ], [ 21.167305, 62.7172813 ], [ 21.1391354, 62.7477951 ], [ 21.1230183, 62.7944222 ], [ 21.2308521, 62.8157349 ], [ 21.2472725, 62.8600311 ], [ 21.2788639, 62.8921623 ], [ 21.4054127, 62.8706207 ], [ 21.4141846, 62.8980103 ], [ 21.4901161, 63.0065308 ], [ 21.4615688, 63.014122 ], [ 21.4730492, 63.0565491 ], [ 21.5323029, 63.080677 ], [ 21.6751442, 63.038662 ], [ 21.6667633, 63.0636826 ], [ 21.6166515, 63.0792694 ], [ 21.5397663, 63.1563377 ], [ 21.5239735, 63.185379 ], [ 21.5326691, 63.2388992 ], [ 21.5841789, 63.2551537 ], [ 21.6415462, 63.2209282 ], [ 21.7495461, 63.2254982 ], [ 21.7546482, 63.2437325 ], [ 21.8155422, 63.2481537 ], [ 21.9265022, 63.2690163 ], [ 22.016716, 63.2455978 ], [ 21.9558449, 63.2121162 ], [ 21.9727325, 63.1870804 ], [ 22.0443478, 63.2165451 ], [ 22.07971, 63.2512283 ], [ 22.1358433, 63.2359505 ], [ 22.2446976, 63.25177 ], [ 22.239378, 63.2698517 ], [ 22.2890549, 63.3108749 ], [ 22.359087, 63.3132133 ], [ 22.381506, 63.3479538 ], [ 22.2982502, 63.387146 ], [ 22.2955513, 63.40242 ], [ 22.2022839, 63.4535255 ], [ 22.2108173, 63.478447 ], [ 22.2797203, 63.4820938 ], [ 22.2884884, 63.5188026 ], [ 22.3470707, 63.5717506 ], [ 22.395134, 63.5076904 ], [ 22.4459591, 63.4990349 ], [ 22.493124, 63.5346603 ], [ 22.5011635, 63.5768204 ], [ 22.435257, 63.5853043 ], [ 22.5094776, 63.6196938 ], [ 22.5113297, 63.6479988 ], [ 22.5520477, 63.671093 ], [ 22.5935116, 63.6658325 ], [ 22.6262512, 63.6966248 ], [ 22.688982, 63.688736 ], [ 22.7201939, 63.7126923 ], [ 22.820715, 63.669651 ], [ 22.8972931, 63.6977386 ], [ 22.9252949, 63.7267151 ], [ 22.9236202, 63.7759476 ], [ 22.8477898, 63.8037643 ], [ 22.8089771, 63.7929153 ], [ 22.7006035, 63.7911072 ], [ 22.6700706, 63.8115082 ], [ 22.7368202, 63.8442497 ], [ 22.8157635, 63.8512955 ], [ 22.8986721, 63.8345947 ], [ 22.8833065, 63.8996887 ], [ 22.9425259, 63.8879623 ], [ 22.9667511, 63.8673058 ], [ 22.9511795, 63.8251686 ], [ 22.993288, 63.8140717 ], [ 23.0745621, 63.8815384 ], [ 23.1247845, 63.8873291 ], [ 23.1610661, 63.9147224 ], [ 23.2015343, 63.9039116 ], [ 23.2699471, 63.9072113 ], [ 23.4260902, 63.9426498 ], [ 23.3769646, 63.9619141 ], [ 23.4002857, 64.0216904 ], [ 23.3851414, 64.0619583 ], [ 23.4447308, 64.0816269 ], [ 23.4742107, 64.058403 ], [ 23.5559406, 64.0437012 ], [ 23.6199684, 64.0448303 ], [ 23.6375275, 64.0690994 ], [ 23.5887375, 64.1171417 ], [ 23.6401215, 64.124054 ], [ 23.7257347, 64.1888428 ], [ 23.6890392, 64.2130966 ], [ 23.8152065, 64.2366638 ], [ 23.8466187, 64.2820129 ], [ 23.9192047, 64.2852173 ], [ 23.9285603, 64.3371506 ], [ 23.9834404, 64.3509827 ], [ 24.0316582, 64.4171219 ], [ 24.0848389, 64.4151917 ], [ 24.1475735, 64.4606094 ], [ 24.2933006, 64.5006714 ], [ 24.2806435, 64.5268478 ], [ 24.3452587, 64.534729 ], [ 24.380373, 64.5527725 ], [ 24.3841572, 64.6097946 ], [ 24.443512, 64.6923523 ], [ 24.5663452, 64.7313309 ], [ 24.5592422, 64.7727585 ], [ 24.578949, 64.7932587 ], [ 24.5442562, 64.8165741 ], [ 24.6146889, 64.8340836 ], [ 24.6763382, 64.8341064 ], [ 24.7597771, 64.8778534 ], [ 24.8252468, 64.8900909 ], [ 24.9325466, 64.8822021 ], [ 25.0096569, 64.9149551 ], [ 25.1279297, 64.9199829 ], [ 25.2178841, 64.8722229 ], [ 25.2878304, 64.8629227 ], [ 25.3300838, 64.8301392 ], [ 25.3778362, 64.8815308 ], [ 25.3328934, 64.9093552 ], [ 25.2535095, 64.9382706 ], [ 25.1954956, 64.9779434 ], [ 25.3215866, 64.9927368 ], [ 25.4222088, 64.9498901 ], [ 25.4841385, 64.9545975 ], [ 25.4080563, 65.0294571 ], [ 25.4230061, 65.0428696 ], [ 25.3595753, 65.1080856 ], [ 25.2322102, 65.124176 ], [ 25.2267647, 65.1672363 ], [ 25.2723446, 65.1721115 ], [ 25.2874184, 65.2342072 ], [ 25.3293724, 65.2656479 ], [ 25.2877178, 65.2847061 ], [ 25.2359028, 65.3334122 ], [ 25.3113155, 65.333168 ], [ 25.3287106, 65.3634644 ], [ 25.2681541, 65.3760147 ], [ 25.3642063, 65.4192505 ], [ 25.3199043, 65.4831619 ], [ 25.2841816, 65.4886169 ], [ 25.2482681, 65.529953 ], [ 25.1746597, 65.565094 ], [ 25.0888252, 65.5672684 ], [ 25.0889568, 65.5914841 ], [ 25.0498848, 65.6218567 ], [ 24.9234619, 65.6357956 ], [ 24.8903694, 65.6678543 ], [ 24.7964001, 65.656723 ], [ 24.7453003, 65.6677628 ], [ 24.7003479, 65.6325455 ], [ 24.6598625, 65.6932068 ], [ 24.516037, 65.7561646 ], [ 24.490675, 65.7738571 ], [ 24.3612442, 65.7832336 ], [ 24.3224812, 65.8022003 ], [ 24.2320194, 65.8059845 ], [ 24.2144241, 65.7739639 ], [ 24.1535492, 65.7600098 ], [ 24.1559467, 65.8181915 ], [ 24.15765, 65.85809 ], [ 24.11577, 65.91915 ], [ 24.04293, 65.95727 ], [ 24.039488, 66.0041415 ], [ 23.94317, 66.08337 ], [ 23.93236, 66.14997 ], [ 23.89614, 66.1659 ], [ 23.80116, 66.18265 ], [ 23.71929, 66.22298 ], [ 23.65543, 66.30673 ], [ 23.68176, 66.38096 ], [ 23.64264, 66.43592 ], [ 23.6528197, 66.4547897 ], [ 23.72254, 66.47494 ], [ 23.72935, 66.49361 ], [ 23.80285, 66.51619 ], [ 23.79924, 66.532 ], [ 23.88902, 66.57289 ], [ 23.87942, 66.6372 ], [ 23.91309, 66.71933 ], [ 23.89436, 66.75929 ], [ 23.9353888, 66.7842179 ], [ 24.00571, 66.80424 ], [ 24.01105, 66.83047 ], [ 23.96068, 66.87398 ], [ 23.89351, 66.91263 ], [ 23.8799, 66.94453 ], [ 23.7819, 66.99966 ], [ 23.7167287, 67.053062 ], [ 23.65581, 67.1209 ], [ 23.5792, 67.16257 ], [ 23.61384, 67.21461 ], [ 23.58425, 67.22308 ], [ 23.62447, 67.27 ], [ 23.75868, 67.2827 ], [ 23.81296, 67.33276 ], [ 23.76509, 67.36315 ], [ 23.78639, 67.42785 ], [ 23.57786, 67.46326 ], [ 23.53646, 67.44739 ], [ 23.44128, 67.46446 ], [ 23.4142, 67.50867 ], [ 23.4810891, 67.5443715 ], [ 23.46004, 67.565 ], [ 23.52426, 67.57906 ], [ 23.55627, 67.62753 ], [ 23.49819, 67.66409 ], [ 23.48264, 67.72407 ], [ 23.50129, 67.79683 ], [ 23.48634, 67.82427 ], [ 23.50636, 67.87086 ], [ 23.66198, 67.93673 ], [ 23.65582, 67.96259 ], [ 23.57161, 67.97947 ], [ 23.55347, 68.00823 ], [ 23.40711, 68.04613 ], [ 23.29587, 68.15262 ], [ 23.17183, 68.13301 ], [ 23.14608, 68.21425 ], [ 23.15085, 68.24256 ], [ 23.07605, 68.26945 ], [ 23.0567, 68.30737 ], [ 22.86933, 68.35714 ], [ 22.83416, 68.38831 ], [ 22.73875, 68.38726 ], [ 22.6501, 68.42101 ], [ 22.57193, 68.42375 ], [ 22.42829, 68.46039 ], [ 22.3405889, 68.4740402 ], [ 22.12354, 68.47241 ], [ 22.03763, 68.48077 ], [ 22.00349, 68.52527 ], [ 21.90454, 68.57627 ], [ 21.85459, 68.5871 ], [ 21.72017, 68.5881 ], [ 21.70928, 68.62324 ], [ 21.66158, 68.65003 ], [ 21.58133, 68.67075 ], [ 21.45266, 68.6839 ], [ 21.41859, 68.69938 ], [ 21.39353, 68.75533 ], [ 21.30185, 68.76329 ], [ 21.2599, 68.79876 ], [ 21.14214, 68.85598 ], [ 20.99193, 68.89331 ], [ 20.92385, 68.89759 ], [ 20.84878, 68.93126 ], [ 20.91083, 68.96488 ], [ 20.8333, 69.01292 ], [ 20.76468, 69.03792 ], [ 20.67331, 69.03984 ], [ 20.5573196, 69.0625 ], [ 20.72051, 69.12137 ], [ 21.06034, 69.04433 ], [ 21.12806, 69.10396 ], [ 21.06814, 69.1232 ], [ 21.02173, 69.18432 ], [ 21.04076, 69.23402 ], [ 21.17867, 69.28174 ], [ 21.28713, 69.30796 ], [ 21.64404, 69.27008 ], [ 21.82368, 69.1562 ], [ 22.17474, 68.96124 ], [ 22.19843, 68.91603 ], [ 22.33649, 68.83197 ], [ 22.37394, 68.72049 ], [ 22.52133, 68.74408 ], [ 22.79832, 68.69112 ], [ 23.04156, 68.69703 ], [ 23.16076, 68.62904 ], [ 23.44614, 68.69742 ], [ 23.6645, 68.71335 ], [ 23.74568, 68.78188 ], [ 23.76792, 68.82236 ], [ 23.87403, 68.83944 ], [ 24.00282, 68.82858 ], [ 24.05126, 68.8018 ], [ 24.15247, 68.79659 ], [ 24.14114, 68.75901 ], [ 24.26754, 68.72763 ], [ 24.30467, 68.72765 ], [ 24.65309, 68.68356 ], [ 24.80487, 68.63105 ], [ 24.86642, 68.56107 ], [ 24.91608, 68.60983 ], [ 25.03209, 68.62151 ], [ 25.1239993, 68.646301 ], [ 25.10738, 68.67882 ], [ 25.13091, 68.7157 ], [ 25.12252, 68.75733 ], [ 25.14213, 68.79647 ], [ 25.22035, 68.81954 ], [ 25.2501, 68.84334 ], [ 25.3917297, 68.8865599 ], [ 25.48854, 68.90555 ], [ 25.54174, 68.88763 ], [ 25.62456, 68.8898 ], [ 25.67082, 68.91931 ], [ 25.73043, 68.9916 ], [ 25.7834076, 69.0202587 ], [ 25.73512, 69.10748 ], [ 25.75323, 69.14919 ], [ 25.70682, 69.20571 ], [ 25.70955, 69.25553 ], [ 25.7409488, 69.2701618 ], [ 25.7556594, 69.3369686 ], [ 25.83692, 69.3927 ], [ 25.80655, 69.43357 ], [ 25.8679994, 69.4828406 ], [ 25.8839968, 69.5226486 ], [ 25.85059, 69.54704 ], [ 25.95041, 69.5805 ], [ 25.9808093, 69.6096414 ], [ 25.96388, 69.64661 ], [ 25.90225, 69.67165 ], [ 25.99712, 69.72194 ], [ 26.16373, 69.75363 ], [ 26.25759, 69.8000008 ], [ 26.2584198, 69.8150865 ], [ 26.39593, 69.8616 ], [ 26.41249, 69.90583 ], [ 26.46471, 69.9391181 ], [ 26.68259, 69.96568 ], [ 26.71568, 69.94913 ], [ 26.84919, 69.96153 ], [ 26.87628, 69.93415 ], [ 26.96099, 69.93883 ], [ 27.0379, 69.91027 ], [ 27.26779, 69.95513 ], [ 27.27167, 69.98145 ], [ 27.35341, 69.99283 ], [ 27.44745, 70.02201 ], [ 27.53562, 70.03682 ], [ 27.58264, 70.07545 ], [ 27.65644, 70.07981 ], [ 27.76109, 70.06886 ], [ 27.9331, 70.09402 ], [ 27.9777889, 70.0926203 ], [ 28.00158, 70.02195 ], [ 28.11798, 69.95331 ], [ 28.25047, 69.90651 ], [ 28.35262, 69.88127 ], [ 28.35466, 69.84885 ], [ 28.42846, 69.82108 ], [ 29.1350881, 69.6968903 ], [ 29.13717, 69.6766 ], [ 29.3361695, 69.4844296 ], [ 29.22331, 69.41059 ], [ 28.82457, 69.22921 ], [ 28.82637, 69.17907 ], [ 28.80774, 69.12741 ], [ 28.83202, 69.09227 ], [ 28.926929, 69.0573803 ], [ 28.43475, 68.90842 ], [ 28.50067, 68.88215 ], [ 28.67591, 68.88713 ], [ 28.80354, 68.87493 ], [ 28.71842, 68.73946 ], [ 28.57586, 68.63094 ], [ 28.45037, 68.54767 ], [ 28.65979, 68.19511 ], [ 29.18863, 68.10253 ], [ 29.33467, 68.07471 ], [ 29.46334, 67.96471 ], [ 29.57367, 67.87768 ], [ 29.69452, 67.79375 ], [ 29.95585, 67.70261 ], [ 30.0345284, 67.669363 ], [ 29.9823, 67.5807 ], [ 29.95916, 67.51733 ], [ 29.78773, 67.43616 ], [ 29.6422, 67.35367 ], [ 29.65486, 67.34066 ], [ 29.5395198, 67.3029478 ], [ 29.5402287, 67.2877392 ], [ 29.13743, 67.03601 ], [ 29.05188, 66.97675 ], [ 29.02974, 66.91658 ], [ 29.08628, 66.82427 ], [ 29.3047, 66.67201 ], [ 29.3450084, 66.6490209 ], [ 29.38441, 66.60123 ], [ 29.4768, 66.54175 ], [ 29.60629, 66.40153 ], [ 29.66985, 66.29195 ], [ 29.91758, 66.12783 ], [ 29.98409, 66.01605 ], [ 30.06469, 65.9133899 ], [ 30.10133, 65.83206 ], [ 30.12778, 65.73491 ], [ 30.12272, 65.6645 ], [ 30.00663, 65.68992 ], [ 29.73441, 65.62791 ], [ 29.78211, 65.59905 ], [ 29.88122, 65.5641 ], [ 29.7653889, 65.4950175 ], [ 29.74197, 65.46608 ], [ 29.74303, 65.39013 ], [ 29.7685788, 65.3340995 ], [ 29.61862, 65.27339 ], [ 29.60952, 65.25109 ], [ 29.65769, 65.22775 ], [ 29.71091, 65.22987 ], [ 29.87759, 65.21326 ], [ 29.89565, 65.1946 ], [ 29.82288, 65.14042 ], [ 29.8928584, 65.1034396 ], [ 29.83591, 65.08962 ], [ 29.7379, 65.09008 ], [ 29.62285, 65.05916 ], [ 29.62652, 65.01829 ], [ 29.59626, 64.98994 ], [ 29.63269, 64.89017 ], [ 29.6971293, 64.8351592 ], [ 29.68406, 64.81951 ], [ 29.7544, 64.78806 ], [ 29.82197, 64.78499 ], [ 29.93582, 64.79461 ], [ 30.04565, 64.79217 ], [ 30.093449, 64.7679509 ], [ 30.05007, 64.74339 ], [ 30.05711, 64.71081 ], [ 30.14299, 64.65276 ], [ 30.12368, 64.62759 ], [ 30.01828, 64.59172 ], [ 30.01267, 64.51774 ], [ 30.06498, 64.45602 ], [ 30.05301, 64.40425 ], [ 30.11998, 64.35917 ], [ 30.2584, 64.33579 ], [ 30.35932, 64.296 ], [ 30.36952, 64.27724 ], [ 30.48496, 64.25491 ], [ 30.51318, 64.21944 ], [ 30.47269, 64.19765 ], [ 30.5503, 64.1259 ], [ 30.52617, 64.04909 ], [ 30.45325, 63.99022 ], [ 30.3211, 63.90189 ], [ 30.23982, 63.81827 ], [ 29.98095, 63.75448 ], [ 30.04158, 63.71125 ], [ 30.11299, 63.67881 ], [ 30.2515, 63.60342 ], [ 30.26976, 63.58393 ], [ 30.39274, 63.54311 ], [ 30.50515, 63.46186 ], [ 30.79087, 63.40457 ], [ 30.85149, 63.36969 ], [ 30.932907, 63.3535806 ], [ 30.96771, 63.32124 ], [ 31.08558, 63.28778 ], [ 31.16011, 63.24749 ], [ 31.23126, 63.22584 ], [ 31.2544, 63.18667 ], [ 31.25856, 63.1356303 ], [ 31.31877, 63.08893 ], [ 31.45843, 63.02784 ], [ 31.50454, 62.99856 ], [ 31.58094, 62.90803 ], [ 31.43502, 62.78026 ], [ 31.37451, 62.6627 ], [ 31.34842, 62.64208 ], [ 31.22984, 62.50706 ], [ 31.18682, 62.4928 ], [ 31.16972, 62.45901 ], [ 31.10113, 62.43045 ], [ 30.94365, 62.33888 ], [ 30.9398379, 62.30937 ], [ 30.89096, 62.30725 ], [ 30.7187981, 62.21289 ], [ 30.65824, 62.20592 ], [ 30.60014, 62.13867 ], [ 30.53975, 62.10813 ], [ 30.46439, 62.04895 ], [ 30.35277, 61.98033 ], [ 30.31838, 61.94698 ], [ 30.20227, 61.89231 ], [ 30.14997, 61.85168 ], [ 30.0581797, 61.8014965 ], [ 30.0464, 61.76626 ], [ 29.87684, 61.68771 ], [ 29.75474, 61.60138 ], [ 29.74728, 61.57239 ], [ 29.65074, 61.52178 ], [ 29.62898, 61.49768 ], [ 29.50283, 61.48852 ], [ 29.49095, 61.44613 ], [ 29.33398, 61.35296 ], [ 29.24556, 61.27342 ], [ 29.08724, 61.21077 ], [ 28.98445, 61.17706 ], [ 28.95412, 61.15165 ], [ 28.89147, 61.14585 ], [ 28.82885, 61.12583 ], [ 28.8157299, 61.1002399 ], [ 28.72927, 61.05515 ], [ 28.69498, 60.98537 ], [ 28.65571, 60.95273 ], [ 28.52766, 60.95329 ], [ 28.31411, 60.83898 ], [ 28.23471, 60.78713 ], [ 28.17463, 60.77579 ], [ 28.14564, 60.74197 ], [ 28.11193, 60.73317 ], [ 27.8774, 60.6017 ], [ 27.8413996, 60.5565199 ], [ 27.8018017, 60.5494003 ], [ 27.7749844, 60.5818748 ], [ 27.7298031, 60.5659828 ], [ 27.7344799, 60.4889565 ], [ 27.6546001, 60.4914856 ], [ 27.6049252, 60.4783287 ], [ 27.5089417, 60.5029945 ], [ 27.4306965, 60.471077 ], [ 27.3935528, 60.5035629 ], [ 27.3209896, 60.5062294 ], [ 27.2574768, 60.5223427 ], [ 27.2262974, 60.5126457 ], [ 27.0678139, 60.5351181 ], [ 26.9825382, 60.4914742 ], [ 26.9163666, 60.4921646 ], [ 26.8271828, 60.4618568 ], [ 26.7423763, 60.4516678 ], [ 26.6700611, 60.4285126 ], [ 26.6261845, 60.4607086 ], [ 26.564743, 60.4632988 ], [ 26.5096073, 60.4514961 ], [ 26.445715, 60.4936256 ], [ 26.4609032, 60.4315109 ], [ 26.412075, 60.4080544 ], [ 26.4698982, 60.3764229 ], [ 26.3916759, 60.358532 ], [ 26.41082, 60.3988037 ], [ 26.3480034, 60.4016762 ], [ 26.3039017, 60.4165497 ], [ 26.2280693, 60.3982277 ], [ 26.1727219, 60.3965988 ], [ 26.0390835, 60.4179955 ], [ 26.0379658, 60.3848152 ], [ 26.1210918, 60.3266983 ], [ 26.0829258, 60.3048325 ], [ 26.0307922, 60.3040047 ], [ 26.0227757, 60.3352623 ], [ 25.989994, 60.3550301 ], [ 25.9371853, 60.3607941 ], [ 25.8628521, 60.3232574 ], [ 25.8911686, 60.2869492 ], [ 25.935091, 60.2609444 ], [ 25.8969803, 60.2456856 ], [ 25.8497334, 60.2694054 ], [ 25.7757225, 60.2481537 ], [ 25.6746979, 60.2763023 ], [ 25.6422844, 60.3093452 ], [ 25.6288719, 60.3499451 ], [ 25.5559807, 60.3155174 ], [ 25.5404015, 60.2821693 ], [ 25.50494, 60.2584343 ], [ 25.4420872, 60.2523613 ], [ 25.3466644, 60.258297 ], [ 25.2102757, 60.2556496 ], [ 25.1850758, 60.1958656 ], [ 24.9716167, 60.182827 ], [ 24.9692097, 60.1545868 ], [ 24.8467712, 60.2111511 ], [ 24.8440742, 60.1773567 ], [ 24.7602959, 60.1463165 ], [ 24.7237396, 60.1100502 ], [ 24.6500416, 60.1095314 ], [ 24.6297035, 60.0786896 ], [ 24.5491543, 60.0389442 ], [ 24.5211487, 60.0080147 ], [ 24.4207459, 59.9746552 ], [ 24.4549847, 60.0244789 ], [ 24.3633556, 60.0245399 ], [ 24.3826904, 60.07967 ], [ 24.3127518, 60.0872879 ], [ 24.2842865, 60.0569572 ], [ 24.2079353, 60.0283318 ], [ 24.10256, 60.03265 ], [ 23.9673786, 60.0202026 ], [ 23.9244347, 59.9973869 ], [ 23.85219, 60.0 ], [ 23.8312702, 59.9780045 ], [ 23.7661266, 59.9630623 ], [ 23.7273064, 59.9389839 ], [ 23.524437, 59.9369087 ], [ 23.4145107, 59.9169846 ], [ 23.3837261, 59.9349518 ], [ 23.2398548, 59.897007 ], [ 23.229147, 59.875145 ], [ 23.2485371, 59.8436165 ], [ 23.0685673, 59.8243446 ], [ 23.0059147, 59.8278999 ], [ 22.9550858, 59.8187332 ], [ 22.9501152, 59.8488579 ], [ 22.9915943, 59.848484 ], [ 23.1073608, 59.8882141 ], [ 23.1656895, 59.8988266 ], [ 23.131115, 59.9402466 ], [ 23.1019707, 59.9465027 ], [ 23.0652065, 59.918396 ], [ 22.9063416, 59.9140129 ], [ 22.8653622, 59.9412308 ], [ 22.8677769, 59.9710312 ], [ 22.9468193, 59.990799 ], [ 22.984293, 59.9702148 ], [ 23.0323029, 59.9878693 ], [ 22.9986439, 60.0296211 ], [ 23.0432587, 60.0609055 ], [ 22.9885597, 60.0743675 ], [ 23.0464554, 60.1194153 ], [ 23.0225544, 60.1304703 ], [ 22.9060745, 60.143856 ], [ 22.8750515, 60.1638031 ], [ 22.8762665, 60.198822 ], [ 22.9526844, 60.2658844 ], [ 23.0121002, 60.289856 ], [ 23.0178299, 60.3083382 ], [ 22.9823761, 60.3316689 ], [ 22.8811913, 60.3086014 ], [ 22.8654766, 60.2895393 ], [ 22.8014622, 60.258728 ], [ 22.6583042, 60.2410965 ], [ 22.5638828, 60.2143669 ], [ 22.5642757, 60.2717972 ], [ 22.4657497, 60.2571602 ], [ 22.471386, 60.2805481 ], [ 22.5916786, 60.3531952 ], [ 22.6085663, 60.3767929 ], [ 22.4991608, 60.3837738 ], [ 22.4495144, 60.4116097 ], [ 22.3003883, 60.386425 ], [ 22.2003899, 60.4467735 ], [ 22.0881195, 60.4446259 ], [ 22.0130501, 60.4699287 ], [ 21.9657993, 60.5263481 ], [ 21.9240627, 60.5431366 ], [ 21.8681049, 60.5443077 ], [ 21.8961124, 60.4818306 ], [ 21.8311958, 60.5016747 ], [ 21.7705803, 60.5048599 ] ] ], [ [ [ 21.7705803, 60.5048599 ], [ 21.7000141, 60.5003433 ], [ 21.7573509, 60.5550308 ], [ 21.8062172, 60.5409927 ], [ 21.7705803, 60.5048599 ] ] ], [ [ [ 26.6450691, 60.4192085 ], [ 26.546999, 60.410965 ], [ 26.5979004, 60.4470978 ], [ 26.6450691, 60.4192085 ] ] ], [ [ [ 26.1749344, 60.3512421 ], [ 26.2391396, 60.3333702 ], [ 26.203598, 60.318119 ], [ 26.1749344, 60.3512421 ] ] ], [ [ [ 26.0105228, 60.3178062 ], [ 26.0039368, 60.2815933 ], [ 25.9374619, 60.2728004 ], [ 25.9572754, 60.3116035 ], [ 26.0105228, 60.3178062 ] ] ], [ [ [ 25.6730461, 60.2481575 ], [ 25.6382217, 60.2254181 ], [ 25.5989017, 60.2274666 ], [ 25.5780315, 60.2604904 ], [ 25.5776997, 60.3023186 ], [ 25.6694698, 60.2612801 ], [ 25.6730461, 60.2481575 ] ] ], [ [ [ 24.8648148, 65.0888596 ], [ 24.9101849, 65.0630112 ], [ 25.0308609, 65.0578156 ], [ 25.0183792, 65.0338135 ], [ 24.9255466, 65.0348969 ], [ 24.8955669, 65.0504532 ], [ 24.8021698, 65.051918 ], [ 24.8820381, 65.0 ], [ 24.8585148, 64.9651642 ], [ 24.781332, 64.9439774 ], [ 24.7461739, 64.9618683 ], [ 24.6402054, 64.9638824 ], [ 24.5826187, 65.0005493 ], [ 24.5592232, 65.0415268 ], [ 24.6494198, 65.0827408 ], [ 24.8648148, 65.0888596 ] ] ], [ [ [ 23.9395428, 59.990509 ], [ 23.9231205, 59.9533272 ], [ 23.8493748, 59.9569473 ], [ 23.9060326, 59.9885368 ], [ 23.9395428, 59.990509 ] ] ], [ [ [ 23.6341, 59.931778 ], [ 23.5524311, 59.8955154 ], [ 23.4685535, 59.8903999 ], [ 23.514082, 59.9285049 ], [ 23.6341, 59.931778 ] ] ], [ [ [ 22.9679852, 60.2822075 ], [ 22.9077358, 60.2510567 ], [ 22.8616886, 60.1821594 ], [ 22.8800106, 60.1355248 ], [ 22.8453579, 60.0950394 ], [ 22.7743359, 60.0684738 ], [ 22.7926693, 60.0248528 ], [ 22.7783375, 60.0149002 ], [ 22.636467, 60.0162354 ], [ 22.5584888, 60.0255203 ], [ 22.4759922, 60.0121613 ], [ 22.3795395, 60.0376282 ], [ 22.3684559, 60.0841637 ], [ 22.4926262, 60.1563835 ], [ 22.4183846, 60.1781998 ], [ 22.4613781, 60.2023926 ], [ 22.4574986, 60.2222137 ], [ 22.5527077, 60.2060394 ], [ 22.6282825, 60.2277641 ], [ 22.6886997, 60.2350159 ], [ 22.7911968, 60.2331505 ], [ 22.8655834, 60.2432938 ], [ 22.8755589, 60.2713814 ], [ 22.9361591, 60.3115921 ], [ 22.9679852, 60.2822075 ] ] ], [ [ [ 22.9671574, 60.1022568 ], [ 22.9604836, 60.0869255 ], [ 22.8923168, 60.0800858 ], [ 22.8687153, 60.1001587 ], [ 22.9044552, 60.1215286 ], [ 22.9582806, 60.1242104 ], [ 22.9671574, 60.1022568 ] ] ], [ [ [ 22.7955055, 63.774189 ], [ 22.8154068, 63.759697 ], [ 22.7535763, 63.7167244 ], [ 22.7066402, 63.7310944 ], [ 22.6754532, 63.7590561 ], [ 22.7751007, 63.7914085 ], [ 22.7955055, 63.774189 ] ] ], [ [ [ 22.4508533, 60.3455124 ], [ 22.523262, 60.3413239 ], [ 22.4558373, 60.3100433 ], [ 22.3080902, 60.3312607 ], [ 22.3239632, 60.3490372 ], [ 22.3997917, 60.3706665 ], [ 22.4508533, 60.3455124 ] ] ], [ [ [ 22.4692936, 60.3028107 ], [ 22.4216728, 60.2703896 ], [ 22.4134312, 60.2465477 ], [ 22.3331108, 60.2416611 ], [ 22.3159771, 60.2659225 ], [ 22.3818169, 60.2971573 ], [ 22.4692936, 60.3028107 ] ] ], [ [ [ 22.4382744, 60.381279 ], [ 22.3424339, 60.3661003 ], [ 22.3150539, 60.3818665 ], [ 22.432991, 60.4023705 ], [ 22.4382744, 60.381279 ] ] ], [ [ [ 22.3699589, 60.1715851 ], [ 22.3144321, 60.1462898 ], [ 22.2972031, 60.1791077 ], [ 22.3375683, 60.1984978 ], [ 22.3699589, 60.1715851 ] ] ], [ [ [ 22.2468166, 60.3341942 ], [ 22.2941952, 60.3145714 ], [ 22.3652706, 60.3101273 ], [ 22.3346958, 60.2834778 ], [ 22.2648144, 60.2669258 ], [ 22.1995258, 60.2750473 ], [ 22.162653, 60.2670364 ], [ 22.0909233, 60.2921677 ], [ 22.1090183, 60.3273163 ], [ 22.1860962, 60.3260269 ], [ 22.2468166, 60.3341942 ] ] ], [ [ [ 22.2680492, 60.1977158 ], [ 22.2149906, 60.1950569 ], [ 22.2215939, 60.2326813 ], [ 22.2873936, 60.2690659 ], [ 22.3249912, 60.2354164 ], [ 22.2680492, 60.1977158 ] ] ], [ [ [ 22.2940712, 60.3557854 ], [ 22.2116032, 60.3427887 ], [ 22.2275658, 60.3710136 ], [ 22.295229, 60.3755684 ], [ 22.2940712, 60.3557854 ] ] ], [ [ [ 22.2603455, 60.4062119 ], [ 22.2229652, 60.3856773 ], [ 22.170248, 60.3865318 ], [ 22.1508312, 60.4073486 ], [ 22.2174854, 60.4299202 ], [ 22.2603455, 60.4062119 ] ] ], [ [ [ 22.2263775, 63.3418922 ], [ 22.2363968, 63.2952805 ], [ 22.2164574, 63.2747917 ], [ 22.1627045, 63.2690163 ], [ 22.1438293, 63.2485924 ], [ 22.0881481, 63.2599792 ], [ 22.078743, 63.317749 ], [ 22.107214, 63.3252831 ], [ 22.1899185, 63.313427 ], [ 22.2263775, 63.3418922 ] ] ], [ [ [ 22.1085415, 60.2000694 ], [ 22.0522213, 60.156044 ], [ 22.0101814, 60.1472931 ], [ 21.9491768, 60.1660805 ], [ 21.9637909, 60.1933212 ], [ 22.0241718, 60.1990356 ], [ 22.0668201, 60.2182541 ], [ 22.1085415, 60.2000694 ] ] ], [ [ [ 22.0125923, 63.3875084 ], [ 22.0643711, 63.3869247 ], [ 22.0720901, 63.356308 ], [ 21.942049, 63.3345528 ], [ 22.0125923, 63.3875084 ] ] ], [ [ [ 22.019064, 63.3297348 ], [ 22.0639286, 63.3001747 ], [ 22.0476818, 63.2743912 ], [ 21.9709129, 63.2829323 ], [ 22.019064, 63.3297348 ] ] ], [ [ [ 21.8526592, 60.4903336 ], [ 21.8957615, 60.4762344 ], [ 22.0477734, 60.3593636 ], [ 21.9950066, 60.3418274 ], [ 21.9120197, 60.3489876 ], [ 21.8979874, 60.3660774 ], [ 21.827858, 60.3815041 ], [ 21.7967548, 60.4028893 ], [ 21.8004932, 60.4368401 ], [ 21.8526592, 60.4903336 ] ] ], [ [ [ 22.0381756, 60.4465981 ], [ 21.9965191, 60.4237747 ], [ 21.9480381, 60.4480896 ], [ 21.9846115, 60.4746628 ], [ 22.0381756, 60.4465981 ] ] ], [ [ [ 22.0366097, 60.3245659 ], [ 22.0081902, 60.307045 ], [ 21.9048481, 60.2822914 ], [ 21.8812447, 60.3105965 ], [ 21.9528599, 60.3129044 ], [ 21.9550362, 60.331871 ], [ 22.0366097, 60.3245659 ] ] ], [ [ [ 21.7877808, 60.215416 ], [ 21.8962917, 60.2064247 ], [ 21.9324532, 60.1831665 ], [ 21.8281155, 60.1623993 ], [ 21.8084011, 60.1367683 ], [ 21.7182522, 60.1326942 ], [ 21.7125874, 60.1614151 ], [ 21.7330265, 60.2017403 ], [ 21.7877808, 60.215416 ] ] ], [ [ [ 21.6195393, 60.1843987 ], [ 21.6877842, 60.1772957 ], [ 21.6663551, 60.116684 ], [ 21.5903893, 60.1082191 ], [ 21.5237007, 60.1126175 ], [ 21.5105362, 60.1448441 ], [ 21.5839844, 60.1835175 ], [ 21.6195393, 60.1843987 ] ] ], [ [ [ 21.5904541, 60.2567291 ], [ 21.6372948, 60.2537384 ], [ 21.6022224, 60.2218208 ], [ 21.5560398, 60.2269402 ], [ 21.5904541, 60.2567291 ] ] ], [ [ [ 21.3837929, 60.5987358 ], [ 21.4186058, 60.5624237 ], [ 21.480093, 60.5352478 ], [ 21.4992104, 60.4938011 ], [ 21.4349365, 60.5021591 ], [ 21.3361397, 60.5421715 ], [ 21.3322277, 60.5638733 ], [ 21.3837929, 60.5987358 ] ] ], [ [ [ 21.2248001, 63.3196945 ], [ 21.2721748, 63.2986336 ], [ 21.2204971, 63.2518845 ], [ 21.2948971, 63.2398186 ], [ 21.3907108, 63.279541 ], [ 21.4458027, 63.2491226 ], [ 21.4577255, 63.2058601 ], [ 21.3362141, 63.1867294 ], [ 21.3212261, 63.156971 ], [ 21.2746258, 63.1556091 ], [ 21.211441, 63.1832008 ], [ 21.1682148, 63.1834869 ], [ 21.1210842, 63.2497406 ], [ 21.1380615, 63.2817802 ], [ 21.2016659, 63.2774162 ], [ 21.2248001, 63.3196945 ] ] ], [ [ [ 21.378233, 60.764679 ], [ 21.4310951, 60.7350807 ], [ 21.3788605, 60.7227173 ], [ 21.378233, 60.764679 ] ] ], [ [ [ 21.4035473, 63.3728027 ], [ 21.393837, 63.3159409 ], [ 21.3020592, 63.3110962 ], [ 21.2404766, 63.3427925 ], [ 21.3277645, 63.372551 ], [ 21.4035473, 63.3728027 ] ] ], [ [ [ 21.290617, 60.2193375 ], [ 21.3274021, 60.2355766 ], [ 21.3803329, 60.2376518 ], [ 21.4005833, 60.2081642 ], [ 21.3418674, 60.2067223 ], [ 21.290617, 60.2193375 ] ] ], [ [ [ 21.26548, 60.6717949 ], [ 21.3135281, 60.6699028 ], [ 21.3136997, 60.6093178 ], [ 21.2483902, 60.609623 ], [ 21.2393932, 60.6482773 ], [ 21.26548, 60.6717949 ] ] ], [ [ [ 21.308569, 60.5540543 ], [ 21.3096447, 60.4898338 ], [ 21.240593, 60.5181007 ], [ 21.308569, 60.5540543 ] ] ], [ [ [ 21.1507339, 63.0083275 ], [ 21.194315, 62.9904747 ], [ 21.2219296, 62.9480743 ], [ 21.1387215, 62.9572067 ], [ 21.1193352, 62.9954376 ], [ 21.1507339, 63.0083275 ] ] ], [ [ [ 21.1698647, 62.8643227 ], [ 21.2156105, 62.8406372 ], [ 21.1708851, 62.8284607 ], [ 21.1299343, 62.8527756 ], [ 21.1698647, 62.8643227 ] ] ], [ [ [ 20.9355602, 59.9089584 ], [ 20.8572559, 59.933342 ], [ 20.9108734, 59.9496727 ], [ 20.9355602, 59.9089584 ] ] ], [ [ [ 20.806406, 60.2892723 ], [ 20.8514004, 60.2468758 ], [ 20.7782269, 60.2286873 ], [ 20.7531853, 60.2554932 ], [ 20.7647781, 60.2821541 ], [ 20.806406, 60.2892723 ] ] ], [ [ [ 20.566555, 60.0550308 ], [ 20.6174946, 60.0333138 ], [ 20.533102, 60.0027771 ], [ 20.5066662, 60.0165939 ], [ 20.566555, 60.0550308 ] ] ], [ [ [ 20.3708744, 60.0170403 ], [ 20.4452648, 60.0096703 ], [ 20.3926449, 59.9847717 ], [ 20.3708744, 60.0170403 ] ] ], [ [ [ 20.3956623, 60.2601471 ], [ 20.4387836, 60.2388535 ], [ 20.3821526, 60.219059 ], [ 20.3425598, 60.2331581 ], [ 20.3556137, 60.2645798 ], [ 20.3956623, 60.2601471 ] ] ], [ [ [ 20.2618351, 60.1318703 ], [ 20.3086853, 60.111042 ], [ 20.2849407, 60.0806046 ], [ 20.2171707, 60.0924873 ], [ 20.2618351, 60.1318703 ] ] ], [ [ [ 19.926239, 60.4202156 ], [ 19.9740028, 60.3937187 ], [ 19.9690819, 60.3670464 ], [ 20.0423946, 60.3697319 ], [ 20.1236916, 60.3473625 ], [ 20.2684555, 60.2831345 ], [ 20.2662144, 60.2403374 ], [ 20.2247963, 60.2381287 ], [ 20.2442665, 60.2049141 ], [ 20.1932449, 60.1862793 ], [ 20.1035385, 60.1832085 ], [ 20.0579433, 60.1992455 ], [ 20.0252228, 60.1827698 ], [ 20.0548248, 60.1555977 ], [ 20.0337696, 60.1274834 ], [ 20.0631237, 60.1148643 ], [ 20.0487823, 60.0791397 ], [ 20.171896, 60.0940056 ], [ 20.2313614, 60.0554771 ], [ 20.2196903, 59.9900131 ], [ 20.1321259, 60.0026588 ], [ 20.0994072, 60.0449715 ], [ 20.0569496, 60.0379524 ], [ 19.9377594, 60.0898933 ], [ 19.7437782, 60.1134148 ], [ 19.6986141, 60.2009964 ], [ 19.7099056, 60.2572746 ], [ 19.7296429, 60.2917404 ], [ 19.7863884, 60.3272438 ], [ 19.8031101, 60.2906151 ], [ 19.7777863, 60.2615967 ], [ 19.8243694, 60.2398338 ], [ 19.8969536, 60.266861 ], [ 19.9297295, 60.3230591 ], [ 19.8921051, 60.3368721 ], [ 19.8447514, 60.3266258 ], [ 19.8061771, 60.3963089 ], [ 19.8907509, 60.4251099 ], [ 19.926239, 60.4202156 ] ] ], [ [ [ 19.6338558, 60.280201 ], [ 19.6650162, 60.2539673 ], [ 19.6836452, 60.2149925 ], [ 19.6792164, 60.1683922 ], [ 19.6146393, 60.1813469 ], [ 19.6138744, 60.1516457 ], [ 19.5471039, 60.1487961 ], [ 19.5285301, 60.2060242 ], [ 19.5512981, 60.2154045 ], [ 19.5436783, 60.252327 ], [ 19.6338558, 60.280201 ] ] ] ] } }
]
}
