{
"type": "FeatureCollection",
"name": "FJI_GAUL2014_ADM2",
"crs": { "type": "name", "properties": { "name": "urn:ogc:def:crs:OGC:1.3:CRS84" } },
"features": [
{ "type": "Feature", "properties": { "POLYGON_ID": "FJI_GAUL2014_ADM2_40191", "ADM0_ISO3": "FJI", "ADM0_NAME": "Fiji", "ADM0_CODE": 83, "ADM1_NAME": "Central", "ADM1_CODE": 40187, "ADM2_NAME": "Naitasiri", "ADM2_CODE": 40191, "GEOSET": "GAUL", "GEOSET_YEAR": 2014.0, "GEOSET_VERSION": "GAUL_v1", "GEOSET_UNIT": "ADM2", "CENTROID_LONG": 178.24845461108708, "CENTROID_LAT": -17.879738387506443 }, "geometry": { "type": "MultiPolygon", "coordinates": [ [ [ [ 178.275116, -17.6752834 ], [ 178.302581800000013, -17.7786808 ], [ 178.355224600000014, -17.7471638 ], [ 178.391876200000013, -17.7710438 ], [ 178.373870899999986, -17.8204613 ], [ 178.444900499999989, -17.8847046 ], [ 178.4412231, -17.9190788 ], [ 178.5345154, -17.9566097 ], [ 178.5303034, -18.0238156 ], [ 178.537593500000014, -18.0358296 ], [ 178.5265166, -18.0983901 ], [ 178.4717755, -18.1136147 ], [ 178.4399414, -18.1042309 ], [ 178.3945007, -18.0286293 ], [ 178.2757263, -18.0647793 ], [ 178.2567291, -18.0863304 ], [ 178.153778100000011, -17.9850159 ], [ 178.1174011, -17.9800777 ], [ 178.09524540000001, -17.9239597 ], [ 178.0098572, -17.9182758 ], [ 177.9780426, -17.8801384 ], [ 177.9840088, -17.8319454 ], [ 178.0550537, -17.761589 ], [ 178.015426600000012, -17.7061386 ], [ 178.049057, -17.6306553 ], [ 178.0325928, -17.5822544 ], [ 178.0740204, -17.6076088 ], [ 178.089355500000011, -17.6530666 ], [ 178.1473846, -17.6976929 ], [ 178.275116, -17.6752834 ] ] ] ] } },
{ "type": "Feature", "properties": { "POLYGON_ID": "FJI_GAUL2014_ADM2_40192", "ADM0_ISO3": "FJI", "ADM0_NAME": "Fiji", "ADM0_CODE": 83, "ADM1_NAME": "Central", "ADM1_CODE": 40187, "ADM2_NAME": "Namosi", "ADM2_CODE": 40192, "GEOSET": "GAUL", "GEOSET_YEAR": 2014.0, "GEOSET_VERSION": "GAUL_v1", "GEOSET_UNIT": "ADM2", "CENTROID_LONG": 178.11590865049456, "CENTROID_LAT": -18.062303469126281 }, "geometry": { "type": "MultiPolygon", "coordinates": [ [ [ [ 178.0098572, -17.9182758 ], [ 178.09524540000001, -17.9239597 ], [ 178.1174011, -17.9800777 ], [ 178.153778100000011, -17.9850159 ], [ 178.2567291, -18.0863304 ], [ 178.2949481, -18.1538572 ], [ 178.18898630000001, -18.216444 ], [ 178.108474699999988, -18.1370411 ], [ 178.106063799999987, -18.0997238 ], [ 178.045135499999986, -18.0723019 ], [ 177.9711304, -18.1066189 ], [ 177.911361699999986, -18.0005608 ], [ 177.9607086, -18.0242653 ], [ 178.0120239, -18.0039291 ], [ 177.992736799999989, -17.9400597 ], [ 178.0098572, -17.9182758 ] ] ] ] } },
{ "type": "Feature", "properties": { "POLYGON_ID": "FJI_GAUL2014_ADM2_40193", "ADM0_ISO3": "FJI", "ADM0_NAME": "Fiji", "ADM0_CODE": 83, "ADM1_NAME": "Central", "ADM1_CODE": 40187, "ADM2_NAME": "Rewa", "ADM2_CODE": 40193, "GEOSET": "GAUL", "GEOSET_YEAR": 2014.0, "GEOSET_VERSION": "GAUL_v1", "GEOSET_UNIT": "ADM2", "CENTROID_LONG": 178.3924114292935, "CENTROID_LAT": -18.085326354538296 }, "geometry": { "type": "MultiPolygon", "coordinates": [ [ [ [ 178.641810600000014, -18.0963588 ], [ 178.588256800000011, -18.1292877 ], [ 178.5746489, -18.0711822 ], [ 178.641810600000014, -18.0963588 ] ] ], [ [ [ 178.5265166, -18.0983901 ], [ 178.537593500000014, -18.0358296 ], [ 178.569458, -18.0682659 ], [ 178.5265166, -18.0983901 ] ] ], [ [ [ 178.4717755, -18.1136147 ], [ 178.393234299999989, -18.1042519 ], [ 178.3286285, -18.1189041 ], [ 178.2949481, -18.1538572 ], [ 178.2567291, -18.0863304 ], [ 178.2757263, -18.0647793 ], [ 178.3945007, -18.0286293 ], [ 178.4399414, -18.1042309 ], [ 178.4717755, -18.1136147 ] ] ] ] } },
{ "type": "Feature", "properties": { "POLYGON_ID": "FJI_GAUL2014_ADM2_40194", "ADM0_ISO3": "FJI", "ADM0_NAME": "Fiji", "ADM0_CODE": 83, "ADM1_NAME": "Central", "ADM1_CODE": 40187, "ADM2_NAME": "Serua", "ADM2_CODE": 40194, "GEOSET": "GAUL", "GEOSET_YEAR": 2014.0, "GEOSET_VERSION": "GAUL_v1", "GEOSET_UNIT": "ADM2", "CENTROID_LONG": 177.95493652033446, "CENTROID_LAT": -18.152151246147696 }, "geometry": { "type": "MultiPolygon", "coordinates": [ [ [ [ 177.911361699999986, -18.0005608 ], [ 177.9711304, -18.1066189 ], [ 178.045135499999986, -18.0723019 ], [ 178.106063799999987, -18.0997238 ], [ 178.108474699999988, -18.1370411 ], [ 178.18898630000001, -18.216444 ], [ 178.1539612, -18.2593861 ], [ 178.104629499999987, -18.2429218 ], [ 178.027206400000011, -18.2620716 ], [ 177.9795532, -18.2510834 ], [ 177.897781400000014, -18.2715588 ], [ 177.802289, -18.2334489 ], [ 177.8142853, -18.1642475 ], [ 177.7819977, -18.0754871 ], [ 177.8244934, -17.9923306 ], [ 177.911361699999986, -18.0005608 ] ] ] ] } },
{ "type": "Feature", "properties": { "POLYGON_ID": "FJI_GAUL2014_ADM2_40195", "ADM0_ISO3": "FJI", "ADM0_NAME": "Fiji", "ADM0_CODE": 83, "ADM1_NAME": "Central", "ADM1_CODE": 40187, "ADM2_NAME": "Tailevu", "ADM2_CODE": 40195, "GEOSET": "GAUL", "GEOSET_YEAR": 2014.0, "GEOSET_VERSION": "GAUL_v1", "GEOSET_UNIT": "ADM2", "CENTROID_LONG": 178.49315353756901, "CENTROID_LAT": -17.813185142120727 }, "geometry": { "type": "MultiPolygon", "coordinates": [ [ [ [ 178.641810600000014, -18.0963588 ], [ 178.5746489, -18.0711822 ], [ 178.5303034, -18.0238156 ], [ 178.5345154, -17.9566097 ], [ 178.4412231, -17.9190788 ], [ 178.444900499999989, -17.8847046 ], [ 178.373870899999986, -17.8204613 ], [ 178.391876200000013, -17.7710438 ], [ 178.355224600000014, -17.7471638 ], [ 178.302581800000013, -17.7786808 ], [ 178.275116, -17.6752834 ], [ 178.3789978, -17.662838 ], [ 178.4463654, -17.6726837 ], [ 178.4552085, -17.5620713 ], [ 178.5009155, -17.6098995 ], [ 178.579895, -17.6431236 ], [ 178.579879799999986, -17.6881313 ], [ 178.544265700000011, -17.7624474 ], [ 178.623840300000012, -17.8493919 ], [ 178.5802002, -17.9042339 ], [ 178.601379400000013, -17.9668465 ], [ 178.6396942, -17.9910278 ], [ 178.6760559, -18.0551777 ], [ 178.641810600000014, -18.0963588 ] ] ] ] } },
{ "type": "Feature", "properties": { "POLYGON_ID": "FJI_GAUL2014_ADM2_40196", "ADM0_ISO3": "FJI", "ADM0_NAME": "Fiji", "ADM0_CODE": 83, "ADM1_NAME": "Eastern", "ADM1_CODE": 40188, "ADM2_NAME": "Kadavu", "ADM2_CODE": 40196, "GEOSET": "GAUL", "GEOSET_YEAR": 2014.0, "GEOSET_VERSION": "GAUL_v1", "GEOSET_UNIT": "ADM2", "CENTROID_LONG": 178.26912310011454, "CENTROID_LAT": -19.030082469341561 }, "geometry": { "type": "MultiPolygon", "coordinates": [ [ [ [ 178.336120599999987, -18.9362488 ], [ 178.4473419, -18.9582062 ], [ 178.4797974, -18.9799232 ], [ 178.4710541, -19.0272827 ], [ 178.3718414, -19.0613689 ], [ 178.269516, -18.9988708 ], [ 178.21975710000001, -19.0555305 ], [ 178.1844482, -19.0482445 ], [ 178.1599579, -19.1310005 ], [ 178.1178741, -19.1294556 ], [ 178.0906067, -19.1657944 ], [ 178.032516500000014, -19.146328 ], [ 178.0640869, -19.0711632 ], [ 178.12696840000001, -19.0791264 ], [ 178.163879400000013, -19.0436859 ], [ 178.1681213, -18.9924431 ], [ 178.2279816, -18.9682064 ], [ 178.2654724, -18.9782372 ], [ 178.336120599999987, -18.9362488 ] ] ] ] } },
{ "type": "Feature", "properties": { "POLYGON_ID": "FJI_GAUL2014_ADM2_40197", "ADM0_ISO3": "FJI", "ADM0_NAME": "Fiji", "ADM0_CODE": 83, "ADM1_NAME": "Eastern", "ADM1_CODE": 40188, "ADM2_NAME": "Lau", "ADM2_CODE": 40197, "GEOSET": "GAUL", "GEOSET_YEAR": 2014.0, "GEOSET_VERSION": "GAUL_v1", "GEOSET_UNIT": "ADM2", "CENTROID_LONG": -57.618048624890342, "CENTROID_LAT": -17.980356199510563 }, "geometry": { "type": "MultiPolygon", "coordinates": [ [ [ [ 179.9497833, -18.5514584 ], [ 179.9421997, -18.5788898 ], [ 179.867157, -18.6103153 ], [ 179.8701782, -18.5647907 ], [ 179.9497833, -18.5514584 ] ] ], [ [ [ -178.7803192, -18.1766243 ], [ -178.7770691, -18.2385941 ], [ -178.8292999, -18.2262592 ], [ -178.8298035, -18.1908894 ], [ -178.7803192, -18.1766243 ] ] ], [ [ [ -179.0269623, -17.1591301 ], [ -178.941284200000013, -17.1890392 ], [ -178.9186096, -17.2230644 ], [ -178.9557953, -17.2522163 ], [ -178.97949220000001, -17.1911125 ], [ -179.0269623, -17.1591301 ] ] ] ] } },
{ "type": "Feature", "properties": { "POLYGON_ID": "FJI_GAUL2014_ADM2_40198", "ADM0_ISO3": "FJI", "ADM0_NAME": "Fiji", "ADM0_CODE": 83, "ADM1_NAME": "Eastern", "ADM1_CODE": 40188, "ADM2_NAME": "Lomaiviti", "ADM2_CODE": 40198, "GEOSET": "GAUL", "GEOSET_YEAR": 2014.0, "GEOSET_VERSION": "GAUL_v1", "GEOSET_UNIT": "ADM2", "CENTROID_LONG": 179.17860009962098, "CENTROID_LAT": -17.679720969107851 }, "geometry": { "type": "MultiPolygon", "coordinates": [ [ [ [ 179.4359589, -17.2497387 ], [ 179.4467621, -17.3195 ], [ 179.389358499999986, -17.3980083 ], [ 179.3524017, -17.2621784 ], [ 179.4359589, -17.2497387 ] ] ], [ [ [ 179.2838135, -17.9433765 ], [ 179.3467712, -17.9982109 ], [ 179.3712616, -18.0960808 ], [ 179.322036700000012, -18.1013184 ], [ 179.3086548, -18.0582466 ], [ 179.2611847, -18.0147591 ], [ 179.2838135, -17.9433765 ] ] ], [ [ [ 178.8272552, -17.7285194 ], [ 178.7784729, -17.747839 ], [ 178.743820199999988, -17.6873913 ], [ 178.750289900000013, -17.645565 ], [ 178.7930298, -17.6207733 ], [ 178.830108599999988, -17.6492767 ], [ 178.8272552, -17.7285194 ] ] ] ] } },
{ "type": "Feature", "properties": { "POLYGON_ID": "FJI_GAUL2014_ADM2_40199", "ADM0_ISO3": "FJI", "ADM0_NAME": "Fiji", "ADM0_CODE": 83, "ADM1_NAME": "Eastern", "ADM1_CODE": 40188, "ADM2_NAME": "Rotuma", "ADM2_CODE": 40199, "GEOSET": "GAUL", "GEOSET_YEAR": 2014.0, "GEOSET_VERSION": "GAUL_v1", "GEOSET_UNIT": "ADM2", "CENTROID_LONG": 177.07554341058062, "CENTROID_LAT": -12.500553250120749 }, "geometry": { "type": "MultiPolygon", "coordinates": [ [ [ [ 177.0956573, -12.5232697 ], [ 177.0310364, -12.5098677 ], [ 177.058105500000011, -12.4808168 ], [ 177.1147461, -12.4852648 ], [ 177.0956573, -12.5232697 ] ] ] ] } },
{ "type": "Feature", "properties": { "POLYGON_ID": "FJI_GAUL2014_ADM2_40200", "ADM0_ISO3": "FJI", "ADM0_NAME": "Fiji", "ADM0_CODE": 83, "ADM1_NAME": "Northern", "ADM1_CODE": 40189, "ADM2_NAME": "Bua", "ADM2_CODE": 40200, "GEOSET": "GAUL", "GEOSET_YEAR": 2014.0, "GEOSET_VERSION": "GAUL_v1", "GEOSET_UNIT": "ADM2", "CENTROID_LONG": 178.76380486834626, "CENTROID_LAT": -16.792208424134866 }, "geometry": { "type": "MultiPolygon", "coordinates": [ [ [ [ 178.9643097, -16.7506809 ], [ 178.9664917, -16.791666 ], [ 179.0477323, -16.8111703 ], [ 179.0120392, -16.9192696 ], [ 178.8761292, -16.8560734 ], [ 178.808258099999989, -16.9106159 ], [ 178.7999115, -16.9877796 ], [ 178.71626280000001, -17.0102406 ], [ 178.677368199999989, -16.9658966 ], [ 178.660293599999989, -16.8957443 ], [ 178.6211853, -16.8500156 ], [ 178.6337891, -16.8183594 ], [ 178.5651245, -16.7944813 ], [ 178.49823, -16.8165359 ], [ 178.4841614, -16.756691 ], [ 178.543396, -16.7353592 ], [ 178.575058, -16.6767197 ], [ 178.5795746, -16.6266785 ], [ 178.7016602, -16.6835289 ], [ 178.7451019, -16.6312027 ], [ 178.8412341, -16.5944379 ], [ 178.892608599999988, -16.6797752 ], [ 178.864578200000011, -16.7422504 ], [ 178.9643097, -16.7506809 ] ] ] ] } },
{ "type": "Feature", "properties": { "POLYGON_ID": "FJI_GAUL2014_ADM2_40201", "ADM0_ISO3": "FJI", "ADM0_NAME": "Fiji", "ADM0_CODE": 83, "ADM1_NAME": "Northern", "ADM1_CODE": 40189, "ADM2_NAME": "Cakaudrove", "ADM2_CODE": 40201, "GEOSET": "GAUL", "GEOSET_YEAR": 2014.0, "GEOSET_VERSION": "GAUL_v1", "GEOSET_UNIT": "ADM2", "CENTROID_LONG": 131.90014246227759, "CENTROID_LAT": -16.645606923671586 }, "geometry": { "type": "MultiPolygon", "coordinates": [ [ [ [ 179.9302673, -17.0095253 ], [ 179.8943634, -16.9468231 ], [ 179.95845030000001, -16.8854694 ], [ 179.9990234, -16.80089 ], [ 180.0, -16.9748859 ], [ 179.9302673, -17.0095253 ] ] ], [ [ [ 179.9998406, -16.1651628 ], [ 180.0, -16.1700134 ], [ 179.840805100000011, -16.2755661 ], [ 179.8071747, -16.3610516 ], [ 179.7455292, -16.4551029 ], [ 179.5824127, -16.5481033 ], [ 179.568466199999989, -16.6000977 ], [ 179.4808807, -16.6963902 ], [ 179.4866486, -16.7700024 ], [ 179.6175232, -16.7294941 ], [ 179.6837921, -16.669838 ], [ 179.723983800000013, -16.604475 ], [ 179.7970123, -16.5410385 ], [ 179.936233499999986, -16.4850597 ], [ 179.8902435, -16.5909176 ], [ 179.850189199999988, -16.6432381 ], [ 179.92034910000001, -16.7626762 ], [ 179.870697, -16.7754173 ], [ 179.7921143, -16.7237492 ], [ 179.7164917, -16.7160778 ], [ 179.613037100000014, -16.776125 ], [ 179.5158386, -16.8020878 ], [ 179.3401337, -16.8018246 ], [ 179.365509, -16.7387276 ], [ 179.2693329, -16.6968441 ], [ 179.2012329, -16.6999035 ], [ 179.118560800000012, -16.7872601 ], [ 179.0477323, -16.8111703 ], [ 178.9664917, -16.791666 ], [ 178.9643097, -16.7506809 ], [ 179.0221252, -16.6536751 ], [ 179.082855200000012, -16.6632557 ], [ 179.1417236, -16.6450024 ], [ 179.210144, -16.6518402 ], [ 179.2193298, -16.6100578 ], [ 179.274292, -16.5929489 ], [ 179.3687592, -16.5075378 ], [ 179.4474792, -16.517664 ], [ 179.5310211, -16.3936481 ], [ 179.56878660000001, -16.4032326 ], [ 179.641784699999988, -16.3613873 ], [ 179.7152557, -16.3751011 ], [ 179.8081818, -16.308485 ], [ 179.8378906, -16.2611027 ], [ 179.9012146, -16.2105122 ], [ 179.9998406, -16.1651628 ] ] ], [ [ [ -179.8371582, -16.769516 ], [ -179.8740387, -16.857214 ], [ -179.985885599999989, -16.9496994 ], [ -180.0, -16.9727554 ], [ -180.0, -16.7972641 ], [ -179.9248962, -16.7176361 ], [ -179.8616486, -16.6915798 ], [ -179.8371582, -16.769516 ] ] ], [ [ [ -179.914367700000014, -16.450407 ], [ -179.9394073, -16.4798641 ], [ -179.9291992, -16.5290661 ], [ -180.0, -16.5288773 ], [ -180.0, -16.4934025 ], [ -179.9722137, -16.4644432 ], [ -179.914367700000014, -16.450407 ] ] ] ] } },
{ "type": "Feature", "properties": { "POLYGON_ID": "FJI_GAUL2014_ADM2_40202", "ADM0_ISO3": "FJI", "ADM0_NAME": "Fiji", "ADM0_CODE": 83, "ADM1_NAME": "Northern", "ADM1_CODE": 40189, "ADM2_NAME": "Macuata", "ADM2_CODE": 40202, "GEOSET": "GAUL", "GEOSET_YEAR": 2014.0, "GEOSET_VERSION": "GAUL_v1", "GEOSET_UNIT": "ADM2", "CENTROID_LONG": 179.30205049990028, "CENTROID_LAT": -16.466376599278941 }, "geometry": { "type": "MultiPolygon", "coordinates": [ [ [ [ 179.9998406, -16.1651628 ], [ 179.9012146, -16.2105122 ], [ 179.8378906, -16.2611027 ], [ 179.8081818, -16.308485 ], [ 179.7152557, -16.3751011 ], [ 179.641784699999988, -16.3613873 ], [ 179.56878660000001, -16.4032326 ], [ 179.5310211, -16.3936481 ], [ 179.4474792, -16.517664 ], [ 179.3687592, -16.5075378 ], [ 179.274292, -16.5929489 ], [ 179.2193298, -16.6100578 ], [ 179.210144, -16.6518402 ], [ 179.1417236, -16.6450024 ], [ 179.082855200000012, -16.6632557 ], [ 179.0221252, -16.6536751 ], [ 178.9643097, -16.7506809 ], [ 178.864578200000011, -16.7422504 ], [ 178.892608599999988, -16.6797752 ], [ 178.8412341, -16.5944379 ], [ 178.8570099, -16.5569496 ], [ 178.969787599999989, -16.4837723 ], [ 179.1816864, -16.4192104 ], [ 179.287796, -16.4231949 ], [ 179.3299408, -16.403574 ], [ 179.4490204, -16.3041172 ], [ 179.5277557, -16.2877865 ], [ 179.5479431, -16.2651119 ], [ 179.6542969, -16.2356071 ], [ 179.738159200000013, -16.1959591 ], [ 179.767349200000012, -16.23349 ], [ 179.8251343, -16.2383537 ], [ 179.861984299999989, -16.20261 ], [ 179.963287400000013, -16.1594429 ], [ 179.9998406, -16.1651628 ] ] ] ] } },
{ "type": "Feature", "properties": { "POLYGON_ID": "FJI_GAUL2014_ADM2_40203", "ADM0_ISO3": "FJI", "ADM0_NAME": "Fiji", "ADM0_CODE": 83, "ADM1_NAME": "Western", "ADM1_CODE": 40190, "ADM2_NAME": "Ba", "ADM2_CODE": 40203, "GEOSET": "GAUL", "GEOSET_YEAR": 2014.0, "GEOSET_VERSION": "GAUL_v1", "GEOSET_UNIT": "ADM2", "CENTROID_LONG": 177.69265004924588, "CENTROID_LAT": -17.668870148560515 }, "geometry": { "type": "MultiPolygon", "coordinates": [ [ [ [ 177.986151, -17.4085785 ], [ 177.9861908, -17.566864 ], [ 178.0325928, -17.5822544 ], [ 178.049057, -17.6306553 ], [ 178.015426600000012, -17.7061386 ], [ 177.966903699999989, -17.6933155 ], [ 177.8586578, -17.7563534 ], [ 177.850189199999988, -17.8153725 ], [ 177.7384338, -17.8680344 ], [ 177.6972198, -17.8209324 ], [ 177.6105804, -17.8326073 ], [ 177.5890503, -17.8907166 ], [ 177.59475710000001, -17.9639606 ], [ 177.5047607, -17.9855709 ], [ 177.395828200000011, -17.918148 ], [ 177.3501666, -17.8429643 ], [ 177.3739929, -17.7726803 ], [ 177.442138699999987, -17.7540302 ], [ 177.4312286, -17.7004948 ], [ 177.3948364, -17.6840954 ], [ 177.4482269, -17.6084557 ], [ 177.5108337, -17.5679512 ], [ 177.6218567, -17.4537983 ], [ 177.6943817, -17.4375858 ], [ 177.7508698, -17.4481964 ], [ 177.773849500000011, -17.39678 ], [ 177.856796300000013, -17.4035435 ], [ 177.9430389, -17.4264107 ], [ 177.986151, -17.4085785 ] ] ] ] } },
{ "type": "Feature", "properties": { "POLYGON_ID": "FJI_GAUL2014_ADM2_40204", "ADM0_ISO3": "FJI", "ADM0_NAME": "Fiji", "ADM0_CODE": 83, "ADM1_NAME": "Western", "ADM1_CODE": 40190, "ADM2_NAME": "Nadroga & Navosa", "ADM2_CODE": 40204, "GEOSET": "GAUL", "GEOSET_YEAR": 2014.0, "GEOSET_VERSION": "GAUL_v1", "GEOSET_UNIT": "ADM2", "CENTROID_LONG": 177.66921613932084, "CENTROID_LAT": -17.980526804885159 }, "geometry": { "type": "MultiPolygon", "coordinates": [ [ [ [ 178.015426600000012, -17.7061386 ], [ 178.0550537, -17.761589 ], [ 177.9840088, -17.8319454 ], [ 177.9780426, -17.8801384 ], [ 178.0098572, -17.9182758 ], [ 177.992736799999989, -17.9400597 ], [ 178.0120239, -18.0039291 ], [ 177.9607086, -18.0242653 ], [ 177.911361699999986, -18.0005608 ], [ 177.8244934, -17.9923306 ], [ 177.7819977, -18.0754871 ], [ 177.8142853, -18.1642475 ], [ 177.802289, -18.2334489 ], [ 177.6678772, -18.192194 ], [ 177.5455322, -18.1669731 ], [ 177.4582672, -18.1644917 ], [ 177.4345245, -18.1380196 ], [ 177.3381958, -18.1175404 ], [ 177.3119965, -18.0421219 ], [ 177.252716099999986, -17.9569416 ], [ 177.283844, -17.9108849 ], [ 177.2830505, -17.8585186 ], [ 177.3501666, -17.8429643 ], [ 177.395828200000011, -17.918148 ], [ 177.5047607, -17.9855709 ], [ 177.59475710000001, -17.9639606 ], [ 177.5890503, -17.8907166 ], [ 177.6105804, -17.8326073 ], [ 177.6972198, -17.8209324 ], [ 177.7384338, -17.8680344 ], [ 177.850189199999988, -17.8153725 ], [ 177.8586578, -17.7563534 ], [ 177.966903699999989, -17.6933155 ], [ 178.015426600000012, -17.7061386 ] ] ] ] } },
{ "type": "Feature", "properties": { "POLYGON_ID": "FJI_GAUL2014_ADM2_40205", "ADM0_ISO3": "FJI", "ADM0_NAME": "Fiji", "ADM0_CODE": 83, "ADM1_NAME": "Western", "ADM1_CODE": 40190, "ADM2_NAME": "Ra", "ADM2_CODE": 40205, "GEOSET": "GAUL", "GEOSET_YEAR": 2014.0, "GEOSET_VERSION": "GAUL_v1", "GEOSET_UNIT": "ADM2", "CENTROID_LONG": 178.19783240603749, "CENTROID_LAT": -17.525195079357488 }, "geometry": { "type": "MultiPolygon", "coordinates": [ [ [ [ 178.4552085, -17.5620713 ], [ 178.4463654, -17.6726837 ], [ 178.3789978, -17.662838 ], [ 178.275116, -17.6752834 ], [ 178.1473846, -17.6976929 ], [ 178.089355500000011, -17.6530666 ], [ 178.0740204, -17.6076088 ], [ 178.0325928, -17.5822544 ], [ 177.9861908, -17.566864 ], [ 177.986151, -17.4085785 ], [ 178.02383420000001, -17.3655167 ], [ 178.119278, -17.3640289 ], [ 178.193328900000012, -17.3218956 ], [ 178.247467, -17.3566837 ], [ 178.2648163, -17.3984299 ], [ 178.33461, -17.4515266 ], [ 178.3539429, -17.5070381 ], [ 178.424560500000013, -17.564003 ], [ 178.4552085, -17.5620713 ] ] ] ] } }
]
}
