{
"type": "FeatureCollection",
"name": "FJI_GAUL1992_ADM1",
"crs": { "type": "name", "properties": { "name": "urn:ogc:def:crs:OGC:1.3:CRS84" } },
"features": [
{ "type": "Feature", "properties": { "POLYGON_ID": "FJI_GAUL1992_ADM1_40187", "ADM0_ISO3": "FJI", "ADM0_NAME": "Fiji", "ADM0_CODE": 83, "ADM1_NAME": "Central", "ADM1_CODE": 40187, "GEOSET": "GAUL", "GEOSET_YEAR": 1992.0, "GEOSET_VERSION": "GAUL_v1", "GEOSET_UNIT": "ADM1", "CENTROID_LONG": 178.23640105139478, "CENTROID_LAT": -17.955070664556558 }, "geometry": { "type": "MultiPolygon", "coordinates": [ [ [ [ 177.802289, -18.2334489 ], [ 177.8142853, -18.1642475 ], [ 177.8433075, -18.1309757 ], [ 177.7915955, -18.1224804 ], [ 177.7819977, -18.0754871 ], [ 177.8244934, -17.9923306 ], [ 177.911361699999986, -18.0005608 ], [ 177.9607086, -18.0242653 ], [ 178.0120239, -18.0039291 ], [ 177.992736799999989, -17.9400597 ], [ 178.0134583, -17.9102955 ], [ 177.9780426, -17.8801384 ], [ 177.9840088, -17.8319454 ], [ 178.0550537, -17.761589 ], [ 178.087188700000013, -17.7645168 ], [ 178.10401920000001, -17.7340946 ], [ 178.054611200000011, -17.7263489 ], [ 178.0127411, -17.7698746 ], [ 178.016418499999986, -17.6714573 ], [ 178.0740204, -17.6076088 ], [ 178.089355500000011, -17.6530666 ], [ 178.1473846, -17.6976929 ], [ 178.1677856, -17.6757889 ], [ 178.207763699999987, -17.6956348 ], [ 178.286346400000014, -17.6651402 ], [ 178.3339996, -17.6771698 ], [ 178.3789978, -17.662838 ], [ 178.4201965, -17.6862946 ], [ 178.4463654, -17.6726837 ], [ 178.4552085, -17.5620713 ], [ 178.4875946, -17.5764217 ], [ 178.5009155, -17.6098995 ], [ 178.579895, -17.6431236 ], [ 178.579879799999986, -17.6881313 ], [ 178.544265700000011, -17.7624474 ], [ 178.5866241, -17.7942009 ], [ 178.5714111, -17.825037 ], [ 178.623840300000012, -17.8493919 ], [ 178.5802002, -17.9042339 ], [ 178.601379400000013, -17.9668465 ], [ 178.6396942, -17.9910278 ], [ 178.6760559, -18.0551777 ], [ 178.6421509, -18.0962124 ], [ 178.588256800000011, -18.1292877 ], [ 178.5590057, -18.0954113 ], [ 178.491272, -18.103014 ], [ 178.4472656, -18.1564522 ], [ 178.4302826, -18.1147041 ], [ 178.393234299999989, -18.1042519 ], [ 178.3642731, -18.1374111 ], [ 178.3286285, -18.1189041 ], [ 178.2886047, -18.1548347 ], [ 178.2602386, -18.157198 ], [ 178.2384644, -18.1951447 ], [ 178.2156219, -18.1940422 ], [ 178.1539612, -18.2593861 ], [ 178.104629499999987, -18.2429218 ], [ 178.027206400000011, -18.2620716 ], [ 177.9795532, -18.2510834 ], [ 177.897781400000014, -18.2715588 ], [ 177.802289, -18.2334489 ] ] ], [ [ [ 178.149688700000013, -18.3965321 ], [ 178.120620699999989, -18.4278164 ], [ 178.0953217, -18.4177437 ], [ 178.125061, -18.3611927 ], [ 178.149688700000013, -18.3965321 ] ] ] ] } },
{ "type": "Feature", "properties": { "POLYGON_ID": "FJI_GAUL1992_ADM1_40188", "ADM0_ISO3": "FJI", "ADM0_NAME": "Fiji", "ADM0_CODE": 83, "ADM1_NAME": "Eastern", "ADM1_CODE": 40188, "GEOSET": "GAUL", "GEOSET_YEAR": 1992.0, "GEOSET_VERSION": "GAUL_v1", "GEOSET_UNIT": "ADM1", "CENTROID_LONG": 130.35955649224653, "CENTROID_LAT": -18.410273095865282 }, "geometry": { "type": "MultiPolygon", "coordinates": [ [ [ [ 179.9497833, -18.5514584 ], [ 179.9421997, -18.5788898 ], [ 179.867157, -18.6103153 ], [ 179.837661700000012, -18.5853748 ], [ 179.8701782, -18.5647907 ], [ 179.9497833, -18.5514584 ] ] ], [ [ [ 179.79042050000001, -19.1692677 ], [ 179.7632294, -19.2012711 ], [ 179.7341461, -19.1772251 ], [ 179.7594757, -19.1307697 ], [ 179.79042050000001, -19.1692677 ] ] ], [ [ [ 179.4359589, -17.2497387 ], [ 179.4467621, -17.3195 ], [ 179.4169464, -17.3812351 ], [ 179.389358499999986, -17.3980083 ], [ 179.3524017, -17.2621784 ], [ 179.4359589, -17.2497387 ] ] ], [ [ [ 179.2838135, -17.9433765 ], [ 179.3063965, -17.943882 ], [ 179.3467712, -17.9982109 ], [ 179.3712616, -18.0960808 ], [ 179.322036700000012, -18.1013184 ], [ 179.3086548, -18.0582466 ], [ 179.2611847, -18.0147591 ], [ 179.2638092, -17.9609928 ], [ 179.2838135, -17.9433765 ] ] ], [ [ [ 178.8272552, -17.7285194 ], [ 178.7784729, -17.747839 ], [ 178.743820199999988, -17.6873913 ], [ 178.750289900000013, -17.645565 ], [ 178.7930298, -17.6207733 ], [ 178.830108599999988, -17.6492767 ], [ 178.8397827, -17.7008934 ], [ 178.8272552, -17.7285194 ] ] ], [ [ [ 178.336120599999987, -18.9362488 ], [ 178.4473419, -18.9582062 ], [ 178.4797974, -18.9799232 ], [ 178.4710541, -19.0272827 ], [ 178.3718414, -19.0613689 ], [ 178.314209, -19.032114 ], [ 178.311462400000011, -19.0052395 ], [ 178.269516, -18.9988708 ], [ 178.21975710000001, -19.0555305 ], [ 178.1844482, -19.0482445 ], [ 178.1599579, -19.1310005 ], [ 178.1178741, -19.1294556 ], [ 178.0906067, -19.1657944 ], [ 178.032516500000014, -19.146328 ], [ 177.9781036, -19.1488953 ], [ 177.9608917, -19.1194954 ], [ 178.018447900000012, -19.1063614 ], [ 178.0640869, -19.0711632 ], [ 178.12696840000001, -19.0791264 ], [ 178.163879400000013, -19.0436859 ], [ 178.1681213, -18.9924431 ], [ 178.2279816, -18.9682064 ], [ 178.2654724, -18.9782372 ], [ 178.336120599999987, -18.9362488 ] ] ], [ [ [ -178.7803192, -18.1766243 ], [ -178.7475433, -18.1909275 ], [ -178.7434235, -18.2262287 ], [ -178.7770691, -18.2385941 ], [ -178.8292999, -18.2262592 ], [ -178.8298035, -18.1908894 ], [ -178.7803192, -18.1766243 ] ] ], [ [ [ -179.0269623, -17.1591301 ], [ -178.941284200000013, -17.1890392 ], [ -178.9186096, -17.2230644 ], [ -178.9557953, -17.2522163 ], [ -178.97949220000001, -17.1911125 ], [ -179.0055237, -17.1918106 ], [ -179.0269623, -17.1591301 ] ] ], [ [ [ -178.951385499999986, -18.992281 ], [ -178.9818573, -18.955143 ], [ -178.9498749, -18.9242344 ], [ -178.9326019, -18.9770031 ], [ -178.951385499999986, -18.992281 ] ] ], [ [ [ -179.281921399999987, -17.7674294 ], [ -179.3384399, -17.7586956 ], [ -179.328887900000012, -17.7291431 ], [ -179.2811127, -17.7325058 ], [ -179.281921399999987, -17.7674294 ] ] ] ] } },
{ "type": "Feature", "properties": { "POLYGON_ID": "FJI_GAUL1992_ADM1_40189", "ADM0_ISO3": "FJI", "ADM0_NAME": "Fiji", "ADM0_CODE": 83, "ADM1_NAME": "Northern", "ADM1_CODE": 40189, "GEOSET": "GAUL", "GEOSET_YEAR": 1992.0, "GEOSET_VERSION": "GAUL_v1", "GEOSET_UNIT": "ADM1", "CENTROID_LONG": 157.39671080342197, "CENTROID_LAT": -16.619319527792246 }, "geometry": { "type": "MultiPolygon", "coordinates": [ [ [ [ 179.9302673, -17.0095253 ], [ 179.8943634, -16.9468231 ], [ 179.95845030000001, -16.8854694 ], [ 179.9990234, -16.80089 ], [ 180.0, -16.9748859 ], [ 179.9302673, -17.0095253 ] ] ], [ [ [ 179.999221799999987, -16.1462479 ], [ 180.0, -16.1700134 ], [ 179.970962500000013, -16.1825142 ], [ 179.840805100000011, -16.2755661 ], [ 179.8071747, -16.3610516 ], [ 179.7772369, -16.3900204 ], [ 179.7455292, -16.4551029 ], [ 179.7153931, -16.4813423 ], [ 179.6412354, -16.5091972 ], [ 179.5824127, -16.5481033 ], [ 179.568466199999989, -16.6000977 ], [ 179.4808807, -16.6963902 ], [ 179.4866486, -16.7700024 ], [ 179.6175232, -16.7294941 ], [ 179.6437531, -16.6883793 ], [ 179.6837921, -16.669838 ], [ 179.723983800000013, -16.604475 ], [ 179.7970123, -16.5410385 ], [ 179.936233499999986, -16.4850597 ], [ 179.9017944, -16.5446625 ], [ 179.8902435, -16.5909176 ], [ 179.850189199999988, -16.6432381 ], [ 179.8990021, -16.7158794 ], [ 179.9319, -16.7354584 ], [ 179.92034910000001, -16.7626762 ], [ 179.870697, -16.7754173 ], [ 179.8608093, -16.7479916 ], [ 179.823867799999988, -16.7477226 ], [ 179.7921143, -16.7237492 ], [ 179.7545624, -16.7308159 ], [ 179.7164917, -16.7160778 ], [ 179.613037100000014, -16.776125 ], [ 179.5954437, -16.8003979 ], [ 179.554718, -16.7831249 ], [ 179.5158386, -16.8020878 ], [ 179.3401337, -16.8018246 ], [ 179.365509, -16.7387276 ], [ 179.2693329, -16.6968441 ], [ 179.2012329, -16.6999035 ], [ 179.16110230000001, -16.7431183 ], [ 179.124649, -16.7573586 ], [ 179.118560800000012, -16.7872601 ], [ 179.072647100000012, -16.7992878 ], [ 179.0475616, -16.8221798 ], [ 179.0290833, -16.8702698 ], [ 179.050308199999989, -16.9015713 ], [ 179.0120392, -16.9192696 ], [ 178.9873352, -16.8999195 ], [ 178.8761292, -16.8560734 ], [ 178.8527374, -16.8899441 ], [ 178.808258099999989, -16.9106159 ], [ 178.7999115, -16.9877796 ], [ 178.7670898, -17.0060844 ], [ 178.71626280000001, -17.0102406 ], [ 178.677368199999989, -16.9658966 ], [ 178.660293599999989, -16.8957443 ], [ 178.6211853, -16.8500156 ], [ 178.6337891, -16.8183594 ], [ 178.5651245, -16.7944813 ], [ 178.5349579, -16.8186951 ], [ 178.49823, -16.8165359 ], [ 178.4841614, -16.756691 ], [ 178.5059357, -16.7221909 ], [ 178.543396, -16.7353592 ], [ 178.575058, -16.6767197 ], [ 178.53321840000001, -16.6449871 ], [ 178.5795746, -16.6266785 ], [ 178.7016602, -16.6835289 ], [ 178.7451019, -16.6312027 ], [ 178.8904724, -16.540926 ], [ 178.9354401, -16.4718266 ], [ 178.969787599999989, -16.4837723 ], [ 179.1376038, -16.4365139 ], [ 179.1816864, -16.4192104 ], [ 179.287796, -16.4231949 ], [ 179.3299408, -16.403574 ], [ 179.4490204, -16.3041172 ], [ 179.5277557, -16.2877865 ], [ 179.5479431, -16.2651119 ], [ 179.6542969, -16.2356071 ], [ 179.7009277, -16.2011738 ], [ 179.738159200000013, -16.1959591 ], [ 179.767349200000012, -16.23349 ], [ 179.8251343, -16.2383537 ], [ 179.861984299999989, -16.20261 ], [ 179.903930699999989, -16.1956997 ], [ 179.999221799999987, -16.1462479 ] ] ], [ [ [ -179.759079, -16.7468967 ], [ -179.7585144, -16.8010521 ], [ -179.794158900000014, -16.7921238 ], [ -179.7866821, -16.749794 ], [ -179.759079, -16.7468967 ] ] ], [ [ [ -179.8371582, -16.769516 ], [ -179.8740387, -16.857214 ], [ -179.985885599999989, -16.9496994 ], [ -180.0, -16.9727554 ], [ -180.0, -16.7972641 ], [ -179.9592743, -16.7635097 ], [ -179.9248962, -16.7176361 ], [ -179.8616486, -16.6915798 ], [ -179.8371582, -16.769516 ] ] ], [ [ [ -179.914367700000014, -16.450407 ], [ -179.9394073, -16.4798641 ], [ -179.9291992, -16.5290661 ], [ -179.9721222, -16.5401592 ], [ -180.0, -16.5288773 ], [ -180.0, -16.4934025 ], [ -179.9722137, -16.4644432 ], [ -179.914367700000014, -16.450407 ] ] ] ] } },
{ "type": "Feature", "properties": { "POLYGON_ID": "FJI_GAUL1992_ADM1_40190", "ADM0_ISO3": "FJI", "ADM0_NAME": "Fiji", "ADM0_CODE": 83, "ADM1_NAME": "Western", "ADM1_CODE": 40190, "GEOSET": "GAUL", "GEOSET_YEAR": 1992.0, "GEOSET_VERSION": "GAUL_v1", "GEOSET_UNIT": "ADM1", "CENTROID_LONG": 177.78687320233223, "CENTROID_LAT": -17.752457757994318 }, "geometry": { "type": "MultiPolygon", "coordinates": [ [ [ [ 178.4552085, -17.5620713 ], [ 178.4463654, -17.6726837 ], [ 178.4201965, -17.6862946 ], [ 178.3789978, -17.662838 ], [ 178.3339996, -17.6771698 ], [ 178.286346400000014, -17.6651402 ], [ 178.207763699999987, -17.6956348 ], [ 178.1677856, -17.6757889 ], [ 178.1473846, -17.6976929 ], [ 178.089355500000011, -17.6530666 ], [ 178.0740204, -17.6076088 ], [ 178.016418499999986, -17.6714573 ], [ 178.0127411, -17.7698746 ], [ 178.054611200000011, -17.7263489 ], [ 178.10401920000001, -17.7340946 ], [ 178.087188700000013, -17.7645168 ], [ 178.0550537, -17.761589 ], [ 177.9840088, -17.8319454 ], [ 177.9780426, -17.8801384 ], [ 178.0134583, -17.9102955 ], [ 177.992736799999989, -17.9400597 ], [ 178.0120239, -18.0039291 ], [ 177.9607086, -18.0242653 ], [ 177.911361699999986, -18.0005608 ], [ 177.8244934, -17.9923306 ], [ 177.7819977, -18.0754871 ], [ 177.7915955, -18.1224804 ], [ 177.8433075, -18.1309757 ], [ 177.8142853, -18.1642475 ], [ 177.802289, -18.2334489 ], [ 177.6678772, -18.192194 ], [ 177.5693207, -18.1785011 ], [ 177.5455322, -18.1669731 ], [ 177.4582672, -18.1644917 ], [ 177.4345245, -18.1380196 ], [ 177.3381958, -18.1175404 ], [ 177.3061218, -18.0772438 ], [ 177.3119965, -18.0421219 ], [ 177.266769399999987, -17.9923592 ], [ 177.252716099999986, -17.9569416 ], [ 177.283844, -17.9108849 ], [ 177.2830505, -17.8585186 ], [ 177.3250275, -17.8623295 ], [ 177.3750458, -17.8232059 ], [ 177.3739929, -17.7726803 ], [ 177.442138699999987, -17.7540302 ], [ 177.4312286, -17.7004948 ], [ 177.3948364, -17.6840954 ], [ 177.3925476, -17.6468887 ], [ 177.4244232, -17.6410027 ], [ 177.4482269, -17.6084557 ], [ 177.5108337, -17.5679512 ], [ 177.5379486, -17.5298882 ], [ 177.6218567, -17.4537983 ], [ 177.6943817, -17.4375858 ], [ 177.7508698, -17.4481964 ], [ 177.773849500000011, -17.39678 ], [ 177.856796300000013, -17.4035435 ], [ 177.9430389, -17.4264107 ], [ 178.0131226, -17.4020309 ], [ 178.02383420000001, -17.3655167 ], [ 178.119278, -17.3640289 ], [ 178.1826019, -17.3384438 ], [ 178.193328900000012, -17.3218956 ], [ 178.247467, -17.3566837 ], [ 178.2648163, -17.3984299 ], [ 178.231369, -17.4161816 ], [ 178.2568512, -17.461359 ], [ 178.2886047, -17.435112 ], [ 178.33461, -17.4515266 ], [ 178.3539429, -17.5070381 ], [ 178.424560500000013, -17.564003 ], [ 178.4552085, -17.5620713 ] ] ], [ [ [ 177.1190643, -17.2679939 ], [ 177.1580658, -17.2628784 ], [ 177.141098, -17.3165283 ], [ 177.1093292, -17.3076687 ], [ 177.1190643, -17.2679939 ] ] ] ] } }
]
}
