{
"type": "FeatureCollection",
"name": "FRO_GAUL2012_ADM0",
"crs": { "type": "name", "properties": { "name": "urn:ogc:def:crs:OGC:1.3:CRS84" } },
"features": [
{ "type": "Feature", "properties": { "POLYGON_ID": "FRO_GAUL2012_ADM0_82", "ADM0_ISO3": "FRO", "ADM0_NAME": "Faroe Islands", "ADM0_CODE": 82, "GEOSET": "GAUL", "GEOSET_YEAR": 2012.0, "GEOSET_VERSION": "GAUL_v1", "GEOSET_UNIT": "ADM0", "CENTROID_LONG": -6.887472551970605, "CENTROID_LAT": 62.077364036638819 }, "geometry": { "type": "MultiPolygon", "coordinates": [ [ [ [ -6.310943, 62.3545136 ], [ -6.2572092, 62.3339771 ], [ -6.3266214, 62.3203824 ], [ -6.310943, 62.3545136 ] ] ], [ [ [ -6.3268781, 62.3055621 ], [ -6.2865232, 62.2882974 ], [ -6.3252515, 62.2431165 ], [ -6.3805233, 62.2327406 ], [ -6.4162185, 62.270523 ], [ -6.3268781, 62.3055621 ] ] ], [ [ [ -6.5578373, 62.3920323 ], [ -6.477443, 62.3288469 ], [ -6.4061818, 62.2995372 ], [ -6.447427, 62.2776722 ], [ -6.5106879, 62.2887984 ], [ -6.5549194, 62.3392782 ], [ -6.5578373, 62.3920323 ] ] ], [ [ [ -6.5956871, 62.3598502 ], [ -6.5254541, 62.2983353 ], [ -6.5152869, 62.2767564 ], [ -6.4288085, 62.256837 ], [ -6.4520001, 62.2100218 ], [ -6.441904, 62.184706 ], [ -6.5537294, 62.1689504 ], [ -6.6194565, 62.2171346 ], [ -6.5812919, 62.2528318 ], [ -6.5910113, 62.301021 ], [ -6.6169112, 62.3280578 ], [ -6.5956871, 62.3598502 ] ] ], [ [ [ -6.6903078, 62.3673015 ], [ -6.6173466, 62.3035378 ], [ -6.5956301, 62.2575859 ], [ -6.65213, 62.262765 ], [ -6.7083558, 62.3314998 ], [ -6.6903078, 62.3673015 ] ] ], [ [ [ -6.9506029, 61.9140458 ], [ -6.8182762, 61.8981844 ], [ -6.787677, 61.8802985 ], [ -6.7087092, 61.8639464 ], [ -6.6334698, 61.8306098 ], [ -6.674094, 61.7831031 ], [ -6.7529295, 61.7951416 ], [ -6.7707131, 61.8279736 ], [ -6.8026394, 61.8373732 ], [ -6.9013553, 61.8389748 ], [ -6.9182364, 61.8851609 ], [ -6.9506029, 61.9140458 ] ] ], [ [ [ -6.985246, 62.3404941 ], [ -6.9091985, 62.3175959 ], [ -6.9656481, 62.2868315 ], [ -6.9536701, 62.2736425 ], [ -6.8553216, 62.2929596 ], [ -6.764329, 62.2543854 ], [ -6.7455932, 62.2235394 ], [ -6.6381585, 62.1996604 ], [ -6.6429034, 62.1805936 ], [ -6.7268897, 62.1935398 ], [ -6.7475732, 62.1786879 ], [ -6.6585737, 62.1555561 ], [ -6.6983595, 62.0566365 ], [ -6.7399041, 62.0852472 ], [ -6.8340012, 62.1249921 ], [ -6.8694209, 62.1547382 ], [ -6.9256743, 62.1600016 ], [ -6.9930622, 62.1910466 ], [ -7.0477103, 62.2417155 ], [ -7.0883257, 62.2975788 ], [ -6.985246, 62.3404941 ] ] ], [ [ [ -6.8013347, 62.371889 ], [ -6.7764272, 62.3584343 ], [ -6.740771, 62.3083933 ], [ -6.6593784, 62.2417881 ], [ -6.7190644, 62.239088 ], [ -6.7152231, 62.2646988 ], [ -6.7769833, 62.3085004 ], [ -6.8157362, 62.3616777 ], [ -6.8013347, 62.371889 ] ] ], [ [ [ -6.9166441, 61.6505578 ], [ -6.9284637, 61.6065089 ], [ -6.8448605, 61.5968748 ], [ -6.826034, 61.5794081 ], [ -6.7513128, 61.5734771 ], [ -6.7412427, 61.5267729 ], [ -6.7621686, 61.5057605 ], [ -6.6716855, 61.4098674 ], [ -6.7479743, 61.4104476 ], [ -6.7869524, 61.4391545 ], [ -6.8561923, 61.4666058 ], [ -6.8956555, 61.4980407 ], [ -6.8887869, 61.5311911 ], [ -6.919026, 61.5402679 ], [ -6.996529, 61.6288046 ], [ -6.9166441, 61.6505578 ] ] ], [ [ [ -7.1664446, 62.3082921 ], [ -7.090634, 62.2805174 ], [ -7.073451, 62.2504484 ], [ -6.980073, 62.1792079 ], [ -6.8839571, 62.1386548 ], [ -6.8848783, 62.1086688 ], [ -6.8242806, 62.090003 ], [ -6.7948772, 62.0513824 ], [ -6.7523952, 62.0284988 ], [ -6.7769212, 61.9996396 ], [ -6.7331863, 61.9807364 ], [ -6.7343407, 61.9468288 ], [ -6.7739035, 61.9429898 ], [ -6.9111335, 62.001287 ], [ -6.9370384, 62.0396774 ], [ -6.9806925, 62.0362898 ], [ -6.994931, 62.0774839 ], [ -7.0421037, 62.1150293 ], [ -7.1290154, 62.1135537 ], [ -7.172826, 62.1455839 ], [ -7.2138134, 62.1483488 ], [ -7.2609234, 62.1770794 ], [ -7.2266852, 62.2477037 ], [ -7.2279753, 62.2947249 ], [ -7.1664446, 62.3082921 ] ] ], [ [ [ -7.2471188, 62.1596906 ], [ -7.1352397, 62.1013529 ], [ -7.0742226, 62.093524 ], [ -7.0798408, 62.050392 ], [ -7.1489015, 62.047692 ], [ -7.172298, 62.0301442 ], [ -7.2363078, 62.0210349 ], [ -7.2637937, 62.035929 ], [ -7.3644326, 62.0529085 ], [ -7.3910561, 62.0859025 ], [ -7.461499, 62.1187021 ], [ -7.4439339, 62.146422 ], [ -7.3923677, 62.127069 ], [ -7.2471188, 62.1596906 ] ] ] ] } }
]
}
