{
"type": "FeatureCollection",
"name": "FSM_GAUL1994_ADM1",
"crs": { "type": "name", "properties": { "name": "urn:ogc:def:crs:OGC:1.3:CRS84" } },
"features": [
{ "type": "Feature", "properties": { "POLYGON_ID": "FSM_GAUL1994_ADM1_2060", "ADM0_ISO3": "FSM", "ADM0_NAME": "Micronesia (Federated States of)", "ADM0_CODE": 163, "ADM1_NAME": "Administrative unit not available", "ADM1_CODE": 2060, "GEOSET": "GAUL", "GEOSET_YEAR": 1994.0, "GEOSET_VERSION": "GAUL_v1", "GEOSET_UNIT": "ADM1", "CENTROID_LONG": 156.68448375450564, "CENTROID_LAT": 6.8878119313786117 }, "geometry": { "type": "MultiPolygon", "coordinates": [ [ [ [ 162.997341799999987, 5.3700439 ], [ 163.021983299999988, 5.3636291 ], [ 163.0355633, 5.3153955 ], [ 163.0015287, 5.2589001 ], [ 162.912894, 5.2751476 ], [ 162.9007493, 5.2978702 ], [ 162.9427006, 5.323028 ], [ 162.968805, 5.3606603 ], [ 162.997341799999987, 5.3700439 ] ] ], [ [ [ 158.211237399999987, 6.9859647 ], [ 158.219310299999989, 6.9649168 ], [ 158.2652007, 6.9712027 ], [ 158.2852375, 6.9368448 ], [ 158.3180944, 6.924517 ], [ 158.3377271, 6.8719956 ], [ 158.298131, 6.8043962 ], [ 158.230818199999987, 6.7855311 ], [ 158.170485, 6.8030173 ], [ 158.14940390000001, 6.8335703 ], [ 158.149741400000011, 6.8882401 ], [ 158.116123499999986, 6.8915994 ], [ 158.1134197, 6.9317169 ], [ 158.1835088, 6.9598578 ], [ 158.211237399999987, 6.9859647 ] ] ], [ [ [ 138.165329899999989, 9.5787379 ], [ 138.1896418, 9.5352352 ], [ 138.1630637, 9.5150875 ], [ 138.13626210000001, 9.5392546 ], [ 138.165329899999989, 9.5787379 ] ] ], [ [ [ 138.13454440000001, 9.5900516 ], [ 138.1438925, 9.5612366 ], [ 138.1229018, 9.5022442 ], [ 138.073938700000014, 9.475876 ], [ 138.0865011, 9.5396625 ], [ 138.13454440000001, 9.5900516 ] ] ] ] } }
]
}
