{
"type": "FeatureCollection",
"name": "GAB_GAUL2006_ADM1",
"crs": { "type": "name", "properties": { "name": "urn:ogc:def:crs:OGC:1.3:CRS84" } },
"features": [
{ "type": "Feature", "properties": { "POLYGON_ID": "GAB_GAUL2006_ADM1_1275", "ADM0_ISO3": "GAB", "ADM0_NAME": "Gabon", "ADM0_CODE": 89, "ADM1_NAME": "Estuaire", "ADM1_CODE": 1275, "GEOSET": "GAUL", "GEOSET_YEAR": 2006.0, "GEOSET_VERSION": "GAUL_v1", "GEOSET_UNIT": "ADM1", "CENTROID_LONG": 10.051268026701077, "CENTROID_LAT": 0.30372720661960856 }, "geometry": { "type": "MultiPolygon", "coordinates": [ [ [ [ 10.0055542, 0.9976687 ], [ 10.2951596, 0.99902 ], [ 10.4403221, 0.9969672 ], [ 10.44681, 0.9983 ], [ 10.4645329, 0.9982594 ], [ 10.4400549, 0.858568 ], [ 10.3765078, 0.773567 ], [ 10.3688507, 0.732253 ], [ 10.3362226, 0.705897 ], [ 10.3260336, 0.656806 ], [ 10.2854052, 0.649196 ], [ 10.3180246, 0.58763 ], [ 10.3486767, 0.614164 ], [ 10.3934135, 0.588756 ], [ 10.4387732, 0.587584 ], [ 10.5561104, 0.669486 ], [ 10.7741013, 0.739981 ], [ 10.9715986, 0.813682 ], [ 10.9850826, 0.768781 ], [ 10.9871006, 0.684289 ], [ 10.9661322, 0.615887 ], [ 10.9241734, 0.580674 ], [ 10.9171896, 0.523341 ], [ 10.889226, 0.44991 ], [ 10.8782444, 0.387548 ], [ 10.8382893, 0.314119 ], [ 10.8602724, 0.291993 ], [ 10.8313036, 0.223595 ], [ 10.8043232, 0.233651 ], [ 10.771348, 0.213527 ], [ 10.7033978, 0.220563 ], [ 10.6804199, 0.156173 ], [ 10.6584377, 0.145105 ], [ 10.6764278, 0.070657 ], [ 10.6304636, 0.065625 ], [ 10.6024866, 0.022366 ], [ 10.521554, 0.004257 ], [ 10.5145588, -0.039001 ], [ 10.4466171, -0.069178 ], [ 10.4136438, -0.127523 ], [ 10.4076443, -0.185868 ], [ 10.3606815, -0.229117 ], [ 10.3117266, -0.234141 ], [ 10.2328119, -0.312799 ], [ 10.1599989, -0.354632 ], [ 10.0171652, -0.416938 ], [ 10.0211782, -0.336506 ], [ 9.9982138, -0.305334 ], [ 9.9552708, -0.305326 ], [ 9.9263144, -0.287224 ], [ 9.8703794, -0.347532 ], [ 9.8434143, -0.35959 ], [ 9.7994785, -0.350532 ], [ 9.6897535, -0.365964 ], [ 9.6542339, -0.391843 ], [ 9.5998697, -0.406842 ], [ 9.5970221, -0.45211 ], [ 9.6082897, -0.528252 ], [ 9.5089893, -0.465439 ], [ 9.4599857, -0.46478 ], [ 9.4342699, -0.418513 ], [ 9.3745308, -0.366662 ], [ 9.354702, -0.327017 ], [ 9.3604193, -0.257076 ], [ 9.3038596, -0.2472631 ], [ 9.325823, -0.1581878 ], [ 9.3279994, -0.047057 ], [ 9.3408053, -0.0393216 ], [ 9.3442624, 0.0480883 ], [ 9.313974, 0.1896753 ], [ 9.3013316, 0.3056572 ], [ 9.3498494, 0.3507447 ], [ 9.3883559, 0.2204618 ], [ 9.4546511, 0.1775611 ], [ 9.476563, 0.1396402 ], [ 9.5124136, 0.1699692 ], [ 9.5623175, 0.1588455 ], [ 9.5945959, 0.1275111 ], [ 9.6248081, 0.1508262 ], [ 9.6509345, 0.1284107 ], [ 9.692467, 0.1294978 ], [ 9.7408119, 0.1140632 ], [ 9.798603, 0.1669746 ], [ 9.67894, 0.2097453 ], [ 9.5969248, 0.2623468 ], [ 9.569266, 0.290065 ], [ 9.5271495, 0.3071942 ], [ 9.4958152, 0.2913337 ], [ 9.4686213, 0.3595949 ], [ 9.429392, 0.407919 ], [ 9.3754996, 0.5021025 ], [ 9.3459553, 0.5212861 ], [ 9.3071374, 0.5150451 ], [ 9.3091841, 0.5953443 ], [ 9.3271677, 0.6200499 ], [ 9.3777079, 0.6201117 ], [ 9.3997372, 0.6438316 ], [ 9.4394372, 0.6402185 ], [ 9.4237199, 0.5749452 ], [ 9.4925762, 0.5586081 ], [ 9.4975662, 0.4959531 ], [ 9.535212, 0.4436091 ], [ 9.6051536, 0.4482872 ], [ 9.6742799, 0.4108532 ], [ 9.6687826, 0.5134703 ], [ 9.673525, 0.5482768 ], [ 9.6317815, 0.5815419 ], [ 9.6417734, 0.6093865 ], [ 9.6168061, 0.6516741 ], [ 9.6287335, 0.7782682 ], [ 9.6065776, 0.7777558 ], [ 9.5807166, 0.8355144 ], [ 9.5671539, 0.9193129 ], [ 9.5510197, 0.9376219 ], [ 9.5817827, 1.0064431 ], [ 9.6573611, 1.0215218 ], [ 9.6619824, 1.0598474 ], [ 9.73629, 1.06905 ], [ 9.78614, 1.02479 ], [ 9.79019, 0.99839 ], [ 9.84204, 0.99803 ], [ 9.87823, 0.98241 ], [ 9.89478, 0.95467 ], [ 9.94262, 0.92541 ], [ 9.99216, 0.92924 ], [ 9.98994, 0.97749 ], [ 10.0055542, 0.9976687 ] ] ] ] } },
{ "type": "Feature", "properties": { "POLYGON_ID": "GAB_GAUL2006_ADM1_1276", "ADM0_ISO3": "GAB", "ADM0_NAME": "Gabon", "ADM0_CODE": 89, "ADM1_NAME": "Haut-Ogooue", "ADM1_CODE": 1276, "GEOSET": "GAUL", "GEOSET_YEAR": 2006.0, "GEOSET_VERSION": "GAUL_v1", "GEOSET_UNIT": "ADM1", "CENTROID_LONG": 13.724162366466762, "CENTROID_LAT": -1.3314673041907139 }, "geometry": { "type": "MultiPolygon", "coordinates": [ [ [ [ 13.9286688, -0.0747903 ], [ 13.88763, -0.15846 ], [ 13.90477, -0.22453 ], [ 13.92652, -0.2426 ], [ 13.9516162, -0.2353169 ], [ 13.95362, -0.23056 ], [ 13.98485, -0.2231 ], [ 14.04977, -0.25317 ], [ 14.0648084, -0.2605312 ], [ 14.15019, -0.3125 ], [ 14.16281, -0.3299 ], [ 14.1723, -0.3634 ], [ 14.1729856, -0.4210554 ], [ 14.17673, -0.43963 ], [ 14.1829, -0.44213 ], [ 14.1979201, -0.4402231 ], [ 14.21323, -0.43654 ], [ 14.2223742, -0.4343484 ], [ 14.26505, -0.43905 ], [ 14.2936097, -0.4498307 ], [ 14.33336, -0.45939 ], [ 14.35369, -0.45914 ], [ 14.36488, -0.46093 ], [ 14.38614, -0.46865 ], [ 14.40079, -0.47709 ], [ 14.4058596, -0.4830568 ], [ 14.43273, -0.52111 ], [ 14.45632, -0.54324 ], [ 14.49294, -0.6159 ], [ 14.4949799, -0.6242693 ], [ 14.49953, -0.65723 ], [ 14.4987615, -0.6796787 ], [ 14.47092, -0.74121 ], [ 14.44082, -0.85254 ], [ 14.41025, -0.90897 ], [ 14.4230084, -1.0006906 ], [ 14.4315434, -1.0379994 ], [ 14.44758, -1.1081 ], [ 14.4528969, -1.1313544 ], [ 14.4636658, -1.1784548 ], [ 14.46516, -1.18499 ], [ 14.48298, -1.28352 ], [ 14.47279, -1.30356 ], [ 14.45227, -1.36503 ], [ 14.5016699, -1.4252791 ], [ 14.4642, -1.47717 ], [ 14.48216, -1.50767 ], [ 14.48526, -1.53363 ], [ 14.4802151, -1.5443394 ], [ 14.4560483, -1.5628006 ], [ 14.45021, -1.5662 ], [ 14.41076, -1.58568 ], [ 14.3770093, -1.6016823 ], [ 14.38125, -1.62995 ], [ 14.4230631, -1.6639648 ], [ 14.43881, -1.67408 ], [ 14.44754, -1.68324 ], [ 14.45124, -1.69243 ], [ 14.42077, -1.72866 ], [ 14.41379, -1.80388 ], [ 14.38695, -1.88516 ], [ 14.3763824, -1.8917078 ], [ 14.3133, -1.93078 ], [ 14.25048, -1.99726 ], [ 14.24737, -2.01866 ], [ 14.2470877, -2.029324 ], [ 14.25323, -2.10558 ], [ 14.21092, -2.1575 ], [ 14.16412, -2.177 ], [ 14.16448, -2.20897 ], [ 14.1788919, -2.2298296 ], [ 14.22023, -2.30375 ], [ 14.21364, -2.31413 ], [ 14.16602, -2.36009 ], [ 14.10289, -2.47397 ], [ 14.08302, -2.48163 ], [ 14.04448, -2.45555 ], [ 14.0248881, -2.4716705 ], [ 13.998, -2.44652 ], [ 13.92258, -2.46497 ], [ 13.8800038, -2.4445248 ], [ 13.8719, -2.43617 ], [ 13.88318, -2.39357 ], [ 13.91644, -2.35871 ], [ 13.9188992, -2.3437547 ], [ 13.88673, -2.30454 ], [ 13.8828413, -2.2776434 ], [ 13.88038, -2.26062 ], [ 13.81388, -2.15344 ], [ 13.77212, -2.119 ], [ 13.77098, -2.11817 ], [ 13.7581025, -2.1133859 ], [ 13.75359, -2.11385 ], [ 13.69144, -2.19525 ], [ 13.53021, -2.39305 ], [ 13.5207126, -2.4074101 ], [ 13.5031, -2.43117 ], [ 13.4964785, -2.4326693 ], [ 13.42917, -2.41577 ], [ 13.3999, -2.42619 ], [ 13.37403, -2.42075 ], [ 13.3624245, -2.411968 ], [ 13.33644, -2.39693 ], [ 13.3323106, -2.3925828 ], [ 13.31627, -2.38594 ], [ 13.26318, -2.37919 ], [ 13.22327, -2.34204 ], [ 13.19973, -2.3513 ], [ 13.18903, -2.36927 ], [ 13.16641, -2.37877 ], [ 13.1594909, -2.3755969 ], [ 13.12173, -2.35381 ], [ 13.04092, -2.33377 ], [ 13.02692, -2.31425 ], [ 13.03181, -2.2848 ], [ 13.02554, -2.22984 ], [ 13.00716, -2.20228 ], [ 12.93065, -2.15509 ], [ 12.88521, -2.09949 ], [ 12.879178, -2.0705795 ], [ 12.87573, -2.05839 ], [ 12.8748536, -2.0476687 ], [ 12.85503, -1.97762 ], [ 12.84734, -1.95312 ], [ 12.82898, -1.92602 ], [ 12.7934625, -1.9028227 ], [ 12.7527784, -1.8747503 ], [ 12.7685928, -1.7531331 ], [ 12.7936354, -1.7204289 ], [ 12.7930422, -1.6774499 ], [ 12.8493032, -1.578333 ], [ 12.8739452, -1.564591 ], [ 12.895051, -1.521577 ], [ 12.8873844, -1.477227 ], [ 12.9200039, -1.4562989 ], [ 12.9445086, -1.4192539 ], [ 12.969533, -1.419289 ], [ 12.9838991, -1.383054 ], [ 13.042098, -1.325335 ], [ 13.0915279, -1.32118 ], [ 13.1153269, -1.281052 ], [ 13.164629, -1.256807 ], [ 13.1717186, -1.194309 ], [ 13.1614504, -1.179994 ], [ 13.1659613, -1.112604 ], [ 13.2303753, -1.130813 ], [ 13.2857666, -1.171528 ], [ 13.4499025, -0.911222 ], [ 13.5688572, -0.73913 ], [ 13.4556131, -0.486822 ], [ 13.3746719, -0.319042 ], [ 13.3071365, -0.245091 ], [ 13.3033419, -0.202562 ], [ 13.273756, -0.200963 ], [ 13.2473984, -0.094793 ], [ 13.2537489, -0.044692 ], [ 13.3027143, 0.010555 ], [ 13.3005133, 0.047839 ], [ 13.3755846, 0.031304 ], [ 13.533926, 0.038998 ], [ 13.5899458, 0.012643 ], [ 13.7332773, -0.012823 ], [ 13.8620415, -0.101466 ], [ 13.9286688, -0.0747903 ] ] ] ] } },
{ "type": "Feature", "properties": { "POLYGON_ID": "GAB_GAUL2006_ADM1_1277", "ADM0_ISO3": "GAB", "ADM0_NAME": "Gabon", "ADM0_CODE": 89, "ADM1_NAME": "Moyen-Ogooue", "ADM1_CODE": 1277, "GEOSET": "GAUL", "GEOSET_YEAR": 2006.0, "GEOSET_VERSION": "GAUL_v1", "GEOSET_UNIT": "ADM1", "CENTROID_LONG": 10.572896707102624, "CENTROID_LAT": -0.43083537026562929 }, "geometry": { "type": "MultiPolygon", "coordinates": [ [ [ [ 11.5749807, 0.240435 ], [ 11.5607481, 0.195859 ], [ 11.5190344, 0.136329 ], [ 11.4566412, 0.116741 ], [ 11.4101563, 0.077396 ], [ 11.3197823, 0.02837 ], [ 11.2716703, -0.063082 ], [ 11.3225307, -0.083736 ], [ 11.3565969, -0.113754 ], [ 11.3664351, -0.173318 ], [ 11.3486128, -0.244117 ], [ 11.3627739, -0.272199 ], [ 11.4361792, -0.358139 ], [ 11.4432602, -0.487446 ], [ 11.4971046, -0.528379 ], [ 11.5292645, -0.588173 ], [ 11.5754004, -0.73169 ], [ 11.4776649, -0.72721 ], [ 11.3881845, -0.695418 ], [ 11.2616186, -0.606544 ], [ 11.16255, -0.500905 ], [ 11.1218719, -0.415403 ], [ 11.0705404, -0.37611 ], [ 11.0377855, -0.383904 ], [ 11.0030708, -0.415489 ], [ 10.9577684, -0.396297 ], [ 10.9490995, -0.439335 ], [ 10.8336687, -0.474342 ], [ 10.7494364, -0.560256 ], [ 10.720706, -0.622697 ], [ 10.725234, -0.658173 ], [ 10.6793098, -0.664022 ], [ 10.6657238, -0.700089 ], [ 10.5715351, -0.76226 ], [ 10.5503664, -0.790245 ], [ 10.5542326, -0.833044 ], [ 10.5384455, -0.88356 ], [ 10.486867, -0.959863 ], [ 10.4514256, -0.990786 ], [ 10.4637146, -1.034691 ], [ 10.4327068, -1.055233 ], [ 10.4356184, -1.0909671 ], [ 10.4115572, -1.12192 ], [ 10.3497181, -1.1163239 ], [ 10.3380833, -1.132116 ], [ 10.2747059, -1.132486 ], [ 10.2609015, -1.109472 ], [ 10.2124224, -1.1256109 ], [ 10.1233702, -1.199965 ], [ 10.0924463, -1.23689 ], [ 10.0510521, -1.237375 ], [ 9.9710283, -1.188581 ], [ 9.9797974, -1.149175 ], [ 9.9445763, -1.14745 ], [ 9.9456053, -1.115887 ], [ 9.9745388, -1.032426 ], [ 9.9544439, -0.991491 ], [ 9.9668074, -0.970911 ], [ 9.9561663, -0.920064 ], [ 9.8957396, -0.879651 ], [ 9.8548212, -0.893551 ], [ 9.7285566, -0.846999 ], [ 9.6750078, -0.813574 ], [ 9.6212702, -0.625477 ], [ 9.6082897, -0.528252 ], [ 9.5970221, -0.45211 ], [ 9.5998697, -0.406842 ], [ 9.6542339, -0.391843 ], [ 9.6897535, -0.365964 ], [ 9.7994785, -0.350532 ], [ 9.8434143, -0.35959 ], [ 9.8703794, -0.347532 ], [ 9.9263144, -0.287224 ], [ 9.9552708, -0.305326 ], [ 9.9982138, -0.305334 ], [ 10.0211782, -0.336506 ], [ 10.0171652, -0.416938 ], [ 10.1599989, -0.354632 ], [ 10.2328119, -0.312799 ], [ 10.3117266, -0.234141 ], [ 10.3606815, -0.229117 ], [ 10.4076443, -0.185868 ], [ 10.4136438, -0.127523 ], [ 10.4466171, -0.069178 ], [ 10.5145588, -0.039001 ], [ 10.521554, 0.004257 ], [ 10.6024866, 0.022366 ], [ 10.6304636, 0.065625 ], [ 10.6764278, 0.070657 ], [ 10.6584377, 0.145105 ], [ 10.6804199, 0.156173 ], [ 10.7033978, 0.220563 ], [ 10.771348, 0.213527 ], [ 10.8043232, 0.233651 ], [ 10.8313036, 0.223595 ], [ 11.0773811, 0.229754 ], [ 11.1849136, 0.238029 ], [ 11.2232647, 0.256585 ], [ 11.3037987, 0.235692 ], [ 11.5749807, 0.240435 ] ] ] ] } },
{ "type": "Feature", "properties": { "POLYGON_ID": "GAB_GAUL2006_ADM1_1278", "ADM0_ISO3": "GAB", "ADM0_NAME": "Gabon", "ADM0_CODE": 89, "ADM1_NAME": "Ngounie", "ADM1_CODE": 1278, "GEOSET": "GAUL", "GEOSET_YEAR": 2006.0, "GEOSET_VERSION": "GAUL_v1", "GEOSET_UNIT": "ADM1", "CENTROID_LONG": 11.197859235582548, "CENTROID_LAT": -1.615076557984586 }, "geometry": { "type": "MultiPolygon", "coordinates": [ [ [ [ 11.5754004, -0.73169 ], [ 11.518609, -0.812989 ], [ 11.512742, -0.875404 ], [ 11.5220356, -0.933966 ], [ 11.5588408, -1.0005569 ], [ 11.5601501, -1.087146 ], [ 11.5967093, -1.1208971 ], [ 11.6522951, -1.101208 ], [ 11.7268028, -1.056686 ], [ 11.7568693, -1.0507801 ], [ 11.7471237, -1.169289 ], [ 11.7696114, -1.202186 ], [ 11.8393965, -1.253924 ], [ 11.9534092, -1.3542531 ], [ 11.9759274, -1.3814501 ], [ 11.9702263, -1.498612 ], [ 11.9513807, -1.583746 ], [ 11.9687586, -1.612797 ], [ 12.0339661, -1.64325 ], [ 12.0586624, -1.635432 ], [ 12.1866102, -1.791434 ], [ 12.2174044, -1.784075 ], [ 12.2745295, -1.818854 ], [ 12.309351, -1.8156641 ], [ 12.3435574, -1.835371 ], [ 12.4133072, -1.822482 ], [ 12.4623464, -1.8700604 ], [ 12.44407, -1.87459 ], [ 12.46731, -1.94354 ], [ 12.47524, -2.01896 ], [ 12.52366, -2.09523 ], [ 12.5229864, -2.1041986 ], [ 12.51076, -2.15873 ], [ 12.53216, -2.2139 ], [ 12.49705, -2.26802 ], [ 12.52666, -2.3188 ], [ 12.50618, -2.36806 ], [ 12.5035161, -2.3749487 ], [ 12.50605, -2.41314 ], [ 12.46833, -2.42126 ], [ 12.17664, -2.42128 ], [ 12.14806, -2.42799 ], [ 12.1333681, -2.4304122 ], [ 12.09225, -2.43933 ], [ 12.07759, -2.42532 ], [ 12.05762, -2.38601 ], [ 11.9967, -2.33986 ], [ 11.91486, -2.37469 ], [ 11.85812, -2.37153 ], [ 11.82085, -2.38744 ], [ 11.77519, -2.45649 ], [ 11.72962, -2.42686 ], [ 11.69776, -2.37283 ], [ 11.62221, -2.32045 ], [ 11.60967, -2.3568 ], [ 11.65092, -2.42141 ], [ 11.65301, -2.44464 ], [ 11.64161, -2.48007 ], [ 11.63616, -2.5208 ], [ 11.66186, -2.59117 ], [ 11.70268, -2.66291 ], [ 11.70157, -2.68707 ], [ 11.64139, -2.69816 ], [ 11.6239189, -2.7615985 ], [ 11.5793161, -2.7360029 ], [ 11.5887527, -2.6845379 ], [ 11.5455599, -2.665072 ], [ 11.4784336, -2.65874 ], [ 11.4553204, -2.6249311 ], [ 11.4097328, -2.598567 ], [ 11.3990088, -2.5637951 ], [ 11.2866068, -2.546124 ], [ 11.2546721, -2.5207851 ], [ 11.2344513, -2.460299 ], [ 11.2025452, -2.4043829 ], [ 11.1268549, -2.3467219 ], [ 11.1043339, -2.278446 ], [ 11.0409708, -2.238359 ], [ 10.6807108, -2.2843139 ], [ 10.590703, -2.303664 ], [ 10.5731668, -2.2557571 ], [ 10.5190554, -2.198236 ], [ 10.5043612, -2.072916 ], [ 10.4728899, -1.965443 ], [ 10.4418039, -1.918576 ], [ 10.3969107, -1.906235 ], [ 10.3761196, -1.8845561 ], [ 10.3486862, -1.920279 ], [ 10.2533913, -1.890947 ], [ 10.2161932, -1.907195 ], [ 10.1865244, -1.883671 ], [ 10.178503, -1.853081 ], [ 10.1419754, -1.858839 ], [ 10.1055193, -1.8307689 ], [ 10.0052099, -1.803489 ], [ 9.9645224, -1.780388 ], [ 9.9336061, -1.7376961 ], [ 9.8820257, -1.644119 ], [ 9.9139175, -1.629849 ], [ 9.9149389, -1.579852 ], [ 9.9942703, -1.542399 ], [ 9.9777374, -1.384011 ], [ 10.0711241, -1.3053499 ], [ 10.0924463, -1.23689 ], [ 10.1233702, -1.199965 ], [ 10.2124224, -1.1256109 ], [ 10.2609015, -1.109472 ], [ 10.2747059, -1.132486 ], [ 10.3380833, -1.132116 ], [ 10.3497181, -1.1163239 ], [ 10.4115572, -1.12192 ], [ 10.4356184, -1.0909671 ], [ 10.4327068, -1.055233 ], [ 10.4637146, -1.034691 ], [ 10.4514256, -0.990786 ], [ 10.486867, -0.959863 ], [ 10.5384455, -0.88356 ], [ 10.5542326, -0.833044 ], [ 10.5503664, -0.790245 ], [ 10.5715351, -0.76226 ], [ 10.6657238, -0.700089 ], [ 10.6793098, -0.664022 ], [ 10.725234, -0.658173 ], [ 10.720706, -0.622697 ], [ 10.7494364, -0.560256 ], [ 10.8336687, -0.474342 ], [ 10.9490995, -0.439335 ], [ 10.9577684, -0.396297 ], [ 11.0030708, -0.415489 ], [ 11.0377855, -0.383904 ], [ 11.0705404, -0.37611 ], [ 11.1218719, -0.415403 ], [ 11.16255, -0.500905 ], [ 11.2616186, -0.606544 ], [ 11.3881845, -0.695418 ], [ 11.4776649, -0.72721 ], [ 11.5754004, -0.73169 ] ] ] ] } },
{ "type": "Feature", "properties": { "POLYGON_ID": "GAB_GAUL2006_ADM1_1279", "ADM0_ISO3": "GAB", "ADM0_NAME": "Gabon", "ADM0_CODE": 89, "ADM1_NAME": "Nyanga", "ADM1_CODE": 1279, "GEOSET": "GAUL", "GEOSET_YEAR": 2006.0, "GEOSET_VERSION": "GAUL_v1", "GEOSET_UNIT": "ADM1", "CENTROID_LONG": 11.108795412566209, "CENTROID_LAT": -3.0350242755685075 }, "geometry": { "type": "MultiPolygon", "coordinates": [ [ [ [ 11.6239189, -2.7615985 ], [ 11.62274, -2.79894 ], [ 11.63007, -2.80584 ], [ 11.64244, -2.81089 ], [ 11.6502042, -2.8165738 ], [ 11.79654, -2.86137 ], [ 12.06751, -2.97349 ], [ 12.0678201, -2.9748351 ], [ 12.01823, -3.08799 ], [ 12.0135, -3.13516 ], [ 11.9911042, -3.159656 ], [ 11.97142, -3.16628 ], [ 11.94354, -3.20427 ], [ 11.9598701, -3.2118504 ], [ 12.00176, -3.24194 ], [ 12.04334, -3.32358 ], [ 12.02787, -3.38365 ], [ 12.0135431, -3.405223 ], [ 11.95884, -3.47831 ], [ 11.89818, -3.51082 ], [ 11.87789, -3.57689 ], [ 11.94783, -3.62628 ], [ 11.9154, -3.69985 ], [ 11.9148135, -3.7011869 ], [ 11.91404, -3.70295 ], [ 11.88431, -3.74739 ], [ 11.86278, -3.74742 ], [ 11.82998, -3.72927 ], [ 11.7135291, -3.6842794 ], [ 11.6963296, -3.6707194 ], [ 11.63161, -3.57021 ], [ 11.60959, -3.55182 ], [ 11.58552, -3.53872 ], [ 11.56467, -3.52953 ], [ 11.53739, -3.5139 ], [ 11.52779, -3.5137 ], [ 11.51976, -3.51851 ], [ 11.5155724, -3.5225613 ], [ 11.44216, -3.58967 ], [ 11.43242, -3.59 ], [ 11.3589819, -3.5965426 ], [ 11.34549, -3.60352 ], [ 11.24958, -3.71815 ], [ 11.25147, -3.81181 ], [ 11.2279, -3.85898 ], [ 11.22358, -3.91767 ], [ 11.2010313, -3.9915751 ], [ 11.082394, -3.9109925 ], [ 11.026147, -3.8633087 ], [ 11.0092574, -3.8267585 ], [ 11.0153039, -3.7793316 ], [ 10.9644999, -3.7160577 ], [ 10.8547365, -3.6036798 ], [ 10.729115, -3.500324 ], [ 10.6424447, -3.43914 ], [ 10.6627616, -3.396579 ], [ 10.658177, -3.339886 ], [ 10.5450821, -3.2575924 ], [ 10.5160216, -3.2020912 ], [ 10.4207435, -3.0984799 ], [ 10.3604194, -3.046748 ], [ 10.2436539, -2.9616929 ], [ 10.1351086, -2.8768684 ], [ 10.0230186, -2.7973068 ], [ 10.1053619, -2.789712 ], [ 10.1600008, -2.7547419 ], [ 10.2276602, -2.6815619 ], [ 10.319808, -2.6266379 ], [ 10.345809, -2.6307969 ], [ 10.3496647, -2.5553801 ], [ 10.368309, -2.502265 ], [ 10.420393, -2.491684 ], [ 10.4067354, -2.438184 ], [ 10.4449167, -2.386579 ], [ 10.590703, -2.303664 ], [ 10.6807108, -2.2843139 ], [ 11.0409708, -2.238359 ], [ 11.1043339, -2.278446 ], [ 11.1268549, -2.3467219 ], [ 11.2025452, -2.4043829 ], [ 11.2344513, -2.460299 ], [ 11.2546721, -2.5207851 ], [ 11.2866068, -2.546124 ], [ 11.3990088, -2.5637951 ], [ 11.4097328, -2.598567 ], [ 11.4553204, -2.6249311 ], [ 11.4784336, -2.65874 ], [ 11.5455599, -2.665072 ], [ 11.5887527, -2.6845379 ], [ 11.5793161, -2.7360029 ], [ 11.6239189, -2.7615985 ] ] ] ] } },
{ "type": "Feature", "properties": { "POLYGON_ID": "GAB_GAUL2006_ADM1_1280", "ADM0_ISO3": "GAB", "ADM0_NAME": "Gabon", "ADM0_CODE": 89, "ADM1_NAME": "Ogooue-Ivindo", "ADM1_CODE": 1280, "GEOSET": "GAUL", "GEOSET_YEAR": 2006.0, "GEOSET_VERSION": "GAUL_v1", "GEOSET_UNIT": "ADM1", "CENTROID_LONG": 12.854372704001609, "CENTROID_LAT": 0.47606733579683219 }, "geometry": { "type": "MultiPolygon", "coordinates": [ [ [ [ 14.03027, 1.42143 ], [ 14.02866, 1.41362 ], [ 14.03026, 1.4104 ], [ 14.0397587, 1.4013408 ], [ 14.0518889, 1.3946209 ], [ 14.05855, 1.38506 ], [ 14.07454, 1.37883 ], [ 14.0767537, 1.378825 ], [ 14.08345, 1.37881 ], [ 14.0938451, 1.3770907 ], [ 14.12963, 1.39481 ], [ 14.14222, 1.39498 ], [ 14.1703, 1.39129 ], [ 14.17534, 1.39496 ], [ 14.2090187, 1.3732316 ], [ 14.21689, 1.37005 ], [ 14.2180536, 1.3701739 ], [ 14.22534, 1.37095 ], [ 14.2516, 1.35918 ], [ 14.2589, 1.35112 ], [ 14.2880177, 1.3258117 ], [ 14.29674, 1.3053 ], [ 14.306022, 1.2973085 ], [ 14.30677, 1.29425 ], [ 14.3042047, 1.2854431 ], [ 14.30356, 1.28323 ], [ 14.30559, 1.26967 ], [ 14.3039521, 1.2606681 ], [ 14.29755, 1.24923 ], [ 14.2960215, 1.2443534 ], [ 14.3438, 1.17743 ], [ 14.3496187, 1.1428279 ], [ 14.35985, 1.13269 ], [ 14.3704895, 1.1221307 ], [ 14.39867, 1.08401 ], [ 14.4010493, 1.0748968 ], [ 14.3993157, 1.0602579 ], [ 14.39976, 1.05736 ], [ 14.4041098, 1.0496948 ], [ 14.43229, 0.98928 ], [ 14.43796, 0.96997 ], [ 14.4380733, 0.9698231 ], [ 14.44038, 0.96683 ], [ 14.49799, 0.92865 ], [ 14.4757366, 0.8754595 ], [ 14.46538, 0.87439 ], [ 14.4711, 0.86474 ], [ 14.47704, 0.86291 ], [ 14.48871, 0.82523 ], [ 14.46408, 0.78936 ], [ 14.43098, 0.77532 ], [ 14.41526, 0.74222 ], [ 14.36804, 0.69852 ], [ 14.35962, 0.67255 ], [ 14.38454, 0.63742 ], [ 14.29511, 0.58035 ], [ 14.28099, 0.54358 ], [ 14.25793, 0.54838 ], [ 14.2224773, 0.5365622 ], [ 14.21549, 0.54029 ], [ 14.1696, 0.54874 ], [ 14.15201, 0.55515 ], [ 14.1196, 0.55832 ], [ 14.0769616, 0.5081038 ], [ 14.07083, 0.49394 ], [ 14.0724561, 0.4893548 ], [ 14.08112, 0.48178 ], [ 14.0732, 0.42985 ], [ 14.0380867, 0.4045371 ], [ 14.02259, 0.39096 ], [ 13.97767, 0.36219 ], [ 13.9714741, 0.3512452 ], [ 13.94782, 0.3254 ], [ 13.9435403, 0.3186668 ], [ 13.94168, 0.31574 ], [ 13.941927, 0.3130283 ], [ 13.93603, 0.27807 ], [ 13.89775, 0.23805 ], [ 13.88868, 0.20267 ], [ 13.9278199, 0.1207508 ], [ 13.91463, 0.09065 ], [ 13.9238192, 0.0504843 ], [ 13.95851, 0.04135 ], [ 13.94921, 0.00437 ], [ 13.93354, 0.0 ], [ 13.9334316, -0.0080213 ], [ 13.93482, -0.03225 ], [ 13.93084, -0.06463 ], [ 13.9286688, -0.0747903 ], [ 13.8620415, -0.101466 ], [ 13.7332773, -0.012823 ], [ 13.5899458, 0.012643 ], [ 13.533926, 0.038998 ], [ 13.3755846, 0.031304 ], [ 13.3005133, 0.047839 ], [ 13.2003984, 0.054941 ], [ 13.120882, 0.083255 ], [ 13.1076221, 0.136932 ], [ 13.0722513, 0.202778 ], [ 13.038271, 0.227918 ], [ 12.956604, 0.257324 ], [ 12.914361, 0.22847 ], [ 12.8499413, 0.215592 ], [ 12.8403645, 0.245563 ], [ 12.7985802, 0.246108 ], [ 12.7284651, 0.298836 ], [ 12.7062035, 0.240532 ], [ 12.6558371, 0.275662 ], [ 12.6195126, 0.283071 ], [ 12.5905466, 0.168135 ], [ 12.5285053, -0.143692 ], [ 12.4834671, -0.416026 ], [ 12.4353991, -0.444608 ], [ 12.3757992, -0.460851 ], [ 12.2566261, -0.512353 ], [ 12.2088957, -0.51876 ], [ 12.139822, -0.552536 ], [ 12.0064173, -0.593956 ], [ 11.6643295, -0.712798 ], [ 11.5754004, -0.73169 ], [ 11.5292645, -0.588173 ], [ 11.4971046, -0.528379 ], [ 11.4432602, -0.487446 ], [ 11.4361792, -0.358139 ], [ 11.3627739, -0.272199 ], [ 11.3486128, -0.244117 ], [ 11.3664351, -0.173318 ], [ 11.3565969, -0.113754 ], [ 11.3225307, -0.083736 ], [ 11.2716703, -0.063082 ], [ 11.3197823, 0.02837 ], [ 11.4101563, 0.077396 ], [ 11.4566412, 0.116741 ], [ 11.5190344, 0.136329 ], [ 11.5607481, 0.195859 ], [ 11.5749807, 0.240435 ], [ 11.5556583, 0.28101 ], [ 11.451313, 0.343493 ], [ 11.5287457, 0.409911 ], [ 11.6694918, 0.506062 ], [ 11.8954411, 0.653142 ], [ 11.9594488, 0.699692 ], [ 12.2081556, 0.85938 ], [ 12.2478867, 0.938007 ], [ 12.230093, 0.978675 ], [ 12.2428684, 1.016645 ], [ 12.278986, 1.059273 ], [ 12.2991438, 1.129712 ], [ 12.323595, 1.147388 ], [ 12.3733406, 1.247252 ], [ 12.4198761, 1.2523479 ], [ 12.8087044, 1.243029 ], [ 13.1563296, 1.2355127 ], [ 13.1749431, 1.2307764 ], [ 13.18169, 1.22855 ], [ 13.2874676, 1.2296088 ], [ 13.29318, 1.22754 ], [ 13.29957, 1.22983 ], [ 13.3047169, 1.2227312 ], [ 13.31412, 1.23394 ], [ 13.31466, 1.23947 ], [ 13.323011, 1.2360115 ], [ 13.3486411, 1.2613649 ], [ 13.35192, 1.26609 ], [ 13.37248, 1.26538 ], [ 13.38805, 1.28547 ], [ 13.3925825, 1.2839986 ], [ 13.3976286, 1.2823605 ], [ 13.42231, 1.2952 ], [ 13.43146, 1.29956 ], [ 13.4368405, 1.2997221 ], [ 13.43853, 1.29289 ], [ 13.47005, 1.28067 ], [ 13.4732468, 1.2802315 ], [ 13.48216, 1.27376 ], [ 13.48855, 1.27008 ], [ 13.49472, 1.26915 ], [ 13.4960995, 1.2753578 ], [ 13.50089, 1.27512 ], [ 13.51025, 1.26661 ], [ 13.52443, 1.27602 ], [ 13.54111, 1.28404 ], [ 13.54751, 1.28288 ], [ 13.5489501, 1.2814304 ], [ 13.55665, 1.27873 ], [ 13.5697833, 1.2870396 ], [ 13.57608, 1.29043 ], [ 13.57769, 1.29847 ], [ 13.6189092, 1.3299077 ], [ 13.62935, 1.33035 ], [ 13.6306822, 1.3300454 ], [ 13.6342254, 1.3302207 ], [ 13.63257, 1.34115 ], [ 13.6330961, 1.3428785 ], [ 13.63348, 1.34414 ], [ 13.70775, 1.35093 ], [ 13.7263761, 1.36499 ], [ 13.72742, 1.36837 ], [ 13.74524, 1.36627 ], [ 13.7422132, 1.3628285 ], [ 13.7425, 1.36054 ], [ 13.75095, 1.36098 ], [ 13.7587309, 1.3534881 ], [ 13.7591678, 1.3529229 ], [ 13.7611379, 1.3526371 ], [ 13.7752461, 1.361183 ], [ 13.7786, 1.3614 ], [ 13.78913, 1.38 ], [ 13.78366, 1.39104 ], [ 13.79418, 1.39562 ], [ 13.79715, 1.39883 ], [ 13.7967, 1.40412 ], [ 13.7984799, 1.4064494 ], [ 13.79968, 1.40802 ], [ 13.80722, 1.40755 ], [ 13.81043, 1.41191 ], [ 13.80769, 1.4172 ], [ 13.8080579, 1.4206342 ], [ 13.8083796, 1.4236367 ], [ 13.8036818, 1.4211011 ], [ 13.8130186, 1.433879 ], [ 13.81387, 1.42868 ], [ 13.81707, 1.42776 ], [ 13.8246147, 1.4307379 ], [ 13.82462, 1.43074 ], [ 13.83421, 1.42774 ], [ 13.83992, 1.42865 ], [ 13.8463507, 1.4317965 ], [ 13.8605545, 1.4277163 ], [ 13.86186, 1.42585 ], [ 13.89683, 1.43223 ], [ 13.92629, 1.41724 ], [ 13.94891, 1.41766 ], [ 13.96651, 1.42223 ], [ 13.97771, 1.41784 ], [ 13.9808306, 1.4169601 ], [ 13.9880545, 1.4169815 ], [ 13.99526, 1.41815 ], [ 14.0007667, 1.4232941 ], [ 14.00447, 1.43205 ], [ 14.0156136, 1.4353612 ], [ 14.01772, 1.43386 ], [ 14.02457, 1.43132 ], [ 14.03027, 1.42143 ] ] ] ] } },
{ "type": "Feature", "properties": { "POLYGON_ID": "GAB_GAUL2006_ADM1_1281", "ADM0_ISO3": "GAB", "ADM0_NAME": "Gabon", "ADM0_CODE": 89, "ADM1_NAME": "Ogooue-lolo", "ADM1_CODE": 1281, "GEOSET": "GAUL", "GEOSET_YEAR": 2006.0, "GEOSET_VERSION": "GAUL_v1", "GEOSET_UNIT": "ADM1", "CENTROID_LONG": 12.61827451236188, "CENTROID_LAT": -0.84985980578534204 }, "geometry": { "type": "MultiPolygon", "coordinates": [ [ [ [ 13.3005133, 0.047839 ], [ 13.3027143, 0.010555 ], [ 13.2537489, -0.044692 ], [ 13.2473984, -0.094793 ], [ 13.273756, -0.200963 ], [ 13.3033419, -0.202562 ], [ 13.3071365, -0.245091 ], [ 13.3746719, -0.319042 ], [ 13.4556131, -0.486822 ], [ 13.5688572, -0.73913 ], [ 13.4499025, -0.911222 ], [ 13.2857666, -1.171528 ], [ 13.2303753, -1.130813 ], [ 13.1659613, -1.112604 ], [ 13.1614504, -1.179994 ], [ 13.1717186, -1.194309 ], [ 13.164629, -1.256807 ], [ 13.1153269, -1.281052 ], [ 13.0915279, -1.32118 ], [ 13.042098, -1.325335 ], [ 12.9838991, -1.383054 ], [ 12.969533, -1.419289 ], [ 12.9445086, -1.4192539 ], [ 12.9200039, -1.4562989 ], [ 12.8873844, -1.477227 ], [ 12.895051, -1.521577 ], [ 12.8739452, -1.564591 ], [ 12.8493032, -1.578333 ], [ 12.7930422, -1.6774499 ], [ 12.7936354, -1.7204289 ], [ 12.7685928, -1.7531331 ], [ 12.7527784, -1.8747503 ], [ 12.72205, -1.86439 ], [ 12.6883981, -1.8735695 ], [ 12.62607, -1.87908 ], [ 12.57184, -1.85826 ], [ 12.56178, -1.8592 ], [ 12.55631, -1.86611 ], [ 12.5351295, -1.90087 ], [ 12.5212277, -1.9013427 ], [ 12.4623464, -1.8700604 ], [ 12.4133072, -1.822482 ], [ 12.3435574, -1.835371 ], [ 12.309351, -1.8156641 ], [ 12.2745295, -1.818854 ], [ 12.2174044, -1.784075 ], [ 12.1866102, -1.791434 ], [ 12.0586624, -1.635432 ], [ 12.0339661, -1.64325 ], [ 11.9687586, -1.612797 ], [ 11.9513807, -1.583746 ], [ 11.9702263, -1.498612 ], [ 11.9759274, -1.3814501 ], [ 11.9534092, -1.3542531 ], [ 11.8393965, -1.253924 ], [ 11.7696114, -1.202186 ], [ 11.7471237, -1.169289 ], [ 11.7568693, -1.0507801 ], [ 11.7268028, -1.056686 ], [ 11.6522951, -1.101208 ], [ 11.5967093, -1.1208971 ], [ 11.5601501, -1.087146 ], [ 11.5588408, -1.0005569 ], [ 11.5220356, -0.933966 ], [ 11.512742, -0.875404 ], [ 11.518609, -0.812989 ], [ 11.5754004, -0.73169 ], [ 11.6643295, -0.712798 ], [ 12.0064173, -0.593956 ], [ 12.139822, -0.552536 ], [ 12.2088957, -0.51876 ], [ 12.2566261, -0.512353 ], [ 12.3757992, -0.460851 ], [ 12.4353991, -0.444608 ], [ 12.4834671, -0.416026 ], [ 12.5285053, -0.143692 ], [ 12.5905466, 0.168135 ], [ 12.6195126, 0.283071 ], [ 12.6558371, 0.275662 ], [ 12.7062035, 0.240532 ], [ 12.7284651, 0.298836 ], [ 12.7985802, 0.246108 ], [ 12.8403645, 0.245563 ], [ 12.8499413, 0.215592 ], [ 12.914361, 0.22847 ], [ 12.956604, 0.257324 ], [ 13.038271, 0.227918 ], [ 13.0722513, 0.202778 ], [ 13.1076221, 0.136932 ], [ 13.120882, 0.083255 ], [ 13.2003984, 0.054941 ], [ 13.3005133, 0.047839 ] ] ] ] } },
{ "type": "Feature", "properties": { "POLYGON_ID": "GAB_GAUL2006_ADM1_1282", "ADM0_ISO3": "GAB", "ADM0_NAME": "Gabon", "ADM0_CODE": 89, "ADM1_NAME": "Ogooue-Maritime", "ADM1_CODE": 1282, "GEOSET": "GAUL", "GEOSET_YEAR": 2006.0, "GEOSET_VERSION": "GAUL_v1", "GEOSET_UNIT": "ADM1", "CENTROID_LONG": 9.667626726501716, "CENTROID_LAT": -1.5787684916007456 }, "geometry": { "type": "MultiPolygon", "coordinates": [ [ [ [ 9.6082897, -0.528252 ], [ 9.6212702, -0.625477 ], [ 9.6750078, -0.813574 ], [ 9.7285566, -0.846999 ], [ 9.8548212, -0.893551 ], [ 9.8957396, -0.879651 ], [ 9.9561663, -0.920064 ], [ 9.9668074, -0.970911 ], [ 9.9544439, -0.991491 ], [ 9.9745388, -1.032426 ], [ 9.9456053, -1.115887 ], [ 9.9445763, -1.14745 ], [ 9.9797974, -1.149175 ], [ 9.9710283, -1.188581 ], [ 10.0510521, -1.237375 ], [ 10.0924463, -1.23689 ], [ 10.0711241, -1.3053499 ], [ 9.9777374, -1.384011 ], [ 9.9942703, -1.542399 ], [ 9.9149389, -1.579852 ], [ 9.9139175, -1.629849 ], [ 9.8820257, -1.644119 ], [ 9.9336061, -1.7376961 ], [ 9.9645224, -1.780388 ], [ 10.0052099, -1.803489 ], [ 10.1055193, -1.8307689 ], [ 10.1419754, -1.858839 ], [ 10.178503, -1.853081 ], [ 10.1865244, -1.883671 ], [ 10.2161932, -1.907195 ], [ 10.2533913, -1.890947 ], [ 10.3486862, -1.920279 ], [ 10.3761196, -1.8845561 ], [ 10.3969107, -1.906235 ], [ 10.4418039, -1.918576 ], [ 10.4728899, -1.965443 ], [ 10.5043612, -2.072916 ], [ 10.5190554, -2.198236 ], [ 10.5731668, -2.2557571 ], [ 10.590703, -2.303664 ], [ 10.4449167, -2.386579 ], [ 10.4067354, -2.438184 ], [ 10.420393, -2.491684 ], [ 10.368309, -2.502265 ], [ 10.3496647, -2.5553801 ], [ 10.345809, -2.6307969 ], [ 10.319808, -2.6266379 ], [ 10.2276602, -2.6815619 ], [ 10.1600008, -2.7547419 ], [ 10.1053619, -2.789712 ], [ 10.0230186, -2.7973068 ], [ 9.9008841, -2.7076969 ], [ 9.8766172, -2.6530585 ], [ 9.7636204, -2.5420135 ], [ 9.7297593, -2.5010394 ], [ 9.6290994, -2.4085315 ], [ 9.5879307, -2.3425453 ], [ 9.5841756, -2.24947 ], [ 9.5463511, -2.1952104 ], [ 9.4016309, -2.0471289 ], [ 9.2926893, -1.9177158 ], [ 9.3468912, -1.9298241 ], [ 9.3845588, -1.9164083 ], [ 9.3896912, -1.948895 ], [ 9.4692595, -1.9462962 ], [ 9.48733, -1.958925 ], [ 9.4849668, -2.012985 ], [ 9.515542, -2.0339465 ], [ 9.5463104, -2.0800884 ], [ 9.5764128, -2.0530053 ], [ 9.5612813, -2.0200081 ], [ 9.5122037, -2.0120316 ], [ 9.5185921, -1.9535011 ], [ 9.4639875, -1.8753925 ], [ 9.3908316, -1.8553362 ], [ 9.3424514, -1.9191176 ], [ 9.3151118, -1.9146178 ], [ 9.3215089, -1.8630482 ], [ 9.26821, -1.8742729 ], [ 9.2579501, -1.8073646 ], [ 9.2698616, -1.7836413 ], [ 9.2270503, -1.6245574 ], [ 9.1955296, -1.5691241 ], [ 9.0210437, -1.3515104 ], [ 8.9859458, -1.2777662 ], [ 8.9941437, -1.2215555 ], [ 8.9585357, -1.1529678 ], [ 8.8914218, -1.0552421 ], [ 8.9015417, -1.0266215 ], [ 8.867217, -1.0008355 ], [ 8.8537702, -0.953649 ], [ 8.7892244, -0.8548904 ], [ 8.7597722, -0.7744409 ], [ 8.7134148, -0.7032729 ], [ 8.69933, -0.6602119 ], [ 8.7210321, -0.6493141 ], [ 8.774475, -0.6918567 ], [ 8.7956379, -0.7268173 ], [ 8.8010363, -0.7903414 ], [ 8.8539468, -0.833404 ], [ 8.8697411, -0.7548864 ], [ 8.8949725, -0.7248797 ], [ 8.9525219, -0.7321604 ], [ 8.9473212, -0.6835264 ], [ 9.0042672, -0.6460094 ], [ 9.0330246, -0.6619711 ], [ 9.0698352, -0.7161737 ], [ 9.121191, -0.7138518 ], [ 9.1109442, -0.6612512 ], [ 9.1601203, -0.5787387 ], [ 9.2432325, -0.48488 ], [ 9.2854908, -0.4126816 ], [ 9.3029049, -0.3368747 ], [ 9.3038596, -0.2472631 ], [ 9.3604193, -0.257076 ], [ 9.354702, -0.327017 ], [ 9.3745308, -0.366662 ], [ 9.4342699, -0.418513 ], [ 9.4599857, -0.46478 ], [ 9.5089893, -0.465439 ], [ 9.6082897, -0.528252 ] ] ] ] } },
{ "type": "Feature", "properties": { "POLYGON_ID": "GAB_GAUL2006_ADM1_1283", "ADM0_ISO3": "GAB", "ADM0_NAME": "Gabon", "ADM0_CODE": 89, "ADM1_NAME": "Woleu-Ntem", "ADM1_CODE": 1283, "GEOSET": "GAUL", "GEOSET_YEAR": 2006.0, "GEOSET_VERSION": "GAUL_v1", "GEOSET_UNIT": "ADM1", "CENTROID_LONG": 11.947398082025916, "CENTROID_LAT": 1.4065863166292734 }, "geometry": { "type": "MultiPolygon", "coordinates": [ [ [ [ 10.44681, 0.9983 ], [ 10.9479827, 0.9980499 ], [ 11.31675, 0.99711 ], [ 11.33478, 0.99926 ], [ 11.33493, 1.41211 ], [ 11.3340027, 1.7583671 ], [ 11.3346096, 2.173887 ], [ 11.35016, 2.22673 ], [ 11.37755, 2.26035 ], [ 11.3647, 2.28839 ], [ 11.47402, 2.30395 ], [ 11.5444869, 2.2985214 ], [ 11.58793, 2.31122 ], [ 11.6122, 2.29975 ], [ 11.69955, 2.32216 ], [ 11.75017, 2.28105 ], [ 11.83893, 2.27722 ], [ 11.8955611, 2.2856583 ], [ 11.89725, 2.28555 ], [ 11.9812, 2.29136 ], [ 12.14867, 2.27329 ], [ 12.2134, 2.27723 ], [ 12.24178, 2.24988 ], [ 12.32686, 2.27673 ], [ 12.45343, 2.25255 ], [ 12.50419, 2.26077 ], [ 12.58948, 2.25477 ], [ 12.65925, 2.23867 ], [ 12.68968, 2.24234 ], [ 12.75007, 2.22348 ], [ 12.8267, 2.25289 ], [ 12.87519, 2.2308 ], [ 13.02136, 2.24958 ], [ 13.03783, 2.23808 ], [ 13.09982, 2.24609 ], [ 13.11447, 2.26838 ], [ 13.16275, 2.28399 ], [ 13.22015, 2.25911 ], [ 13.25195, 2.27334 ], [ 13.30019, 2.22846 ], [ 13.29897, 2.17056 ], [ 13.298488, 2.1657456 ], [ 13.29397, 2.15418 ], [ 13.2971241, 2.147113 ], [ 13.2919, 2.13901 ], [ 13.28733, 2.13327 ], [ 13.2925572, 2.1300362 ], [ 13.2948694, 2.1256693 ], [ 13.29143, 2.12199 ], [ 13.29371, 2.1082 ], [ 13.2975398, 2.1081916 ], [ 13.29736, 2.09164 ], [ 13.2943898, 2.0886491 ], [ 13.29346, 2.06818 ], [ 13.2955184, 2.0647326 ], [ 13.28845, 2.0505658 ], [ 13.28682, 2.05095 ], [ 13.2830684, 2.0489712 ], [ 13.28865, 2.04336 ], [ 13.24632, 2.0204 ], [ 13.2374, 2.01098 ], [ 13.2374213, 2.0109488 ], [ 13.23991, 2.0073 ], [ 13.2072, 1.97514 ], [ 13.2086698, 1.9662101 ], [ 13.20879, 1.96548 ], [ 13.21679, 1.94984 ], [ 13.16074, 1.88665 ], [ 13.158737, 1.8836423 ], [ 13.19387, 1.84915 ], [ 13.1960746, 1.8147927 ], [ 13.19708, 1.812 ], [ 13.1813972, 1.7705264 ], [ 13.1823996, 1.7691566 ], [ 13.18148, 1.76203 ], [ 13.18239, 1.75697 ], [ 13.17142, 1.74571 ], [ 13.15907, 1.74181 ], [ 13.15655, 1.73285 ], [ 13.15883, 1.72572 ], [ 13.14511, 1.70849 ], [ 13.13711, 1.70183 ], [ 13.13642, 1.69195 ], [ 13.1392417, 1.685498 ], [ 13.14234, 1.65815 ], [ 13.1406967, 1.6543372 ], [ 13.15102, 1.62481 ], [ 13.1497, 1.6195 ], [ 13.1494432, 1.6184926 ], [ 13.14918, 1.61746 ], [ 13.14552, 1.60689 ], [ 13.1423573, 1.598831 ], [ 13.142905, 1.5952729 ], [ 13.14597, 1.5924 ], [ 13.13089, 1.5869 ], [ 13.13317, 1.58322 ], [ 13.1382, 1.58161 ], [ 13.14459, 1.55999 ], [ 13.14527, 1.55517 ], [ 13.16377, 1.5255 ], [ 13.1960309, 1.5141214 ], [ 13.19827, 1.51214 ], [ 13.1953, 1.50893 ], [ 13.1927858, 1.4983622 ], [ 13.19827, 1.50042 ], [ 13.1950516, 1.4909813 ], [ 13.19392, 1.48962 ], [ 13.1943518, 1.4886483 ], [ 13.1948396, 1.4875508 ], [ 13.2078036, 1.4823472 ], [ 13.2080888, 1.4811051 ], [ 13.21838, 1.47835 ], [ 13.22065, 1.47397 ], [ 13.2202, 1.47075 ], [ 13.21631, 1.4657 ], [ 13.21791, 1.46294 ], [ 13.22887, 1.4434 ], [ 13.2334799, 1.4389481 ], [ 13.2341197, 1.4383303 ], [ 13.2389097, 1.4277592 ], [ 13.24188, 1.4158 ], [ 13.242944, 1.4131108 ], [ 13.2494, 1.39167 ], [ 13.25626, 1.39235 ], [ 13.2465869, 1.3669835 ], [ 13.24733, 1.36455 ], [ 13.25396, 1.35879 ], [ 13.25418, 1.3565 ], [ 13.2448099, 1.3489197 ], [ 13.2552124, 1.3392254 ], [ 13.2576, 1.34178 ], [ 13.264, 1.33649 ], [ 13.25736, 1.31604 ], [ 13.23999, 1.30503 ], [ 13.2313, 1.30366 ], [ 13.22902, 1.30044 ], [ 13.2297, 1.2901 ], [ 13.2159784, 1.289346 ], [ 13.21393, 1.29126 ], [ 13.2053, 1.28894 ], [ 13.2010261, 1.2877969 ], [ 13.194322, 1.2897494 ], [ 13.19291, 1.2938 ], [ 13.18491, 1.28692 ], [ 13.18285, 1.28002 ], [ 13.1563296, 1.2355127 ], [ 12.8087044, 1.243029 ], [ 12.4198761, 1.2523479 ], [ 12.3733406, 1.247252 ], [ 12.323595, 1.147388 ], [ 12.2991438, 1.129712 ], [ 12.278986, 1.059273 ], [ 12.2428684, 1.016645 ], [ 12.230093, 0.978675 ], [ 12.2478867, 0.938007 ], [ 12.2081556, 0.85938 ], [ 11.9594488, 0.699692 ], [ 11.8954411, 0.653142 ], [ 11.6694918, 0.506062 ], [ 11.5287457, 0.409911 ], [ 11.451313, 0.343493 ], [ 11.5556583, 0.28101 ], [ 11.5749807, 0.240435 ], [ 11.3037987, 0.235692 ], [ 11.2232647, 0.256585 ], [ 11.1849136, 0.238029 ], [ 11.0773811, 0.229754 ], [ 10.8313036, 0.223595 ], [ 10.8602724, 0.291993 ], [ 10.8382893, 0.314119 ], [ 10.8782444, 0.387548 ], [ 10.889226, 0.44991 ], [ 10.9171896, 0.523341 ], [ 10.9241734, 0.580674 ], [ 10.9661322, 0.615887 ], [ 10.9871006, 0.684289 ], [ 10.9850826, 0.768781 ], [ 10.9715986, 0.813682 ], [ 10.7741013, 0.739981 ], [ 10.5561104, 0.669486 ], [ 10.4387732, 0.587584 ], [ 10.3934135, 0.588756 ], [ 10.3486767, 0.614164 ], [ 10.3180246, 0.58763 ], [ 10.2854052, 0.649196 ], [ 10.3260336, 0.656806 ], [ 10.3362226, 0.705897 ], [ 10.3688507, 0.732253 ], [ 10.3765078, 0.773567 ], [ 10.4400549, 0.858568 ], [ 10.4645329, 0.9982594 ], [ 10.44681, 0.9983 ] ] ] ] } }
]
}
