{
"type": "FeatureCollection",
"name": "GBR_GAUL2012_ADM1",
"crs": { "type": "name", "properties": { "name": "urn:ogc:def:crs:OGC:1.3:CRS84" } },
"features": [
{ "type": "Feature", "properties": { "POLYGON_ID": "GBR_GAUL2012_ADM1_3182", "ADM0_ISO3": "GBR", "ADM0_NAME": "U.K. of Great Britain and Northern Ireland", "ADM0_CODE": 256, "ADM1_NAME": "England", "ADM1_CODE": 3182, "GEOSET": "GAUL", "GEOSET_YEAR": 2012.0, "GEOSET_VERSION": "GAUL_v1", "GEOSET_UNIT": "ADM1", "CENTROID_LONG": -1.4657739480473146, "CENTROID_LAT": 52.594932782753595 }, "geometry": { "type": "MultiPolygon", "coordinates": [ [ [ [ -2.6674771, 51.6203472 ], [ -2.6591671, 51.6730499 ], [ -2.685277, 51.7269402 ], [ -2.683888, 51.7655487 ], [ -2.648612, 51.8122215 ], [ -2.737222, 51.8394394 ], [ -2.77861, 51.8858299 ], [ -2.866389, 51.9288902 ], [ -2.9438879, 51.9066582 ], [ -2.988888, 51.9255486 ], [ -3.0866671, 52.0222206 ], [ -3.1297231, 52.1269417 ], [ -3.11361, 52.166111 ], [ -3.013056, 52.2555504 ], [ -2.9755549, 52.3463783 ], [ -3.0677781, 52.3449898 ], [ -3.19611, 52.4102707 ], [ -3.19611, 52.4672203 ], [ -3.1086121, 52.4944382 ], [ -3.029444, 52.4969406 ], [ -2.9744451, 52.5419388 ], [ -3.010833, 52.5697212 ], [ -3.0863891, 52.5288811 ], [ -3.125, 52.5661087 ], [ -3.029166, 52.6533318 ], [ -3.011111, 52.7116585 ], [ -2.957221, 52.732769 ], [ -3.001111, 52.7577705 ], [ -3.1408319, 52.7963905 ], [ -3.155833, 52.8219414 ], [ -3.1191671, 52.8561096 ], [ -3.1316659, 52.8833313 ], [ -3.0894451, 52.9130592 ], [ -2.9938891, 52.9536095 ], [ -2.928333, 52.9327812 ], [ -2.85361, 52.9397202 ], [ -2.783334, 52.8986092 ], [ -2.719722, 52.9172211 ], [ -2.72774, 52.96661 ], [ -2.812777, 52.9841614 ], [ -2.8604691, 53.0219307 ], [ -2.8954861, 53.10075 ], [ -2.957499, 53.1516609 ], [ -2.9091671, 53.1713905 ], [ -2.955277, 53.2155495 ], [ -3.037221, 53.2511101 ], [ -3.0833093, 53.2533263 ], [ -3.1217501, 53.3251266 ], [ -3.2045751, 53.3903389 ], [ -3.046917, 53.4412994 ], [ -3.0103269, 53.3806496 ], [ -2.935534, 53.3098717 ], [ -2.863817, 53.2933655 ], [ -2.789017, 53.2985229 ], [ -2.829289, 53.3344879 ], [ -2.8701971, 53.32967 ], [ -2.990196, 53.3846588 ], [ -3.0133991, 53.4396858 ], [ -3.047579, 53.4661102 ], [ -3.066931, 53.5259438 ], [ -3.1080909, 53.5570908 ], [ -3.045495, 53.6451759 ], [ -2.9613791, 53.7059975 ], [ -2.9687459, 53.7356796 ], [ -3.02685, 53.7429619 ], [ -3.0605011, 53.7713509 ], [ -3.0613611, 53.8431282 ], [ -3.0463259, 53.925705 ], [ -2.869714, 53.9655952 ], [ -2.926976, 54.0340347 ], [ -2.8818309, 54.073967 ], [ -2.8221469, 54.0923805 ], [ -2.8087449, 54.131073 ], [ -2.8682859, 54.184494 ], [ -2.99862, 54.1560745 ], [ -3.0328779, 54.1935883 ], [ -3.1050861, 54.1249504 ], [ -3.168731, 54.0831528 ], [ -3.2435598, 54.1099777 ], [ -3.267699, 54.1902733 ], [ -3.3257101, 54.1919365 ], [ -3.420264, 54.2811356 ], [ -3.4268661, 54.3372192 ], [ -3.6425741, 54.5185127 ], [ -3.5823228, 54.575573 ], [ -3.5782099, 54.6450882 ], [ -3.496438, 54.727417 ], [ -3.4388559, 54.7602425 ], [ -3.44082, 54.7937393 ], [ -3.403609, 54.8700638 ], [ -3.289778, 54.9406052 ], [ -3.2068629, 54.9541435 ], [ -3.1142972, 54.9281883 ], [ -3.050427, 54.9822565 ], [ -3.033334, 55.0525017 ], [ -2.950556, 55.0405502 ], [ -2.884166, 55.0813789 ], [ -2.819999, 55.1397209 ], [ -2.771111, 55.1461105 ], [ -2.626111, 55.2233315 ], [ -2.628334, 55.2655487 ], [ -2.4630561, 55.3611107 ], [ -2.384999, 55.3441582 ], [ -2.330832, 55.3983307 ], [ -2.21611, 55.4252815 ], [ -2.1824989, 55.458889 ], [ -2.330925, 55.6405487 ], [ -2.23861, 55.6519394 ], [ -2.1724989, 55.7191582 ], [ -2.0884941, 55.7584496 ], [ -2.080277, 55.7944412 ], [ -2.0315445, 55.8041438 ], [ -1.9842169, 55.7517471 ], [ -1.887668, 55.6968842 ], [ -1.8341399, 55.6413536 ], [ -1.645028, 55.5864639 ], [ -1.640973, 55.541317 ], [ -1.5920371, 55.4937019 ], [ -1.581522, 55.4065399 ], [ -1.6117129, 55.3857956 ], [ -1.548115, 55.3222198 ], [ -1.5722491, 55.2929611 ], [ -1.5482271, 55.2413445 ], [ -1.502295, 55.1989555 ], [ -1.52637, 55.161499 ], [ -1.496309, 55.1056709 ], [ -1.356805, 54.9667053 ], [ -1.366675, 54.9358711 ], [ -1.3460571, 54.8571205 ], [ -1.307768, 54.777832 ], [ -1.2647599, 54.7390175 ], [ -1.1812011, 54.7002144 ], [ -1.1639091, 54.6511078 ], [ -1.0031369, 54.5962448 ], [ -0.7799701, 54.5611267 ], [ -0.662842, 54.5015526 ], [ -0.575806, 54.4827003 ], [ -0.5274439, 54.4500961 ], [ -0.5232469, 54.4144096 ], [ -0.4758071, 54.3982277 ], [ -0.373025, 54.2497025 ], [ -0.282977, 54.2221107 ], [ -0.2431609, 54.1656303 ], [ -0.099011, 54.1312294 ], [ -0.1697569, 54.1020851 ], [ -0.2154599, 54.0635719 ], [ -0.203828, 53.9763031 ], [ -0.1584171, 53.9011383 ], [ -0.0680259, 53.8151321 ], [ 0.1032599, 53.6762581 ], [ 0.1121769, 53.6303253 ], [ 0.026962, 53.6519585 ], [ -0.063168, 53.6316528 ], [ -0.122653, 53.6435585 ], [ -0.29465, 53.7437706 ], [ -0.453903, 53.7164917 ], [ -0.4177381, 53.6991653 ], [ -0.3005341, 53.7160721 ], [ -0.2001849, 53.636055 ], [ -0.108822, 53.5886116 ], [ -0.065332, 53.584446 ], [ 0.011601, 53.5325089 ], [ 0.102403, 53.4929008 ], [ 0.145905, 53.4948235 ], [ 0.204822, 53.4293442 ], [ 0.318846, 53.2737274 ], [ 0.3549279, 53.1930962 ], [ 0.339487, 53.1031075 ], [ 0.277963, 53.0860596 ], [ 0.098503, 52.9772491 ], [ 0.0343691, 52.9238396 ], [ 0.028641, 52.8993301 ], [ 0.166025, 52.8767738 ], [ 0.210547, 52.8210449 ], [ 0.317783, 52.8161278 ], [ 0.364021, 52.800499 ], [ 0.4419589, 52.8747749 ], [ 0.490641, 52.9536247 ], [ 0.538762, 52.97855 ], [ 0.6100169, 52.9741097 ], [ 0.6900409, 52.9903526 ], [ 0.898885, 52.9656181 ], [ 0.9902211, 52.980114 ], [ 1.1348031, 52.9516029 ], [ 1.2559451, 52.9428062 ], [ 1.404928, 52.8948021 ], [ 1.63536, 52.7718048 ], [ 1.6877871, 52.7322769 ], [ 1.739798, 52.6323395 ], [ 1.727877, 52.5724564 ], [ 1.758018, 52.4899178 ], [ 1.731321, 52.4542503 ], [ 1.726006, 52.3991089 ], [ 1.6734649, 52.3203964 ], [ 1.6240211, 52.2737923 ], [ 1.616213, 52.1887856 ], [ 1.579712, 52.0965462 ], [ 1.459172, 52.0472069 ], [ 1.4242159, 52.0079117 ], [ 1.3150949, 51.9348373 ], [ 1.28361, 51.9468117 ], [ 1.224941, 51.8627548 ], [ 1.229051, 51.8205032 ], [ 1.102419, 51.7744904 ], [ 1.0375791, 51.7721901 ], [ 0.982128, 51.823925 ], [ 0.856298, 51.7719078 ], [ 0.83376, 51.7419662 ], [ 0.763019, 51.7414627 ], [ 0.7597771, 51.7107124 ], [ 0.864461, 51.7261047 ], [ 0.91989, 51.7501144 ], [ 0.9441921, 51.7231369 ], [ 0.924462, 51.5958252 ], [ 0.777223, 51.5232849 ], [ 0.5476241, 51.5501366 ], [ 0.512752, 51.5083504 ], [ 0.545162, 51.4889565 ], [ 0.6974009, 51.4733429 ], [ 0.7080071, 51.4370689 ], [ 0.6464511, 51.4369659 ], [ 0.553821, 51.4001884 ], [ 0.662205, 51.3803978 ], [ 0.705865, 51.385704 ], [ 0.7222641, 51.4008904 ], [ 0.7574201, 51.3852196 ], [ 0.754331, 51.3716125 ], [ 0.766156, 51.3650093 ], [ 0.860633, 51.3583374 ], [ 0.8903301, 51.3437386 ], [ 0.9967781, 51.3516006 ], [ 1.050025, 51.366806 ], [ 1.1970869, 51.3824005 ], [ 1.2722069, 51.3796005 ], [ 1.424621, 51.3943443 ], [ 1.438254, 51.3553581 ], [ 1.373919, 51.2825394 ], [ 1.397848, 51.2362442 ], [ 1.399343, 51.1748734 ], [ 1.3730161, 51.1430359 ], [ 1.1689559, 51.0770454 ], [ 1.07002, 51.0656433 ], [ 1.026935, 51.0488014 ], [ 0.9656581, 50.9974289 ], [ 0.963791, 50.9140358 ], [ 0.774319, 50.9373894 ], [ 0.6554029, 50.8719711 ], [ 0.413241, 50.831913 ], [ 0.3596729, 50.8179359 ], [ 0.255852, 50.7402039 ], [ 0.2112029, 50.7411804 ], [ 0.0734619, 50.7841187 ], [ -0.104563, 50.8180122 ], [ -0.24872, 50.8330879 ], [ -0.383061, 50.8123131 ], [ -0.569553, 50.803894 ], [ -0.7120321, 50.7815704 ], [ -0.75691, 50.7668724 ], [ -0.793831, 50.7270813 ], [ -0.916459, 50.7775879 ], [ -0.94724, 50.8218842 ], [ -0.9393169, 50.8479729 ], [ -1.0515779, 50.8359833 ], [ -1.048481, 50.7984657 ], [ -1.0886869, 50.7814903 ], [ -1.1140429, 50.8434372 ], [ -1.159403, 50.8320198 ], [ -1.1272651, 50.7962074 ], [ -1.195645, 50.7925453 ], [ -1.2212931, 50.8142815 ], [ -1.329143, 50.8238602 ], [ -1.347661, 50.7899513 ], [ -1.497606, 50.7590332 ], [ -1.576573, 50.7196388 ], [ -1.6900909, 50.7406845 ], [ -1.8908319, 50.7182465 ], [ -1.929862, 50.7032471 ], [ -2.007998, 50.724102 ], [ -2.03181, 50.6894875 ], [ -1.9623181, 50.6792488 ], [ -1.957685, 50.5999718 ], [ -2.034039, 50.5934105 ], [ -2.204073, 50.6275711 ], [ -2.2322669, 50.6214828 ], [ -2.3935201, 50.641346 ], [ -2.438514, 50.6387825 ], [ -2.47595, 50.5852394 ], [ -2.627876, 50.6633492 ], [ -2.798604, 50.7217331 ], [ -2.9100461, 50.7378311 ], [ -2.9852569, 50.7096291 ], [ -3.085001, 50.706562 ], [ -3.104928, 50.6895065 ], [ -3.258985, 50.6782227 ], [ -3.3086281, 50.6361504 ], [ -3.3619971, 50.6137543 ], [ -3.443188, 50.602375 ], [ -3.501668, 50.5443878 ], [ -3.517369, 50.4868698 ], [ -3.5584819, 50.4491768 ], [ -3.521543, 50.4044762 ], [ -3.5196769, 50.3522186 ], [ -3.615658, 50.3201637 ], [ -3.650852, 50.2858734 ], [ -3.6641829, 50.2367859 ], [ -3.7256401, 50.2044716 ], [ -3.7777841, 50.2264709 ], [ -3.82867, 50.2190056 ], [ -3.865762, 50.2642899 ], [ -3.9217279, 50.2982979 ], [ -3.984297, 50.3092041 ], [ -4.0526681, 50.2972183 ], [ -4.1280179, 50.326004 ], [ -4.137125, 50.3624649 ], [ -4.193223, 50.3696213 ], [ -4.2154021, 50.3204231 ], [ -4.2795987, 50.356945 ], [ -4.442656, 50.363163 ], [ -4.4809971, 50.335659 ], [ -4.5863218, 50.3344231 ], [ -4.688138, 50.3221741 ], [ -4.7580929, 50.3339386 ], [ -4.7870541, 50.2480087 ], [ -4.8630099, 50.2370415 ], [ -4.9125128, 50.2017174 ], [ -4.9588451, 50.2027054 ], [ -4.9733768, 50.1678162 ], [ -5.0641289, 50.1471519 ], [ -5.1099668, 50.0955887 ], [ -5.0706501, 50.0377274 ], [ -5.1036501, 50.0073471 ], [ -5.15765, 50.0097351 ], [ -5.1887932, 49.9791298 ], [ -5.2482538, 49.9859543 ], [ -5.2881622, 50.0633774 ], [ -5.3351383, 50.0922737 ], [ -5.4271421, 50.0998306 ], [ -5.4622488, 50.1227226 ], [ -5.5296688, 50.1274338 ], [ -5.5528092, 50.064682 ], [ -5.6796861, 50.0364456 ], [ -5.7139859, 50.1291389 ], [ -5.6775289, 50.1627388 ], [ -5.6305628, 50.1707344 ], [ -5.5418749, 50.2173843 ], [ -5.5003681, 50.2215729 ], [ -5.4422331, 50.1954422 ], [ -5.3945169, 50.2298317 ], [ -5.3337631, 50.2434158 ], [ -5.250144, 50.2845001 ], [ -5.2365479, 50.3207817 ], [ -5.1562319, 50.3507843 ], [ -5.1390839, 50.409935 ], [ -5.079658, 50.4190254 ], [ -5.0417438, 50.4508362 ], [ -5.028811, 50.544384 ], [ -4.9847231, 50.5456696 ], [ -4.911097, 50.588871 ], [ -4.7912779, 50.6056404 ], [ -4.7628851, 50.6685181 ], [ -4.6588521, 50.7207985 ], [ -4.6389852, 50.7528915 ], [ -4.5647511, 50.7909203 ], [ -4.573339, 50.9065704 ], [ -4.5294857, 51.0254669 ], [ -4.4339643, 51.016964 ], [ -4.378747, 50.9927711 ], [ -4.3197827, 50.9971161 ], [ -4.2413158, 51.0476723 ], [ -4.2226281, 51.0792999 ], [ -4.2472148, 51.1366539 ], [ -4.2097921, 51.2026482 ], [ -4.0750289, 51.2203522 ], [ -3.9658279, 51.2211227 ], [ -3.775578, 51.2407646 ], [ -3.635669, 51.2253265 ], [ -3.5410309, 51.2343445 ], [ -3.446723, 51.2101898 ], [ -3.409987, 51.1857605 ], [ -3.2728631, 51.1835823 ], [ -3.1293468, 51.2129517 ], [ -3.077018, 51.20298 ], [ -3.0062301, 51.2228203 ], [ -3.023617, 51.2710457 ], [ -3.011188, 51.3127708 ], [ -2.966809, 51.3698921 ], [ -2.917155, 51.3995781 ], [ -2.856092, 51.4577179 ], [ -2.8051651, 51.4878082 ], [ -2.722518, 51.5037575 ], [ -2.670723, 51.5760155 ], [ -2.5911551, 51.631382 ], [ -2.603039, 51.6832886 ], [ -2.6674771, 51.6203472 ] ] ], [ [ [ 0.809191, 51.4299736 ], [ 0.897798, 51.4180069 ], [ 0.9416252, 51.3788528 ], [ 0.866537, 51.3665771 ], [ 0.8062971, 51.3717766 ], [ 0.7623721, 51.3715477 ], [ 0.7618801, 51.3859711 ], [ 0.7279681, 51.4032021 ], [ 0.7418112, 51.4360886 ], [ 0.809191, 51.4299736 ] ] ], [ [ [ -1.2889, 50.735199 ], [ -1.2169678, 50.7397575 ], [ -1.1203099, 50.7268753 ], [ -1.078705, 50.6881142 ], [ -1.160076, 50.6589432 ], [ -1.184194, 50.607357 ], [ -1.3008569, 50.5792427 ], [ -1.3870029, 50.6285477 ], [ -1.514132, 50.6746063 ], [ -1.5259529, 50.7104225 ], [ -1.4214519, 50.7196922 ], [ -1.3171149, 50.7718048 ], [ -1.2889, 50.735199 ] ] ] ] } },
{ "type": "Feature", "properties": { "POLYGON_ID": "GBR_GAUL2012_ADM1_3183", "ADM0_ISO3": "GBR", "ADM0_NAME": "U.K. of Great Britain and Northern Ireland", "ADM0_CODE": 256, "ADM1_NAME": "Northern Ireland", "ADM1_CODE": 3183, "GEOSET": "GAUL", "GEOSET_YEAR": 2012.0, "GEOSET_VERSION": "GAUL_v1", "GEOSET_UNIT": "ADM1", "CENTROID_LONG": -6.701168132255475, "CENTROID_LAT": 54.609719762492723 }, "geometry": { "type": "MultiPolygon", "coordinates": [ [ [ [ -6.2660952, 54.0965132 ], [ -6.3007556, 54.1120232 ], [ -6.4035456, 54.0645032 ], [ -6.4802156, 54.0722332 ], [ -6.6085232, 54.0459241 ], [ -6.6734656, 54.0729332 ], [ -6.6450056, 54.1677532 ], [ -6.7318056, 54.1839832 ], [ -6.8221456, 54.2219732 ], [ -6.8839956, 54.3480632 ], [ -6.9124556, 54.3494132 ], [ -6.9804756, 54.4054432 ], [ -7.0562456, 54.4119632 ], [ -7.1126156, 54.3523832 ], [ -7.1845956, 54.3344032 ], [ -7.1869956, 54.2885032 ], [ -7.1497957, 54.2257232 ], [ -7.2231456, 54.2118032 ], [ -7.3347156, 54.1446032 ], [ -7.3288007, 54.120321 ], [ -7.4565456, 54.1463632 ], [ -7.4873056, 54.1223332 ], [ -7.6017556, 54.1410732 ], [ -7.6912756, 54.2038032 ], [ -7.8174156, 54.2010032 ], [ -7.8665556, 54.2186532 ], [ -7.8779758, 54.2883308 ], [ -7.9464309, 54.3037746 ], [ -8.0039356, 54.3602132 ], [ -8.0433056, 54.3613332 ], [ -8.1799187, 54.4651318 ], [ -8.0536256, 54.4870132 ], [ -8.0204956, 54.5395832 ], [ -7.8573656, 54.5318532 ], [ -7.7759156, 54.6212632 ], [ -7.9184856, 54.6690232 ], [ -7.8578556, 54.7279932 ], [ -7.7784656, 54.7054132 ], [ -7.6414956, 54.7503032 ], [ -7.5555156, 54.7413032 ], [ -7.5443456, 54.7996532 ], [ -7.4830556, 54.8260932 ], [ -7.4476756, 54.8724232 ], [ -7.4512756, 54.9391632 ], [ -7.4233956, 54.9464332 ], [ -7.3927756, 55.0225932 ], [ -7.3338856, 55.0535732 ], [ -7.2552163, 55.0671239 ], [ -7.1516542, 55.0605507 ], [ -7.1250401, 55.0430794 ], [ -7.0489039, 55.050518 ], [ -7.0115252, 55.0787163 ], [ -6.9702811, 55.1419029 ], [ -6.963882, 55.1936188 ], [ -6.8764682, 55.1695595 ], [ -6.752728, 55.1687393 ], [ -6.7225451, 55.1907272 ], [ -6.5856028, 55.2112846 ], [ -6.4856639, 55.2533798 ], [ -6.405107, 55.2333984 ], [ -6.3008099, 55.2328186 ], [ -6.2423539, 55.2069931 ], [ -6.1402349, 55.2265205 ], [ -6.0738301, 55.1994247 ], [ -6.0306211, 55.1590576 ], [ -6.060401, 55.0618019 ], [ -5.968235, 55.0504532 ], [ -5.993669, 54.9849777 ], [ -5.9347329, 54.9685974 ], [ -5.877151, 54.9063492 ], [ -5.7880712, 54.8437462 ], [ -5.7274532, 54.8494186 ], [ -5.6916251, 54.8083458 ], [ -5.7101822, 54.7491951 ], [ -5.8432178, 54.707737 ], [ -5.8973022, 54.6747704 ], [ -5.9152908, 54.6051407 ], [ -5.8063569, 54.6621513 ], [ -5.741899, 54.679306 ], [ -5.6753449, 54.6652336 ], [ -5.5774212, 54.676281 ], [ -5.5317183, 54.6444473 ], [ -5.521174, 54.5981102 ], [ -5.46173, 54.4978485 ], [ -5.4346118, 54.4884758 ], [ -5.4667501, 54.4173241 ], [ -5.460032, 54.3877335 ], [ -5.5295663, 54.3612785 ], [ -5.580719, 54.4142303 ], [ -5.5363221, 54.4510155 ], [ -5.5593271, 54.5352249 ], [ -5.6769991, 54.584713 ], [ -5.715652, 54.5429726 ], [ -5.6585808, 54.5182304 ], [ -5.6433792, 54.4446144 ], [ -5.6491699, 54.3674278 ], [ -5.5601811, 54.3792343 ], [ -5.5409822, 54.3389626 ], [ -5.5607858, 54.2891388 ], [ -5.6046977, 54.2619247 ], [ -5.8262162, 54.2457848 ], [ -5.893003, 54.2132339 ], [ -5.8769488, 54.1845779 ], [ -5.9045601, 54.1025887 ], [ -6.0661931, 54.0246582 ], [ -6.2010121, 54.0993042 ], [ -6.2660952, 54.0965132 ] ] ] ] } },
{ "type": "Feature", "properties": { "POLYGON_ID": "GBR_GAUL2012_ADM1_3184", "ADM0_ISO3": "GBR", "ADM0_NAME": "U.K. of Great Britain and Northern Ireland", "ADM0_CODE": 256, "ADM1_NAME": "Scotland", "ADM1_CODE": 3184, "GEOSET": "GAUL", "GEOSET_YEAR": 2012.0, "GEOSET_VERSION": "GAUL_v1", "GEOSET_UNIT": "ADM1", "CENTROID_LONG": -4.1957128193247382, "CENTROID_LAT": 56.821136866563982 }, "geometry": { "type": "MultiPolygon", "coordinates": [ [ [ [ -0.8836559, 60.8045044 ], [ -0.8083789, 60.7578506 ], [ -0.874229, 60.7043381 ], [ -0.9303619, 60.6867256 ], [ -0.9702819, 60.7374268 ], [ -0.8836559, 60.8045044 ] ] ], [ [ [ -0.861006, 60.6305122 ], [ -0.8359099, 60.5852928 ], [ -0.900952, 60.5613174 ], [ -0.9457789, 60.6028633 ], [ -0.861006, 60.6305122 ] ] ], [ [ [ -1.0759329, 60.7305794 ], [ -1.0133389, 60.7194519 ], [ -0.99478, 60.6356316 ], [ -1.036498, 60.601635 ], [ -1.0079449, 60.5657272 ], [ -1.0487169, 60.5351448 ], [ -1.041082, 60.4998016 ], [ -1.1602139, 60.4879723 ], [ -1.2049329, 60.5617447 ], [ -1.192973, 60.6342506 ], [ -1.1449219, 60.6639862 ], [ -1.1155909, 60.7299271 ], [ -1.0759329, 60.7305794 ] ] ], [ [ [ -1.124462, 60.1830177 ], [ -1.0659139, 60.1385956 ], [ -1.1345209, 60.1221771 ], [ -1.124462, 60.1830177 ] ] ], [ [ [ -1.2172489, 60.4643173 ], [ -1.227615, 60.4173546 ], [ -1.130074, 60.3991013 ], [ -1.083747, 60.3734627 ], [ -1.118926, 60.3473892 ], [ -1.120941, 60.3008461 ], [ -1.156795, 60.2849731 ], [ -1.186102, 60.1361237 ], [ -1.23286, 60.0987167 ], [ -1.210758, 60.04636 ], [ -1.217031, 59.9986916 ], [ -1.2798841, 59.985569 ], [ -1.263543, 59.9555016 ], [ -1.328902, 59.8958626 ], [ -1.3823881, 59.8904686 ], [ -1.337945, 59.9730644 ], [ -1.3321179, 60.0156708 ], [ -1.274199, 60.1286507 ], [ -1.3695281, 60.2143631 ], [ -1.429057, 60.1672478 ], [ -1.4989669, 60.1564941 ], [ -1.550463, 60.2099838 ], [ -1.657089, 60.2189941 ], [ -1.711502, 60.2568703 ], [ -1.6908399, 60.3034935 ], [ -1.577221, 60.293438 ], [ -1.4519149, 60.345871 ], [ -1.456901, 60.386322 ], [ -1.367377, 60.3991852 ], [ -1.339669, 60.4356766 ], [ -1.2172489, 60.4643173 ] ] ], [ [ [ -1.3149608, 60.6219635 ], [ -1.3406579, 60.5278587 ], [ -1.3295619, 60.4507904 ], [ -1.3682568, 60.4112396 ], [ -1.4608079, 60.4174805 ], [ -1.4562699, 60.4509239 ], [ -1.577778, 60.4776535 ], [ -1.524201, 60.5318794 ], [ -1.4408839, 60.5804787 ], [ -1.3149608, 60.6219635 ] ] ], [ [ [ -2.0315445, 55.8041438 ], [ -2.080277, 55.7944412 ], [ -2.0884941, 55.7584496 ], [ -2.1724989, 55.7191582 ], [ -2.23861, 55.6519394 ], [ -2.330925, 55.6405487 ], [ -2.1824989, 55.458889 ], [ -2.21611, 55.4252815 ], [ -2.330832, 55.3983307 ], [ -2.384999, 55.3441582 ], [ -2.4630561, 55.3611107 ], [ -2.628334, 55.2655487 ], [ -2.626111, 55.2233315 ], [ -2.771111, 55.1461105 ], [ -2.819999, 55.1397209 ], [ -2.884166, 55.0813789 ], [ -2.950556, 55.0405502 ], [ -3.033334, 55.0525017 ], [ -3.050427, 54.9822565 ], [ -3.1528769, 54.9633713 ], [ -3.213877, 54.9757996 ], [ -3.2690611, 54.9651833 ], [ -3.3293018, 54.9782372 ], [ -3.581157, 54.9622726 ], [ -3.5659361, 54.9066963 ], [ -3.5998821, 54.8752174 ], [ -3.730906, 54.8811417 ], [ -3.8313122, 54.8239136 ], [ -3.964313, 54.7753563 ], [ -4.0972548, 54.7685852 ], [ -4.183897, 54.7962189 ], [ -4.267138, 54.8370934 ], [ -4.433918, 54.8844299 ], [ -4.4184189, 54.8303185 ], [ -4.357183, 54.8139153 ], [ -4.37116, 54.7304039 ], [ -4.3576307, 54.7065735 ], [ -4.4098592, 54.6806564 ], [ -4.4991121, 54.7054672 ], [ -4.5922737, 54.768692 ], [ -4.7152519, 54.8279037 ], [ -4.7842503, 54.8344841 ], [ -4.8161411, 54.8667297 ], [ -4.9379811, 54.8320732 ], [ -4.9600601, 54.8083344 ], [ -4.8815269, 54.6722717 ], [ -4.9648089, 54.66605 ], [ -4.9455991, 54.7018394 ], [ -4.9926052, 54.7368279 ], [ -5.008832, 54.7808418 ], [ -5.1380548, 54.8516502 ], [ -5.1828737, 54.9118919 ], [ -5.1855631, 54.9768066 ], [ -5.1629629, 55.0062828 ], [ -5.0983262, 55.0185356 ], [ -5.0669661, 54.9881821 ], [ -5.0634899, 54.9289742 ], [ -4.99226, 54.9319191 ], [ -5.0609112, 55.0267677 ], [ -4.9972062, 55.1193886 ], [ -4.862041, 55.2310028 ], [ -4.841475, 55.3321381 ], [ -4.7728229, 55.3752365 ], [ -4.7702212, 55.4066925 ], [ -4.653163, 55.4479332 ], [ -4.6268063, 55.5087509 ], [ -4.6766348, 55.5467873 ], [ -4.6633029, 55.5746689 ], [ -4.70048, 55.609066 ], [ -4.7958102, 55.6285858 ], [ -4.9072571, 55.7007675 ], [ -4.8612108, 55.7472687 ], [ -4.8912449, 55.8197784 ], [ -4.8987513, 55.8945808 ], [ -4.8806009, 55.943943 ], [ -4.8203921, 55.9630394 ], [ -4.650373, 55.9321785 ], [ -4.7062631, 55.9935493 ], [ -4.8417869, 55.9848785 ], [ -4.8943071, 55.9984131 ], [ -4.9786949, 55.8627014 ], [ -5.038125, 55.8690414 ], [ -5.1882019, 55.9467735 ], [ -5.2390122, 55.8919067 ], [ -5.2015343, 55.8409729 ], [ -5.316596, 55.8584824 ], [ -5.3447242, 55.8881187 ], [ -5.3412118, 55.9962921 ], [ -5.449019, 56.0215302 ], [ -5.4480681, 55.9689674 ], [ -5.418098, 55.8954468 ], [ -5.3391309, 55.8285599 ], [ -5.3206921, 55.770771 ], [ -5.3965759, 55.7502937 ], [ -5.449657, 55.7112274 ], [ -5.4832091, 55.6464844 ], [ -5.4708643, 55.5840492 ], [ -5.5503159, 55.4205971 ], [ -5.517457, 55.3730659 ], [ -5.6023169, 55.3099213 ], [ -5.681128, 55.3099289 ], [ -5.721858, 55.2939415 ], [ -5.8043652, 55.3031502 ], [ -5.79602, 55.3960381 ], [ -5.7308278, 55.4279747 ], [ -5.7155409, 55.4564972 ], [ -5.7173991, 55.5708122 ], [ -5.6650581, 55.6680679 ], [ -5.558219, 55.7800789 ], [ -5.6649642, 55.8010559 ], [ -5.6635141, 55.8491249 ], [ -5.6892109, 55.9112892 ], [ -5.6657948, 55.9510765 ], [ -5.6364779, 56.056057 ], [ -5.5802851, 56.095459 ], [ -5.520164, 56.1719856 ], [ -5.5881619, 56.1831741 ], [ -5.5470543, 56.2179756 ], [ -5.560925, 56.2644005 ], [ -5.608809, 56.3022957 ], [ -5.4866438, 56.431881 ], [ -5.4020581, 56.4766159 ], [ -5.4349608, 56.5261574 ], [ -5.35992, 56.6120949 ], [ -5.2993951, 56.642971 ], [ -5.2486482, 56.7093811 ], [ -5.2561679, 56.7383804 ], [ -5.407002, 56.6459656 ], [ -5.4936299, 56.6100845 ], [ -5.529356, 56.574276 ], [ -5.6497622, 56.5124969 ], [ -5.7612071, 56.5230904 ], [ -5.9397979, 56.5716896 ], [ -6.0119147, 56.6476364 ], [ -5.910955, 56.6614151 ], [ -5.954165, 56.6894569 ], [ -6.1394601, 56.6874008 ], [ -6.2079349, 56.6959915 ], [ -6.213717, 56.7377205 ], [ -6.1421771, 56.7646675 ], [ -6.064446, 56.7619095 ], [ -5.949522, 56.780735 ], [ -5.83991, 56.7791252 ], [ -5.8598709, 56.834919 ], [ -5.7797298, 56.842495 ], [ -5.7976961, 56.8935547 ], [ -5.8923631, 56.8770638 ], [ -5.8353362, 57.0078964 ], [ -5.7292051, 57.0195313 ], [ -5.7976003, 57.0667152 ], [ -5.721601, 57.1198769 ], [ -5.6584759, 57.1282082 ], [ -5.69489, 57.1725883 ], [ -5.6370821, 57.2028542 ], [ -5.649353, 57.2876129 ], [ -5.7195401, 57.2807655 ], [ -5.7198629, 57.3155136 ], [ -5.6345162, 57.3684883 ], [ -5.7849259, 57.3491478 ], [ -5.8254571, 57.3680458 ], [ -5.8214741, 57.445713 ], [ -5.8752141, 57.4756393 ], [ -5.845459, 57.5758553 ], [ -5.8132739, 57.58255 ], [ -5.6994681, 57.5322762 ], [ -5.6476178, 57.5424385 ], [ -5.523623, 57.5325966 ], [ -5.520854, 57.5521622 ], [ -5.666131, 57.5482674 ], [ -5.8126211, 57.6627007 ], [ -5.7614141, 57.7076187 ], [ -5.8118157, 57.7473755 ], [ -5.8077059, 57.8618202 ], [ -5.6994572, 57.8700066 ], [ -5.62081, 57.7678146 ], [ -5.5837889, 57.8371544 ], [ -5.6401529, 57.8544121 ], [ -5.6479368, 57.9014778 ], [ -5.6129861, 57.9251747 ], [ -5.549129, 57.8973618 ], [ -5.5359201, 57.8660316 ], [ -5.4560752, 57.8638268 ], [ -5.4216518, 57.9078865 ], [ -5.19522, 57.9123383 ], [ -5.1903419, 57.9557228 ], [ -5.3060188, 57.9886703 ], [ -5.3489943, 58.0189247 ], [ -5.4236059, 58.0382805 ], [ -5.4555979, 58.0852127 ], [ -5.2907448, 58.0809517 ], [ -5.2848849, 58.1379395 ], [ -5.406754, 58.2378235 ], [ -5.3687749, 58.2530899 ], [ -5.290483, 58.2369347 ], [ -5.1133699, 58.2720566 ], [ -5.17805, 58.3496742 ], [ -5.1460218, 58.3867798 ], [ -5.083755, 58.395916 ], [ -5.122766, 58.4872055 ], [ -5.1143889, 58.5235481 ], [ -5.0182228, 58.578804 ], [ -5.0123911, 58.627224 ], [ -4.8348351, 58.5993233 ], [ -4.609808, 58.5295982 ], [ -4.593997, 58.5806847 ], [ -4.524931, 58.5801048 ], [ -4.3641357, 58.5389099 ], [ -4.2760768, 58.538784 ], [ -4.1007462, 58.5587425 ], [ -4.0532508, 58.5741272 ], [ -3.926317, 58.561264 ], [ -3.755456, 58.5782776 ], [ -3.6622, 58.6211128 ], [ -3.5388989, 58.6229706 ], [ -3.3742039, 58.5946808 ], [ -3.350172, 58.647644 ], [ -3.226186, 58.650219 ], [ -3.163305, 58.6373444 ], [ -3.0265961, 58.6427422 ], [ -3.047946, 58.5982018 ], [ -3.136487, 58.5033226 ], [ -3.0533991, 58.4510193 ], [ -3.1099079, 58.3746071 ], [ -3.211796, 58.3111534 ], [ -3.3821759, 58.2710075 ], [ -3.5189579, 58.1683502 ], [ -3.746295, 58.0698967 ], [ -3.8359799, 58.0406532 ], [ -3.8523321, 58.0075035 ], [ -3.9924841, 57.9657516 ], [ -4.0261869, 57.8760414 ], [ -4.1132708, 57.8577271 ], [ -4.058084, 57.8167076 ], [ -3.9741831, 57.8449554 ], [ -3.8734159, 57.823307 ], [ -3.7988551, 57.8379745 ], [ -3.978971, 57.6961327 ], [ -4.0405087, 57.6965599 ], [ -4.083528, 57.7324333 ], [ -4.1765642, 57.6877289 ], [ -4.0947628, 57.6670418 ], [ -3.9982259, 57.677227 ], [ -4.176868, 57.5674667 ], [ -4.2424097, 57.5040016 ], [ -4.3803401, 57.5151482 ], [ -4.3922782, 57.4846535 ], [ -4.1939402, 57.4865761 ], [ -4.0507212, 57.5606003 ], [ -4.0575809, 57.5939255 ], [ -3.998039, 57.6029167 ], [ -3.936229, 57.5883713 ], [ -3.838382, 57.5976868 ], [ -3.674947, 57.6625023 ], [ -3.5879781, 57.646965 ], [ -3.516814, 57.6683464 ], [ -3.490556, 57.700119 ], [ -3.336853, 57.7261696 ], [ -3.279952, 57.7254334 ], [ -3.182096, 57.690567 ], [ -3.0372431, 57.6668396 ], [ -2.9189069, 57.7002373 ], [ -2.7204189, 57.6931953 ], [ -2.546947, 57.6715088 ], [ -2.3913169, 57.6708412 ], [ -2.3211, 57.6936455 ], [ -2.1812069, 57.6760788 ], [ -2.1298602, 57.701683 ], [ -1.924572, 57.6759377 ], [ -1.832365, 57.6183624 ], [ -1.785166, 57.4638901 ], [ -1.8686489, 57.3922424 ], [ -1.988806, 57.3209381 ], [ -2.0592701, 57.2303963 ], [ -2.0819509, 57.1811142 ], [ -2.054055, 57.1290398 ], [ -2.1012881, 57.0688705 ], [ -2.168864, 57.0200119 ], [ -2.2104421, 56.9710999 ], [ -2.2031851, 56.9103661 ], [ -2.221447, 56.8848572 ], [ -2.330255, 56.8003693 ], [ -2.4433019, 56.7534027 ], [ -2.460969, 56.6818542 ], [ -2.5097649, 56.6647072 ], [ -2.4903231, 56.6306992 ], [ -2.5466089, 56.5710793 ], [ -2.62043, 56.5515556 ], [ -2.7265451, 56.4967041 ], [ -2.876838, 56.4658356 ], [ -3.0962341, 56.4497795 ], [ -3.1660271, 56.4071999 ], [ -3.1847332, 56.3735847 ], [ -2.99455, 56.4240036 ], [ -2.9259479, 56.4537621 ], [ -2.8085079, 56.4427872 ], [ -2.817024, 56.3980293 ], [ -2.868825, 56.3657494 ], [ -2.7835591, 56.3357811 ], [ -2.6978929, 56.3284874 ], [ -2.596072, 56.2821579 ], [ -2.7184548, 56.2176209 ], [ -2.8481219, 56.1859779 ], [ -2.8907349, 56.2064133 ], [ -2.9786038, 56.2069855 ], [ -3.128052, 56.1228142 ], [ -3.1745391, 56.0644531 ], [ -3.2596779, 56.0614166 ], [ -3.391294, 56.0128517 ], [ -3.5757022, 56.0585289 ], [ -3.613836, 56.0223122 ], [ -3.5141211, 56.0007858 ], [ -3.2954168, 55.9811478 ], [ -3.1590521, 55.9849854 ], [ -3.0725942, 55.9463387 ], [ -2.914608, 55.9776421 ], [ -2.8640931, 56.014061 ], [ -2.870645, 56.0395737 ], [ -2.8050699, 56.0677032 ], [ -2.6654758, 56.0612526 ], [ -2.580662, 56.0088387 ], [ -2.495532, 55.9964104 ], [ -2.39095, 55.9523621 ], [ -2.285676, 55.9262009 ], [ -2.2189372, 55.9315033 ], [ -2.13678, 55.9106712 ], [ -2.081604, 55.8739128 ], [ -2.0315445, 55.8041438 ] ] ], [ [ [ -3.197572, 59.1553955 ], [ -3.1013298, 59.121727 ], [ -3.0098231, 59.0744362 ], [ -3.0666549, 59.0239372 ], [ -2.9497478, 58.9939423 ], [ -2.9146199, 58.963726 ], [ -2.8603079, 58.9863586 ], [ -2.8087981, 58.9698486 ], [ -2.7192419, 58.97258 ], [ -2.7238438, 58.9388962 ], [ -2.825491, 58.8896027 ], [ -2.919528, 58.8958702 ], [ -2.971132, 58.9351959 ], [ -3.0333221, 58.9399185 ], [ -3.1369548, 58.9186897 ], [ -3.2245209, 58.9285851 ], [ -3.2317388, 58.9681854 ], [ -3.3098919, 58.9510918 ], [ -3.3567729, 58.9662857 ], [ -3.3680689, 59.0156059 ], [ -3.3393919, 59.0581093 ], [ -3.353323, 59.1121674 ], [ -3.316232, 59.1392746 ], [ -3.197572, 59.1553955 ] ] ], [ [ [ -2.8919768, 58.834671 ], [ -2.962394, 58.7308197 ], [ -2.9930429, 58.7558212 ], [ -2.9904118, 58.8284607 ], [ -2.8919768, 58.834671 ] ] ], [ [ [ -2.965915, 59.3390388 ], [ -2.931185, 59.2878342 ], [ -2.997766, 59.2706566 ], [ -3.0234659, 59.3048668 ], [ -2.965915, 59.3390388 ] ] ], [ [ [ -3.0723639, 59.1980782 ], [ -2.980655, 59.1631355 ], [ -3.0426748, 59.127903 ], [ -3.1176889, 59.1642761 ], [ -3.0723639, 59.1980782 ] ] ], [ [ [ -3.32707, 58.9278069 ], [ -3.2129991, 58.8794708 ], [ -3.1555059, 58.788166 ], [ -3.2315609, 58.7735939 ], [ -3.298733, 58.7834129 ], [ -3.3706419, 58.840271 ], [ -3.413413, 58.9158592 ], [ -3.32707, 58.9278069 ] ] ], [ [ [ -5.0604038, 55.856781 ], [ -5.02422, 55.8448563 ], [ -5.0, 55.7709122 ], [ -5.116549, 55.7738075 ], [ -5.1365638, 55.8375168 ], [ -5.2195878, 55.9024162 ], [ -5.185349, 55.9274635 ], [ -5.0932961, 55.8899727 ], [ -5.0604038, 55.856781 ] ] ], [ [ [ -5.2173557, 55.7100792 ], [ -5.1364088, 55.6469574 ], [ -5.1203361, 55.5788574 ], [ -5.0844431, 55.557003 ], [ -5.0837011, 55.4570351 ], [ -5.1751838, 55.4369278 ], [ -5.2468047, 55.4416313 ], [ -5.3133817, 55.467556 ], [ -5.3493381, 55.515995 ], [ -5.3470497, 55.5711441 ], [ -5.3962431, 55.6154938 ], [ -5.3739462, 55.6729889 ], [ -5.282517, 55.7221413 ], [ -5.2173557, 55.7100792 ] ] ], [ [ [ -6.3145928, 57.7099953 ], [ -6.1955028, 57.6357193 ], [ -6.1425872, 57.5509529 ], [ -6.149066, 57.3752556 ], [ -5.9954338, 57.272625 ], [ -5.909512, 57.2553749 ], [ -5.8164802, 57.2581863 ], [ -5.7437339, 57.2778511 ], [ -5.6491179, 57.253315 ], [ -5.6702619, 57.2113953 ], [ -5.7990799, 57.1635246 ], [ -5.8074789, 57.1217957 ], [ -5.8513398, 57.113739 ], [ -5.9237728, 57.0478745 ], [ -6.0004029, 57.0250626 ], [ -6.0396018, 57.0502281 ], [ -5.9382429, 57.1785011 ], [ -6.0507307, 57.1749954 ], [ -6.1130347, 57.1917191 ], [ -6.3187718, 57.1615524 ], [ -6.4833651, 57.2917748 ], [ -6.4849048, 57.3117371 ], [ -6.3933249, 57.3299103 ], [ -6.5143948, 57.3845825 ], [ -6.5736837, 57.3810501 ], [ -6.5669088, 57.3434868 ], [ -6.678143, 57.3601723 ], [ -6.7308879, 57.3866158 ], [ -6.7498088, 57.5013504 ], [ -6.5646162, 57.5109825 ], [ -6.5139318, 57.5384903 ], [ -6.4639449, 57.5046387 ], [ -6.3866611, 57.5222435 ], [ -6.399601, 57.615303 ], [ -6.4303818, 57.6409683 ], [ -6.3145928, 57.7099953 ] ] ], [ [ [ -6.275485, 56.481205 ], [ -6.224401, 56.5036507 ], [ -6.317893, 56.5607948 ], [ -6.3211112, 56.6057701 ], [ -6.1497903, 56.6564827 ], [ -6.061142, 56.6352997 ], [ -5.99301, 56.5843163 ], [ -5.95541, 56.5243034 ], [ -5.8010111, 56.5201111 ], [ -5.7250891, 56.4893761 ], [ -5.6499872, 56.4337883 ], [ -5.672019, 56.3933792 ], [ -5.7486091, 56.346096 ], [ -5.8472819, 56.314743 ], [ -5.8509192, 56.3483505 ], [ -5.9049358, 56.352581 ], [ -5.9417462, 56.3238983 ], [ -5.9907379, 56.3268204 ], [ -6.0417771, 56.2975998 ], [ -6.1288018, 56.2994843 ], [ -6.2567391, 56.288147 ], [ -6.3075209, 56.2701988 ], [ -6.3755369, 56.32127 ], [ -6.341939, 56.3504677 ], [ -6.2680387, 56.3209038 ], [ -6.1789489, 56.3439598 ], [ -6.2048392, 56.3925705 ], [ -6.123425, 56.4536476 ], [ -6.0253258, 56.4704018 ], [ -6.0418558, 56.490551 ], [ -6.1621799, 56.4669571 ], [ -6.275485, 56.481205 ] ] ], [ [ [ -5.7094727, 56.1526756 ], [ -5.689959, 56.1172829 ], [ -5.8216519, 55.9758606 ], [ -5.8972039, 55.8729057 ], [ -5.9367828, 55.8701019 ], [ -5.9665961, 55.7943764 ], [ -6.032444, 55.7985382 ], [ -6.0914779, 55.834919 ], [ -6.0957808, 55.8951759 ], [ -6.046833, 55.9423904 ], [ -6.004848, 55.9532471 ], [ -6.0011778, 55.9920235 ], [ -5.9657912, 56.0316467 ], [ -5.8256221, 56.0927925 ], [ -5.7094727, 56.1526756 ] ] ], [ [ [ -5.988441, 57.3270531 ], [ -5.9193707, 57.2988091 ], [ -5.9835157, 57.2767105 ], [ -6.0247788, 57.3038673 ], [ -5.988441, 57.3270531 ] ] ], [ [ [ -5.9972019, 57.4622612 ], [ -6.028511, 57.4441757 ], [ -5.9940038, 57.3610191 ], [ -6.0590167, 57.332058 ], [ -6.0891857, 57.35532 ], [ -6.0884738, 57.4262047 ], [ -6.0560369, 57.4647675 ], [ -5.9972019, 57.4622612 ] ] ], [ [ [ -6.1275411, 55.9400635 ], [ -6.1367187, 55.8943291 ], [ -6.0943646, 55.7918167 ], [ -6.051435, 55.7660446 ], [ -6.0326667, 55.6801033 ], [ -6.1500969, 55.6300774 ], [ -6.2171631, 55.6259155 ], [ -6.2695007, 55.5835381 ], [ -6.3164587, 55.5868263 ], [ -6.332797, 55.6245041 ], [ -6.2753248, 55.6918488 ], [ -6.3328247, 55.745697 ], [ -6.3782268, 55.7414818 ], [ -6.4885349, 55.6746788 ], [ -6.4950647, 55.7191772 ], [ -6.4599738, 55.786293 ], [ -6.4553471, 55.855648 ], [ -6.2838101, 55.8791161 ], [ -6.2026339, 55.9268723 ], [ -6.1275411, 55.9400635 ] ] ], [ [ [ -6.1161637, 56.9277725 ], [ -6.1429048, 56.8738022 ], [ -6.2106528, 56.9092407 ], [ -6.1161637, 56.9277725 ] ] ], [ [ [ -6.1346269, 56.1238174 ], [ -6.196672, 56.0615654 ], [ -6.2517691, 56.0863419 ], [ -6.1716771, 56.1265183 ], [ -6.1346269, 56.1238174 ] ] ], [ [ [ -6.2568769, 58.5107918 ], [ -6.1847091, 58.4662285 ], [ -6.1717458, 58.4182053 ], [ -6.2038608, 58.3955803 ], [ -6.192452, 58.3511467 ], [ -6.2468147, 58.2972298 ], [ -6.3543687, 58.2367249 ], [ -6.2954078, 58.2082481 ], [ -6.1525297, 58.2508125 ], [ -6.1799111, 58.2058258 ], [ -6.2329659, 58.1838989 ], [ -6.2814188, 58.1994629 ], [ -6.3978229, 58.2052307 ], [ -6.3756208, 58.131485 ], [ -6.412282, 58.1111908 ], [ -6.3704238, 58.057415 ], [ -6.3697138, 58.0197639 ], [ -6.4560409, 57.9899826 ], [ -6.4719138, 57.9412956 ], [ -6.5894198, 57.9145851 ], [ -6.666265, 57.9243698 ], [ -6.6721158, 57.8817863 ], [ -6.7968669, 57.8930779 ], [ -6.744617, 57.83601 ], [ -6.7899437, 57.8128777 ], [ -6.8668132, 57.8125877 ], [ -6.8767061, 57.7773399 ], [ -6.998363, 57.7483253 ], [ -7.122025, 57.8188477 ], [ -7.021975, 57.8385429 ], [ -6.8847551, 57.9356117 ], [ -7.073247, 57.967289 ], [ -7.0901279, 57.9965782 ], [ -7.0406628, 58.0539513 ], [ -7.0979209, 58.0699158 ], [ -7.1326447, 58.1234589 ], [ -7.06393, 58.1967659 ], [ -7.049211, 58.2325478 ], [ -6.9553761, 58.2333832 ], [ -6.9345379, 58.1889915 ], [ -6.8656411, 58.1932144 ], [ -6.893568, 58.2584915 ], [ -6.8128147, 58.253273 ], [ -6.8094029, 58.3028069 ], [ -6.7058501, 58.3384018 ], [ -6.5513849, 58.3665047 ], [ -6.4324808, 58.4379883 ], [ -6.3155718, 58.4780884 ], [ -6.2568769, 58.5107918 ] ] ], [ [ [ -6.3322649, 57.059433 ], [ -6.263402, 57.0370369 ], [ -6.2647371, 56.9617615 ], [ -6.3142381, 56.9372864 ], [ -6.375896, 56.9543571 ], [ -6.449316, 57.0104713 ], [ -6.3322649, 57.059433 ] ] ], [ [ [ -6.474051, 56.6944809 ], [ -6.4712019, 56.6567841 ], [ -6.5086889, 56.6222458 ], [ -6.61341, 56.5822296 ], [ -6.6683588, 56.5877228 ], [ -6.6175551, 56.6399231 ], [ -6.5386648, 56.6786499 ], [ -6.474051, 56.6944809 ] ] ], [ [ [ -6.730195, 56.5459137 ], [ -6.8029971, 56.5283737 ], [ -6.8146229, 56.4948463 ], [ -6.8787098, 56.4925041 ], [ -6.8903069, 56.4498634 ], [ -6.934586, 56.4477844 ], [ -6.9791517, 56.4818726 ], [ -6.9752979, 56.5224953 ], [ -6.874783, 56.5237885 ], [ -6.8283377, 56.5452461 ], [ -6.730195, 56.5459137 ] ] ], [ [ [ -7.1734347, 57.6884384 ], [ -7.1584401, 57.6559105 ], [ -7.0637608, 57.6418877 ], [ -7.0993872, 57.6100349 ], [ -7.1668477, 57.6372757 ], [ -7.1354127, 57.556118 ], [ -7.145483, 57.5149193 ], [ -7.249095, 57.5104675 ], [ -7.323832, 57.5306129 ], [ -7.427958, 57.5807648 ], [ -7.4808106, 57.5714684 ], [ -7.5223188, 57.6038589 ], [ -7.4789987, 57.6646957 ], [ -7.3796897, 57.6358032 ], [ -7.1734347, 57.6884384 ] ] ], [ [ [ -7.3349771, 57.4043732 ], [ -7.260438, 57.3665009 ], [ -7.2018571, 57.3090477 ], [ -7.2728901, 57.2174568 ], [ -7.243084, 57.1650963 ], [ -7.2847538, 57.145256 ], [ -7.20893, 57.118988 ], [ -7.3718138, 57.1063347 ], [ -7.4026828, 57.1345367 ], [ -7.4302349, 57.2333336 ], [ -7.3928819, 57.334259 ], [ -7.4204779, 57.3823242 ], [ -7.3349771, 57.4043732 ] ] ], [ [ [ -7.2290678, 57.461441 ], [ -7.2383432, 57.4040985 ], [ -7.3910651, 57.4252472 ], [ -7.408772, 57.4751892 ], [ -7.3646379, 57.4944344 ], [ -7.2290678, 57.461441 ] ] ], [ [ [ -7.4455729, 57.0242996 ], [ -7.378211, 56.9937744 ], [ -7.4544148, 56.9464493 ], [ -7.5191197, 56.9756546 ], [ -7.501451, 57.0151024 ], [ -7.4455729, 57.0242996 ] ] ] ] } },
{ "type": "Feature", "properties": { "POLYGON_ID": "GBR_GAUL2012_ADM1_3186", "ADM0_ISO3": "GBR", "ADM0_NAME": "U.K. of Great Britain and Northern Ireland", "ADM0_CODE": 256, "ADM1_NAME": "Wales", "ADM1_CODE": 3186, "GEOSET": "GAUL", "GEOSET_YEAR": 2012.0, "GEOSET_VERSION": "GAUL_v1", "GEOSET_UNIT": "ADM1", "CENTROID_LONG": -3.7610018854160749, "CENTROID_LAT": 52.33915819856734 }, "geometry": { "type": "MultiPolygon", "coordinates": [ [ [ [ -3.0833093, 53.2533263 ], [ -3.037221, 53.2511101 ], [ -2.955277, 53.2155495 ], [ -2.9091671, 53.1713905 ], [ -2.957499, 53.1516609 ], [ -2.8954861, 53.10075 ], [ -2.8604691, 53.0219307 ], [ -2.812777, 52.9841614 ], [ -2.72774, 52.96661 ], [ -2.719722, 52.9172211 ], [ -2.783334, 52.8986092 ], [ -2.85361, 52.9397202 ], [ -2.928333, 52.9327812 ], [ -2.9938891, 52.9536095 ], [ -3.0894451, 52.9130592 ], [ -3.1316659, 52.8833313 ], [ -3.1191671, 52.8561096 ], [ -3.155833, 52.8219414 ], [ -3.1408319, 52.7963905 ], [ -3.001111, 52.7577705 ], [ -2.957221, 52.732769 ], [ -3.011111, 52.7116585 ], [ -3.029166, 52.6533318 ], [ -3.125, 52.5661087 ], [ -3.0863891, 52.5288811 ], [ -3.010833, 52.5697212 ], [ -2.9744451, 52.5419388 ], [ -3.029444, 52.4969406 ], [ -3.1086121, 52.4944382 ], [ -3.19611, 52.4672203 ], [ -3.19611, 52.4102707 ], [ -3.0677781, 52.3449898 ], [ -2.9755549, 52.3463783 ], [ -3.013056, 52.2555504 ], [ -3.11361, 52.166111 ], [ -3.1297231, 52.1269417 ], [ -3.0866671, 52.0222206 ], [ -2.988888, 51.9255486 ], [ -2.9438879, 51.9066582 ], [ -2.866389, 51.9288902 ], [ -2.77861, 51.8858299 ], [ -2.737222, 51.8394394 ], [ -2.648612, 51.8122215 ], [ -2.683888, 51.7655487 ], [ -2.685277, 51.7269402 ], [ -2.6591671, 51.6730499 ], [ -2.6674771, 51.6203472 ], [ -2.7171628, 51.5856743 ], [ -2.9078441, 51.5364914 ], [ -2.996887, 51.5398369 ], [ -3.117825, 51.4950447 ], [ -3.1705739, 51.4337807 ], [ -3.170727, 51.4089012 ], [ -3.266573, 51.3901443 ], [ -3.4017701, 51.3845673 ], [ -3.5603712, 51.4034653 ], [ -3.6542761, 51.4795723 ], [ -3.7080739, 51.4762688 ], [ -3.7470479, 51.5024261 ], [ -3.791167, 51.5732918 ], [ -3.8668349, 51.6234856 ], [ -3.994771, 51.6033287 ], [ -4.0123558, 51.5708313 ], [ -4.067977, 51.5605011 ], [ -4.1158338, 51.5725632 ], [ -4.1785622, 51.5493622 ], [ -4.2788463, 51.5591888 ], [ -4.313282, 51.6148643 ], [ -4.2381358, 51.6437035 ], [ -4.1563969, 51.6330414 ], [ -4.1556931, 51.6586113 ], [ -4.2109661, 51.6886253 ], [ -4.3236928, 51.6786995 ], [ -4.392828, 51.7315788 ], [ -4.5645008, 51.7464104 ], [ -4.6536989, 51.7389946 ], [ -4.699213, 51.720253 ], [ -4.7203922, 51.6618118 ], [ -4.7881222, 51.6398201 ], [ -4.8655949, 51.6496353 ], [ -4.925396, 51.6011772 ], [ -5.0609918, 51.6249504 ], [ -5.0699201, 51.6691208 ], [ -5.0346041, 51.7001991 ], [ -5.156723, 51.7183418 ], [ -5.2120218, 51.739212 ], [ -5.163311, 51.7755508 ], [ -5.1215892, 51.7736435 ], [ -5.105422, 51.8152008 ], [ -5.1346178, 51.8659248 ], [ -5.2259102, 51.8769035 ], [ -5.3006258, 51.8700409 ], [ -5.2802858, 51.9148827 ], [ -5.088541, 51.9800453 ], [ -5.071537, 52.0321083 ], [ -4.9894471, 52.0272751 ], [ -4.9732509, 52.0033073 ], [ -4.8874059, 52.0237732 ], [ -4.7965479, 52.0588646 ], [ -4.7322588, 52.1193924 ], [ -4.6399598, 52.1399918 ], [ -4.5022111, 52.144043 ], [ -4.3862739, 52.2148666 ], [ -4.3308091, 52.2141533 ], [ -4.2118521, 52.2654266 ], [ -4.1299438, 52.342617 ], [ -4.057951, 52.4822311 ], [ -4.064034, 52.5431366 ], [ -4.133759, 52.6157837 ], [ -4.1166439, 52.6512566 ], [ -4.0586081, 52.6942444 ], [ -4.0582528, 52.7232285 ], [ -4.1491499, 52.8057976 ], [ -4.1247492, 52.8587112 ], [ -4.1564512, 52.9084435 ], [ -4.2311521, 52.9214401 ], [ -4.394763, 52.8981285 ], [ -4.469347, 52.8710442 ], [ -4.5432549, 52.8051224 ], [ -4.5905652, 52.8261337 ], [ -4.7712269, 52.798027 ], [ -4.6528139, 52.9085922 ], [ -4.5840468, 52.9393883 ], [ -4.5236249, 52.9438248 ], [ -4.4644289, 52.9854164 ], [ -4.3609481, 53.0355339 ], [ -4.3556409, 53.1090508 ], [ -4.2206292, 53.1841469 ], [ -4.2156992, 53.2067642 ], [ -4.1313448, 53.2401276 ], [ -4.0889349, 53.2312317 ], [ -4.0167899, 53.2473373 ], [ -3.890393, 53.2928085 ], [ -3.8498271, 53.3187332 ], [ -3.7831419, 53.3305702 ], [ -3.710434, 53.298584 ], [ -3.6066849, 53.2955704 ], [ -3.3877041, 53.3506432 ], [ -3.3178, 53.3590279 ], [ -3.284317, 53.3263664 ], [ -3.207767, 53.2979507 ], [ -3.103709, 53.2427177 ], [ -3.0833093, 53.2533263 ] ] ], [ [ [ -4.5720568, 53.2699165 ], [ -4.570714, 53.4104767 ], [ -4.4745278, 53.4181709 ], [ -4.4339509, 53.433567 ], [ -4.2830672, 53.4064064 ], [ -4.2439871, 53.3601303 ], [ -4.220798, 53.3016472 ], [ -4.127872, 53.3219299 ], [ -4.065588, 53.3039055 ], [ -4.0943799, 53.2647438 ], [ -4.2143292, 53.2154427 ], [ -4.2275491, 53.1882095 ], [ -4.3664088, 53.1336098 ], [ -4.4157, 53.1460037 ], [ -4.5720568, 53.2699165 ] ] ], [ [ [ -4.5720568, 53.2699165 ], [ -4.6918678, 53.2874565 ], [ -4.6574807, 53.3263664 ], [ -4.5962148, 53.3043747 ], [ -4.5720568, 53.2699165 ] ] ] ] } }
]
}
