{
"type": "FeatureCollection",
"name": "GEO_GAUL1999_ADM1",
"crs": { "type": "name", "properties": { "name": "urn:ogc:def:crs:OGC:1.3:CRS84" } },
"features": [
{ "type": "Feature", "properties": { "POLYGON_ID": "GEO_GAUL1999_ADM1_1296", "ADM0_ISO3": "GEO", "ADM0_NAME": "Georgia", "ADM0_CODE": 92, "ADM1_NAME": "Abkhazia Aut. Rep.", "ADM1_CODE": 1296, "GEOSET": "GAUL", "GEOSET_YEAR": 1999.0, "GEOSET_VERSION": "GAUL_v1", "GEOSET_UNIT": "ADM1", "CENTROID_LONG": 41.169263795228481, "CENTROID_LAT": 43.106618899296549 }, "geometry": { "type": "MultiPolygon", "coordinates": [ [ [ [ 40.695945, 43.5343813 ], [ 40.72833, 43.53049 ], [ 40.83184, 43.4855 ], [ 40.87903, 43.48499 ], [ 40.94898, 43.4221 ], [ 40.99706, 43.43164 ], [ 41.04324, 43.39073 ], [ 41.10139, 43.37771 ], [ 41.1392, 43.39458 ], [ 41.33318, 43.33542 ], [ 41.36859, 43.36156 ], [ 41.4202578, 43.3531015 ], [ 41.42289, 43.3094 ], [ 41.47867, 43.29685 ], [ 41.58249, 43.23538 ], [ 41.7078165, 43.2150501 ], [ 41.73596, 43.23275 ], [ 41.81475, 43.20379 ], [ 41.85218, 43.2108 ], [ 41.87819, 43.24608 ], [ 41.95418, 43.21241 ], [ 42.01768, 43.21454 ], [ 42.03859, 43.19685 ], [ 42.1236101, 43.2132744 ], [ 42.1459007, 43.1915283 ], [ 42.1264229, 43.1463814 ], [ 42.045517, 43.0530167 ], [ 41.8759117, 42.9982681 ], [ 41.915802, 42.9637413 ], [ 41.8977661, 42.9382591 ], [ 41.9436302, 42.878479 ], [ 41.8986359, 42.8628387 ], [ 41.9104767, 42.7563972 ], [ 41.9313469, 42.702446 ], [ 41.9585419, 42.6798096 ], [ 41.9519806, 42.6425247 ], [ 41.8949394, 42.6192207 ], [ 41.8449059, 42.5695305 ], [ 41.7231255, 42.5065384 ], [ 41.6482582, 42.4823799 ], [ 41.6541252, 42.4420052 ], [ 41.5449068, 42.4120866 ], [ 41.5288787, 42.5211822 ], [ 41.4746256, 42.6820198 ], [ 41.4382789, 42.7349305 ], [ 41.3719571, 42.7663463 ], [ 41.3076947, 42.7762114 ], [ 41.2183227, 42.8051421 ], [ 41.153854, 42.7984234 ], [ 41.1113748, 42.8364727 ], [ 41.0640727, 42.9692964 ], [ 41.0310755, 42.9976181 ], [ 40.9679952, 42.9807364 ], [ 40.877189, 43.0657538 ], [ 40.8172388, 43.0836766 ], [ 40.6951573, 43.0822525 ], [ 40.6496236, 43.0969305 ], [ 40.5810754, 43.0920946 ], [ 40.5280991, 43.1359096 ], [ 40.4760855, 43.1386894 ], [ 40.3946337, 43.1722007 ], [ 40.3384946, 43.1461742 ], [ 40.2801126, 43.186774 ], [ 40.2560638, 43.2989835 ], [ 40.2338878, 43.3181735 ], [ 40.1549178, 43.3371343 ], [ 40.0849027, 43.3713953 ], [ 40.0102383, 43.3832576 ], [ 40.01459, 43.42252 ], [ 40.04604, 43.48175 ], [ 40.09544, 43.52881 ], [ 40.09638, 43.56297 ], [ 40.26306, 43.58282 ], [ 40.3352286, 43.5526509 ], [ 40.42399, 43.54571 ], [ 40.57184, 43.51612 ], [ 40.61201, 43.54398 ], [ 40.66877, 43.55818 ], [ 40.695945, 43.5343813 ] ] ] ] } },
{ "type": "Feature", "properties": { "POLYGON_ID": "GEO_GAUL1999_ADM1_1297", "ADM0_ISO3": "GEO", "ADM0_NAME": "Georgia", "ADM0_CODE": 92, "ADM1_NAME": "Adjara Aut. Rep.", "ADM1_CODE": 1297, "GEOSET": "GAUL", "GEOSET_YEAR": 1999.0, "GEOSET_VERSION": "GAUL_v1", "GEOSET_UNIT": "ADM1", "CENTROID_LONG": 42.088724295041835, "CENTROID_LAT": 41.650300539752678 }, "geometry": { "type": "MultiPolygon", "coordinates": [ [ [ [ 42.4962769, 41.7984352 ], [ 42.5235367, 41.7667809 ], [ 42.5090599, 41.7219696 ], [ 42.5221024, 41.6635971 ], [ 42.5641403, 41.6456184 ], [ 42.6064021, 41.5855344 ], [ 42.57806, 41.56175 ], [ 42.5695, 41.51092 ], [ 42.51012, 41.46862 ], [ 42.5220985, 41.4421414 ], [ 42.44707, 41.44044 ], [ 42.40765, 41.46658 ], [ 42.33402, 41.47102 ], [ 42.28879, 41.49411 ], [ 42.20936, 41.49569 ], [ 42.1839, 41.51452 ], [ 42.07897, 41.50941 ], [ 42.05359, 41.49549 ], [ 41.9551869, 41.5246468 ], [ 41.9074783, 41.5004165 ], [ 41.87861, 41.46101 ], [ 41.82311, 41.43462 ], [ 41.70883, 41.49772 ], [ 41.65495, 41.48361 ], [ 41.5470001, 41.5264899 ], [ 41.5860296, 41.6212047 ], [ 41.6361769, 41.6584387 ], [ 41.6676713, 41.6549026 ], [ 41.7157985, 41.7058227 ], [ 41.7706213, 41.8112939 ], [ 41.7734545, 41.8962458 ], [ 41.8397713, 41.8974953 ], [ 41.9642754, 41.8813896 ], [ 41.9684296, 41.8567276 ], [ 42.0710182, 41.8222351 ], [ 42.1901398, 41.8221512 ], [ 42.2191467, 41.7871475 ], [ 42.3936882, 41.8434067 ], [ 42.440712, 41.8114815 ], [ 42.4962769, 41.7984352 ] ] ] ] } },
{ "type": "Feature", "properties": { "POLYGON_ID": "GEO_GAUL1999_ADM1_1298", "ADM0_ISO3": "GEO", "ADM0_NAME": "Georgia", "ADM0_CODE": 92, "ADM1_NAME": "Guria", "ADM1_CODE": 1298, "GEOSET": "GAUL", "GEOSET_YEAR": 1999.0, "GEOSET_VERSION": "GAUL_v1", "GEOSET_UNIT": "ADM1", "CENTROID_LONG": 42.158275584816295, "CENTROID_LAT": 41.968350280894057 }, "geometry": { "type": "MultiPolygon", "coordinates": [ [ [ [ 42.2292061, 42.1239586 ], [ 42.2280312, 42.0662155 ], [ 42.3470879, 42.0637054 ], [ 42.4109612, 42.0461006 ], [ 42.4199142, 42.0093803 ], [ 42.5105972, 41.9658241 ], [ 42.5767326, 41.9463005 ], [ 42.6364632, 41.9466057 ], [ 42.6695824, 41.8944244 ], [ 42.6652756, 41.8326988 ], [ 42.6071854, 41.7979355 ], [ 42.4962769, 41.7984352 ], [ 42.440712, 41.8114815 ], [ 42.3936882, 41.8434067 ], [ 42.2191467, 41.7871475 ], [ 42.1901398, 41.8221512 ], [ 42.0710182, 41.8222351 ], [ 41.9684296, 41.8567276 ], [ 41.9642754, 41.8813896 ], [ 41.8397713, 41.8974953 ], [ 41.7734545, 41.8962458 ], [ 41.7583235, 42.0092891 ], [ 41.7043233, 42.090195 ], [ 41.7808685, 42.1445694 ], [ 41.8816414, 42.1432495 ], [ 41.9444389, 42.1682472 ], [ 42.0587959, 42.1600914 ], [ 42.1545906, 42.1197739 ], [ 42.2292061, 42.1239586 ] ] ] ] } },
{ "type": "Feature", "properties": { "POLYGON_ID": "GEO_GAUL1999_ADM1_1299", "ADM0_ISO3": "GEO", "ADM0_NAME": "Georgia", "ADM0_CODE": 92, "ADM1_NAME": "Imereti", "ADM1_CODE": 1299, "GEOSET": "GAUL", "GEOSET_YEAR": 1999.0, "GEOSET_VERSION": "GAUL_v1", "GEOSET_UNIT": "ADM1", "CENTROID_LONG": 42.971110227060876, "CENTROID_LAT": 42.179454759936142 }, "geometry": { "type": "MultiPolygon", "coordinates": [ [ [ [ 43.6082726, 42.4298401 ], [ 43.6500244, 42.4080353 ], [ 43.7775002, 42.4221649 ], [ 43.796814, 42.3980675 ], [ 43.7736637, 42.3341695 ], [ 43.6989403, 42.3267174 ], [ 43.6279602, 42.2764893 ], [ 43.6177139, 42.1880302 ], [ 43.5588303, 42.1038361 ], [ 43.5043411, 42.0869522 ], [ 43.4906044, 42.0050278 ], [ 43.4332542, 41.9774666 ], [ 43.446682, 41.9364319 ], [ 43.3652077, 41.9023247 ], [ 43.2167816, 41.8664551 ], [ 43.1361847, 41.8330574 ], [ 43.1129417, 41.840126 ], [ 42.9765167, 41.8392296 ], [ 42.9538727, 41.8094444 ], [ 42.8013458, 41.8401222 ], [ 42.7509155, 41.8097687 ], [ 42.6652756, 41.8326988 ], [ 42.6695824, 41.8944244 ], [ 42.6364632, 41.9466057 ], [ 42.5767326, 41.9463005 ], [ 42.5105972, 41.9658241 ], [ 42.4199142, 42.0093803 ], [ 42.4109612, 42.0461006 ], [ 42.3470879, 42.0637054 ], [ 42.2280312, 42.0662155 ], [ 42.2292061, 42.1239586 ], [ 42.2994919, 42.1151543 ], [ 42.3042564, 42.1659393 ], [ 42.2914848, 42.2351913 ], [ 42.3217125, 42.2575226 ], [ 42.3760338, 42.3353653 ], [ 42.472168, 42.4196968 ], [ 42.4663467, 42.468853 ], [ 42.4858055, 42.5043182 ], [ 42.5538139, 42.5519943 ], [ 42.6130142, 42.5620499 ], [ 42.621254, 42.5147209 ], [ 42.6552734, 42.4678497 ], [ 42.7198944, 42.5021744 ], [ 42.7854996, 42.4849129 ], [ 42.8501434, 42.5003548 ], [ 42.9164391, 42.4826889 ], [ 43.0004463, 42.3947067 ], [ 43.0514679, 42.3632965 ], [ 43.1694794, 42.3824196 ], [ 43.2320786, 42.4301147 ], [ 43.292511, 42.4585114 ], [ 43.3331947, 42.4520836 ], [ 43.5422707, 42.4407501 ], [ 43.6082726, 42.4298401 ] ] ] ] } },
{ "type": "Feature", "properties": { "POLYGON_ID": "GEO_GAUL1999_ADM1_1300", "ADM0_ISO3": "GEO", "ADM0_NAME": "Georgia", "ADM0_CODE": 92, "ADM1_NAME": "Kakheti", "ADM1_CODE": 1300, "GEOSET": "GAUL", "GEOSET_YEAR": 1999.0, "GEOSET_VERSION": "GAUL_v1", "GEOSET_UNIT": "ADM1", "CENTROID_LONG": 45.772666014770692, "CENTROID_LAT": 41.767879738712317 }, "geometry": { "type": "MultiPolygon", "coordinates": [ [ [ [ 45.77041, 42.46925 ], [ 45.7704131, 42.4692439 ], [ 45.77288, 42.43633 ], [ 45.73126, 42.38585 ], [ 45.71356, 42.29055 ], [ 45.64072, 42.28938 ], [ 45.60613, 42.21898 ], [ 45.72781, 42.15917 ], [ 45.7687096, 42.1258305 ], [ 45.850228, 42.1131701 ], [ 45.9065, 42.08808 ], [ 45.94672, 42.02537 ], [ 46.01483, 42.04205 ], [ 46.07283, 42.03491 ], [ 46.0823, 42.0044 ], [ 46.13321, 42.01485 ], [ 46.1653, 41.98894 ], [ 46.22617, 42.0018 ], [ 46.32507, 41.93649 ], [ 46.36341, 41.94744 ], [ 46.4180796, 41.9056372 ], [ 46.41475, 41.87963 ], [ 46.39377, 41.83467 ], [ 46.35008, 41.79125 ], [ 46.33994, 41.78953 ], [ 46.29034, 41.78041 ], [ 46.28841, 41.77413 ], [ 46.28825, 41.74464 ], [ 46.24781, 41.65476 ], [ 46.2745091, 41.6227906 ], [ 46.2686713, 41.6081095 ], [ 46.26858, 41.60788 ], [ 46.298, 41.5983 ], [ 46.3004748, 41.594817 ], [ 46.30259, 41.59184 ], [ 46.31091, 41.55599 ], [ 46.31556, 41.55195 ], [ 46.3435633, 41.4980008 ], [ 46.35187, 41.49264 ], [ 46.41145, 41.47473 ], [ 46.4812025, 41.427445 ], [ 46.48885, 41.42345 ], [ 46.50354, 41.41977 ], [ 46.5555162, 41.4044959 ], [ 46.5612498, 41.4027501 ], [ 46.56226, 41.40222 ], [ 46.5629892, 41.4000841 ], [ 46.564921, 41.3977204 ], [ 46.57115, 41.39588 ], [ 46.58684, 41.39249 ], [ 46.593655, 41.3908112 ], [ 46.5942409, 41.3896256 ], [ 46.59494, 41.3882 ], [ 46.5986387, 41.3862457 ], [ 46.59899, 41.38606 ], [ 46.5992199, 41.3868174 ], [ 46.6006719, 41.3899153 ], [ 46.60264, 41.39272 ], [ 46.6093644, 41.3892866 ], [ 46.6086, 41.38588 ], [ 46.6065698, 41.3805551 ], [ 46.60695, 41.37764 ], [ 46.6100881, 41.3775772 ], [ 46.61245, 41.37753 ], [ 46.61665, 41.38004 ], [ 46.6176467, 41.3790545 ], [ 46.6225704, 41.3734372 ], [ 46.62602, 41.37262 ], [ 46.6275365, 41.3755868 ], [ 46.62969, 41.3798 ], [ 46.63331, 41.36473 ], [ 46.6304085, 41.3638583 ], [ 46.6278967, 41.3632205 ], [ 46.62364, 41.36284 ], [ 46.6209292, 41.3599492 ], [ 46.62078, 41.35979 ], [ 46.6356424, 41.3533287 ], [ 46.63768, 41.35171 ], [ 46.6426486, 41.3574717 ], [ 46.64212, 41.36146 ], [ 46.6431954, 41.3669167 ], [ 46.64442, 41.36866 ], [ 46.647534, 41.3679223 ], [ 46.64919, 41.36753 ], [ 46.6517486, 41.361793 ], [ 46.6516169, 41.3579229 ], [ 46.65143, 41.35249 ], [ 46.64786, 41.34842 ], [ 46.6498134, 41.3476372 ], [ 46.6561, 41.34826 ], [ 46.657412, 41.3474796 ], [ 46.6591017, 41.3442648 ], [ 46.65933, 41.34251 ], [ 46.6589627, 41.3351936 ], [ 46.66523, 41.33412 ], [ 46.67075, 41.33505 ], [ 46.6746728, 41.3362309 ], [ 46.68198, 41.32242 ], [ 46.6812164, 41.3203388 ], [ 46.6822502, 41.3128799 ], [ 46.68365, 41.31101 ], [ 46.6863493, 41.3090842 ], [ 46.6911799, 41.3041685 ], [ 46.69161, 41.3031 ], [ 46.69211, 41.29819 ], [ 46.697857, 41.2978326 ], [ 46.7173713, 41.2949389 ], [ 46.72102, 41.29127 ], [ 46.7212891, 41.2878193 ], [ 46.7181214, 41.2842381 ], [ 46.71656, 41.28295 ], [ 46.6907686, 41.2565872 ], [ 46.69016, 41.24355 ], [ 46.685179, 41.2397423 ], [ 46.66888, 41.22275 ], [ 46.665019, 41.2194922 ], [ 46.652724, 41.206313 ], [ 46.65141, 41.2048 ], [ 46.65194, 41.16555 ], [ 46.6512342, 41.1638547 ], [ 46.6492317, 41.1492355 ], [ 46.65063, 41.12773 ], [ 46.64346, 41.11926 ], [ 46.64281, 41.11209 ], [ 46.6425213, 41.1118013 ], [ 46.63825, 41.10753 ], [ 46.6382948, 41.1074468 ], [ 46.6383198, 41.1074004 ], [ 46.56322, 41.11464 ], [ 46.51444, 41.05761 ], [ 46.46653, 41.09509 ], [ 46.3842, 41.1018 ], [ 46.22722, 41.20667 ], [ 46.10255, 41.20155 ], [ 46.0985134, 41.1904066 ], [ 46.0372408, 41.1819013 ], [ 46.02759, 41.18149 ], [ 46.0122377, 41.1827138 ], [ 45.94392, 41.18041 ], [ 45.902751, 41.2018149 ], [ 45.89697, 41.20573 ], [ 45.85679, 41.22101 ], [ 45.8532781, 41.2217089 ], [ 45.80604, 41.22488 ], [ 45.8030225, 41.2257421 ], [ 45.7819359, 41.2335275 ], [ 45.77717, 41.2364 ], [ 45.76713, 41.24215 ], [ 45.7557943, 41.2463853 ], [ 45.7390149, 41.2534811 ], [ 45.7316795, 41.257176 ], [ 45.71722, 41.26473 ], [ 45.7109656, 41.2711687 ], [ 45.6929686, 41.2903557 ], [ 45.69087, 41.29265 ], [ 45.68047, 41.30436 ], [ 45.6789118, 41.3064519 ], [ 45.6765824, 41.3122999 ], [ 45.67662, 41.31316 ], [ 45.6780826, 41.3153987 ], [ 45.696538, 41.3332396 ], [ 45.70134, 41.33611 ], [ 45.7032491, 41.3380698 ], [ 45.7369158, 41.345802 ], [ 45.73798, 41.34708 ], [ 45.7374167, 41.3483176 ], [ 45.7152, 41.3669 ], [ 45.6595393, 41.3657065 ], [ 45.64435, 41.37257 ], [ 45.6335405, 41.3746156 ], [ 45.6299438, 41.3744644 ], [ 45.61553, 41.37351 ], [ 45.6075758, 41.3717961 ], [ 45.5920886, 41.3708978 ], [ 45.58901, 41.37164 ], [ 45.5853745, 41.3728229 ], [ 45.57499, 41.37771 ], [ 45.5732404, 41.3792733 ], [ 45.5669428, 41.3950157 ], [ 45.56642, 41.39738 ], [ 45.5573978, 41.4072032 ], [ 45.54964, 41.40991 ], [ 45.4957, 41.42149 ], [ 45.4917517, 41.4233031 ], [ 45.4826458, 41.428541 ], [ 45.48114, 41.42962 ], [ 45.44938, 41.44844 ], [ 45.44147, 41.44839 ], [ 45.4393636, 41.448762 ], [ 45.4018138, 41.4255411 ], [ 45.39946, 41.42531 ], [ 45.34508, 41.44942 ], [ 45.3411888, 41.4525917 ], [ 45.3203726, 41.4654205 ], [ 45.31717, 41.46674 ], [ 45.3166693, 41.4668095 ], [ 45.3057785, 41.5188599 ], [ 45.1980248, 41.5486336 ], [ 45.1766548, 41.5956154 ], [ 45.2101784, 41.6317215 ], [ 45.2131691, 41.7058983 ], [ 45.1702271, 41.7574883 ], [ 45.1271439, 41.7733421 ], [ 45.0815315, 41.8418007 ], [ 45.0438843, 41.8528099 ], [ 45.0253258, 41.8902893 ], [ 45.0871544, 41.9255829 ], [ 45.1339989, 41.8973808 ], [ 45.1973, 41.9106102 ], [ 45.1955223, 41.931221 ], [ 45.0695686, 41.9869995 ], [ 45.0926399, 42.0261345 ], [ 45.0576744, 42.0694275 ], [ 45.0466461, 42.1127014 ], [ 45.0835762, 42.1387787 ], [ 45.1040382, 42.2349167 ], [ 45.1790237, 42.3185654 ], [ 45.2449036, 42.3349762 ], [ 45.2248688, 42.4270477 ], [ 45.2754822, 42.4667969 ], [ 45.2782059, 42.5395622 ], [ 45.3039161, 42.5603896 ], [ 45.35001, 42.52903 ], [ 45.40629, 42.54222 ], [ 45.57738, 42.54584 ], [ 45.70867, 42.48515 ], [ 45.77041, 42.46925 ] ] ] ] } },
{ "type": "Feature", "properties": { "POLYGON_ID": "GEO_GAUL1999_ADM1_1301", "ADM0_ISO3": "GEO", "ADM0_NAME": "Georgia", "ADM0_CODE": 92, "ADM1_NAME": "Kvemo Kartli", "ADM1_CODE": 1301, "GEOSET": "GAUL", "GEOSET_YEAR": 1999.0, "GEOSET_VERSION": "GAUL_v1", "GEOSET_UNIT": "ADM1", "CENTROID_LONG": 44.50222081647059, "CENTROID_LAT": 41.500010058509027 }, "geometry": { "type": "MultiPolygon", "coordinates": [ [ [ [ 45.0438843, 41.8528099 ], [ 45.0815315, 41.8418007 ], [ 45.1271439, 41.7733421 ], [ 45.1702271, 41.7574883 ], [ 45.2131691, 41.7058983 ], [ 45.2101784, 41.6317215 ], [ 45.1766548, 41.5956154 ], [ 45.1980248, 41.5486336 ], [ 45.3057785, 41.5188599 ], [ 45.3166693, 41.4668095 ], [ 45.29951, 41.46644 ], [ 45.2974431, 41.4651979 ], [ 45.29327, 41.46269 ], [ 45.289742, 41.4609016 ], [ 45.28893, 41.46049 ], [ 45.2813394, 41.4608799 ], [ 45.27367, 41.45921 ], [ 45.2685426, 41.4591696 ], [ 45.25397, 41.45345 ], [ 45.2500743, 41.4449254 ], [ 45.2315, 41.42937 ], [ 45.229674, 41.4283928 ], [ 45.2169038, 41.4192077 ], [ 45.2161569, 41.4185379 ], [ 45.2160382, 41.4184588 ], [ 45.21388, 41.41702 ], [ 45.1769211, 41.4071047 ], [ 45.17218, 41.40503 ], [ 45.1600939, 41.3938539 ], [ 45.15771, 41.39159 ], [ 45.1471946, 41.3848077 ], [ 45.1156521, 41.3496186 ], [ 45.11262, 41.34626 ], [ 45.0969241, 41.3353368 ], [ 45.0948374, 41.3343845 ], [ 45.09119, 41.33272 ], [ 45.0829379, 41.3309641 ], [ 45.06914, 41.32744 ], [ 45.0593353, 41.3221856 ], [ 45.058, 41.32147 ], [ 45.0554993, 41.3200211 ], [ 45.0313799, 41.3100225 ], [ 45.02475, 41.30792 ], [ 45.0218606, 41.3072052 ], [ 45.01036, 41.30431 ], [ 45.0067127, 41.3026369 ], [ 45.004059, 41.30142 ], [ 44.94603, 41.2586 ], [ 44.88637, 41.26082 ], [ 44.83211, 41.28055 ], [ 44.79742, 41.25758 ], [ 44.8647383, 41.2113176 ], [ 44.80177, 41.22157 ], [ 44.71168, 41.2082 ], [ 44.65874, 41.23217 ], [ 44.61093, 41.23498 ], [ 44.5336874, 41.1908297 ], [ 44.43548, 41.18766 ], [ 44.35235, 41.23225 ], [ 44.3251, 41.20743 ], [ 44.17184, 41.23766 ], [ 44.16923, 41.19948 ], [ 44.07466, 41.19164 ], [ 43.9508633, 41.1637051 ], [ 43.9676247, 41.1808548 ], [ 43.9498825, 41.2384338 ], [ 43.9253807, 41.2615395 ], [ 43.9507828, 41.3552055 ], [ 43.9008789, 41.4193268 ], [ 43.9089928, 41.4557877 ], [ 43.8625755, 41.5220032 ], [ 43.8274841, 41.5415764 ], [ 43.7656708, 41.5223808 ], [ 43.6843796, 41.5276794 ], [ 43.7085304, 41.6000671 ], [ 43.7184181, 41.6929245 ], [ 43.7363853, 41.719883 ], [ 43.8100891, 41.7000656 ], [ 43.8942795, 41.7606583 ], [ 43.9608002, 41.7433662 ], [ 44.0803719, 41.7368889 ], [ 44.1920586, 41.7514648 ], [ 44.2156029, 41.7340317 ], [ 44.2952576, 41.7469177 ], [ 44.3276634, 41.7672882 ], [ 44.3722839, 41.7450867 ], [ 44.446785, 41.7291946 ], [ 44.4802818, 41.7472954 ], [ 44.56427, 41.7379646 ], [ 44.6310883, 41.686554 ], [ 44.6786308, 41.7197647 ], [ 44.7871628, 41.6846428 ], [ 44.8274345, 41.6558876 ], [ 44.9200439, 41.6363373 ], [ 44.9961777, 41.6625061 ], [ 44.8920097, 41.6926498 ], [ 44.8962288, 41.7112427 ], [ 44.8475533, 41.7549858 ], [ 44.9259949, 41.7797966 ], [ 44.9446487, 41.8488846 ], [ 45.0438843, 41.8528099 ] ] ] ] } },
{ "type": "Feature", "properties": { "POLYGON_ID": "GEO_GAUL1999_ADM1_1302", "ADM0_ISO3": "GEO", "ADM0_NAME": "Georgia", "ADM0_CODE": 92, "ADM1_NAME": "Mtskheta-Mtianeti", "ADM1_CODE": 1302, "GEOSET": "GAUL", "GEOSET_YEAR": 1999.0, "GEOSET_VERSION": "GAUL_v1", "GEOSET_UNIT": "ADM1", "CENTROID_LONG": 44.752873515126083, "CENTROID_LAT": 42.297896971588678 }, "geometry": { "type": "MultiPolygon", "coordinates": [ [ [ [ 45.0746105, 42.6954836 ], [ 45.13046, 42.70352 ], [ 45.17654, 42.6907 ], [ 45.29597, 42.58722 ], [ 45.3039161, 42.5603896 ], [ 45.2782059, 42.5395622 ], [ 45.2754822, 42.4667969 ], [ 45.2248688, 42.4270477 ], [ 45.2449036, 42.3349762 ], [ 45.1790237, 42.3185654 ], [ 45.1040382, 42.2349167 ], [ 45.0835762, 42.1387787 ], [ 45.0466461, 42.1127014 ], [ 45.0576744, 42.0694275 ], [ 45.0926399, 42.0261345 ], [ 45.0695686, 41.9869995 ], [ 45.1955223, 41.931221 ], [ 45.1973, 41.9106102 ], [ 45.1339989, 41.8973808 ], [ 45.0871544, 41.9255829 ], [ 45.0253258, 41.8902893 ], [ 45.0438843, 41.8528099 ], [ 44.9446487, 41.8488846 ], [ 44.9259949, 41.7797966 ], [ 44.8475533, 41.7549858 ], [ 44.8480263, 41.8144379 ], [ 44.8059273, 41.836647 ], [ 44.7480164, 41.7588501 ], [ 44.6786308, 41.7197647 ], [ 44.6310883, 41.686554 ], [ 44.56427, 41.7379646 ], [ 44.4802818, 41.7472954 ], [ 44.5039253, 41.8583145 ], [ 44.5678253, 41.8663559 ], [ 44.5748329, 41.8994713 ], [ 44.5100212, 41.9829445 ], [ 44.4897614, 42.0378304 ], [ 44.3680191, 42.0516472 ], [ 44.3006554, 42.0278015 ], [ 44.2690163, 42.060318 ], [ 44.2988586, 42.1961517 ], [ 44.3733749, 42.2728157 ], [ 44.3435745, 42.3375511 ], [ 44.3676186, 42.3857613 ], [ 44.3261185, 42.4116211 ], [ 44.3006668, 42.4777222 ], [ 44.3493385, 42.5253906 ], [ 44.2685738, 42.6045647 ], [ 44.227459, 42.6175575 ], [ 44.2269606, 42.6484027 ], [ 44.25662, 42.68872 ], [ 44.32299, 42.71332 ], [ 44.40492, 42.71204 ], [ 44.49127, 42.74934 ], [ 44.63674, 42.74726 ], [ 44.7068269, 42.7381014 ], [ 44.72741, 42.7206 ], [ 44.74649, 42.64403 ], [ 44.7982, 42.63172 ], [ 44.83207, 42.70168 ], [ 44.87825, 42.74692 ], [ 44.97106, 42.74458 ], [ 45.03507, 42.70125 ], [ 45.0746105, 42.6954836 ] ] ] ] } },
{ "type": "Feature", "properties": { "POLYGON_ID": "GEO_GAUL1999_ADM1_1303", "ADM0_ISO3": "GEO", "ADM0_NAME": "Georgia", "ADM0_CODE": 92, "ADM1_NAME": "Racha-Lechkhumi and Kvemo (lower) Svaneti", "ADM1_CODE": 1303, "GEOSET": "GAUL", "GEOSET_YEAR": 1999.0, "GEOSET_VERSION": "GAUL_v1", "GEOSET_UNIT": "ADM1", "CENTROID_LONG": 43.143470223682144, "CENTROID_LAT": 42.673363349427227 }, "geometry": { "type": "MultiPolygon", "coordinates": [ [ [ [ 43.1731166, 42.9522356 ], [ 43.19207, 42.93443 ], [ 43.26177, 42.92188 ], [ 43.34313, 42.89001 ], [ 43.4029554, 42.8959497 ], [ 43.46517, 42.89087 ], [ 43.56171, 42.86609 ], [ 43.64489, 42.79987 ], [ 43.68898, 42.79637 ], [ 43.79086, 42.75007 ], [ 43.80374, 42.71837 ], [ 43.73138, 42.62756 ], [ 43.77016, 42.58766 ], [ 43.813, 42.59329 ], [ 43.9311594, 42.5648067 ], [ 43.8884544, 42.5245056 ], [ 43.8455467, 42.5149498 ], [ 43.8222694, 42.4812431 ], [ 43.6119576, 42.4524994 ], [ 43.6082726, 42.4298401 ], [ 43.5422707, 42.4407501 ], [ 43.3331947, 42.4520836 ], [ 43.292511, 42.4585114 ], [ 43.2320786, 42.4301147 ], [ 43.1694794, 42.3824196 ], [ 43.0514679, 42.3632965 ], [ 43.0004463, 42.3947067 ], [ 42.9164391, 42.4826889 ], [ 42.8501434, 42.5003548 ], [ 42.7854996, 42.4849129 ], [ 42.7198944, 42.5021744 ], [ 42.6552734, 42.4678497 ], [ 42.621254, 42.5147209 ], [ 42.6130142, 42.5620499 ], [ 42.5706062, 42.6382599 ], [ 42.5412483, 42.6665115 ], [ 42.5697937, 42.7207108 ], [ 42.5205269, 42.7508125 ], [ 42.3981857, 42.791111 ], [ 42.3554268, 42.8255043 ], [ 42.3997765, 42.8866196 ], [ 42.4536095, 42.8797112 ], [ 42.4943657, 42.9265099 ], [ 42.578476, 42.9029045 ], [ 42.6523781, 42.9146652 ], [ 42.6863518, 42.8913994 ], [ 42.7488213, 42.8947067 ], [ 42.7944603, 42.9154968 ], [ 42.8679886, 42.9066048 ], [ 42.9165344, 42.880024 ], [ 43.0886574, 42.8864632 ], [ 43.0883827, 42.920784 ], [ 43.1731166, 42.9522356 ] ] ] ] } },
{ "type": "Feature", "properties": { "POLYGON_ID": "GEO_GAUL1999_ADM1_1304", "ADM0_ISO3": "GEO", "ADM0_NAME": "Georgia", "ADM0_CODE": 92, "ADM1_NAME": "Samergelo and Zemo (upper) Svaneti", "ADM1_CODE": 1304, "GEOSET": "GAUL", "GEOSET_YEAR": 1999.0, "GEOSET_VERSION": "GAUL_v1", "GEOSET_UNIT": "ADM1", "CENTROID_LONG": 42.250282568725716, "CENTROID_LAT": 42.695384957975996 }, "geometry": { "type": "MultiPolygon", "coordinates": [ [ [ [ 43.1731166, 42.9522356 ], [ 43.0883827, 42.920784 ], [ 43.0886574, 42.8864632 ], [ 42.9165344, 42.880024 ], [ 42.8679886, 42.9066048 ], [ 42.7944603, 42.9154968 ], [ 42.7488213, 42.8947067 ], [ 42.6863518, 42.8913994 ], [ 42.6523781, 42.9146652 ], [ 42.578476, 42.9029045 ], [ 42.4943657, 42.9265099 ], [ 42.4536095, 42.8797112 ], [ 42.3997765, 42.8866196 ], [ 42.3554268, 42.8255043 ], [ 42.3981857, 42.791111 ], [ 42.5205269, 42.7508125 ], [ 42.5697937, 42.7207108 ], [ 42.5412483, 42.6665115 ], [ 42.5706062, 42.6382599 ], [ 42.6130142, 42.5620499 ], [ 42.5538139, 42.5519943 ], [ 42.4858055, 42.5043182 ], [ 42.4663467, 42.468853 ], [ 42.472168, 42.4196968 ], [ 42.3760338, 42.3353653 ], [ 42.3217125, 42.2575226 ], [ 42.2914848, 42.2351913 ], [ 42.3042564, 42.1659393 ], [ 42.2994919, 42.1151543 ], [ 42.2292061, 42.1239586 ], [ 42.1545906, 42.1197739 ], [ 42.0587959, 42.1600914 ], [ 41.9444389, 42.1682472 ], [ 41.8816414, 42.1432495 ], [ 41.7808685, 42.1445694 ], [ 41.7043233, 42.090195 ], [ 41.6615682, 42.1191062 ], [ 41.6301753, 42.1941111 ], [ 41.6411242, 42.229744 ], [ 41.6030946, 42.3514028 ], [ 41.5449068, 42.4120866 ], [ 41.6541252, 42.4420052 ], [ 41.6482582, 42.4823799 ], [ 41.7231255, 42.5065384 ], [ 41.8449059, 42.5695305 ], [ 41.8949394, 42.6192207 ], [ 41.9519806, 42.6425247 ], [ 41.9585419, 42.6798096 ], [ 41.9313469, 42.702446 ], [ 41.9104767, 42.7563972 ], [ 41.8986359, 42.8628387 ], [ 41.9436302, 42.878479 ], [ 41.8977661, 42.9382591 ], [ 41.915802, 42.9637413 ], [ 41.8759117, 42.9982681 ], [ 42.045517, 43.0530167 ], [ 42.1264229, 43.1463814 ], [ 42.1459007, 43.1915283 ], [ 42.1236101, 43.2132744 ], [ 42.21313, 43.22991 ], [ 42.28847, 43.20839 ], [ 42.3740993, 43.2429185 ], [ 42.43647, 43.25424 ], [ 42.4543, 43.21287 ], [ 42.51635, 43.19914 ], [ 42.68301, 43.13711 ], [ 42.67384, 43.16801 ], [ 42.765429, 43.1853498 ], [ 42.89274, 43.17012 ], [ 42.93087, 43.1383 ], [ 43.0385882, 43.0906107 ], [ 43.02662, 43.04987 ], [ 43.05993, 43.01961 ], [ 43.1731166, 42.9522356 ] ] ] ] } },
{ "type": "Feature", "properties": { "POLYGON_ID": "GEO_GAUL1999_ADM1_1305", "ADM0_ISO3": "GEO", "ADM0_NAME": "Georgia", "ADM0_CODE": 92, "ADM1_NAME": "Samtskhe-Javakheti", "ADM1_CODE": 1305, "GEOSET": "GAUL", "GEOSET_YEAR": 1999.0, "GEOSET_VERSION": "GAUL_v1", "GEOSET_UNIT": "ADM1", "CENTROID_LONG": 43.332387038323837, "CENTROID_LAT": 41.544093686142297 }, "geometry": { "type": "MultiPolygon", "coordinates": [ [ [ [ 43.8942795, 41.7606583 ], [ 43.8100891, 41.7000656 ], [ 43.7363853, 41.719883 ], [ 43.7184181, 41.6929245 ], [ 43.7085304, 41.6000671 ], [ 43.6843796, 41.5276794 ], [ 43.7656708, 41.5223808 ], [ 43.8274841, 41.5415764 ], [ 43.8625755, 41.5220032 ], [ 43.9089928, 41.4557877 ], [ 43.9008789, 41.4193268 ], [ 43.9507828, 41.3552055 ], [ 43.9253807, 41.2615395 ], [ 43.9498825, 41.2384338 ], [ 43.9676247, 41.1808548 ], [ 43.9508633, 41.1637051 ], [ 43.9401627, 41.1655308 ], [ 43.85325, 41.16631 ], [ 43.72967, 41.11376 ], [ 43.67554, 41.13818 ], [ 43.61339, 41.12555 ], [ 43.54135, 41.14886 ], [ 43.4712797, 41.1297996 ], [ 43.43723, 41.17938 ], [ 43.35536, 41.20125 ], [ 43.2744, 41.18164 ], [ 43.23178, 41.19275 ], [ 43.19813, 41.24752 ], [ 43.15328, 41.24557 ], [ 43.19901, 41.30358 ], [ 43.12961, 41.31792 ], [ 43.10152, 41.35458 ], [ 43.02477, 41.37825 ], [ 42.96959, 41.45151 ], [ 42.8662, 41.49911 ], [ 42.84706, 41.47255 ], [ 42.79438, 41.51233 ], [ 42.82083, 41.53592 ], [ 42.82929, 41.58788 ], [ 42.78361, 41.57822 ], [ 42.67783, 41.59726 ], [ 42.6064021, 41.5855344 ], [ 42.5641403, 41.6456184 ], [ 42.5221024, 41.6635971 ], [ 42.5090599, 41.7219696 ], [ 42.5235367, 41.7667809 ], [ 42.4962769, 41.7984352 ], [ 42.6071854, 41.7979355 ], [ 42.6652756, 41.8326988 ], [ 42.7509155, 41.8097687 ], [ 42.8013458, 41.8401222 ], [ 42.9538727, 41.8094444 ], [ 42.9765167, 41.8392296 ], [ 43.1129417, 41.840126 ], [ 43.1361847, 41.8330574 ], [ 43.2167816, 41.8664551 ], [ 43.3652077, 41.9023247 ], [ 43.446682, 41.9364319 ], [ 43.5083046, 41.9417877 ], [ 43.5630951, 41.9191322 ], [ 43.602169, 41.8564224 ], [ 43.7390251, 41.7915802 ], [ 43.8895874, 41.7777328 ], [ 43.8942795, 41.7606583 ] ] ] ] } },
{ "type": "Feature", "properties": { "POLYGON_ID": "GEO_GAUL1999_ADM1_1306", "ADM0_ISO3": "GEO", "ADM0_NAME": "Georgia", "ADM0_CODE": 92, "ADM1_NAME": "Shida Kartli", "ADM1_CODE": 1306, "GEOSET": "GAUL", "GEOSET_YEAR": 1999.0, "GEOSET_VERSION": "GAUL_v1", "GEOSET_UNIT": "ADM1", "CENTROID_LONG": 44.020166635836532, "CENTROID_LAT": 42.124269936479457 }, "geometry": { "type": "MultiPolygon", "coordinates": [ [ [ [ 44.4802818, 41.7472954 ], [ 44.446785, 41.7291946 ], [ 44.3722839, 41.7450867 ], [ 44.3276634, 41.7672882 ], [ 44.2952576, 41.7469177 ], [ 44.2156029, 41.7340317 ], [ 44.1920586, 41.7514648 ], [ 44.0803719, 41.7368889 ], [ 43.9608002, 41.7433662 ], [ 43.8942795, 41.7606583 ], [ 43.8895874, 41.7777328 ], [ 43.7390251, 41.7915802 ], [ 43.602169, 41.8564224 ], [ 43.5630951, 41.9191322 ], [ 43.5083046, 41.9417877 ], [ 43.446682, 41.9364319 ], [ 43.4332542, 41.9774666 ], [ 43.4906044, 42.0050278 ], [ 43.5043411, 42.0869522 ], [ 43.5588303, 42.1038361 ], [ 43.6177139, 42.1880302 ], [ 43.6279602, 42.2764893 ], [ 43.6989403, 42.3267174 ], [ 43.7736637, 42.3341695 ], [ 43.796814, 42.3980675 ], [ 43.7775002, 42.4221649 ], [ 43.6500244, 42.4080353 ], [ 43.6082726, 42.4298401 ], [ 43.6119576, 42.4524994 ], [ 43.8222694, 42.4812431 ], [ 43.8455467, 42.5149498 ], [ 43.8884544, 42.5245056 ], [ 43.9311594, 42.5648067 ], [ 43.97105, 42.56169 ], [ 44.03472, 42.60504 ], [ 44.13461, 42.61042 ], [ 44.20904, 42.62676 ], [ 44.2269606, 42.6484027 ], [ 44.227459, 42.6175575 ], [ 44.2685738, 42.6045647 ], [ 44.3493385, 42.5253906 ], [ 44.3006668, 42.4777222 ], [ 44.3261185, 42.4116211 ], [ 44.3676186, 42.3857613 ], [ 44.3435745, 42.3375511 ], [ 44.3733749, 42.2728157 ], [ 44.2988586, 42.1961517 ], [ 44.2690163, 42.060318 ], [ 44.3006554, 42.0278015 ], [ 44.3680191, 42.0516472 ], [ 44.4897614, 42.0378304 ], [ 44.5100212, 41.9829445 ], [ 44.5748329, 41.8994713 ], [ 44.5678253, 41.8663559 ], [ 44.5039253, 41.8583145 ], [ 44.4802818, 41.7472954 ] ] ] ] } },
{ "type": "Feature", "properties": { "POLYGON_ID": "GEO_GAUL1999_ADM1_1307", "ADM0_ISO3": "GEO", "ADM0_NAME": "Georgia", "ADM0_CODE": 92, "ADM1_NAME": "Tbilisi", "ADM1_CODE": 1307, "GEOSET": "GAUL", "GEOSET_YEAR": 1999.0, "GEOSET_VERSION": "GAUL_v1", "GEOSET_UNIT": "ADM1", "CENTROID_LONG": 44.826078459672289, "CENTROID_LAT": 41.721155675355995 }, "geometry": { "type": "MultiPolygon", "coordinates": [ [ [ [ 44.8475533, 41.7549858 ], [ 44.8962288, 41.7112427 ], [ 44.8920097, 41.6926498 ], [ 44.9961777, 41.6625061 ], [ 44.9200439, 41.6363373 ], [ 44.8274345, 41.6558876 ], [ 44.7871628, 41.6846428 ], [ 44.6786308, 41.7197647 ], [ 44.7480164, 41.7588501 ], [ 44.8059273, 41.836647 ], [ 44.8480263, 41.8144379 ], [ 44.8475533, 41.7549858 ] ] ] ] } }
]
}
