{
"type": "FeatureCollection",
"name": "GGY_GAUL2004_ADM2",
"crs": { "type": "name", "properties": { "name": "urn:ogc:def:crs:OGC:1.3:CRS84" } },
"features": [
{ "type": "Feature", "properties": { "POLYGON_ID": "GGY_GAUL2004_ADM2_40246", "ADM0_ISO3": "GGY", "ADM0_NAME": "Guernsey", "ADM0_CODE": 104, "ADM1_NAME": "Alderney", "ADM1_CODE": 40222, "ADM2_NAME": "Administrative unit not available", "ADM2_CODE": 40246, "GEOSET": "GAUL", "GEOSET_YEAR": 2004.0, "GEOSET_VERSION": "GAUL_v1", "GEOSET_UNIT": "ADM2", "CENTROID_LONG": -2.1980156235935926, "CENTROID_LAT": 49.716838217085545 }, "geometry": { "type": "MultiPolygon", "coordinates": [ [ [ [ -2.1768747, 49.7314411 ], [ -2.1765399, 49.7140409 ], [ -2.2148017, 49.7013393 ], [ -2.221231, 49.720431 ], [ -2.1768747, 49.7314411 ] ] ] ] } },
{ "type": "Feature", "properties": { "POLYGON_ID": "GGY_GAUL2004_ADM2_40247", "ADM0_ISO3": "GGY", "ADM0_NAME": "Guernsey", "ADM0_CODE": 104, "ADM1_NAME": "Castel", "ADM1_CODE": 40223, "ADM2_NAME": "Administrative unit not available", "ADM2_CODE": 40247, "GEOSET": "GAUL", "GEOSET_YEAR": 2004.0, "GEOSET_VERSION": "GAUL_v1", "GEOSET_UNIT": "ADM2", "CENTROID_LONG": -2.5938553016203492, "CENTROID_LAT": 49.468012818384658 }, "geometry": { "type": "MultiPolygon", "coordinates": [ [ [ [ -2.5818733, 49.4867857 ], [ -2.5684585, 49.4682877 ], [ -2.5902512, 49.4498152 ], [ -2.6271312, 49.4670706 ], [ -2.5818733, 49.4867857 ] ] ] ] } },
{ "type": "Feature", "properties": { "POLYGON_ID": "GGY_GAUL2004_ADM2_40248", "ADM0_ISO3": "GGY", "ADM0_NAME": "Guernsey", "ADM0_CODE": 104, "ADM1_NAME": "Forest", "ADM1_CODE": 40224, "ADM2_NAME": "Administrative unit not available", "ADM2_CODE": 40248, "GEOSET": "GAUL", "GEOSET_YEAR": 2004.0, "GEOSET_VERSION": "GAUL_v1", "GEOSET_UNIT": "ADM2", "CENTROID_LONG": -2.599242500161838, "CENTROID_LAT": 49.42990396192166 }, "geometry": { "type": "MultiPolygon", "coordinates": [ [ [ [ -2.5821692, 49.4244297 ], [ -2.5821084, 49.4242976 ], [ -2.5818079, 49.4236447 ], [ -2.581784, 49.4235926 ], [ -2.5817094, 49.4234304 ], [ -2.6169916, 49.4196118 ], [ -2.6121772, 49.4360925 ], [ -2.5997569, 49.4400335 ], [ -2.5873475, 49.4408491 ], [ -2.5821692, 49.4244297 ] ] ] ] } },
{ "type": "Feature", "properties": { "POLYGON_ID": "GGY_GAUL2004_ADM2_40249", "ADM0_ISO3": "GGY", "ADM0_NAME": "Guernsey", "ADM0_CODE": 104, "ADM1_NAME": "Herm", "ADM1_CODE": 40225, "ADM2_NAME": "Administrative unit not available", "ADM2_CODE": 40249, "GEOSET": "GAUL", "GEOSET_YEAR": 2004.0, "GEOSET_VERSION": "GAUL_v1", "GEOSET_UNIT": "ADM2", "CENTROID_LONG": -2.4483638141376929, "CENTROID_LAT": 49.474746966475102 }, "geometry": { "type": "MultiPolygon", "coordinates": [ [ [ [ -2.4480133, 49.4819027 ], [ -2.440916, 49.4702718 ], [ -2.4444654, 49.465495 ], [ -2.4578287, 49.4797736 ], [ -2.4480133, 49.4819027 ] ] ] ] } },
{ "type": "Feature", "properties": { "POLYGON_ID": "GGY_GAUL2004_ADM2_40250", "ADM0_ISO3": "GGY", "ADM0_NAME": "Guernsey", "ADM0_CODE": 104, "ADM1_NAME": "Saint Andrew", "ADM1_CODE": 40226, "ADM2_NAME": "Administrative unit not available", "ADM2_CODE": 40250, "GEOSET": "GAUL", "GEOSET_YEAR": 2004.0, "GEOSET_VERSION": "GAUL_v1", "GEOSET_UNIT": "ADM2", "CENTROID_LONG": -2.5765615806472737, "CENTROID_LAT": 49.452991714476717 }, "geometry": { "type": "MultiPolygon", "coordinates": [ [ [ [ -2.5596167, 49.4528823 ], [ -2.5873475, 49.4408491 ], [ -2.5997569, 49.4400335 ], [ -2.5902512, 49.4498152 ], [ -2.5684585, 49.4682877 ], [ -2.5652586, 49.4685742 ], [ -2.5596167, 49.4528823 ] ] ] ] } },
{ "type": "Feature", "properties": { "POLYGON_ID": "GGY_GAUL2004_ADM2_40251", "ADM0_ISO3": "GGY", "ADM0_NAME": "Guernsey", "ADM0_CODE": 104, "ADM1_NAME": "Saint Martin", "ADM1_CODE": 40227, "ADM2_NAME": "Administrative unit not available", "ADM2_CODE": 40251, "GEOSET": "GAUL", "GEOSET_YEAR": 2004.0, "GEOSET_VERSION": "GAUL_v1", "GEOSET_UNIT": "ADM2", "CENTROID_LONG": -2.5641986603800642, "CENTROID_LAT": 49.438408822378015 }, "geometry": { "type": "MultiPolygon", "coordinates": [ [ [ [ -2.5337061, 49.4365407 ], [ -2.5821692, 49.4244297 ], [ -2.5873475, 49.4408491 ], [ -2.5596167, 49.4528823 ], [ -2.5337061, 49.4365407 ] ] ] ] } },
{ "type": "Feature", "properties": { "POLYGON_ID": "GGY_GAUL2004_ADM2_40253", "ADM0_ISO3": "GGY", "ADM0_NAME": "Guernsey", "ADM0_CODE": 104, "ADM1_NAME": "Saint Peter", "ADM1_CODE": 40228, "ADM2_NAME": "Administrative unit not available", "ADM2_CODE": 40253, "GEOSET": "GAUL", "GEOSET_YEAR": 2004.0, "GEOSET_VERSION": "GAUL_v1", "GEOSET_UNIT": "ADM2", "CENTROID_LONG": -2.6339159532732412, "CENTROID_LAT": 49.438069756339566 }, "geometry": { "type": "MultiPolygon", "coordinates": [ [ [ [ -2.6121772, 49.4360925 ], [ -2.6169916, 49.4196118 ], [ -2.6168935, 49.4189891 ], [ -2.6211317, 49.4200919 ], [ -2.6214088, 49.4204637 ], [ -2.6214945, 49.4205775 ], [ -2.6527019, 49.4347266 ], [ -2.6544006, 49.4367663 ], [ -2.6477174, 49.4596972 ], [ -2.6121772, 49.4360925 ] ] ] ] } },
{ "type": "Feature", "properties": { "POLYGON_ID": "GGY_GAUL2004_ADM2_40254", "ADM0_ISO3": "GGY", "ADM0_NAME": "Guernsey", "ADM0_CODE": 104, "ADM1_NAME": "Saint Peter", "ADM1_CODE": 40228, "ADM2_NAME": "Administrative unit not available", "ADM2_CODE": 40254, "GEOSET": "GAUL", "GEOSET_YEAR": 2004.0, "GEOSET_VERSION": "GAUL_v1", "GEOSET_UNIT": "ADM2", "CENTROID_LONG": -2.6531592691082686, "CENTROID_LAT": 49.428225737303272 }, "geometry": { "type": "MultiPolygon", "coordinates": [ [ [ [ -2.6481062, 49.4263236 ], [ -2.6582017, 49.4237464 ], [ -2.6582945, 49.4243192 ], [ -2.6583098, 49.4244137 ], [ -2.652679, 49.4346991 ], [ -2.6481062, 49.4263236 ] ] ] ] } },
{ "type": "Feature", "properties": { "POLYGON_ID": "GGY_GAUL2004_ADM2_40252", "ADM0_ISO3": "GGY", "ADM0_NAME": "Guernsey", "ADM0_CODE": 104, "ADM1_NAME": "Saint Peter Port", "ADM1_CODE": 40229, "ADM2_NAME": "Administrative unit not available", "ADM2_CODE": 40252, "GEOSET": "GAUL", "GEOSET_YEAR": 2004.0, "GEOSET_VERSION": "GAUL_v1", "GEOSET_UNIT": "ADM2", "CENTROID_LONG": -2.546663705811623, "CENTROID_LAT": 49.458853730925838 }, "geometry": { "type": "MultiPolygon", "coordinates": [ [ [ [ -2.5337061, 49.4365407 ], [ -2.5596167, 49.4528823 ], [ -2.5652586, 49.4685742 ], [ -2.5620623, 49.4734978 ], [ -2.5331581, 49.4717352 ], [ -2.5337061, 49.4365407 ] ] ] ] } },
{ "type": "Feature", "properties": { "POLYGON_ID": "GGY_GAUL2004_ADM2_40255", "ADM0_ISO3": "GGY", "ADM0_NAME": "Guernsey", "ADM0_CODE": 104, "ADM1_NAME": "Saint Sampson", "ADM1_CODE": 40230, "ADM2_NAME": "Administrative unit not available", "ADM2_CODE": 40255, "GEOSET": "GAUL", "GEOSET_YEAR": 2004.0, "GEOSET_VERSION": "GAUL_v1", "GEOSET_UNIT": "ADM2", "CENTROID_LONG": -2.5634747333333334, "CENTROID_LAT": 49.4924307 }, "geometry": { "type": "MultiPolygon", "coordinates": [ [ [ [ -2.5533708, 49.4948195 ], [ -2.56137, 49.4891692 ], [ -2.5756834, 49.4933034 ], [ -2.5533708, 49.4948195 ] ] ] ] } },
{ "type": "Feature", "properties": { "POLYGON_ID": "GGY_GAUL2004_ADM2_40256", "ADM0_ISO3": "GGY", "ADM0_NAME": "Guernsey", "ADM0_CODE": 104, "ADM1_NAME": "Saint Sampson", "ADM1_CODE": 40230, "ADM2_NAME": "Administrative unit not available", "ADM2_CODE": 40256, "GEOSET": "GAUL", "GEOSET_YEAR": 2004.0, "GEOSET_VERSION": "GAUL_v1", "GEOSET_UNIT": "ADM2", "CENTROID_LONG": -2.5409471552372995, "CENTROID_LAT": 49.480560262795137 }, "geometry": { "type": "MultiPolygon", "coordinates": [ [ [ [ -2.5439338, 49.4912882 ], [ -2.5196413, 49.483162 ], [ -2.5176818, 49.4832302 ], [ -2.5176197, 49.4832324 ], [ -2.5331581, 49.4717352 ], [ -2.5620623, 49.4734978 ], [ -2.5476476, 49.4918818 ], [ -2.5439338, 49.4912882 ] ] ] ] } },
{ "type": "Feature", "properties": { "POLYGON_ID": "GGY_GAUL2004_ADM2_40257", "ADM0_ISO3": "GGY", "ADM0_NAME": "Guernsey", "ADM0_CODE": 104, "ADM1_NAME": "Saint Saviour", "ADM1_CODE": 40231, "ADM2_NAME": "Administrative unit not available", "ADM2_CODE": 40257, "GEOSET": "GAUL", "GEOSET_YEAR": 2004.0, "GEOSET_VERSION": "GAUL_v1", "GEOSET_UNIT": "ADM2", "CENTROID_LONG": -2.6177539148886479, "CENTROID_LAT": 49.45198700030285 }, "geometry": { "type": "MultiPolygon", "coordinates": [ [ [ [ -2.6271312, 49.4670706 ], [ -2.5902512, 49.4498152 ], [ -2.5997569, 49.4400335 ], [ -2.6121772, 49.4360925 ], [ -2.6477174, 49.4596972 ], [ -2.6271312, 49.4670706 ] ] ] ] } },
{ "type": "Feature", "properties": { "POLYGON_ID": "GGY_GAUL2004_ADM2_40258", "ADM0_ISO3": "GGY", "ADM0_NAME": "Guernsey", "ADM0_CODE": 104, "ADM1_NAME": "Sark", "ADM1_CODE": 40232, "ADM2_NAME": "Administrative unit not available", "ADM2_CODE": 40258, "GEOSET": "GAUL", "GEOSET_YEAR": 2004.0, "GEOSET_VERSION": "GAUL_v1", "GEOSET_UNIT": "ADM2", "CENTROID_LONG": -2.3606528560625941, "CENTROID_LAT": 49.435686417505977 }, "geometry": { "type": "MultiPolygon", "coordinates": [ [ [ [ -2.3671438, 49.4492746 ], [ -2.345237, 49.4370926 ], [ -2.34875, 49.4240272 ], [ -2.377735, 49.4318887 ], [ -2.3671438, 49.4492746 ] ] ] ] } },
{ "type": "Feature", "properties": { "POLYGON_ID": "GGY_GAUL2004_ADM2_40259", "ADM0_ISO3": "GGY", "ADM0_NAME": "Guernsey", "ADM0_CODE": 104, "ADM1_NAME": "Torteval", "ADM1_CODE": 40233, "ADM2_NAME": "Administrative unit not available", "ADM2_CODE": 40259, "GEOSET": "GAUL", "GEOSET_YEAR": 2004.0, "GEOSET_VERSION": "GAUL_v1", "GEOSET_UNIT": "ADM2", "CENTROID_LONG": -2.6407640508812018, "CENTROID_LAT": 49.427207656338489 }, "geometry": { "type": "MultiPolygon", "coordinates": [ [ [ [ -2.6214945, 49.4205775 ], [ -2.6481062, 49.4263236 ], [ -2.652679, 49.4346991 ], [ -2.6527019, 49.4347266 ], [ -2.6214945, 49.4205775 ] ] ] ] } },
{ "type": "Feature", "properties": { "POLYGON_ID": "GGY_GAUL2004_ADM2_40260", "ADM0_ISO3": "GGY", "ADM0_NAME": "Guernsey", "ADM0_CODE": 104, "ADM1_NAME": "Torteval", "ADM1_CODE": 40233, "ADM2_NAME": "Administrative unit not available", "ADM2_CODE": 40260, "GEOSET": "GAUL", "GEOSET_YEAR": 2004.0, "GEOSET_VERSION": "GAUL_v1", "GEOSET_UNIT": "ADM2", "CENTROID_LONG": -2.6551297996738783, "CENTROID_LAT": 49.431959700599734 }, "geometry": { "type": "MultiPolygon", "coordinates": [ [ [ [ -2.6544006, 49.4367663 ], [ -2.6527019, 49.4347266 ], [ -2.652679, 49.4346991 ], [ -2.6583098, 49.4244137 ], [ -2.6544006, 49.4367663 ] ] ] ] } },
{ "type": "Feature", "properties": { "POLYGON_ID": "GGY_GAUL2004_ADM2_40261", "ADM0_ISO3": "GGY", "ADM0_NAME": "Guernsey", "ADM0_CODE": 104, "ADM1_NAME": "Vale", "ADM1_CODE": 40234, "ADM2_NAME": "Administrative unit not available", "ADM2_CODE": 40261, "GEOSET": "GAUL", "GEOSET_YEAR": 2004.0, "GEOSET_VERSION": "GAUL_v1", "GEOSET_UNIT": "ADM2", "CENTROID_LONG": -2.5659166272715042, "CENTROID_LAT": 49.483299421500689 }, "geometry": { "type": "MultiPolygon", "coordinates": [ [ [ [ -2.5476476, 49.4918818 ], [ -2.5620623, 49.4734978 ], [ -2.5652586, 49.4685742 ], [ -2.5684585, 49.4682877 ], [ -2.5818733, 49.4867857 ], [ -2.5756834, 49.4933034 ], [ -2.56137, 49.4891692 ], [ -2.5533708, 49.4948195 ], [ -2.5476476, 49.4918818 ] ] ] ] } },
{ "type": "Feature", "properties": { "POLYGON_ID": "GGY_GAUL2004_ADM2_40262", "ADM0_ISO3": "GGY", "ADM0_NAME": "Guernsey", "ADM0_CODE": 104, "ADM1_NAME": "Vale", "ADM1_CODE": 40234, "ADM2_NAME": "Administrative unit not available", "ADM2_CODE": 40262, "GEOSET": "GAUL", "GEOSET_YEAR": 2004.0, "GEOSET_VERSION": "GAUL_v1", "GEOSET_UNIT": "ADM2", "CENTROID_LONG": -2.524219134798531, "CENTROID_LAT": 49.495745416218533 }, "geometry": { "type": "MultiPolygon", "coordinates": [ [ [ [ -2.5196413, 49.483162 ], [ -2.5439338, 49.4912882 ], [ -2.5323916, 49.5061699 ], [ -2.503525, 49.5027579 ], [ -2.5196413, 49.483162 ] ] ] ] } }
]
}
