{
"type": "FeatureCollection",
"name": "GHA_GAUL2007_ADM1",
"crs": { "type": "name", "properties": { "name": "urn:ogc:def:crs:OGC:1.3:CRS84" } },
"features": [
{ "type": "Feature", "properties": { "POLYGON_ID": "GHA_GAUL2007_ADM1_1324", "ADM0_ISO3": "GHA", "ADM0_NAME": "Ghana", "ADM0_CODE": 94, "ADM1_NAME": "Ashanti", "ADM1_CODE": 1324, "GEOSET": "GAUL", "GEOSET_YEAR": 2007.0, "GEOSET_VERSION": "GAUL_v1", "GEOSET_UNIT": "ADM1", "CENTROID_LONG": -1.4572156256902735, "CENTROID_LAT": 6.796485947786338 }, "geometry": { "type": "MultiPolygon", "coordinates": [ [ [ [ -0.2389752, 7.1997237 ], [ -0.2833569, 7.191365 ], [ -0.3170329, 7.1465849 ], [ -0.3880655, 7.1152893 ], [ -0.4925947, 7.1221646 ], [ -0.6127377, 7.152828 ], [ -0.6206152, 7.1320911 ], [ -0.5911535, 7.0416458 ], [ -0.5649667, 7.0160431 ], [ -0.5749698, 6.9596998 ], [ -0.6372288, 6.9504078 ], [ -0.6525391, 6.9268748 ], [ -0.7230289, 6.9497024 ], [ -0.7535018, 6.935464 ], [ -0.7559851, 6.8495637 ], [ -0.7939562, 6.7869269 ], [ -0.8829727, 6.7758141 ], [ -0.9567301, 6.7512978 ], [ -0.950643, 6.7048046 ], [ -0.9741488, 6.6784515 ], [ -0.977036, 6.6120969 ], [ -0.9238538, 6.6382177 ], [ -0.9139492, 6.5900388 ], [ -0.9599165, 6.5524249 ], [ -1.0007519, 6.4973765 ], [ -1.0130879, 6.4110934 ], [ -1.0563952, 6.3946173 ], [ -1.1140102, 6.3509128 ], [ -1.1324014, 6.3122588 ], [ -1.1228636, 6.2082736 ], [ -1.1901364, 6.1987796 ], [ -1.1786679, 6.1547814 ], [ -1.2000091, 6.1299134 ], [ -1.190493, 6.0894083 ], [ -1.2321638, 6.0285536 ], [ -1.2471052, 5.9882345 ], [ -1.2189368, 5.960882 ], [ -1.2249287, 5.9327369 ], [ -1.2965752, 5.8832435 ], [ -1.3180592, 5.9153411 ], [ -1.3733729, 5.930206 ], [ -1.4380388, 5.8985487 ], [ -1.4619669, 5.8595332 ], [ -1.5192932, 5.8766267 ], [ -1.5007258, 5.9027558 ], [ -1.5468885, 5.9240683 ], [ -1.6449205, 5.9290888 ], [ -1.6726962, 5.9126268 ], [ -1.7368879, 5.9675706 ], [ -1.7778523, 5.9689241 ], [ -1.8376594, 6.0325957 ], [ -1.868106, 6.0069645 ], [ -1.9197107, 6.0139045 ], [ -1.9701886, 6.0665347 ], [ -1.9884215, 6.1046219 ], [ -2.024226, 6.1310767 ], [ -2.0392944, 6.1922919 ], [ -2.0217266, 6.2211134 ], [ -2.010583, 6.2793646 ], [ -2.0744839, 6.2918104 ], [ -2.119736, 6.3050601 ], [ -2.1247678, 6.3338667 ], [ -2.1729118, 6.362224 ], [ -2.2168862, 6.3419863 ], [ -2.2297516, 6.4447344 ], [ -2.2598167, 6.4875914 ], [ -2.3355272, 6.4883239 ], [ -2.3602241, 6.4745677 ], [ -2.3442461, 6.4310423 ], [ -2.3513541, 6.3924822 ], [ -2.3784716, 6.3466539 ], [ -2.4307635, 6.3525137 ], [ -2.4235056, 6.3919844 ], [ -2.4437368, 6.4525123 ], [ -2.3823077, 6.5237597 ], [ -2.3837073, 6.6080759 ], [ -2.4094851, 6.6595069 ], [ -2.3391667, 6.695561 ], [ -2.3068398, 6.6846005 ], [ -2.2787132, 6.7262986 ], [ -2.2662959, 6.7960474 ], [ -2.3348517, 6.8013389 ], [ -2.3551484, 6.8416138 ], [ -2.4007623, 6.8167561 ], [ -2.4136043, 6.8338026 ], [ -2.3765826, 6.8833531 ], [ -2.297016, 6.938276 ], [ -2.2352612, 7.0005777 ], [ -2.1936468, 7.0256318 ], [ -2.1425596, 7.0373587 ], [ -2.1222183, 6.9995939 ], [ -2.0119704, 7.0665469 ], [ -1.9538402, 7.0826427 ], [ -1.9327372, 7.1274937 ], [ -1.933177, 7.1739945 ], [ -1.8691731, 7.2006191 ], [ -1.8269303, 7.250783 ], [ -1.8652547, 7.2755503 ], [ -1.9150562, 7.250718 ], [ -1.9547698, 7.2629167 ], [ -1.9623433, 7.2908649 ], [ -2.0153471, 7.3141023 ], [ -2.0765197, 7.3205834 ], [ -2.1410681, 7.4065374 ], [ -2.0900188, 7.4557537 ], [ -2.035623, 7.4528081 ], [ -2.0148631, 7.4200506 ], [ -1.9757935, 7.4075175 ], [ -1.9265036, 7.4401683 ], [ -1.8981808, 7.4278878 ], [ -1.8717001, 7.4569904 ], [ -1.836236, 7.4684138 ], [ -1.8401596, 7.4224952 ], [ -1.8074604, 7.345916 ], [ -1.7755596, 7.3463022 ], [ -1.7616897, 7.319409 ], [ -1.6499337, 7.3163435 ], [ -1.5768405, 7.4002683 ], [ -1.5169952, 7.3946119 ], [ -1.5204746, 7.4474724 ], [ -1.4726812, 7.4940073 ], [ -1.4338274, 7.5709152 ], [ -1.3863052, 7.6025541 ], [ -1.3164233, 7.6221518 ], [ -1.3138014, 7.5780787 ], [ -1.2906671, 7.5325969 ], [ -1.2415915, 7.4872141 ], [ -1.2021474, 7.4925908 ], [ -1.1557521, 7.4664308 ], [ -1.1051015, 7.4622786 ], [ -1.0410547, 7.5249535 ], [ -0.9834793, 7.5319873 ], [ -0.9254664, 7.5011638 ], [ -0.8655801, 7.5177879 ], [ -0.7965, 7.4965437 ], [ -0.6893929, 7.5313454 ], [ -0.6502918, 7.4994292 ], [ -0.6544315, 7.4281794 ], [ -0.5989318, 7.3460119 ], [ -0.5398446, 7.3510253 ], [ -0.4918926, 7.3405553 ], [ -0.2622181, 7.2642625 ], [ -0.2389752, 7.1997237 ] ] ] ] } },
{ "type": "Feature", "properties": { "POLYGON_ID": "GHA_GAUL2007_ADM1_1325", "ADM0_ISO3": "GHA", "ADM0_NAME": "Ghana", "ADM0_CODE": 94, "ADM1_NAME": "Brong Ahafo", "ADM1_CODE": 1325, "GEOSET": "GAUL", "GEOSET_YEAR": 2007.0, "GEOSET_VERSION": "GAUL_v1", "GEOSET_UNIT": "ADM1", "CENTROID_LONG": -1.6658439620420673, "CENTROID_LAT": 7.7002824365858071 }, "geometry": { "type": "MultiPolygon", "coordinates": [ [ [ [ -0.3849612, 8.150282 ], [ -0.2951487, 8.1148318 ], [ -0.2491063, 8.0745323 ], [ -0.2149436, 8.0284317 ], [ -0.1444271, 8.0029456 ], [ -0.1456768, 7.9005311 ], [ -0.1267234, 7.7856606 ], [ -0.1003561, 7.7478457 ], [ -0.0147837, 7.7543806 ], [ 0.003849, 7.7398543 ], [ -0.0154709, 7.6814506 ], [ -0.0145671, 7.6235169 ], [ 0.0091667, 7.5758757 ], [ 0.076827, 7.4795079 ], [ 0.0906873, 7.4267158 ], [ 0.1982892, 7.3654068 ], [ 0.214709, 7.3074345 ], [ 0.1820649, 7.1770644 ], [ 0.0808065, 7.1790759 ], [ 0.0502445, 7.1694236 ], [ 0.0041335, 7.1914093 ], [ -0.0529691, 7.1938223 ], [ -0.0843353, 7.1766627 ], [ -0.1073908, 7.1924817 ], [ -0.2389752, 7.1997237 ], [ -0.2622181, 7.2642625 ], [ -0.4918926, 7.3405553 ], [ -0.5398446, 7.3510253 ], [ -0.5989318, 7.3460119 ], [ -0.6544315, 7.4281794 ], [ -0.6502918, 7.4994292 ], [ -0.6893929, 7.5313454 ], [ -0.7965, 7.4965437 ], [ -0.8655801, 7.5177879 ], [ -0.9254664, 7.5011638 ], [ -0.9834793, 7.5319873 ], [ -1.0410547, 7.5249535 ], [ -1.1051015, 7.4622786 ], [ -1.1557521, 7.4664308 ], [ -1.2021474, 7.4925908 ], [ -1.2415915, 7.4872141 ], [ -1.2906671, 7.5325969 ], [ -1.3138014, 7.5780787 ], [ -1.3164233, 7.6221518 ], [ -1.3863052, 7.6025541 ], [ -1.4338274, 7.5709152 ], [ -1.4726812, 7.4940073 ], [ -1.5204746, 7.4474724 ], [ -1.5169952, 7.3946119 ], [ -1.5768405, 7.4002683 ], [ -1.6499337, 7.3163435 ], [ -1.7616897, 7.319409 ], [ -1.7755596, 7.3463022 ], [ -1.8074604, 7.345916 ], [ -1.8401596, 7.4224952 ], [ -1.836236, 7.4684138 ], [ -1.8717001, 7.4569904 ], [ -1.8981808, 7.4278878 ], [ -1.9265036, 7.4401683 ], [ -1.9757935, 7.4075175 ], [ -2.0148631, 7.4200506 ], [ -2.035623, 7.4528081 ], [ -2.0900188, 7.4557537 ], [ -2.1410681, 7.4065374 ], [ -2.0765197, 7.3205834 ], [ -2.0153471, 7.3141023 ], [ -1.9623433, 7.2908649 ], [ -1.9547698, 7.2629167 ], [ -1.9150562, 7.250718 ], [ -1.8652547, 7.2755503 ], [ -1.8269303, 7.250783 ], [ -1.8691731, 7.2006191 ], [ -1.933177, 7.1739945 ], [ -1.9327372, 7.1274937 ], [ -1.9538402, 7.0826427 ], [ -2.0119704, 7.0665469 ], [ -2.1222183, 6.9995939 ], [ -2.1425596, 7.0373587 ], [ -2.1936468, 7.0256318 ], [ -2.2352612, 7.0005777 ], [ -2.297016, 6.938276 ], [ -2.3765826, 6.8833531 ], [ -2.4136043, 6.8338026 ], [ -2.4007623, 6.8167561 ], [ -2.3551484, 6.8416138 ], [ -2.3348517, 6.8013389 ], [ -2.2662959, 6.7960474 ], [ -2.2787132, 6.7262986 ], [ -2.3068398, 6.6846005 ], [ -2.3391667, 6.695561 ], [ -2.4094851, 6.6595069 ], [ -2.3837073, 6.6080759 ], [ -2.3823077, 6.5237597 ], [ -2.4437368, 6.4525123 ], [ -2.4235056, 6.3919844 ], [ -2.4307635, 6.3525137 ], [ -2.5040845, 6.4125194 ], [ -2.5470993, 6.3978633 ], [ -2.5591532, 6.4270628 ], [ -2.5435869, 6.4611868 ], [ -2.5854453, 6.4870967 ], [ -2.6063535, 6.5169849 ], [ -2.676037, 6.5213171 ], [ -2.6813432, 6.5693761 ], [ -2.7275295, 6.5861795 ], [ -2.7781524, 6.572877 ], [ -2.785018, 6.592484 ], [ -2.8702148, 6.6561918 ], [ -2.8491053, 6.6666459 ], [ -2.8662598, 6.7129752 ], [ -2.8459541, 6.7385896 ], [ -2.8389909, 6.7893318 ], [ -2.8627778, 6.8443513 ], [ -2.9403119, 6.939114 ], [ -2.984345, 6.9436946 ], [ -3.0340796, 6.9248468 ], [ -3.0729835, 6.9410718 ], [ -3.0759614, 6.96949 ], [ -3.0924365, 6.9770457 ], [ -3.096689, 6.9879531 ], [ -3.1093476, 6.9996576 ], [ -3.1120829, 7.0009906 ], [ -3.1146031, 7.0022189 ], [ -3.1167611, 7.0032706 ], [ -3.1168342, 7.0033062 ], [ -3.115597, 7.0056157 ], [ -3.0789646, 7.0562393 ], [ -3.069816, 7.0600432 ], [ -3.0645125, 7.0622484 ], [ -3.0381058, 7.0700588 ], [ -3.0315208, 7.070911 ], [ -3.0240835, 7.1419784 ], [ -2.9542701, 7.2357955 ], [ -2.972967, 7.2624559 ], [ -2.9766977, 7.2677757 ], [ -2.9765566, 7.2693615 ], [ -2.9713329, 7.3280403 ], [ -2.9476249, 7.4519729 ], [ -2.9413965, 7.4693177 ], [ -2.9345246, 7.4884547 ], [ -2.9312195, 7.4976588 ], [ -2.9208363, 7.6118735 ], [ -2.899447, 7.6531985 ], [ -2.8617378, 7.7429867 ], [ -2.8475473, 7.7657332 ], [ -2.8470084, 7.7699957 ], [ -2.8452814, 7.7836548 ], [ -2.834056, 7.79598 ], [ -2.8243835, 7.8064264 ], [ -2.8294921, 7.8211391 ], [ -2.827092, 7.8240093 ], [ -2.8128097, 7.8385717 ], [ -2.7893248, 7.8590145 ], [ -2.7803514, 7.9443658 ], [ -2.7530741, 7.9276797 ], [ -2.6738439, 8.0269426 ], [ -2.5968621, 8.0408916 ], [ -2.5795902, 8.0751459 ], [ -2.613748, 8.1363213 ], [ -2.6146164, 8.1378652 ], [ -2.5899147, 8.1723125 ], [ -2.548327, 8.167681 ], [ -2.5277772, 8.1815393 ], [ -2.5109335, 8.1928984 ], [ -2.5010125, 8.1995888 ], [ -2.4937576, 8.2044813 ], [ -2.4970376, 8.2325753 ], [ -2.5280645, 8.4292312 ], [ -2.5390224, 8.498685 ], [ -2.5539557, 8.5933356 ], [ -2.5861595, 8.7841589 ], [ -2.586131, 8.7841543 ], [ -2.5858907, 8.7841002 ], [ -2.5852322, 8.7838356 ], [ -2.5842676, 8.7830929 ], [ -2.5769652, 8.7754348 ], [ -2.5708652, 8.7705411 ], [ -2.5397762, 8.7542773 ], [ -2.4991514, 8.7152708 ], [ -2.4637404, 8.6486018 ], [ -2.4193931, 8.6114964 ], [ -2.4103849, 8.5645916 ], [ -2.367894, 8.5381482 ], [ -2.3649286, 8.4714805 ], [ -2.3377928, 8.4522925 ], [ -2.2979932, 8.3782633 ], [ -2.3049899, 8.3513151 ], [ -2.2877623, 8.293501 ], [ -2.2358219, 8.2744556 ], [ -2.2131877, 8.239013 ], [ -2.16766, 8.207679 ], [ -2.1623204, 8.1711095 ], [ -2.0630589, 8.1437259 ], [ -1.9619266, 8.1664094 ], [ -1.8953509, 8.2591661 ], [ -1.8373054, 8.2480269 ], [ -1.7999212, 8.2237043 ], [ -1.7478892, 8.2589781 ], [ -1.7701396, 8.3202352 ], [ -1.8121724, 8.3374713 ], [ -1.8458623, 8.3268206 ], [ -1.8836516, 8.3450892 ], [ -1.9077355, 8.3934588 ], [ -1.9100691, 8.4360059 ], [ -1.8833483, 8.4777003 ], [ -1.8972444, 8.534198 ], [ -1.8684291, 8.6388629 ], [ -1.8410963, 8.6587406 ], [ -1.7891054, 8.6499229 ], [ -1.7336295, 8.6239146 ], [ -1.6865475, 8.6481106 ], [ -1.6586018, 8.6929556 ], [ -1.612135, 8.6745689 ], [ -1.553119, 8.6731042 ], [ -1.5092899, 8.692374 ], [ -1.4997355, 8.7354797 ], [ -1.4750013, 8.7628333 ], [ -1.4094119, 8.7718832 ], [ -1.3521481, 8.7539393 ], [ -1.2648505, 8.6891461 ], [ -1.2110306, 8.6656366 ], [ -1.1447209, 8.6749074 ], [ -1.1462352, 8.5560815 ], [ -1.1639619, 8.5127964 ], [ -1.1908659, 8.5081968 ], [ -1.2588274, 8.4508533 ], [ -1.2574465, 8.3551626 ], [ -1.2778239, 8.3048 ], [ -1.2667099, 8.2548103 ], [ -1.1571303, 8.0868554 ], [ -1.1656111, 8.0670185 ], [ -1.1581941, 7.9973931 ], [ -1.0955311, 7.9956594 ], [ -1.0815428, 8.0147458 ], [ -1.0196841, 8.029558 ], [ -1.0490399, 8.0642264 ], [ -1.0435388, 8.0913954 ], [ -1.0689842, 8.1267032 ], [ -1.0408076, 8.1634234 ], [ -1.0399522, 8.240575 ], [ -0.9489152, 8.2439898 ], [ -0.8931971, 8.2554232 ], [ -0.8628834, 8.2747383 ], [ -0.8580939, 8.326069 ], [ -0.8016953, 8.3371555 ], [ -0.7410181, 8.3330711 ], [ -0.6397262, 8.2669803 ], [ -0.5427219, 8.1851492 ], [ -0.4446484, 8.1550237 ], [ -0.3849612, 8.150282 ] ] ] ] } },
{ "type": "Feature", "properties": { "POLYGON_ID": "GHA_GAUL2007_ADM1_1326", "ADM0_ISO3": "GHA", "ADM0_NAME": "Ghana", "ADM0_CODE": 94, "ADM1_NAME": "Central", "ADM1_CODE": 1326, "GEOSET": "GAUL", "GEOSET_YEAR": 2007.0, "GEOSET_VERSION": "GAUL_v1", "GEOSET_UNIT": "ADM1", "CENTROID_LONG": -1.217201150518904, "CENTROID_LAT": 5.5659787260280549 }, "geometry": { "type": "MultiPolygon", "coordinates": [ [ [ [ -1.2249287, 5.9327369 ], [ -1.1632688, 5.8944979 ], [ -1.1694062, 5.8373913 ], [ -1.1631079, 5.718023 ], [ -1.1212119, 5.7177643 ], [ -1.091376, 5.739868 ], [ -1.0349994, 5.7347068 ], [ -0.9817688, 5.7490669 ], [ -0.9529187, 5.7356047 ], [ -0.880233, 5.739013 ], [ -0.8483204, 5.7545008 ], [ -0.7651329, 5.7060739 ], [ -0.6954011, 5.7125531 ], [ -0.6860352, 5.7368134 ], [ -0.6293504, 5.7187371 ], [ -0.5677284, 5.7367416 ], [ -0.5105957, 5.7334675 ], [ -0.5202144, 5.7026197 ], [ -0.4939335, 5.6515677 ], [ -0.4279604, 5.6147908 ], [ -0.4001773, 5.562925 ], [ -0.4155572, 5.5298833 ], [ -0.4062356, 5.4692578 ], [ -0.464751, 5.430087 ], [ -0.503268, 5.376284 ], [ -0.592528, 5.356807 ], [ -0.620894, 5.332575 ], [ -0.727424, 5.298456 ], [ -0.789877, 5.226544 ], [ -0.837221, 5.210091 ], [ -1.0894, 5.19506 ], [ -1.162791, 5.14812 ], [ -1.2513404, 5.1019459 ], [ -1.317655, 5.097906 ], [ -1.3484251, 5.0819436 ], [ -1.504644, 5.043598 ], [ -1.5801385, 5.0338438 ], [ -1.5780463, 5.1551088 ], [ -1.5281295, 5.1671468 ], [ -1.5101438, 5.205512 ], [ -1.4465729, 5.207603 ], [ -1.4443343, 5.2650555 ], [ -1.4000363, 5.2952494 ], [ -1.4568652, 5.3452708 ], [ -1.4623289, 5.3791364 ], [ -1.5632274, 5.4126041 ], [ -1.6216277, 5.4227701 ], [ -1.615844, 5.5180955 ], [ -1.5905937, 5.5516993 ], [ -1.6426815, 5.6139482 ], [ -1.675999, 5.6074592 ], [ -1.6859379, 5.6395457 ], [ -1.750816, 5.6241656 ], [ -1.82469, 5.5904721 ], [ -1.8182733, 5.6719385 ], [ -1.7908712, 5.6965187 ], [ -1.7867687, 5.7299017 ], [ -1.8113779, 5.7567424 ], [ -1.850959, 5.7648733 ], [ -1.8155008, 5.8639292 ], [ -1.8405478, 5.8977995 ], [ -1.8707591, 5.8814957 ], [ -1.9409326, 5.9554838 ], [ -1.9855314, 6.0137831 ], [ -2.0184749, 6.0249939 ], [ -2.0589067, 6.068851 ], [ -2.1301488, 6.0901971 ], [ -2.1827429, 6.1239896 ], [ -2.2061515, 6.1952984 ], [ -2.1270698, 6.2481494 ], [ -2.0978902, 6.2438953 ], [ -2.0744839, 6.2918104 ], [ -2.010583, 6.2793646 ], [ -2.0217266, 6.2211134 ], [ -2.0392944, 6.1922919 ], [ -2.024226, 6.1310767 ], [ -1.9884215, 6.1046219 ], [ -1.9701886, 6.0665347 ], [ -1.9197107, 6.0139045 ], [ -1.868106, 6.0069645 ], [ -1.8376594, 6.0325957 ], [ -1.7778523, 5.9689241 ], [ -1.7368879, 5.9675706 ], [ -1.6726962, 5.9126268 ], [ -1.6449205, 5.9290888 ], [ -1.5468885, 5.9240683 ], [ -1.5007258, 5.9027558 ], [ -1.5192932, 5.8766267 ], [ -1.4619669, 5.8595332 ], [ -1.4380388, 5.8985487 ], [ -1.3733729, 5.930206 ], [ -1.3180592, 5.9153411 ], [ -1.2965752, 5.8832435 ], [ -1.2249287, 5.9327369 ] ] ] ] } },
{ "type": "Feature", "properties": { "POLYGON_ID": "GHA_GAUL2007_ADM1_1327", "ADM0_ISO3": "GHA", "ADM0_NAME": "Ghana", "ADM0_CODE": 94, "ADM1_NAME": "Eastern", "ADM1_CODE": 1327, "GEOSET": "GAUL", "GEOSET_YEAR": 2007.0, "GEOSET_VERSION": "GAUL_v1", "GEOSET_UNIT": "ADM1", "CENTROID_LONG": -0.44949529736696325, "CENTROID_LAT": 6.4140113580482838 }, "geometry": { "type": "MultiPolygon", "coordinates": [ [ [ [ 0.1820649, 7.1770644 ], [ 0.2349751, 7.1644255 ], [ 0.2423752, 7.1244068 ], [ 0.2025993, 7.0779741 ], [ 0.1994447, 7.0489441 ], [ 0.22715, 6.9713736 ], [ 0.1954949, 6.9337627 ], [ 0.1475448, 6.9188808 ], [ 0.1226467, 6.8868241 ], [ 0.1238853, 6.8406662 ], [ 0.1922427, 6.7866554 ], [ 0.2079376, 6.7548859 ], [ 0.20338, 6.7006663 ], [ 0.1228994, 6.6633558 ], [ 0.1041538, 6.5642264 ], [ 0.1515419, 6.5751421 ], [ 0.1942869, 6.5612566 ], [ 0.1775723, 6.5086037 ], [ 0.1864241, 6.4402502 ], [ 0.1776974, 6.4215273 ], [ 0.2162035, 6.3852871 ], [ 0.17901, 6.3382464 ], [ 0.1274837, 6.2524998 ], [ 0.0929489, 6.1519003 ], [ 0.1465496, 6.1064377 ], [ 0.0881033, 6.0597773 ], [ 0.0179025, 6.0364484 ], [ -0.015074, 5.9944673 ], [ -0.0065667, 5.9684255 ], [ -0.1231533, 5.8769709 ], [ -0.1552974, 5.8119718 ], [ -0.2439438, 5.7549325 ], [ -0.2749106, 5.8052412 ], [ -0.328107, 5.7711814 ], [ -0.3934884, 5.7558693 ], [ -0.4384243, 5.7966341 ], [ -0.4518513, 5.7720399 ], [ -0.5105957, 5.7334675 ], [ -0.5677284, 5.7367416 ], [ -0.6293504, 5.7187371 ], [ -0.6860352, 5.7368134 ], [ -0.6954011, 5.7125531 ], [ -0.7651329, 5.7060739 ], [ -0.8483204, 5.7545008 ], [ -0.880233, 5.739013 ], [ -0.9529187, 5.7356047 ], [ -0.9817688, 5.7490669 ], [ -1.0349994, 5.7347068 ], [ -1.091376, 5.739868 ], [ -1.1212119, 5.7177643 ], [ -1.1631079, 5.718023 ], [ -1.1694062, 5.8373913 ], [ -1.1632688, 5.8944979 ], [ -1.2249287, 5.9327369 ], [ -1.2189368, 5.960882 ], [ -1.2471052, 5.9882345 ], [ -1.2321638, 6.0285536 ], [ -1.190493, 6.0894083 ], [ -1.2000091, 6.1299134 ], [ -1.1786679, 6.1547814 ], [ -1.1901364, 6.1987796 ], [ -1.1228636, 6.2082736 ], [ -1.1324014, 6.3122588 ], [ -1.1140102, 6.3509128 ], [ -1.0563952, 6.3946173 ], [ -1.0130879, 6.4110934 ], [ -1.0007519, 6.4973765 ], [ -0.9599165, 6.5524249 ], [ -0.9139492, 6.5900388 ], [ -0.9238538, 6.6382177 ], [ -0.977036, 6.6120969 ], [ -0.9741488, 6.6784515 ], [ -0.950643, 6.7048046 ], [ -0.9567301, 6.7512978 ], [ -0.8829727, 6.7758141 ], [ -0.7939562, 6.7869269 ], [ -0.7559851, 6.8495637 ], [ -0.7535018, 6.935464 ], [ -0.7230289, 6.9497024 ], [ -0.6525391, 6.9268748 ], [ -0.6372288, 6.9504078 ], [ -0.5749698, 6.9596998 ], [ -0.5649667, 7.0160431 ], [ -0.5911535, 7.0416458 ], [ -0.6206152, 7.1320911 ], [ -0.6127377, 7.152828 ], [ -0.4925947, 7.1221646 ], [ -0.3880655, 7.1152893 ], [ -0.3170329, 7.1465849 ], [ -0.2833569, 7.191365 ], [ -0.2389752, 7.1997237 ], [ -0.1073908, 7.1924817 ], [ -0.0843353, 7.1766627 ], [ -0.0529691, 7.1938223 ], [ 0.0041335, 7.1914093 ], [ 0.0502445, 7.1694236 ], [ 0.0808065, 7.1790759 ], [ 0.1820649, 7.1770644 ] ] ] ] } },
{ "type": "Feature", "properties": { "POLYGON_ID": "GHA_GAUL2007_ADM1_1328", "ADM0_ISO3": "GHA", "ADM0_NAME": "Ghana", "ADM0_CODE": 94, "ADM1_NAME": "Greater Accra", "ADM1_CODE": 1328, "GEOSET": "GAUL", "GEOSET_YEAR": 2007.0, "GEOSET_VERSION": "GAUL_v1", "GEOSET_UNIT": "ADM1", "CENTROID_LONG": 0.04533344728024593, "CENTROID_LAT": 5.8033237363097099 }, "geometry": { "type": "MultiPolygon", "coordinates": [ [ [ [ 0.6864977, 5.7737357 ], [ 0.6841477, 5.7718611 ], [ 0.6823459, 5.7720597 ], [ 0.446043, 5.788933 ], [ 0.320324, 5.781914 ], [ 0.1858019, 5.7443473 ], [ 0.126141, 5.7074702 ], [ 0.0693817, 5.6945532 ], [ 0.0048387, 5.6251366 ], [ -0.059403, 5.605402 ], [ -0.125397, 5.564915 ], [ -0.23404, 5.526033 ], [ -0.3342674, 5.5053119 ], [ -0.4062356, 5.4692578 ], [ -0.4155572, 5.5298833 ], [ -0.4001773, 5.562925 ], [ -0.4279604, 5.6147908 ], [ -0.4939335, 5.6515677 ], [ -0.5202144, 5.7026197 ], [ -0.5105957, 5.7334675 ], [ -0.4518513, 5.7720399 ], [ -0.4384243, 5.7966341 ], [ -0.3934884, 5.7558693 ], [ -0.328107, 5.7711814 ], [ -0.2749106, 5.8052412 ], [ -0.2439438, 5.7549325 ], [ -0.1552974, 5.8119718 ], [ -0.1231533, 5.8769709 ], [ -0.0065667, 5.9684255 ], [ -0.015074, 5.9944673 ], [ 0.0179025, 6.0364484 ], [ 0.0881033, 6.0597773 ], [ 0.1465496, 6.1064377 ], [ 0.1875895, 6.094257 ], [ 0.2353663, 6.1062397 ], [ 0.2845001, 6.0780721 ], [ 0.3006332, 6.0520568 ], [ 0.3375657, 6.0445026 ], [ 0.3294339, 5.9939478 ], [ 0.3477643, 5.959696 ], [ 0.4294417, 5.9711823 ], [ 0.4497825, 5.9988905 ], [ 0.5250818, 5.9761362 ], [ 0.5237494, 5.9521952 ], [ 0.5813717, 5.9250424 ], [ 0.5742801, 5.8971567 ], [ 0.6129983, 5.8728061 ], [ 0.6200044, 5.8315521 ], [ 0.6864977, 5.7737357 ] ] ] ] } },
{ "type": "Feature", "properties": { "POLYGON_ID": "GHA_GAUL2007_ADM1_1329", "ADM0_ISO3": "GHA", "ADM0_NAME": "Ghana", "ADM0_CODE": 94, "ADM1_NAME": "Northern", "ADM1_CODE": 1329, "GEOSET": "GAUL", "GEOSET_YEAR": 2007.0, "GEOSET_VERSION": "GAUL_v1", "GEOSET_UNIT": "ADM1", "CENTROID_LONG": -0.96548552544656918, "CENTROID_LAT": 9.3541892981015344 }, "geometry": { "type": "MultiPolygon", "coordinates": [ [ [ [ -0.0898934, 10.71016 ], [ -0.0906803, 10.7072663 ], [ -0.0700713, 10.6663388 ], [ -0.0705024, 10.6594867 ], [ -0.059557, 10.6310524 ], [ 0.0406489, 10.6000223 ], [ 0.0436879, 10.5921717 ], [ 0.0614137, 10.5605098 ], [ 0.1434567, 10.5253828 ], [ 0.1596866, 10.4590409 ], [ 0.1670154, 10.4504035 ], [ 0.1751531, 10.4461918 ], [ 0.1733447, 10.4255857 ], [ 0.1782226, 10.4218023 ], [ 0.1812683, 10.422183 ], [ 0.1851707, 10.419875 ], [ 0.1911431, 10.4111186 ], [ 0.1933322, 10.4015769 ], [ 0.1967348, 10.4001254 ], [ 0.204825, 10.4035519 ], [ 0.2101074, 10.4035757 ], [ 0.2073472, 10.4152112 ], [ 0.2195301, 10.4236345 ], [ 0.2274537, 10.418947 ], [ 0.2380423, 10.4093102 ], [ 0.2393034, 10.4124986 ], [ 0.2441337, 10.4127842 ], [ 0.2516528, 10.409096 ], [ 0.2556503, 10.405503 ], [ 0.2607888, 10.4058335 ], [ 0.2665006, 10.4077635 ], [ 0.2682138, 10.4129032 ], [ 0.2725162, 10.4164016 ], [ 0.2750905, 10.4184949 ], [ 0.2811343, 10.4194229 ], [ 0.2867498, 10.4190184 ], [ 0.2914136, 10.4079063 ], [ 0.2935313, 10.4067403 ], [ 0.2981713, 10.408168 ], [ 0.2948162, 10.3734755 ], [ 0.3210362, 10.3348428 ], [ 0.3230604, 10.3342858 ], [ 0.3240264, 10.3352184 ], [ 0.3272007, 10.3382833 ], [ 0.3214424, 10.3075168 ], [ 0.3314123, 10.3092062 ], [ 0.3460128, 10.3057443 ], [ 0.3475689, 10.3053753 ], [ 0.3499959, 10.3065888 ], [ 0.3502466, 10.3069972 ], [ 0.3533985, 10.312133 ], [ 0.3631781, 10.3087779 ], [ 0.3897567, 10.3146314 ], [ 0.3978231, 10.3064223 ], [ 0.3968475, 10.3038762 ], [ 0.3832846, 10.2989984 ], [ 0.3758369, 10.2877197 ], [ 0.3695313, 10.2844361 ], [ 0.3710179, 10.2818785 ], [ 0.3824994, 10.2726101 ], [ 0.3756105, 10.2672869 ], [ 0.3647724, 10.2632113 ], [ 0.3624167, 10.260118 ], [ 0.3607987, 10.2224749 ], [ 0.3597279, 10.2176446 ], [ 0.3564909, 10.2125274 ], [ 0.355897, 10.1985137 ], [ 0.3518519, 10.1912802 ], [ 0.3637492, 10.1338162 ], [ 0.3612508, 10.0852276 ], [ 0.4171205, 10.056674 ], [ 0.4128905, 10.0463073 ], [ 0.4125661, 10.0449773 ], [ 0.4135751, 10.0332364 ], [ 0.4113622, 10.0218863 ], [ 0.4076087, 10.0198695 ], [ 0.401773, 10.0188168 ], [ 0.39216, 10.0245275 ], [ 0.3739095, 10.0257411 ], [ 0.3647962, 10.0319515 ], [ 0.3608463, 10.0307855 ], [ 0.3596565, 10.0281443 ], [ 0.3631067, 10.0107505 ], [ 0.3614649, 10.0042545 ], [ 0.3570153, 9.9959978 ], [ 0.3593472, 9.9835532 ], [ 0.3673422, 9.9653741 ], [ 0.3855451, 9.9478375 ], [ 0.3868538, 9.9369634 ], [ 0.3854975, 9.9350836 ], [ 0.3806001, 9.9330575 ], [ 0.3747423, 9.930634 ], [ 0.3619646, 9.9284925 ], [ 0.3595138, 9.9269934 ], [ 0.3558732, 9.8677686 ], [ 0.3577292, 9.8454731 ], [ 0.3516139, 9.8250573 ], [ 0.3479972, 9.8232489 ], [ 0.3425482, 9.8144925 ], [ 0.330175, 9.7551726 ], [ 0.3204906, 9.7245965 ], [ 0.3248926, 9.7202421 ], [ 0.339217, 9.7190047 ], [ 0.3518995, 9.6741757 ], [ 0.3625357, 9.672058 ], [ 0.3672946, 9.6585426 ], [ 0.3699596, 9.6503573 ], [ 0.3774073, 9.6456222 ], [ 0.3811431, 9.6409584 ], [ 0.3827968, 9.6403097 ], [ 0.3840658, 9.5860897 ], [ 0.3492089, 9.5691737 ], [ 0.3377456, 9.5745414 ], [ 0.2655652, 9.5649646 ], [ 0.2517043, 9.5720985 ], [ 0.2455177, 9.5224788 ], [ 0.3102073, 9.513881 ], [ 0.287999, 9.4861206 ], [ 0.2788936, 9.4868821 ], [ 0.2764745, 9.4852561 ], [ 0.2752956, 9.482522 ], [ 0.2694485, 9.4770215 ], [ 0.2596041, 9.4759048 ], [ 0.2387918, 9.4852957 ], [ 0.2325417, 9.485962 ], [ 0.2297181, 9.4810127 ], [ 0.2490631, 9.4365247 ], [ 0.2602942, 9.4335028 ], [ 0.2651483, 9.4280538 ], [ 0.2753562, 9.4296719 ], [ 0.2853737, 9.4289818 ], [ 0.2966761, 9.4353112 ], [ 0.3050043, 9.4398322 ], [ 0.3101915, 9.4423306 ], [ 0.322874, 9.4473037 ], [ 0.3295127, 9.4468516 ], [ 0.3337838, 9.4487942 ], [ 0.3374125, 9.4504446 ], [ 0.3445509, 9.4677908 ], [ 0.3489053, 9.4702893 ], [ 0.3503568, 9.4731208 ], [ 0.344884, 9.4835905 ], [ 0.3456749, 9.4861684 ], [ 0.35207, 9.4917996 ], [ 0.372462, 9.4950833 ], [ 0.3862391, 9.4906813 ], [ 0.4078684, 9.4930607 ], [ 0.4137218, 9.4994853 ], [ 0.4175052, 9.4976293 ], [ 0.4277369, 9.4987238 ], [ 0.4306636, 9.4964396 ], [ 0.4365884, 9.4949881 ], [ 0.4483192, 9.4979386 ], [ 0.4560286, 9.4972486 ], [ 0.4590506, 9.492799 ], [ 0.4636667, 9.4893488 ], [ 0.4753499, 9.488397 ], [ 0.4792284, 9.4844233 ], [ 0.4821075, 9.4842329 ], [ 0.487961, 9.4861365 ], [ 0.5004294, 9.4737157 ], [ 0.50407, 9.4650069 ], [ 0.4933148, 9.4492548 ], [ 0.4987638, 9.436953 ], [ 0.5058546, 9.4365961 ], [ 0.5204407, 9.4368341 ], [ 0.5205596, 9.4334076 ], [ 0.5241526, 9.4301478 ], [ 0.5325045, 9.4294339 ], [ 0.5427362, 9.4225097 ], [ 0.5510405, 9.4227239 ], [ 0.5526586, 9.4204158 ], [ 0.5528965, 9.4126349 ], [ 0.5605254, 9.4067559 ], [ 0.5444494, 9.3437495 ], [ 0.5546335, 9.3074628 ], [ 0.5521589, 9.3017521 ], [ 0.5433311, 9.3014427 ], [ 0.5400474, 9.3042029 ], [ 0.5032609, 9.2521879 ], [ 0.5309341, 9.2065736 ], [ 0.5093286, 9.1630295 ], [ 0.4745646, 9.1444935 ], [ 0.4770631, 9.141995 ], [ 0.4783004, 9.131692 ], [ 0.4821551, 9.1239349 ], [ 0.4846298, 9.1133225 ], [ 0.4841777, 9.1083257 ], [ 0.4658244, 9.0912424 ], [ 0.4591457, 9.06728 ], [ 0.4633574, 9.0667803 ], [ 0.463167, 9.0553827 ], [ 0.4558145, 9.0557634 ], [ 0.4550293, 9.0355618 ], [ 0.4604239, 9.0339564 ], [ 0.4607876, 9.0274716 ], [ 0.4681163, 9.0187628 ], [ 0.4945473, 8.9542006 ], [ 0.4979309, 8.9542318 ], [ 0.5062115, 8.9481404 ], [ 0.5076392, 8.9420489 ], [ 0.5114463, 8.9367903 ], [ 0.5104804, 8.9303847 ], [ 0.5092096, 8.9025499 ], [ 0.5186323, 8.8927465 ], [ 0.5199648, 8.8871786 ], [ 0.524224, 8.8802305 ], [ 0.5182828, 8.8642873 ], [ 0.5203217, 8.8596244 ], [ 0.5199886, 8.8562456 ], [ 0.5153091, 8.8518199 ], [ 0.5098045, 8.8531761 ], [ 0.5069015, 8.8472512 ], [ 0.5016344, 8.845565 ], [ 0.4954563, 8.8361867 ], [ 0.4995817, 8.8299429 ], [ 0.4993517, 8.8290743 ], [ 0.4966698, 8.8266927 ], [ 0.4945521, 8.8211485 ], [ 0.4976134, 8.8155787 ], [ 0.4979785, 8.8149143 ], [ 0.4663317, 8.792714 ], [ 0.4625008, 8.7991623 ], [ 0.4577894, 8.8018273 ], [ 0.457837, 8.8070145 ], [ 0.4557907, 8.8115593 ], [ 0.4312109, 8.7979488 ], [ 0.4307826, 8.7935944 ], [ 0.4422516, 8.7890496 ], [ 0.4390869, 8.7867177 ], [ 0.4238107, 8.7818398 ], [ 0.4224782, 8.7895731 ], [ 0.3974939, 8.7912149 ], [ 0.3951105, 8.7925754 ], [ 0.3917832, 8.7944748 ], [ 0.3832171, 8.7919525 ], [ 0.3800762, 8.7904059 ], [ 0.3815991, 8.7832675 ], [ 0.379291, 8.7750584 ], [ 0.3811708, 8.7708467 ], [ 0.4010393, 8.7575455 ], [ 0.3956855, 8.7544522 ], [ 0.3787913, 8.7524773 ], [ 0.3817901, 8.7491906 ], [ 0.3838101, 8.7443876 ], [ 0.3810756, 8.739771 ], [ 0.3813179, 8.7393845 ], [ 0.382664, 8.7372378 ], [ 0.3825429, 8.7370889 ], [ 0.3823951, 8.7368139 ], [ 0.3822117, 8.736663 ], [ 0.3811463, 8.7369231 ], [ 0.3805285, 8.7361372 ], [ 0.3747344, 8.7332285 ], [ 0.3699411, 8.7335849 ], [ 0.3589969, 8.723504 ], [ 0.287002, 8.7311441 ], [ 0.2389293, 8.748671 ], [ 0.1853084, 8.7383194 ], [ 0.1381713, 8.6655185 ], [ 0.1374683, 8.638903 ], [ 0.1695838, 8.6133934 ], [ 0.1502965, 8.5858776 ], [ 0.1117018, 8.5943701 ], [ 0.082399, 8.5256988 ], [ 0.1205215, 8.4829242 ], [ 0.0813045, 8.4583193 ], [ 0.086209, 8.4007705 ], [ 0.1245409, 8.3803527 ], [ 0.2071961, 8.4076351 ], [ 0.2440472, 8.3839848 ], [ 0.2350512, 8.3413549 ], [ 0.2031818, 8.3388237 ], [ 0.1888833, 8.2468136 ], [ 0.1076298, 8.2214098 ], [ 0.0803684, 8.2775365 ], [ 0.0103013, 8.2951565 ], [ -0.0028674, 8.3180519 ], [ -0.0656873, 8.348093 ], [ -0.11054, 8.3334381 ], [ -0.1244777, 8.2705088 ], [ -0.1988741, 8.2168128 ], [ -0.2597154, 8.2137883 ], [ -0.2809584, 8.2430583 ], [ -0.348902, 8.1991677 ], [ -0.3518389, 8.170058 ], [ -0.3849612, 8.150282 ], [ -0.4446484, 8.1550237 ], [ -0.5427219, 8.1851492 ], [ -0.6397262, 8.2669803 ], [ -0.7410181, 8.3330711 ], [ -0.8016953, 8.3371555 ], [ -0.8580939, 8.326069 ], [ -0.8628834, 8.2747383 ], [ -0.8931971, 8.2554232 ], [ -0.9489152, 8.2439898 ], [ -1.0399522, 8.240575 ], [ -1.0408076, 8.1634234 ], [ -1.0689842, 8.1267032 ], [ -1.0435388, 8.0913954 ], [ -1.0490399, 8.0642264 ], [ -1.0196841, 8.029558 ], [ -1.0815428, 8.0147458 ], [ -1.0955311, 7.9956594 ], [ -1.1581941, 7.9973931 ], [ -1.1656111, 8.0670185 ], [ -1.1571303, 8.0868554 ], [ -1.2667099, 8.2548103 ], [ -1.2778239, 8.3048 ], [ -1.2574465, 8.3551626 ], [ -1.2588274, 8.4508533 ], [ -1.1908659, 8.5081968 ], [ -1.1639619, 8.5127964 ], [ -1.1462352, 8.5560815 ], [ -1.1447209, 8.6749074 ], [ -1.2110306, 8.6656366 ], [ -1.2648505, 8.6891461 ], [ -1.3521481, 8.7539393 ], [ -1.4094119, 8.7718832 ], [ -1.4750013, 8.7628333 ], [ -1.4997355, 8.7354797 ], [ -1.5092899, 8.692374 ], [ -1.553119, 8.6731042 ], [ -1.612135, 8.6745689 ], [ -1.6586018, 8.6929556 ], [ -1.6865475, 8.6481106 ], [ -1.7336295, 8.6239146 ], [ -1.7891054, 8.6499229 ], [ -1.8410963, 8.6587406 ], [ -1.8684291, 8.6388629 ], [ -1.8972444, 8.534198 ], [ -1.8833483, 8.4777003 ], [ -1.9100691, 8.4360059 ], [ -1.9077355, 8.3934588 ], [ -1.8836516, 8.3450892 ], [ -1.8458623, 8.3268206 ], [ -1.8121724, 8.3374713 ], [ -1.7701396, 8.3202352 ], [ -1.7478892, 8.2589781 ], [ -1.7999212, 8.2237043 ], [ -1.8373054, 8.2480269 ], [ -1.8953509, 8.2591661 ], [ -1.9619266, 8.1664094 ], [ -2.0630589, 8.1437259 ], [ -2.1623204, 8.1711095 ], [ -2.16766, 8.207679 ], [ -2.2131877, 8.239013 ], [ -2.2358219, 8.2744556 ], [ -2.2877623, 8.293501 ], [ -2.3049899, 8.3513151 ], [ -2.2979932, 8.3782633 ], [ -2.3377928, 8.4522925 ], [ -2.3649286, 8.4714805 ], [ -2.367894, 8.5381482 ], [ -2.4103849, 8.5645916 ], [ -2.4193931, 8.6114964 ], [ -2.4637404, 8.6486018 ], [ -2.4991514, 8.7152708 ], [ -2.5397762, 8.7542773 ], [ -2.5708652, 8.7705411 ], [ -2.5769652, 8.7754348 ], [ -2.5842676, 8.7830929 ], [ -2.5852322, 8.7838356 ], [ -2.5858907, 8.7841002 ], [ -2.586131, 8.7841543 ], [ -2.5861595, 8.7841589 ], [ -2.586517, 8.7862776 ], [ -2.6040705, 8.7873432 ], [ -2.6093321, 8.783077 ], [ -2.6159765, 8.7841097 ], [ -2.622641, 8.7890479 ], [ -2.6284487, 8.7933513 ], [ -2.63013, 8.7945971 ], [ -2.5973521, 8.8305444 ], [ -2.5971023, 8.8321383 ], [ -2.6001598, 8.8385376 ], [ -2.6039566, 8.8427563 ], [ -2.6231262, 8.87736 ], [ -2.6216573, 8.894954 ], [ -2.6167865, 8.9110864 ], [ -2.6179863, 8.9184887 ], [ -2.6456814, 8.9364044 ], [ -2.6520983, 8.9449459 ], [ -2.6533464, 8.9525517 ], [ -2.6560865, 8.9701296 ], [ -2.6578129, 8.9812048 ], [ -2.6582287, 8.9838723 ], [ -2.6544979, 9.004461 ], [ -2.6547282, 9.007593 ], [ -2.6641244, 9.0192461 ], [ -2.7516378, 9.0331101 ], [ -2.7799645, 9.0620356 ], [ -2.7606195, 9.0928035 ], [ -2.7736543, 9.1365141 ], [ -2.7729635, 9.1429164 ], [ -2.7617249, 9.1512072 ], [ -2.74565, 9.1527272 ], [ -2.7365758, 9.1578202 ], [ -2.7177902, 9.2003708 ], [ -2.7140604, 9.2063636 ], [ -2.7137307, 9.2068934 ], [ -2.7126088, 9.2078232 ], [ -2.7077435, 9.2118557 ], [ -2.6576108, 9.2524883 ], [ -2.6581652, 9.2599722 ], [ -2.7210857, 9.3136072 ], [ -2.7213039, 9.3225173 ], [ -2.7213629, 9.3249255 ], [ -2.719979, 9.3329917 ], [ -2.6772446, 9.3681199 ], [ -2.673595, 9.3841041 ], [ -2.6895336, 9.4485859 ], [ -2.6899026, 9.4539542 ], [ -2.6846824, 9.473819 ], [ -2.683666, 9.4849525 ], [ -2.6869194, 9.4907363 ], [ -2.7685597, 9.5695469 ], [ -2.7712254, 9.5783306 ], [ -2.7703514, 9.5869395 ], [ -2.7716187, 9.6002242 ], [ -2.7629224, 9.6094449 ], [ -2.7624417, 9.6170487 ], [ -2.7474526, 9.6339168 ], [ -2.746298, 9.6392571 ], [ -2.7454512, 9.6391732 ], [ -2.7438518, 9.6398786 ], [ -2.743391, 9.639391 ], [ -2.73999, 9.6396809 ], [ -2.7372742, 9.6413286 ], [ -2.7320523, 9.6411076 ], [ -2.7267271, 9.6325062 ], [ -2.6940463, 9.6281024 ], [ -2.5386312, 9.6755909 ], [ -2.5151328, 9.6914966 ], [ -2.5097656, 9.7419428 ], [ -2.4213039, 9.7700794 ], [ -2.0971066, 9.8113808 ], [ -2.0866607, 9.7831211 ], [ -2.0424619, 9.7773816 ], [ -2.0009344, 9.8213099 ], [ -1.7200595, 9.8179301 ], [ -1.6965661, 9.8849068 ], [ -1.7149907, 10.0099159 ], [ -1.686255, 10.0363416 ], [ -1.5879187, 10.0755414 ], [ -1.600953, 10.1306925 ], [ -1.6605704, 10.1638811 ], [ -1.6627408, 10.1848668 ], [ -1.5771317, 10.3444408 ], [ -1.5180697, 10.4035359 ], [ -1.4342581, 10.4654407 ], [ -1.4039961, 10.4822249 ], [ -1.3742256, 10.4605859 ], [ -1.3553575, 10.3750349 ], [ -1.3123834, 10.3252374 ], [ -1.223157, 10.2928823 ], [ -1.2106801, 10.3273904 ], [ -1.2272647, 10.3893624 ], [ -1.1658468, 10.410274 ], [ -1.1335716, 10.455882 ], [ -1.053529, 10.4979453 ], [ -1.0105938, 10.5352233 ], [ -0.9648825, 10.5343792 ], [ -0.8908753, 10.5162478 ], [ -0.9094772, 10.5735979 ], [ -0.7246721, 10.6493373 ], [ -0.6929224, 10.5845225 ], [ -0.6936576, 10.5396974 ], [ -0.6192472, 10.5534436 ], [ -0.5789916, 10.5470096 ], [ -0.5605011, 10.5679765 ], [ -0.5088013, 10.5644272 ], [ -0.4934975, 10.6219222 ], [ -0.4444172, 10.5975408 ], [ -0.3699092, 10.6217063 ], [ -0.3136509, 10.6190975 ], [ -0.2296524, 10.6534926 ], [ -0.1538116, 10.6692665 ], [ -0.0898934, 10.71016 ] ] ] ] } },
{ "type": "Feature", "properties": { "POLYGON_ID": "GHA_GAUL2007_ADM1_1330", "ADM0_ISO3": "GHA", "ADM0_NAME": "Ghana", "ADM0_CODE": 94, "ADM1_NAME": "Upper East", "ADM1_CODE": 1330, "GEOSET": "GAUL", "GEOSET_YEAR": 2007.0, "GEOSET_VERSION": "GAUL_v1", "GEOSET_UNIT": "ADM1", "CENTROID_LONG": -0.80389264603770183, "CENTROID_LAT": 10.778705449756048 }, "geometry": { "type": "MultiPolygon", "coordinates": [ [ [ [ -0.1472769, 11.1126949 ], [ -0.1117011, 11.0900708 ], [ -0.09375, 11.08863 ], [ -0.04895, 11.10285 ], [ -0.035, 11.10528 ], [ -0.00219, 11.10512 ], [ 0.02275, 11.08191 ], [ 0.0260638, 11.0452917 ], [ 0.0272, 11.0063 ], [ 0.0272104, 11.0062738 ], [ 0.0301003, 10.9989893 ], [ 0.0286064, 10.9762852 ], [ 0.0237242, 10.9748367 ], [ 0.0143254, 10.9696494 ], [ 0.0102451, 10.9648726 ], [ 0.0092854, 10.9639502 ], [ 0.0030467, 10.9643908 ], [ -0.0031875, 10.9622493 ], [ -0.0058763, 10.9596081 ], [ -0.006947, 10.9543971 ], [ -0.006019, 10.9449982 ], [ -0.0108018, 10.9408342 ], [ -0.0072564, 10.9138987 ], [ -0.0133954, 10.905523 ], [ -0.0131336, 10.9007402 ], [ -0.0195582, 10.8860828 ], [ -0.0251023, 10.8799913 ], [ -0.0263396, 10.8705687 ], [ -0.0288143, 10.8596945 ], [ -0.0293378, 10.8492963 ], [ -0.0219376, 10.8198386 ], [ -0.0287667, 10.8148655 ], [ -0.0306465, 10.8068705 ], [ -0.0374993, 10.8040865 ], [ -0.0429007, 10.7999225 ], [ -0.0454467, 10.7926651 ], [ -0.066367, 10.7719276 ], [ -0.0693869, 10.7690423 ], [ -0.069741, 10.7687039 ], [ -0.073454, 10.7606833 ], [ -0.0751328, 10.756234 ], [ -0.0731436, 10.7449093 ], [ -0.0727153, 10.7199964 ], [ -0.0754517, 10.7167127 ], [ -0.0833277, 10.7161417 ], [ -0.0879615, 10.7134214 ], [ -0.089205, 10.7126914 ], [ -0.0898934, 10.71016 ], [ -0.1538116, 10.6692665 ], [ -0.2296524, 10.6534926 ], [ -0.3136509, 10.6190975 ], [ -0.3699092, 10.6217063 ], [ -0.4444172, 10.5975408 ], [ -0.4934975, 10.6219222 ], [ -0.5088013, 10.5644272 ], [ -0.5605011, 10.5679765 ], [ -0.5789916, 10.5470096 ], [ -0.6192472, 10.5534436 ], [ -0.6936576, 10.5396974 ], [ -0.6929224, 10.5845225 ], [ -0.7246721, 10.6493373 ], [ -0.9094772, 10.5735979 ], [ -0.8908753, 10.5162478 ], [ -0.9648825, 10.5343792 ], [ -1.0105938, 10.5352233 ], [ -1.053529, 10.4979453 ], [ -1.1335716, 10.455882 ], [ -1.1658468, 10.410274 ], [ -1.2272647, 10.3893624 ], [ -1.2106801, 10.3273904 ], [ -1.223157, 10.2928823 ], [ -1.3123834, 10.3252374 ], [ -1.3553575, 10.3750349 ], [ -1.3742256, 10.4605859 ], [ -1.4039961, 10.4822249 ], [ -1.4342581, 10.4654407 ], [ -1.4673405, 10.4859824 ], [ -1.4507334, 10.5224289 ], [ -1.4861034, 10.5360494 ], [ -1.5268365, 10.5860489 ], [ -1.5674161, 10.6000167 ], [ -1.5736122, 10.6644164 ], [ -1.5575354, 10.7440742 ], [ -1.4963234, 10.7843054 ], [ -1.4914317, 10.8307885 ], [ -1.4586753, 10.8467929 ], [ -1.4481377, 10.9613386 ], [ -1.4229623, 11.0147441 ], [ -1.3946892, 10.9902831 ], [ -1.2233827, 10.9892252 ], [ -1.1215076, 10.9855774 ], [ -1.0666328, 11.0037235 ], [ -1.0052324, 11.0035101 ], [ -1.0047043, 10.995061 ], [ -1.0045894, 10.9932226 ], [ -0.9739842, 10.9932226 ], [ -0.9588102, 11.0000381 ], [ -0.9339826, 11.0001133 ], [ -0.9163744, 11.0001666 ], [ -0.9167602, 10.9804919 ], [ -0.8918131, 10.9806205 ], [ -0.8902699, 10.9713617 ], [ -0.8905896, 10.9642865 ], [ -0.8749778, 10.966184 ], [ -0.8577358, 10.9970804 ], [ -0.810793, 11.0060386 ], [ -0.8110683, 10.9986065 ], [ -0.6838732, 10.9982959 ], [ -0.6852426, 10.9963319 ], [ -0.6861142, 10.9950818 ], [ -0.686763, 10.9900099 ], [ -0.6858783, 10.9857932 ], [ -0.6522627, 10.9818714 ], [ -0.6549165, 10.9763867 ], [ -0.6566268, 10.9745585 ], [ -0.6712821, 10.961643 ], [ -0.6709872, 10.9583109 ], [ -0.6448351, 10.9532316 ], [ -0.647965, 10.9494597 ], [ -0.635713, 10.9420229 ], [ -0.6235513, 10.9344623 ], [ -0.6242406, 10.9319731 ], [ -0.6224024, 10.921633 ], [ -0.6189557, 10.9101058 ], [ -0.615724, 10.9035654 ], [ -0.59871, 10.9159505 ], [ -0.5962012, 10.9284211 ], [ -0.5939191, 10.9397645 ], [ -0.584478, 10.9628739 ], [ -0.560805, 10.988097 ], [ -0.5539003, 10.9840106 ], [ -0.548123, 10.9735832 ], [ -0.5446002, 10.9734422 ], [ -0.5422047, 10.9810514 ], [ -0.5288181, 10.9962698 ], [ -0.5213499, 10.9889425 ], [ -0.5114108, 10.9894084 ], [ -0.5033132, 10.9897879 ], [ -0.4565308, 11.0274112 ], [ -0.4391987, 11.0313567 ], [ -0.4378052, 11.031239 ], [ -0.421923, 11.0298972 ], [ -0.4174339, 11.1107005 ], [ -0.376183, 11.1171308 ], [ -0.3613915, 11.0691842 ], [ -0.360909, 11.0697771 ], [ -0.3566491, 11.0711513 ], [ -0.3540932, 11.0754111 ], [ -0.3545629, 11.0796737 ], [ -0.3548352, 11.0821445 ], [ -0.3400827, 11.0871014 ], [ -0.335284, 11.0991329 ], [ -0.3363463, 11.1043697 ], [ -0.3366054, 11.1056471 ], [ -0.2744648, 11.1244795 ], [ -0.2697251, 11.1272064 ], [ -0.2889774, 11.1469297 ], [ -0.2883494, 11.1505837 ], [ -0.2882017, 11.1514429 ], [ -0.2842174, 11.1547572 ], [ -0.2838399, 11.1651622 ], [ -0.2805007, 11.1645457 ], [ -0.1420292, 11.1389835 ], [ -0.1420103, 11.1389785 ], [ -0.1472769, 11.1126949 ] ] ] ] } },
{ "type": "Feature", "properties": { "POLYGON_ID": "GHA_GAUL2007_ADM1_1331", "ADM0_ISO3": "GHA", "ADM0_NAME": "Ghana", "ADM0_CODE": 94, "ADM1_NAME": "Upper West", "ADM1_CODE": 1331, "GEOSET": "GAUL", "GEOSET_YEAR": 2007.0, "GEOSET_VERSION": "GAUL_v1", "GEOSET_UNIT": "ADM1", "CENTROID_LONG": -2.2117243352808189, "CENTROID_LAT": 10.417017159021134 }, "geometry": { "type": "MultiPolygon", "coordinates": [ [ [ [ -1.4342581, 10.4654407 ], [ -1.5180697, 10.4035359 ], [ -1.5771317, 10.3444408 ], [ -1.6627408, 10.1848668 ], [ -1.6605704, 10.1638811 ], [ -1.600953, 10.1306925 ], [ -1.5879187, 10.0755414 ], [ -1.686255, 10.0363416 ], [ -1.7149907, 10.0099159 ], [ -1.6965661, 9.8849068 ], [ -1.7200595, 9.8179301 ], [ -2.0009344, 9.8213099 ], [ -2.0424619, 9.7773816 ], [ -2.0866607, 9.7831211 ], [ -2.0971066, 9.8113808 ], [ -2.4213039, 9.7700794 ], [ -2.5097656, 9.7419428 ], [ -2.5151328, 9.6914966 ], [ -2.5386312, 9.6755909 ], [ -2.6940463, 9.6281024 ], [ -2.7267271, 9.6325062 ], [ -2.7320523, 9.6411076 ], [ -2.7372742, 9.6413286 ], [ -2.73999, 9.6396809 ], [ -2.743391, 9.639391 ], [ -2.7438518, 9.6398786 ], [ -2.7454512, 9.6391732 ], [ -2.746298, 9.6392571 ], [ -2.745729, 9.6418887 ], [ -2.7864766, 9.7103916 ], [ -2.7827374, 9.725907 ], [ -2.7887927, 9.7387091 ], [ -2.7898852, 9.7466624 ], [ -2.7779114, 9.7571067 ], [ -2.7741096, 9.7689057 ], [ -2.7689967, 9.7746303 ], [ -2.7655007, 9.7861671 ], [ -2.7603441, 9.7922414 ], [ -2.758465, 9.8002384 ], [ -2.7313711, 9.8157956 ], [ -2.7262582, 9.8272013 ], [ -2.7628787, 9.9033264 ], [ -2.7632283, 9.9148195 ], [ -2.7462728, 9.9452783 ], [ -2.7445685, 9.947638 ], [ -2.7500309, 9.9826853 ], [ -2.7750327, 10.0107058 ], [ -2.7906271, 10.0789845 ], [ -2.7878006, 10.0936999 ], [ -2.7929681, 10.1267538 ], [ -2.7899129, 10.1325587 ], [ -2.7875314, 10.1370834 ], [ -2.7944487, 10.1713949 ], [ -2.7941614, 10.1753605 ], [ -2.7969849, 10.1870114 ], [ -2.7979546, 10.1910123 ], [ -2.7605014, 10.227201 ], [ -2.7569573, 10.2358794 ], [ -2.7560952, 10.2430252 ], [ -2.7596585, 10.2598648 ], [ -2.8331316, 10.2960134 ], [ -2.8501429, 10.3185191 ], [ -2.8488398, 10.3288386 ], [ -2.8450712, 10.3344386 ], [ -2.8419014, 10.3446172 ], [ -2.8418379, 10.3638647 ], [ -2.841831, 10.3659606 ], [ -2.8361253, 10.3752939 ], [ -2.8350687, 10.3809292 ], [ -2.7759693, 10.412416 ], [ -2.7744425, 10.418503 ], [ -2.7732926, 10.4230877 ], [ -2.776885, 10.4259405 ], [ -2.8398586, 10.4424588 ], [ -2.8560316, 10.4499324 ], [ -2.8659966, 10.4545373 ], [ -2.8725445, 10.467396 ], [ -2.8710038, 10.4811436 ], [ -2.8987952, 10.5217344 ], [ -2.9003358, 10.5300303 ], [ -2.8982915, 10.5404891 ], [ -2.9409267, 10.6160414 ], [ -2.9394452, 10.6241003 ], [ -2.9408378, 10.6354776 ], [ -2.9118316, 10.6690465 ], [ -2.9104687, 10.6721871 ], [ -2.9109724, 10.6774609 ], [ -2.9058467, 10.6843051 ], [ -2.9053134, 10.6870605 ], [ -2.9392783, 10.7093137 ], [ -2.93986, 10.7119187 ], [ -2.937312, 10.7225849 ], [ -2.9054615, 10.7505244 ], [ -2.8950027, 10.7650127 ], [ -2.8943509, 10.772953 ], [ -2.8915066, 10.7762418 ], [ -2.8916206, 10.781029 ], [ -2.8914422, 10.7815968 ], [ -2.8804256, 10.8043295 ], [ -2.8790923, 10.8315875 ], [ -2.8644396, 10.8557054 ], [ -2.8635375, 10.8576012 ], [ -2.866441, 10.8736894 ], [ -2.8657657, 10.8822686 ], [ -2.8173765, 10.9242057 ], [ -2.8174358, 10.9373014 ], [ -2.8403579, 10.9687557 ], [ -2.8403253, 10.9721166 ], [ -2.8368562, 10.983145 ], [ -2.8343709, 10.9992476 ], [ -2.7683132, 10.9993392 ], [ -2.7640829, 10.9993451 ], [ -2.7199782, 10.9979301 ], [ -2.7021851, 10.9871675 ], [ -2.6127449, 10.9877783 ], [ -2.5926302, 10.9993461 ], [ -2.3597031, 10.999549 ], [ -1.8824543, 10.9999649 ], [ -1.5864047, 11.0004584 ], [ -1.5868136, 11.0201508 ], [ -1.4698402, 11.021256 ], [ -1.433847, 11.0298538 ], [ -1.4322419, 11.0270476 ], [ -1.4279527, 11.0216824 ], [ -1.427253, 11.0204667 ], [ -1.4249485, 11.0164625 ], [ -1.4229623, 11.0147441 ], [ -1.4481377, 10.9613386 ], [ -1.4586753, 10.8467929 ], [ -1.4914317, 10.8307885 ], [ -1.4963234, 10.7843054 ], [ -1.5575354, 10.7440742 ], [ -1.5736122, 10.6644164 ], [ -1.5674161, 10.6000167 ], [ -1.5268365, 10.5860489 ], [ -1.4861034, 10.5360494 ], [ -1.4507334, 10.5224289 ], [ -1.4673405, 10.4859824 ], [ -1.4342581, 10.4654407 ] ] ] ] } },
{ "type": "Feature", "properties": { "POLYGON_ID": "GHA_GAUL2007_ADM1_1332", "ADM0_ISO3": "GHA", "ADM0_NAME": "Ghana", "ADM0_CODE": 94, "ADM1_NAME": "Volta", "ADM1_CODE": 1332, "GEOSET": "GAUL", "GEOSET_YEAR": 2007.0, "GEOSET_VERSION": "GAUL_v1", "GEOSET_UNIT": "ADM1", "CENTROID_LONG": 0.4021574884895131, "CENTROID_LAT": 7.2377228861861234 }, "geometry": { "type": "MultiPolygon", "coordinates": [ [ [ [ 0.382664, 8.7372378 ], [ 0.469631, 8.5985401 ], [ 0.4712334, 8.5953853 ], [ 0.4780862, 8.5928868 ], [ 0.4798233, 8.5932676 ], [ 0.4787049, 8.5957422 ], [ 0.4948614, 8.5919351 ], [ 0.4934576, 8.5898887 ], [ 0.4990017, 8.5740891 ], [ 0.5021902, 8.5704485 ], [ 0.5105659, 8.5634767 ], [ 0.5183229, 8.5620728 ], [ 0.5229391, 8.5638098 ], [ 0.5320048, 8.5677597 ], [ 0.5342653, 8.5630246 ], [ 0.533956, 8.5589795 ], [ 0.5385959, 8.5556245 ], [ 0.5468289, 8.5523408 ], [ 0.5496128, 8.551627 ], [ 0.558241, 8.5502383 ], [ 0.5615101, 8.5462494 ], [ 0.5628189, 8.5414191 ], [ 0.5658646, 8.5361605 ], [ 0.5691482, 8.533781 ], [ 0.568244, 8.5253339 ], [ 0.5740737, 8.5262381 ], [ 0.5792221, 8.5262571 ], [ 0.5841864, 8.5250246 ], [ 0.5857435, 8.5221051 ], [ 0.5885646, 8.5168155 ], [ 0.592229, 8.5163396 ], [ 0.6276116, 8.5084636 ], [ 0.6259044, 8.5061071 ], [ 0.623733, 8.5031098 ], [ 0.6272784, 8.4982081 ], [ 0.6451482, 8.4912839 ], [ 0.6448777, 8.4899938 ], [ 0.6426736, 8.4794817 ], [ 0.6491695, 8.4698211 ], [ 0.6538094, 8.4572814 ], [ 0.650383, 8.4560678 ], [ 0.6519535, 8.4419814 ], [ 0.65212, 8.4357948 ], [ 0.6512872, 8.4323684 ], [ 0.6495978, 8.4293941 ], [ 0.6516203, 8.4264911 ], [ 0.6575452, 8.427086 ], [ 0.6923805, 8.4026251 ], [ 0.6929754, 8.4009833 ], [ 0.695035, 8.4009872 ], [ 0.7057293, 8.4010071 ], [ 0.6980912, 8.3957247 ], [ 0.7033022, 8.3923221 ], [ 0.7077756, 8.391751 ], [ 0.7104644, 8.3854216 ], [ 0.7096078, 8.3637923 ], [ 0.7104406, 8.3571774 ], [ 0.7309278, 8.3161555 ], [ 0.7303545, 8.3077693 ], [ 0.7311419, 8.2902432 ], [ 0.7263519, 8.2846532 ], [ 0.6844331, 8.2829145 ], [ 0.6363918, 8.2534567 ], [ 0.6373198, 8.2472701 ], [ 0.6240186, 8.238252 ], [ 0.6254962, 8.2300229 ], [ 0.6253746, 8.2292617 ], [ 0.620187, 8.2190125 ], [ 0.6187124, 8.2160992 ], [ 0.6165709, 8.2144574 ], [ 0.6090722, 8.2134963 ], [ 0.5870656, 8.1970397 ], [ 0.5903968, 8.191567 ], [ 0.5935155, 8.1899434 ], [ 0.59675, 8.1882595 ], [ 0.6012947, 8.1812639 ], [ 0.6049591, 8.1811211 ], [ 0.6114464, 8.1836908 ], [ 0.6105746, 8.1772902 ], [ 0.6060299, 8.1725789 ], [ 0.6078858, 8.1649646 ], [ 0.583926, 8.0894352 ], [ 0.5953474, 8.0452962 ], [ 0.5938483, 8.0360877 ], [ 0.5989879, 8.0244283 ], [ 0.5961564, 8.0143394 ], [ 0.6144204, 7.9073919 ], [ 0.6172997, 7.8966897 ], [ 0.6214263, 7.8813513 ], [ 0.624234, 7.8648141 ], [ 0.6180712, 7.7967377 ], [ 0.6281363, 7.7962856 ], [ 0.6328001, 7.7770833 ], [ 0.6302303, 7.768089 ], [ 0.619726, 7.7617987 ], [ 0.6114801, 7.7528842 ], [ 0.6320624, 7.7064932 ], [ 0.6234488, 7.7049381 ], [ 0.6024842, 7.7075965 ], [ 0.5984169, 7.7038911 ], [ 0.5884231, 7.6273439 ], [ 0.5778422, 7.6225561 ], [ 0.5214889, 7.5930558 ], [ 0.5259044, 7.5920994 ], [ 0.5213699, 7.5196495 ], [ 0.5203706, 7.515533 ], [ 0.5271044, 7.4953314 ], [ 0.5280324, 7.4837672 ], [ 0.5230831, 7.4758912 ], [ 0.5205847, 7.4722744 ], [ 0.5240587, 7.4695142 ], [ 0.5232259, 7.4668254 ], [ 0.5217031, 7.4648267 ], [ 0.5199423, 7.4628993 ], [ 0.5212272, 7.4564986 ], [ 0.5244632, 7.4569031 ], [ 0.5335528, 7.454357 ], [ 0.5328151, 7.4497885 ], [ 0.5331007, 7.4440064 ], [ 0.5333862, 7.4393664 ], [ 0.5368364, 7.4377246 ], [ 0.5392397, 7.4318949 ], [ 0.5369078, 7.4280164 ], [ 0.5381213, 7.4246138 ], [ 0.5448314, 7.4173564 ], [ 0.5580612, 7.4029131 ], [ 0.5667938, 7.3957985 ], [ 0.5735776, 7.393428 ], [ 0.6187137, 7.4126451 ], [ 0.6481238, 7.3783333 ], [ 0.6456688, 7.3754037 ], [ 0.6468363, 7.3674754 ], [ 0.6588314, 7.3181805 ], [ 0.6578988, 7.312918 ], [ 0.650793, 7.2929207 ], [ 0.6504557, 7.2902218 ], [ 0.6493257, 7.2902541 ], [ 0.6420635, 7.2686095 ], [ 0.6412152, 7.2558455 ], [ 0.6146645, 7.1760229 ], [ 0.6177578, 7.1680993 ], [ 0.6175595, 7.1656819 ], [ 0.6060985, 7.1592239 ], [ 0.605337, 7.1536321 ], [ 0.6060509, 7.1421869 ], [ 0.6036238, 7.1376422 ], [ 0.597342, 7.1342871 ], [ 0.5964854, 7.1258027 ], [ 0.596395, 7.1202971 ], [ 0.5929162, 7.1152514 ], [ 0.5923452, 7.111135 ], [ 0.5954298, 7.1120667 ], [ 0.5981749, 7.1128958 ], [ 0.6035762, 7.1061619 ], [ 0.6136889, 7.1013554 ], [ 0.6120993, 7.0974629 ], [ 0.611833, 7.0968106 ], [ 0.6136889, 7.0925514 ], [ 0.596046, 7.0604291 ], [ 0.6017198, 7.0364908 ], [ 0.5993884, 7.0326841 ], [ 0.6012682, 7.0278063 ], [ 0.601054, 7.0241657 ], [ 0.591203, 7.0113642 ], [ 0.5951767, 7.0079853 ], [ 0.5937571, 7.0054793 ], [ 0.5928449, 7.0038689 ], [ 0.5783064, 6.9944224 ], [ 0.5696451, 6.9972778 ], [ 0.5572243, 6.9928044 ], [ 0.5537979, 6.9927806 ], [ 0.5393546, 6.9859515 ], [ 0.5362193, 6.9807508 ], [ 0.5218417, 6.9712465 ], [ 0.5253396, 6.9658451 ], [ 0.5218417, 6.9625376 ], [ 0.5240784, 6.95578 ], [ 0.5243143, 6.9415397 ], [ 0.5426189, 6.9373221 ], [ 0.563292, 6.9252277 ], [ 0.5655418, 6.9189146 ], [ 0.5629112, 6.9145439 ], [ 0.562816, 6.9032658 ], [ 0.5593659, 6.8953417 ], [ 0.5586122, 6.8877553 ], [ 0.5546783, 6.8829209 ], [ 0.5348098, 6.8774243 ], [ 0.5344313, 6.8747986 ], [ 0.5429952, 6.8614581 ], [ 0.5324779, 6.8560092 ], [ 0.5321686, 6.8324049 ], [ 0.5352533, 6.8329122 ], [ 0.5328349, 6.8289785 ], [ 0.5375498, 6.8263777 ], [ 0.5395211, 6.8252903 ], [ 0.5422684, 6.8265225 ], [ 0.5459933, 6.8281933 ], [ 0.5454936, 6.8325953 ], [ 0.5686894, 6.8194718 ], [ 0.5668573, 6.8180679 ], [ 0.5666121, 6.815037 ], [ 0.579516, 6.80184 ], [ 0.577349, 6.7998793 ], [ 0.5679189, 6.8019194 ], [ 0.5705692, 6.7970334 ], [ 0.5699154, 6.7925797 ], [ 0.5681303, 6.7882294 ], [ 0.5672958, 6.7865814 ], [ 0.5670948, 6.7861843 ], [ 0.5662267, 6.7844699 ], [ 0.5697483, 6.783066 ], [ 0.5735316, 6.7756897 ], [ 0.5726275, 6.7747855 ], [ 0.5800514, 6.7637448 ], [ 0.6081052, 6.747612 ], [ 0.6152674, 6.7502057 ], [ 0.6509593, 6.7371662 ], [ 0.6458197, 6.7311462 ], [ 0.6433246, 6.7187644 ], [ 0.6484609, 6.7109921 ], [ 0.6460814, 6.7044486 ], [ 0.6432023, 6.6957398 ], [ 0.6448679, 6.685984 ], [ 0.6444158, 6.6781318 ], [ 0.6411559, 6.6697561 ], [ 0.6422743, 6.6626415 ], [ 0.6437495, 6.6595958 ], [ 0.6383244, 6.6530047 ], [ 0.6382054, 6.6449383 ], [ 0.6381102, 6.6353015 ], [ 0.6438447, 6.6319464 ], [ 0.6908629, 6.5988006 ], [ 0.6893638, 6.5964687 ], [ 0.6885894, 6.5921719 ], [ 0.6972874, 6.5890686 ], [ 0.7270783, 6.5917336 ], [ 0.7389518, 6.5841431 ], [ 0.7181711, 6.5376222 ], [ 0.7271496, 6.4883222 ], [ 0.7443047, 6.4813507 ], [ 0.7480179, 6.444341 ], [ 0.7481603, 6.4429221 ], [ 0.7485747, 6.4428605 ], [ 0.7541161, 6.4420366 ], [ 0.7813371, 6.4323284 ], [ 0.7881424, 6.4089859 ], [ 0.8282601, 6.4001105 ], [ 0.8568111, 6.3835983 ], [ 0.8952807, 6.3332387 ], [ 0.9575471, 6.3329372 ], [ 1.0053057, 6.3327059 ], [ 1.0243079, 6.2541689 ], [ 1.0549315, 6.2313974 ], [ 1.0854392, 6.1680757 ], [ 1.2003196, 6.1685516 ], [ 1.1996093, 6.1124242 ], [ 1.147293, 6.090319 ], [ 1.0777, 6.042277 ], [ 0.995233, 5.928607 ], [ 0.993377, 5.872429 ], [ 0.979606, 5.837853 ], [ 0.917795, 5.784936 ], [ 0.803888, 5.77111 ], [ 0.6864977, 5.7737357 ], [ 0.6200044, 5.8315521 ], [ 0.6129983, 5.8728061 ], [ 0.5742801, 5.8971567 ], [ 0.5813717, 5.9250424 ], [ 0.5237494, 5.9521952 ], [ 0.5250818, 5.9761362 ], [ 0.4497825, 5.9988905 ], [ 0.4294417, 5.9711823 ], [ 0.3477643, 5.959696 ], [ 0.3294339, 5.9939478 ], [ 0.3375657, 6.0445026 ], [ 0.3006332, 6.0520568 ], [ 0.2845001, 6.0780721 ], [ 0.2353663, 6.1062397 ], [ 0.1875895, 6.094257 ], [ 0.1465496, 6.1064377 ], [ 0.0929489, 6.1519003 ], [ 0.1274837, 6.2524998 ], [ 0.17901, 6.3382464 ], [ 0.2162035, 6.3852871 ], [ 0.1776974, 6.4215273 ], [ 0.1864241, 6.4402502 ], [ 0.1775723, 6.5086037 ], [ 0.1942869, 6.5612566 ], [ 0.1515419, 6.5751421 ], [ 0.1041538, 6.5642264 ], [ 0.1228994, 6.6633558 ], [ 0.20338, 6.7006663 ], [ 0.2079376, 6.7548859 ], [ 0.1922427, 6.7866554 ], [ 0.1238853, 6.8406662 ], [ 0.1226467, 6.8868241 ], [ 0.1475448, 6.9188808 ], [ 0.1954949, 6.9337627 ], [ 0.22715, 6.9713736 ], [ 0.1994447, 7.0489441 ], [ 0.2025993, 7.0779741 ], [ 0.2423752, 7.1244068 ], [ 0.2349751, 7.1644255 ], [ 0.1820649, 7.1770644 ], [ 0.214709, 7.3074345 ], [ 0.1982892, 7.3654068 ], [ 0.0906873, 7.4267158 ], [ 0.076827, 7.4795079 ], [ 0.0091667, 7.5758757 ], [ -0.0145671, 7.6235169 ], [ -0.0154709, 7.6814506 ], [ 0.003849, 7.7398543 ], [ -0.0147837, 7.7543806 ], [ -0.1003561, 7.7478457 ], [ -0.1267234, 7.7856606 ], [ -0.1456768, 7.9005311 ], [ -0.1444271, 8.0029456 ], [ -0.2149436, 8.0284317 ], [ -0.2491063, 8.0745323 ], [ -0.2951487, 8.1148318 ], [ -0.3849612, 8.150282 ], [ -0.3518389, 8.170058 ], [ -0.348902, 8.1991677 ], [ -0.2809584, 8.2430583 ], [ -0.2597154, 8.2137883 ], [ -0.1988741, 8.2168128 ], [ -0.1244777, 8.2705088 ], [ -0.11054, 8.3334381 ], [ -0.0656873, 8.348093 ], [ -0.0028674, 8.3180519 ], [ 0.0103013, 8.2951565 ], [ 0.0803684, 8.2775365 ], [ 0.1076298, 8.2214098 ], [ 0.1888833, 8.2468136 ], [ 0.2031818, 8.3388237 ], [ 0.2350512, 8.3413549 ], [ 0.2440472, 8.3839848 ], [ 0.2071961, 8.4076351 ], [ 0.1245409, 8.3803527 ], [ 0.086209, 8.4007705 ], [ 0.0813045, 8.4583193 ], [ 0.1205215, 8.4829242 ], [ 0.082399, 8.5256988 ], [ 0.1117018, 8.5943701 ], [ 0.1502965, 8.5858776 ], [ 0.1695838, 8.6133934 ], [ 0.1374683, 8.638903 ], [ 0.1381713, 8.6655185 ], [ 0.1853084, 8.7383194 ], [ 0.2389293, 8.748671 ], [ 0.287002, 8.7311441 ], [ 0.3589969, 8.723504 ], [ 0.3699411, 8.7335849 ], [ 0.3747344, 8.7332285 ], [ 0.3805285, 8.7361372 ], [ 0.3811463, 8.7369231 ], [ 0.3822117, 8.736663 ], [ 0.3823951, 8.7368139 ], [ 0.3825429, 8.7370889 ], [ 0.382664, 8.7372378 ] ] ] ] } },
{ "type": "Feature", "properties": { "POLYGON_ID": "GHA_GAUL2007_ADM1_1333", "ADM0_ISO3": "GHA", "ADM0_NAME": "Ghana", "ADM0_CODE": 94, "ADM1_NAME": "Western", "ADM1_CODE": 1333, "GEOSET": "GAUL", "GEOSET_YEAR": 2007.0, "GEOSET_VERSION": "GAUL_v1", "GEOSET_UNIT": "ADM1", "CENTROID_LONG": -2.4123663553754162, "CENTROID_LAT": 5.7398176732070443 }, "geometry": { "type": "MultiPolygon", "coordinates": [ [ [ [ -2.4307635, 6.3525137 ], [ -2.3784716, 6.3466539 ], [ -2.3513541, 6.3924822 ], [ -2.3442461, 6.4310423 ], [ -2.3602241, 6.4745677 ], [ -2.3355272, 6.4883239 ], [ -2.2598167, 6.4875914 ], [ -2.2297516, 6.4447344 ], [ -2.2168862, 6.3419863 ], [ -2.1729118, 6.362224 ], [ -2.1247678, 6.3338667 ], [ -2.119736, 6.3050601 ], [ -2.0744839, 6.2918104 ], [ -2.0978902, 6.2438953 ], [ -2.1270698, 6.2481494 ], [ -2.2061515, 6.1952984 ], [ -2.1827429, 6.1239896 ], [ -2.1301488, 6.0901971 ], [ -2.0589067, 6.068851 ], [ -2.0184749, 6.0249939 ], [ -1.9855314, 6.0137831 ], [ -1.9409326, 5.9554838 ], [ -1.8707591, 5.8814957 ], [ -1.8405478, 5.8977995 ], [ -1.8155008, 5.8639292 ], [ -1.850959, 5.7648733 ], [ -1.8113779, 5.7567424 ], [ -1.7867687, 5.7299017 ], [ -1.7908712, 5.6965187 ], [ -1.8182733, 5.6719385 ], [ -1.82469, 5.5904721 ], [ -1.750816, 5.6241656 ], [ -1.6859379, 5.6395457 ], [ -1.675999, 5.6074592 ], [ -1.6426815, 5.6139482 ], [ -1.5905937, 5.5516993 ], [ -1.615844, 5.5180955 ], [ -1.6216277, 5.4227701 ], [ -1.5632274, 5.4126041 ], [ -1.4623289, 5.3791364 ], [ -1.4568652, 5.3452708 ], [ -1.4000363, 5.2952494 ], [ -1.4443343, 5.2650555 ], [ -1.4465729, 5.207603 ], [ -1.5101438, 5.205512 ], [ -1.5281295, 5.1671468 ], [ -1.5780463, 5.1551088 ], [ -1.5801385, 5.0338438 ], [ -1.62859, 5.01655 ], [ -1.6446013, 4.9711664 ], [ -1.704022, 4.95484 ], [ -1.74355, 4.914189 ], [ -1.7448065, 4.8813026 ], [ -1.8079751, 4.8733705 ], [ -1.9166759, 4.8140342 ], [ -1.974191, 4.760168 ], [ -2.0908929, 4.7442432 ], [ -2.1134529, 4.7855203 ], [ -2.2024175, 4.8220708 ], [ -2.2432716, 4.8574114 ], [ -2.247348, 4.881176 ], [ -2.317605, 4.920051 ], [ -2.44507, 4.957553 ], [ -2.780268, 5.026589 ], [ -3.1058301, 5.0908636 ], [ -3.1058774, 5.0932294 ], [ -3.106204, 5.109557 ], [ -3.106303, 5.114508 ], [ -3.0231767, 5.1209647 ], [ -2.9789557, 5.0900723 ], [ -2.9308933, 5.0977312 ], [ -2.9311144, 5.0984168 ], [ -2.9347771, 5.1084097 ], [ -2.9426592, 5.1139207 ], [ -2.8915018, 5.119808 ], [ -2.890287, 5.127279 ], [ -2.8434846, 5.1082938 ], [ -2.8382808, 5.1100283 ], [ -2.8382017, 5.1105303 ], [ -2.8405579, 5.1155931 ], [ -2.8172974, 5.105939 ], [ -2.8147094, 5.1064283 ], [ -2.8113999, 5.107054 ], [ -2.8078368, 5.1074755 ], [ -2.8067909, 5.1075992 ], [ -2.8025465, 5.1079781 ], [ -2.7903995, 5.1073661 ], [ -2.7861496, 5.1105231 ], [ -2.784482, 5.1106948 ], [ -2.7569099, 5.1020981 ], [ -2.7545063, 5.1083921 ], [ -2.755849, 5.1123226 ], [ -2.7389696, 5.1167428 ], [ -2.7372846, 5.1195924 ], [ -2.7399112, 5.1215252 ], [ -2.7393603, 5.1263288 ], [ -2.7367147, 5.1299998 ], [ -2.7313871, 5.1293307 ], [ -2.7272138, 5.1318867 ], [ -2.7264597, 5.1336182 ], [ -2.7246206, 5.1378402 ], [ -2.7233423, 5.1411639 ], [ -2.7403399, 5.1545157 ], [ -2.7416775, 5.1575633 ], [ -2.7409813, 5.1593424 ], [ -2.7415241, 5.1631109 ], [ -2.7453664, 5.1665848 ], [ -2.7428639, 5.1720704 ], [ -2.7408009, 5.1765925 ], [ -2.7451473, 5.18492 ], [ -2.749311, 5.1955851 ], [ -2.7476674, 5.2023786 ], [ -2.7570542, 5.2013194 ], [ -2.7607294, 5.2092597 ], [ -2.7620055, 5.2120168 ], [ -2.7629711, 5.2141029 ], [ -2.764286, 5.2176458 ], [ -2.7598817, 5.218887 ], [ -2.7571423, 5.2188575 ], [ -2.7580038, 5.2275439 ], [ -2.757593, 5.22854 ], [ -2.7565428, 5.2310867 ], [ -2.7589304, 5.2360818 ], [ -2.7654182, 5.2359445 ], [ -2.7619119, 5.2463539 ], [ -2.7592456, 5.2462078 ], [ -2.758574, 5.2425666 ], [ -2.7575557, 5.2425703 ], [ -2.7541688, 5.2429936 ], [ -2.7602318, 5.2511386 ], [ -2.7546903, 5.2471139 ], [ -2.7528539, 5.2501524 ], [ -2.7638112, 5.2552658 ], [ -2.7714748, 5.2586311 ], [ -2.773204, 5.2609493 ], [ -2.7757911, 5.26615 ], [ -2.7751644, 5.2671231 ], [ -2.7744032, 5.268305 ], [ -2.7822917, 5.2786476 ], [ -2.7853281, 5.2860962 ], [ -2.7721126, 5.2933046 ], [ -2.7695352, 5.2947885 ], [ -2.7671053, 5.3097561 ], [ -2.7657864, 5.3178803 ], [ -2.7720084, 5.3304025 ], [ -2.7740598, 5.33677 ], [ -2.7744161, 5.3378112 ], [ -2.7759802, 5.3423807 ], [ -2.7766204, 5.3469747 ], [ -2.769767, 5.3522089 ], [ -2.7686373, 5.357443 ], [ -2.7248036, 5.3427344 ], [ -2.7244573, 5.3883596 ], [ -2.7477555, 5.4354699 ], [ -2.7650458, 5.5296527 ], [ -2.7632668, 5.5914807 ], [ -2.7595065, 5.5968861 ], [ -2.7909967, 5.6281572 ], [ -2.7940686, 5.6231419 ], [ -2.8484219, 5.6472153 ], [ -2.8578256, 5.6516664 ], [ -2.8590521, 5.6510338 ], [ -2.8635973, 5.6486894 ], [ -2.8699877, 5.6408208 ], [ -2.8739999, 5.6411342 ], [ -2.8797048, 5.6376235 ], [ -2.8801208, 5.6373384 ], [ -2.887293, 5.6324209 ], [ -2.9363909, 5.6167744 ], [ -2.9363909, 5.6214504 ], [ -2.9457428, 5.6331403 ], [ -2.9554545, 5.6331403 ], [ -2.9648065, 5.6387155 ], [ -2.9659078, 5.6408809 ], [ -2.9535327, 5.715956 ], [ -3.0255221, 5.7094851 ], [ -3.0269578, 5.709356 ], [ -3.0266985, 5.7142281 ], [ -3.0252804, 5.7408699 ], [ -3.0193625, 5.8520495 ], [ -3.0689933, 5.9794799 ], [ -3.0723207, 5.9880232 ], [ -3.1014238, 6.1507145 ], [ -3.1530507, 6.2492988 ], [ -3.1688646, 6.2487471 ], [ -3.173463, 6.2485867 ], [ -3.1738484, 6.2497327 ], [ -3.1690417, 6.2641577 ], [ -3.1716013, 6.272069 ], [ -3.1711359, 6.3004569 ], [ -3.1737057, 6.3045642 ], [ -3.1766048, 6.3204126 ], [ -3.2347426, 6.540641 ], [ -3.2328107, 6.6002065 ], [ -3.2523306, 6.6372474 ], [ -3.1944297, 6.719817 ], [ -3.2141984, 6.755545 ], [ -3.2238275, 6.7612296 ], [ -3.2270888, 6.7661895 ], [ -3.2299627, 6.7705602 ], [ -3.2311024, 6.7746499 ], [ -3.2311901, 6.7749644 ], [ -3.2319371, 6.7776448 ], [ -3.2321356, 6.7783571 ], [ -3.2317317, 6.7809344 ], [ -3.2289402, 6.82092 ], [ -3.18252, 6.8962016 ], [ -3.1338931, 6.975062 ], [ -3.1191969, 6.9988954 ], [ -3.1168342, 7.0033062 ], [ -3.1167611, 7.0032706 ], [ -3.1146031, 7.0022189 ], [ -3.1120829, 7.0009906 ], [ -3.1093476, 6.9996576 ], [ -3.096689, 6.9879531 ], [ -3.0924365, 6.9770457 ], [ -3.0759614, 6.96949 ], [ -3.0729835, 6.9410718 ], [ -3.0340796, 6.9248468 ], [ -2.984345, 6.9436946 ], [ -2.9403119, 6.939114 ], [ -2.8627778, 6.8443513 ], [ -2.8389909, 6.7893318 ], [ -2.8459541, 6.7385896 ], [ -2.8662598, 6.7129752 ], [ -2.8491053, 6.6666459 ], [ -2.8702148, 6.6561918 ], [ -2.785018, 6.592484 ], [ -2.7781524, 6.572877 ], [ -2.7275295, 6.5861795 ], [ -2.6813432, 6.5693761 ], [ -2.676037, 6.5213171 ], [ -2.6063535, 6.5169849 ], [ -2.5854453, 6.4870967 ], [ -2.5435869, 6.4611868 ], [ -2.5591532, 6.4270628 ], [ -2.5470993, 6.3978633 ], [ -2.5040845, 6.4125194 ], [ -2.4307635, 6.3525137 ] ] ] ] } }
]
}
