{
"type": "FeatureCollection",
"name": "GLP_GAUL2010_ADM2",
"crs": { "type": "name", "properties": { "name": "urn:ogc:def:crs:OGC:1.3:CRS84" } },
"features": [
{ "type": "Feature", "properties": { "POLYGON_ID": "GLP_GAUL2010_ADM2_16736", "ADM0_ISO3": "GLP", "ADM0_NAME": "Guadeloupe", "ADM0_CODE": 100, "ADM1_NAME": "Administrative unit not available", "ADM1_CODE": 1358, "ADM2_NAME": "Administrative unit not available", "ADM2_CODE": 16736, "GEOSET": "GAUL", "GEOSET_YEAR": 2010.0, "GEOSET_VERSION": "GAUL_v1", "GEOSET_UNIT": "ADM2", "CENTROID_LONG": -61.590591427336584, "CENTROID_LAT": 16.247467911086016 }, "geometry": { "type": "MultiPolygon", "coordinates": [ [ [ [ -61.2757026, 16.0049163 ], [ -61.200357, 15.9445748 ], [ -61.2043145, 15.9011333 ], [ -61.2795575, 15.8664456 ], [ -61.316199, 15.880772 ], [ -61.337189, 15.9419224 ], [ -61.2757026, 16.0049163 ] ] ], [ [ [ -61.4649069, 16.5106103 ], [ -61.4121395, 16.4698023 ], [ -61.4058929, 16.3846769 ], [ -61.3747906, 16.3406904 ], [ -61.2692154, 16.3110757 ], [ -61.2548908, 16.2564323 ], [ -61.3401785, 16.2398329 ], [ -61.4656264, 16.1966985 ], [ -61.5329409, 16.2248038 ], [ -61.55077, 16.2870119 ], [ -61.5356272, 16.3311276 ], [ -61.4986491, 16.3524965 ], [ -61.525745, 16.3949312 ], [ -61.535531, 16.4541866 ], [ -61.4649069, 16.5106103 ] ] ], [ [ [ -61.742249, 16.360617 ], [ -61.633387, 16.305189 ], [ -61.5843586, 16.2336018 ], [ -61.5903841, 16.1921403 ], [ -61.5552957, 16.0551919 ], [ -61.6185466, 15.973347 ], [ -61.7003296, 15.946639 ], [ -61.7704639, 16.0623846 ], [ -61.7826921, 16.2148056 ], [ -61.8014755, 16.2424357 ], [ -61.80217, 16.3120766 ], [ -61.742249, 16.360617 ] ] ], [ [ [ -63.0134087, 18.060442 ], [ -63.0903796, 18.0528485 ], [ -63.0856948, 18.0861621 ], [ -63.0261546, 18.1244364 ], [ -63.0134087, 18.060442 ] ] ], [ [ [ -63.1282683, 18.0602601 ], [ -63.1367629, 18.0591585 ], [ -63.146926, 18.0603629 ], [ -63.1282683, 18.0602601 ] ] ] ] } }
]
}
