{
"type": "FeatureCollection",
"name": "GNQ_GAUL2003_ADM0",
"crs": { "type": "name", "properties": { "name": "urn:ogc:def:crs:OGC:1.3:CRS84" } },
"features": [
{ "type": "Feature", "properties": { "POLYGON_ID": "GNQ_GAUL2003_ADM0_76", "ADM0_ISO3": "GNQ", "ADM0_NAME": "Equatorial Guinea", "ADM0_CODE": 76, "GEOSET": "GAUL", "GEOSET_YEAR": 2003.0, "GEOSET_VERSION": "GAUL_v1", "GEOSET_UNIT": "ADM0", "CENTROID_LONG": 10.334893593002082, "CENTROID_LAT": 1.702334890270832 }, "geometry": { "type": "MultiPolygon", "coordinates": [ [ [ [ 10.19396, 2.17267 ], [ 10.1979, 2.17296 ], [ 10.38979, 2.17295 ], [ 10.50172, 2.17281 ], [ 10.6406869, 2.174149 ], [ 11.03979, 2.17373 ], [ 11.16649, 2.17482 ], [ 11.18245, 2.18616 ], [ 11.22802, 2.17373 ], [ 11.3346096, 2.173887 ], [ 11.33297, 1.98355 ], [ 11.33568, 1.8911 ], [ 11.33483, 1.77956 ], [ 11.33493, 1.41211 ], [ 11.33339, 1.15233 ], [ 11.33478, 0.9992627 ], [ 11.31675, 0.99711 ], [ 10.98627, 0.99827 ], [ 10.83531, 0.99723 ], [ 10.43334, 0.99776 ], [ 10.2951596, 0.99902 ], [ 10.16271, 0.99684 ], [ 9.99674, 0.99764 ], [ 9.99216, 0.92924 ], [ 9.94262, 0.92541 ], [ 9.89478, 0.95467 ], [ 9.87823, 0.98241 ], [ 9.84204, 0.99803 ], [ 9.79019, 0.99839 ], [ 9.78614, 1.02479 ], [ 9.73629, 1.06905 ], [ 9.6619824, 1.0598474 ], [ 9.5793607, 1.0424572 ], [ 9.5721061, 1.0747321 ], [ 9.5332858, 1.1298504 ], [ 9.4798346, 1.1374209 ], [ 9.4097347, 1.1006169 ], [ 9.3855571, 1.108258 ], [ 9.3603287, 1.1553806 ], [ 9.3848147, 1.214824 ], [ 9.3959043, 1.2738308 ], [ 9.4231384, 1.2820026 ], [ 9.4599123, 1.3274855 ], [ 9.4593332, 1.3925292 ], [ 9.4795234, 1.4190477 ], [ 9.5188857, 1.4436335 ], [ 9.5607207, 1.4863476 ], [ 9.5928599, 1.5548522 ], [ 9.5961312, 1.5737564 ], [ 9.6256048, 1.5987372 ], [ 9.6047534, 1.6341647 ], [ 9.6086687, 1.6661682 ], [ 9.6575336, 1.7082587 ], [ 9.6855243, 1.748914 ], [ 9.7071509, 1.758101 ], [ 9.7429876, 1.8104549 ], [ 9.7421067, 1.8427025 ], [ 9.7820476, 1.8767578 ], [ 9.7929759, 1.9053412 ], [ 9.8095472, 1.912392 ], [ 9.8109283, 1.9419037 ], [ 9.8011328, 1.9879683 ], [ 9.7643931, 2.0929664 ], [ 9.793789, 2.1475088 ], [ 9.7946031, 2.2204269 ], [ 9.7896505, 2.2687867 ], [ 9.776771, 2.3244044 ], [ 9.8214701, 2.3478469 ], [ 9.83301, 2.32939 ], [ 9.8312, 2.29096 ], [ 9.8478893, 2.2465719 ], [ 9.88184, 2.2322 ], [ 9.92564, 2.20084 ], [ 10.04082, 2.16189 ], [ 10.11377, 2.16556 ], [ 10.15935, 2.1755 ], [ 10.19396, 2.17267 ] ] ], [ [ [ 9.3211266, 0.9359742 ], [ 9.3371343, 0.9229521 ], [ 9.3395658, 0.896394 ], [ 9.3031927, 0.8994913 ], [ 9.3211266, 0.9359742 ] ] ], [ [ [ 8.7149894, 3.787675 ], [ 8.7330232, 3.7574185 ], [ 8.7988631, 3.7616224 ], [ 8.8094241, 3.7543509 ], [ 8.9008407, 3.7635641 ], [ 8.934117, 3.7106523 ], [ 8.9381187, 3.6670044 ], [ 8.9262629, 3.6266387 ], [ 8.9055596, 3.6093343 ], [ 8.8608869, 3.5444484 ], [ 8.8375314, 3.4920646 ], [ 8.809894, 3.4500551 ], [ 8.807702, 3.4236327 ], [ 8.7664095, 3.3930039 ], [ 8.7732225, 3.3502896 ], [ 8.7647981, 3.3184462 ], [ 8.7122915, 3.2647097 ], [ 8.699898, 3.2344356 ], [ 8.6774415, 3.2087068 ], [ 8.6368901, 3.2314082 ], [ 8.590485, 3.245917 ], [ 8.5632947, 3.2393494 ], [ 8.5150507, 3.2567532 ], [ 8.4978056, 3.2549017 ], [ 8.4398257, 3.2801719 ], [ 8.4230843, 3.3257126 ], [ 8.4193972, 3.3869982 ], [ 8.4398257, 3.4407601 ], [ 8.4781416, 3.4745419 ], [ 8.5541258, 3.4613879 ], [ 8.5738567, 3.4684631 ], [ 8.5850675, 3.5039556 ], [ 8.5844032, 3.5404529 ], [ 8.6077174, 3.5622464 ], [ 8.6125832, 3.6582646 ], [ 8.683497, 3.7555631 ], [ 8.6900825, 3.7760847 ], [ 8.7149894, 3.787675 ] ] ], [ [ [ 5.633723, -1.4042924 ], [ 5.6532011, -1.4287394 ], [ 5.6515882, -1.4607348 ], [ 5.6369243, -1.4681746 ], [ 5.6183726, -1.4090755 ], [ 5.633723, -1.4042924 ] ] ] ] } }
]
}
