{
"type": "FeatureCollection",
"name": "GRD_GAUL2013_ADM2",
"crs": { "type": "name", "properties": { "name": "urn:ogc:def:crs:OGC:1.3:CRS84" } },
"features": [
{ "type": "Feature", "properties": { "POLYGON_ID": "GRD_GAUL2013_ADM2_16731", "ADM0_ISO3": "GRD", "ADM0_NAME": "Grenada", "ADM0_CODE": 99, "ADM1_NAME": "St. Andrew's", "ADM1_CODE": 1353, "ADM2_NAME": "Administrative unit not available", "ADM2_CODE": 16731, "GEOSET": "GAUL", "GEOSET_YEAR": 2013.0, "GEOSET_VERSION": "GAUL_v1", "GEOSET_UNIT": "ADM2", "CENTROID_LONG": -61.65066527577811, "CENTROID_LAT": 12.115965949788027 }, "geometry": { "type": "MultiPolygon", "coordinates": [ [ [ [ -61.6033782, 12.176762 ], [ -61.61721, 12.077088 ], [ -61.6371678, 12.0541483 ], [ -61.6975441, 12.0756693 ], [ -61.7016258, 12.1069899 ], [ -61.677639, 12.157382 ], [ -61.671566, 12.1641884 ], [ -61.6033782, 12.176762 ] ] ] ] } },
{ "type": "Feature", "properties": { "POLYGON_ID": "GRD_GAUL2013_ADM2_16732", "ADM0_ISO3": "GRD", "ADM0_NAME": "Grenada", "ADM0_CODE": 99, "ADM1_NAME": "St. George's", "ADM1_CODE": 1354, "ADM2_NAME": "Administrative unit not available", "ADM2_CODE": 16732, "GEOSET": "GAUL", "GEOSET_YEAR": 2013.0, "GEOSET_VERSION": "GAUL_v1", "GEOSET_UNIT": "ADM2", "CENTROID_LONG": -61.725076278346421, "CENTROID_LAT": 12.069233280186413 }, "geometry": { "type": "MultiPolygon", "coordinates": [ [ [ [ -61.7016258, 12.1069899 ], [ -61.6975441, 12.0756693 ], [ -61.7147945, 12.0145221 ], [ -61.7520747, 12.0451419 ], [ -61.7464154, 12.111274 ], [ -61.7016258, 12.1069899 ] ] ] ] } },
{ "type": "Feature", "properties": { "POLYGON_ID": "GRD_GAUL2013_ADM2_16733", "ADM0_ISO3": "GRD", "ADM0_NAME": "Grenada", "ADM0_CODE": 99, "ADM1_NAME": "St. John's", "ADM1_CODE": 1355, "ADM2_NAME": "Administrative unit not available", "ADM2_CODE": 16733, "GEOSET": "GAUL", "GEOSET_YEAR": 2013.0, "GEOSET_VERSION": "GAUL_v1", "GEOSET_UNIT": "ADM2", "CENTROID_LONG": -61.713209195547115, "CENTROID_LAT": 12.140636231507422 }, "geometry": { "type": "MultiPolygon", "coordinates": [ [ [ [ -61.677639, 12.157382 ], [ -61.7016258, 12.1069899 ], [ -61.7464154, 12.111274 ], [ -61.7241782, 12.1817951 ], [ -61.677639, 12.157382 ] ] ] ] } },
{ "type": "Feature", "properties": { "POLYGON_ID": "GRD_GAUL2013_ADM2_16734", "ADM0_ISO3": "GRD", "ADM0_NAME": "Grenada", "ADM0_CODE": 99, "ADM1_NAME": "St. Mark's", "ADM1_CODE": 1356, "ADM2_NAME": "Administrative unit not available", "ADM2_CODE": 16734, "GEOSET": "GAUL", "GEOSET_YEAR": 2013.0, "GEOSET_VERSION": "GAUL_v1", "GEOSET_UNIT": "ADM2", "CENTROID_LONG": -61.69178624457254, "CENTROID_LAT": 12.185821004965488 }, "geometry": { "type": "MultiPolygon", "coordinates": [ [ [ [ -61.671566, 12.1641884 ], [ -61.677639, 12.157382 ], [ -61.7241782, 12.1817951 ], [ -61.6799413, 12.2204276 ], [ -61.671566, 12.1641884 ] ] ] ] } },
{ "type": "Feature", "properties": { "POLYGON_ID": "GRD_GAUL2013_ADM2_16735", "ADM0_ISO3": "GRD", "ADM0_NAME": "Grenada", "ADM0_CODE": 99, "ADM1_NAME": "St. Patrick's", "ADM1_CODE": 1357, "ADM2_NAME": "Administrative unit not available", "ADM2_CODE": 16735, "GEOSET": "GAUL", "GEOSET_YEAR": 2013.0, "GEOSET_VERSION": "GAUL_v1", "GEOSET_UNIT": "ADM2", "CENTROID_LONG": -61.641689634255577, "CENTROID_LAT": 12.197135330899139 }, "geometry": { "type": "MultiPolygon", "coordinates": [ [ [ [ -61.6033782, 12.176762 ], [ -61.671566, 12.1641884 ], [ -61.6799413, 12.2204276 ], [ -61.6091247, 12.2270724 ], [ -61.6033782, 12.176762 ] ] ] ] } },
{ "type": "Feature", "properties": { "POLYGON_ID": "GRD_GAUL2013_ADM2_16730", "ADM0_ISO3": "GRD", "ADM0_NAME": "Grenada", "ADM0_CODE": 99, "ADM1_NAME": "Name Unknown", "ADM1_CODE": 1352, "ADM2_NAME": "Administrative unit not available", "ADM2_CODE": 16730, "GEOSET": "GAUL", "GEOSET_YEAR": 2013.0, "GEOSET_VERSION": "GAUL_v1", "GEOSET_UNIT": "ADM2", "CENTROID_LONG": -61.679529939550207, "CENTROID_LAT": 12.043781966481358 }, "geometry": { "type": "MultiPolygon", "coordinates": [ [ [ [ -61.6371678, 12.0541483 ], [ -61.6558521, 12.0260441 ], [ -61.7147945, 12.0145221 ], [ -61.6975441, 12.0756693 ], [ -61.6371678, 12.0541483 ] ] ] ] } }
]
}
