{
"type": "FeatureCollection",
"name": "GTM_GAUL2014_ADM0",
"crs": { "type": "name", "properties": { "name": "urn:ogc:def:crs:OGC:1.3:CRS84" } },
"features": [
{ "type": "Feature", "properties": { "POLYGON_ID": "GTM_GAUL2014_ADM0_103", "ADM0_ISO3": "GTM", "ADM0_NAME": "Guatemala", "ADM0_CODE": 103, "GEOSET": "GAUL", "GEOSET_YEAR": 2014.0, "GEOSET_VERSION": "GAUL_v1", "GEOSET_UNIT": "ADM0", "CENTROID_LONG": -90.355130265269892, "CENTROID_LAT": 15.695606762511948 }, "geometry": { "type": "MultiPolygon", "coordinates": [ [ [ [ -89.14571, 17.04897 ], [ -89.1614343, 16.8170895 ], [ -89.1874578, 16.4333311 ], [ -89.1887469, 16.414322 ], [ -89.1988208, 16.2657657 ], [ -89.21986, 15.96865 ], [ -89.22482, 15.92553 ], [ -89.2241317, 15.9124429 ], [ -89.214371, 15.890251 ], [ -89.206, 15.89328 ], [ -89.19376, 15.89771 ], [ -89.18612, 15.89773 ], [ -89.1698366, 15.9055948 ], [ -89.16081, 15.89792 ], [ -89.1122208, 15.8971778 ], [ -89.11485, 15.90313 ], [ -89.10941, 15.90659 ], [ -89.10184, 15.90868 ], [ -89.07832, 15.89432 ], [ -89.07765, 15.90487 ], [ -89.07576, 15.90717 ], [ -89.07339, 15.90672 ], [ -89.0626589, 15.8990173 ], [ -89.06293, 15.90148 ], [ -89.06129, 15.90561 ], [ -89.0625, 15.9102 ], [ -89.06085, 15.91318 ], [ -89.0582405, 15.9138799 ], [ -89.0501306, 15.8999204 ], [ -89.04188, 15.91072 ], [ -89.0354522, 15.9114796 ], [ -89.03326, 15.91174 ], [ -89.02324, 15.90792 ], [ -89.01923, 15.90461 ], [ -89.01579, 15.89551 ], [ -89.0150965, 15.8954664 ], [ -89.0115, 15.89524 ], [ -89.00039, 15.90134 ], [ -88.9990303, 15.9014463 ], [ -88.99668, 15.90163 ], [ -88.98412, 15.89516 ], [ -88.96756, 15.89354 ], [ -88.9190399, 15.8887969 ], [ -88.9127801, 15.9001292 ], [ -88.8835261, 15.8626482 ], [ -88.79612, 15.86181 ], [ -88.7109899, 15.8006901 ], [ -88.6273695, 15.7460205 ], [ -88.6460595, 15.6981905 ], [ -88.6212083, 15.6939587 ], [ -88.5962214, 15.7079556 ], [ -88.6058637, 15.7345043 ], [ -88.5863077, 15.7430463 ], [ -88.5533301, 15.8129499 ], [ -88.56363, 15.8546001 ], [ -88.53094, 15.84222 ], [ -88.49314, 15.8399 ], [ -88.5104001, 15.87069 ], [ -88.54759, 15.8791899 ], [ -88.56394, 15.9123001 ], [ -88.6112401, 15.93615 ], [ -88.6221301, 15.9654401 ], [ -88.58188, 15.96072 ], [ -88.55248, 15.94509 ], [ -88.5027044, 15.8973864 ], [ -88.4357299, 15.8500799 ], [ -88.3593599, 15.8109 ], [ -88.30647, 15.7772201 ], [ -88.26313, 15.73781 ], [ -88.2213203, 15.7204874 ], [ -88.24988, 15.71741 ], [ -88.25197, 15.71559 ], [ -88.24445, 15.69938 ], [ -88.2462814, 15.694444 ], [ -88.24655, 15.69372 ], [ -88.25193, 15.68726 ], [ -88.25607, 15.68387 ], [ -88.2570309, 15.6836147 ], [ -88.25957, 15.68294 ], [ -88.26881, 15.68387 ], [ -88.27678, 15.6811 ], [ -88.28411, 15.67123 ], [ -88.31309, 15.66013 ], [ -88.35483, 15.60399 ], [ -88.4807558, 15.503241 ], [ -88.4851514, 15.4995825 ], [ -88.57633, 15.41878 ], [ -88.60146, 15.41259 ], [ -88.6671614, 15.3505427 ], [ -88.68252, 15.33783 ], [ -88.81822, 15.2571 ], [ -88.8210325, 15.2564384 ], [ -88.82617, 15.25523 ], [ -88.8696251, 15.2198396 ], [ -88.96711, 15.13706 ], [ -89.119752, 15.0813238 ], [ -89.13186, 15.07631 ], [ -89.14873, 15.06933 ], [ -89.1538421, 15.0657283 ], [ -89.15855, 15.05294 ], [ -89.17025, 15.03408 ], [ -89.1784505, 15.0139876 ], [ -89.1798685, 15.0075886 ], [ -89.18155, 15.0 ], [ -89.1817643, 14.9990258 ], [ -89.15833, 14.97854 ], [ -89.16587, 14.94764 ], [ -89.17378, 14.93712 ], [ -89.1772369, 14.9247516 ], [ -89.1786874, 14.9195619 ], [ -89.17956, 14.91644 ], [ -89.1813715, 14.9126899 ], [ -89.18312, 14.90907 ], [ -89.1918923, 14.9013855 ], [ -89.21771, 14.88806 ], [ -89.22393, 14.83964 ], [ -89.2034003, 14.8081472 ], [ -89.1970636, 14.8011754 ], [ -89.16679, 14.76817 ], [ -89.1680524, 14.7446322 ], [ -89.16149, 14.72288 ], [ -89.13479, 14.70939 ], [ -89.13319, 14.70553 ], [ -89.15189, 14.64788 ], [ -89.14769, 14.62743 ], [ -89.14629, 14.6025 ], [ -89.1538634, 14.5772636 ], [ -89.1772051, 14.57078 ], [ -89.17773, 14.57085 ], [ -89.1962645, 14.5768328 ], [ -89.21757, 14.58371 ], [ -89.2203782, 14.5834513 ], [ -89.22734, 14.58281 ], [ -89.30167, 14.50259 ], [ -89.30946, 14.48527 ], [ -89.33946, 14.4758 ], [ -89.3442419, 14.4728327 ], [ -89.34831, 14.46813 ], [ -89.35008, 14.46495 ], [ -89.3506555, 14.4588788 ], [ -89.3503866, 14.4492647 ], [ -89.34997, 14.4408 ], [ -89.34921, 14.42546 ], [ -89.3531854, 14.4184879 ], [ -89.3532576, 14.4184684 ], [ -89.35628, 14.41765 ], [ -89.38249, 14.42722 ], [ -89.3836617, 14.4280881 ], [ -89.3844201, 14.4286521 ], [ -89.3846059, 14.4349592 ], [ -89.3864, 14.4432 ], [ -89.3884024, 14.444404 ], [ -89.42547, 14.41063 ], [ -89.43568, 14.41059 ], [ -89.4428712, 14.4116945 ], [ -89.48673, 14.41415 ], [ -89.5046703, 14.3994482 ], [ -89.509, 14.3959 ], [ -89.52136, 14.38201 ], [ -89.5266538, 14.3825281 ], [ -89.5269805, 14.3825603 ], [ -89.52994, 14.38428 ], [ -89.53187, 14.39003 ], [ -89.533449, 14.3947599 ], [ -89.53639, 14.40357 ], [ -89.5419, 14.41205 ], [ -89.54516, 14.41319 ], [ -89.57731, 14.39258 ], [ -89.5765619, 14.3745343 ], [ -89.57648, 14.37256 ], [ -89.57543, 14.3678 ], [ -89.56517, 14.35401 ], [ -89.56515, 14.35083 ], [ -89.5655562, 14.3484066 ], [ -89.58541, 14.3163 ], [ -89.58421, 14.3128401 ], [ -89.5607501, 14.3096085 ], [ -89.55654, 14.30806 ], [ -89.54733, 14.29844 ], [ -89.54193, 14.282 ], [ -89.51681, 14.23436 ], [ -89.5186437, 14.2268572 ], [ -89.52309, 14.22058 ], [ -89.527207, 14.2184449 ], [ -89.53142, 14.21626 ], [ -89.5944203, 14.19807 ], [ -89.6172, 14.20123 ], [ -89.6614382, 14.1836853 ], [ -89.6637401, 14.1815094 ], [ -89.67179, 14.1739 ], [ -89.6882508, 14.1553769 ], [ -89.69797, 14.14444 ], [ -89.7107041, 14.1279029 ], [ -89.74285, 14.05805 ], [ -89.7377013, 14.0329962 ], [ -89.7377, 14.03299 ], [ -89.7509409, 14.0323877 ], [ -89.75111, 14.03238 ], [ -89.7527558, 14.0328371 ], [ -89.75842, 14.03441 ], [ -89.7625818, 14.0342023 ], [ -89.76383, 14.03414 ], [ -89.77252, 14.03041 ], [ -89.7768945, 14.030964 ], [ -89.78671, 14.03998 ], [ -89.802681, 14.0498609 ], [ -89.8066849, 14.0523381 ], [ -89.8138, 14.05674 ], [ -89.82028, 14.0601 ], [ -89.82303, 14.06152 ], [ -89.8287624, 14.0607146 ], [ -89.83513, 14.05982 ], [ -89.84825, 14.05588 ], [ -89.85283, 14.05219 ], [ -89.858, 14.04442 ], [ -89.8609745, 14.043243 ], [ -89.86217, 14.04277 ], [ -89.89346, 14.03751 ], [ -89.8989441, 14.0329138 ], [ -89.90072, 14.03035 ], [ -89.90086, 14.0300379 ], [ -89.90897, 14.01196 ], [ -89.909944, 14.0115333 ], [ -89.92504, 14.00492 ], [ -89.92792, 14.00509 ], [ -89.9285989, 14.0037953 ], [ -89.92921, 14.00263 ], [ -89.93303, 13.9954 ], [ -89.93818, 13.99215 ], [ -89.9405767, 13.9873861 ], [ -89.94143, 13.98569 ], [ -89.9495571, 13.9815031 ], [ -89.9511657, 13.9806744 ], [ -89.95362, 13.97941 ], [ -89.959731, 13.9786779 ], [ -89.9618471, 13.9742634 ], [ -89.96437, 13.969 ], [ -89.9668553, 13.9670814 ], [ -89.9685819, 13.9657497 ], [ -89.9732802, 13.96503 ], [ -89.9752033, 13.964287 ], [ -89.97794, 13.95925 ], [ -89.99041, 13.95802 ], [ -89.99344, 13.95455 ], [ -89.9988797, 13.954351 ], [ -90.0, 13.95431 ], [ -90.000188, 13.9543022 ], [ -90.00097, 13.95427 ], [ -90.0022669, 13.9531465 ], [ -90.00658, 13.94941 ], [ -90.01076, 13.94134 ], [ -90.02106, 13.93529 ], [ -90.02671, 13.93571 ], [ -90.027, 13.93077 ], [ -90.0265417, 13.9255543 ], [ -90.0268465, 13.9222683 ], [ -90.02783, 13.91952 ], [ -90.03525, 13.91657 ], [ -90.0356736, 13.9160155 ], [ -90.03703, 13.91424 ], [ -90.0335734, 13.9040545 ], [ -90.03309, 13.90263 ], [ -90.0339333, 13.8996206 ], [ -90.0514592, 13.8889377 ], [ -90.0633606, 13.8870385 ], [ -90.0665806, 13.8785898 ], [ -90.0793605, 13.8750192 ], [ -90.0826, 13.87006 ], [ -90.08814, 13.85083 ], [ -90.10944, 13.83401 ], [ -90.11267, 13.82641 ], [ -90.1126014, 13.8256369 ], [ -90.11216, 13.82066 ], [ -90.1080372, 13.8134883 ], [ -90.1069, 13.81151 ], [ -90.10616, 13.80669 ], [ -90.1081815, 13.8050708 ], [ -90.11224, 13.80182 ], [ -90.1118801, 13.8000352 ], [ -90.1117171, 13.7979879 ], [ -90.1143, 13.79606 ], [ -90.1155106, 13.7806535 ], [ -90.1158, 13.77697 ], [ -90.10435, 13.77307 ], [ -90.09681, 13.76092 ], [ -90.0964094, 13.7586684 ], [ -90.09557, 13.75395 ], [ -90.097031, 13.7492237 ], [ -90.09791, 13.74638 ], [ -90.10144, 13.74054 ], [ -90.1041001, 13.7382 ], [ -90.1079624, 13.7373011 ], [ -90.1187127, 13.7424694 ], [ -90.1205586, 13.7420859 ], [ -90.12333, 13.74151 ], [ -90.1243227, 13.7409066 ], [ -90.3421, 13.8331099 ], [ -90.4084201, 13.86317 ], [ -90.53658, 13.90518 ], [ -90.6654245, 13.9268371 ], [ -90.7695525, 13.9240789 ], [ -90.7909606, 13.9171618 ], [ -90.9519699, 13.91353 ], [ -91.0882701, 13.9159201 ], [ -91.1874715, 13.9264215 ], [ -91.3053099, 13.9506299 ], [ -91.4818535, 14.0236516 ], [ -91.54368, 14.04595 ], [ -91.6142565, 14.0873639 ], [ -91.7540901, 14.1759401 ], [ -91.782482, 14.1877678 ], [ -91.8640699, 14.2555899 ], [ -91.9174802, 14.2929902 ], [ -91.999017, 14.3608471 ], [ -92.09872, 14.4385 ], [ -92.23132, 14.5333153 ], [ -92.2293617, 14.5329232 ], [ -92.22004, 14.53286 ], [ -92.1843457, 14.5782145 ], [ -92.1823, 14.58155 ], [ -92.18178, 14.5824 ], [ -92.17611, 14.59868 ], [ -92.1753952, 14.6053372 ], [ -92.17684, 14.62123 ], [ -92.17522, 14.62576 ], [ -92.1734163, 14.629774 ], [ -92.16176, 14.64194 ], [ -92.1609775, 14.6446042 ], [ -92.1576731, 14.6497842 ], [ -92.14999, 14.65973 ], [ -92.14952, 14.71654 ], [ -92.1678362, 14.742355 ], [ -92.16911, 14.74622 ], [ -92.16466, 14.75565 ], [ -92.16206, 14.7603 ], [ -92.16254, 14.77328 ], [ -92.1646056, 14.7792613 ], [ -92.1751167, 14.8026188 ], [ -92.17605, 14.80543 ], [ -92.17672, 14.8112 ], [ -92.1771555, 14.8129675 ], [ -92.1785914, 14.8187951 ], [ -92.17975, 14.82302 ], [ -92.1798884, 14.8235261 ], [ -92.1826, 14.83344 ], [ -92.1823299, 14.8345642 ], [ -92.18105, 14.83989 ], [ -92.1600663, 14.8577639 ], [ -92.1464892, 14.8719118 ], [ -92.14252, 14.87965 ], [ -92.14051, 14.88685 ], [ -92.14041, 14.89485 ], [ -92.1435809, 14.9095714 ], [ -92.14402, 14.91161 ], [ -92.14283, 14.91846 ], [ -92.1422482, 14.9210251 ], [ -92.14284, 14.93344 ], [ -92.14676, 14.9428 ], [ -92.1467274, 14.9446034 ], [ -92.1458401, 14.9682234 ], [ -92.14683, 14.97698 ], [ -92.1462157, 14.9826885 ], [ -92.13544, 15.0 ], [ -92.13178, 15.01167 ], [ -92.1218342, 15.0143999 ], [ -92.11738, 15.01303 ], [ -92.10744, 15.01248 ], [ -92.1052098, 15.0102382 ], [ -92.10361, 15.00863 ], [ -92.09328, 15.01268 ], [ -92.0871029, 15.0220215 ], [ -92.0821217, 15.0295543 ], [ -92.0778, 15.03609 ], [ -92.07628, 15.04461 ], [ -92.07352, 15.04947 ], [ -92.0710564, 15.0505968 ], [ -92.06836, 15.05183 ], [ -92.06403, 15.06522 ], [ -92.0613204, 15.0688697 ], [ -92.0606, 15.06984 ], [ -92.0599306, 15.0707508 ], [ -92.13886, 15.16961 ], [ -92.1403414, 15.1714638 ], [ -92.1698691, 15.2084129 ], [ -92.195184, 15.2391109 ], [ -92.21433, 15.26208 ], [ -92.1473631, 15.3680149 ], [ -92.1422092, 15.3764723 ], [ -92.1155428, 15.4201794 ], [ -92.1133396, 15.4237905 ], [ -92.0936431, 15.4563629 ], [ -92.07619, 15.4856 ], [ -91.9996083, 15.6137051 ], [ -91.9864018, 15.6357805 ], [ -91.9823375, 15.6425743 ], [ -91.9278325, 15.7354727 ], [ -91.88191, 15.81396 ], [ -91.8733658, 15.8285441 ], [ -91.8713663, 15.8319571 ], [ -91.8511381, 15.8664848 ], [ -91.77104, 16.0 ], [ -91.72518, 16.08009 ], [ -91.4971827, 16.0779461 ], [ -91.48049, 16.0777892 ], [ -91.4223024, 16.0772421 ], [ -91.3289701, 16.0763645 ], [ -91.1074492, 16.0742815 ], [ -91.0593405, 16.0738291 ], [ -90.44367, 16.06804 ], [ -90.4422444, 16.0680211 ], [ -90.44141, 16.06801 ], [ -90.4404746, 16.0721304 ], [ -90.44463, 16.07572 ], [ -90.4449039, 16.0779538 ], [ -90.42558, 16.10118 ], [ -90.4299993, 16.099721 ], [ -90.43288, 16.09877 ], [ -90.44171, 16.08912 ], [ -90.451, 16.09033 ], [ -90.4548365, 16.0999054 ], [ -90.45083, 16.12312 ], [ -90.4450727, 16.1240396 ], [ -90.4385, 16.12197 ], [ -90.43194, 16.1172 ], [ -90.42901, 16.13529 ], [ -90.44348, 16.13672 ], [ -90.44726, 16.14018 ], [ -90.4486398, 16.1448966 ], [ -90.42912, 16.17291 ], [ -90.4408352, 16.1767267 ], [ -90.44548, 16.17824 ], [ -90.44903, 16.18284 ], [ -90.44986, 16.22023 ], [ -90.4263317, 16.2288599 ], [ -90.43319, 16.23439 ], [ -90.43626, 16.23968 ], [ -90.43911, 16.24015 ], [ -90.45121, 16.23973 ], [ -90.4507454, 16.245276 ], [ -90.44213, 16.25943 ], [ -90.43691, 16.2617 ], [ -90.43192, 16.26007 ], [ -90.4245073, 16.2541892 ], [ -90.42336, 16.26578 ], [ -90.4340204, 16.2715508 ], [ -90.4343842, 16.2723024 ], [ -90.4378, 16.27936 ], [ -90.43207, 16.28783 ], [ -90.43633, 16.29312 ], [ -90.4326868, 16.3025408 ], [ -90.43059, 16.30388 ], [ -90.4085, 16.30517 ], [ -90.3981678, 16.3343982 ], [ -90.3956, 16.33916 ], [ -90.3957774, 16.3446287 ], [ -90.39675, 16.34597 ], [ -90.4004918, 16.3527908 ], [ -90.4015657, 16.352551 ], [ -90.40638, 16.34118 ], [ -90.40987, 16.34758 ], [ -90.3959941, 16.3720794 ], [ -90.3947212, 16.3727894 ], [ -90.3762947, 16.3621267 ], [ -90.3741, 16.35802 ], [ -90.36884, 16.36718 ], [ -90.37192, 16.36972 ], [ -90.3796319, 16.3733078 ], [ -90.38256, 16.37467 ], [ -90.38557, 16.40808 ], [ -90.3889769, 16.4091245 ], [ -90.40769, 16.40198 ], [ -90.41121, 16.41438 ], [ -90.41429, 16.41806 ], [ -90.4201052, 16.4180134 ], [ -90.48393, 16.42061 ], [ -90.4837696, 16.4234354 ], [ -90.47526, 16.45591 ], [ -90.48479, 16.44883 ], [ -90.49334, 16.45138 ], [ -90.49499, 16.45758 ], [ -90.49806, 16.46241 ], [ -90.5021, 16.46426 ], [ -90.52068, 16.4517 ], [ -90.542991, 16.4630123 ], [ -90.54488, 16.46715 ], [ -90.54307, 16.47633 ], [ -90.5577232, 16.4712356 ], [ -90.5897635, 16.4678408 ], [ -90.59147, 16.47027 ], [ -90.59287, 16.48404 ], [ -90.5982473, 16.4827799 ], [ -90.62638, 16.47325 ], [ -90.63094, 16.47657 ], [ -90.63234, 16.48644 ], [ -90.62758, 16.48826 ], [ -90.6270744, 16.4882851 ], [ -90.61426, 16.48892 ], [ -90.6104, 16.51621 ], [ -90.61563, 16.51599 ], [ -90.64299, 16.51239 ], [ -90.64201, 16.52501 ], [ -90.64529, 16.55232 ], [ -90.62716, 16.57705 ], [ -90.6361765, 16.5862465 ], [ -90.6658161, 16.5786788 ], [ -90.66712, 16.58128 ], [ -90.6642556, 16.5888381 ], [ -90.672828, 16.5858606 ], [ -90.66787, 16.59254 ], [ -90.65259, 16.59111 ], [ -90.65863, 16.63866 ], [ -90.66537, 16.6455791 ], [ -90.67293, 16.65334 ], [ -90.6778663, 16.6734149 ], [ -90.68027, 16.68319 ], [ -90.68431, 16.68343 ], [ -90.70618, 16.70252 ], [ -90.70545, 16.71239 ], [ -90.7121, 16.72135 ], [ -90.74851, 16.74162 ], [ -90.7535, 16.75173 ], [ -90.75731, 16.75495 ], [ -90.7669743, 16.757651 ], [ -90.7994112, 16.773052 ], [ -90.80039, 16.77705 ], [ -90.79895, 16.79082 ], [ -90.8016999, 16.791816 ], [ -90.853503, 16.7957633 ], [ -90.85612, 16.80352 ], [ -90.86778, 16.81294 ], [ -90.91972, 16.81576 ], [ -90.92258, 16.82425 ], [ -90.92811, 16.83389 ], [ -90.92997, 16.83711 ], [ -90.9308199, 16.8501748 ], [ -90.9333, 16.85272 ], [ -90.964685, 16.8521863 ], [ -90.96786, 16.85481 ], [ -90.96905, 16.85894 ], [ -90.9673, 16.86474 ], [ -90.9557018, 16.8903708 ], [ -90.96214, 16.89313 ], [ -90.9781132, 16.8802957 ], [ -90.97286, 16.86629 ], [ -90.9740878, 16.8620205 ], [ -90.98692, 16.85735 ], [ -90.989101, 16.8659279 ], [ -90.98931, 16.86675 ], [ -90.99837, 16.87502 ], [ -91.06679, 16.90189 ], [ -91.0698798, 16.9084766 ], [ -91.06251, 16.91911 ], [ -91.07205, 16.92852 ], [ -91.08995, 16.94412 ], [ -91.0930235, 16.9500295 ], [ -91.09616, 16.95606 ], [ -91.1015378, 16.9625218 ], [ -91.11787, 16.97143 ], [ -91.1190035, 16.9764877 ], [ -91.12103, 16.98553 ], [ -91.12363, 16.99714 ], [ -91.12355, 16.99876 ], [ -91.1233901, 17.0021879 ], [ -91.17207, 17.01984 ], [ -91.2127714, 17.0598564 ], [ -91.217, 17.06457 ], [ -91.22274, 17.07582 ], [ -91.22611, 17.09349 ], [ -91.26961, 17.1265 ], [ -91.27632, 17.14004 ], [ -91.28332, 17.1763 ], [ -91.2924, 17.17927 ], [ -91.3237523, 17.1820879 ], [ -91.32751, 17.17991 ], [ -91.33751, 17.16773 ], [ -91.3617, 17.19869 ], [ -91.3849, 17.21312 ], [ -91.41547, 17.21145 ], [ -91.43755, 17.25004 ], [ -91.4122224, 17.2517346 ], [ -90.99025, 17.2585 ], [ -90.9899719, 17.2764628 ], [ -90.984389, 17.6370338 ], [ -90.98163, 17.81522 ], [ -90.66995, 17.81425 ], [ -90.32925, 17.81319 ], [ -89.916051, 17.8118969 ], [ -89.9100768, 17.8118782 ], [ -89.7018549, 17.8112256 ], [ -89.2114, 17.8097 ], [ -89.1544371, 17.8095232 ], [ -89.14696, 17.8094997 ], [ -89.1464528, 17.5008871 ], [ -89.14571, 17.04897 ] ] ] ] } }
]
}
