{
"type": "FeatureCollection",
"name": "GUY_GAUL2014_ADM2",
"crs": { "type": "name", "properties": { "name": "urn:ogc:def:crs:OGC:1.3:CRS84" } },
"features": [
{ "type": "Feature", "properties": { "POLYGON_ID": "GUY_GAUL2014_ADM2_17142", "ADM0_ISO3": "GUY", "ADM0_NAME": "Guyana", "ADM0_CODE": 107, "ADM1_NAME": "Cuyuni\/mazaruni (region N°7)", "ADM1_CODE": 1399, "ADM2_NAME": "Cuyuni", "ADM2_CODE": 17142, "GEOSET": "GAUL", "GEOSET_YEAR": 2014.0, "GEOSET_VERSION": "GAUL_v1", "GEOSET_UNIT": "ADM2", "CENTROID_LONG": -59.997606316093332, "CENTROID_LAT": 6.6827957817676706 }, "geometry": { "type": "MultiPolygon", "coordinates": [ [ [ [ -59.1487312, 7.0196404 ], [ -59.1772919, 6.9068351 ], [ -59.0376053, 6.8676605 ], [ -58.9790268, 6.9062433 ], [ -58.9479065, 6.8897729 ], [ -58.9357948, 6.8091249 ], [ -58.8172455, 6.7530613 ], [ -58.806736, 6.6747499 ], [ -58.8324165, 6.5998921 ], [ -58.7784424, 6.5637369 ], [ -58.7318916, 6.5704756 ], [ -58.6587219, 6.5160518 ], [ -58.5982855, 6.5179247 ], [ -58.585903, 6.5108475 ], [ -58.6145172, 6.41889 ], [ -58.6979523, 6.3646431 ], [ -58.7674217, 6.3601227 ], [ -58.8794365, 6.3812151 ], [ -58.9620361, 6.3548732 ], [ -59.0291901, 6.3543 ], [ -59.080101, 6.4188523 ], [ -59.137989, 6.3781695 ], [ -59.2030907, 6.3761892 ], [ -59.269825, 6.5076694 ], [ -59.3408432, 6.5867686 ], [ -59.3936043, 6.5740085 ], [ -59.4358025, 6.4969101 ], [ -59.4828682, 6.4752684 ], [ -59.5263367, 6.497859 ], [ -59.5582466, 6.5539255 ], [ -59.6075974, 6.6021671 ], [ -59.6919975, 6.6554871 ], [ -59.7372208, 6.703938 ], [ -59.796402, 6.6900477 ], [ -59.8749428, 6.645051 ], [ -59.9191208, 6.6625218 ], [ -60.1334152, 6.5979867 ], [ -60.2733498, 6.632504 ], [ -60.3794212, 6.6486754 ], [ -60.4670639, 6.6232905 ], [ -60.5816612, 6.6234369 ], [ -60.6750679, 6.5878363 ], [ -60.7499084, 6.4810991 ], [ -60.7855873, 6.3643732 ], [ -60.7906914, 6.206028 ], [ -60.8113213, 6.1369648 ], [ -60.9271812, 6.1005521 ], [ -61.011055, 6.0371852 ], [ -61.0566635, 5.9670911 ], [ -61.0975647, 5.9368 ], [ -61.1753654, 5.9749446 ], [ -61.2642364, 5.9945178 ], [ -61.3961691, 5.9610521 ], [ -61.33691, 5.99926 ], [ -61.32901, 6.03513 ], [ -61.26331, 6.11847 ], [ -61.19754, 6.14131 ], [ -61.16915, 6.18839 ], [ -61.11535, 6.19859 ], [ -61.12458, 6.27131 ], [ -61.1704, 6.32619 ], [ -61.14297, 6.43836 ], [ -61.1651, 6.50145 ], [ -61.20781, 6.52042 ], [ -61.21362, 6.5876 ], [ -61.1669, 6.69096 ], [ -61.12333, 6.73108 ], [ -61.06603, 6.74793 ], [ -60.94787, 6.73608 ], [ -60.92677, 6.79396 ], [ -60.89032, 6.83225 ], [ -60.83269, 6.79988 ], [ -60.7947, 6.81631 ], [ -60.70698, 6.77417 ], [ -60.65917, 6.84 ], [ -60.49061, 6.89943 ], [ -60.44259, 6.9496 ], [ -60.36956, 6.98382 ], [ -60.28549, 7.075 ], [ -60.27567, 7.11679 ], [ -60.3146933, 7.1442798 ], [ -60.3023376, 7.1785374 ], [ -60.2344894, 7.1614513 ], [ -60.2121696, 7.1177793 ], [ -60.1662865, 7.12848 ], [ -60.1059036, 7.0908937 ], [ -60.0604973, 7.0995021 ], [ -60.0337448, 7.1468711 ], [ -59.9446106, 7.1405721 ], [ -59.8988419, 7.1876073 ], [ -59.8907013, 7.2250614 ], [ -59.7962914, 7.2175703 ], [ -59.7217369, 7.1629057 ], [ -59.6647568, 7.1379142 ], [ -59.5802193, 7.1248865 ], [ -59.4819641, 7.0312014 ], [ -59.342083, 6.9817781 ], [ -59.2581787, 7.0523643 ], [ -59.1487312, 7.0196404 ] ] ] ] } },
{ "type": "Feature", "properties": { "POLYGON_ID": "GUY_GAUL2014_ADM2_17145", "ADM0_ISO3": "GUY", "ADM0_NAME": "Guyana", "ADM0_CODE": 107, "ADM1_NAME": "Demerara Mahaica (region N°4)", "ADM1_CODE": 1400, "ADM2_NAME": "Moblissa\/la Reconnaissance", "ADM2_CODE": 17145, "GEOSET": "GAUL", "GEOSET_YEAR": 2014.0, "GEOSET_VERSION": "GAUL_v1", "GEOSET_UNIT": "ADM2", "CENTROID_LONG": -58.196354251024871, "CENTROID_LAT": 6.4675254255664525 }, "geometry": { "type": "MultiPolygon", "coordinates": [ [ [ [ -58.0218024, 6.7987585 ], [ -58.0494308, 6.7412777 ], [ -58.113121, 6.7511663 ], [ -58.1698952, 6.6324553 ], [ -58.1204147, 6.624506 ], [ -58.1442146, 6.4977016 ], [ -58.1767464, 6.4310317 ], [ -58.1924133, 6.3353934 ], [ -58.148056, 6.3018513 ], [ -58.1800842, 6.2491531 ], [ -58.1555862, 6.171699 ], [ -58.1576347, 6.1038752 ], [ -58.2123146, 6.138464 ], [ -58.2717438, 6.1161895 ], [ -58.2481766, 6.175221 ], [ -58.2828064, 6.2399201 ], [ -58.2542152, 6.2900739 ], [ -58.2957649, 6.341301 ], [ -58.3054657, 6.3900304 ], [ -58.2851639, 6.4297476 ], [ -58.3018951, 6.4985433 ], [ -58.2296924, 6.5788584 ], [ -58.1881712, 6.6675146 ], [ -58.189519, 6.7461419 ], [ -58.1658719, 6.8253115 ], [ -58.0914514, 6.823464 ], [ -58.0218024, 6.7987585 ] ] ] ] } },
{ "type": "Feature", "properties": { "POLYGON_ID": "GUY_GAUL2014_ADM2_17146", "ADM0_ISO3": "GUY", "ADM0_NAME": "Guyana", "ADM0_CODE": 107, "ADM1_NAME": "East Berbice\/corentyne (region N°6)", "ADM1_CODE": 1401, "ADM2_NAME": "Black Bush Polder Frontlands And Extension", "ADM2_CODE": 17146, "GEOSET": "GAUL", "GEOSET_YEAR": 2014.0, "GEOSET_VERSION": "GAUL_v1", "GEOSET_UNIT": "ADM2", "CENTROID_LONG": -57.265263597139892, "CENTROID_LAT": 6.0392032156923658 }, "geometry": { "type": "MultiPolygon", "coordinates": [ [ [ [ -57.1413912, 5.9281872 ], [ -57.2423096, 5.9243736 ], [ -57.3236504, 5.9329596 ], [ -57.3581505, 5.9652834 ], [ -57.3987541, 6.0274515 ], [ -57.3996849, 6.0942998 ], [ -57.3620605, 6.1013193 ], [ -57.2719688, 6.1783948 ], [ -57.26496, 6.2084951 ], [ -57.1756725, 6.1083301 ], [ -57.1434511, 5.9889399 ], [ -57.1413912, 5.9281872 ] ] ] ] } },
{ "type": "Feature", "properties": { "POLYGON_ID": "GUY_GAUL2014_ADM2_17147", "ADM0_ISO3": "GUY", "ADM0_NAME": "Guyana", "ADM0_CODE": 107, "ADM1_NAME": "East Berbice\/corentyne (region N°6)", "ADM1_CODE": 1401, "ADM2_NAME": "East Berbice\/west Canje", "ADM2_CODE": 17147, "GEOSET": "GAUL", "GEOSET_YEAR": 2014.0, "GEOSET_VERSION": "GAUL_v1", "GEOSET_UNIT": "ADM2", "CENTROID_LONG": -57.528023029998913, "CENTROID_LAT": 6.012867507068246 }, "geometry": { "type": "MultiPolygon", "coordinates": [ [ [ [ -57.4922329, 6.317478 ], [ -57.4988251, 6.2674093 ], [ -57.4400749, 6.2200503 ], [ -57.4578743, 6.1728659 ], [ -57.3996849, 6.0942998 ], [ -57.3987541, 6.0274515 ], [ -57.3581505, 5.9652834 ], [ -57.3773308, 5.9178743 ], [ -57.453743, 5.8935947 ], [ -57.4401436, 5.8462424 ], [ -57.5892334, 5.8146648 ], [ -57.6627274, 5.8397446 ], [ -57.6836777, 5.8815455 ], [ -57.6625557, 5.8919144 ], [ -57.6703377, 5.9671831 ], [ -57.7043762, 6.0011353 ], [ -57.6801567, 6.0480528 ], [ -57.6419754, 6.0161738 ], [ -57.6003532, 6.0599704 ], [ -57.6186829, 6.1998096 ], [ -57.5346501, 6.2088789 ], [ -57.5255225, 6.2123437 ], [ -57.5180798, 6.2557801 ], [ -57.4922329, 6.317478 ] ] ] ] } },
{ "type": "Feature", "properties": { "POLYGON_ID": "GUY_GAUL2014_ADM2_17148", "ADM0_ISO3": "GUY", "ADM0_NAME": "Guyana", "ADM0_CODE": 107, "ADM1_NAME": "East Berbice\/corentyne (region N°6)", "ADM1_CODE": 1401, "ADM2_NAME": "East Canje\/east Coast Berbice", "ADM2_CODE": 17148, "GEOSET": "GAUL", "GEOSET_YEAR": 2014.0, "GEOSET_VERSION": "GAUL_v1", "GEOSET_UNIT": "ADM2", "CENTROID_LONG": -57.386285305318403, "CENTROID_LAT": 6.2104803469676231 }, "geometry": { "type": "MultiPolygon", "coordinates": [ [ [ [ -57.26496, 6.2084951 ], [ -57.2719688, 6.1783948 ], [ -57.3620605, 6.1013193 ], [ -57.3996849, 6.0942998 ], [ -57.4578743, 6.1728659 ], [ -57.4400749, 6.2200503 ], [ -57.4988251, 6.2674093 ], [ -57.4922329, 6.317478 ], [ -57.4123699, 6.312373 ], [ -57.26496, 6.2084951 ] ] ] ] } },
{ "type": "Feature", "properties": { "POLYGON_ID": "GUY_GAUL2014_ADM2_17149", "ADM0_ISO3": "GUY", "ADM0_NAME": "Guyana", "ADM0_CODE": 107, "ADM1_NAME": "East Berbice\/corentyne (region N°6)", "ADM1_CODE": 1401, "ADM2_NAME": "Left Bank Upper Canje\/ikuruwa\/corentyne", "ADM2_CODE": 17149, "GEOSET": "GAUL", "GEOSET_YEAR": 2014.0, "GEOSET_VERSION": "GAUL_v1", "GEOSET_UNIT": "ADM2", "CENTROID_LONG": -57.571854924786777, "CENTROID_LAT": 5.4196302391470477 }, "geometry": { "type": "MultiPolygon", "coordinates": [ [ [ [ -57.2928696, 5.6030049 ], [ -57.3460388, 5.5345831 ], [ -57.4524651, 5.3730512 ], [ -57.4995422, 5.1324825 ], [ -57.6343384, 5.0570421 ], [ -57.7200165, 5.0710073 ], [ -57.8633919, 5.0361385 ], [ -57.8090515, 5.1823449 ], [ -57.7539978, 5.2649641 ], [ -57.7451057, 5.3187165 ], [ -57.701889, 5.3580804 ], [ -57.6757469, 5.4315381 ], [ -57.6489563, 5.6347175 ], [ -57.5892334, 5.8146648 ], [ -57.4401436, 5.8462424 ], [ -57.442894, 5.7745228 ], [ -57.4104424, 5.745471 ], [ -57.4196854, 5.654222 ], [ -57.2928696, 5.6030049 ] ] ] ] } },
{ "type": "Feature", "properties": { "POLYGON_ID": "GUY_GAUL2014_ADM2_17150", "ADM0_ISO3": "GUY", "ADM0_NAME": "Guyana", "ADM0_CODE": 107, "ADM1_NAME": "East Berbice\/corentyne (region N°6)", "ADM1_CODE": 1401, "ADM2_NAME": "Lower Corentyne River\/canje", "ADM2_CODE": 17150, "GEOSET": "GAUL", "GEOSET_YEAR": 2014.0, "GEOSET_VERSION": "GAUL_v1", "GEOSET_UNIT": "ADM2", "CENTROID_LONG": -57.279143729225765, "CENTROID_LAT": 5.7695639402296104 }, "geometry": { "type": "MultiPolygon", "coordinates": [ [ [ [ -57.1413912, 5.9281872 ], [ -57.1340043, 5.8373791 ], [ -57.1373021, 5.7005721 ], [ -57.1615687, 5.6051236 ], [ -57.1931734, 5.5559608 ], [ -57.2928696, 5.6030049 ], [ -57.4196854, 5.654222 ], [ -57.4104424, 5.745471 ], [ -57.442894, 5.7745228 ], [ -57.4401436, 5.8462424 ], [ -57.453743, 5.8935947 ], [ -57.3773308, 5.9178743 ], [ -57.3581505, 5.9652834 ], [ -57.3236504, 5.9329596 ], [ -57.2423096, 5.9243736 ], [ -57.1413912, 5.9281872 ] ] ] ] } },
{ "type": "Feature", "properties": { "POLYGON_ID": "GUY_GAUL2014_ADM2_17151", "ADM0_ISO3": "GUY", "ADM0_NAME": "Guyana", "ADM0_CODE": 107, "ADM1_NAME": "East Berbice\/corentyne (region N°6)", "ADM1_CODE": 1401, "ADM2_NAME": "Upper Canje\/corentyne", "ADM2_CODE": 17151, "GEOSET": "GAUL", "GEOSET_YEAR": 2014.0, "GEOSET_VERSION": "GAUL_v1", "GEOSET_UNIT": "ADM2", "CENTROID_LONG": -57.565167016730427, "CENTROID_LAT": 5.0952650331045559 }, "geometry": { "type": "MultiPolygon", "coordinates": [ [ [ [ -57.1931734, 5.5559608 ], [ -57.2609531, 5.4826424 ], [ -57.2731949, 5.3818711 ], [ -57.3238041, 5.3479616 ], [ -57.2565194, 5.2788118 ], [ -57.2262625, 5.2657151 ], [ -57.1799348, 5.1948455 ], [ -57.1799348, 5.1607053 ], [ -57.2352972, 5.1514783 ], [ -57.2980412, 5.1671643 ], [ -57.3220316, 5.0665893 ], [ -57.2842006, 5.0333719 ], [ -57.3820075, 5.0149177 ], [ -57.4133539, 4.9890784 ], [ -57.4766547, 4.9884517 ], [ -57.52178, 5.0091341 ], [ -57.6251922, 4.9940923 ], [ -57.6721978, 5.0091341 ], [ -57.7342451, 4.9709029 ], [ -57.7618217, 4.9213904 ], [ -57.8376574, 4.9238974 ], [ -57.8840362, 4.8793988 ], [ -57.9232858, 4.805365 ], [ -57.8872482, 4.7779451 ], [ -57.828132, 4.6701072 ], [ -57.8433162, 4.6193433 ], [ -57.881752, 4.6060677 ], [ -58.0530052, 4.6645083 ], [ -58.0347862, 4.7007437 ], [ -58.0065918, 4.8412657 ], [ -57.9602013, 4.9369736 ], [ -57.9073601, 4.9776831 ], [ -57.8633919, 5.0361385 ], [ -57.7200165, 5.0710073 ], [ -57.6343384, 5.0570421 ], [ -57.4995422, 5.1324825 ], [ -57.4524651, 5.3730512 ], [ -57.3460388, 5.5345831 ], [ -57.2928696, 5.6030049 ], [ -57.1931734, 5.5559608 ] ] ] ] } },
{ "type": "Feature", "properties": { "POLYGON_ID": "GUY_GAUL2014_ADM2_17152", "ADM0_ISO3": "GUY", "ADM0_NAME": "Guyana", "ADM0_CODE": 107, "ADM1_NAME": "East Berbice\/corentyne (region N°6)", "ADM1_CODE": 1401, "ADM2_NAME": "Upper Corentyne", "ADM2_CODE": 17152, "GEOSET": "GAUL", "GEOSET_YEAR": 2014.0, "GEOSET_VERSION": "GAUL_v1", "GEOSET_UNIT": "ADM2", "CENTROID_LONG": -57.705011157214287, "CENTROID_LAT": 2.7776733881264324 }, "geometry": { "type": "MultiPolygon", "coordinates": [ [ [ [ -57.8433162, 4.6193433 ], [ -57.8880316, 4.5358665 ], [ -57.9201521, 4.4449891 ], [ -57.9608903, 4.3956333 ], [ -57.947572, 4.3133736 ], [ -58.0144881, 4.2415166 ], [ -58.0498701, 4.1509802 ], [ -58.0231601, 4.1076199 ], [ -58.0280165, 3.9837827 ], [ -57.9895125, 3.9813546 ], [ -57.9322768, 3.9144062 ], [ -57.8913447, 3.8429483 ], [ -57.8535344, 3.8165852 ], [ -57.8365372, 3.6826885 ], [ -57.760223, 3.6230247 ], [ -57.7179033, 3.6074149 ], [ -57.6860596, 3.5635628 ], [ -57.647833, 3.5515668 ], [ -57.641936, 3.4804558 ], [ -57.677318, 3.3937351 ], [ -57.5669393, 3.3560736 ], [ -57.5136997, 3.370416 ], [ -57.4846667, 3.3410639 ], [ -57.4033105, 3.3675446 ], [ -57.3423731, 3.3685017 ], [ -57.3040878, 3.3895586 ], [ -57.2817547, 3.3286212 ], [ -57.2790229, 3.257166 ], [ -57.3018656, 3.1770508 ], [ -57.2343305, 3.1340136 ], [ -57.1912933, 3.0247656 ], [ -57.2224125, 2.9708037 ], [ -57.1813617, 2.954582 ], [ -57.213474, 2.9072411 ], [ -57.2032113, 2.8390439 ], [ -57.1512357, 2.8185185 ], [ -57.1330976, 2.7761552 ], [ -57.0856869, 2.7592597 ], [ -57.0899906, 2.7195331 ], [ -57.0178207, 2.6467011 ], [ -57.0194759, 2.5708895 ], [ -56.9870326, 2.5563231 ], [ -56.9856287, 2.500007 ], [ -56.9427142, 2.507045 ], [ -56.9318997, 2.3995871 ], [ -56.8824622, 2.3666288 ], [ -56.8736246, 2.2897277 ], [ -56.8044653, 2.2623218 ], [ -56.8069266, 2.1949441 ], [ -56.6859934, 2.0451136 ], [ -56.6830873, 2.0143702 ], [ -56.6063844, 2.0280231 ], [ -56.5307492, 2.0147322 ], [ -56.4773672, 1.9459424 ], [ -56.51218, 1.92362 ], [ -56.591671, 1.9150008 ], [ -56.62896, 1.93979 ], [ -56.67598, 1.91328 ], [ -56.72351, 1.91964 ], [ -56.80017, 1.86387 ], [ -56.9145, 1.91795 ], [ -56.98623, 1.91069 ], [ -57.06013, 1.95792 ], [ -57.08129, 2.01928 ], [ -57.1224, 2.01414 ], [ -57.25385, 1.94511 ], [ -57.3024, 1.99008 ], [ -57.35625, 1.96374 ], [ -57.3767108, 1.9259796 ], [ -57.42372, 1.90448 ], [ -57.45302, 1.83934 ], [ -57.54468, 1.70069 ], [ -57.63966, 1.68964 ], [ -57.7704, 1.71825 ], [ -57.81733, 1.67857 ], [ -57.93301, 1.6449 ], [ -58.0, 1.6653 ], [ -58.00851, 1.50067 ], [ -58.14214, 1.508 ], [ -58.17677, 1.56113 ], [ -58.23533, 1.55162 ], [ -58.31918, 1.59195 ], [ -58.37636, 1.54445 ], [ -58.39009, 1.46587 ], [ -58.4815, 1.46344 ], [ -58.5015382, 1.4488955 ], [ -58.5006523, 1.4995841 ], [ -58.4290619, 1.5937604 ], [ -58.3498688, 1.7677811 ], [ -58.2923088, 1.8496892 ], [ -58.224369, 2.0181804 ], [ -58.1814499, 2.1746943 ], [ -58.1067848, 2.3671389 ], [ -58.0452156, 2.4820979 ], [ -58.0227242, 2.5606983 ], [ -58.0460434, 2.7187297 ], [ -58.0233955, 2.7768354 ], [ -57.9368439, 2.8914266 ], [ -57.9303246, 2.9205048 ], [ -57.9692039, 3.018997 ], [ -58.1173859, 3.2629375 ], [ -58.1290054, 3.4239352 ], [ -58.1553841, 3.561022 ], [ -58.1861076, 3.626632 ], [ -58.2509193, 3.7126858 ], [ -58.3172188, 3.8378756 ], [ -58.3463898, 3.9584413 ], [ -58.3387604, 4.048068 ], [ -58.3642578, 4.1728067 ], [ -58.4282379, 4.2684388 ], [ -58.3812599, 4.3767633 ], [ -58.370697, 4.452632 ], [ -58.2796898, 4.5974774 ], [ -58.2738304, 4.6370401 ], [ -58.2371178, 4.6498861 ], [ -58.0886154, 4.6395445 ], [ -58.0530052, 4.6645083 ], [ -57.881752, 4.6060677 ], [ -57.8433162, 4.6193433 ] ] ] ] } },
{ "type": "Feature", "properties": { "POLYGON_ID": "GUY_GAUL2014_ADM2_17153", "ADM0_ISO3": "GUY", "ADM0_NAME": "Guyana", "ADM0_CODE": 107, "ADM1_NAME": "Essequibo Islands\/west Demerara (region N°3)", "ADM1_CODE": 1402, "ADM2_NAME": "Bonasika\/boerasirie", "ADM2_CODE": 17153, "GEOSET": "GAUL", "GEOSET_YEAR": 2014.0, "GEOSET_VERSION": "GAUL_v1", "GEOSET_UNIT": "ADM2", "CENTROID_LONG": -58.438749773914481, "CENTROID_LAT": 6.6536466517008312 }, "geometry": { "type": "MultiPolygon", "coordinates": [ [ [ [ -58.3316479, 6.8947382 ], [ -58.2703986, 6.8684458 ], [ -58.2885246, 6.8040395 ], [ -58.2910843, 6.720674 ], [ -58.396019, 6.6648722 ], [ -58.406208, 6.6325526 ], [ -58.4721298, 6.5907502 ], [ -58.4092293, 6.4092164 ], [ -58.4248276, 6.3380313 ], [ -58.5156288, 6.3941793 ], [ -58.5513077, 6.4889274 ], [ -58.5735205, 6.5037703 ], [ -58.563858, 6.640471 ], [ -58.496212, 6.7490001 ], [ -58.4732552, 6.811151 ], [ -58.4123535, 6.871654 ], [ -58.3316479, 6.8947382 ] ] ] ] } },
{ "type": "Feature", "properties": { "POLYGON_ID": "GUY_GAUL2014_ADM2_17154", "ADM0_ISO3": "GUY", "ADM0_NAME": "Guyana", "ADM0_CODE": 107, "ADM1_NAME": "Essequibo Islands\/west Demerara (region N°3)", "ADM1_CODE": 1402, "ADM2_NAME": "Essequibo Islands\/left Bank Essequibo River", "ADM2_CODE": 17154, "GEOSET": "GAUL", "GEOSET_YEAR": 2014.0, "GEOSET_VERSION": "GAUL_v1", "GEOSET_UNIT": "ADM2", "CENTROID_LONG": -58.594855849594396, "CENTROID_LAT": 6.7830869000038563 }, "geometry": { "type": "MultiPolygon", "coordinates": [ [ [ [ -58.5735205, 6.5037703 ], [ -58.5982855, 6.5179247 ], [ -58.6587219, 6.5160518 ], [ -58.7318916, 6.5704756 ], [ -58.7784424, 6.5637369 ], [ -58.8324165, 6.5998921 ], [ -58.806736, 6.6747499 ], [ -58.8172455, 6.7530613 ], [ -58.7407608, 6.8015623 ], [ -58.7148819, 6.8645415 ], [ -58.6520424, 6.8770156 ], [ -58.6199608, 6.9453173 ], [ -58.5561104, 6.9855008 ], [ -58.479496, 7.012125 ], [ -58.4696705, 7.1059764 ], [ -58.3317264, 6.9553965 ], [ -58.3316479, 6.8947382 ], [ -58.4123535, 6.871654 ], [ -58.4732552, 6.811151 ], [ -58.496212, 6.7490001 ], [ -58.563858, 6.640471 ], [ -58.5735205, 6.5037703 ] ] ] ] } },
{ "type": "Feature", "properties": { "POLYGON_ID": "GUY_GAUL2014_ADM2_17155", "ADM0_ISO3": "GUY", "ADM0_NAME": "Guyana", "ADM0_CODE": 107, "ADM1_NAME": "Essequibo Islands\/west Demerara (region N°3)", "ADM1_CODE": 1402, "ADM2_NAME": "Lower West Demerara River", "ADM2_CODE": 17155, "GEOSET": "GAUL", "GEOSET_YEAR": 2014.0, "GEOSET_VERSION": "GAUL_v1", "GEOSET_UNIT": "ADM2", "CENTROID_LONG": -58.322220926814332, "CENTROID_LAT": 6.4976509041973047 }, "geometry": { "type": "MultiPolygon", "coordinates": [ [ [ [ -58.2703986, 6.8684458 ], [ -58.1788591, 6.8135445 ], [ -58.1931424, 6.7755502 ], [ -58.1922401, 6.683133 ], [ -58.2296924, 6.5788584 ], [ -58.3018951, 6.4985433 ], [ -58.2851639, 6.4297476 ], [ -58.3054657, 6.3900304 ], [ -58.2957649, 6.341301 ], [ -58.2542152, 6.2900739 ], [ -58.2828064, 6.2399201 ], [ -58.2481766, 6.175221 ], [ -58.2717438, 6.1161895 ], [ -58.3663177, 6.146739 ], [ -58.3976898, 6.2929358 ], [ -58.4248276, 6.3380313 ], [ -58.4092293, 6.4092164 ], [ -58.4721298, 6.5907502 ], [ -58.406208, 6.6325526 ], [ -58.396019, 6.6648722 ], [ -58.2910843, 6.720674 ], [ -58.2885246, 6.8040395 ], [ -58.2703986, 6.8684458 ] ] ] ] } },
{ "type": "Feature", "properties": { "POLYGON_ID": "GUY_GAUL2014_ADM2_17158", "ADM0_ISO3": "GUY", "ADM0_NAME": "Guyana", "ADM0_CODE": 107, "ADM1_NAME": "Pomeroon\/supenaam (region N°2", "ADM1_CODE": 1404, "ADM2_NAME": "Moruka\/pomeroon", "ADM2_CODE": 17158, "GEOSET": "GAUL", "GEOSET_YEAR": 2014.0, "GEOSET_VERSION": "GAUL_v1", "GEOSET_UNIT": "ADM2", "CENTROID_LONG": -58.90724852305528, "CENTROID_LAT": 7.2911142203931201 }, "geometry": { "type": "MultiPolygon", "coordinates": [ [ [ [ -58.5625004, 7.4438857 ], [ -58.5911903, 7.4025831 ], [ -58.5906906, 7.3452864 ], [ -58.6431541, 7.2826834 ], [ -58.7140121, 7.2725797 ], [ -58.7487526, 7.2322416 ], [ -58.7468338, 7.1893768 ], [ -58.8102226, 7.1480265 ], [ -58.8568649, 7.0457973 ], [ -58.9384575, 6.9770608 ], [ -58.9479065, 6.8897729 ], [ -58.9790268, 6.9062433 ], [ -59.0376053, 6.8676605 ], [ -59.1772919, 6.9068351 ], [ -59.1487312, 7.0196404 ], [ -59.1648102, 7.0781851 ], [ -59.1669807, 7.1871943 ], [ -59.1133308, 7.3317728 ], [ -59.0732269, 7.3991013 ], [ -59.0871277, 7.4946642 ], [ -59.0160866, 7.561594 ], [ -58.9541473, 7.5752382 ], [ -58.8882446, 7.6135478 ], [ -58.8044561, 7.6831871 ], [ -58.76697, 7.62671 ], [ -58.6803399, 7.59961 ], [ -58.5625004, 7.4438857 ] ] ] ] } },
{ "type": "Feature", "properties": { "POLYGON_ID": "GUY_GAUL2014_ADM2_17159", "ADM0_ISO3": "GUY", "ADM0_NAME": "Guyana", "ADM0_CODE": 107, "ADM1_NAME": "Pomeroon\/supenaam (region N°2", "ADM1_CODE": 1404, "ADM2_NAME": "Somerset And Berks\/supenaam River", "ADM2_CODE": 17159, "GEOSET": "GAUL", "GEOSET_YEAR": 2014.0, "GEOSET_VERSION": "GAUL_v1", "GEOSET_UNIT": "ADM2", "CENTROID_LONG": -58.690762750097434, "CENTROID_LAT": 7.063035163028478 }, "geometry": { "type": "MultiPolygon", "coordinates": [ [ [ [ -58.4696705, 7.1059764 ], [ -58.479496, 7.012125 ], [ -58.5561104, 6.9855008 ], [ -58.6199608, 6.9453173 ], [ -58.6520424, 6.8770156 ], [ -58.7148819, 6.8645415 ], [ -58.7407608, 6.8015623 ], [ -58.8172455, 6.7530613 ], [ -58.9357948, 6.8091249 ], [ -58.9479065, 6.8897729 ], [ -58.9384575, 6.9770608 ], [ -58.8568649, 7.0457973 ], [ -58.8102226, 7.1480265 ], [ -58.7468338, 7.1893768 ], [ -58.7487526, 7.2322416 ], [ -58.7140121, 7.2725797 ], [ -58.6431541, 7.2826834 ], [ -58.5906906, 7.3452864 ], [ -58.5911903, 7.4025831 ], [ -58.5625004, 7.4438857 ], [ -58.49071, 7.35624 ], [ -58.4759701, 7.30886 ], [ -58.48827, 7.2034201 ], [ -58.4696705, 7.1059764 ] ] ] ] } },
{ "type": "Feature", "properties": { "POLYGON_ID": "GUY_GAUL2014_ADM2_17160", "ADM0_ISO3": "GUY", "ADM0_NAME": "Guyana", "ADM0_CODE": 107, "ADM1_NAME": "Potaro\/siparuni (region N°8)", "ADM1_CODE": 1405, "ADM2_NAME": "Ireng\/upper Potaro", "ADM2_CODE": 17160, "GEOSET": "GAUL", "GEOSET_YEAR": 2014.0, "GEOSET_VERSION": "GAUL_v1", "GEOSET_UNIT": "ADM2", "CENTROID_LONG": -59.700182412297217, "CENTROID_LAT": 4.9346600591160827 }, "geometry": { "type": "MultiPolygon", "coordinates": [ [ [ [ -59.5758362, 5.4056163 ], [ -59.5577087, 5.3835897 ], [ -59.4040489, 5.340847 ], [ -59.3180847, 5.3450465 ], [ -59.2892952, 5.3162456 ], [ -59.3215942, 5.1827321 ], [ -59.2829628, 5.1503849 ], [ -59.2831421, 4.9535837 ], [ -59.2898941, 4.9228768 ], [ -59.3849297, 4.8092628 ], [ -59.4670982, 4.7733679 ], [ -59.5039368, 4.7227917 ], [ -59.5110779, 4.6441097 ], [ -59.4851074, 4.5230937 ], [ -59.5512772, 4.4750037 ], [ -59.5962715, 4.3860426 ], [ -59.6739828, 4.3816409 ], [ -59.70754, 4.38521 ], [ -59.78617, 4.44312 ], [ -59.90127, 4.46895 ], [ -59.92447, 4.50774 ], [ -59.9693, 4.48656 ], [ -60.0688, 4.49513 ], [ -60.16012, 4.51815 ], [ -60.16016, 4.56696 ], [ -60.08088, 4.60762 ], [ -60.07354, 4.66284 ], [ -60.0290108, 4.7083169 ], [ -60.0339, 4.78891 ], [ -60.01175, 4.86292 ], [ -59.99136, 4.9977 ], [ -59.96942, 5.07308 ], [ -60.01616, 5.08989 ], [ -60.08629, 5.16021 ], [ -60.0049362, 5.2294664 ], [ -59.9538765, 5.3556595 ], [ -59.9154663, 5.3971443 ], [ -59.8438721, 5.4186549 ], [ -59.7636528, 5.4186926 ], [ -59.6649208, 5.4016299 ], [ -59.5758362, 5.4056163 ] ] ] ] } },
{ "type": "Feature", "properties": { "POLYGON_ID": "GUY_GAUL2014_ADM2_17161", "ADM0_ISO3": "GUY", "ADM0_NAME": "Guyana", "ADM0_CODE": 107, "ADM1_NAME": "Potaro\/siparuni (region N°8)", "ADM1_CODE": 1405, "ADM2_NAME": "Lower Potaro\/lower Lady Smith Creek", "ADM2_CODE": 17161, "GEOSET": "GAUL", "GEOSET_YEAR": 2014.0, "GEOSET_VERSION": "GAUL_v1", "GEOSET_UNIT": "ADM2", "CENTROID_LONG": -59.038329343697335, "CENTROID_LAT": 4.7720078544121431 }, "geometry": { "type": "MultiPolygon", "coordinates": [ [ [ [ -58.842907, 5.4235592 ], [ -58.8719063, 5.317512 ], [ -58.8196068, 5.2585411 ], [ -58.8161964, 5.1108618 ], [ -58.8443565, 4.980588 ], [ -58.7973366, 4.77911 ], [ -58.6963272, 4.7578421 ], [ -58.6676636, 4.689682 ], [ -58.585804, 4.6293883 ], [ -58.5109215, 4.6094255 ], [ -58.3690186, 4.6140246 ], [ -58.2738304, 4.6370401 ], [ -58.2796898, 4.5974774 ], [ -58.370697, 4.452632 ], [ -58.3812599, 4.3767633 ], [ -58.4282379, 4.2684388 ], [ -58.4364586, 4.2463994 ], [ -58.539032, 4.2816491 ], [ -58.6432533, 4.2349257 ], [ -58.6971359, 4.1581225 ], [ -58.7812462, 4.0912628 ], [ -58.8449745, 4.0177732 ], [ -58.9078598, 3.9936547 ], [ -58.9634895, 4.0130486 ], [ -59.0317192, 4.1063409 ], [ -59.0427094, 4.1795306 ], [ -59.1312828, 4.1506586 ], [ -59.1917725, 4.1556392 ], [ -59.354557, 4.1423011 ], [ -59.4754181, 4.1925545 ], [ -59.4520493, 4.2609024 ], [ -59.4697876, 4.3727908 ], [ -59.4318275, 4.4145098 ], [ -59.4660759, 4.4554515 ], [ -59.4851074, 4.5230937 ], [ -59.5110779, 4.6441097 ], [ -59.5039368, 4.7227917 ], [ -59.4670982, 4.7733679 ], [ -59.3849297, 4.8092628 ], [ -59.2898941, 4.9228768 ], [ -59.2831421, 4.9535837 ], [ -59.2829628, 5.1503849 ], [ -59.3215942, 5.1827321 ], [ -59.2892952, 5.3162456 ], [ -59.3180847, 5.3450465 ], [ -59.4040489, 5.340847 ], [ -59.5577087, 5.3835897 ], [ -59.5758362, 5.4056163 ], [ -59.5683174, 5.5038233 ], [ -59.5848885, 5.5537534 ], [ -59.5501175, 5.6031752 ], [ -59.4901772, 5.6405859 ], [ -59.3582458, 5.6114678 ], [ -59.3242531, 5.6315484 ], [ -59.2763023, 5.7165346 ], [ -59.1777, 5.7276535 ], [ -59.1399117, 5.6494293 ], [ -59.0900803, 5.6067758 ], [ -59.0937309, 5.5429807 ], [ -59.059391, 5.531384 ], [ -59.0095711, 5.5544086 ], [ -58.9368668, 5.4976583 ], [ -58.8684158, 5.4728384 ], [ -58.842907, 5.4235592 ] ] ] ] } },
{ "type": "Feature", "properties": { "POLYGON_ID": "GUY_GAUL2014_ADM2_17162", "ADM0_ISO3": "GUY", "ADM0_NAME": "Guyana", "ADM0_CODE": 107, "ADM1_NAME": "Upper Demerara\/berbice (region N°10)", "ADM1_CODE": 1406, "ADM2_NAME": "Right Bank Essequibo\/upper Demerara", "ADM2_CODE": 17162, "GEOSET": "GAUL", "GEOSET_YEAR": 2014.0, "GEOSET_VERSION": "GAUL_v1", "GEOSET_UNIT": "ADM2", "CENTROID_LONG": -58.474108616736885, "CENTROID_LAT": 5.4388787439276447 }, "geometry": { "type": "MultiPolygon", "coordinates": [ [ [ [ -58.2717438, 6.1161895 ], [ -58.2123146, 6.138464 ], [ -58.1576347, 6.1038752 ], [ -58.1269341, 6.1019092 ], [ -58.1049538, 6.0945716 ], [ -58.113266, 6.0051808 ], [ -58.1509743, 5.9699807 ], [ -58.1509933, 5.8935895 ], [ -58.176815, 5.8494763 ], [ -58.2217865, 5.835043 ], [ -58.2309952, 5.6806784 ], [ -58.2215042, 5.6405678 ], [ -58.1337433, 5.6296196 ], [ -58.0823555, 5.6454153 ], [ -58.0597954, 5.6040707 ], [ -58.0867348, 5.499176 ], [ -58.1219635, 5.4469614 ], [ -58.1512947, 5.3104043 ], [ -58.248394, 5.3349109 ], [ -58.2741585, 5.3073339 ], [ -58.2659988, 5.2097039 ], [ -58.3285789, 5.139236 ], [ -58.3648682, 5.0458026 ], [ -58.3374481, 4.9490023 ], [ -58.3466988, 4.8526301 ], [ -58.2795677, 4.7027488 ], [ -58.2738304, 4.6370401 ], [ -58.3690186, 4.6140246 ], [ -58.5109215, 4.6094255 ], [ -58.585804, 4.6293883 ], [ -58.6676636, 4.689682 ], [ -58.6963272, 4.7578421 ], [ -58.7973366, 4.77911 ], [ -58.8443565, 4.980588 ], [ -58.8161964, 5.1108618 ], [ -58.8196068, 5.2585411 ], [ -58.8719063, 5.317512 ], [ -58.842907, 5.4235592 ], [ -58.772747, 5.4299388 ], [ -58.6873932, 5.4558024 ], [ -58.634594, 5.5519419 ], [ -58.6088715, 5.6363473 ], [ -58.622673, 5.6939483 ], [ -58.6130333, 5.7674937 ], [ -58.6214333, 5.863028 ], [ -58.5877838, 5.918746 ], [ -58.5775909, 6.0214005 ], [ -58.5953827, 6.0475812 ], [ -58.5847321, 6.1525626 ], [ -58.5873909, 6.3188701 ], [ -58.6145172, 6.41889 ], [ -58.585903, 6.5108475 ], [ -58.5735205, 6.5037703 ], [ -58.5513077, 6.4889274 ], [ -58.5156288, 6.3941793 ], [ -58.4248276, 6.3380313 ], [ -58.3976898, 6.2929358 ], [ -58.3663177, 6.146739 ], [ -58.2717438, 6.1161895 ] ] ] ] } },
{ "type": "Feature", "properties": { "POLYGON_ID": "GUY_GAUL2014_ADM2_17163", "ADM0_ISO3": "GUY", "ADM0_NAME": "Guyana", "ADM0_CODE": 107, "ADM1_NAME": "Upper Demerara\/berbice (region N°10)", "ADM1_CODE": 1406, "ADM2_NAME": "Torani\/bulletwood", "ADM2_CODE": 17163, "GEOSET": "GAUL", "GEOSET_YEAR": 2014.0, "GEOSET_VERSION": "GAUL_v1", "GEOSET_UNIT": "ADM2", "CENTROID_LONG": -58.004571524397875, "CENTROID_LAT": 5.3505181583019166 }, "geometry": { "type": "MultiPolygon", "coordinates": [ [ [ [ -57.6836777, 5.8815455 ], [ -57.6627274, 5.8397446 ], [ -57.5892334, 5.8146648 ], [ -57.6489563, 5.6347175 ], [ -57.6757469, 5.4315381 ], [ -57.701889, 5.3580804 ], [ -57.7451057, 5.3187165 ], [ -57.7539978, 5.2649641 ], [ -57.8090515, 5.1823449 ], [ -57.8633919, 5.0361385 ], [ -57.9073601, 4.9776831 ], [ -57.9602013, 4.9369736 ], [ -58.0065918, 4.8412657 ], [ -58.0347862, 4.7007437 ], [ -58.0530052, 4.6645083 ], [ -58.0886154, 4.6395445 ], [ -58.2371178, 4.6498861 ], [ -58.2738304, 4.6370401 ], [ -58.2795677, 4.7027488 ], [ -58.3466988, 4.8526301 ], [ -58.3374481, 4.9490023 ], [ -58.3648682, 5.0458026 ], [ -58.3285789, 5.139236 ], [ -58.2659988, 5.2097039 ], [ -58.2741585, 5.3073339 ], [ -58.248394, 5.3349109 ], [ -58.1512947, 5.3104043 ], [ -58.1219635, 5.4469614 ], [ -58.0867348, 5.499176 ], [ -58.0597954, 5.6040707 ], [ -58.0823555, 5.6454153 ], [ -58.1337433, 5.6296196 ], [ -58.2215042, 5.6405678 ], [ -58.2309952, 5.6806784 ], [ -58.2217865, 5.835043 ], [ -58.176815, 5.8494763 ], [ -58.1509933, 5.8935895 ], [ -58.1509743, 5.9699807 ], [ -58.113266, 6.0051808 ], [ -58.0853767, 5.9838381 ], [ -57.9751816, 5.9667139 ], [ -57.9388008, 5.9488187 ], [ -57.8920021, 5.8887138 ], [ -57.8249359, 5.8611059 ], [ -57.7776184, 5.8922954 ], [ -57.6836777, 5.8815455 ] ] ] ] } },
{ "type": "Feature", "properties": { "POLYGON_ID": "GUY_GAUL2014_ADM2_17164", "ADM0_ISO3": "GUY", "ADM0_NAME": "Guyana", "ADM0_CODE": 107, "ADM1_NAME": "Upper Takutu\/upper Essequibo (region N°9)", "ADM1_CODE": 1407, "ADM2_NAME": "Rupununi West", "ADM2_CODE": 17164, "GEOSET": "GAUL", "GEOSET_YEAR": 2014.0, "GEOSET_VERSION": "GAUL_v1", "GEOSET_UNIT": "ADM2", "CENTROID_LONG": -59.391748606374577, "CENTROID_LAT": 3.0701522739246787 }, "geometry": { "type": "MultiPolygon", "coordinates": [ [ [ [ -58.9078598, 3.9936547 ], [ -58.9048691, 3.9277265 ], [ -58.9544487, 3.8334332 ], [ -58.8627472, 3.8403966 ], [ -58.8495178, 3.8191319 ], [ -58.8857384, 3.7468922 ], [ -58.9453506, 3.6717508 ], [ -58.9928894, 3.5723226 ], [ -59.0131187, 3.3444192 ], [ -59.0971146, 3.1038136 ], [ -59.1018257, 2.9929771 ], [ -59.0766029, 2.9280951 ], [ -59.0259705, 2.9180436 ], [ -58.8909302, 2.9312966 ], [ -58.8280754, 2.8748319 ], [ -58.8191376, 2.8039823 ], [ -58.777317, 2.6977885 ], [ -58.7363472, 2.468859 ], [ -58.7754669, 2.3502879 ], [ -58.8408508, 2.2623672 ], [ -58.8946304, 2.2179368 ], [ -59.0172195, 2.1575704 ], [ -59.1109238, 2.1725106 ], [ -59.1759224, 2.2019711 ], [ -59.2410736, 2.185317 ], [ -59.3391685, 2.1872368 ], [ -59.3651581, 2.1605923 ], [ -59.3775787, 2.0744853 ], [ -59.3974075, 2.0410535 ], [ -59.453167, 2.0203898 ], [ -59.5278625, 2.0287073 ], [ -59.6115532, 1.9513638 ], [ -59.6496781, 1.8440736 ], [ -59.74483, 1.8453 ], [ -59.75227, 1.91022 ], [ -59.7327183, 2.0 ], [ -59.74104, 2.05028 ], [ -59.72525, 2.14108 ], [ -59.73993, 2.17752 ], [ -59.72247, 2.23656 ], [ -59.73504, 2.28311 ], [ -59.7881, 2.28432 ], [ -59.83597, 2.3161 ], [ -59.90867, 2.39242 ], [ -59.90766, 2.47113 ], [ -59.93175, 2.56354 ], [ -59.9884, 2.67752 ], [ -59.99181, 2.82508 ], [ -59.98221, 2.9286 ], [ -59.9554, 2.99018 ], [ -59.959, 3.06294 ], [ -59.89902, 3.16481 ], [ -59.91061, 3.18374 ], [ -59.86988, 3.27008 ], [ -59.80075, 3.35213 ], [ -59.8349, 3.44071 ], [ -59.80438, 3.4958 ], [ -59.8645245, 3.5593213 ], [ -59.84499, 3.60348 ], [ -59.76679, 3.62316 ], [ -59.7584407, 3.6454567 ], [ -59.66191, 3.71165 ], [ -59.66592, 3.77683 ], [ -59.59363, 3.79599 ], [ -59.5756, 3.82513 ], [ -59.5780007, 3.8912181 ], [ -59.51631, 3.9399 ], [ -59.65549, 4.0776 ], [ -59.6284, 4.13757 ], [ -59.7049995, 4.161698 ], [ -59.73054, 4.22057 ], [ -59.718, 4.29601 ], [ -59.67738, 4.34666 ], [ -59.6739828, 4.3816409 ], [ -59.5962715, 4.3860426 ], [ -59.5512772, 4.4750037 ], [ -59.4851074, 4.5230937 ], [ -59.4660759, 4.4554515 ], [ -59.4318275, 4.4145098 ], [ -59.4697876, 4.3727908 ], [ -59.4520493, 4.2609024 ], [ -59.4754181, 4.1925545 ], [ -59.354557, 4.1423011 ], [ -59.1917725, 4.1556392 ], [ -59.1312828, 4.1506586 ], [ -59.0427094, 4.1795306 ], [ -59.0317192, 4.1063409 ], [ -58.9634895, 4.0130486 ], [ -58.9078598, 3.9936547 ] ] ] ] } },
{ "type": "Feature", "properties": { "POLYGON_ID": "GUY_GAUL2014_ADM2_17165", "ADM0_ISO3": "GUY", "ADM0_NAME": "Guyana", "ADM0_CODE": 107, "ADM1_NAME": "Upper Takutu\/upper Essequibo (region N°9)", "ADM1_CODE": 1407, "ADM2_NAME": "Rewai\/upper Essequibo", "ADM2_CODE": 17165, "GEOSET": "GAUL", "GEOSET_YEAR": 2014.0, "GEOSET_VERSION": "GAUL_v1", "GEOSET_UNIT": "ADM2", "CENTROID_LONG": -58.666784836675149, "CENTROID_LAT": 2.6144264890615427 }, "geometry": { "type": "MultiPolygon", "coordinates": [ [ [ [ -58.4282379, 4.2684388 ], [ -58.3642578, 4.1728067 ], [ -58.3387604, 4.048068 ], [ -58.3463898, 3.9584413 ], [ -58.3172188, 3.8378756 ], [ -58.2509193, 3.7126858 ], [ -58.1861076, 3.626632 ], [ -58.1553841, 3.561022 ], [ -58.1290054, 3.4239352 ], [ -58.1173859, 3.2629375 ], [ -57.9692039, 3.018997 ], [ -57.9303246, 2.9205048 ], [ -57.9368439, 2.8914266 ], [ -58.0233955, 2.7768354 ], [ -58.0460434, 2.7187297 ], [ -58.0227242, 2.5606983 ], [ -58.0452156, 2.4820979 ], [ -58.1067848, 2.3671389 ], [ -58.1814499, 2.1746943 ], [ -58.224369, 2.0181804 ], [ -58.2923088, 1.8496892 ], [ -58.3498688, 1.7677811 ], [ -58.4290619, 1.5937604 ], [ -58.5006523, 1.4995841 ], [ -58.5015382, 1.4488955 ], [ -58.46708, 1.35064 ], [ -58.47333, 1.29939 ], [ -58.50711, 1.26441 ], [ -58.54764, 1.28673 ], [ -58.58885, 1.27088 ], [ -58.69201, 1.28851 ], [ -58.74665, 1.19821 ], [ -58.79611, 1.17527 ], [ -58.8950005, 1.2274365 ], [ -58.91377, 1.29851 ], [ -59.1556701, 1.34835 ], [ -59.25275, 1.39738 ], [ -59.33693, 1.51743 ], [ -59.37897, 1.5181 ], [ -59.403275, 1.5534354 ], [ -59.4765, 1.62647 ], [ -59.5487, 1.72851 ], [ -59.61841, 1.7293 ], [ -59.68011, 1.78365 ], [ -59.6496781, 1.8440736 ], [ -59.6115532, 1.9513638 ], [ -59.5278625, 2.0287073 ], [ -59.453167, 2.0203898 ], [ -59.3974075, 2.0410535 ], [ -59.3775787, 2.0744853 ], [ -59.3651581, 2.1605923 ], [ -59.3391685, 2.1872368 ], [ -59.2410736, 2.185317 ], [ -59.1759224, 2.2019711 ], [ -59.1109238, 2.1725106 ], [ -59.0172195, 2.1575704 ], [ -58.8946304, 2.2179368 ], [ -58.8408508, 2.2623672 ], [ -58.7754669, 2.3502879 ], [ -58.7363472, 2.468859 ], [ -58.777317, 2.6977885 ], [ -58.8191376, 2.8039823 ], [ -58.8280754, 2.8748319 ], [ -58.8909302, 2.9312966 ], [ -59.0259705, 2.9180436 ], [ -59.0766029, 2.9280951 ], [ -59.1018257, 2.9929771 ], [ -59.0971146, 3.1038136 ], [ -59.0131187, 3.3444192 ], [ -58.9928894, 3.5723226 ], [ -58.9453506, 3.6717508 ], [ -58.8857384, 3.7468922 ], [ -58.8495178, 3.8191319 ], [ -58.8627472, 3.8403966 ], [ -58.9544487, 3.8334332 ], [ -58.9048691, 3.9277265 ], [ -58.9078598, 3.9936547 ], [ -58.8449745, 4.0177732 ], [ -58.7812462, 4.0912628 ], [ -58.6971359, 4.1581225 ], [ -58.6432533, 4.2349257 ], [ -58.539032, 4.2816491 ], [ -58.4364586, 4.2463994 ], [ -58.4282379, 4.2684388 ] ] ] ] } },
{ "type": "Feature", "properties": { "POLYGON_ID": "GUY_GAUL2014_ADM2_17140", "ADM0_ISO3": "GUY", "ADM0_NAME": "Guyana", "ADM0_CODE": 107, "ADM1_NAME": "Barima Waini (region N°1)", "ADM1_CODE": 1398, "ADM2_NAME": "Barima\/amakura", "ADM2_CODE": 17140, "GEOSET": "GAUL", "GEOSET_YEAR": 2014.0, "GEOSET_VERSION": "GAUL_v1", "GEOSET_UNIT": "ADM2", "CENTROID_LONG": -60.034109153402923, "CENTROID_LAT": 7.7457271425133438 }, "geometry": { "type": "MultiPolygon", "coordinates": [ [ [ [ -59.7664884, 8.3590246 ], [ -59.7587585, 8.363513 ], [ -59.5904236, 8.2526836 ], [ -59.5437241, 8.2349672 ], [ -59.4926147, 8.1638927 ], [ -59.4427757, 8.1235676 ], [ -59.4282036, 7.9525385 ], [ -59.4519539, 7.7686734 ], [ -59.4727135, 7.7308207 ], [ -59.5342751, 7.6892271 ], [ -59.5799179, 7.6796889 ], [ -59.6275291, 7.6301017 ], [ -59.6980476, 7.5128627 ], [ -59.7499695, 7.4751773 ], [ -59.8483734, 7.4535756 ], [ -59.9344521, 7.4852448 ], [ -59.9713707, 7.5483251 ], [ -60.0392952, 7.5270286 ], [ -60.0894241, 7.4767556 ], [ -60.1977653, 7.4277253 ], [ -60.2339211, 7.3778443 ], [ -60.227211, 7.3277359 ], [ -60.1826668, 7.2790537 ], [ -60.2582283, 7.2321787 ], [ -60.3023376, 7.1785374 ], [ -60.3146933, 7.1442798 ], [ -60.35113, 7.17777 ], [ -60.40958, 7.17638 ], [ -60.44768, 7.20295 ], [ -60.49562, 7.1806 ], [ -60.5303, 7.13061 ], [ -60.63165, 7.2328 ], [ -60.62899, 7.27163 ], [ -60.5851, 7.32296 ], [ -60.64774, 7.44819 ], [ -60.69828, 7.47847 ], [ -60.71102, 7.52608 ], [ -60.68071, 7.57285 ], [ -60.65011, 7.56861 ], [ -60.62225, 7.63767 ], [ -60.57232, 7.70067 ], [ -60.57889, 7.73378 ], [ -60.52908, 7.82296 ], [ -60.46385, 7.84018 ], [ -60.37224, 7.8302 ], [ -60.24428, 7.9349 ], [ -60.22436, 7.96675 ], [ -60.1614308, 7.9900942 ], [ -60.11237, 8.03052 ], [ -60.04761, 8.02444 ], [ -59.99786, 8.06853 ], [ -59.98415, 8.15937 ], [ -59.93606, 8.21712 ], [ -59.8427, 8.23344 ], [ -59.8063, 8.30404 ], [ -59.9949385, 8.5341583 ], [ -59.9393438, 8.491647 ], [ -59.87765, 8.3959001 ], [ -59.83938, 8.35936 ], [ -59.7664884, 8.3590246 ] ] ] ] } },
{ "type": "Feature", "properties": { "POLYGON_ID": "GUY_GAUL2014_ADM2_17141", "ADM0_ISO3": "GUY", "ADM0_NAME": "Guyana", "ADM0_CODE": 107, "ADM1_NAME": "Barima Waini (region N°1)", "ADM1_CODE": 1398, "ADM2_NAME": "Waini", "ADM2_CODE": 17141, "GEOSET": "GAUL", "GEOSET_YEAR": 2014.0, "GEOSET_VERSION": "GAUL_v1", "GEOSET_UNIT": "ADM2", "CENTROID_LONG": -59.467094273666554, "CENTROID_LAT": 7.5178374829143504 }, "geometry": { "type": "MultiPolygon", "coordinates": [ [ [ [ -58.8044561, 7.6831871 ], [ -58.8882446, 7.6135478 ], [ -58.9541473, 7.5752382 ], [ -59.0160866, 7.561594 ], [ -59.0871277, 7.4946642 ], [ -59.0732269, 7.3991013 ], [ -59.1133308, 7.3317728 ], [ -59.1669807, 7.1871943 ], [ -59.1648102, 7.0781851 ], [ -59.1487312, 7.0196404 ], [ -59.2581787, 7.0523643 ], [ -59.342083, 6.9817781 ], [ -59.4819641, 7.0312014 ], [ -59.5802193, 7.1248865 ], [ -59.6647568, 7.1379142 ], [ -59.7217369, 7.1629057 ], [ -59.7962914, 7.2175703 ], [ -59.8907013, 7.2250614 ], [ -59.8988419, 7.1876073 ], [ -59.9446106, 7.1405721 ], [ -60.0337448, 7.1468711 ], [ -60.0604973, 7.0995021 ], [ -60.1059036, 7.0908937 ], [ -60.1662865, 7.12848 ], [ -60.2121696, 7.1177793 ], [ -60.2344894, 7.1614513 ], [ -60.3023376, 7.1785374 ], [ -60.2582283, 7.2321787 ], [ -60.1826668, 7.2790537 ], [ -60.227211, 7.3277359 ], [ -60.2339211, 7.3778443 ], [ -60.1977653, 7.4277253 ], [ -60.0894241, 7.4767556 ], [ -60.0392952, 7.5270286 ], [ -59.9713707, 7.5483251 ], [ -59.9344521, 7.4852448 ], [ -59.8483734, 7.4535756 ], [ -59.7499695, 7.4751773 ], [ -59.6980476, 7.5128627 ], [ -59.6275291, 7.6301017 ], [ -59.5799179, 7.6796889 ], [ -59.5342751, 7.6892271 ], [ -59.4727135, 7.7308207 ], [ -59.4519539, 7.7686734 ], [ -59.4282036, 7.9525385 ], [ -59.4427757, 8.1235676 ], [ -59.4926147, 8.1638927 ], [ -59.5437241, 8.2349672 ], [ -59.5904236, 8.2526836 ], [ -59.7587585, 8.363513 ], [ -59.7664884, 8.3590246 ], [ -59.76445, 8.40263 ], [ -59.6032635, 8.3104364 ], [ -59.45719, 8.2354501 ], [ -59.21412, 8.0908 ], [ -59.0796899, 7.98691 ], [ -58.87162, 7.75549 ], [ -58.8307, 7.7319599 ], [ -58.8044561, 7.6831871 ] ] ] ] } },
{ "type": "Feature", "properties": { "POLYGON_ID": "GUY_GAUL2014_ADM2_17143", "ADM0_ISO3": "GUY", "ADM0_NAME": "Guyana", "ADM0_CODE": 107, "ADM1_NAME": "Cuyuni\/mazaruni (region N°7)", "ADM1_CODE": 1399, "ADM2_NAME": "Mazaruni\/left Bank Essequibo River", "ADM2_CODE": 17143, "GEOSET": "GAUL", "GEOSET_YEAR": 2014.0, "GEOSET_VERSION": "GAUL_v1", "GEOSET_UNIT": "ADM2", "CENTROID_LONG": -59.926916283394164, "CENTROID_LAT": 5.9470395117717629 }, "geometry": { "type": "MultiPolygon", "coordinates": [ [ [ [ -58.6145172, 6.41889 ], [ -58.5873909, 6.3188701 ], [ -58.5847321, 6.1525626 ], [ -58.5953827, 6.0475812 ], [ -58.5775909, 6.0214005 ], [ -58.5877838, 5.918746 ], [ -58.6214333, 5.863028 ], [ -58.6130333, 5.7674937 ], [ -58.622673, 5.6939483 ], [ -58.6088715, 5.6363473 ], [ -58.634594, 5.5519419 ], [ -58.6873932, 5.4558024 ], [ -58.772747, 5.4299388 ], [ -58.842907, 5.4235592 ], [ -58.8684158, 5.4728384 ], [ -58.9368668, 5.4976583 ], [ -59.0095711, 5.5544086 ], [ -59.059391, 5.531384 ], [ -59.0937309, 5.5429807 ], [ -59.0900803, 5.6067758 ], [ -59.1399117, 5.6494293 ], [ -59.1777, 5.7276535 ], [ -59.2763023, 5.7165346 ], [ -59.3242531, 5.6315484 ], [ -59.3582458, 5.6114678 ], [ -59.4901772, 5.6405859 ], [ -59.5501175, 5.6031752 ], [ -59.5848885, 5.5537534 ], [ -59.5683174, 5.5038233 ], [ -59.5758362, 5.4056163 ], [ -59.6649208, 5.4016299 ], [ -59.7636528, 5.4186926 ], [ -59.8438721, 5.4186549 ], [ -59.9154663, 5.3971443 ], [ -59.9538765, 5.3556595 ], [ -60.0049362, 5.2294664 ], [ -60.08629, 5.16021 ], [ -60.12193, 5.24393 ], [ -60.18262, 5.22981 ], [ -60.21232, 5.26445 ], [ -60.30337, 5.22591 ], [ -60.32917, 5.19907 ], [ -60.39661, 5.21176 ], [ -60.43805, 5.17693 ], [ -60.51647, 5.19885 ], [ -60.57182, 5.18938 ], [ -60.66168, 5.22168 ], [ -60.73177, 5.19614 ], [ -61.09193, 5.60303 ], [ -61.38004, 5.92827 ], [ -61.392822, 5.9497477 ], [ -61.3961691, 5.9610521 ], [ -61.2642364, 5.9945178 ], [ -61.1753654, 5.9749446 ], [ -61.0975647, 5.9368 ], [ -61.0566635, 5.9670911 ], [ -61.011055, 6.0371852 ], [ -60.9271812, 6.1005521 ], [ -60.8113213, 6.1369648 ], [ -60.7906914, 6.206028 ], [ -60.7855873, 6.3643732 ], [ -60.7499084, 6.4810991 ], [ -60.6750679, 6.5878363 ], [ -60.5816612, 6.6234369 ], [ -60.4670639, 6.6232905 ], [ -60.3794212, 6.6486754 ], [ -60.2733498, 6.632504 ], [ -60.1334152, 6.5979867 ], [ -59.9191208, 6.6625218 ], [ -59.8749428, 6.645051 ], [ -59.796402, 6.6900477 ], [ -59.7372208, 6.703938 ], [ -59.6919975, 6.6554871 ], [ -59.6075974, 6.6021671 ], [ -59.5582466, 6.5539255 ], [ -59.5263367, 6.497859 ], [ -59.4828682, 6.4752684 ], [ -59.4358025, 6.4969101 ], [ -59.3936043, 6.5740085 ], [ -59.3408432, 6.5867686 ], [ -59.269825, 6.5076694 ], [ -59.2030907, 6.3761892 ], [ -59.137989, 6.3781695 ], [ -59.080101, 6.4188523 ], [ -59.0291901, 6.3543 ], [ -58.9620361, 6.3548732 ], [ -58.8794365, 6.3812151 ], [ -58.7674217, 6.3601227 ], [ -58.6979523, 6.3646431 ], [ -58.6145172, 6.41889 ] ] ] ] } },
{ "type": "Feature", "properties": { "POLYGON_ID": "GUY_GAUL2014_ADM2_17144", "ADM0_ISO3": "GUY", "ADM0_NAME": "Guyana", "ADM0_CODE": 107, "ADM1_NAME": "Demerara Mahaica (region N°4)", "ADM1_CODE": 1400, "ADM2_NAME": "Buxton\/mahaica", "ADM2_CODE": 17144, "GEOSET": "GAUL", "GEOSET_YEAR": 2014.0, "GEOSET_VERSION": "GAUL_v1", "GEOSET_UNIT": "ADM2", "CENTROID_LONG": -58.055036605321796, "CENTROID_LAT": 6.5326917465868224 }, "geometry": { "type": "MultiPolygon", "coordinates": [ [ [ [ -57.9201944, 6.7053881 ], [ -57.8953094, 6.6300583 ], [ -57.8854866, 6.5489559 ], [ -57.940052, 6.5469179 ], [ -57.9278908, 6.4823389 ], [ -57.9822311, 6.4749451 ], [ -58.0333214, 6.4107027 ], [ -58.0808716, 6.3783507 ], [ -58.1287842, 6.2388654 ], [ -58.1269341, 6.1019092 ], [ -58.1576347, 6.1038752 ], [ -58.1555862, 6.171699 ], [ -58.1800842, 6.2491531 ], [ -58.148056, 6.3018513 ], [ -58.1924133, 6.3353934 ], [ -58.1767464, 6.4310317 ], [ -58.1442146, 6.4977016 ], [ -58.1204147, 6.624506 ], [ -58.1698952, 6.6324553 ], [ -58.113121, 6.7511663 ], [ -58.0494308, 6.7412777 ], [ -58.0218024, 6.7987585 ], [ -57.9201944, 6.7053881 ] ] ] ] } },
{ "type": "Feature", "properties": { "POLYGON_ID": "GUY_GAUL2014_ADM2_17156", "ADM0_ISO3": "GUY", "ADM0_NAME": "Guyana", "ADM0_CODE": 107, "ADM1_NAME": "Mahaica Berbice (region N°5)", "ADM1_CODE": 1403, "ADM2_NAME": "Mahaica\/mahaicony", "ADM2_CODE": 17156, "GEOSET": "GAUL", "GEOSET_YEAR": 2014.0, "GEOSET_VERSION": "GAUL_v1", "GEOSET_UNIT": "ADM2", "CENTROID_LONG": -57.908253602262448, "CENTROID_LAT": 6.2077112962871199 }, "geometry": { "type": "MultiPolygon", "coordinates": [ [ [ [ -57.795951, 6.5935843 ], [ -57.778019, 6.4719906 ], [ -57.7785873, 6.3685846 ], [ -57.8000183, 6.2601671 ], [ -57.7552185, 6.1530266 ], [ -57.7280464, 6.1226034 ], [ -57.7390175, 5.9896755 ], [ -57.7043762, 6.0011353 ], [ -57.6703377, 5.9671831 ], [ -57.6625557, 5.8919144 ], [ -57.6836777, 5.8815455 ], [ -57.7776184, 5.8922954 ], [ -57.8249359, 5.8611059 ], [ -57.8920021, 5.8887138 ], [ -57.9388008, 5.9488187 ], [ -57.9751816, 5.9667139 ], [ -58.0853767, 5.9838381 ], [ -58.113266, 6.0051808 ], [ -58.1049538, 6.0945716 ], [ -58.1269341, 6.1019092 ], [ -58.1287842, 6.2388654 ], [ -58.0808716, 6.3783507 ], [ -58.0333214, 6.4107027 ], [ -57.9822311, 6.4749451 ], [ -57.9278908, 6.4823389 ], [ -57.940052, 6.5469179 ], [ -57.8854866, 6.5489559 ], [ -57.8953094, 6.6300583 ], [ -57.9201944, 6.7053881 ], [ -57.8139101, 6.6217499 ], [ -57.795951, 6.5935843 ] ] ] ] } },
{ "type": "Feature", "properties": { "POLYGON_ID": "GUY_GAUL2014_ADM2_17157", "ADM0_ISO3": "GUY", "ADM0_NAME": "Guyana", "ADM0_CODE": 107, "ADM1_NAME": "Mahaica Berbice (region N°5)", "ADM1_CODE": 1403, "ADM2_NAME": "Mahaicony\/berbice", "ADM2_CODE": 17157, "GEOSET": "GAUL", "GEOSET_YEAR": 2014.0, "GEOSET_VERSION": "GAUL_v1", "GEOSET_UNIT": "ADM2", "CENTROID_LONG": -57.681608575081896, "CENTROID_LAT": 6.2829307147787103 }, "geometry": { "type": "MultiPolygon", "coordinates": [ [ [ [ -57.5346501, 6.2088789 ], [ -57.6186829, 6.1998096 ], [ -57.6003532, 6.0599704 ], [ -57.6419754, 6.0161738 ], [ -57.6801567, 6.0480528 ], [ -57.7043762, 6.0011353 ], [ -57.7390175, 5.9896755 ], [ -57.7280464, 6.1226034 ], [ -57.7552185, 6.1530266 ], [ -57.8000183, 6.2601671 ], [ -57.7785873, 6.3685846 ], [ -57.778019, 6.4719906 ], [ -57.795951, 6.5935843 ], [ -57.6244316, 6.4454709 ], [ -57.5760108, 6.3756116 ], [ -57.5342101, 6.28028 ], [ -57.5346501, 6.2088789 ] ] ] ] } }
]
}
