{
"type": "FeatureCollection",
"name": "HMD_GAUL2011_ADM1",
"crs": { "type": "name", "properties": { "name": "urn:ogc:def:crs:OGC:1.3:CRS84" } },
"features": [
{ "type": "Feature", "properties": { "POLYGON_ID": "HMD_GAUL2011_ADM1_1418", "ADM0_ISO3": "HMD", "ADM0_NAME": "Heard Island and McDonald Islands", "ADM0_CODE": 109, "ADM1_NAME": "Administrative unit not available", "ADM1_CODE": 1418, "GEOSET": "GAUL", "GEOSET_YEAR": 2011.0, "GEOSET_VERSION": "GAUL_v1", "GEOSET_UNIT": "ADM1", "CENTROID_LONG": 73.515465591523693, "CENTROID_LAT": -53.104881173878233 }, "geometry": { "type": "MultiPolygon", "coordinates": [ [ [ [ 73.3084007, -52.9747285 ], [ 73.4295511, -53.0290107 ], [ 73.5367115, -53.013812 ], [ 73.6420134, -53.0408644 ], [ 73.6784914, -53.0868898 ], [ 73.7397933, -53.1164982 ], [ 73.5895192, -53.1953527 ], [ 73.5036859, -53.2157601 ], [ 73.4446366, -53.2157601 ], [ 73.3963628, -53.1878768 ], [ 73.400242, -53.1261078 ], [ 73.3631746, -53.021752 ], [ 73.2626628, -53.0146891 ], [ 73.3084007, -52.9747285 ] ] ] ] } }
]
}
