{
"type": "FeatureCollection",
"name": "IMN_GAUL2007_ADM2",
"crs": { "type": "name", "properties": { "name": "urn:ogc:def:crs:OGC:1.3:CRS84" } },
"features": [
{ "type": "Feature", "properties": { "POLYGON_ID": "IMN_GAUL2007_ADM2_61329", "ADM0_ISO3": "IMN", "ADM0_NAME": "Isle of Man", "ADM0_CODE": 120, "ADM1_NAME": "Andreas", "ADM1_CODE": 61305, "ADM2_NAME": "Administrative unit not available", "ADM2_CODE": 61329, "GEOSET": "GAUL", "GEOSET_YEAR": 2007.0, "GEOSET_VERSION": "GAUL_v1", "GEOSET_UNIT": "ADM2", "CENTROID_LONG": -4.4599496440990301, "CENTROID_LAT": 54.369542763254479 }, "geometry": { "type": "MultiPolygon", "coordinates": [ [ [ [ -4.4168591, 54.3517456 ], [ -4.4888005, 54.3409538 ], [ -4.5011123, 54.382947 ], [ -4.4384136, 54.4026801 ], [ -4.4168591, 54.3517456 ] ] ] ] } },
{ "type": "Feature", "properties": { "POLYGON_ID": "IMN_GAUL2007_ADM2_61330", "ADM0_ISO3": "IMN", "ADM0_NAME": "Isle of Man", "ADM0_CODE": 120, "ADM1_NAME": "Arbory", "ADM1_CODE": 61306, "ADM2_NAME": "Administrative unit not available", "ADM2_CODE": 61330, "GEOSET": "GAUL", "GEOSET_YEAR": 2007.0, "GEOSET_VERSION": "GAUL_v1", "GEOSET_UNIT": "ADM2", "CENTROID_LONG": -4.6911365374118841, "CENTROID_LAT": 54.112634720077317 }, "geometry": { "type": "MultiPolygon", "coordinates": [ [ [ [ -4.6717401, 54.081459 ], [ -4.6783333, 54.0760384 ], [ -4.6841664, 54.0745667 ], [ -4.692189, 54.0827364 ], [ -4.7144732, 54.1386986 ], [ -4.6868134, 54.1470757 ], [ -4.6717401, 54.081459 ] ] ] ] } },
{ "type": "Feature", "properties": { "POLYGON_ID": "IMN_GAUL2007_ADM2_61331", "ADM0_ISO3": "IMN", "ADM0_NAME": "Isle of Man", "ADM0_CODE": 120, "ADM1_NAME": "Ballaugh", "ADM1_CODE": 61307, "ADM2_NAME": "Administrative unit not available", "ADM2_CODE": 61331, "GEOSET": "GAUL", "GEOSET_YEAR": 2007.0, "GEOSET_VERSION": "GAUL_v1", "GEOSET_UNIT": "ADM2", "CENTROID_LONG": -4.5339820709245604, "CENTROID_LAT": 54.311896071503007 }, "geometry": { "type": "MultiPolygon", "coordinates": [ [ [ [ -4.504837, 54.334446 ], [ -4.505167, 54.2710953 ], [ -4.5792406, 54.3121379 ], [ -4.5546926, 54.3413153 ], [ -4.504837, 54.334446 ] ] ] ] } },
{ "type": "Feature", "properties": { "POLYGON_ID": "IMN_GAUL2007_ADM2_61332", "ADM0_ISO3": "IMN", "ADM0_NAME": "Isle of Man", "ADM0_CODE": 120, "ADM1_NAME": "Braddan", "ADM1_CODE": 61308, "ADM2_NAME": "Administrative unit not available", "ADM2_CODE": 61332, "GEOSET": "GAUL", "GEOSET_YEAR": 2007.0, "GEOSET_VERSION": "GAUL_v1", "GEOSET_UNIT": "ADM2", "CENTROID_LONG": -4.5146241742962703, "CENTROID_LAT": 54.196111623898148 }, "geometry": { "type": "MultiPolygon", "coordinates": [ [ [ [ -4.4744978, 54.2460823 ], [ -4.4719543, 54.2287712 ], [ -4.4963984, 54.1764755 ], [ -4.4772026, 54.1512602 ], [ -4.5255402, 54.12505 ], [ -4.567832, 54.1512032 ], [ -4.5224409, 54.1724739 ], [ -4.5584331, 54.2222824 ], [ -4.556962, 54.2284813 ], [ -4.5071335, 54.2634811 ], [ -4.4744978, 54.2460823 ] ] ] ] } },
{ "type": "Feature", "properties": { "POLYGON_ID": "IMN_GAUL2007_ADM2_61333", "ADM0_ISO3": "IMN", "ADM0_NAME": "Isle of Man", "ADM0_CODE": 120, "ADM1_NAME": "Bride", "ADM1_CODE": 61309, "ADM2_NAME": "Administrative unit not available", "ADM2_CODE": 61333, "GEOSET": "GAUL", "GEOSET_YEAR": 2007.0, "GEOSET_VERSION": "GAUL_v1", "GEOSET_UNIT": "ADM2", "CENTROID_LONG": -4.4118095666666663, "CENTROID_LAT": 54.370841133333322 }, "geometry": { "type": "MultiPolygon", "coordinates": [ [ [ [ -4.380156, 54.3580977 ], [ -4.4168591, 54.3517456 ], [ -4.4384136, 54.4026801 ], [ -4.380156, 54.3580977 ] ] ] ] } },
{ "type": "Feature", "properties": { "POLYGON_ID": "IMN_GAUL2007_ADM2_61334", "ADM0_ISO3": "IMN", "ADM0_NAME": "Isle of Man", "ADM0_CODE": 120, "ADM1_NAME": "Castletown", "ADM1_CODE": 61310, "ADM2_NAME": "Administrative unit not available", "ADM2_CODE": 61334, "GEOSET": "GAUL", "GEOSET_YEAR": 2007.0, "GEOSET_VERSION": "GAUL_v1", "GEOSET_UNIT": "ADM2", "CENTROID_LONG": -4.6611844914421088, "CENTROID_LAT": 54.075515505617716 }, "geometry": { "type": "MultiPolygon", "coordinates": [ [ [ [ -4.6387463, 54.0770813 ], [ -4.6630922, 54.068269 ], [ -4.6783333, 54.0760384 ], [ -4.6717401, 54.081459 ], [ -4.6387463, 54.0770813 ] ] ] ] } },
{ "type": "Feature", "properties": { "POLYGON_ID": "IMN_GAUL2007_ADM2_61335", "ADM0_ISO3": "IMN", "ADM0_NAME": "Isle of Man", "ADM0_CODE": 120, "ADM1_NAME": "Douglas", "ADM1_CODE": 61311, "ADM2_NAME": "Administrative unit not available", "ADM2_CODE": 61335, "GEOSET": "GAUL", "GEOSET_YEAR": 2007.0, "GEOSET_VERSION": "GAUL_v1", "GEOSET_UNIT": "ADM2", "CENTROID_LONG": -4.4791093, "CENTROID_LAT": 54.1646137 }, "geometry": { "type": "MultiPolygon", "coordinates": [ [ [ [ -4.4637269, 54.1661054 ], [ -4.4772026, 54.1512602 ], [ -4.4963984, 54.1764755 ], [ -4.4637269, 54.1661054 ] ] ] ] } },
{ "type": "Feature", "properties": { "POLYGON_ID": "IMN_GAUL2007_ADM2_61336", "ADM0_ISO3": "IMN", "ADM0_NAME": "Isle of Man", "ADM0_CODE": 120, "ADM1_NAME": "German", "ADM1_CODE": 61312, "ADM2_NAME": "Administrative unit not available", "ADM2_CODE": 61336, "GEOSET": "GAUL", "GEOSET_YEAR": 2007.0, "GEOSET_VERSION": "GAUL_v1", "GEOSET_UNIT": "ADM2", "CENTROID_LONG": -4.6228034621906904, "CENTROID_LAT": 54.218461869593277 }, "geometry": { "type": "MultiPolygon", "coordinates": [ [ [ [ -4.6208954, 54.2622177 ], [ -4.556962, 54.2284813 ], [ -4.5584331, 54.2222824 ], [ -4.6071901, 54.1716499 ], [ -4.6956067, 54.214016 ], [ -4.6816502, 54.2299101 ], [ -4.6208954, 54.2622177 ] ] ] ] } },
{ "type": "Feature", "properties": { "POLYGON_ID": "IMN_GAUL2007_ADM2_61337", "ADM0_ISO3": "IMN", "ADM0_NAME": "Isle of Man", "ADM0_CODE": 120, "ADM1_NAME": "Jurby", "ADM1_CODE": 61313, "ADM2_NAME": "Administrative unit not available", "ADM2_CODE": 61337, "GEOSET": "GAUL", "GEOSET_YEAR": 2007.0, "GEOSET_VERSION": "GAUL_v1", "GEOSET_UNIT": "ADM2", "CENTROID_LONG": -4.5150372395152454, "CENTROID_LAT": 54.352874365889257 }, "geometry": { "type": "MultiPolygon", "coordinates": [ [ [ [ -4.4888005, 54.3409538 ], [ -4.504837, 54.334446 ], [ -4.5546926, 54.3413153 ], [ -4.5011123, 54.382947 ], [ -4.4888005, 54.3409538 ] ] ] ] } },
{ "type": "Feature", "properties": { "POLYGON_ID": "IMN_GAUL2007_ADM2_61338", "ADM0_ISO3": "IMN", "ADM0_NAME": "Isle of Man", "ADM0_CODE": 120, "ADM1_NAME": "Laxey", "ADM1_CODE": 61314, "ADM2_NAME": "Administrative unit not available", "ADM2_CODE": 61338, "GEOSET": "GAUL", "GEOSET_YEAR": 2007.0, "GEOSET_VERSION": "GAUL_v1", "GEOSET_UNIT": "ADM2", "CENTROID_LONG": -4.3986402850634274, "CENTROID_LAT": 54.233502701444074 }, "geometry": { "type": "MultiPolygon", "coordinates": [ [ [ [ -4.3808147, 54.2271234 ], [ -4.3818183, 54.2266353 ], [ -4.4007658, 54.2268358 ], [ -4.4158602, 54.2365799 ], [ -4.4073524, 54.2422752 ], [ -4.3890367, 54.2363777 ], [ -4.3808147, 54.2271234 ] ] ] ] } },
{ "type": "Feature", "properties": { "POLYGON_ID": "IMN_GAUL2007_ADM2_61339", "ADM0_ISO3": "IMN", "ADM0_NAME": "Isle of Man", "ADM0_CODE": 120, "ADM1_NAME": "Lezayre", "ADM1_CODE": 61315, "ADM2_NAME": "Administrative unit not available", "ADM2_CODE": 61339, "GEOSET": "GAUL", "GEOSET_YEAR": 2007.0, "GEOSET_VERSION": "GAUL_v1", "GEOSET_UNIT": "ADM2", "CENTROID_LONG": -4.4559339034110224, "CENTROID_LAT": 54.307606441159713 }, "geometry": { "type": "MultiPolygon", "coordinates": [ [ [ [ -4.380156, 54.3580977 ], [ -4.3844866, 54.3436838 ], [ -4.3991566, 54.3262444 ], [ -4.4417868, 54.2698021 ], [ -4.4744978, 54.2460823 ], [ -4.5071335, 54.2634811 ], [ -4.505167, 54.2710953 ], [ -4.504837, 54.334446 ], [ -4.4888005, 54.3409538 ], [ -4.4168591, 54.3517456 ], [ -4.380156, 54.3580977 ] ] ] ] } },
{ "type": "Feature", "properties": { "POLYGON_ID": "IMN_GAUL2007_ADM2_61340", "ADM0_ISO3": "IMN", "ADM0_NAME": "Isle of Man", "ADM0_CODE": 120, "ADM1_NAME": "Lonan", "ADM1_CODE": 61316, "ADM2_NAME": "Administrative unit not available", "ADM2_CODE": 61340, "GEOSET": "GAUL", "GEOSET_YEAR": 2007.0, "GEOSET_VERSION": "GAUL_v1", "GEOSET_UNIT": "ADM2", "CENTROID_LONG": -4.427200485372496, "CENTROID_LAT": 54.227472111064905 }, "geometry": { "type": "MultiPolygon", "coordinates": [ [ [ [ -4.367841, 54.2448999 ], [ -4.3808147, 54.2271234 ], [ -4.3890367, 54.2363777 ], [ -4.4073524, 54.2422752 ], [ -4.4158602, 54.2365799 ], [ -4.4007658, 54.2268358 ], [ -4.3818183, 54.2266353 ], [ -4.4245848, 54.1706782 ], [ -4.4719543, 54.2287712 ], [ -4.4744978, 54.2460823 ], [ -4.4417868, 54.2698021 ], [ -4.367841, 54.2448999 ] ] ] ] } },
{ "type": "Feature", "properties": { "POLYGON_ID": "IMN_GAUL2007_ADM2_61341", "ADM0_ISO3": "IMN", "ADM0_NAME": "Isle of Man", "ADM0_CODE": 120, "ADM1_NAME": "Malew", "ADM1_CODE": 61317, "ADM2_NAME": "Administrative unit not available", "ADM2_CODE": 61341, "GEOSET": "GAUL", "GEOSET_YEAR": 2007.0, "GEOSET_VERSION": "GAUL_v1", "GEOSET_UNIT": "ADM2", "CENTROID_LONG": -4.6386323929330535, "CENTROID_LAT": 54.121238182341664 }, "geometry": { "type": "MultiPolygon", "coordinates": [ [ [ [ -4.5973039, 54.1452293 ], [ -4.5961808, 54.0953818 ], [ -4.6387463, 54.0770813 ], [ -4.6717401, 54.081459 ], [ -4.6868134, 54.1470757 ], [ -4.6109533, 54.1680832 ], [ -4.5973039, 54.1452293 ] ] ], [ [ [ -4.6783333, 54.0760384 ], [ -4.6630922, 54.068269 ], [ -4.6841664, 54.0745667 ], [ -4.6783333, 54.0760384 ] ] ] ] } },
{ "type": "Feature", "properties": { "POLYGON_ID": "IMN_GAUL2007_ADM2_61342", "ADM0_ISO3": "IMN", "ADM0_NAME": "Isle of Man", "ADM0_CODE": 120, "ADM1_NAME": "Marown", "ADM1_CODE": 61318, "ADM2_NAME": "Administrative unit not available", "ADM2_CODE": 61342, "GEOSET": "GAUL", "GEOSET_YEAR": 2007.0, "GEOSET_VERSION": "GAUL_v1", "GEOSET_UNIT": "ADM2", "CENTROID_LONG": -4.5676645743789051, "CENTROID_LAT": 54.178365416890379 }, "geometry": { "type": "MultiPolygon", "coordinates": [ [ [ [ -4.567832, 54.1512032 ], [ -4.5973039, 54.1452293 ], [ -4.6109533, 54.1680832 ], [ -4.6071901, 54.1716499 ], [ -4.5584331, 54.2222824 ], [ -4.5224409, 54.1724739 ], [ -4.567832, 54.1512032 ] ] ] ] } },
{ "type": "Feature", "properties": { "POLYGON_ID": "IMN_GAUL2007_ADM2_61343", "ADM0_ISO3": "IMN", "ADM0_NAME": "Isle of Man", "ADM0_CODE": 120, "ADM1_NAME": "Maughold", "ADM1_CODE": 61319, "ADM2_NAME": "Administrative unit not available", "ADM2_CODE": 61343, "GEOSET": "GAUL", "GEOSET_YEAR": 2007.0, "GEOSET_VERSION": "GAUL_v1", "GEOSET_UNIT": "ADM2", "CENTROID_LONG": -4.3786829990605813, "CENTROID_LAT": 54.284720263388408 }, "geometry": { "type": "MultiPolygon", "coordinates": [ [ [ [ -4.3719356, 54.3149902 ], [ -4.3082572, 54.2964703 ], [ -4.367841, 54.2448999 ], [ -4.4417868, 54.2698021 ], [ -4.3991566, 54.3262444 ], [ -4.3719356, 54.3149902 ] ] ] ] } },
{ "type": "Feature", "properties": { "POLYGON_ID": "IMN_GAUL2007_ADM2_61344", "ADM0_ISO3": "IMN", "ADM0_NAME": "Isle of Man", "ADM0_CODE": 120, "ADM1_NAME": "Michael", "ADM1_CODE": 61320, "ADM2_NAME": "Administrative unit not available", "ADM2_CODE": 61344, "GEOSET": "GAUL", "GEOSET_YEAR": 2007.0, "GEOSET_VERSION": "GAUL_v1", "GEOSET_UNIT": "ADM2", "CENTROID_LONG": -4.5637931808203644, "CENTROID_LAT": 54.268742197491846 }, "geometry": { "type": "MultiPolygon", "coordinates": [ [ [ [ -4.505167, 54.2710953 ], [ -4.5071335, 54.2634811 ], [ -4.556962, 54.2284813 ], [ -4.6208954, 54.2622177 ], [ -4.5792406, 54.3121379 ], [ -4.505167, 54.2710953 ] ] ] ] } },
{ "type": "Feature", "properties": { "POLYGON_ID": "IMN_GAUL2007_ADM2_61346", "ADM0_ISO3": "IMN", "ADM0_NAME": "Isle of Man", "ADM0_CODE": 120, "ADM1_NAME": "Patrick", "ADM1_CODE": 61322, "ADM2_NAME": "Administrative unit not available", "ADM2_CODE": 61346, "GEOSET": "GAUL", "GEOSET_YEAR": 2007.0, "GEOSET_VERSION": "GAUL_v1", "GEOSET_UNIT": "ADM2", "CENTROID_LONG": -4.6813097820404757, "CENTROID_LAT": 54.174538369300159 }, "geometry": { "type": "MultiPolygon", "coordinates": [ [ [ [ -4.6956067, 54.214016 ], [ -4.6071901, 54.1716499 ], [ -4.6109533, 54.1680832 ], [ -4.6868134, 54.1470757 ], [ -4.7144732, 54.1386986 ], [ -4.7331221, 54.1349184 ], [ -4.7046756, 54.2227649 ], [ -4.6956067, 54.214016 ] ] ] ] } },
{ "type": "Feature", "properties": { "POLYGON_ID": "IMN_GAUL2007_ADM2_61347", "ADM0_ISO3": "IMN", "ADM0_NAME": "Isle of Man", "ADM0_CODE": 120, "ADM1_NAME": "Peel", "ADM1_CODE": 61323, "ADM2_NAME": "Administrative unit not available", "ADM2_CODE": 61347, "GEOSET": "GAUL", "GEOSET_YEAR": 2007.0, "GEOSET_VERSION": "GAUL_v1", "GEOSET_UNIT": "ADM2", "CENTROID_LONG": -4.6939775, "CENTROID_LAT": 54.222230333333336 }, "geometry": { "type": "MultiPolygon", "coordinates": [ [ [ [ -4.6956067, 54.214016 ], [ -4.7046756, 54.2227649 ], [ -4.6816502, 54.2299101 ], [ -4.6956067, 54.214016 ] ] ] ] } },
{ "type": "Feature", "properties": { "POLYGON_ID": "IMN_GAUL2007_ADM2_61348", "ADM0_ISO3": "IMN", "ADM0_NAME": "Isle of Man", "ADM0_CODE": 120, "ADM1_NAME": "Port Erin", "ADM1_CODE": 61324, "ADM2_NAME": "Administrative unit not available", "ADM2_CODE": 61348, "GEOSET": "GAUL", "GEOSET_YEAR": 2007.0, "GEOSET_VERSION": "GAUL_v1", "GEOSET_UNIT": "ADM2", "CENTROID_LONG": -4.7653091088891886, "CENTROID_LAT": 54.087723446719274 }, "geometry": { "type": "MultiPolygon", "coordinates": [ [ [ [ -4.7487936, 54.0867043 ], [ -4.7508402, 54.0842209 ], [ -4.7721698, 54.0826986 ], [ -4.7787247, 54.0952557 ], [ -4.7487936, 54.0867043 ] ] ] ] } },
{ "type": "Feature", "properties": { "POLYGON_ID": "IMN_GAUL2007_ADM2_61349", "ADM0_ISO3": "IMN", "ADM0_NAME": "Isle of Man", "ADM0_CODE": 120, "ADM1_NAME": "Port St.Mary", "ADM1_CODE": 61325, "ADM2_NAME": "Administrative unit not available", "ADM2_CODE": 61349, "GEOSET": "GAUL", "GEOSET_YEAR": 2007.0, "GEOSET_VERSION": "GAUL_v1", "GEOSET_UNIT": "ADM2", "CENTROID_LONG": -4.7423575178648054, "CENTROID_LAT": 54.078608134676657 }, "geometry": { "type": "MultiPolygon", "coordinates": [ [ [ [ -4.7250215, 54.0844329 ], [ -4.7515164, 54.0647015 ], [ -4.7508402, 54.0842209 ], [ -4.7487936, 54.0867043 ], [ -4.7250215, 54.0844329 ] ] ] ] } },
{ "type": "Feature", "properties": { "POLYGON_ID": "IMN_GAUL2007_ADM2_61350", "ADM0_ISO3": "IMN", "ADM0_NAME": "Isle of Man", "ADM0_CODE": 120, "ADM1_NAME": "Ramsey", "ADM1_CODE": 61326, "ADM2_NAME": "Administrative unit not available", "ADM2_CODE": 61350, "GEOSET": "GAUL", "GEOSET_YEAR": 2007.0, "GEOSET_VERSION": "GAUL_v1", "GEOSET_UNIT": "ADM2", "CENTROID_LONG": -4.3851929333333342, "CENTROID_LAT": 54.328306133333335 }, "geometry": { "type": "MultiPolygon", "coordinates": [ [ [ [ -4.3719356, 54.3149902 ], [ -4.3991566, 54.3262444 ], [ -4.3844866, 54.3436838 ], [ -4.3719356, 54.3149902 ] ] ] ] } },
{ "type": "Feature", "properties": { "POLYGON_ID": "IMN_GAUL2007_ADM2_61351", "ADM0_ISO3": "IMN", "ADM0_NAME": "Isle of Man", "ADM0_CODE": 120, "ADM1_NAME": "Rushen", "ADM1_CODE": 61327, "ADM2_NAME": "Administrative unit not available", "ADM2_CODE": 61351, "GEOSET": "GAUL", "GEOSET_YEAR": 2007.0, "GEOSET_VERSION": "GAUL_v1", "GEOSET_UNIT": "ADM2", "CENTROID_LONG": -4.7325051127389406, "CENTROID_LAT": 54.104057047608421 }, "geometry": { "type": "MultiPolygon", "coordinates": [ [ [ [ -4.7144732, 54.1386986 ], [ -4.692189, 54.0827364 ], [ -4.7250215, 54.0844329 ], [ -4.7487936, 54.0867043 ], [ -4.7787247, 54.0952557 ], [ -4.7331221, 54.1349184 ], [ -4.7144732, 54.1386986 ] ] ], [ [ [ -4.7508402, 54.0842209 ], [ -4.7515164, 54.0647015 ], [ -4.7721698, 54.0826986 ], [ -4.7508402, 54.0842209 ] ] ] ] } },
{ "type": "Feature", "properties": { "POLYGON_ID": "IMN_GAUL2007_ADM2_61352", "ADM0_ISO3": "IMN", "ADM0_NAME": "Isle of Man", "ADM0_CODE": 120, "ADM1_NAME": "Santan", "ADM1_CODE": 61328, "ADM2_NAME": "Administrative unit not available", "ADM2_CODE": 61352, "GEOSET": "GAUL", "GEOSET_YEAR": 2007.0, "GEOSET_VERSION": "GAUL_v1", "GEOSET_UNIT": "ADM2", "CENTROID_LONG": -4.5708958057251365, "CENTROID_LAT": 54.12604672926102 }, "geometry": { "type": "MultiPolygon", "coordinates": [ [ [ [ -4.567832, 54.1512032 ], [ -4.5255402, 54.12505 ], [ -4.5961808, 54.0953818 ], [ -4.5973039, 54.1452293 ], [ -4.567832, 54.1512032 ] ] ] ] } },
{ "type": "Feature", "properties": { "POLYGON_ID": "IMN_GAUL2007_ADM2_61345", "ADM0_ISO3": "IMN", "ADM0_NAME": "Isle of Man", "ADM0_CODE": 120, "ADM1_NAME": "Onchan", "ADM1_CODE": 61321, "ADM2_NAME": "Administrative unit not available", "ADM2_CODE": 61345, "GEOSET": "GAUL", "GEOSET_YEAR": 2007.0, "GEOSET_VERSION": "GAUL_v1", "GEOSET_UNIT": "ADM2", "CENTROID_LONG": -4.4639704691383759, "CENTROID_LAT": 54.189369813450789 }, "geometry": { "type": "MultiPolygon", "coordinates": [ [ [ [ -4.4245848, 54.1706782 ], [ -4.4637269, 54.1661054 ], [ -4.4963984, 54.1764755 ], [ -4.4719543, 54.2287712 ], [ -4.4245848, 54.1706782 ] ] ] ] } }
]
}
