{
"type": "FeatureCollection",
"name": "IMN_GAUL2000_ADM0",
"crs": { "type": "name", "properties": { "name": "urn:ogc:def:crs:OGC:1.3:CRS84" } },
"features": [
{ "type": "Feature", "properties": { "POLYGON_ID": "IMN_GAUL2000_ADM0_120", "ADM0_ISO3": "IMN", "ADM0_NAME": "Isle of Man", "ADM0_CODE": 120, "GEOSET": "GAUL", "GEOSET_YEAR": 2000.0, "GEOSET_VERSION": "GAUL_v1", "GEOSET_UNIT": "ADM0", "CENTROID_LONG": -4.5348108545112229, "CENTROID_LAT": 54.231192657659463 }, "geometry": { "type": "MultiPolygon", "coordinates": [ [ [ [ -4.3802309, 54.3243079 ], [ -4.3082572, 54.2964703 ], [ -4.3942626, 54.2232935 ], [ -4.4025669, 54.1818069 ], [ -4.4774016, 54.1558424 ], [ -4.4732144, 54.1380708 ], [ -4.5216203, 54.1271295 ], [ -4.5502095, 54.1010055 ], [ -4.5863252, 54.0986039 ], [ -4.6634274, 54.068077 ], [ -4.6976527, 54.0842798 ], [ -4.7788013, 54.0554545 ], [ -4.7301546, 54.1424902 ], [ -4.7409378, 54.1643789 ], [ -4.7011721, 54.2244279 ], [ -4.6588829, 54.2368498 ], [ -4.6121049, 54.2685579 ], [ -4.5294689, 54.3714574 ], [ -4.4517281, 54.4011826 ], [ -4.3671319, 54.4178057 ], [ -4.362415, 54.3929602 ], [ -4.3802309, 54.3243079 ] ] ] ] } }
]
}
