{
"type": "FeatureCollection",
"name": "ISR_GAUL1991_ADM0",
"crs": { "type": "name", "properties": { "name": "urn:ogc:def:crs:OGC:1.3:CRS84" } },
"features": [
{ "type": "Feature", "properties": { "POLYGON_ID": "ISR_GAUL1991_ADM0_121", "ADM0_ISO3": "ISR", "ADM0_NAME": "Israel", "ADM0_CODE": 121, "GEOSET": "GAUL", "GEOSET_YEAR": 1991.0, "GEOSET_VERSION": "GAUL_v1", "GEOSET_UNIT": "ADM0", "CENTROID_LONG": 34.967927321618291, "CENTROID_LAT": 31.356666634622989 }, "geometry": { "type": "MultiPolygon", "coordinates": [ [ [ [ 35.624445, 33.24235 ], [ 35.6803423, 33.2475466 ], [ 35.6630024, 33.1891141 ], [ 35.6705795, 33.1532311 ], [ 35.6534549, 33.123996 ], [ 35.6467681, 33.0627101 ], [ 35.6319678, 33.0249005 ], [ 35.6311588, 32.9598698 ], [ 35.613938, 32.8952195 ], [ 35.6428502, 32.8671599 ], [ 35.6444842, 32.8106601 ], [ 35.662666, 32.7770517 ], [ 35.6491987, 32.7140049 ], [ 35.6716307, 32.6910554 ], [ 35.6346127, 32.6864026 ], [ 35.5986418, 32.6688091 ], [ 35.5723214, 32.6417887 ], [ 35.5775068, 32.5575223 ], [ 35.5527147, 32.5148523 ], [ 35.5755135, 32.4973483 ], [ 35.5530261, 32.4261487 ], [ 35.5551213, 32.3889955 ], [ 35.4763012, 32.4111932 ], [ 35.4402999, 32.4058394 ], [ 35.4117226, 32.4337981 ], [ 35.4172192, 32.4636365 ], [ 35.4026665, 32.5013366 ], [ 35.3418713, 32.5190398 ], [ 35.2934718, 32.5097954 ], [ 35.2523547, 32.523287 ], [ 35.2247767, 32.5524116 ], [ 35.1225789, 32.4825268 ], [ 35.0750135, 32.4618017 ], [ 35.0400354, 32.3800196 ], [ 35.0513616, 32.3664805 ], [ 35.0161456, 32.3378794 ], [ 35.0084034, 32.2801759 ], [ 35.0301752, 32.264115 ], [ 34.9889156, 32.2063175 ], [ 34.9640979, 32.1985842 ], [ 34.9596007, 32.17567 ], [ 34.9901054, 32.1429762 ], [ 34.9857509, 32.0904615 ], [ 35.0018123, 32.0410401 ], [ 34.9983859, 31.9955448 ], [ 34.9863281, 31.9644775 ], [ 34.9816895, 31.9656982 ], [ 34.9974976, 31.9281006 ], [ 35.0233154, 31.9160767 ], [ 35.0289307, 31.8881226 ], [ 35.0205078, 31.8839111 ], [ 35.0148926, 31.871521 ], [ 35.0010986, 31.8660889 ], [ 34.9859009, 31.862915 ], [ 34.9672852, 31.861084 ], [ 34.9572754, 31.8544922 ], [ 34.9553223, 31.8486938 ], [ 34.9805298, 31.8145142 ], [ 35.0311279, 31.8197021 ], [ 35.0457153, 31.8458862 ], [ 35.0764771, 31.8375244 ], [ 35.0993042, 31.8297119 ], [ 35.1102905, 31.8245239 ], [ 35.1273193, 31.8204956 ], [ 35.1550903, 31.8098755 ], [ 35.2223271, 31.7997361 ], [ 35.2264282, 31.7896728 ], [ 35.2266005, 31.7799542 ], [ 35.2246361, 31.7788514 ], [ 35.2278756, 31.7611718 ], [ 35.2268417, 31.7557611 ], [ 35.2239813, 31.7561747 ], [ 35.2240847, 31.7468696 ], [ 35.2234299, 31.7442504 ], [ 35.1944854, 31.7536277 ], [ 35.178857, 31.7463645 ], [ 35.1323005, 31.7481005 ], [ 35.1253005, 31.7383005 ], [ 35.1231015, 31.7108948 ], [ 34.9995005, 31.6507005 ], [ 34.9575005, 31.5911005 ], [ 34.9479005, 31.5047005 ], [ 34.8991005, 31.4353005 ], [ 34.8753005, 31.3867005 ], [ 34.9259005, 31.3443005 ], [ 34.9859005, 31.3543005 ], [ 35.0731005, 31.3587005 ], [ 35.1405005, 31.3569005 ], [ 35.2333005, 31.3763005 ], [ 35.2981005, 31.4167005 ], [ 35.4025005, 31.4955005 ], [ 35.4759603, 31.4905103 ], [ 35.473593, 31.410954 ], [ 35.451806, 31.35036 ], [ 35.423416, 31.310034 ], [ 35.400232, 31.256545 ], [ 35.404563, 31.227801 ], [ 35.446418, 31.172319 ], [ 35.456858, 31.107381 ], [ 35.425199, 31.045819 ], [ 35.415276, 30.949805 ], [ 35.392978, 30.926646 ], [ 35.370164, 30.926689 ], [ 35.334797, 30.87318 ], [ 35.329213, 30.841477 ], [ 35.340381, 30.815661 ], [ 35.314902, 30.790384 ], [ 35.308365, 30.762882 ], [ 35.275559, 30.699267 ], [ 35.263087, 30.65914 ], [ 35.221609, 30.618781 ], [ 35.203631, 30.581972 ], [ 35.19286, 30.498489 ], [ 35.161915, 30.440849 ], [ 35.164873, 30.402892 ], [ 35.191753, 30.345876 ], [ 35.15472, 30.30673 ], [ 35.14584, 30.282178 ], [ 35.151022, 30.214506 ], [ 35.144361, 30.162666 ], [ 35.16085, 30.134709 ], [ 35.146165, 30.063292 ], [ 35.112597, 30.039746 ], [ 35.098738, 29.991665 ], [ 35.078059, 29.957025 ], [ 35.084275, 29.885738 ], [ 35.031202, 29.776068 ], [ 35.011454, 29.696463 ], [ 35.02063, 29.672245 ], [ 35.014005, 29.638884 ], [ 34.978675, 29.576901 ], [ 34.97819, 29.5418233 ], [ 34.955849, 29.5490145 ], [ 34.9051008, 29.4931542 ], [ 34.9009931, 29.5052355 ], [ 34.886983, 29.521851 ], [ 34.8844397, 29.5292349 ], [ 34.8793635, 29.5439722 ], [ 34.8673197, 29.5985872 ], [ 34.8803466, 29.6418957 ], [ 34.8566523, 29.6884732 ], [ 34.8492786, 29.7615962 ], [ 34.8151135, 29.844723 ], [ 34.7988913, 29.8797483 ], [ 34.7449646, 30.0282065 ], [ 34.7145847, 30.1003464 ], [ 34.667771, 30.2205435 ], [ 34.6135151, 30.3681857 ], [ 34.5443002, 30.4104373 ], [ 34.5435628, 30.441407 ], [ 34.5586544, 30.4929496 ], [ 34.5195735, 30.5295725 ], [ 34.5217857, 30.5896686 ], [ 34.5013849, 30.6745896 ], [ 34.4073942, 30.8537227 ], [ 34.3755522, 30.9299935 ], [ 34.2688394, 31.2205349 ], [ 34.3198853, 31.2532959 ], [ 34.3739014, 31.3071289 ], [ 34.3632812, 31.3624878 ], [ 34.3824799, 31.3917916 ], [ 34.5103149, 31.4976807 ], [ 34.5471191, 31.5126953 ], [ 34.567688, 31.5415039 ], [ 34.4908597, 31.5958735 ], [ 34.5900412, 31.7291115 ], [ 34.6402278, 31.8157104 ], [ 34.7330934, 32.0045586 ], [ 34.744517, 32.0494509 ], [ 34.7844915, 32.120589 ], [ 34.8062091, 32.2135397 ], [ 34.8204322, 32.2307816 ], [ 34.8435282, 32.3081865 ], [ 34.8477028, 32.3436459 ], [ 34.8685233, 32.3918483 ], [ 34.8923594, 32.4724882 ], [ 34.9363218, 32.6574925 ], [ 34.9364855, 32.6985573 ], [ 34.953544, 32.7266694 ], [ 34.9652034, 32.8273111 ], [ 34.9926606, 32.8374185 ], [ 35.0341249, 32.8156387 ], [ 35.0605835, 32.8355555 ], [ 35.0819639, 32.871362 ], [ 35.0902705, 32.9083406 ], [ 35.0747542, 32.9206777 ], [ 35.0809686, 32.9617163 ], [ 35.1144078, 33.0777565 ], [ 35.1150375, 33.0930095 ], [ 35.211707, 33.099889 ], [ 35.238919, 33.092266 ], [ 35.317156, 33.10501 ], [ 35.320778, 33.087787 ], [ 35.354494, 33.0573 ], [ 35.431038, 33.065849 ], [ 35.445825, 33.090667 ], [ 35.503625, 33.089486 ], [ 35.519866, 33.116192 ], [ 35.542415, 33.198525 ], [ 35.537458, 33.232535 ], [ 35.555778, 33.258363 ], [ 35.585253, 33.26569 ], [ 35.624445, 33.24235 ] ] ] ] } }
]
}
