{
"type": "FeatureCollection",
"name": "ITA_GAUL1991_ADM1",
"crs": { "type": "name", "properties": { "name": "urn:ogc:def:crs:OGC:1.3:CRS84" } },
"features": [
{ "type": "Feature", "properties": { "POLYGON_ID": "ITA_GAUL1991_ADM1_1616", "ADM0_ISO3": "ITA", "ADM0_NAME": "Italy", "ADM0_CODE": 122, "ADM1_NAME": "Abruzzi", "ADM1_CODE": 1616, "GEOSET": "GAUL", "GEOSET_YEAR": 1991.0, "GEOSET_VERSION": "GAUL_v1", "GEOSET_UNIT": "ADM1", "CENTROID_LONG": 13.856077880872919, "CENTROID_LAT": 42.228928232229528 }, "geometry": { "type": "MultiPolygon", "coordinates": [ [ [ [ 14.7825947, 42.0721234 ], [ 14.766695, 42.019058 ], [ 14.723714, 42.001674 ], [ 14.670714, 41.948817 ], [ 14.664641, 41.917265 ], [ 14.615123, 41.890165 ], [ 14.571497, 41.822135 ], [ 14.490709, 41.762128 ], [ 14.464167, 41.777363 ], [ 14.448363, 41.835545 ], [ 14.377554, 41.880908 ], [ 14.280182, 41.910491 ], [ 14.217757, 41.854738 ], [ 14.167032, 41.843425 ], [ 14.171584, 41.780679 ], [ 14.192631, 41.74901 ], [ 14.070468, 41.738213 ], [ 14.020069, 41.683348 ], [ 13.941912, 41.688951 ], [ 13.898535, 41.733109 ], [ 13.857335, 41.732212 ], [ 13.812997, 41.755179 ], [ 13.750354, 41.76156 ], [ 13.717954, 41.79865 ], [ 13.663037, 41.812417 ], [ 13.576016, 41.755592 ], [ 13.521329, 41.773943 ], [ 13.505983, 41.802591 ], [ 13.409678, 41.838061 ], [ 13.367739, 41.834055 ], [ 13.361549, 41.869934 ], [ 13.384902, 41.905179 ], [ 13.323527, 41.946151 ], [ 13.199998, 41.987484 ], [ 13.140861, 42.016333 ], [ 13.055449, 42.017358 ], [ 13.0197927, 42.0778375 ], [ 13.037931, 42.119974 ], [ 13.087077, 42.145319 ], [ 13.0891486, 42.1778952 ], [ 13.1834965, 42.1616598 ], [ 13.249698, 42.128403 ], [ 13.306208, 42.13923 ], [ 13.36848, 42.181034 ], [ 13.322271, 42.230141 ], [ 13.24408, 42.270688 ], [ 13.228312, 42.314156 ], [ 13.154267, 42.357969 ], [ 13.1915552, 42.3987127 ], [ 13.117081, 42.444885 ], [ 13.154969, 42.463307 ], [ 13.178696, 42.510729 ], [ 13.156728, 42.54103 ], [ 13.192283, 42.588489 ], [ 13.29217, 42.571509 ], [ 13.381194, 42.581886 ], [ 13.409198, 42.643829 ], [ 13.370224, 42.650701 ], [ 13.3582798, 42.697301 ], [ 13.389724, 42.688266 ], [ 13.452725, 42.734772 ], [ 13.505549, 42.74935 ], [ 13.530992, 42.797739 ], [ 13.700038, 42.823484 ], [ 13.723404, 42.85631 ], [ 13.9144279, 42.8959312 ], [ 13.9431334, 42.8020172 ], [ 14.0043192, 42.6881027 ], [ 14.1136255, 42.5634041 ], [ 14.2077789, 42.482338 ], [ 14.3181858, 42.4096413 ], [ 14.389637, 42.3788185 ], [ 14.4394531, 42.3151703 ], [ 14.4868402, 42.2866402 ], [ 14.5157309, 42.2476807 ], [ 14.6310043, 42.1976395 ], [ 14.7156181, 42.1723518 ], [ 14.7196693, 42.1068993 ], [ 14.7825947, 42.0721234 ] ] ] ] } },
{ "type": "Feature", "properties": { "POLYGON_ID": "ITA_GAUL1991_ADM1_1617", "ADM0_ISO3": "ITA", "ADM0_NAME": "Italy", "ADM0_CODE": 122, "ADM1_NAME": "Basilicata", "ADM1_CODE": 1617, "GEOSET": "GAUL", "GEOSET_YEAR": 1991.0, "GEOSET_VERSION": "GAUL_v1", "GEOSET_UNIT": "ADM1", "CENTROID_LONG": 16.082360931896911, "CENTROID_LAT": 40.502814867289608 }, "geometry": { "type": "MultiPolygon", "coordinates": [ [ [ [ 16.8666964, 40.3998217 ], [ 16.7337074, 40.2387047 ], [ 16.7391453, 40.2196198 ], [ 16.6408692, 40.1229492 ], [ 16.562664, 40.130877 ], [ 16.5315057, 40.1184541 ], [ 16.472578, 40.134829 ], [ 16.409831, 40.122388 ], [ 16.415054, 40.081684 ], [ 16.399184, 40.017947 ], [ 16.338622, 39.937178 ], [ 16.269251, 39.936966 ], [ 16.220063, 39.919268 ], [ 16.159427, 39.921072 ], [ 16.140206, 39.903639 ], [ 16.055941, 39.899511 ], [ 15.980534, 39.983509 ], [ 15.820882, 40.002875 ], [ 15.77233, 39.959099 ], [ 15.7562593, 39.9243119 ], [ 15.7143154, 39.9834099 ], [ 15.6449413, 40.0409361 ], [ 15.673242, 40.055652 ], [ 15.703974, 40.120999 ], [ 15.713359, 40.17945 ], [ 15.774914, 40.218349 ], [ 15.806951, 40.274772 ], [ 15.748469, 40.300225 ], [ 15.709759, 40.33757 ], [ 15.710954, 40.378295 ], [ 15.663571, 40.393492 ], [ 15.603918, 40.435775 ], [ 15.507303, 40.587873 ], [ 15.4526, 40.611844 ], [ 15.504463, 40.664662 ], [ 15.431004, 40.693076 ], [ 15.381724, 40.727881 ], [ 15.3907858, 40.7694856 ], [ 15.364412, 40.815603 ], [ 15.384419, 40.877541 ], [ 15.52759, 40.908575 ], [ 15.572869, 40.999862 ], [ 15.54371, 41.056841 ], [ 15.564835, 41.090388 ], [ 15.61767, 41.10015 ], [ 15.682645, 41.087199 ], [ 15.806828, 41.112104 ], [ 15.880023, 41.139565 ], [ 15.95422, 41.11179 ], [ 16.041373, 41.037347 ], [ 16.032817, 40.999367 ], [ 15.97806, 40.958964 ], [ 16.094468, 40.921251 ], [ 16.121899, 40.898703 ], [ 16.163799, 40.929563 ], [ 16.203292, 40.918514 ], [ 16.257826, 40.823321 ], [ 16.43133, 40.705746 ], [ 16.496897, 40.759275 ], [ 16.57683, 40.764532 ], [ 16.635765, 40.754687 ], [ 16.725735, 40.714824 ], [ 16.71078, 40.632019 ], [ 16.7274832, 40.6015762 ], [ 16.706509, 40.551183 ], [ 16.7491961, 40.4647363 ], [ 16.793423, 40.462946 ], [ 16.810198, 40.434068 ], [ 16.8666964, 40.3998217 ] ] ] ] } },
{ "type": "Feature", "properties": { "POLYGON_ID": "ITA_GAUL1991_ADM1_1618", "ADM0_ISO3": "ITA", "ADM0_NAME": "Italy", "ADM0_CODE": 122, "ADM1_NAME": "Calabria", "ADM1_CODE": 1618, "GEOSET": "GAUL", "GEOSET_YEAR": 1991.0, "GEOSET_VERSION": "GAUL_v1", "GEOSET_UNIT": "ADM1", "CENTROID_LONG": 16.349653989168292, "CENTROID_LAT": 39.067132458615156 }, "geometry": { "type": "MultiPolygon", "coordinates": [ [ [ [ 16.6408692, 40.1229492 ], [ 16.6049442, 40.0855827 ], [ 16.5969582, 40.0422363 ], [ 16.6351032, 39.9577332 ], [ 16.5591335, 39.8838272 ], [ 16.4932308, 39.8037033 ], [ 16.5030212, 39.7400703 ], [ 16.5302048, 39.7193794 ], [ 16.53615, 39.6602592 ], [ 16.631321, 39.6199532 ], [ 16.7769203, 39.6211624 ], [ 16.8473186, 39.5536766 ], [ 16.953558, 39.5002022 ], [ 17.0209522, 39.4863548 ], [ 17.054533, 39.4418449 ], [ 17.1591492, 39.3971939 ], [ 17.1163235, 39.3138695 ], [ 17.1089764, 39.2601509 ], [ 17.1519604, 39.2029762 ], [ 17.1223545, 39.1540451 ], [ 17.116642, 39.1094017 ], [ 17.1428204, 39.0560417 ], [ 17.1846447, 39.0149422 ], [ 17.1630058, 38.9873848 ], [ 17.1720409, 38.9545975 ], [ 17.0923252, 38.897419 ], [ 17.0664997, 38.918663 ], [ 17.0136089, 38.9132767 ], [ 16.9684849, 38.9391251 ], [ 16.8286934, 38.9131584 ], [ 16.7454224, 38.8818436 ], [ 16.629221, 38.8242798 ], [ 16.5424957, 38.7198715 ], [ 16.5639477, 38.6780739 ], [ 16.5880566, 38.4483566 ], [ 16.5763645, 38.4241371 ], [ 16.5140972, 38.3687706 ], [ 16.4595394, 38.3343506 ], [ 16.3496876, 38.302166 ], [ 16.1672478, 38.1288147 ], [ 16.1459942, 38.0251617 ], [ 16.1066513, 37.9569092 ], [ 16.0662231, 37.9233208 ], [ 16.0133591, 37.9152451 ], [ 15.933548, 37.9282227 ], [ 15.7792969, 37.9166527 ], [ 15.6856413, 37.9586868 ], [ 15.6380072, 38.0167313 ], [ 15.6578159, 38.0423241 ], [ 15.6311855, 38.1038895 ], [ 15.6559715, 38.1581726 ], [ 15.6378059, 38.2306366 ], [ 15.699707, 38.2552567 ], [ 15.752121, 38.2623444 ], [ 15.8179302, 38.301651 ], [ 15.8343582, 38.3585243 ], [ 15.896018, 38.448391 ], [ 15.9273071, 38.5484161 ], [ 15.8312912, 38.6190262 ], [ 15.8757086, 38.6740608 ], [ 15.9552126, 38.6976128 ], [ 15.9891634, 38.7250824 ], [ 16.0384464, 38.7324181 ], [ 16.1386032, 38.7229042 ], [ 16.1859283, 38.7566261 ], [ 16.215086, 38.806015 ], [ 16.2224808, 38.9037781 ], [ 16.2081146, 38.9330444 ], [ 16.1588802, 38.9498291 ], [ 16.1283436, 39.0045166 ], [ 16.0970783, 39.0319633 ], [ 16.0660877, 39.1416283 ], [ 16.052557, 39.2887917 ], [ 15.9989967, 39.4291077 ], [ 15.9224491, 39.5242844 ], [ 15.8848391, 39.5404587 ], [ 15.8167381, 39.673893 ], [ 15.7882118, 39.813488 ], [ 15.7917213, 39.8538551 ], [ 15.7562593, 39.9243119 ], [ 15.77233, 39.959099 ], [ 15.820882, 40.002875 ], [ 15.980534, 39.983509 ], [ 16.055941, 39.899511 ], [ 16.140206, 39.903639 ], [ 16.159427, 39.921072 ], [ 16.220063, 39.919268 ], [ 16.269251, 39.936966 ], [ 16.338622, 39.937178 ], [ 16.399184, 40.017947 ], [ 16.415054, 40.081684 ], [ 16.409831, 40.122388 ], [ 16.472578, 40.134829 ], [ 16.5315057, 40.1184541 ], [ 16.562664, 40.130877 ], [ 16.6408692, 40.1229492 ] ] ] ] } },
{ "type": "Feature", "properties": { "POLYGON_ID": "ITA_GAUL1991_ADM1_1619", "ADM0_ISO3": "ITA", "ADM0_NAME": "Italy", "ADM0_CODE": 122, "ADM1_NAME": "Campania", "ADM1_CODE": 1619, "GEOSET": "GAUL", "GEOSET_YEAR": 1991.0, "GEOSET_VERSION": "GAUL_v1", "GEOSET_UNIT": "ADM1", "CENTROID_LONG": 14.841361959069005, "CENTROID_LAT": 40.858460425824724 }, "geometry": { "type": "MultiPolygon", "coordinates": [ [ [ [ 15.00849, 41.487364 ], [ 15.031169, 41.456375 ], [ 15.104151, 41.421922 ], [ 15.059314, 41.373111 ], [ 15.073053, 41.333438 ], [ 15.129775, 41.310782 ], [ 15.151669, 41.283957 ], [ 15.248959, 41.272153 ], [ 15.2633, 41.201499 ], [ 15.228356, 41.185912 ], [ 15.210959, 41.150706 ], [ 15.262856, 41.108323 ], [ 15.3648703, 41.0850786 ], [ 15.397229, 41.107791 ], [ 15.444808, 41.080068 ], [ 15.54371, 41.056841 ], [ 15.572869, 40.999862 ], [ 15.52759, 40.908575 ], [ 15.384419, 40.877541 ], [ 15.364412, 40.815603 ], [ 15.3907858, 40.7694856 ], [ 15.381724, 40.727881 ], [ 15.431004, 40.693076 ], [ 15.504463, 40.664662 ], [ 15.4526, 40.611844 ], [ 15.507303, 40.587873 ], [ 15.603918, 40.435775 ], [ 15.663571, 40.393492 ], [ 15.710954, 40.378295 ], [ 15.709759, 40.33757 ], [ 15.748469, 40.300225 ], [ 15.806951, 40.274772 ], [ 15.774914, 40.218349 ], [ 15.713359, 40.17945 ], [ 15.703974, 40.120999 ], [ 15.673242, 40.055652 ], [ 15.6449413, 40.0409361 ], [ 15.6240931, 40.0722008 ], [ 15.5767412, 40.0797424 ], [ 15.5021811, 40.0687256 ], [ 15.4441442, 40.0 ], [ 15.3323517, 40.0 ], [ 15.2728472, 40.0639877 ], [ 15.1987515, 40.1218758 ], [ 15.1771994, 40.1245537 ], [ 15.1160069, 40.1770706 ], [ 15.0313044, 40.1706963 ], [ 14.9857187, 40.2179642 ], [ 14.9279432, 40.2283478 ], [ 14.9037361, 40.2564774 ], [ 14.9381208, 40.2819977 ], [ 14.9397774, 40.3375664 ], [ 14.9949579, 40.3650475 ], [ 14.9881105, 40.4129257 ], [ 14.9325466, 40.4907684 ], [ 14.8944159, 40.5668068 ], [ 14.8251772, 40.6409683 ], [ 14.7512035, 40.6786156 ], [ 14.6967621, 40.640892 ], [ 14.6271963, 40.6519699 ], [ 14.5264034, 40.609314 ], [ 14.4862461, 40.6314621 ], [ 14.344347, 40.57967 ], [ 14.3376513, 40.6345901 ], [ 14.4012432, 40.6458664 ], [ 14.4755545, 40.7112694 ], [ 14.4566984, 40.7439117 ], [ 14.3865805, 40.7642365 ], [ 14.3008299, 40.8314705 ], [ 14.2644491, 40.8435707 ], [ 14.1814175, 40.796154 ], [ 14.0896273, 40.8313408 ], [ 14.0451937, 40.8207054 ], [ 14.040266, 40.8620529 ], [ 14.0061235, 40.9351273 ], [ 13.9480171, 41.0006065 ], [ 13.9194317, 41.0151253 ], [ 13.9017229, 41.076046 ], [ 13.8014593, 41.1913414 ], [ 13.7604042, 41.2200163 ], [ 13.819704, 41.246796 ], [ 13.828128, 41.279571 ], [ 13.883224, 41.291935 ], [ 13.874281, 41.338974 ], [ 13.905725, 41.427433 ], [ 13.978795, 41.463472 ], [ 14.043269, 41.393772 ], [ 14.108373, 41.417425 ], [ 14.07924, 41.447685 ], [ 14.126155, 41.508353 ], [ 14.241626, 41.498187 ], [ 14.328041, 41.454427 ], [ 14.4569, 41.428304 ], [ 14.48948, 41.391694 ], [ 14.603911, 41.364948 ], [ 14.672313, 41.407625 ], [ 14.718147, 41.401816 ], [ 14.765569, 41.418354 ], [ 14.786812, 41.453353 ], [ 14.856517, 41.425681 ], [ 15.00849, 41.487364 ] ] ], [ [ [ 13.8729477, 40.763195 ], [ 13.9383097, 40.7536392 ], [ 13.9535685, 40.7072144 ], [ 13.866251, 40.7015724 ], [ 13.8511486, 40.7395134 ], [ 13.8729477, 40.763195 ] ] ] ] } },
{ "type": "Feature", "properties": { "POLYGON_ID": "ITA_GAUL1991_ADM1_1620", "ADM0_ISO3": "ITA", "ADM0_NAME": "Italy", "ADM0_CODE": 122, "ADM1_NAME": "Emilia-romagna", "ADM1_CODE": 1620, "GEOSET": "GAUL", "GEOSET_YEAR": 1991.0, "GEOSET_VERSION": "GAUL_v1", "GEOSET_UNIT": "ADM1", "CENTROID_LONG": 11.025500324720459, "CENTROID_LAT": 44.536192261471513 }, "geometry": { "type": "MultiPolygon", "coordinates": [ [ [ [ 11.427744, 44.951035 ], [ 11.435076, 44.930328 ], [ 11.524354, 44.939253 ], [ 11.6258, 44.890155 ], [ 11.745738, 44.938048 ], [ 11.748028, 44.959025 ], [ 11.80981, 44.97822 ], [ 11.922172, 44.975578 ], [ 11.961977, 44.987469 ], [ 12.098982, 44.972398 ], [ 12.141585, 44.929357 ], [ 12.174598, 44.941595 ], [ 12.227741, 44.924189 ], [ 12.294286, 44.931252 ], [ 12.287628, 44.871223 ], [ 12.337294, 44.853154 ], [ 12.3885635, 44.7979346 ], [ 12.2945614, 44.8450432 ], [ 12.249526, 44.7496147 ], [ 12.2445354, 44.6944923 ], [ 12.2590857, 44.6396065 ], [ 12.2944155, 44.6005096 ], [ 12.2803888, 44.5276222 ], [ 12.2924433, 44.4640579 ], [ 12.3216076, 44.4112778 ], [ 12.3287153, 44.3576126 ], [ 12.3878365, 44.2270546 ], [ 12.5555801, 44.0874443 ], [ 12.5849571, 44.0829124 ], [ 12.6271315, 44.0355797 ], [ 12.6905136, 43.9904442 ], [ 12.7506126, 43.972762 ], [ 12.729465, 43.925928 ], [ 12.724582, 43.862182 ], [ 12.68227, 43.829012 ], [ 12.624151, 43.82367 ], [ 12.590313, 43.866197 ], [ 12.4915095, 43.9177993 ], [ 12.49643, 43.92458 ], [ 12.49799, 43.92735 ], [ 12.5011779, 43.9366361 ], [ 12.50589, 43.94523 ], [ 12.50483, 43.98296 ], [ 12.51344, 43.99398 ], [ 12.514607, 43.9949004 ], [ 12.51557, 43.99566 ], [ 12.4555759, 43.9756264 ], [ 12.45201, 43.97233 ], [ 12.40555, 43.95431 ], [ 12.324672, 43.963502 ], [ 12.296297, 43.930502 ], [ 12.168829, 43.898644 ], [ 12.103829, 43.789235 ], [ 12.108416, 43.754728 ], [ 11.987478, 43.762872 ], [ 11.898084, 43.808849 ], [ 11.843082, 43.808961 ], [ 11.785433, 43.84852 ], [ 11.711599, 43.878369 ], [ 11.718589, 43.920931 ], [ 11.647289, 43.992946 ], [ 11.695893, 44.036292 ], [ 11.753923, 44.121479 ], [ 11.680461, 44.123901 ], [ 11.653569, 44.101653 ], [ 11.598278, 44.126107 ], [ 11.611801, 44.160936 ], [ 11.517117, 44.158502 ], [ 11.448613, 44.200435 ], [ 11.422062, 44.240188 ], [ 11.378765, 44.200118 ], [ 11.343493, 44.206163 ], [ 11.281704, 44.156291 ], [ 11.23563, 44.159364 ], [ 11.16019, 44.113368 ], [ 11.09123, 44.091361 ], [ 11.02498, 44.098407 ], [ 10.993603, 44.136456 ], [ 10.9199005, 44.0636945 ], [ 10.877257, 44.100876 ], [ 10.805115, 44.119568 ], [ 10.744304, 44.157371 ], [ 10.642219, 44.160784 ], [ 10.625063, 44.121317 ], [ 10.525941, 44.157958 ], [ 10.467405, 44.230622 ], [ 10.431508, 44.228008 ], [ 10.372605, 44.270332 ], [ 10.297785, 44.286926 ], [ 10.254872, 44.269536 ], [ 10.227285, 44.300921 ], [ 10.143049, 44.354821 ], [ 10.079112, 44.357657 ], [ 9.997693, 44.398081 ], [ 10.007958, 44.432687 ], [ 9.972281, 44.464199 ], [ 9.924325, 44.473329 ], [ 9.820963, 44.467376 ], [ 9.734357, 44.380443 ], [ 9.687729, 44.366897 ], [ 9.656058, 44.412834 ], [ 9.560209, 44.439092 ], [ 9.482913, 44.418046 ], [ 9.458386, 44.442471 ], [ 9.497358, 44.484904 ], [ 9.505631, 44.529582 ], [ 9.478049, 44.565999 ], [ 9.422096, 44.578597 ], [ 9.34119, 44.579619 ], [ 9.301011, 44.608792 ], [ 9.204017, 44.614443 ], [ 9.201096, 44.687069 ], [ 9.299544, 44.681973 ], [ 9.331374, 44.736547 ], [ 9.288014, 44.77345 ], [ 9.364142, 44.823355 ], [ 9.342714, 44.87076 ], [ 9.2923145, 44.8845713 ], [ 9.295523, 44.923977 ], [ 9.37665, 45.020865 ], [ 9.371858, 45.049096 ], [ 9.440057, 45.094388 ], [ 9.506097, 45.103017 ], [ 9.549711, 45.133591 ], [ 9.588491, 45.100569 ], [ 9.713578, 45.059709 ], [ 9.754141, 45.087543 ], [ 9.816602, 45.0765 ], [ 9.913553, 45.139784 ], [ 9.971237, 45.132656 ], [ 10.030266, 45.095836 ], [ 10.051404, 45.042687 ], [ 10.108886, 45.023852 ], [ 10.171635, 45.042975 ], [ 10.255113, 45.019593 ], [ 10.2739, 45.000869 ], [ 10.366312, 44.967043 ], [ 10.417797, 44.978577 ], [ 10.436695, 44.944062 ], [ 10.520872, 44.913663 ], [ 10.568046, 44.909334 ], [ 10.628894, 44.925153 ], [ 10.664899, 44.969494 ], [ 10.890689, 44.918475 ], [ 10.942383, 44.922859 ], [ 10.997765, 44.95585 ], [ 11.119029, 44.955423 ], [ 11.152293, 44.934295 ], [ 11.328329, 44.962009 ], [ 11.427744, 44.951035 ] ] ] ] } },
{ "type": "Feature", "properties": { "POLYGON_ID": "ITA_GAUL1991_ADM1_1621", "ADM0_ISO3": "ITA", "ADM0_NAME": "Italy", "ADM0_CODE": 122, "ADM1_NAME": "Friuli-venezia Giulia", "ADM1_CODE": 1621, "GEOSET": "GAUL", "GEOSET_YEAR": 1991.0, "GEOSET_VERSION": "GAUL_v1", "GEOSET_UNIT": "ADM1", "CENTROID_LONG": 13.0556695786431, "CENTROID_LAT": 46.160427857340586 }, "geometry": { "type": "MultiPolygon", "coordinates": [ [ [ [ 12.88402, 46.60972 ], [ 12.9017066, 46.6131194 ], [ 13.04486, 46.59762 ], [ 13.07116, 46.60063 ], [ 13.16142, 46.59202 ], [ 13.19329, 46.57454 ], [ 13.2129268, 46.5680673 ], [ 13.31531, 46.55679 ], [ 13.3461874, 46.5706732 ], [ 13.36623, 46.57048 ], [ 13.51055, 46.55647 ], [ 13.5194872, 46.553608 ], [ 13.61487, 46.54632 ], [ 13.71506, 46.52332 ], [ 13.6866529, 46.4399885 ], [ 13.58483, 46.43369 ], [ 13.56767, 46.40361 ], [ 13.51742, 46.38793 ], [ 13.5143486, 46.3853237 ], [ 13.49926, 46.37252 ], [ 13.4827454, 46.3686978 ], [ 13.38716, 46.30355 ], [ 13.38307, 46.30019 ], [ 13.420445, 46.2340924 ], [ 13.41096, 46.22139 ], [ 13.41307, 46.21655 ], [ 13.42316, 46.21338 ], [ 13.43512, 46.21589 ], [ 13.45258, 46.23202 ], [ 13.52304, 46.22215 ], [ 13.5389295, 46.2188749 ], [ 13.54526, 46.21757 ], [ 13.61527, 46.19048 ], [ 13.62994, 46.19429 ], [ 13.630244, 46.1943105 ], [ 13.63098, 46.19436 ], [ 13.66087, 46.17121 ], [ 13.6592, 46.15568 ], [ 13.64747, 46.14357 ], [ 13.49736, 46.05514 ], [ 13.4910636, 45.993494 ], [ 13.50072, 45.98503 ], [ 13.5292, 45.96752 ], [ 13.58584, 45.98763 ], [ 13.6376, 45.98784 ], [ 13.648018, 45.9382382 ], [ 13.61756, 45.91646 ], [ 13.61281, 45.90511 ], [ 13.57753, 45.84611 ], [ 13.5901302, 45.8211615 ], [ 13.6004585, 45.8057728 ], [ 13.60963, 45.80056 ], [ 13.66444, 45.7971 ], [ 13.7140475, 45.7699113 ], [ 13.72114, 45.76266 ], [ 13.78117, 45.74552 ], [ 13.7911167, 45.7410545 ], [ 13.82437, 45.71155 ], [ 13.83504, 45.6969905 ], [ 13.89581, 45.6476 ], [ 13.9036262, 45.6421938 ], [ 13.89838, 45.62145 ], [ 13.88, 45.61019 ], [ 13.8712231, 45.5965782 ], [ 13.82836, 45.5798 ], [ 13.81724, 45.57891 ], [ 13.7210712, 45.594471 ], [ 13.7789145, 45.6317596 ], [ 13.7475824, 45.6858521 ], [ 13.6283484, 45.7675896 ], [ 13.581336, 45.7823753 ], [ 13.5256338, 45.7705498 ], [ 13.5236044, 45.716114 ], [ 13.4349213, 45.6779442 ], [ 13.3814926, 45.6785927 ], [ 13.3805075, 45.7264595 ], [ 13.3109055, 45.7482376 ], [ 13.1325731, 45.7708778 ], [ 13.0876865, 45.7206535 ], [ 13.0870485, 45.6503792 ], [ 13.039493, 45.718131 ], [ 13.002269, 45.750911 ], [ 12.975213, 45.808489 ], [ 12.891656, 45.824492 ], [ 12.862163, 45.851682 ], [ 12.782839, 45.854849 ], [ 12.730979, 45.838171 ], [ 12.671517, 45.791748 ], [ 12.641349, 45.820972 ], [ 12.562468, 45.826769 ], [ 12.559967, 45.847965 ], [ 12.499902, 45.926432 ], [ 12.423283, 45.957051 ], [ 12.429174, 45.996657 ], [ 12.400507, 46.0417877 ], [ 12.428847, 46.077211 ], [ 12.484372, 46.104317 ], [ 12.499825, 46.1386 ], [ 12.457915, 46.171536 ], [ 12.4457334, 46.2088753 ], [ 12.40727, 46.208165 ], [ 12.324991, 46.255818 ], [ 12.355503, 46.320494 ], [ 12.412795, 46.332353 ], [ 12.499692, 46.413079 ], [ 12.506863, 46.44184 ], [ 12.570953, 46.476364 ], [ 12.66344, 46.470046 ], [ 12.63159, 46.51304 ], [ 12.717515, 46.546124 ], [ 12.743115, 46.596647 ], [ 12.7295275, 46.6372986 ], [ 12.7334609, 46.6374936 ], [ 12.75679, 46.65065 ], [ 12.88402, 46.60972 ] ] ] ] } },
{ "type": "Feature", "properties": { "POLYGON_ID": "ITA_GAUL1991_ADM1_1622", "ADM0_ISO3": "ITA", "ADM0_NAME": "Italy", "ADM0_CODE": 122, "ADM1_NAME": "Lazio", "ADM1_CODE": 1622, "GEOSET": "GAUL", "GEOSET_YEAR": 1991.0, "GEOSET_VERSION": "GAUL_v1", "GEOSET_UNIT": "ADM1", "CENTROID_LONG": 12.768763742965085, "CENTROID_LAT": 41.979938923003438 }, "geometry": { "type": "MultiPolygon", "coordinates": [ [ [ [ 11.895914, 42.835649 ], [ 11.930799, 42.780083 ], [ 11.980432, 42.76556 ], [ 11.927244, 42.705718 ], [ 11.944889, 42.683595 ], [ 12.074662, 42.65765 ], [ 12.205279, 42.661436 ], [ 12.244283, 42.62907 ], [ 12.243147, 42.570467 ], [ 12.31607, 42.488978 ], [ 12.352352, 42.474677 ], [ 12.413495, 42.478816 ], [ 12.423205, 42.422583 ], [ 12.568002, 42.384327 ], [ 12.650438, 42.444287 ], [ 12.741967, 42.472264 ], [ 12.712068, 42.501766 ], [ 12.774752, 42.51323 ], [ 12.848756, 42.553775 ], [ 12.894415, 42.563103 ], [ 12.881018, 42.603333 ], [ 12.954315, 42.620001 ], [ 13.064234, 42.624269 ], [ 13.174476, 42.666342 ], [ 13.1896538, 42.7355247 ], [ 13.255062, 42.722413 ], [ 13.320056, 42.723411 ], [ 13.3582798, 42.697301 ], [ 13.370224, 42.650701 ], [ 13.409198, 42.643829 ], [ 13.381194, 42.581886 ], [ 13.29217, 42.571509 ], [ 13.192283, 42.588489 ], [ 13.156728, 42.54103 ], [ 13.178696, 42.510729 ], [ 13.154969, 42.463307 ], [ 13.117081, 42.444885 ], [ 13.1915552, 42.3987127 ], [ 13.154267, 42.357969 ], [ 13.228312, 42.314156 ], [ 13.24408, 42.270688 ], [ 13.322271, 42.230141 ], [ 13.36848, 42.181034 ], [ 13.306208, 42.13923 ], [ 13.249698, 42.128403 ], [ 13.1834965, 42.1616598 ], [ 13.0891486, 42.1778952 ], [ 13.087077, 42.145319 ], [ 13.037931, 42.119974 ], [ 13.0197927, 42.0778375 ], [ 13.055449, 42.017358 ], [ 13.140861, 42.016333 ], [ 13.199998, 41.987484 ], [ 13.323527, 41.946151 ], [ 13.384902, 41.905179 ], [ 13.361549, 41.869934 ], [ 13.367739, 41.834055 ], [ 13.409678, 41.838061 ], [ 13.505983, 41.802591 ], [ 13.521329, 41.773943 ], [ 13.576016, 41.755592 ], [ 13.663037, 41.812417 ], [ 13.717954, 41.79865 ], [ 13.750354, 41.76156 ], [ 13.812997, 41.755179 ], [ 13.857335, 41.732212 ], [ 13.898535, 41.733109 ], [ 13.941912, 41.688951 ], [ 13.989183, 41.654816 ], [ 14.011878, 41.608523 ], [ 14.002547, 41.570677 ], [ 14.026953, 41.526752 ], [ 13.974041, 41.495324 ], [ 13.978795, 41.463472 ], [ 13.905725, 41.427433 ], [ 13.874281, 41.338974 ], [ 13.883224, 41.291935 ], [ 13.828128, 41.279571 ], [ 13.819704, 41.246796 ], [ 13.7604042, 41.2200163 ], [ 13.7105265, 41.2504463 ], [ 13.6500349, 41.2592735 ], [ 13.5841665, 41.2482796 ], [ 13.5509272, 41.2051125 ], [ 13.3764811, 41.2807579 ], [ 13.3031387, 41.2963142 ], [ 13.1859388, 41.2804413 ], [ 13.1149426, 41.2498131 ], [ 13.09202, 41.2250786 ], [ 13.0383644, 41.2316055 ], [ 13.0034218, 41.3034515 ], [ 12.941534, 41.3698235 ], [ 12.8542395, 41.4130249 ], [ 12.78125, 41.4186096 ], [ 12.6560354, 41.4588356 ], [ 12.6304235, 41.443203 ], [ 12.5741034, 41.5104294 ], [ 12.4844503, 41.6016655 ], [ 12.3851223, 41.6808243 ], [ 12.3124294, 41.7174492 ], [ 12.2169523, 41.7481041 ], [ 12.2162743, 41.7920647 ], [ 12.1817169, 41.8707466 ], [ 12.1482487, 41.9132347 ], [ 12.0456181, 41.9600716 ], [ 11.9166193, 42.0374908 ], [ 11.8371487, 42.0317345 ], [ 11.7539921, 42.1275902 ], [ 11.7385483, 42.172348 ], [ 11.6460161, 42.2878838 ], [ 11.5498409, 42.3429184 ], [ 11.4506228, 42.3793958 ], [ 11.483047, 42.420878 ], [ 11.555476, 42.439758 ], [ 11.619055, 42.43775 ], [ 11.617799, 42.488496 ], [ 11.5622, 42.518279 ], [ 11.585307, 42.543733 ], [ 11.686897, 42.585815 ], [ 11.760032, 42.639069 ], [ 11.820055, 42.744282 ], [ 11.746973, 42.786742 ], [ 11.775193, 42.822038 ], [ 11.850352, 42.839724 ], [ 11.895914, 42.835649 ] ], [ [ 12.4575171, 41.903347 ], [ 12.4575596, 41.9039911 ], [ 12.4514623, 41.9065783 ], [ 12.45052, 41.90653 ], [ 12.4481207, 41.9042014 ], [ 12.44577, 41.90192 ], [ 12.4575171, 41.903347 ] ] ] ] } },
{ "type": "Feature", "properties": { "POLYGON_ID": "ITA_GAUL1991_ADM1_1623", "ADM0_ISO3": "ITA", "ADM0_NAME": "Italy", "ADM0_CODE": 122, "ADM1_NAME": "Liguria", "ADM1_CODE": 1623, "GEOSET": "GAUL", "GEOSET_YEAR": 1991.0, "GEOSET_VERSION": "GAUL_v1", "GEOSET_UNIT": "ADM1", "CENTROID_LONG": 8.7053787938923843, "CENTROID_LAT": 44.264888942520102 }, "geometry": { "type": "MultiPolygon", "coordinates": [ [ [ [ 9.204017, 44.614443 ], [ 9.301011, 44.608792 ], [ 9.34119, 44.579619 ], [ 9.422096, 44.578597 ], [ 9.478049, 44.565999 ], [ 9.505631, 44.529582 ], [ 9.497358, 44.484904 ], [ 9.458386, 44.442471 ], [ 9.482913, 44.418046 ], [ 9.560209, 44.439092 ], [ 9.656058, 44.412834 ], [ 9.687729, 44.366897 ], [ 9.730482, 44.329288 ], [ 9.80674, 44.283761 ], [ 9.855453, 44.269016 ], [ 9.860015, 44.238377 ], [ 9.967485, 44.170392 ], [ 10.003144, 44.108612 ], [ 10.072035, 44.094626 ], [ 10.0223486, 44.0502629 ], [ 9.9687567, 44.0411949 ], [ 9.8817034, 44.0859718 ], [ 9.8391867, 44.0553322 ], [ 9.7447701, 44.0976372 ], [ 9.6646433, 44.1475945 ], [ 9.6429844, 44.1370354 ], [ 9.5568151, 44.2072334 ], [ 9.4433098, 44.2449417 ], [ 9.3512259, 44.3075714 ], [ 9.2328281, 44.3486748 ], [ 9.2022209, 44.3081245 ], [ 9.1524782, 44.3206329 ], [ 9.1517887, 44.3524551 ], [ 9.0997972, 44.3738365 ], [ 8.9758778, 44.3903084 ], [ 8.8272038, 44.4272614 ], [ 8.7639132, 44.4304161 ], [ 8.6457615, 44.3932724 ], [ 8.6210632, 44.3732986 ], [ 8.5043135, 44.3303146 ], [ 8.4476204, 44.2862473 ], [ 8.4621181, 44.2675514 ], [ 8.3983374, 44.1845856 ], [ 8.2758913, 44.1455765 ], [ 8.235013, 44.0896187 ], [ 8.2276192, 44.0445366 ], [ 8.1711092, 43.9998665 ], [ 8.1792011, 43.9631805 ], [ 8.0929422, 43.9145241 ], [ 7.9494891, 43.8496361 ], [ 7.8377728, 43.8227882 ], [ 7.7866368, 43.8277893 ], [ 7.6755562, 43.7859001 ], [ 7.5233769, 43.7897148 ], [ 7.51934, 43.81047 ], [ 7.49656, 43.851 ], [ 7.486, 43.87429 ], [ 7.5272939, 43.9056953 ], [ 7.5560164, 43.9163787 ], [ 7.5738, 43.95819 ], [ 7.5792016, 43.9594813 ], [ 7.64055, 43.98294 ], [ 7.65703, 44.02675 ], [ 7.703794, 44.0616285 ], [ 7.705582, 44.0649314 ], [ 7.715349, 44.062527 ], [ 7.728839, 44.061262 ], [ 7.740045, 44.077871 ], [ 7.725295, 44.124883 ], [ 7.763805, 44.141862 ], [ 7.885017, 44.105634 ], [ 8.013949, 44.120636 ], [ 8.010502, 44.156582 ], [ 8.068363, 44.145661 ], [ 8.0955914, 44.1752661 ], [ 8.064159, 44.254049 ], [ 8.089662, 44.275272 ], [ 8.108824, 44.334026 ], [ 8.222898, 44.430525 ], [ 8.198259, 44.464083 ], [ 8.226834, 44.516359 ], [ 8.393491, 44.478016 ], [ 8.44507, 44.501419 ], [ 8.574812, 44.524288 ], [ 8.626611, 44.585172 ], [ 8.718961, 44.581917 ], [ 8.768616, 44.525926 ], [ 8.825448, 44.539602 ], [ 8.827099, 44.563218 ], [ 8.91718, 44.561122 ], [ 8.904445, 44.622818 ], [ 8.931175, 44.677917 ], [ 9.014204, 44.667745 ], [ 9.055938, 44.622336 ], [ 9.104223, 44.610703 ], [ 9.155074, 44.575806 ], [ 9.204017, 44.614443 ] ] ] ] } },
{ "type": "Feature", "properties": { "POLYGON_ID": "ITA_GAUL1991_ADM1_1624", "ADM0_ISO3": "ITA", "ADM0_NAME": "Italy", "ADM0_CODE": 122, "ADM1_NAME": "Lombardia", "ADM1_CODE": 1624, "GEOSET": "GAUL", "GEOSET_YEAR": 1991.0, "GEOSET_VERSION": "GAUL_v1", "GEOSET_UNIT": "ADM1", "CENTROID_LONG": 9.7702031783578622, "CENTROID_LAT": 45.621540518223576 }, "geometry": { "type": "MultiPolygon", "coordinates": [ [ [ [ 10.2431, 46.59686 ], [ 10.2419869, 46.5907615 ], [ 10.3035099, 46.5485801 ], [ 10.41878, 46.55181 ], [ 10.44044, 46.54119 ], [ 10.4536149, 46.5407909 ], [ 10.4550285, 46.5410903 ], [ 10.4628378, 46.5472811 ], [ 10.46421, 46.54864 ], [ 10.477144, 46.496451 ], [ 10.553021, 46.492353 ], [ 10.622511, 46.449266 ], [ 10.631519, 46.403456 ], [ 10.563638, 46.376505 ], [ 10.528321, 46.343127 ], [ 10.566657, 46.327238 ], [ 10.586728, 46.248834 ], [ 10.542432, 46.189536 ], [ 10.566294, 46.167971 ], [ 10.542616, 46.104166 ], [ 10.478368, 46.052222 ], [ 10.454442, 45.977456 ], [ 10.485677, 45.971578 ], [ 10.508735, 45.906263 ], [ 10.50924, 45.824659 ], [ 10.564509, 45.785034 ], [ 10.652065, 45.813392 ], [ 10.700548, 45.842583 ], [ 10.842306, 45.833295 ], [ 10.703043, 45.67365 ], [ 10.629488, 45.602977 ], [ 10.644428, 45.445299 ], [ 10.716859, 45.419363 ], [ 10.704672, 45.359248 ], [ 10.738436, 45.28817 ], [ 10.78389, 45.31631 ], [ 10.847626, 45.257498 ], [ 10.9352978, 45.2342086 ], [ 10.9914, 45.197031 ], [ 10.998403, 45.15814 ], [ 11.051481, 45.150498 ], [ 11.040761, 45.111618 ], [ 11.095878, 45.097069 ], [ 11.139746, 45.124784 ], [ 11.190233, 45.110702 ], [ 11.175302, 45.063334 ], [ 11.237688, 45.044719 ], [ 11.339255, 44.990347 ], [ 11.416301, 44.969011 ], [ 11.427744, 44.951035 ], [ 11.328329, 44.962009 ], [ 11.152293, 44.934295 ], [ 11.119029, 44.955423 ], [ 10.997765, 44.95585 ], [ 10.942383, 44.922859 ], [ 10.890689, 44.918475 ], [ 10.664899, 44.969494 ], [ 10.628894, 44.925153 ], [ 10.568046, 44.909334 ], [ 10.520872, 44.913663 ], [ 10.436695, 44.944062 ], [ 10.417797, 44.978577 ], [ 10.366312, 44.967043 ], [ 10.2739, 45.000869 ], [ 10.255113, 45.019593 ], [ 10.171635, 45.042975 ], [ 10.108886, 45.023852 ], [ 10.051404, 45.042687 ], [ 10.030266, 45.095836 ], [ 9.971237, 45.132656 ], [ 9.913553, 45.139784 ], [ 9.816602, 45.0765 ], [ 9.754141, 45.087543 ], [ 9.713578, 45.059709 ], [ 9.588491, 45.100569 ], [ 9.549711, 45.133591 ], [ 9.506097, 45.103017 ], [ 9.440057, 45.094388 ], [ 9.371858, 45.049096 ], [ 9.37665, 45.020865 ], [ 9.295523, 44.923977 ], [ 9.2923145, 44.8845713 ], [ 9.342714, 44.87076 ], [ 9.364142, 44.823355 ], [ 9.288014, 44.77345 ], [ 9.331374, 44.736547 ], [ 9.299544, 44.681973 ], [ 9.201096, 44.687069 ], [ 9.213872, 44.754517 ], [ 9.17414, 44.771517 ], [ 9.161588, 44.814605 ], [ 9.1102368, 44.8083539 ], [ 9.053967, 44.845532 ], [ 9.031421, 44.889444 ], [ 8.970659, 44.944462 ], [ 8.979178, 44.968151 ], [ 8.902331, 45.008711 ], [ 8.882117, 45.055028 ], [ 8.824952, 45.047537 ], [ 8.776824, 45.009494 ], [ 8.635802, 45.04191 ], [ 8.641214, 45.07765 ], [ 8.58172, 45.153231 ], [ 8.554011, 45.159562 ], [ 8.5333864, 45.2676835 ], [ 8.500992, 45.298138 ], [ 8.528075, 45.344595 ], [ 8.614554, 45.355434 ], [ 8.656775, 45.326615 ], [ 8.667655, 45.29315 ], [ 8.717188, 45.303824 ], [ 8.727345, 45.336248 ], [ 8.794448, 45.379895 ], [ 8.843962, 45.39478 ], [ 8.788559, 45.487171 ], [ 8.71427, 45.520871 ], [ 8.689092, 45.642607 ], [ 8.641509, 45.685653 ], [ 8.647953, 45.722066 ], [ 8.603221, 45.727239 ], [ 8.556745, 45.775923 ], [ 8.596272, 45.834545 ], [ 8.572754, 45.887934 ], [ 8.594916, 45.92276 ], [ 8.729963, 46.02437 ], [ 8.706422, 46.084116 ], [ 8.7187648, 46.1092658 ], [ 8.7228913, 46.1101692 ], [ 8.8072, 46.11151 ], [ 8.84393, 46.08132 ], [ 8.85502, 46.07535 ], [ 8.83691, 46.04342 ], [ 8.8312, 46.03828 ], [ 8.78995, 46.0107 ], [ 8.79215, 46.00502 ], [ 8.81466, 46.00042 ], [ 8.83765, 45.99194 ], [ 8.86633, 45.97114 ], [ 8.87769, 45.96707 ], [ 8.88225, 45.96677 ], [ 8.89378, 45.94174 ], [ 8.8986641, 45.9342736 ], [ 8.9213799, 45.9061903 ], [ 8.92129, 45.90013 ], [ 8.9222843, 45.8988951 ], [ 8.93745, 45.88006 ], [ 8.926169, 45.867764 ], [ 8.92101, 45.86465 ], [ 8.91422, 45.85399 ], [ 8.9140365, 45.8467201 ], [ 8.91396, 45.84369 ], [ 8.9173888, 45.8435538 ], [ 8.92529, 45.84324 ], [ 8.9386, 45.8501 ], [ 8.9967426, 45.8374794 ], [ 8.99929, 45.82922 ], [ 9.03445, 45.84358 ], [ 9.04751, 45.86258 ], [ 9.07079, 45.88908 ], [ 9.08394, 45.90624 ], [ 9.08189, 45.90872 ], [ 9.08186, 45.90964 ], [ 9.07264, 45.91062 ], [ 9.06734, 45.92129 ], [ 9.05576, 45.9243 ], [ 9.04897, 45.93081 ], [ 9.02968, 45.92933 ], [ 9.01963, 45.93488 ], [ 9.01585, 45.93984 ], [ 9.0129319, 45.9515395 ], [ 9.01162, 46.0455 ], [ 9.03886, 46.06407 ], [ 9.06763, 46.06823 ], [ 9.0798708, 46.0832578 ], [ 9.08291, 46.09138 ], [ 9.10494, 46.13775 ], [ 9.1196493, 46.1457119 ], [ 9.1472915, 46.1629864 ], [ 9.18896, 46.18284 ], [ 9.23909, 46.24062 ], [ 9.24288, 46.24547 ], [ 9.2922897, 46.3283819 ], [ 9.2901142, 46.3406973 ], [ 9.2669119, 46.4183716 ], [ 9.25883, 46.42258 ], [ 9.2588249, 46.4225842 ], [ 9.2552063, 46.4256055 ], [ 9.2946, 46.50251 ], [ 9.35734, 46.50848 ], [ 9.3956088, 46.4699207 ], [ 9.41126, 46.46671 ], [ 9.46635, 46.49516 ], [ 9.45088, 46.42518 ], [ 9.4877975, 46.3666199 ], [ 9.48862, 46.36645 ], [ 9.54368, 46.31114 ], [ 9.5702391, 46.3029922 ], [ 9.58358, 46.3 ], [ 9.59875, 46.30019 ], [ 9.70935, 46.29765 ], [ 9.7145658, 46.3036927 ], [ 9.72694, 46.34726 ], [ 9.8042, 46.34768 ], [ 9.8259268, 46.3623332 ], [ 9.91552, 46.37676 ], [ 9.9274893, 46.3732202 ], [ 9.9893, 46.35483 ], [ 10.0047907, 46.2886227 ], [ 10.0081399, 46.2875228 ], [ 10.05075, 46.26664 ], [ 10.06207, 46.22556 ], [ 10.07164, 46.22473 ], [ 10.0771477, 46.229889 ], [ 10.08396, 46.23627 ], [ 10.1018, 46.23345 ], [ 10.13348, 46.23097 ], [ 10.14722, 46.23703 ], [ 10.1478, 46.24161 ], [ 10.17147, 46.26468 ], [ 10.10728, 46.33209 ], [ 10.13625, 46.4307 ], [ 10.1314392, 46.4324161 ], [ 10.08115, 46.42406 ], [ 10.04334, 46.4475 ], [ 10.05119, 46.53883 ], [ 10.10075, 46.58294 ], [ 10.18562, 46.62319 ], [ 10.2431, 46.59686 ] ] ] ] } },
{ "type": "Feature", "properties": { "POLYGON_ID": "ITA_GAUL1991_ADM1_1625", "ADM0_ISO3": "ITA", "ADM0_NAME": "Italy", "ADM0_CODE": 122, "ADM1_NAME": "Marche", "ADM1_CODE": 1625, "GEOSET": "GAUL", "GEOSET_YEAR": 1991.0, "GEOSET_VERSION": "GAUL_v1", "GEOSET_UNIT": "ADM1", "CENTROID_LONG": 13.10823377259036, "CENTROID_LAT": 43.36895230402979 }, "geometry": { "type": "MultiPolygon", "coordinates": [ [ [ [ 13.9144279, 42.8959312 ], [ 13.723404, 42.85631 ], [ 13.700038, 42.823484 ], [ 13.530992, 42.797739 ], [ 13.505549, 42.74935 ], [ 13.452725, 42.734772 ], [ 13.389724, 42.688266 ], [ 13.3582798, 42.697301 ], [ 13.320056, 42.723411 ], [ 13.255062, 42.722413 ], [ 13.1896538, 42.7355247 ], [ 13.265067, 42.810758 ], [ 13.248656, 42.850932 ], [ 13.156547, 42.834994 ], [ 13.112676, 42.8904 ], [ 13.05521, 42.921067 ], [ 12.977094, 42.87077 ], [ 12.977687, 42.926846 ], [ 12.897536, 42.964878 ], [ 12.889115, 43.012367 ], [ 12.898263, 43.094444 ], [ 12.82569, 43.267521 ], [ 12.790171, 43.283872 ], [ 12.793221, 43.337241 ], [ 12.748205, 43.38972 ], [ 12.77501, 43.40277 ], [ 12.768387, 43.460803 ], [ 12.73556, 43.465301 ], [ 12.710328, 43.426065 ], [ 12.664121, 43.43778 ], [ 12.626708, 43.421981 ], [ 12.578582, 43.450522 ], [ 12.503069, 43.521737 ], [ 12.399992, 43.51417 ], [ 12.344329, 43.553608 ], [ 12.374445, 43.58524 ], [ 12.356944, 43.618295 ], [ 12.26414, 43.590029 ], [ 12.215166, 43.611364 ], [ 12.189308, 43.635376 ], [ 12.331068, 43.707994 ], [ 12.328304, 43.751682 ], [ 12.284744, 43.765866 ], [ 12.108416, 43.754728 ], [ 12.103829, 43.789235 ], [ 12.168829, 43.898644 ], [ 12.296297, 43.930502 ], [ 12.324672, 43.963502 ], [ 12.40555, 43.95431 ], [ 12.40795, 43.932 ], [ 12.4079178, 43.9306151 ], [ 12.4054005, 43.9249295 ], [ 12.40352, 43.92092 ], [ 12.40656, 43.91231 ], [ 12.40913, 43.90842 ], [ 12.4175109, 43.9068531 ], [ 12.42127, 43.90761 ], [ 12.43786, 43.90717 ], [ 12.44196, 43.90541 ], [ 12.46136, 43.89873 ], [ 12.48143, 43.90659 ], [ 12.4915095, 43.9177993 ], [ 12.590313, 43.866197 ], [ 12.624151, 43.82367 ], [ 12.68227, 43.829012 ], [ 12.724582, 43.862182 ], [ 12.729465, 43.925928 ], [ 12.7506126, 43.972762 ], [ 12.8103514, 43.9636116 ], [ 12.9102106, 43.9285088 ], [ 13.0573416, 43.8365746 ], [ 13.265274, 43.695816 ], [ 13.3781929, 43.6421585 ], [ 13.4645395, 43.6130257 ], [ 13.5169086, 43.6311111 ], [ 13.580822, 43.5721512 ], [ 13.62712, 43.5518265 ], [ 13.6268301, 43.5016518 ], [ 13.6737223, 43.4251671 ], [ 13.7200756, 43.3252945 ], [ 13.7805214, 43.2291832 ], [ 13.8380299, 43.107666 ], [ 13.8851881, 42.9433098 ], [ 13.9144279, 42.8959312 ] ] ] ] } },
{ "type": "Feature", "properties": { "POLYGON_ID": "ITA_GAUL1991_ADM1_1626", "ADM0_ISO3": "ITA", "ADM0_NAME": "Italy", "ADM0_CODE": 122, "ADM1_NAME": "Molise", "ADM1_CODE": 1626, "GEOSET": "GAUL", "GEOSET_YEAR": 1991.0, "GEOSET_VERSION": "GAUL_v1", "GEOSET_UNIT": "ADM1", "CENTROID_LONG": 14.595783598232284, "CENTROID_LAT": 41.68530329738401 }, "geometry": { "type": "MultiPolygon", "coordinates": [ [ [ [ 15.00849, 41.487364 ], [ 14.856517, 41.425681 ], [ 14.786812, 41.453353 ], [ 14.765569, 41.418354 ], [ 14.718147, 41.401816 ], [ 14.672313, 41.407625 ], [ 14.603911, 41.364948 ], [ 14.48948, 41.391694 ], [ 14.4569, 41.428304 ], [ 14.328041, 41.454427 ], [ 14.241626, 41.498187 ], [ 14.126155, 41.508353 ], [ 14.07924, 41.447685 ], [ 14.108373, 41.417425 ], [ 14.043269, 41.393772 ], [ 13.978795, 41.463472 ], [ 13.974041, 41.495324 ], [ 14.026953, 41.526752 ], [ 14.002547, 41.570677 ], [ 14.011878, 41.608523 ], [ 13.989183, 41.654816 ], [ 13.941912, 41.688951 ], [ 14.020069, 41.683348 ], [ 14.070468, 41.738213 ], [ 14.192631, 41.74901 ], [ 14.171584, 41.780679 ], [ 14.167032, 41.843425 ], [ 14.217757, 41.854738 ], [ 14.280182, 41.910491 ], [ 14.377554, 41.880908 ], [ 14.448363, 41.835545 ], [ 14.464167, 41.777363 ], [ 14.490709, 41.762128 ], [ 14.571497, 41.822135 ], [ 14.615123, 41.890165 ], [ 14.664641, 41.917265 ], [ 14.670714, 41.948817 ], [ 14.723714, 42.001674 ], [ 14.766695, 42.019058 ], [ 14.7825947, 42.0721234 ], [ 14.8592043, 42.0342484 ], [ 14.9929848, 42.0056114 ], [ 15.0655689, 41.9479332 ], [ 15.1379878, 41.9282238 ], [ 15.139669, 41.88025 ], [ 15.104534, 41.847711 ], [ 15.115814, 41.790307 ], [ 15.097874, 41.769257 ], [ 15.119104, 41.695275 ], [ 15.023566, 41.622828 ], [ 14.960413, 41.647015 ], [ 14.934969, 41.620423 ], [ 14.951032, 41.593196 ], [ 14.938228, 41.52807 ], [ 15.00849, 41.487364 ] ] ] ] } },
{ "type": "Feature", "properties": { "POLYGON_ID": "ITA_GAUL1991_ADM1_1627", "ADM0_ISO3": "ITA", "ADM0_NAME": "Italy", "ADM0_CODE": 122, "ADM1_NAME": "Piemonte", "ADM1_CODE": 1627, "GEOSET": "GAUL", "GEOSET_YEAR": 1991.0, "GEOSET_VERSION": "GAUL_v1", "GEOSET_UNIT": "ADM1", "CENTROID_LONG": 7.9218156062899752, "CENTROID_LAT": 45.063929221993014 }, "geometry": { "type": "MultiPolygon", "coordinates": [ [ [ [ 8.43358, 46.30507 ], [ 8.4342699, 46.2975311 ], [ 8.4552, 46.27351 ], [ 8.45157, 46.25948 ], [ 8.51837, 46.22685 ], [ 8.53147, 46.22164 ], [ 8.61561, 46.1296 ], [ 8.63116, 46.12786 ], [ 8.64729, 46.12752 ], [ 8.65753, 46.11903 ], [ 8.711418, 46.1076591 ], [ 8.7187648, 46.1092658 ], [ 8.706422, 46.084116 ], [ 8.729963, 46.02437 ], [ 8.594916, 45.92276 ], [ 8.572754, 45.887934 ], [ 8.596272, 45.834545 ], [ 8.556745, 45.775923 ], [ 8.603221, 45.727239 ], [ 8.647953, 45.722066 ], [ 8.641509, 45.685653 ], [ 8.689092, 45.642607 ], [ 8.71427, 45.520871 ], [ 8.788559, 45.487171 ], [ 8.843962, 45.39478 ], [ 8.794448, 45.379895 ], [ 8.727345, 45.336248 ], [ 8.717188, 45.303824 ], [ 8.667655, 45.29315 ], [ 8.656775, 45.326615 ], [ 8.614554, 45.355434 ], [ 8.528075, 45.344595 ], [ 8.500992, 45.298138 ], [ 8.5333864, 45.2676835 ], [ 8.554011, 45.159562 ], [ 8.58172, 45.153231 ], [ 8.641214, 45.07765 ], [ 8.635802, 45.04191 ], [ 8.776824, 45.009494 ], [ 8.824952, 45.047537 ], [ 8.882117, 45.055028 ], [ 8.902331, 45.008711 ], [ 8.979178, 44.968151 ], [ 8.970659, 44.944462 ], [ 9.031421, 44.889444 ], [ 9.053967, 44.845532 ], [ 9.1102368, 44.8083539 ], [ 9.161588, 44.814605 ], [ 9.17414, 44.771517 ], [ 9.213872, 44.754517 ], [ 9.201096, 44.687069 ], [ 9.204017, 44.614443 ], [ 9.155074, 44.575806 ], [ 9.104223, 44.610703 ], [ 9.055938, 44.622336 ], [ 9.014204, 44.667745 ], [ 8.931175, 44.677917 ], [ 8.904445, 44.622818 ], [ 8.91718, 44.561122 ], [ 8.827099, 44.563218 ], [ 8.825448, 44.539602 ], [ 8.768616, 44.525926 ], [ 8.718961, 44.581917 ], [ 8.626611, 44.585172 ], [ 8.574812, 44.524288 ], [ 8.44507, 44.501419 ], [ 8.393491, 44.478016 ], [ 8.226834, 44.516359 ], [ 8.198259, 44.464083 ], [ 8.222898, 44.430525 ], [ 8.108824, 44.334026 ], [ 8.089662, 44.275272 ], [ 8.064159, 44.254049 ], [ 8.0955914, 44.1752661 ], [ 8.068363, 44.145661 ], [ 8.010502, 44.156582 ], [ 8.013949, 44.120636 ], [ 7.885017, 44.105634 ], [ 7.763805, 44.141862 ], [ 7.725295, 44.124883 ], [ 7.740045, 44.077871 ], [ 7.728839, 44.061262 ], [ 7.715349, 44.062527 ], [ 7.705582, 44.0649314 ], [ 7.71224, 44.07723 ], [ 7.67101, 44.13009 ], [ 7.66745, 44.16391 ], [ 7.67989, 44.17987 ], [ 7.6788273, 44.1816703 ], [ 7.6333, 44.18694 ], [ 7.6327375, 44.1863369 ], [ 7.62007, 44.16316 ], [ 7.50401, 44.15062 ], [ 7.4982469, 44.1469497 ], [ 7.42453, 44.11875 ], [ 7.34169, 44.15066 ], [ 7.3141, 44.14907 ], [ 7.3031612, 44.1511287 ], [ 7.27609, 44.14619 ], [ 7.2630298, 44.1539795 ], [ 7.19266, 44.19954 ], [ 7.1920712, 44.2000625 ], [ 7.14072, 44.2044 ], [ 7.1356551, 44.2074862 ], [ 7.0742, 44.23601 ], [ 7.02603, 44.22719 ], [ 6.9902105, 44.2653452 ], [ 6.99132, 44.27685 ], [ 6.9903677, 44.2787173 ], [ 6.98799, 44.28338 ], [ 6.97796, 44.2899 ], [ 6.96422, 44.29009 ], [ 6.95338, 44.31263 ], [ 6.9496293, 44.3170208 ], [ 6.89171, 44.38009 ], [ 6.88973, 44.42105 ], [ 6.93858, 44.43567 ], [ 6.87658, 44.48363 ], [ 6.84928, 44.53329 ], [ 6.8561092, 44.5382338 ], [ 6.906813, 44.5647935 ], [ 6.91618, 44.57449 ], [ 6.9474, 44.62697 ], [ 6.9575894, 44.6280322 ], [ 6.93691, 44.6571 ], [ 7.00481, 44.69598 ], [ 7.0679495, 44.689032 ], [ 7.0628864, 44.7100534 ], [ 7.02124, 44.75043 ], [ 7.00099, 44.79602 ], [ 7.01381, 44.83339 ], [ 7.0092256, 44.8353662 ], [ 7.00351, 44.83783 ], [ 6.99562, 44.84924 ], [ 6.92784, 44.86905 ], [ 6.9131082, 44.8560016 ], [ 6.85947, 44.85648 ], [ 6.76867, 44.90745 ], [ 6.74959, 44.91246 ], [ 6.73934, 45.00172 ], [ 6.73872, 45.00995 ], [ 6.7225996, 45.03089 ], [ 6.69502, 45.02801 ], [ 6.65804, 45.0383 ], [ 6.6165, 45.11556 ], [ 6.6174112, 45.1162122 ], [ 6.6202661, 45.1179134 ], [ 6.6504139, 45.1248932 ], [ 6.6514277, 45.1257151 ], [ 6.67297, 45.14318 ], [ 6.75843, 45.16085 ], [ 6.8427688, 45.1379993 ], [ 6.85273, 45.1382 ], [ 6.87816, 45.14463 ], [ 6.883, 45.14939 ], [ 6.93982, 45.18307 ], [ 6.9428295, 45.1902678 ], [ 6.9526801, 45.2024457 ], [ 6.95425, 45.20788 ], [ 6.99716, 45.2243 ], [ 7.00502, 45.22321 ], [ 7.0151593, 45.2237595 ], [ 7.04692, 45.23132 ], [ 7.06876, 45.22497 ], [ 7.1270356, 45.2748857 ], [ 7.13218, 45.28811 ], [ 7.1110193, 45.3359772 ], [ 7.1191207, 45.3394537 ], [ 7.15371, 45.36699 ], [ 7.17727, 45.41705 ], [ 7.10068, 45.46143 ], [ 7.0994897, 45.4638173 ], [ 7.122765, 45.507191 ], [ 7.224614, 45.470688 ], [ 7.270605, 45.515628 ], [ 7.384556, 45.520519 ], [ 7.468705, 45.578573 ], [ 7.567565, 45.592565 ], [ 7.610158, 45.563821 ], [ 7.735144, 45.550849 ], [ 7.807742, 45.589978 ], [ 7.896925, 45.602566 ], [ 7.940472, 45.644196 ], [ 7.906301, 45.682906 ], [ 7.937713, 45.725287 ], [ 7.864196, 45.791932 ], [ 7.86705, 45.94159 ], [ 7.8666327, 45.9516763 ], [ 7.86616, 45.96309 ], [ 7.90553, 46.00423 ], [ 7.94982, 46.0052 ], [ 7.9793707, 46.0042853 ], [ 7.99484, 46.01074 ], [ 8.0054942, 46.0241917 ], [ 8.03174, 46.05727 ], [ 8.0300781, 46.0940867 ], [ 8.1014465, 46.117603 ], [ 8.11091, 46.12066 ], [ 8.14984, 46.16925 ], [ 8.1621514, 46.1851125 ], [ 8.13836, 46.23122 ], [ 8.086, 46.26721 ], [ 8.14417, 46.30942 ], [ 8.1893751, 46.3051022 ], [ 8.19935, 46.3085 ], [ 8.2325, 46.34477 ], [ 8.31105, 46.37983 ], [ 8.31972, 46.39171 ], [ 8.30272, 46.4277 ], [ 8.364104, 46.4495784 ], [ 8.42073, 46.46428 ], [ 8.4609, 46.44779 ], [ 8.46745, 46.3715 ], [ 8.43358, 46.30507 ] ] ] ] } },
{ "type": "Feature", "properties": { "POLYGON_ID": "ITA_GAUL1991_ADM1_1628", "ADM0_ISO3": "ITA", "ADM0_NAME": "Italy", "ADM0_CODE": 122, "ADM1_NAME": "Puglia", "ADM1_CODE": 1628, "GEOSET": "GAUL", "GEOSET_YEAR": 1991.0, "GEOSET_VERSION": "GAUL_v1", "GEOSET_UNIT": "ADM1", "CENTROID_LONG": 16.622636812948642, "CENTROID_LAT": 40.98200882936743 }, "geometry": { "type": "MultiPolygon", "coordinates": [ [ [ [ 16.8666964, 40.3998217 ], [ 16.810198, 40.434068 ], [ 16.793423, 40.462946 ], [ 16.7491961, 40.4647363 ], [ 16.706509, 40.551183 ], [ 16.7274832, 40.6015762 ], [ 16.71078, 40.632019 ], [ 16.725735, 40.714824 ], [ 16.635765, 40.754687 ], [ 16.57683, 40.764532 ], [ 16.496897, 40.759275 ], [ 16.43133, 40.705746 ], [ 16.257826, 40.823321 ], [ 16.203292, 40.918514 ], [ 16.163799, 40.929563 ], [ 16.121899, 40.898703 ], [ 16.094468, 40.921251 ], [ 15.97806, 40.958964 ], [ 16.032817, 40.999367 ], [ 16.041373, 41.037347 ], [ 15.95422, 41.11179 ], [ 15.880023, 41.139565 ], [ 15.806828, 41.112104 ], [ 15.682645, 41.087199 ], [ 15.61767, 41.10015 ], [ 15.564835, 41.090388 ], [ 15.54371, 41.056841 ], [ 15.444808, 41.080068 ], [ 15.397229, 41.107791 ], [ 15.3648703, 41.0850786 ], [ 15.262856, 41.108323 ], [ 15.210959, 41.150706 ], [ 15.228356, 41.185912 ], [ 15.2633, 41.201499 ], [ 15.248959, 41.272153 ], [ 15.151669, 41.283957 ], [ 15.129775, 41.310782 ], [ 15.073053, 41.333438 ], [ 15.059314, 41.373111 ], [ 15.104151, 41.421922 ], [ 15.031169, 41.456375 ], [ 15.00849, 41.487364 ], [ 14.938228, 41.52807 ], [ 14.951032, 41.593196 ], [ 14.934969, 41.620423 ], [ 14.960413, 41.647015 ], [ 15.023566, 41.622828 ], [ 15.119104, 41.695275 ], [ 15.097874, 41.769257 ], [ 15.115814, 41.790307 ], [ 15.104534, 41.847711 ], [ 15.139669, 41.88025 ], [ 15.1379878, 41.9282238 ], [ 15.2794218, 41.9248886 ], [ 15.3411522, 41.8658371 ], [ 15.4038038, 41.8816719 ], [ 15.4901524, 41.8774757 ], [ 15.552578, 41.8978195 ], [ 15.5857391, 41.9237213 ], [ 15.6377258, 41.930481 ], [ 15.6975298, 41.914856 ], [ 15.7991772, 41.9216843 ], [ 15.9926872, 41.9497337 ], [ 16.0651302, 41.9468727 ], [ 16.1486263, 41.9110985 ], [ 16.201849, 41.8296776 ], [ 16.1931534, 41.7771072 ], [ 16.0730324, 41.7144051 ], [ 16.0330467, 41.6809387 ], [ 15.9509726, 41.6509857 ], [ 15.8971853, 41.6190186 ], [ 15.8958445, 41.5527496 ], [ 15.9564095, 41.4629478 ], [ 15.9991531, 41.4382935 ], [ 16.2397919, 41.3377571 ], [ 16.3450909, 41.311985 ], [ 16.4449024, 41.2659721 ], [ 16.5356045, 41.2384453 ], [ 16.5815182, 41.209259 ], [ 16.7753334, 41.157814 ], [ 16.8126068, 41.1383858 ], [ 16.8704605, 41.1384773 ], [ 16.8900051, 41.1208992 ], [ 17.0943356, 41.0611763 ], [ 17.300272, 40.954834 ], [ 17.3426876, 40.9112778 ], [ 17.5086651, 40.8116608 ], [ 17.6855278, 40.7625046 ], [ 17.8380051, 40.6879692 ], [ 17.9207878, 40.677166 ], [ 17.9627266, 40.6455345 ], [ 18.0163555, 40.6408997 ], [ 18.0415115, 40.5566101 ], [ 18.1244946, 40.4935112 ], [ 18.2315788, 40.4484634 ], [ 18.310936, 40.3748894 ], [ 18.423502, 40.2899933 ], [ 18.4576092, 40.2315979 ], [ 18.4632626, 40.1832199 ], [ 18.5040054, 40.1337585 ], [ 18.5088367, 40.0939293 ], [ 18.4693928, 40.0377045 ], [ 18.4154568, 39.9933395 ], [ 18.392004, 39.9075851 ], [ 18.3889618, 39.8198814 ], [ 18.3491802, 39.7894096 ], [ 18.2662144, 39.838047 ], [ 18.1989193, 39.8400116 ], [ 18.1464005, 39.862442 ], [ 18.0459518, 39.9306374 ], [ 17.9974594, 39.9956551 ], [ 18.0132618, 40.0090523 ], [ 17.9854355, 40.0592918 ], [ 17.9966698, 40.1152267 ], [ 17.9228497, 40.1767159 ], [ 17.895731, 40.2567177 ], [ 17.7568817, 40.2972488 ], [ 17.6551685, 40.3054619 ], [ 17.5068417, 40.2939453 ], [ 17.4347935, 40.3292694 ], [ 17.374052, 40.3468971 ], [ 17.2257328, 40.4053955 ], [ 17.2498436, 40.4523849 ], [ 17.16749, 40.5050888 ], [ 17.077261, 40.5210152 ], [ 16.952095, 40.4755211 ], [ 16.8666964, 40.3998217 ] ] ] ] } },
{ "type": "Feature", "properties": { "POLYGON_ID": "ITA_GAUL1991_ADM1_1629", "ADM0_ISO3": "ITA", "ADM0_NAME": "Italy", "ADM0_CODE": 122, "ADM1_NAME": "Sardegna", "ADM1_CODE": 1629, "GEOSET": "GAUL", "GEOSET_YEAR": 1991.0, "GEOSET_VERSION": "GAUL_v1", "GEOSET_UNIT": "ADM1", "CENTROID_LONG": 9.029125858073936, "CENTROID_LAT": 40.088118687636516 }, "geometry": { "type": "MultiPolygon", "coordinates": [ [ [ [ 9.232523, 41.2603226 ], [ 9.3223524, 41.1973991 ], [ 9.3422432, 41.2112007 ], [ 9.4224463, 41.1746025 ], [ 9.4417915, 41.1272736 ], [ 9.5204172, 41.1615295 ], [ 9.5675602, 41.1232414 ], [ 9.5332527, 41.0800018 ], [ 9.5322752, 41.0326195 ], [ 9.5780592, 41.0094147 ], [ 9.5969572, 40.9741859 ], [ 9.5690336, 40.9310417 ], [ 9.6916771, 40.8428612 ], [ 9.6697502, 40.8000488 ], [ 9.7201958, 40.7587738 ], [ 9.7208862, 40.7111969 ], [ 9.7567835, 40.6871262 ], [ 9.7402525, 40.6594887 ], [ 9.753809, 40.5971909 ], [ 9.8277912, 40.518856 ], [ 9.7733479, 40.4135132 ], [ 9.6949978, 40.3616142 ], [ 9.638133, 40.2877464 ], [ 9.6256113, 40.24757 ], [ 9.632637, 40.185688 ], [ 9.6837692, 40.1181717 ], [ 9.7297897, 40.0919609 ], [ 9.6847439, 39.9790039 ], [ 9.6902866, 39.9484329 ], [ 9.6679716, 39.7747574 ], [ 9.6762609, 39.7206573 ], [ 9.6485586, 39.6627922 ], [ 9.6550465, 39.5752869 ], [ 9.6319208, 39.5124207 ], [ 9.6412439, 39.4491653 ], [ 9.6003857, 39.3765068 ], [ 9.6125546, 39.3022957 ], [ 9.5711508, 39.2497368 ], [ 9.5672712, 39.1540833 ], [ 9.5135984, 39.1050339 ], [ 9.48421, 39.1394959 ], [ 9.4321785, 39.129776 ], [ 9.3618717, 39.1822777 ], [ 9.2876863, 39.2193642 ], [ 9.2051325, 39.2334213 ], [ 9.1406622, 39.189106 ], [ 9.0882559, 39.2195053 ], [ 9.0202494, 39.1554031 ], [ 9.0159807, 39.091507 ], [ 9.0405817, 39.0570831 ], [ 9.020731, 39.006916 ], [ 8.8982935, 38.9078331 ], [ 8.8343248, 38.8830261 ], [ 8.7972975, 38.8895264 ], [ 8.7259388, 38.9402962 ], [ 8.6493988, 38.8964157 ], [ 8.6071911, 38.8993378 ], [ 8.6147766, 38.9580612 ], [ 8.5635815, 39.0042839 ], [ 8.568778, 39.0446548 ], [ 8.51406, 39.0882759 ], [ 8.4596243, 39.0577393 ], [ 8.4414778, 38.9759254 ], [ 8.4110832, 38.965271 ], [ 8.3616724, 39.0416603 ], [ 8.3467388, 39.0846176 ], [ 8.4347286, 39.1199646 ], [ 8.4290791, 39.1669922 ], [ 8.3677855, 39.2351341 ], [ 8.4334555, 39.2933693 ], [ 8.4191685, 39.3342743 ], [ 8.3787441, 39.3728409 ], [ 8.4111462, 39.4432335 ], [ 8.3864355, 39.4772949 ], [ 8.4476166, 39.5443382 ], [ 8.466258, 39.606205 ], [ 8.4486856, 39.6312714 ], [ 8.4401836, 39.7527466 ], [ 8.5096807, 39.7627258 ], [ 8.5481768, 39.8180695 ], [ 8.550086, 39.8608513 ], [ 8.5144863, 39.9086685 ], [ 8.4544601, 39.913044 ], [ 8.4327812, 39.8783493 ], [ 8.392395, 39.9072952 ], [ 8.387145, 39.9750862 ], [ 8.410718, 40.0109062 ], [ 8.3994427, 40.035347 ], [ 8.4857855, 40.0827446 ], [ 8.4548464, 40.1785469 ], [ 8.4830608, 40.2837448 ], [ 8.4565678, 40.3265953 ], [ 8.3986521, 40.3417015 ], [ 8.3792458, 40.3631973 ], [ 8.4020729, 40.4172821 ], [ 8.3713646, 40.5007477 ], [ 8.3332348, 40.524765 ], [ 8.2893076, 40.5987434 ], [ 8.2352629, 40.5740471 ], [ 8.1459408, 40.6012726 ], [ 8.1439047, 40.632576 ], [ 8.182622, 40.6450195 ], [ 8.20508, 40.6925125 ], [ 8.1312056, 40.7388954 ], [ 8.1651039, 40.7727394 ], [ 8.173728, 40.8077507 ], [ 8.2199106, 40.8775978 ], [ 8.2190514, 40.9034424 ], [ 8.1780119, 40.9383354 ], [ 8.2260523, 40.9555817 ], [ 8.2360897, 40.9130287 ], [ 8.3028345, 40.8535728 ], [ 8.4138889, 40.8457146 ], [ 8.4571495, 40.8252106 ], [ 8.5325203, 40.8280716 ], [ 8.6089687, 40.8576813 ], [ 8.6334639, 40.8859062 ], [ 8.7119083, 40.9216614 ], [ 8.7873583, 40.9257202 ], [ 8.8737373, 40.9974518 ], [ 8.8819008, 41.0319366 ], [ 8.9322329, 41.0514297 ], [ 9.0115576, 41.1274948 ], [ 9.1094761, 41.1365318 ], [ 9.1523542, 41.1576233 ], [ 9.1633644, 41.2443237 ], [ 9.232523, 41.2603226 ] ] ], [ [ [ 8.3259001, 41.113945 ], [ 8.3499966, 41.0946121 ], [ 8.3255625, 41.0589981 ], [ 8.2900181, 41.0640793 ], [ 8.3259001, 41.113945 ] ] ], [ [ [ 8.3099823, 39.1900558 ], [ 8.3086195, 39.1101723 ], [ 8.2468672, 39.1144066 ], [ 8.2290459, 39.1703262 ], [ 8.3099823, 39.1900558 ] ] ] ] } },
{ "type": "Feature", "properties": { "POLYGON_ID": "ITA_GAUL1991_ADM1_1630", "ADM0_ISO3": "ITA", "ADM0_NAME": "Italy", "ADM0_CODE": 122, "ADM1_NAME": "Sicilia", "ADM1_CODE": 1630, "GEOSET": "GAUL", "GEOSET_YEAR": 1991.0, "GEOSET_VERSION": "GAUL_v1", "GEOSET_UNIT": "ADM1", "CENTROID_LONG": 14.150364296825037, "CENTROID_LAT": 37.590718935824235 }, "geometry": { "type": "MultiPolygon", "coordinates": [ [ [ [ 15.6146679, 38.2746315 ], [ 15.578229, 38.2292786 ], [ 15.5470009, 38.1541405 ], [ 15.5078888, 38.0866318 ], [ 15.4479074, 38.0173721 ], [ 15.3072395, 37.8747139 ], [ 15.2112942, 37.7387848 ], [ 15.2268171, 37.7120934 ], [ 15.1839294, 37.6347504 ], [ 15.1700869, 37.560955 ], [ 15.092967, 37.4909821 ], [ 15.0960588, 37.3349419 ], [ 15.1067743, 37.3102608 ], [ 15.1947355, 37.2830582 ], [ 15.2580719, 37.2417793 ], [ 15.1961985, 37.2366753 ], [ 15.1916704, 37.1907387 ], [ 15.2307444, 37.12603 ], [ 15.3005114, 37.1051292 ], [ 15.2881403, 37.0374603 ], [ 15.3016682, 37.0137978 ], [ 15.1594315, 36.9194107 ], [ 15.1146297, 36.8501282 ], [ 15.0986891, 36.781189 ], [ 15.1417484, 36.6819382 ], [ 15.0841694, 36.6527824 ], [ 15.0322704, 36.6986465 ], [ 14.98493, 36.6908798 ], [ 14.8692112, 36.7312737 ], [ 14.7856369, 36.7042236 ], [ 14.7483959, 36.7221832 ], [ 14.7020216, 36.7163391 ], [ 14.6672716, 36.7451973 ], [ 14.5902119, 36.7769775 ], [ 14.4962645, 36.7894936 ], [ 14.4619646, 36.8180466 ], [ 14.4427414, 36.8782463 ], [ 14.3928633, 36.9489746 ], [ 14.3391657, 37.0062599 ], [ 14.2880325, 37.0453339 ], [ 14.155654, 37.0974083 ], [ 14.0715408, 37.1095428 ], [ 13.9711809, 37.1089745 ], [ 13.9495335, 37.0962372 ], [ 13.8782988, 37.101944 ], [ 13.8324108, 37.1423531 ], [ 13.753705, 37.1497078 ], [ 13.665247, 37.195816 ], [ 13.63587, 37.2313385 ], [ 13.5481005, 37.2855911 ], [ 13.4512606, 37.2939034 ], [ 13.380085, 37.3442345 ], [ 13.3250179, 37.3618774 ], [ 13.1736784, 37.4920654 ], [ 13.0091801, 37.5157394 ], [ 12.9374914, 37.575882 ], [ 12.8631954, 37.5824127 ], [ 12.7576056, 37.5793152 ], [ 12.6795282, 37.5594482 ], [ 12.6486006, 37.5773239 ], [ 12.6065807, 37.6411743 ], [ 12.5221043, 37.6604729 ], [ 12.4731922, 37.7039795 ], [ 12.471077, 37.7420349 ], [ 12.4256878, 37.8076897 ], [ 12.4600267, 37.8235016 ], [ 12.4830809, 37.8795395 ], [ 12.4588623, 37.9096413 ], [ 12.4895334, 37.9554977 ], [ 12.5063486, 38.0143585 ], [ 12.5729342, 38.0725212 ], [ 12.6469269, 38.0819817 ], [ 12.6812801, 38.1162796 ], [ 12.7378321, 38.1449585 ], [ 12.7685709, 38.182724 ], [ 12.7935629, 38.1145363 ], [ 12.8343496, 38.0667 ], [ 12.9178925, 38.0304947 ], [ 12.9819069, 38.0451927 ], [ 13.0695591, 38.0869179 ], [ 13.0605602, 38.1379242 ], [ 13.0833654, 38.176445 ], [ 13.1248093, 38.1969795 ], [ 13.184453, 38.1752396 ], [ 13.3161945, 38.2278481 ], [ 13.3586941, 38.1965179 ], [ 13.3831053, 38.1172218 ], [ 13.4413195, 38.099968 ], [ 13.5336638, 38.1169853 ], [ 13.541275, 38.0684814 ], [ 13.577549, 38.0378952 ], [ 13.6681786, 37.9998703 ], [ 13.7482405, 37.9755402 ], [ 13.8546515, 37.9917526 ], [ 13.9415541, 38.0328865 ], [ 14.0245514, 38.046566 ], [ 14.1083536, 38.0230484 ], [ 14.1428013, 38.0374756 ], [ 14.2355528, 38.0145493 ], [ 14.3729095, 38.0202904 ], [ 14.4355049, 38.0480309 ], [ 14.4991694, 38.04179 ], [ 14.5914564, 38.0655861 ], [ 14.6714468, 38.0972557 ], [ 14.7414646, 38.165863 ], [ 14.7900963, 38.1588097 ], [ 14.8775225, 38.1736107 ], [ 14.9177828, 38.1951981 ], [ 14.9727583, 38.1544037 ], [ 15.0458403, 38.1551285 ], [ 15.1000357, 38.1230087 ], [ 15.1716537, 38.1553421 ], [ 15.2107754, 38.1862717 ], [ 15.2388353, 38.2366104 ], [ 15.2914791, 38.2081299 ], [ 15.3625269, 38.2227287 ], [ 15.4458265, 38.2526436 ], [ 15.5312262, 38.3019066 ], [ 15.6146679, 38.2746315 ] ] ], [ [ [ 14.9609308, 38.5191307 ], [ 14.9632492, 38.4528427 ], [ 14.9162989, 38.4619637 ], [ 14.9073725, 38.5140343 ], [ 14.9609308, 38.5191307 ] ] ], [ [ [ 14.8052492, 38.5844765 ], [ 14.8705521, 38.579155 ], [ 14.8530455, 38.5334511 ], [ 14.7985945, 38.5567436 ], [ 14.8052492, 38.5844765 ] ] ], [ [ [ 11.9973488, 36.8252678 ], [ 12.0618715, 36.7987289 ], [ 12.0517559, 36.748642 ], [ 11.9967022, 36.7370377 ], [ 11.9324055, 36.8006706 ], [ 11.9560385, 36.8444519 ], [ 11.9973488, 36.8252678 ] ] ] ] } },
{ "type": "Feature", "properties": { "POLYGON_ID": "ITA_GAUL1991_ADM1_1631", "ADM0_ISO3": "ITA", "ADM0_NAME": "Italy", "ADM0_CODE": 122, "ADM1_NAME": "Toscana", "ADM1_CODE": 1631, "GEOSET": "GAUL", "GEOSET_YEAR": 1991.0, "GEOSET_VERSION": "GAUL_v1", "GEOSET_UNIT": "ADM1", "CENTROID_LONG": 11.128792419250502, "CENTROID_LAT": 43.45442505355291 }, "geometry": { "type": "MultiPolygon", "coordinates": [ [ [ [ 12.108416, 43.754728 ], [ 12.284744, 43.765866 ], [ 12.328304, 43.751682 ], [ 12.331068, 43.707994 ], [ 12.189308, 43.635376 ], [ 12.215166, 43.611364 ], [ 12.143057, 43.536724 ], [ 12.096717, 43.524133 ], [ 12.130676, 43.484602 ], [ 12.083233, 43.435535 ], [ 12.073986, 43.371378 ], [ 12.136375, 43.34206 ], [ 12.132706, 43.295394 ], [ 12.149537, 43.25558 ], [ 12.086877, 43.237298 ], [ 12.049853, 43.254071 ], [ 12.028447, 43.192582 ], [ 11.925939, 43.150221 ], [ 11.931785, 43.090454 ], [ 11.981318, 43.058088 ], [ 11.933669, 42.909466 ], [ 11.959771, 42.892623 ], [ 11.895914, 42.835649 ], [ 11.850352, 42.839724 ], [ 11.775193, 42.822038 ], [ 11.746973, 42.786742 ], [ 11.820055, 42.744282 ], [ 11.760032, 42.639069 ], [ 11.686897, 42.585815 ], [ 11.585307, 42.543733 ], [ 11.5622, 42.518279 ], [ 11.617799, 42.488496 ], [ 11.619055, 42.43775 ], [ 11.555476, 42.439758 ], [ 11.483047, 42.420878 ], [ 11.4506228, 42.3793958 ], [ 11.3764248, 42.4007072 ], [ 11.2179804, 42.4158249 ], [ 11.2111101, 42.3879089 ], [ 11.1555624, 42.3609962 ], [ 11.0998259, 42.3931313 ], [ 11.0838242, 42.4249763 ], [ 11.1066875, 42.4519691 ], [ 11.1575766, 42.4376984 ], [ 11.1954012, 42.5044861 ], [ 11.1745014, 42.5471077 ], [ 11.129385, 42.5536003 ], [ 11.0812426, 42.6422653 ], [ 11.0196352, 42.6558228 ], [ 10.9631977, 42.7352905 ], [ 10.8893404, 42.7645721 ], [ 10.7890892, 42.7793427 ], [ 10.7613087, 42.8173027 ], [ 10.7711439, 42.9148674 ], [ 10.6935167, 42.9506531 ], [ 10.6085014, 42.9609489 ], [ 10.4954424, 42.9357986 ], [ 10.4797211, 42.9888573 ], [ 10.520504, 43.0265808 ], [ 10.5375557, 43.1138916 ], [ 10.5344276, 43.1915092 ], [ 10.5197172, 43.2690811 ], [ 10.4600925, 43.3228722 ], [ 10.4258242, 43.3998871 ], [ 10.3801756, 43.4470596 ], [ 10.3346977, 43.4731483 ], [ 10.2967539, 43.5478134 ], [ 10.2677727, 43.6774788 ], [ 10.2804184, 43.6988564 ], [ 10.2685614, 43.7892342 ], [ 10.2491207, 43.8525505 ], [ 10.2125931, 43.9136848 ], [ 10.0869522, 44.0211029 ], [ 10.0223486, 44.0502629 ], [ 10.072035, 44.094626 ], [ 10.003144, 44.108612 ], [ 9.967485, 44.170392 ], [ 9.860015, 44.238377 ], [ 9.855453, 44.269016 ], [ 9.80674, 44.283761 ], [ 9.730482, 44.329288 ], [ 9.687729, 44.366897 ], [ 9.734357, 44.380443 ], [ 9.820963, 44.467376 ], [ 9.924325, 44.473329 ], [ 9.972281, 44.464199 ], [ 10.007958, 44.432687 ], [ 9.997693, 44.398081 ], [ 10.079112, 44.357657 ], [ 10.143049, 44.354821 ], [ 10.227285, 44.300921 ], [ 10.254872, 44.269536 ], [ 10.297785, 44.286926 ], [ 10.372605, 44.270332 ], [ 10.431508, 44.228008 ], [ 10.467405, 44.230622 ], [ 10.525941, 44.157958 ], [ 10.625063, 44.121317 ], [ 10.642219, 44.160784 ], [ 10.744304, 44.157371 ], [ 10.805115, 44.119568 ], [ 10.877257, 44.100876 ], [ 10.9199005, 44.0636945 ], [ 10.993603, 44.136456 ], [ 11.02498, 44.098407 ], [ 11.09123, 44.091361 ], [ 11.16019, 44.113368 ], [ 11.23563, 44.159364 ], [ 11.281704, 44.156291 ], [ 11.343493, 44.206163 ], [ 11.378765, 44.200118 ], [ 11.422062, 44.240188 ], [ 11.448613, 44.200435 ], [ 11.517117, 44.158502 ], [ 11.611801, 44.160936 ], [ 11.598278, 44.126107 ], [ 11.653569, 44.101653 ], [ 11.680461, 44.123901 ], [ 11.753923, 44.121479 ], [ 11.695893, 44.036292 ], [ 11.647289, 43.992946 ], [ 11.718589, 43.920931 ], [ 11.711599, 43.878369 ], [ 11.785433, 43.84852 ], [ 11.843082, 43.808961 ], [ 11.898084, 43.808849 ], [ 11.987478, 43.762872 ], [ 12.108416, 43.754728 ] ] ], [ [ [ 10.4328957, 42.8109474 ], [ 10.4059744, 42.7721214 ], [ 10.4315844, 42.7230072 ], [ 10.3779593, 42.7227402 ], [ 10.350174, 42.768158 ], [ 10.2902422, 42.7474327 ], [ 10.2324657, 42.7546272 ], [ 10.1375103, 42.736557 ], [ 10.1023235, 42.7667465 ], [ 10.1040497, 42.7960663 ], [ 10.1807079, 42.8186188 ], [ 10.2307301, 42.7923965 ], [ 10.2719069, 42.8254051 ], [ 10.356246, 42.8082657 ], [ 10.391674, 42.8638725 ], [ 10.4415255, 42.8496857 ], [ 10.4328957, 42.8109474 ] ] ] ] } },
{ "type": "Feature", "properties": { "POLYGON_ID": "ITA_GAUL1991_ADM1_1632", "ADM0_ISO3": "ITA", "ADM0_NAME": "Italy", "ADM0_CODE": 122, "ADM1_NAME": "Trentino-alto Adige", "ADM1_CODE": 1632, "GEOSET": "GAUL", "GEOSET_YEAR": 1991.0, "GEOSET_VERSION": "GAUL_v1", "GEOSET_UNIT": "ADM1", "CENTROID_LONG": 11.281235427167019, "CENTROID_LAT": 46.443986996790784 }, "geometry": { "type": "MultiPolygon", "coordinates": [ [ [ [ 10.46421, 46.54864 ], [ 10.4858179, 46.6132626 ], [ 10.47994, 46.62099 ], [ 10.40176, 46.63771 ], [ 10.37793, 46.68238 ], [ 10.41736, 46.71599 ], [ 10.40973, 46.7411 ], [ 10.44215, 46.75455 ], [ 10.44288, 46.756622 ], [ 10.42411, 46.78806 ], [ 10.4667, 46.84408 ], [ 10.4700295, 46.8580795 ], [ 10.47005, 46.86188 ], [ 10.55699, 46.84155 ], [ 10.65897, 46.87421 ], [ 10.75723, 46.83111 ], [ 10.7285, 46.79741 ], [ 10.729909, 46.7962337 ], [ 10.87674, 46.76738 ], [ 11.015366, 46.7709987 ], [ 11.0214, 46.77787 ], [ 11.07258, 46.82842 ], [ 11.0722, 46.86637 ], [ 11.10582, 46.93221 ], [ 11.1575392, 46.9491569 ], [ 11.15687, 46.95894 ], [ 11.25437, 46.97967 ], [ 11.256223, 46.9800916 ], [ 11.269165, 46.9842432 ], [ 11.28144, 46.98855 ], [ 11.35059, 46.99598 ], [ 11.40992, 46.97253 ], [ 11.47361, 47.0167 ], [ 11.5249121, 46.9968227 ], [ 11.53724, 46.99043 ], [ 11.5407639, 46.9908858 ], [ 11.5476, 46.99177 ], [ 11.6202699, 47.01548 ], [ 11.70163, 46.99934 ], [ 11.73946, 46.97697 ], [ 11.75015, 46.97714 ], [ 11.82616, 46.99568 ], [ 11.97331, 47.05393 ], [ 11.99304, 47.05425 ], [ 12.133853, 47.0816717 ], [ 12.18404, 47.09521 ], [ 12.2317076, 47.0677479 ], [ 12.20095, 47.03403 ], [ 12.12162, 47.00797 ], [ 12.1533126, 46.9238455 ], [ 12.14902, 46.91584 ], [ 12.216029, 46.8791208 ], [ 12.27325, 46.89024 ], [ 12.29671, 46.84771 ], [ 12.28131, 46.79459 ], [ 12.28813, 46.78629 ], [ 12.3314351, 46.7838486 ], [ 12.3479, 46.78043 ], [ 12.38256, 46.72244 ], [ 12.38938, 46.71505 ], [ 12.4553623, 46.6899479 ], [ 12.361032, 46.620468 ], [ 12.262231, 46.630009 ], [ 12.215269, 46.610451 ], [ 12.146143, 46.634955 ], [ 12.069279, 46.676023 ], [ 12.065079, 46.622569 ], [ 11.999433, 46.533737 ], [ 11.967162, 46.545559 ], [ 11.854212, 46.519087 ], [ 11.814166, 46.479032 ], [ 11.879658, 46.471177 ], [ 11.833048, 46.38808 ], [ 11.78032, 46.35284 ], [ 11.832858, 46.326039 ], [ 11.838644, 46.271616 ], [ 11.9289741, 46.2480885 ], [ 11.940574, 46.199659 ], [ 11.894414, 46.122046 ], [ 11.814676, 46.103168 ], [ 11.717796, 46.103836 ], [ 11.684505, 46.077181 ], [ 11.672348, 46.015294 ], [ 11.6857226, 45.9700819 ], [ 11.588609, 45.969903 ], [ 11.578251, 46.007418 ], [ 11.511717, 46.012901 ], [ 11.447794, 45.981802 ], [ 11.373508, 45.973777 ], [ 11.382835, 45.94336 ], [ 11.325192, 45.918417 ], [ 11.262368, 45.9167 ], [ 11.240349, 45.856883 ], [ 11.17499, 45.787983 ], [ 11.175561, 45.733866 ], [ 11.091055, 45.697051 ], [ 10.999999, 45.70851 ], [ 10.93848, 45.674322 ], [ 10.890603, 45.715979 ], [ 10.84486, 45.719516 ], [ 10.884432, 45.817893 ], [ 10.842306, 45.833295 ], [ 10.700548, 45.842583 ], [ 10.652065, 45.813392 ], [ 10.564509, 45.785034 ], [ 10.50924, 45.824659 ], [ 10.508735, 45.906263 ], [ 10.485677, 45.971578 ], [ 10.454442, 45.977456 ], [ 10.478368, 46.052222 ], [ 10.542616, 46.104166 ], [ 10.566294, 46.167971 ], [ 10.542432, 46.189536 ], [ 10.586728, 46.248834 ], [ 10.566657, 46.327238 ], [ 10.528321, 46.343127 ], [ 10.563638, 46.376505 ], [ 10.631519, 46.403456 ], [ 10.622511, 46.449266 ], [ 10.553021, 46.492353 ], [ 10.477144, 46.496451 ], [ 10.46421, 46.54864 ] ] ] ] } },
{ "type": "Feature", "properties": { "POLYGON_ID": "ITA_GAUL1991_ADM1_1633", "ADM0_ISO3": "ITA", "ADM0_NAME": "Italy", "ADM0_CODE": 122, "ADM1_NAME": "Umbria", "ADM1_CODE": 1633, "GEOSET": "GAUL", "GEOSET_YEAR": 1991.0, "GEOSET_VERSION": "GAUL_v1", "GEOSET_UNIT": "ADM1", "CENTROID_LONG": 12.491882433672234, "CENTROID_LAT": 42.966406241491981 }, "geometry": { "type": "MultiPolygon", "coordinates": [ [ [ [ 13.1896538, 42.7355247 ], [ 13.174476, 42.666342 ], [ 13.064234, 42.624269 ], [ 12.954315, 42.620001 ], [ 12.881018, 42.603333 ], [ 12.894415, 42.563103 ], [ 12.848756, 42.553775 ], [ 12.774752, 42.51323 ], [ 12.712068, 42.501766 ], [ 12.741967, 42.472264 ], [ 12.650438, 42.444287 ], [ 12.568002, 42.384327 ], [ 12.423205, 42.422583 ], [ 12.413495, 42.478816 ], [ 12.352352, 42.474677 ], [ 12.31607, 42.488978 ], [ 12.243147, 42.570467 ], [ 12.244283, 42.62907 ], [ 12.205279, 42.661436 ], [ 12.074662, 42.65765 ], [ 11.944889, 42.683595 ], [ 11.927244, 42.705718 ], [ 11.980432, 42.76556 ], [ 11.930799, 42.780083 ], [ 11.895914, 42.835649 ], [ 11.959771, 42.892623 ], [ 11.933669, 42.909466 ], [ 11.981318, 43.058088 ], [ 11.931785, 43.090454 ], [ 11.925939, 43.150221 ], [ 12.028447, 43.192582 ], [ 12.049853, 43.254071 ], [ 12.086877, 43.237298 ], [ 12.149537, 43.25558 ], [ 12.132706, 43.295394 ], [ 12.136375, 43.34206 ], [ 12.073986, 43.371378 ], [ 12.083233, 43.435535 ], [ 12.130676, 43.484602 ], [ 12.096717, 43.524133 ], [ 12.143057, 43.536724 ], [ 12.215166, 43.611364 ], [ 12.26414, 43.590029 ], [ 12.356944, 43.618295 ], [ 12.374445, 43.58524 ], [ 12.344329, 43.553608 ], [ 12.399992, 43.51417 ], [ 12.503069, 43.521737 ], [ 12.578582, 43.450522 ], [ 12.626708, 43.421981 ], [ 12.664121, 43.43778 ], [ 12.710328, 43.426065 ], [ 12.73556, 43.465301 ], [ 12.768387, 43.460803 ], [ 12.77501, 43.40277 ], [ 12.748205, 43.38972 ], [ 12.793221, 43.337241 ], [ 12.790171, 43.283872 ], [ 12.82569, 43.267521 ], [ 12.898263, 43.094444 ], [ 12.889115, 43.012367 ], [ 12.897536, 42.964878 ], [ 12.977687, 42.926846 ], [ 12.977094, 42.87077 ], [ 13.05521, 42.921067 ], [ 13.112676, 42.8904 ], [ 13.156547, 42.834994 ], [ 13.248656, 42.850932 ], [ 13.265067, 42.810758 ], [ 13.1896538, 42.7355247 ] ] ] ] } },
{ "type": "Feature", "properties": { "POLYGON_ID": "ITA_GAUL1991_ADM1_1634", "ADM0_ISO3": "ITA", "ADM0_NAME": "Italy", "ADM0_CODE": 122, "ADM1_NAME": "Valle D'aosta", "ADM1_CODE": 1634, "GEOSET": "GAUL", "GEOSET_YEAR": 1991.0, "GEOSET_VERSION": "GAUL_v1", "GEOSET_UNIT": "ADM1", "CENTROID_LONG": 7.387767805758763, "CENTROID_LAT": 45.734642254043074 }, "geometry": { "type": "MultiPolygon", "coordinates": [ [ [ [ 7.6233988, 45.9815958 ], [ 7.64943, 45.98625 ], [ 7.7350644, 45.9419228 ], [ 7.74499, 45.94733 ], [ 7.80055, 45.92853 ], [ 7.81002, 45.93497 ], [ 7.8557884, 45.9341015 ], [ 7.85925, 45.93451 ], [ 7.8598151, 45.9350229 ], [ 7.86705, 45.94159 ], [ 7.864196, 45.791932 ], [ 7.937713, 45.725287 ], [ 7.906301, 45.682906 ], [ 7.940472, 45.644196 ], [ 7.896925, 45.602566 ], [ 7.807742, 45.589978 ], [ 7.735144, 45.550849 ], [ 7.610158, 45.563821 ], [ 7.567565, 45.592565 ], [ 7.468705, 45.578573 ], [ 7.384556, 45.520519 ], [ 7.270605, 45.515628 ], [ 7.224614, 45.470688 ], [ 7.122765, 45.507191 ], [ 7.0994897, 45.4638173 ], [ 7.09349, 45.47585 ], [ 7.00728, 45.51136 ], [ 6.97694, 45.55727 ], [ 6.97344, 45.63322 ], [ 6.9849363, 45.6375343 ], [ 6.90473, 45.65737 ], [ 6.87874, 45.68209 ], [ 6.85666, 45.6845 ], [ 6.85673, 45.68358 ], [ 6.8049, 45.72524 ], [ 6.8027873, 45.7382361 ], [ 6.79097, 45.77126 ], [ 6.80195, 45.82986 ], [ 6.86235, 45.82838 ], [ 6.8632558, 45.8297119 ], [ 6.87283, 45.84182 ], [ 7.00474, 45.88498 ], [ 7.00853, 45.90526 ], [ 7.01309, 45.91482 ], [ 7.03618, 45.93694 ], [ 7.10306, 45.86705 ], [ 7.11691, 45.86592 ], [ 7.1861346, 45.8684936 ], [ 7.19714, 45.86701 ], [ 7.2428024, 45.8990378 ], [ 7.25435, 45.89843 ], [ 7.30135, 45.92653 ], [ 7.32378, 45.9197 ], [ 7.33869, 45.92247 ], [ 7.35503, 45.9184 ], [ 7.38198, 45.90758 ], [ 7.3859684, 45.91336 ], [ 7.38828, 45.91671 ], [ 7.47247, 45.94934 ], [ 7.47059, 45.95821 ], [ 7.522, 45.97077 ], [ 7.5262838, 45.9710448 ], [ 7.5296459, 45.971234 ], [ 7.53017, 45.97125 ], [ 7.56353, 45.99974 ], [ 7.6233988, 45.9815958 ] ] ] ] } },
{ "type": "Feature", "properties": { "POLYGON_ID": "ITA_GAUL1991_ADM1_1635", "ADM0_ISO3": "ITA", "ADM0_NAME": "Italy", "ADM0_CODE": 122, "ADM1_NAME": "Veneto", "ADM1_CODE": 1635, "GEOSET": "GAUL", "GEOSET_YEAR": 1991.0, "GEOSET_VERSION": "GAUL_v1", "GEOSET_UNIT": "ADM1", "CENTROID_LONG": 11.846879049747873, "CENTROID_LAT": 45.661010396994982 }, "geometry": { "type": "MultiPolygon", "coordinates": [ [ [ [ 12.53938, 46.66602 ], [ 12.549286, 46.6615786 ], [ 12.55613, 46.65851 ], [ 12.56572, 46.65679 ], [ 12.5696066, 46.657725 ], [ 12.6573675, 46.6570098 ], [ 12.67072, 46.65958 ], [ 12.6899711, 46.6585823 ], [ 12.7295275, 46.6372986 ], [ 12.743115, 46.596647 ], [ 12.717515, 46.546124 ], [ 12.63159, 46.51304 ], [ 12.66344, 46.470046 ], [ 12.570953, 46.476364 ], [ 12.506863, 46.44184 ], [ 12.499692, 46.413079 ], [ 12.412795, 46.332353 ], [ 12.355503, 46.320494 ], [ 12.324991, 46.255818 ], [ 12.40727, 46.208165 ], [ 12.4457334, 46.2088753 ], [ 12.457915, 46.171536 ], [ 12.499825, 46.1386 ], [ 12.484372, 46.104317 ], [ 12.428847, 46.077211 ], [ 12.400507, 46.0417877 ], [ 12.429174, 45.996657 ], [ 12.423283, 45.957051 ], [ 12.499902, 45.926432 ], [ 12.559967, 45.847965 ], [ 12.562468, 45.826769 ], [ 12.641349, 45.820972 ], [ 12.671517, 45.791748 ], [ 12.730979, 45.838171 ], [ 12.782839, 45.854849 ], [ 12.862163, 45.851682 ], [ 12.891656, 45.824492 ], [ 12.975213, 45.808489 ], [ 13.002269, 45.750911 ], [ 13.039493, 45.718131 ], [ 13.0870485, 45.6503792 ], [ 13.0363798, 45.6334419 ], [ 12.9172049, 45.6180878 ], [ 12.7475529, 45.5358582 ], [ 12.5700417, 45.4743347 ], [ 12.5138054, 45.4721069 ], [ 12.5235395, 45.5095177 ], [ 12.58463, 45.5338669 ], [ 12.5540991, 45.5718231 ], [ 12.3531981, 45.5059319 ], [ 12.27981, 45.4626045 ], [ 12.2580938, 45.418438 ], [ 12.2122984, 45.4157333 ], [ 12.1841335, 45.3860474 ], [ 12.1589766, 45.2929153 ], [ 12.1812267, 45.2560616 ], [ 12.2207451, 45.2428284 ], [ 12.2435551, 45.1890106 ], [ 12.3037796, 45.2094002 ], [ 12.3358784, 45.1705704 ], [ 12.3282852, 45.1198387 ], [ 12.3862419, 45.0307808 ], [ 12.422554, 45.0399475 ], [ 12.4634857, 45.0005074 ], [ 12.5264597, 44.9818192 ], [ 12.5256672, 44.9383316 ], [ 12.4935551, 44.92799 ], [ 12.4806948, 44.8505478 ], [ 12.4218817, 44.8496971 ], [ 12.3885635, 44.7979346 ], [ 12.337294, 44.853154 ], [ 12.287628, 44.871223 ], [ 12.294286, 44.931252 ], [ 12.227741, 44.924189 ], [ 12.174598, 44.941595 ], [ 12.141585, 44.929357 ], [ 12.098982, 44.972398 ], [ 11.961977, 44.987469 ], [ 11.922172, 44.975578 ], [ 11.80981, 44.97822 ], [ 11.748028, 44.959025 ], [ 11.745738, 44.938048 ], [ 11.6258, 44.890155 ], [ 11.524354, 44.939253 ], [ 11.435076, 44.930328 ], [ 11.427744, 44.951035 ], [ 11.416301, 44.969011 ], [ 11.339255, 44.990347 ], [ 11.237688, 45.044719 ], [ 11.175302, 45.063334 ], [ 11.190233, 45.110702 ], [ 11.139746, 45.124784 ], [ 11.095878, 45.097069 ], [ 11.040761, 45.111618 ], [ 11.051481, 45.150498 ], [ 10.998403, 45.15814 ], [ 10.9914, 45.197031 ], [ 10.9352978, 45.2342086 ], [ 10.847626, 45.257498 ], [ 10.78389, 45.31631 ], [ 10.738436, 45.28817 ], [ 10.704672, 45.359248 ], [ 10.716859, 45.419363 ], [ 10.644428, 45.445299 ], [ 10.629488, 45.602977 ], [ 10.703043, 45.67365 ], [ 10.842306, 45.833295 ], [ 10.884432, 45.817893 ], [ 10.84486, 45.719516 ], [ 10.890603, 45.715979 ], [ 10.93848, 45.674322 ], [ 10.999999, 45.70851 ], [ 11.091055, 45.697051 ], [ 11.175561, 45.733866 ], [ 11.17499, 45.787983 ], [ 11.240349, 45.856883 ], [ 11.262368, 45.9167 ], [ 11.325192, 45.918417 ], [ 11.382835, 45.94336 ], [ 11.373508, 45.973777 ], [ 11.447794, 45.981802 ], [ 11.511717, 46.012901 ], [ 11.578251, 46.007418 ], [ 11.588609, 45.969903 ], [ 11.6857226, 45.9700819 ], [ 11.672348, 46.015294 ], [ 11.684505, 46.077181 ], [ 11.717796, 46.103836 ], [ 11.814676, 46.103168 ], [ 11.894414, 46.122046 ], [ 11.940574, 46.199659 ], [ 11.9289741, 46.2480885 ], [ 11.838644, 46.271616 ], [ 11.832858, 46.326039 ], [ 11.78032, 46.35284 ], [ 11.833048, 46.38808 ], [ 11.879658, 46.471177 ], [ 11.814166, 46.479032 ], [ 11.854212, 46.519087 ], [ 11.967162, 46.545559 ], [ 11.999433, 46.533737 ], [ 12.065079, 46.622569 ], [ 12.069279, 46.676023 ], [ 12.146143, 46.634955 ], [ 12.215269, 46.610451 ], [ 12.262231, 46.630009 ], [ 12.361032, 46.620468 ], [ 12.4553623, 46.6899479 ], [ 12.53938, 46.66602 ] ] ] ] } }
]
}
