{
"type": "FeatureCollection",
"name": "JEY_GAUL1999_ADM1",
"crs": { "type": "name", "properties": { "name": "urn:ogc:def:crs:OGC:1.3:CRS84" } },
"features": [
{ "type": "Feature", "properties": { "POLYGON_ID": "JEY_GAUL1999_ADM1_40235", "ADM0_ISO3": "JEY", "ADM0_NAME": "Jersey", "ADM0_CODE": 128, "ADM1_NAME": "Brelade", "ADM1_CODE": 40235, "GEOSET": "GAUL", "GEOSET_YEAR": 1999.0, "GEOSET_VERSION": "GAUL_v1", "GEOSET_UNIT": "ADM1", "CENTROID_LONG": -2.1857823, "CENTROID_LAT": 49.189545833333341 }, "geometry": { "type": "MultiPolygon", "coordinates": [ [ [ [ -2.161637, 49.1947944 ], [ -2.1696816, 49.1780292 ], [ -2.2260283, 49.1958139 ], [ -2.161637, 49.1947944 ] ] ] ] } },
{ "type": "Feature", "properties": { "POLYGON_ID": "JEY_GAUL1999_ADM1_40236", "ADM0_ISO3": "JEY", "ADM0_NAME": "Jersey", "ADM0_CODE": 128, "ADM1_NAME": "Grouville", "ADM1_CODE": 40236, "GEOSET": "GAUL", "GEOSET_YEAR": 1999.0, "GEOSET_VERSION": "GAUL_v1", "GEOSET_UNIT": "ADM1", "CENTROID_LONG": -2.0454683160809202, "CENTROID_LAT": 49.186023907473313 }, "geometry": { "type": "MultiPolygon", "coordinates": [ [ [ [ -2.018266, 49.2007396 ], [ -2.0389748, 49.1661642 ], [ -2.0780423, 49.183461 ], [ -2.0440902, 49.2013062 ], [ -2.018266, 49.2007396 ] ] ] ] } },
{ "type": "Feature", "properties": { "POLYGON_ID": "JEY_GAUL1999_ADM1_40237", "ADM0_ISO3": "JEY", "ADM0_NAME": "Jersey", "ADM0_CODE": 128, "ADM1_NAME": "Saint Helier", "ADM1_CODE": 40237, "GEOSET": "GAUL", "GEOSET_YEAR": 1999.0, "GEOSET_VERSION": "GAUL_v1", "GEOSET_UNIT": "ADM1", "CENTROID_LONG": -2.1092909309234154, "CENTROID_LAT": 49.197084626557896 }, "geometry": { "type": "MultiPolygon", "coordinates": [ [ [ [ -2.086178, 49.2045337 ], [ -2.0970762, 49.1805083 ], [ -2.1005572, 49.1772223 ], [ -2.1349648, 49.1957137 ], [ -2.1204156, 49.2131813 ], [ -2.1140531, 49.2130192 ], [ -2.086178, 49.2045337 ] ] ] ] } },
{ "type": "Feature", "properties": { "POLYGON_ID": "JEY_GAUL1999_ADM1_40238", "ADM0_ISO3": "JEY", "ADM0_NAME": "Jersey", "ADM0_CODE": 128, "ADM1_NAME": "Saint John", "ADM1_CODE": 40238, "GEOSET": "GAUL", "GEOSET_YEAR": 1999.0, "GEOSET_VERSION": "GAUL_v1", "GEOSET_UNIT": "ADM1", "CENTROID_LONG": -2.1372403371418152, "CENTROID_LAT": 49.236163146306041 }, "geometry": { "type": "MultiPolygon", "coordinates": [ [ [ [ -2.1077268, 49.2496662 ], [ -2.1140531, 49.2130192 ], [ -2.1204156, 49.2131813 ], [ -2.1485718, 49.2269099 ], [ -2.1880173, 49.2487555 ], [ -2.1077268, 49.2496662 ] ] ] ] } },
{ "type": "Feature", "properties": { "POLYGON_ID": "JEY_GAUL1999_ADM1_40239", "ADM0_ISO3": "JEY", "ADM0_NAME": "Jersey", "ADM0_CODE": 128, "ADM1_NAME": "Saint Lawrence", "ADM1_CODE": 40239, "GEOSET": "GAUL", "GEOSET_YEAR": 1999.0, "GEOSET_VERSION": "GAUL_v1", "GEOSET_UNIT": "ADM1", "CENTROID_LONG": -2.1410191433335659, "CENTROID_LAT": 49.210008344500594 }, "geometry": { "type": "MultiPolygon", "coordinates": [ [ [ [ -2.1204156, 49.2131813 ], [ -2.1349648, 49.1957137 ], [ -2.153096, 49.1966196 ], [ -2.1554011, 49.2182383 ], [ -2.1485718, 49.2269099 ], [ -2.1204156, 49.2131813 ] ] ] ] } },
{ "type": "Feature", "properties": { "POLYGON_ID": "JEY_GAUL1999_ADM1_40240", "ADM0_ISO3": "JEY", "ADM0_NAME": "Jersey", "ADM0_CODE": 128, "ADM1_NAME": "Saint Martin", "ADM1_CODE": 40240, "GEOSET": "GAUL", "GEOSET_YEAR": 1999.0, "GEOSET_VERSION": "GAUL_v1", "GEOSET_UNIT": "ADM1", "CENTROID_LONG": -2.0394006628468788, "CENTROID_LAT": 49.213933941917496 }, "geometry": { "type": "MultiPolygon", "coordinates": [ [ [ [ -2.0247082, 49.2288963 ], [ -2.018266, 49.2007396 ], [ -2.0440902, 49.2013062 ], [ -2.0704655, 49.218945 ], [ -2.0247082, 49.2288963 ] ] ] ] } },
{ "type": "Feature", "properties": { "POLYGON_ID": "JEY_GAUL1999_ADM1_40241", "ADM0_ISO3": "JEY", "ADM0_NAME": "Jersey", "ADM0_CODE": 128, "ADM1_NAME": "Saint Mary", "ADM1_CODE": 40241, "GEOSET": "GAUL", "GEOSET_YEAR": 1999.0, "GEOSET_VERSION": "GAUL_v1", "GEOSET_UNIT": "ADM1", "CENTROID_LONG": -2.1764246854062566, "CENTROID_LAT": 49.234586538811072 }, "geometry": { "type": "MultiPolygon", "coordinates": [ [ [ [ -2.1880173, 49.2487555 ], [ -2.1485718, 49.2269099 ], [ -2.1554011, 49.2182383 ], [ -2.1790575, 49.2254534 ], [ -2.2090574, 49.2519711 ], [ -2.1880173, 49.2487555 ] ] ] ] } },
{ "type": "Feature", "properties": { "POLYGON_ID": "JEY_GAUL1999_ADM1_40242", "ADM0_ISO3": "JEY", "ADM0_NAME": "Jersey", "ADM0_CODE": 128, "ADM1_NAME": "Saint Ouen", "ADM1_CODE": 40242, "GEOSET": "GAUL", "GEOSET_YEAR": 1999.0, "GEOSET_VERSION": "GAUL_v1", "GEOSET_UNIT": "ADM1", "CENTROID_LONG": -2.2041939666666668, "CENTROID_LAT": 49.229168933333334 }, "geometry": { "type": "MultiPolygon", "coordinates": [ [ [ [ -2.2090574, 49.2519711 ], [ -2.1790575, 49.2254534 ], [ -2.224467, 49.2100823 ], [ -2.2090574, 49.2519711 ] ] ] ] } },
{ "type": "Feature", "properties": { "POLYGON_ID": "JEY_GAUL1999_ADM1_40243", "ADM0_ISO3": "JEY", "ADM0_NAME": "Jersey", "ADM0_CODE": 128, "ADM1_NAME": "Saint Peter", "ADM1_CODE": 40243, "GEOSET": "GAUL", "GEOSET_YEAR": 1999.0, "GEOSET_VERSION": "GAUL_v1", "GEOSET_UNIT": "ADM1", "CENTROID_LONG": -2.1867913596048099, "CENTROID_LAT": 49.207508340073616 }, "geometry": { "type": "MultiPolygon", "coordinates": [ [ [ [ -2.1554011, 49.2182383 ], [ -2.153096, 49.1966196 ], [ -2.161637, 49.1947944 ], [ -2.2260283, 49.1958139 ], [ -2.224467, 49.2100823 ], [ -2.1790575, 49.2254534 ], [ -2.1554011, 49.2182383 ] ] ] ] } },
{ "type": "Feature", "properties": { "POLYGON_ID": "JEY_GAUL1999_ADM1_40244", "ADM0_ISO3": "JEY", "ADM0_NAME": "Jersey", "ADM0_CODE": 128, "ADM1_NAME": "Saint Saviour", "ADM1_CODE": 40244, "GEOSET": "GAUL", "GEOSET_YEAR": 1999.0, "GEOSET_VERSION": "GAUL_v1", "GEOSET_UNIT": "ADM1", "CENTROID_LONG": -2.0724468336677475, "CENTROID_LAT": 49.198917807919884 }, "geometry": { "type": "MultiPolygon", "coordinates": [ [ [ [ -2.0440902, 49.2013062 ], [ -2.0780423, 49.183461 ], [ -2.0970762, 49.1805083 ], [ -2.086178, 49.2045337 ], [ -2.0704655, 49.218945 ], [ -2.0440902, 49.2013062 ] ] ] ] } },
{ "type": "Feature", "properties": { "POLYGON_ID": "JEY_GAUL1999_ADM1_40245", "ADM0_ISO3": "JEY", "ADM0_NAME": "Jersey", "ADM0_CODE": 128, "ADM1_NAME": "Trinity", "ADM1_CODE": 40245, "GEOSET": "GAUL", "GEOSET_YEAR": 1999.0, "GEOSET_VERSION": "GAUL_v1", "GEOSET_UNIT": "ADM1", "CENTROID_LONG": -2.082756259638304, "CENTROID_LAT": 49.227559533626838 }, "geometry": { "type": "MultiPolygon", "coordinates": [ [ [ [ -2.0247082, 49.2288963 ], [ -2.0704655, 49.218945 ], [ -2.086178, 49.2045337 ], [ -2.1140531, 49.2130192 ], [ -2.1077268, 49.2496662 ], [ -2.0247082, 49.2288963 ] ] ] ] } },
{ "type": "Feature", "properties": { "POLYGON_ID": "JEY_GAUL1999_ADM1_40274", "ADM0_ISO3": "JEY", "ADM0_NAME": "Jersey", "ADM0_CODE": 128, "ADM1_NAME": "Saint Clement", "ADM1_CODE": 40274, "GEOSET": "GAUL", "GEOSET_YEAR": 1999.0, "GEOSET_VERSION": "GAUL_v1", "GEOSET_UNIT": "ADM1", "CENTROID_LONG": -2.0740015887552956, "CENTROID_LAT": 49.175980431840799 }, "geometry": { "type": "MultiPolygon", "coordinates": [ [ [ [ -2.0780423, 49.183461 ], [ -2.0389748, 49.1661642 ], [ -2.1005572, 49.1772223 ], [ -2.0970762, 49.1805083 ], [ -2.0780423, 49.183461 ] ] ] ] } }
]
}
