{
"type": "FeatureCollection",
"name": "JOR_GAUL1990_ADM2",
"crs": { "type": "name", "properties": { "name": "urn:ogc:def:crs:OGC:1.3:CRS84" } },
"features": [
{ "type": "Feature", "properties": { "POLYGON_ID": "JOR_GAUL1990_ADM2_36713", "ADM0_ISO3": "JOR", "ADM0_NAME": "Jordan", "ADM0_CODE": 130, "ADM1_NAME": "Irbid", "ADM1_CODE": 143255, "ADM2_NAME": "Ajloon", "ADM2_CODE": 36713, "GEOSET": "GAUL", "GEOSET_YEAR": 1990.0, "GEOSET_VERSION": "GAUL_v1", "GEOSET_UNIT": "ADM2", "CENTROID_LONG": 35.724535908350425, "CENTROID_LAT": 32.321026882547827 }, "geometry": { "type": "MultiPolygon", "coordinates": [ [ [ [ 35.8946602, 32.3768782 ], [ 35.8223559, 32.3403266 ], [ 35.7637698, 32.2276623 ], [ 35.6823498, 32.1935103 ], [ 35.6606945, 32.1960712 ], [ 35.6140952, 32.2467922 ], [ 35.6001, 32.3180713 ], [ 35.6169925, 32.3910115 ], [ 35.7062944, 32.3885182 ], [ 35.7611565, 32.4242058 ], [ 35.812406, 32.4099125 ], [ 35.8545994, 32.4390497 ], [ 35.8946602, 32.3768782 ] ] ] ] } },
{ "type": "Feature", "properties": { "POLYGON_ID": "JOR_GAUL1990_ADM2_36723", "ADM0_ISO3": "JOR", "ADM0_NAME": "Jordan", "ADM0_CODE": 130, "ADM1_NAME": "Ma'an", "ADM1_CODE": 143256, "ADM2_NAME": "Aqaba", "ADM2_CODE": 36723, "GEOSET": "GAUL", "GEOSET_YEAR": 1990.0, "GEOSET_VERSION": "GAUL_v1", "GEOSET_UNIT": "ADM2", "CENTROID_LONG": 35.252585210909224, "CENTROID_LAT": 29.900254570198289 }, "geometry": { "type": "MultiPolygon", "coordinates": [ [ [ [ 35.4950996, 30.6224874 ], [ 35.4950921, 30.5384664 ], [ 35.4358301, 30.418762 ], [ 35.4016675, 30.3078062 ], [ 35.4258806, 30.2789003 ], [ 35.4237621, 30.1920471 ], [ 35.3816993, 30.1433833 ], [ 35.3256994, 30.0847289 ], [ 35.3368914, 30.0337288 ], [ 35.3163502, 29.9778728 ], [ 35.234761, 29.8657075 ], [ 35.1490031, 29.7106775 ], [ 35.2283326, 29.6522394 ], [ 35.3247745, 29.6782287 ], [ 35.3775174, 29.6660033 ], [ 35.3965398, 29.5665517 ], [ 35.4980971, 29.5011616 ], [ 35.526529, 29.4200771 ], [ 35.5385724, 29.26723 ], [ 35.5178688, 29.2705036 ], [ 34.9570448, 29.3567102 ], [ 34.9667717, 29.4461954 ], [ 35.0000014, 29.5160926 ], [ 34.97819, 29.5418233 ], [ 34.978675, 29.576901 ], [ 35.000521, 29.621985 ], [ 35.014005, 29.638884 ], [ 35.01918, 29.655469 ], [ 35.011454, 29.696463 ], [ 35.031202, 29.776068 ], [ 35.041103, 29.7854718 ], [ 35.069363, 29.86394 ], [ 35.078731, 29.871981 ], [ 35.088571, 29.972446 ], [ 35.098738, 29.991665 ], [ 35.109855, 30.009699 ], [ 35.100381, 30.012392 ], [ 35.112597, 30.039746 ], [ 35.130605, 30.062026 ], [ 35.1494127, 30.0861839 ], [ 35.148243, 30.087145 ], [ 35.151022, 30.214506 ], [ 35.14504, 30.2406179 ], [ 35.163439, 30.3131 ], [ 35.191679, 30.3457904 ], [ 35.188048, 30.357342 ], [ 35.1798698, 30.3734161 ], [ 35.164873, 30.402892 ], [ 35.161932, 30.418618 ], [ 35.161916, 30.4395442 ], [ 35.1734425, 30.4588504 ], [ 35.181443, 30.471344 ], [ 35.19286, 30.498489 ], [ 35.194608, 30.533427 ], [ 35.203602, 30.548037 ], [ 35.2036274, 30.5777389 ], [ 35.203631, 30.581972 ], [ 35.217817, 30.604712 ], [ 35.221609, 30.618781 ], [ 35.2482317, 30.6446854 ], [ 35.270679, 30.680096 ], [ 35.268094, 30.6843247 ], [ 35.2683976, 30.684805 ], [ 35.273985, 30.690161 ], [ 35.2748134, 30.6949533 ], [ 35.281905, 30.710535 ], [ 35.2827426, 30.7104332 ], [ 35.2882866, 30.7215815 ], [ 35.286281, 30.722835 ], [ 35.2900314, 30.7282415 ], [ 35.294266, 30.734346 ], [ 35.294608, 30.762277 ], [ 35.2968318, 30.7623748 ], [ 35.3015646, 30.7606286 ], [ 35.3079091, 30.7589456 ], [ 35.3668223, 30.6799058 ], [ 35.4211907, 30.6262857 ], [ 35.4950996, 30.6224874 ] ] ] ] } },
{ "type": "Feature", "properties": { "POLYGON_ID": "JOR_GAUL1990_ADM2_36727", "ADM0_ISO3": "JOR", "ADM0_NAME": "Jordan", "ADM0_CODE": 130, "ADM1_NAME": "Balqa", "ADM1_CODE": 143254, "ADM2_NAME": "Al-Salt", "ADM2_CODE": 36727, "GEOSET": "GAUL", "GEOSET_YEAR": 1990.0, "GEOSET_VERSION": "GAUL_v1", "GEOSET_UNIT": "ADM2", "CENTROID_LONG": 35.70879597510018, "CENTROID_LAT": 32.056674616600105 }, "geometry": { "type": "MultiPolygon", "coordinates": [ [ [ [ 35.8030177, 32.1868187 ], [ 35.8166654, 32.0295955 ], [ 35.8036883, 31.9821163 ], [ 35.7789237, 31.98123 ], [ 35.6985596, 31.9082963 ], [ 35.6437301, 31.9179362 ], [ 35.5874926, 31.9864343 ], [ 35.6606945, 32.1960712 ], [ 35.6823498, 32.1935103 ], [ 35.8030177, 32.1868187 ] ] ] ] } },
{ "type": "Feature", "properties": { "POLYGON_ID": "JOR_GAUL1990_ADM2_36733", "ADM0_ISO3": "JOR", "ADM0_NAME": "Jordan", "ADM0_CODE": 130, "ADM1_NAME": "Irbid", "ADM1_CODE": 143255, "ADM2_NAME": "Irbid", "ADM2_CODE": 36733, "GEOSET": "GAUL", "GEOSET_YEAR": 1990.0, "GEOSET_VERSION": "GAUL_v1", "GEOSET_UNIT": "ADM2", "CENTROID_LONG": 35.82161636516981, "CENTROID_LAT": 32.583033406901755 }, "geometry": { "type": "MultiPolygon", "coordinates": [ [ [ [ 35.9457744, 32.5360912 ], [ 35.835858, 32.5056461 ], [ 35.7651577, 32.5160504 ], [ 35.760319, 32.5187004 ], [ 35.7316903, 32.5593346 ], [ 35.6392722, 32.6078482 ], [ 35.6679247, 32.6377221 ], [ 35.8508149, 32.6248507 ], [ 35.9129276, 32.6705676 ], [ 35.9486226, 32.6251887 ], [ 35.9457744, 32.5360912 ] ] ] ] } },
{ "type": "Feature", "properties": { "POLYGON_ID": "JOR_GAUL1990_ADM2_36743", "ADM0_ISO3": "JOR", "ADM0_NAME": "Jordan", "ADM0_CODE": 130, "ADM1_NAME": "Karak", "ADM1_CODE": 1704, "ADM2_NAME": "Al-Qaser", "ADM2_CODE": 36743, "GEOSET": "GAUL", "GEOSET_YEAR": 1990.0, "GEOSET_VERSION": "GAUL_v1", "GEOSET_UNIT": "ADM2", "CENTROID_LONG": 35.753155934930355, "CENTROID_LAT": 31.351324499511449 }, "geometry": { "type": "MultiPolygon", "coordinates": [ [ [ [ 35.8229959, 31.4423267 ], [ 35.8582452, 31.3750269 ], [ 35.856828, 31.2971748 ], [ 35.7275744, 31.2464631 ], [ 35.648614, 31.2959079 ], [ 35.634737, 31.3706601 ], [ 35.6804341, 31.3793675 ], [ 35.6821032, 31.4282643 ], [ 35.759495, 31.4536412 ], [ 35.8229959, 31.4423267 ] ] ] ] } },
{ "type": "Feature", "properties": { "POLYGON_ID": "JOR_GAUL1990_ADM2_36740", "ADM0_ISO3": "JOR", "ADM0_NAME": "Jordan", "ADM0_CODE": 130, "ADM1_NAME": "Karak", "ADM1_CODE": 1704, "ADM2_NAME": "Karak", "ADM2_CODE": 36740, "GEOSET": "GAUL", "GEOSET_YEAR": 1990.0, "GEOSET_VERSION": "GAUL_v1", "GEOSET_UNIT": "ADM2", "CENTROID_LONG": 35.946134307641934, "CENTROID_LAT": 31.139383681512957 }, "geometry": { "type": "MultiPolygon", "coordinates": [ [ [ [ 36.1448444, 31.2671205 ], [ 36.1385248, 31.1916124 ], [ 36.2251886, 31.1002787 ], [ 36.1749883, 30.9989406 ], [ 36.15676, 30.9988648 ], [ 36.0718324, 30.8247211 ], [ 35.9245138, 30.8868744 ], [ 35.9087463, 30.9810489 ], [ 35.8468175, 31.0000929 ], [ 35.8563905, 31.0492868 ], [ 35.8020767, 31.1081613 ], [ 35.7242266, 31.075516 ], [ 35.6142776, 31.112507 ], [ 35.5937302, 31.1576405 ], [ 35.6274671, 31.1945881 ], [ 35.648614, 31.2959079 ], [ 35.7275744, 31.2464631 ], [ 35.856828, 31.2971748 ], [ 35.8582452, 31.3750269 ], [ 35.8229959, 31.4423267 ], [ 35.8823712, 31.4116422 ], [ 35.9800857, 31.4074791 ], [ 36.0716157, 31.3175733 ], [ 36.1448444, 31.2671205 ] ] ] ] } },
{ "type": "Feature", "properties": { "POLYGON_ID": "JOR_GAUL1990_ADM2_36744", "ADM0_ISO3": "JOR", "ADM0_NAME": "Jordan", "ADM0_CODE": 130, "ADM1_NAME": "Ma'an", "ADM1_CODE": 143256, "ADM2_NAME": "Ma'an", "ADM2_CODE": 36744, "GEOSET": "GAUL", "GEOSET_YEAR": 1990.0, "GEOSET_VERSION": "GAUL_v1", "GEOSET_UNIT": "ADM2", "CENTROID_LONG": 36.588290669236223, "CENTROID_LAT": 30.349354502713599 }, "geometry": { "type": "MultiPolygon", "coordinates": [ [ [ [ 37.9999524, 30.5004463 ], [ 37.6666034, 30.3337758 ], [ 37.4999291, 30.0004352 ], [ 36.7498938, 29.8670984 ], [ 36.5003864, 29.5004332 ], [ 36.0665295, 29.1837499 ], [ 35.7777822, 29.2294063 ], [ 35.7770452, 29.2295229 ], [ 35.7397406, 29.3634648 ], [ 35.7453232, 29.5087834 ], [ 35.7379647, 29.6404282 ], [ 35.7103206, 29.7363435 ], [ 35.6482451, 29.8333916 ], [ 35.5974201, 29.8788605 ], [ 35.5629759, 29.9573955 ], [ 35.5376266, 29.9713146 ], [ 35.3163502, 29.9778728 ], [ 35.3368914, 30.0337288 ], [ 35.3256994, 30.0847289 ], [ 35.3816993, 30.1433833 ], [ 35.4474848, 30.1347222 ], [ 35.5232923, 30.2625537 ], [ 35.5177688, 30.3681761 ], [ 35.5910291, 30.4106694 ], [ 35.685174, 30.4383039 ], [ 35.6240401, 30.5385998 ], [ 35.6433813, 30.5966497 ], [ 35.7360984, 30.6278695 ], [ 35.8169312, 30.6218971 ], [ 35.8345334, 30.6475362 ], [ 35.9906497, 30.6459375 ], [ 36.0718324, 30.8247211 ], [ 36.15676, 30.9988648 ], [ 36.1749883, 30.9989406 ], [ 36.2251886, 31.1002787 ], [ 36.1385248, 31.1916124 ], [ 36.1448444, 31.2671205 ], [ 36.2384168, 31.2505872 ], [ 37.2523729, 31.2497986 ], [ 37.5061847, 30.9977966 ], [ 37.9999524, 30.5004463 ] ] ] ] } },
{ "type": "Feature", "properties": { "POLYGON_ID": "JOR_GAUL1990_ADM2_36748", "ADM0_ISO3": "JOR", "ADM0_NAME": "Jordan", "ADM0_CODE": 130, "ADM1_NAME": "Amman", "ADM1_CODE": 143253, "ADM2_NAME": "Madaba", "ADM2_CODE": 36748, "GEOSET": "GAUL", "GEOSET_YEAR": 1990.0, "GEOSET_VERSION": "GAUL_v1", "GEOSET_UNIT": "ADM2", "CENTROID_LONG": 35.682002803640117, "CENTROID_LAT": 31.696331741847963 }, "geometry": { "type": "MultiPolygon", "coordinates": [ [ [ [ 35.4959169, 31.6371403 ], [ 35.5209469, 31.7097045 ], [ 35.5226487, 31.7146382 ], [ 35.5290123, 31.7251128 ], [ 35.6076754, 31.7171268 ], [ 35.6510848, 31.7956808 ], [ 35.8274756, 31.7766981 ], [ 35.84568, 31.7600513 ], [ 35.8433897, 31.7075386 ], [ 35.8009777, 31.6509578 ], [ 35.7718262, 31.624349 ], [ 35.6922853, 31.632264 ], [ 35.6346664, 31.5969162 ], [ 35.4959169, 31.6371403 ] ] ] ] } },
{ "type": "Feature", "properties": { "POLYGON_ID": "JOR_GAUL1990_ADM2_36747", "ADM0_ISO3": "JOR", "ADM0_NAME": "Jordan", "ADM0_CODE": 130, "ADM1_NAME": "Amman", "ADM1_CODE": 143253, "ADM2_NAME": "Theeban", "ADM2_CODE": 36747, "GEOSET": "GAUL", "GEOSET_YEAR": 1990.0, "GEOSET_VERSION": "GAUL_v1", "GEOSET_UNIT": "ADM2", "CENTROID_LONG": 35.670462834053716, "CENTROID_LAT": 31.53562368581451 }, "geometry": { "type": "MultiPolygon", "coordinates": [ [ [ [ 35.8229959, 31.4423267 ], [ 35.759495, 31.4536412 ], [ 35.6821032, 31.4282643 ], [ 35.5819203, 31.4610586 ], [ 35.5713639, 31.4600562 ], [ 35.4752345, 31.4436136 ], [ 35.475951, 31.457869 ], [ 35.4759603, 31.4905103 ], [ 35.4896095, 31.6188547 ], [ 35.4959169, 31.6371403 ], [ 35.6346664, 31.5969162 ], [ 35.6922853, 31.632264 ], [ 35.7718262, 31.624349 ], [ 35.8009777, 31.6509578 ], [ 35.8673912, 31.5933161 ], [ 35.8548636, 31.5136049 ], [ 35.8229959, 31.4423267 ] ] ] ] } },
{ "type": "Feature", "properties": { "POLYGON_ID": "JOR_GAUL1990_ADM2_36749", "ADM0_ISO3": "JOR", "ADM0_NAME": "Jordan", "ADM0_CODE": 130, "ADM1_NAME": "Mafraq", "ADM1_CODE": 1711, "ADM2_NAME": "Al-Badiya Al-Shimaliya", "ADM2_CODE": 36749, "GEOSET": "GAUL", "GEOSET_YEAR": 1990.0, "GEOSET_VERSION": "GAUL_v1", "GEOSET_UNIT": "ADM2", "CENTROID_LONG": 38.035715212656719, "CENTROID_LAT": 32.388730729231717 }, "geometry": { "type": "MultiPolygon", "coordinates": [ [ [ [ 39.25734, 32.35493 ], [ 39.2595072, 32.3500856 ], [ 39.27408, 32.31267 ], [ 39.28133, 32.29056 ], [ 39.2888739, 32.2676164 ], [ 39.30117, 32.23022 ], [ 39.22582, 32.17191 ], [ 39.200936, 32.15433 ], [ 39.1301811, 32.1354693 ], [ 39.1051259, 32.0824594 ], [ 39.0, 32.0004799 ], [ 38.5146344, 31.8825206 ], [ 37.9527594, 31.7432669 ], [ 37.8038275, 31.7056592 ], [ 37.2963619, 31.8600521 ], [ 36.5472094, 32.0872748 ], [ 36.4534826, 32.117737 ], [ 36.4142443, 32.1628796 ], [ 36.3506635, 32.1577834 ], [ 36.397896, 32.2674658 ], [ 36.3275906, 32.3284329 ], [ 36.3753022, 32.3817099 ], [ 36.3667726, 32.4165021 ], [ 36.37297, 32.41114 ], [ 36.4386749, 32.3795779 ], [ 36.46355, 32.37733 ], [ 36.5113172, 32.3593018 ], [ 36.5314773, 32.3570534 ], [ 36.54155, 32.35593 ], [ 36.5681043, 32.3529704 ], [ 36.70842, 32.32838 ], [ 36.7156743, 32.3309204 ], [ 36.83481, 32.31644 ], [ 36.95287, 32.38866 ], [ 37.0986438, 32.466796 ], [ 37.3842748, 32.6198967 ], [ 37.4976935, 32.6806908 ], [ 37.80586, 32.84587 ], [ 38.3195191, 33.1211994 ], [ 38.7925, 33.37472 ], [ 38.792883, 33.3738347 ], [ 38.79703, 33.36425 ], [ 38.88895, 33.08987 ], [ 38.89703, 33.06575 ], [ 39.0859974, 32.5015294 ], [ 39.06091, 32.49554 ], [ 39.02694, 32.48744 ], [ 38.98603, 32.47766 ], [ 39.0436685, 32.3040546 ], [ 39.25734, 32.35493 ] ] ] ] } },
{ "type": "Feature", "properties": { "POLYGON_ID": "JOR_GAUL1990_ADM2_36750", "ADM0_ISO3": "JOR", "ADM0_NAME": "Jordan", "ADM0_CODE": 130, "ADM1_NAME": "Mafraq", "ADM1_CODE": 1711, "ADM2_NAME": "Mafraq", "ADM2_CODE": 36750, "GEOSET": "GAUL", "GEOSET_YEAR": 1990.0, "GEOSET_VERSION": "GAUL_v1", "GEOSET_UNIT": "ADM2", "CENTROID_LONG": 36.173575183356562, "CENTROID_LAT": 32.322106158431389 }, "geometry": { "type": "MultiPolygon", "coordinates": [ [ [ [ 36.29611, 32.47049 ], [ 36.3215212, 32.4529982 ], [ 36.33654, 32.44266 ], [ 36.3667726, 32.4165021 ], [ 36.3753022, 32.3817099 ], [ 36.3275906, 32.3284329 ], [ 36.397896, 32.2674658 ], [ 36.3506635, 32.1577834 ], [ 36.2838666, 32.1327368 ], [ 36.1889091, 32.1964012 ], [ 36.1406555, 32.1524479 ], [ 36.0641979, 32.147352 ], [ 36.0115105, 32.1719626 ], [ 35.9733531, 32.2362235 ], [ 35.932125, 32.3092035 ], [ 35.9924748, 32.349607 ], [ 36.0057346, 32.3932596 ], [ 35.9914521, 32.4568336 ], [ 36.0495547, 32.4468904 ], [ 36.099618, 32.5202282 ], [ 36.1034964, 32.5212301 ], [ 36.11058, 32.52306 ], [ 36.12992, 32.52378 ], [ 36.13381, 32.52392 ], [ 36.1565774, 32.5226826 ], [ 36.16472, 32.52224 ], [ 36.1678236, 32.5213334 ], [ 36.17838, 32.51825 ], [ 36.20074, 32.52847 ], [ 36.2009692, 32.5284653 ], [ 36.20561, 32.52837 ], [ 36.29611, 32.47049 ] ] ] ] } },
{ "type": "Feature", "properties": { "POLYGON_ID": "JOR_GAUL1990_ADM2_36751", "ADM0_ISO3": "JOR", "ADM0_NAME": "Jordan", "ADM0_CODE": 130, "ADM1_NAME": "Tafiela", "ADM1_CODE": 1706, "ADM2_NAME": "Tafiela", "ADM2_CODE": 36751, "GEOSET": "GAUL", "GEOSET_YEAR": 1990.0, "GEOSET_VERSION": "GAUL_v1", "GEOSET_UNIT": "ADM2", "CENTROID_LONG": 35.665666902827901, "CENTROID_LAT": 30.790253962730198 }, "geometry": { "type": "MultiPolygon", "coordinates": [ [ [ [ 35.9245138, 30.8868744 ], [ 36.0718324, 30.8247211 ], [ 35.9906497, 30.6459375 ], [ 35.8345334, 30.6475362 ], [ 35.8169312, 30.6218971 ], [ 35.7360984, 30.6278695 ], [ 35.6433813, 30.5966497 ], [ 35.6186485, 30.6134573 ], [ 35.4950996, 30.6224874 ], [ 35.4211907, 30.6262857 ], [ 35.3668223, 30.6799058 ], [ 35.3079091, 30.7589456 ], [ 35.3015646, 30.7606286 ], [ 35.2968318, 30.7623748 ], [ 35.308365, 30.762882 ], [ 35.336194, 30.8209783 ], [ 35.329213, 30.841477 ], [ 35.331037, 30.862033 ], [ 35.334797, 30.87318 ], [ 35.353962, 30.909002 ], [ 35.3669146, 30.9231418 ], [ 35.3683297, 30.9217245 ], [ 35.3727564, 30.9194515 ], [ 35.3794745, 30.9211028 ], [ 35.3934586, 30.9168745 ], [ 35.4198322, 30.8946603 ], [ 35.4602567, 30.9129444 ], [ 35.458012, 30.9707827 ], [ 35.4876276, 31.0068661 ], [ 35.5410764, 31.0097063 ], [ 35.759991, 30.9592113 ], [ 35.8841938, 30.8951892 ], [ 35.9245138, 30.8868744 ] ] ] ] } },
{ "type": "Feature", "properties": { "POLYGON_ID": "JOR_GAUL1990_ADM2_36753", "ADM0_ISO3": "JOR", "ADM0_NAME": "Jordan", "ADM0_CODE": 130, "ADM1_NAME": "Zarqa", "ADM1_CODE": 143257, "ADM2_NAME": "Zarqa", "ADM2_CODE": 36753, "GEOSET": "GAUL", "GEOSET_YEAR": 1990.0, "GEOSET_VERSION": "GAUL_v1", "GEOSET_UNIT": "ADM2", "CENTROID_LONG": 36.853015007889454, "CENTROID_LAT": 31.840791710102589 }, "geometry": { "type": "MultiPolygon", "coordinates": [ [ [ [ 36.3506635, 32.1577834 ], [ 36.4142443, 32.1628796 ], [ 36.4534826, 32.117737 ], [ 36.5472094, 32.0872748 ], [ 37.2963619, 31.8600521 ], [ 37.8038275, 31.7056592 ], [ 37.7975204, 31.7040665 ], [ 37.4972996, 31.6282559 ], [ 37.0132063, 31.5038854 ], [ 36.7735778, 31.7191341 ], [ 36.6230927, 31.688157 ], [ 36.5489464, 31.7389834 ], [ 36.5026967, 31.7994924 ], [ 36.4115599, 31.8866979 ], [ 36.5161944, 31.9476374 ], [ 36.443522, 32.0144248 ], [ 36.3360424, 32.0495398 ], [ 36.2127491, 31.9984859 ], [ 36.1153045, 31.983924 ], [ 36.0792779, 32.019587 ], [ 35.9833334, 32.0368414 ], [ 35.8980013, 32.0858733 ], [ 35.881848, 32.1217171 ], [ 35.9154938, 32.1836356 ], [ 35.9831394, 32.2039126 ], [ 35.9733531, 32.2362235 ], [ 36.0115105, 32.1719626 ], [ 36.0641979, 32.147352 ], [ 36.1406555, 32.1524479 ], [ 36.1889091, 32.1964012 ], [ 36.2838666, 32.1327368 ], [ 36.3506635, 32.1577834 ] ] ] ] } },
{ "type": "Feature", "properties": { "POLYGON_ID": "JOR_GAUL1990_ADM2_36719", "ADM0_ISO3": "JOR", "ADM0_NAME": "Jordan", "ADM0_CODE": 130, "ADM1_NAME": "Amman", "ADM1_CODE": 143253, "ADM2_NAME": "Al-Muwaqar", "ADM2_CODE": 36719, "GEOSET": "GAUL", "GEOSET_YEAR": 1990.0, "GEOSET_VERSION": "GAUL_v1", "GEOSET_UNIT": "ADM2", "CENTROID_LONG": 36.238331354244757, "CENTROID_LAT": 31.792482285858512 }, "geometry": { "type": "MultiPolygon", "coordinates": [ [ [ [ 36.4115599, 31.8866979 ], [ 36.5026967, 31.7994924 ], [ 36.5489464, 31.7389834 ], [ 36.4818438, 31.7216512 ], [ 36.4149023, 31.751713 ], [ 36.3001091, 31.7631095 ], [ 36.2589895, 31.6879996 ], [ 36.1799893, 31.6755452 ], [ 36.0955477, 31.7075613 ], [ 36.0132705, 31.7667681 ], [ 35.9479627, 31.831546 ], [ 35.9829389, 31.8607958 ], [ 36.0592143, 31.86559 ], [ 36.152109, 31.8500463 ], [ 36.255462, 31.8877313 ], [ 36.3643383, 31.8672746 ], [ 36.4115599, 31.8866979 ] ] ] ] } },
{ "type": "Feature", "properties": { "POLYGON_ID": "JOR_GAUL1990_ADM2_36715", "ADM0_ISO3": "JOR", "ADM0_NAME": "Jordan", "ADM0_CODE": 130, "ADM1_NAME": "Amman", "ADM1_CODE": 143253, "ADM2_NAME": "Al-Jeeza", "ADM2_CODE": 36715, "GEOSET": "GAUL", "GEOSET_YEAR": 1990.0, "GEOSET_VERSION": "GAUL_v1", "GEOSET_UNIT": "ADM2", "CENTROID_LONG": 36.4569866746128, "CENTROID_LAT": 31.48792958544302 }, "geometry": { "type": "MultiPolygon", "coordinates": [ [ [ [ 36.5489464, 31.7389834 ], [ 36.6230927, 31.688157 ], [ 36.7735778, 31.7191341 ], [ 37.0132063, 31.5038854 ], [ 37.0046812, 31.5016951 ], [ 36.9999036, 31.5004677 ], [ 37.0600304, 31.4407697 ], [ 37.2392098, 31.2628678 ], [ 37.2523729, 31.2497986 ], [ 36.2384168, 31.2505872 ], [ 36.1448444, 31.2671205 ], [ 36.0716157, 31.3175733 ], [ 35.9800857, 31.4074791 ], [ 35.8823712, 31.4116422 ], [ 35.8229959, 31.4423267 ], [ 35.8548636, 31.5136049 ], [ 35.8673912, 31.5933161 ], [ 35.8009777, 31.6509578 ], [ 35.8433897, 31.7075386 ], [ 35.84568, 31.7600513 ], [ 35.8987451, 31.809853 ], [ 35.9479627, 31.831546 ], [ 36.0132705, 31.7667681 ], [ 36.0955477, 31.7075613 ], [ 36.1799893, 31.6755452 ], [ 36.2589895, 31.6879996 ], [ 36.3001091, 31.7631095 ], [ 36.4149023, 31.751713 ], [ 36.4818438, 31.7216512 ], [ 36.5489464, 31.7389834 ] ] ] ] } },
{ "type": "Feature", "properties": { "POLYGON_ID": "JOR_GAUL1990_ADM2_36717", "ADM0_ISO3": "JOR", "ADM0_NAME": "Jordan", "ADM0_CODE": 130, "ADM1_NAME": "Amman", "ADM1_CODE": 143253, "ADM2_NAME": "Amman", "ADM2_CODE": 36717, "GEOSET": "GAUL", "GEOSET_YEAR": 1990.0, "GEOSET_VERSION": "GAUL_v1", "GEOSET_UNIT": "ADM2", "CENTROID_LONG": 35.914661446354096, "CENTROID_LAT": 31.956838333471886 }, "geometry": { "type": "MultiPolygon", "coordinates": [ [ [ [ 35.9373888, 31.9889846 ], [ 35.9520849, 31.9379002 ], [ 35.8732654, 31.9368155 ], [ 35.8797665, 31.9641777 ], [ 35.9373888, 31.9889846 ] ] ] ] } },
{ "type": "Feature", "properties": { "POLYGON_ID": "JOR_GAUL1990_ADM2_36714", "ADM0_ISO3": "JOR", "ADM0_NAME": "Jordan", "ADM0_CODE": 130, "ADM1_NAME": "Amman", "ADM1_CODE": 143253, "ADM2_NAME": "Jami'ah", "ADM2_CODE": 36714, "GEOSET": "GAUL", "GEOSET_YEAR": 1990.0, "GEOSET_VERSION": "GAUL_v1", "GEOSET_UNIT": "ADM2", "CENTROID_LONG": 35.899023911067545, "CENTROID_LAT": 32.0176012536215 }, "geometry": { "type": "MultiPolygon", "coordinates": [ [ [ [ 35.9833334, 32.0368414 ], [ 36.0080248, 32.0136882 ], [ 35.9373888, 31.9889846 ], [ 35.8797665, 31.9641777 ], [ 35.8036883, 31.9821163 ], [ 35.8166654, 32.0295955 ], [ 35.8570615, 32.0322214 ], [ 35.8980013, 32.0858733 ], [ 35.9833334, 32.0368414 ] ] ] ] } },
{ "type": "Feature", "properties": { "POLYGON_ID": "JOR_GAUL1990_ADM2_36718", "ADM0_ISO3": "JOR", "ADM0_NAME": "Jordan", "ADM0_CODE": 130, "ADM1_NAME": "Amman", "ADM1_CODE": 143253, "ADM2_NAME": "Marka", "ADM2_CODE": 36718, "GEOSET": "GAUL", "GEOSET_YEAR": 1990.0, "GEOSET_VERSION": "GAUL_v1", "GEOSET_UNIT": "ADM2", "CENTROID_LONG": 36.029478019660907, "CENTROID_LAT": 31.966453527831721 }, "geometry": { "type": "MultiPolygon", "coordinates": [ [ [ [ 36.1153045, 31.983924 ], [ 36.0814605, 31.9123884 ], [ 36.0252688, 31.9130639 ], [ 35.9520849, 31.9379002 ], [ 35.9373888, 31.9889846 ], [ 36.0080248, 32.0136882 ], [ 36.0792779, 32.019587 ], [ 36.1153045, 31.983924 ] ] ] ] } },
{ "type": "Feature", "properties": { "POLYGON_ID": "JOR_GAUL1990_ADM2_36720", "ADM0_ISO3": "JOR", "ADM0_NAME": "Jordan", "ADM0_CODE": 130, "ADM1_NAME": "Amman", "ADM1_CODE": 143253, "ADM2_NAME": "Na'oor", "ADM2_CODE": 36720, "GEOSET": "GAUL", "GEOSET_YEAR": 1990.0, "GEOSET_VERSION": "GAUL_v1", "GEOSET_UNIT": "ADM2", "CENTROID_LONG": 35.790813873517841, "CENTROID_LAT": 31.829701155745692 }, "geometry": { "type": "MultiPolygon", "coordinates": [ [ [ [ 35.8699891, 31.8791955 ], [ 35.8987451, 31.809853 ], [ 35.84568, 31.7600513 ], [ 35.8274756, 31.7766981 ], [ 35.6510848, 31.7956808 ], [ 35.6928109, 31.8245803 ], [ 35.7134276, 31.8784187 ], [ 35.8082812, 31.8904973 ], [ 35.8699891, 31.8791955 ] ] ] ] } },
{ "type": "Feature", "properties": { "POLYGON_ID": "JOR_GAUL1990_ADM2_36716", "ADM0_ISO3": "JOR", "ADM0_NAME": "Jordan", "ADM0_CODE": 130, "ADM1_NAME": "Amman", "ADM1_CODE": 143253, "ADM2_NAME": "Qwaismeh", "ADM2_CODE": 36716, "GEOSET": "GAUL", "GEOSET_YEAR": 1990.0, "GEOSET_VERSION": "GAUL_v1", "GEOSET_UNIT": "ADM2", "CENTROID_LONG": 35.933526157513938, "CENTROID_LAT": 31.885522212806173 }, "geometry": { "type": "MultiPolygon", "coordinates": [ [ [ [ 36.0252688, 31.9130639 ], [ 35.9829389, 31.8607958 ], [ 35.9479627, 31.831546 ], [ 35.8987451, 31.809853 ], [ 35.8699891, 31.8791955 ], [ 35.8732654, 31.9368155 ], [ 35.9520849, 31.9379002 ], [ 36.0252688, 31.9130639 ] ] ] ] } },
{ "type": "Feature", "properties": { "POLYGON_ID": "JOR_GAUL1990_ADM2_36721", "ADM0_ISO3": "JOR", "ADM0_NAME": "Jordan", "ADM0_CODE": 130, "ADM1_NAME": "Amman", "ADM1_CODE": 143253, "ADM2_NAME": "Sahab", "ADM2_CODE": 36721, "GEOSET": "GAUL", "GEOSET_YEAR": 1990.0, "GEOSET_VERSION": "GAUL_v1", "GEOSET_UNIT": "ADM2", "CENTROID_LONG": 36.27101386129317, "CENTROID_LAT": 31.940797733468777 }, "geometry": { "type": "MultiPolygon", "coordinates": [ [ [ [ 36.4115599, 31.8866979 ], [ 36.3643383, 31.8672746 ], [ 36.255462, 31.8877313 ], [ 36.152109, 31.8500463 ], [ 36.0592143, 31.86559 ], [ 35.9829389, 31.8607958 ], [ 36.0252688, 31.9130639 ], [ 36.0814605, 31.9123884 ], [ 36.1153045, 31.983924 ], [ 36.2127491, 31.9984859 ], [ 36.3360424, 32.0495398 ], [ 36.443522, 32.0144248 ], [ 36.5161944, 31.9476374 ], [ 36.4115599, 31.8866979 ] ] ] ] } },
{ "type": "Feature", "properties": { "POLYGON_ID": "JOR_GAUL1990_ADM2_36722", "ADM0_ISO3": "JOR", "ADM0_NAME": "Jordan", "ADM0_CODE": 130, "ADM1_NAME": "Amman", "ADM1_CODE": 143253, "ADM2_NAME": "Wadisseer", "ADM2_CODE": 36722, "GEOSET": "GAUL", "GEOSET_YEAR": 1990.0, "GEOSET_VERSION": "GAUL_v1", "GEOSET_UNIT": "ADM2", "CENTROID_LONG": 35.79718401193616, "CENTROID_LAT": 31.926696890499279 }, "geometry": { "type": "MultiPolygon", "coordinates": [ [ [ [ 35.8036883, 31.9821163 ], [ 35.8797665, 31.9641777 ], [ 35.8732654, 31.9368155 ], [ 35.8699891, 31.8791955 ], [ 35.8082812, 31.8904973 ], [ 35.7134276, 31.8784187 ], [ 35.6985596, 31.9082963 ], [ 35.7789237, 31.98123 ], [ 35.8036883, 31.9821163 ] ] ] ] } },
{ "type": "Feature", "properties": { "POLYGON_ID": "JOR_GAUL1990_ADM2_36724", "ADM0_ISO3": "JOR", "ADM0_NAME": "Jordan", "ADM0_CODE": 130, "ADM1_NAME": "Ma'an", "ADM1_CODE": 143256, "ADM2_NAME": "Al-Qwaira", "ADM2_CODE": 36724, "GEOSET": "GAUL", "GEOSET_YEAR": 1990.0, "GEOSET_VERSION": "GAUL_v1", "GEOSET_UNIT": "ADM2", "CENTROID_LONG": 35.513378061129835, "CENTROID_LAT": 29.653848150763508 }, "geometry": { "type": "MultiPolygon", "coordinates": [ [ [ [ 35.7770452, 29.2295229 ], [ 35.5405909, 29.2669108 ], [ 35.5385724, 29.26723 ], [ 35.526529, 29.4200771 ], [ 35.4980971, 29.5011616 ], [ 35.3965398, 29.5665517 ], [ 35.3775174, 29.6660033 ], [ 35.3247745, 29.6782287 ], [ 35.2283326, 29.6522394 ], [ 35.1490031, 29.7106775 ], [ 35.234761, 29.8657075 ], [ 35.3163502, 29.9778728 ], [ 35.5376266, 29.9713146 ], [ 35.5629759, 29.9573955 ], [ 35.5974201, 29.8788605 ], [ 35.6482451, 29.8333916 ], [ 35.7103206, 29.7363435 ], [ 35.7379647, 29.6404282 ], [ 35.7453232, 29.5087834 ], [ 35.7397406, 29.3634648 ], [ 35.7770452, 29.2295229 ] ] ] ] } },
{ "type": "Feature", "properties": { "POLYGON_ID": "JOR_GAUL1990_ADM2_36728", "ADM0_ISO3": "JOR", "ADM0_NAME": "Jordan", "ADM0_CODE": 130, "ADM1_NAME": "Balqa", "ADM1_CODE": 143254, "ADM2_NAME": "Al-Ruseifa", "ADM2_CODE": 36728, "GEOSET": "GAUL", "GEOSET_YEAR": 1990.0, "GEOSET_VERSION": "GAUL_v1", "GEOSET_UNIT": "ADM2", "CENTROID_LONG": 35.617640481501191, "CENTROID_LAT": 31.858149554994679 }, "geometry": { "type": "MultiPolygon", "coordinates": [ [ [ [ 36.0080248, 32.0136882 ], [ 35.9833334, 32.0368414 ], [ 36.0792779, 32.019587 ], [ 36.0080248, 32.0136882 ] ] ], [ [ [ 35.7134276, 31.8784187 ], [ 35.6928109, 31.8245803 ], [ 35.6510848, 31.7956808 ], [ 35.6076754, 31.7171268 ], [ 35.5290123, 31.7251128 ], [ 35.5325956, 31.731011 ], [ 35.5576064, 31.7650555 ], [ 35.5555888, 31.7697229 ], [ 35.5526124, 31.7731755 ], [ 35.5522068, 31.773646 ], [ 35.5474126, 31.7834713 ], [ 35.5514627, 31.7903531 ], [ 35.5515304, 31.7986052 ], [ 35.5469583, 31.7999499 ], [ 35.5469309, 31.799958 ], [ 35.5428082, 31.8055288 ], [ 35.543753, 31.8177862 ], [ 35.5409862, 31.8193152 ], [ 35.5429904, 31.8223822 ], [ 35.5459567, 31.8231031 ], [ 35.5486895, 31.8237673 ], [ 35.5479906, 31.8280105 ], [ 35.5474543, 31.8310063 ], [ 35.5469077, 31.8344377 ], [ 35.5496103, 31.8366849 ], [ 35.5486029, 31.8394664 ], [ 35.5459839, 31.8466973 ], [ 35.5410152, 31.8503779 ], [ 35.5390646, 31.8518228 ], [ 35.5365819, 31.8562345 ], [ 35.5398963, 31.8575197 ], [ 35.5499747, 31.8730093 ], [ 35.5442788, 31.8756833 ], [ 35.5400339, 31.8777751 ], [ 35.5330853, 31.8827111 ], [ 35.5312524, 31.8987914 ], [ 35.527773, 31.8993386 ], [ 35.5254624, 31.9020942 ], [ 35.5244706, 31.9077335 ], [ 35.5253866, 31.909659 ], [ 35.5272131, 31.9212221 ], [ 35.526635, 31.9231444 ], [ 35.5303859, 31.9238303 ], [ 35.5362666, 31.9249056 ], [ 35.5413634, 31.9368474 ], [ 35.5411985, 31.9431047 ], [ 35.5417221, 31.9599355 ], [ 35.5431376, 31.9658108 ], [ 35.5477345, 31.968809 ], [ 35.5433992, 31.9769324 ], [ 35.541392, 31.9788908 ], [ 35.5407505, 31.979283 ], [ 35.5874926, 31.9864343 ], [ 35.6437301, 31.9179362 ], [ 35.6985596, 31.9082963 ], [ 35.7134276, 31.8784187 ] ] ] ] } },
{ "type": "Feature", "properties": { "POLYGON_ID": "JOR_GAUL1990_ADM2_36726", "ADM0_ISO3": "JOR", "ADM0_NAME": "Jordan", "ADM0_CODE": 130, "ADM1_NAME": "Balqa", "ADM1_CODE": 143254, "ADM2_NAME": "Al-Shoona Al-Janoobiya", "ADM2_CODE": 36726, "GEOSET": "GAUL", "GEOSET_YEAR": 1990.0, "GEOSET_VERSION": "GAUL_v1", "GEOSET_UNIT": "ADM2", "CENTROID_LONG": 35.586581723948058, "CENTROID_LAT": 32.116549700943537 }, "geometry": { "type": "MultiPolygon", "coordinates": [ [ [ [ 35.6606945, 32.1960712 ], [ 35.5874926, 31.9864343 ], [ 35.5407505, 31.979283 ], [ 35.5369255, 31.9816211 ], [ 35.5354218, 31.9850798 ], [ 35.5348392, 31.9888824 ], [ 35.5357225, 31.9931501 ], [ 35.539081, 31.9958569 ], [ 35.5364639, 31.9999571 ], [ 35.5350558, 32.0016089 ], [ 35.5323139, 31.9991151 ], [ 35.5300194, 32.0000925 ], [ 35.5262015, 32.0025566 ], [ 35.5259981, 32.0057317 ], [ 35.5275594, 32.0147356 ], [ 35.5290056, 32.0186642 ], [ 35.5223937, 32.0229135 ], [ 35.5236411, 32.0291857 ], [ 35.5222386, 32.0314965 ], [ 35.519231, 32.035256 ], [ 35.5194817, 32.0445794 ], [ 35.5197315, 32.048342 ], [ 35.5234918, 32.0505444 ], [ 35.5287737, 32.0650496 ], [ 35.5334555, 32.076295 ], [ 35.538275, 32.0791867 ], [ 35.5453968, 32.0828757 ], [ 35.5437519, 32.0900421 ], [ 35.5400835, 32.0918984 ], [ 35.5385296, 32.0972118 ], [ 35.5365602, 32.1008527 ], [ 35.5354786, 32.1028524 ], [ 35.5328899, 32.1068289 ], [ 35.54139, 32.1125268 ], [ 35.5496074, 32.123177 ], [ 35.5512946, 32.1285029 ], [ 35.5463492, 32.1298939 ], [ 35.5435551, 32.1396118 ], [ 35.5440936, 32.1423753 ], [ 35.5460485, 32.1441297 ], [ 35.5489558, 32.1420746 ], [ 35.5563915, 32.1439802 ], [ 35.5576997, 32.1443155 ], [ 35.5610691, 32.1511543 ], [ 35.5585671, 32.1591274 ], [ 35.5581923, 32.1591821 ], [ 35.54966, 32.1604284 ], [ 35.5480921, 32.1672005 ], [ 35.5490736, 32.1688917 ], [ 35.5534898, 32.166652 ], [ 35.557778, 32.16809 ], [ 35.5563744, 32.1710976 ], [ 35.5570261, 32.1743557 ], [ 35.5589785, 32.1801214 ], [ 35.5627007, 32.1841275 ], [ 35.5660759, 32.1874081 ], [ 35.5691381, 32.1906922 ], [ 35.570429, 32.1920766 ], [ 35.5704092, 32.1927318 ], [ 35.5702721, 32.1972535 ], [ 35.5702713, 32.1972814 ], [ 35.5687926, 32.1973805 ], [ 35.5667743, 32.1975538 ], [ 35.5631916, 32.2029777 ], [ 35.5631415, 32.2052334 ], [ 35.5684047, 32.2121007 ], [ 35.5716128, 32.2100956 ], [ 35.5741692, 32.2120505 ], [ 35.569307, 32.216612 ], [ 35.5667498, 32.2188715 ], [ 35.5666002, 32.2245319 ], [ 35.5715109, 32.22739 ], [ 35.5702397, 32.2305156 ], [ 35.564545, 32.2287926 ], [ 35.5621891, 32.2314994 ], [ 35.5639435, 32.2393692 ], [ 35.5676559, 32.2420926 ], [ 35.5689934, 32.2442319 ], [ 35.6140952, 32.2467922 ], [ 35.6606945, 32.1960712 ] ] ] ] } },
{ "type": "Feature", "properties": { "POLYGON_ID": "JOR_GAUL1990_ADM2_36725", "ADM0_ISO3": "JOR", "ADM0_NAME": "Jordan", "ADM0_CODE": 130, "ADM1_NAME": "Balqa", "ADM1_CODE": 143254, "ADM2_NAME": "Dair Ala", "ADM2_CODE": 36725, "GEOSET": "GAUL", "GEOSET_YEAR": 1990.0, "GEOSET_VERSION": "GAUL_v1", "GEOSET_UNIT": "ADM2", "CENTROID_LONG": 35.843979531109504, "CENTROID_LAT": 32.103853506959886 }, "geometry": { "type": "MultiPolygon", "coordinates": [ [ [ [ 35.881848, 32.1217171 ], [ 35.8980013, 32.0858733 ], [ 35.8570615, 32.0322214 ], [ 35.8166654, 32.0295955 ], [ 35.8030177, 32.1868187 ], [ 35.8578631, 32.1661242 ], [ 35.881848, 32.1217171 ] ] ] ] } },
{ "type": "Feature", "properties": { "POLYGON_ID": "JOR_GAUL1990_ADM2_36730", "ADM0_ISO3": "JOR", "ADM0_NAME": "Jordan", "ADM0_CODE": 130, "ADM1_NAME": "Irbid", "ADM1_CODE": 143255, "ADM2_NAME": "Al-Aghwar Al-Shimaliya", "ADM2_CODE": 36730, "GEOSET": "GAUL", "GEOSET_YEAR": 1990.0, "GEOSET_VERSION": "GAUL_v1", "GEOSET_UNIT": "ADM2", "CENTROID_LONG": 35.994969857940539, "CENTROID_LAT": 32.573176173623771 }, "geometry": { "type": "MultiPolygon", "coordinates": [ [ [ [ 35.8854146, 32.7334393 ], [ 35.8863769, 32.733131 ], [ 35.93682, 32.72411 ], [ 36.07044, 32.5758 ], [ 36.09076, 32.51794 ], [ 36.099618, 32.5202282 ], [ 36.0495547, 32.4468904 ], [ 35.9914521, 32.4568336 ], [ 35.9564531, 32.4736184 ], [ 35.9457744, 32.5360912 ], [ 35.9486226, 32.6251887 ], [ 35.9129276, 32.6705676 ], [ 35.8851559, 32.7088081 ], [ 35.8857642, 32.71605 ], [ 35.8857199, 32.721057 ], [ 35.8856419, 32.7242228 ], [ 35.8854146, 32.7334393 ] ] ] ] } },
{ "type": "Feature", "properties": { "POLYGON_ID": "JOR_GAUL1990_ADM2_36735", "ADM0_ISO3": "JOR", "ADM0_NAME": "Jordan", "ADM0_CODE": 130, "ADM1_NAME": "Irbid", "ADM1_CODE": 143255, "ADM2_NAME": "Al-Koora", "ADM2_CODE": 36735, "GEOSET": "GAUL", "GEOSET_YEAR": 1990.0, "GEOSET_VERSION": "GAUL_v1", "GEOSET_UNIT": "ADM2", "CENTROID_LONG": 35.795769394850851, "CENTROID_LAT": 32.4644771753714 }, "geometry": { "type": "MultiPolygon", "coordinates": [ [ [ [ 35.835858, 32.5056461 ], [ 35.8545994, 32.4390497 ], [ 35.812406, 32.4099125 ], [ 35.7611565, 32.4242058 ], [ 35.7343519, 32.4788019 ], [ 35.7651577, 32.5160504 ], [ 35.835858, 32.5056461 ] ] ] ] } },
{ "type": "Feature", "properties": { "POLYGON_ID": "JOR_GAUL1990_ADM2_36736", "ADM0_ISO3": "JOR", "ADM0_NAME": "Jordan", "ADM0_CODE": 130, "ADM1_NAME": "Irbid", "ADM1_CODE": 143255, "ADM2_NAME": "Al-Mazar Al-Shimali", "ADM2_CODE": 36736, "GEOSET": "GAUL", "GEOSET_YEAR": 1990.0, "GEOSET_VERSION": "GAUL_v1", "GEOSET_UNIT": "ADM2", "CENTROID_LONG": 35.680157105882401, "CENTROID_LAT": 32.555584498403846 }, "geometry": { "type": "MultiPolygon", "coordinates": [ [ [ [ 35.760319, 32.5187004 ], [ 35.6202389, 32.5358567 ], [ 35.6392722, 32.6078482 ], [ 35.7316903, 32.5593346 ], [ 35.760319, 32.5187004 ] ] ] ] } },
{ "type": "Feature", "properties": { "POLYGON_ID": "JOR_GAUL1990_ADM2_36731", "ADM0_ISO3": "JOR", "ADM0_NAME": "Jordan", "ADM0_CODE": 130, "ADM1_NAME": "Irbid", "ADM1_CODE": 143255, "ADM2_NAME": "Al-Ramtha", "ADM2_CODE": 36731, "GEOSET": "GAUL", "GEOSET_YEAR": 1990.0, "GEOSET_VERSION": "GAUL_v1", "GEOSET_UNIT": "ADM2", "CENTROID_LONG": 35.785939165173275, "CENTROID_LAT": 32.682346300882266 }, "geometry": { "type": "MultiPolygon", "coordinates": [ [ [ [ 35.8845419, 32.7337188 ], [ 35.8854146, 32.7334393 ], [ 35.8856419, 32.7242228 ], [ 35.8857199, 32.721057 ], [ 35.8857642, 32.71605 ], [ 35.8851559, 32.7088081 ], [ 35.9129276, 32.6705676 ], [ 35.8508149, 32.6248507 ], [ 35.6679247, 32.6377221 ], [ 35.6517479, 32.682111 ], [ 35.6546442, 32.684788 ], [ 35.6716307, 32.6910554 ], [ 35.67504, 32.69464 ], [ 35.6828657, 32.7023295 ], [ 35.73957, 32.73243 ], [ 35.74907, 32.732 ], [ 35.76035, 32.73983 ], [ 35.76419, 32.74732 ], [ 35.7661114, 32.7486921 ], [ 35.8845419, 32.7337188 ] ] ] ] } },
{ "type": "Feature", "properties": { "POLYGON_ID": "JOR_GAUL1990_ADM2_36729", "ADM0_ISO3": "JOR", "ADM0_NAME": "Jordan", "ADM0_CODE": 130, "ADM1_NAME": "Irbid", "ADM1_CODE": 143255, "ADM2_NAME": "Al-Teeba", "ADM2_CODE": 36729, "GEOSET": "GAUL", "GEOSET_YEAR": 1990.0, "GEOSET_VERSION": "GAUL_v1", "GEOSET_UNIT": "ADM2", "CENTROID_LONG": 35.595675264359826, "CENTROID_LAT": 32.477335843011474 }, "geometry": { "type": "MultiPolygon", "coordinates": [ [ [ [ 35.6517479, 32.682111 ], [ 35.6679247, 32.6377221 ], [ 35.6392722, 32.6078482 ], [ 35.6202389, 32.5358567 ], [ 35.6072618, 32.4723672 ], [ 35.6169925, 32.3910115 ], [ 35.6001, 32.3180713 ], [ 35.6140952, 32.2467922 ], [ 35.5689934, 32.2442319 ], [ 35.5696149, 32.245226 ], [ 35.5679721, 32.2513032 ], [ 35.5652468, 32.2493443 ], [ 35.5631413, 32.2505488 ], [ 35.5625901, 32.2569134 ], [ 35.5646954, 32.2608733 ], [ 35.5634923, 32.2634799 ], [ 35.5602341, 32.2681416 ], [ 35.5577278, 32.2728534 ], [ 35.5645702, 32.2755271 ], [ 35.5676719, 32.2835504 ], [ 35.5624898, 32.2952097 ], [ 35.5553218, 32.2980167 ], [ 35.5566251, 32.3015757 ], [ 35.559783, 32.3054855 ], [ 35.5637931, 32.3097963 ], [ 35.5561238, 32.3216762 ], [ 35.5545198, 32.328744 ], [ 35.5575273, 32.3321526 ], [ 35.5540686, 32.3433307 ], [ 35.5572767, 32.3472405 ], [ 35.5545699, 32.3552607 ], [ 35.5528656, 32.3663887 ], [ 35.5570261, 32.3668398 ], [ 35.5614372, 32.3637821 ], [ 35.563342, 32.3843839 ], [ 35.5593224, 32.3866388 ], [ 35.5551213, 32.3889955 ], [ 35.5496074, 32.3936071 ], [ 35.5466101, 32.4010451 ], [ 35.5538982, 32.4000484 ], [ 35.5600504, 32.4009906 ], [ 35.5527147, 32.4186737 ], [ 35.551718, 32.4225981 ], [ 35.5530261, 32.4261487 ], [ 35.5623699, 32.4239685 ], [ 35.5577603, 32.4275191 ], [ 35.5556424, 32.4306337 ], [ 35.5615601, 32.4339352 ], [ 35.566232, 32.4361154 ], [ 35.5624322, 32.4637107 ], [ 35.5623649, 32.4653201 ], [ 35.5626191, 32.467199 ], [ 35.5655468, 32.4814016 ], [ 35.5746414, 32.484267 ], [ 35.5804312, 32.4882101 ], [ 35.5643633, 32.5018333 ], [ 35.5613732, 32.504325 ], [ 35.5645501, 32.5069413 ], [ 35.5527147, 32.5148523 ], [ 35.5553932, 32.5214553 ], [ 35.5638907, 32.5211682 ], [ 35.5634289, 32.530363 ], [ 35.5593176, 32.5321695 ], [ 35.5614978, 32.5454376 ], [ 35.5656714, 32.5397691 ], [ 35.571392, 32.5401768 ], [ 35.5715268, 32.5455622 ], [ 35.5731464, 32.5495489 ], [ 35.5776314, 32.5524143 ], [ 35.5775068, 32.5575223 ], [ 35.5679139, 32.6330823 ], [ 35.5680385, 32.6413671 ], [ 35.5723214, 32.6417887 ], [ 35.5747481, 32.640622 ], [ 35.5784348, 32.6421154 ], [ 35.5790882, 32.6453821 ], [ 35.5845482, 32.6444954 ], [ 35.5862987, 32.6417823 ], [ 35.5912683, 32.6455221 ], [ 35.5915017, 32.6484155 ], [ 35.6053691, 32.6514376 ], [ 35.6057818, 32.6514488 ], [ 35.6003684, 32.6651223 ], [ 35.5986418, 32.6688091 ], [ 35.6426957, 32.6813626 ], [ 35.6447024, 32.6778158 ], [ 35.6493224, 32.6798692 ], [ 35.6517479, 32.682111 ] ] ] ] } },
{ "type": "Feature", "properties": { "POLYGON_ID": "JOR_GAUL1990_ADM2_36734", "ADM0_ISO3": "JOR", "ADM0_NAME": "Jordan", "ADM0_CODE": 130, "ADM1_NAME": "Irbid", "ADM1_CODE": 143255, "ADM2_NAME": "Beni Kinana", "ADM2_CODE": 36734, "GEOSET": "GAUL", "GEOSET_YEAR": 1990.0, "GEOSET_VERSION": "GAUL_v1", "GEOSET_UNIT": "ADM2", "CENTROID_LONG": 35.6783842063858, "CENTROID_LAT": 32.460748440260886 }, "geometry": { "type": "MultiPolygon", "coordinates": [ [ [ [ 35.760319, 32.5187004 ], [ 35.7651577, 32.5160504 ], [ 35.7343519, 32.4788019 ], [ 35.7611565, 32.4242058 ], [ 35.7062944, 32.3885182 ], [ 35.6169925, 32.3910115 ], [ 35.6072618, 32.4723672 ], [ 35.6202389, 32.5358567 ], [ 35.760319, 32.5187004 ] ] ] ] } },
{ "type": "Feature", "properties": { "POLYGON_ID": "JOR_GAUL1990_ADM2_36732", "ADM0_ISO3": "JOR", "ADM0_NAME": "Jordan", "ADM0_CODE": 130, "ADM1_NAME": "Irbid", "ADM1_CODE": 143255, "ADM2_NAME": "Beni Obaid", "ADM2_CODE": 36732, "GEOSET": "GAUL", "GEOSET_YEAR": 1990.0, "GEOSET_VERSION": "GAUL_v1", "GEOSET_UNIT": "ADM2", "CENTROID_LONG": 35.916912410638446, "CENTROID_LAT": 32.455837564743227 }, "geometry": { "type": "MultiPolygon", "coordinates": [ [ [ [ 35.9914521, 32.4568336 ], [ 36.0057346, 32.3932596 ], [ 35.9459393, 32.4056891 ], [ 35.8946602, 32.3768782 ], [ 35.8545994, 32.4390497 ], [ 35.835858, 32.5056461 ], [ 35.9457744, 32.5360912 ], [ 35.9564531, 32.4736184 ], [ 35.9914521, 32.4568336 ] ] ] ] } },
{ "type": "Feature", "properties": { "POLYGON_ID": "JOR_GAUL1990_ADM2_36737", "ADM0_ISO3": "JOR", "ADM0_NAME": "Jordan", "ADM0_CODE": 130, "ADM1_NAME": "Irbid", "ADM1_CODE": 143255, "ADM2_NAME": "Jarash", "ADM2_CODE": 36737, "GEOSET": "GAUL", "GEOSET_YEAR": 1990.0, "GEOSET_VERSION": "GAUL_v1", "GEOSET_UNIT": "ADM2", "CENTROID_LONG": 35.877866900526655, "CENTROID_LAT": 32.268469107600104 }, "geometry": { "type": "MultiPolygon", "coordinates": [ [ [ [ 36.0057346, 32.3932596 ], [ 35.9924748, 32.349607 ], [ 35.932125, 32.3092035 ], [ 35.9733531, 32.2362235 ], [ 35.9831394, 32.2039126 ], [ 35.9154938, 32.1836356 ], [ 35.881848, 32.1217171 ], [ 35.8578631, 32.1661242 ], [ 35.8030177, 32.1868187 ], [ 35.6823498, 32.1935103 ], [ 35.7637698, 32.2276623 ], [ 35.8223559, 32.3403266 ], [ 35.8946602, 32.3768782 ], [ 35.9459393, 32.4056891 ], [ 36.0057346, 32.3932596 ] ] ] ] } },
{ "type": "Feature", "properties": { "POLYGON_ID": "JOR_GAUL1990_ADM2_36738", "ADM0_ISO3": "JOR", "ADM0_NAME": "Jordan", "ADM0_CODE": 130, "ADM1_NAME": "Karak", "ADM1_CODE": 1704, "ADM2_NAME": "Al-Aghwar Al-Janoobiya", "ADM2_CODE": 36738, "GEOSET": "GAUL", "GEOSET_YEAR": 1990.0, "GEOSET_VERSION": "GAUL_v1", "GEOSET_UNIT": "ADM2", "CENTROID_LONG": 35.526627154944578, "CENTROID_LAT": 31.228350891595127 }, "geometry": { "type": "MultiPolygon", "coordinates": [ [ [ [ 35.6821032, 31.4282643 ], [ 35.6804341, 31.3793675 ], [ 35.634737, 31.3706601 ], [ 35.648614, 31.2959079 ], [ 35.6274671, 31.1945881 ], [ 35.5937302, 31.1576405 ], [ 35.6142776, 31.112507 ], [ 35.5713657, 31.0892462 ], [ 35.5410764, 31.0097063 ], [ 35.4876276, 31.0068661 ], [ 35.458012, 30.9707827 ], [ 35.4602567, 30.9129444 ], [ 35.4198322, 30.8946603 ], [ 35.3934586, 30.9168745 ], [ 35.3794745, 30.9211028 ], [ 35.3727564, 30.9194515 ], [ 35.3683297, 30.9217245 ], [ 35.3669146, 30.9231418 ], [ 35.370164, 30.926689 ], [ 35.371106, 30.9267682 ], [ 35.381172, 30.927615 ], [ 35.416648, 30.970632 ], [ 35.416838, 31.003071 ], [ 35.458582, 31.126306 ], [ 35.4562972, 31.146352 ], [ 35.400232, 31.256545 ], [ 35.46658, 31.382058 ], [ 35.4751947, 31.442821 ], [ 35.4752345, 31.4436136 ], [ 35.5713639, 31.4600562 ], [ 35.5819203, 31.4610586 ], [ 35.6821032, 31.4282643 ] ] ] ] } },
{ "type": "Feature", "properties": { "POLYGON_ID": "JOR_GAUL1990_ADM2_36741", "ADM0_ISO3": "JOR", "ADM0_NAME": "Jordan", "ADM0_CODE": 130, "ADM1_NAME": "Karak", "ADM1_CODE": 1704, "ADM2_NAME": "Al-Mazar Al-Janoobi", "ADM2_CODE": 36741, "GEOSET": "GAUL", "GEOSET_YEAR": 1990.0, "GEOSET_VERSION": "GAUL_v1", "GEOSET_UNIT": "ADM2", "CENTROID_LONG": 35.740554187561621, "CENTROID_LAT": 31.015620669634529 }, "geometry": { "type": "MultiPolygon", "coordinates": [ [ [ [ 35.9245138, 30.8868744 ], [ 35.8841938, 30.8951892 ], [ 35.759991, 30.9592113 ], [ 35.5410764, 31.0097063 ], [ 35.5713657, 31.0892462 ], [ 35.6142776, 31.112507 ], [ 35.7242266, 31.075516 ], [ 35.8020767, 31.1081613 ], [ 35.8563905, 31.0492868 ], [ 35.8468175, 31.0000929 ], [ 35.9087463, 30.9810489 ], [ 35.9245138, 30.8868744 ] ] ] ] } },
{ "type": "Feature", "properties": { "POLYGON_ID": "JOR_GAUL1990_ADM2_36745", "ADM0_ISO3": "JOR", "ADM0_NAME": "Jordan", "ADM0_CODE": 130, "ADM1_NAME": "Ma'an", "ADM1_CODE": 143256, "ADM2_NAME": "Al-Shobak", "ADM2_CODE": 36745, "GEOSET": "GAUL", "GEOSET_YEAR": 1990.0, "GEOSET_VERSION": "GAUL_v1", "GEOSET_UNIT": "ADM2", "CENTROID_LONG": 35.556237761889015, "CENTROID_LAT": 30.495510332114595 }, "geometry": { "type": "MultiPolygon", "coordinates": [ [ [ [ 35.6433813, 30.5966497 ], [ 35.6240401, 30.5385998 ], [ 35.685174, 30.4383039 ], [ 35.5910291, 30.4106694 ], [ 35.5177688, 30.3681761 ], [ 35.4358301, 30.418762 ], [ 35.4950921, 30.5384664 ], [ 35.4950996, 30.6224874 ], [ 35.6186485, 30.6134573 ], [ 35.6433813, 30.5966497 ] ] ] ] } },
{ "type": "Feature", "properties": { "POLYGON_ID": "JOR_GAUL1990_ADM2_36746", "ADM0_ISO3": "JOR", "ADM0_NAME": "Jordan", "ADM0_CODE": 130, "ADM1_NAME": "Ma'an", "ADM1_CODE": 143256, "ADM2_NAME": "Wadi Moosa", "ADM2_CODE": 36746, "GEOSET": "GAUL", "GEOSET_YEAR": 1990.0, "GEOSET_VERSION": "GAUL_v1", "GEOSET_UNIT": "ADM2", "CENTROID_LONG": 35.460340116397973, "CENTROID_LAT": 30.279608663308316 }, "geometry": { "type": "MultiPolygon", "coordinates": [ [ [ [ 35.5177688, 30.3681761 ], [ 35.5232923, 30.2625537 ], [ 35.4474848, 30.1347222 ], [ 35.3816993, 30.1433833 ], [ 35.4237621, 30.1920471 ], [ 35.4258806, 30.2789003 ], [ 35.4016675, 30.3078062 ], [ 35.4358301, 30.418762 ], [ 35.5177688, 30.3681761 ] ] ] ] } }
]
}
