{
"type": "FeatureCollection",
"name": "JOR_GAUL2011_ADM1",
"crs": { "type": "name", "properties": { "name": "urn:ogc:def:crs:OGC:1.3:CRS84" } },
"features": [
{ "type": "Feature", "properties": { "POLYGON_ID": "JOR_GAUL2011_ADM1_1712", "ADM0_ISO3": "JOR", "ADM0_NAME": "Jordan", "ADM0_CODE": 130, "ADM1_NAME": "Zarqa", "ADM1_CODE": 1712, "GEOSET": "GAUL", "GEOSET_YEAR": 2011.0, "GEOSET_VERSION": "GAUL_v1", "GEOSET_UNIT": "ADM1", "CENTROID_LONG": 36.846171779242724, "CENTROID_LAT": 31.842315704573554 }, "geometry": { "type": "MultiPolygon", "coordinates": [ [ [ [ 37.8038275, 31.7056592 ], [ 37.7975204, 31.7040665 ], [ 37.4972996, 31.6282559 ], [ 37.0132063, 31.5038854 ], [ 36.7735778, 31.7191341 ], [ 36.6799975, 31.6937613 ], [ 36.6230927, 31.688157 ], [ 36.5831928, 31.7079315 ], [ 36.5214777, 31.7648319 ], [ 36.5026967, 31.7994924 ], [ 36.4115599, 31.8866979 ], [ 36.5161944, 31.9476374 ], [ 36.443522, 32.0144248 ], [ 36.3360424, 32.0495398 ], [ 36.2992889, 32.0274339 ], [ 36.2127491, 31.9984859 ], [ 36.1153045, 31.983924 ], [ 36.0874429, 32.0196347 ], [ 36.0218914, 31.9940329 ], [ 36.0030229, 32.0017931 ], [ 35.9592021, 32.0663672 ], [ 35.8980013, 32.0858733 ], [ 35.881848, 32.1217171 ], [ 35.9154938, 32.1836356 ], [ 35.9831394, 32.2039126 ], [ 35.9733531, 32.2362235 ], [ 36.0013265, 32.2351771 ], [ 36.0115105, 32.1719626 ], [ 36.0641979, 32.147352 ], [ 36.1017794, 32.1611098 ], [ 36.1406555, 32.1524479 ], [ 36.1889091, 32.1964012 ], [ 36.2838666, 32.1327368 ], [ 36.3392637, 32.155793 ], [ 36.4142443, 32.1628796 ], [ 36.4534826, 32.117737 ], [ 36.5472094, 32.0872748 ], [ 37.2963619, 31.8600521 ], [ 37.5018306, 31.7952245 ], [ 37.8038275, 31.7056592 ] ] ] ] } },
{ "type": "Feature", "properties": { "POLYGON_ID": "JOR_GAUL2011_ADM1_1701", "ADM0_ISO3": "JOR", "ADM0_NAME": "Jordan", "ADM0_CODE": 130, "ADM1_NAME": "Ajloon", "ADM1_CODE": 1701, "GEOSET": "GAUL", "GEOSET_YEAR": 2011.0, "GEOSET_VERSION": "GAUL_v1", "GEOSET_UNIT": "ADM1", "CENTROID_LONG": 35.722808985421793, "CENTROID_LAT": 32.321799045435185 }, "geometry": { "type": "MultiPolygon", "coordinates": [ [ [ [ 35.8946602, 32.3768782 ], [ 35.8223559, 32.3403266 ], [ 35.8043141, 32.2880816 ], [ 35.7637698, 32.2276623 ], [ 35.7052199, 32.2197597 ], [ 35.6823498, 32.1935103 ], [ 35.6433501, 32.2063461 ], [ 35.6140952, 32.2467922 ], [ 35.6001, 32.3180713 ], [ 35.6169925, 32.3910115 ], [ 35.6623358, 32.4013591 ], [ 35.7062944, 32.3885182 ], [ 35.7678301, 32.4261358 ], [ 35.812406, 32.4099125 ], [ 35.8535515, 32.4260011 ], [ 35.8946602, 32.3768782 ] ] ] ] } },
{ "type": "Feature", "properties": { "POLYGON_ID": "JOR_GAUL2011_ADM1_1705", "ADM0_ISO3": "JOR", "ADM0_NAME": "Jordan", "ADM0_CODE": 130, "ADM1_NAME": "Amman", "ADM1_CODE": 1705, "GEOSET": "GAUL", "GEOSET_YEAR": 2011.0, "GEOSET_VERSION": "GAUL_v1", "GEOSET_UNIT": "ADM1", "CENTROID_LONG": 36.359535014204077, "CENTROID_LAT": 31.598602892685779 }, "geometry": { "type": "MultiPolygon", "coordinates": [ [ [ [ 37.0132063, 31.5038854 ], [ 37.0046812, 31.5016951 ], [ 36.9999036, 31.5004677 ], [ 37.0600304, 31.4407697 ], [ 37.2392098, 31.2628678 ], [ 37.2523729, 31.2497986 ], [ 36.2384168, 31.2505872 ], [ 36.1448444, 31.2671205 ], [ 36.0716157, 31.3175733 ], [ 36.07798, 31.3437795 ], [ 36.0294525, 31.3589698 ], [ 35.9800857, 31.4074791 ], [ 35.9298249, 31.4185687 ], [ 35.8823712, 31.4116422 ], [ 35.8229959, 31.4423267 ], [ 35.8548636, 31.5136049 ], [ 35.842674, 31.5558421 ], [ 35.8673912, 31.5933161 ], [ 35.8179378, 31.6221297 ], [ 35.7970557, 31.6725909 ], [ 35.8433897, 31.7075386 ], [ 35.8453191, 31.7661565 ], [ 35.7816126, 31.7860507 ], [ 35.6510848, 31.7956808 ], [ 35.6928109, 31.8245803 ], [ 35.6828954, 31.8897282 ], [ 35.7789237, 31.98123 ], [ 35.8166654, 32.0295955 ], [ 35.8570615, 32.0322214 ], [ 35.8980013, 32.0858733 ], [ 35.9592021, 32.0663672 ], [ 36.0030229, 32.0017931 ], [ 36.0218914, 31.9940329 ], [ 36.0874429, 32.0196347 ], [ 36.1153045, 31.983924 ], [ 36.2127491, 31.9984859 ], [ 36.2992889, 32.0274339 ], [ 36.3360424, 32.0495398 ], [ 36.443522, 32.0144248 ], [ 36.5161944, 31.9476374 ], [ 36.4115599, 31.8866979 ], [ 36.5026967, 31.7994924 ], [ 36.5214777, 31.7648319 ], [ 36.5831928, 31.7079315 ], [ 36.6230927, 31.688157 ], [ 36.6799975, 31.6937613 ], [ 36.7735778, 31.7191341 ], [ 37.0132063, 31.5038854 ] ] ] ] } },
{ "type": "Feature", "properties": { "POLYGON_ID": "JOR_GAUL2011_ADM1_1703", "ADM0_ISO3": "JOR", "ADM0_NAME": "Jordan", "ADM0_CODE": 130, "ADM1_NAME": "Aqaba", "ADM1_CODE": 1703, "GEOSET": "GAUL", "GEOSET_YEAR": 2011.0, "GEOSET_VERSION": "GAUL_v1", "GEOSET_UNIT": "ADM1", "CENTROID_LONG": 35.349989078066535, "CENTROID_LAT": 29.808070212006882 }, "geometry": { "type": "MultiPolygon", "coordinates": [ [ [ [ 35.4950996, 30.6224874 ], [ 35.4950921, 30.5384664 ], [ 35.4601678, 30.4818095 ], [ 35.465551, 30.4330126 ], [ 35.4251518, 30.4117442 ], [ 35.4016675, 30.3078062 ], [ 35.4258806, 30.2789003 ], [ 35.4237621, 30.1920471 ], [ 35.3671225, 30.1200055 ], [ 35.3256994, 30.0847289 ], [ 35.3368914, 30.0337288 ], [ 35.3163502, 29.9778728 ], [ 35.4270611, 29.9707013 ], [ 35.5376266, 29.9713146 ], [ 35.5629759, 29.9573955 ], [ 35.5974201, 29.8788605 ], [ 35.6482451, 29.8333916 ], [ 35.7103206, 29.7363435 ], [ 35.7379647, 29.6404282 ], [ 35.7361821, 29.5497694 ], [ 35.7453232, 29.5087834 ], [ 35.7342221, 29.4560602 ], [ 35.7397406, 29.3634648 ], [ 35.7770452, 29.2295229 ], [ 35.5405909, 29.2669108 ], [ 35.5178688, 29.2705036 ], [ 34.9570448, 29.3567102 ], [ 34.9667717, 29.4461954 ], [ 35.0000014, 29.5160926 ], [ 34.97819, 29.5418233 ], [ 34.978675, 29.576901 ], [ 35.000521, 29.621985 ], [ 35.014005, 29.638884 ], [ 35.01918, 29.655469 ], [ 35.011454, 29.696463 ], [ 35.031202, 29.776068 ], [ 35.041103, 29.7854718 ], [ 35.069363, 29.86394 ], [ 35.078731, 29.871981 ], [ 35.088571, 29.972446 ], [ 35.098738, 29.991665 ], [ 35.109855, 30.009699 ], [ 35.100381, 30.012392 ], [ 35.112597, 30.039746 ], [ 35.130605, 30.062026 ], [ 35.1494127, 30.0861839 ], [ 35.148243, 30.087145 ], [ 35.161868, 30.122673 ], [ 35.144361, 30.162666 ], [ 35.151022, 30.214506 ], [ 35.14504, 30.2406179 ], [ 35.163439, 30.3131 ], [ 35.191679, 30.3457904 ], [ 35.188048, 30.357342 ], [ 35.1798698, 30.3734161 ], [ 35.164873, 30.402892 ], [ 35.161932, 30.418618 ], [ 35.161916, 30.4395442 ], [ 35.1734425, 30.4588504 ], [ 35.181443, 30.471344 ], [ 35.19286, 30.498489 ], [ 35.194608, 30.533427 ], [ 35.203602, 30.548037 ], [ 35.2036274, 30.5777389 ], [ 35.203631, 30.581972 ], [ 35.217817, 30.604712 ], [ 35.221609, 30.618781 ], [ 35.2482317, 30.6446854 ], [ 35.270679, 30.680096 ], [ 35.268094, 30.6843247 ], [ 35.2683976, 30.684805 ], [ 35.273985, 30.690161 ], [ 35.2748134, 30.6949533 ], [ 35.281905, 30.710535 ], [ 35.2827426, 30.7104332 ], [ 35.2882866, 30.7215815 ], [ 35.286281, 30.722835 ], [ 35.2900314, 30.7282415 ], [ 35.294266, 30.734346 ], [ 35.294608, 30.762277 ], [ 35.2968318, 30.7623748 ], [ 35.3015646, 30.7606286 ], [ 35.3079091, 30.7589456 ], [ 35.3668223, 30.6799058 ], [ 35.4211907, 30.6262857 ], [ 35.4950996, 30.6224874 ] ] ] ] } },
{ "type": "Feature", "properties": { "POLYGON_ID": "JOR_GAUL2011_ADM1_1707", "ADM0_ISO3": "JOR", "ADM0_NAME": "Jordan", "ADM0_CODE": 130, "ADM1_NAME": "Irbid", "ADM1_CODE": 1707, "GEOSET": "GAUL", "GEOSET_YEAR": 2011.0, "GEOSET_VERSION": "GAUL_v1", "GEOSET_UNIT": "ADM1", "CENTROID_LONG": 35.800491313119629, "CENTROID_LAT": 32.544451661943043 }, "geometry": { "type": "MultiPolygon", "coordinates": [ [ [ [ 35.8845419, 32.7337188 ], [ 35.8863769, 32.733131 ], [ 35.93682, 32.72411 ], [ 35.97464, 32.69687 ], [ 35.99361, 32.66143 ], [ 36.0329, 32.65792 ], [ 36.03486, 32.60711 ], [ 36.07044, 32.5758 ], [ 36.09076, 32.51794 ], [ 36.099618, 32.5202282 ], [ 36.0495547, 32.4468904 ], [ 35.9866011, 32.4548889 ], [ 36.0057346, 32.3932596 ], [ 35.9805829, 32.3788401 ], [ 35.9459393, 32.4056891 ], [ 35.8946602, 32.3768782 ], [ 35.8535515, 32.4260011 ], [ 35.812406, 32.4099125 ], [ 35.7678301, 32.4261358 ], [ 35.7062944, 32.3885182 ], [ 35.6623358, 32.4013591 ], [ 35.6169925, 32.3910115 ], [ 35.6001, 32.3180713 ], [ 35.6140952, 32.2467922 ], [ 35.5689934, 32.2442319 ], [ 35.5696149, 32.245226 ], [ 35.5679721, 32.2513032 ], [ 35.5652468, 32.2493443 ], [ 35.5631413, 32.2505488 ], [ 35.5625901, 32.2569134 ], [ 35.5646954, 32.2608733 ], [ 35.5634923, 32.2634799 ], [ 35.5602341, 32.2681416 ], [ 35.5577278, 32.2728534 ], [ 35.5645702, 32.2755271 ], [ 35.5676719, 32.2835504 ], [ 35.5624898, 32.2952097 ], [ 35.5553218, 32.2980167 ], [ 35.5566251, 32.3015757 ], [ 35.559783, 32.3054855 ], [ 35.5637931, 32.3097963 ], [ 35.5561238, 32.3216762 ], [ 35.5545198, 32.328744 ], [ 35.5575273, 32.3321526 ], [ 35.5540686, 32.3433307 ], [ 35.5572767, 32.3472405 ], [ 35.5545699, 32.3552607 ], [ 35.5528656, 32.3663887 ], [ 35.5570261, 32.3668398 ], [ 35.5614372, 32.3637821 ], [ 35.563342, 32.3843839 ], [ 35.5593224, 32.3866388 ], [ 35.5551213, 32.3889955 ], [ 35.5496074, 32.3936071 ], [ 35.5466101, 32.4010451 ], [ 35.5538982, 32.4000484 ], [ 35.5600504, 32.4009906 ], [ 35.5527147, 32.4186737 ], [ 35.551718, 32.4225981 ], [ 35.5530261, 32.4261487 ], [ 35.5623699, 32.4239685 ], [ 35.5577603, 32.4275191 ], [ 35.5556424, 32.4306337 ], [ 35.5615601, 32.4339352 ], [ 35.566232, 32.4361154 ], [ 35.5624322, 32.4637107 ], [ 35.5623649, 32.4653201 ], [ 35.5626191, 32.467199 ], [ 35.5655468, 32.4814016 ], [ 35.5746414, 32.484267 ], [ 35.5804312, 32.4882101 ], [ 35.5643633, 32.5018333 ], [ 35.5613732, 32.504325 ], [ 35.5645501, 32.5069413 ], [ 35.5527147, 32.5148523 ], [ 35.5553932, 32.5214553 ], [ 35.5638907, 32.5211682 ], [ 35.5634289, 32.530363 ], [ 35.5593176, 32.5321695 ], [ 35.5614978, 32.5454376 ], [ 35.5656714, 32.5397691 ], [ 35.571392, 32.5401768 ], [ 35.5715268, 32.5455622 ], [ 35.5731464, 32.5495489 ], [ 35.5776314, 32.5524143 ], [ 35.5775068, 32.5575223 ], [ 35.5679139, 32.6330823 ], [ 35.5680385, 32.6413671 ], [ 35.5723214, 32.6417887 ], [ 35.5747481, 32.640622 ], [ 35.5784348, 32.6421154 ], [ 35.5790882, 32.6453821 ], [ 35.5845482, 32.6444954 ], [ 35.5862987, 32.6417823 ], [ 35.5912683, 32.6455221 ], [ 35.5915017, 32.6484155 ], [ 35.6053691, 32.6514376 ], [ 35.6057818, 32.6514488 ], [ 35.6003684, 32.6651223 ], [ 35.5986418, 32.6688091 ], [ 35.6426957, 32.6813626 ], [ 35.6447024, 32.6778158 ], [ 35.6493224, 32.6798692 ], [ 35.6546442, 32.684788 ], [ 35.6716307, 32.6910554 ], [ 35.67504, 32.69464 ], [ 35.6828657, 32.7023295 ], [ 35.73957, 32.73243 ], [ 35.74907, 32.732 ], [ 35.76035, 32.73983 ], [ 35.76419, 32.74732 ], [ 35.7661114, 32.7486921 ], [ 35.80138, 32.75956 ], [ 35.82631, 32.73109 ], [ 35.8845419, 32.7337188 ] ] ] ] } },
{ "type": "Feature", "properties": { "POLYGON_ID": "JOR_GAUL2011_ADM1_1708", "ADM0_ISO3": "JOR", "ADM0_NAME": "Jordan", "ADM0_CODE": 130, "ADM1_NAME": "Jarash", "ADM1_CODE": 1708, "GEOSET": "GAUL", "GEOSET_YEAR": 2011.0, "GEOSET_VERSION": "GAUL_v1", "GEOSET_UNIT": "ADM1", "CENTROID_LONG": 35.873100671121954, "CENTROID_LAT": 32.262984574065285 }, "geometry": { "type": "MultiPolygon", "coordinates": [ [ [ [ 36.0057346, 32.3932596 ], [ 35.9924748, 32.349607 ], [ 35.932125, 32.3092035 ], [ 35.9733531, 32.2362235 ], [ 35.9831394, 32.2039126 ], [ 35.9154938, 32.1836356 ], [ 35.881848, 32.1217171 ], [ 35.8443533, 32.1362656 ], [ 35.8578631, 32.1661242 ], [ 35.8311778, 32.1892686 ], [ 35.7537962, 32.1817527 ], [ 35.6823498, 32.1935103 ], [ 35.7052199, 32.2197597 ], [ 35.7637698, 32.2276623 ], [ 35.8043141, 32.2880816 ], [ 35.8223559, 32.3403266 ], [ 35.8946602, 32.3768782 ], [ 35.9459393, 32.4056891 ], [ 35.9805829, 32.3788401 ], [ 36.0057346, 32.3932596 ] ] ] ] } },
{ "type": "Feature", "properties": { "POLYGON_ID": "JOR_GAUL2011_ADM1_1704", "ADM0_ISO3": "JOR", "ADM0_NAME": "Jordan", "ADM0_CODE": 130, "ADM1_NAME": "Karak", "ADM1_CODE": 1704, "GEOSET": "GAUL", "GEOSET_YEAR": 2011.0, "GEOSET_VERSION": "GAUL_v1", "GEOSET_UNIT": "ADM1", "CENTROID_LONG": 35.799404831072309, "CENTROID_LAT": 31.166515229671088 }, "geometry": { "type": "MultiPolygon", "coordinates": [ [ [ [ 35.8229959, 31.4423267 ], [ 35.8823712, 31.4116422 ], [ 35.9298249, 31.4185687 ], [ 35.9800857, 31.4074791 ], [ 36.0294525, 31.3589698 ], [ 36.07798, 31.3437795 ], [ 36.0716157, 31.3175733 ], [ 36.1448444, 31.2671205 ], [ 36.1385248, 31.1916124 ], [ 36.2178261, 31.1179011 ], [ 36.2251886, 31.1002787 ], [ 36.1749883, 30.9989406 ], [ 36.15676, 30.9988648 ], [ 36.0718324, 30.8247211 ], [ 35.9713877, 30.8728631 ], [ 35.8841938, 30.8951892 ], [ 35.759991, 30.9592113 ], [ 35.567854, 30.9950338 ], [ 35.5379299, 31.0103864 ], [ 35.4876276, 31.0068661 ], [ 35.458012, 30.9707827 ], [ 35.4602567, 30.9129444 ], [ 35.4198322, 30.8946603 ], [ 35.3934586, 30.9168745 ], [ 35.3794745, 30.9211028 ], [ 35.3727564, 30.9194515 ], [ 35.3683297, 30.9217245 ], [ 35.3669146, 30.9231418 ], [ 35.370164, 30.926689 ], [ 35.371106, 30.9267682 ], [ 35.381172, 30.927615 ], [ 35.416648, 30.970632 ], [ 35.416838, 31.003071 ], [ 35.458582, 31.126306 ], [ 35.4562972, 31.146352 ], [ 35.404563, 31.227801 ], [ 35.400232, 31.256545 ], [ 35.46658, 31.382058 ], [ 35.4751947, 31.442821 ], [ 35.4752345, 31.4436136 ], [ 35.5713639, 31.4600562 ], [ 35.5819203, 31.4610586 ], [ 35.61033, 31.4424261 ], [ 35.6821032, 31.4282643 ], [ 35.759495, 31.4536412 ], [ 35.8229959, 31.4423267 ] ] ] ] } },
{ "type": "Feature", "properties": { "POLYGON_ID": "JOR_GAUL2011_ADM1_1709", "ADM0_ISO3": "JOR", "ADM0_NAME": "Jordan", "ADM0_CODE": 130, "ADM1_NAME": "Ma'an", "ADM1_CODE": 1709, "GEOSET": "GAUL", "GEOSET_YEAR": 2011.0, "GEOSET_VERSION": "GAUL_v1", "GEOSET_UNIT": "ADM1", "CENTROID_LONG": 36.567056714074141, "CENTROID_LAT": 30.350145670093514 }, "geometry": { "type": "MultiPolygon", "coordinates": [ [ [ [ 37.9999524, 30.5004463 ], [ 37.6666034, 30.3337758 ], [ 37.4999291, 30.0004352 ], [ 37.0327898, 29.91739 ], [ 36.7498938, 29.8670984 ], [ 36.5003864, 29.5004332 ], [ 36.0665295, 29.1837499 ], [ 35.7777822, 29.2294063 ], [ 35.7770452, 29.2295229 ], [ 35.7397406, 29.3634648 ], [ 35.7342221, 29.4560602 ], [ 35.7453232, 29.5087834 ], [ 35.7361821, 29.5497694 ], [ 35.7379647, 29.6404282 ], [ 35.7103206, 29.7363435 ], [ 35.6482451, 29.8333916 ], [ 35.5974201, 29.8788605 ], [ 35.5629759, 29.9573955 ], [ 35.5376266, 29.9713146 ], [ 35.4270611, 29.9707013 ], [ 35.3163502, 29.9778728 ], [ 35.3368914, 30.0337288 ], [ 35.3256994, 30.0847289 ], [ 35.3671225, 30.1200055 ], [ 35.4237621, 30.1920471 ], [ 35.4258806, 30.2789003 ], [ 35.4016675, 30.3078062 ], [ 35.4251518, 30.4117442 ], [ 35.465551, 30.4330126 ], [ 35.4601678, 30.4818095 ], [ 35.4950921, 30.5384664 ], [ 35.4950996, 30.6224874 ], [ 35.6333897, 30.5991975 ], [ 35.7360984, 30.6278695 ], [ 35.8169312, 30.6218971 ], [ 35.8345334, 30.6475362 ], [ 35.9906497, 30.6459375 ], [ 36.0718324, 30.8247211 ], [ 36.15676, 30.9988648 ], [ 36.1749883, 30.9989406 ], [ 36.2251886, 31.1002787 ], [ 36.2178261, 31.1179011 ], [ 36.1385248, 31.1916124 ], [ 36.1448444, 31.2671205 ], [ 36.2384168, 31.2505872 ], [ 37.2523729, 31.2497986 ], [ 37.5061847, 30.9977966 ], [ 37.7357404, 30.7665753 ], [ 37.9999524, 30.5004463 ] ] ] ] } },
{ "type": "Feature", "properties": { "POLYGON_ID": "JOR_GAUL2011_ADM1_1710", "ADM0_ISO3": "JOR", "ADM0_NAME": "Jordan", "ADM0_CODE": 130, "ADM1_NAME": "Madaba", "ADM1_CODE": 1710, "GEOSET": "GAUL", "GEOSET_YEAR": 2011.0, "GEOSET_VERSION": "GAUL_v1", "GEOSET_UNIT": "ADM1", "CENTROID_LONG": 35.67237500487434, "CENTROID_LAT": 31.601588706511521 }, "geometry": { "type": "MultiPolygon", "coordinates": [ [ [ [ 35.8229959, 31.4423267 ], [ 35.759495, 31.4536412 ], [ 35.6821032, 31.4282643 ], [ 35.61033, 31.4424261 ], [ 35.5819203, 31.4610586 ], [ 35.5713639, 31.4600562 ], [ 35.4752345, 31.4436136 ], [ 35.475951, 31.457869 ], [ 35.4759603, 31.4905103 ], [ 35.4896095, 31.6188547 ], [ 35.5209469, 31.7097045 ], [ 35.5226487, 31.7146382 ], [ 35.5290123, 31.7251128 ], [ 35.6076754, 31.7171268 ], [ 35.6251823, 31.7745815 ], [ 35.6510848, 31.7956808 ], [ 35.7816126, 31.7860507 ], [ 35.8453191, 31.7661565 ], [ 35.8433897, 31.7075386 ], [ 35.7970557, 31.6725909 ], [ 35.8179378, 31.6221297 ], [ 35.8673912, 31.5933161 ], [ 35.842674, 31.5558421 ], [ 35.8548636, 31.5136049 ], [ 35.8229959, 31.4423267 ] ] ] ] } },
{ "type": "Feature", "properties": { "POLYGON_ID": "JOR_GAUL2011_ADM1_1711", "ADM0_ISO3": "JOR", "ADM0_NAME": "Jordan", "ADM0_CODE": 130, "ADM1_NAME": "Mafraq", "ADM1_CODE": 1711, "GEOSET": "GAUL", "GEOSET_YEAR": 2011.0, "GEOSET_VERSION": "GAUL_v1", "GEOSET_UNIT": "ADM1", "CENTROID_LONG": 37.94363287449243, "CENTROID_LAT": 32.385370906680663 }, "geometry": { "type": "MultiPolygon", "coordinates": [ [ [ [ 39.25734, 32.35493 ], [ 39.2595072, 32.3500856 ], [ 39.27408, 32.31267 ], [ 39.28133, 32.29056 ], [ 39.2888739, 32.2676164 ], [ 39.30117, 32.23022 ], [ 39.22582, 32.17191 ], [ 39.200936, 32.15433 ], [ 39.1301811, 32.1354693 ], [ 39.1051259, 32.0824594 ], [ 39.0, 32.0004799 ], [ 38.5146344, 31.8825206 ], [ 37.9527594, 31.7432669 ], [ 37.8038275, 31.7056592 ], [ 37.5018306, 31.7952245 ], [ 37.2963619, 31.8600521 ], [ 36.5472094, 32.0872748 ], [ 36.4534826, 32.117737 ], [ 36.4142443, 32.1628796 ], [ 36.3392637, 32.155793 ], [ 36.2838666, 32.1327368 ], [ 36.1889091, 32.1964012 ], [ 36.1406555, 32.1524479 ], [ 36.1017794, 32.1611098 ], [ 36.0641979, 32.147352 ], [ 36.0115105, 32.1719626 ], [ 36.0013265, 32.2351771 ], [ 35.9733531, 32.2362235 ], [ 35.932125, 32.3092035 ], [ 35.9924748, 32.349607 ], [ 36.0057346, 32.3932596 ], [ 35.9866011, 32.4548889 ], [ 36.0495547, 32.4468904 ], [ 36.099618, 32.5202282 ], [ 36.1034964, 32.5212301 ], [ 36.11058, 32.52306 ], [ 36.12992, 32.52378 ], [ 36.13381, 32.52392 ], [ 36.1565774, 32.5226826 ], [ 36.16472, 32.52224 ], [ 36.1678236, 32.5213334 ], [ 36.17838, 32.51825 ], [ 36.20074, 32.52847 ], [ 36.2009692, 32.5284653 ], [ 36.20561, 32.52837 ], [ 36.29611, 32.47049 ], [ 36.3215212, 32.4529982 ], [ 36.33654, 32.44266 ], [ 36.37297, 32.41114 ], [ 36.4386749, 32.3795779 ], [ 36.46355, 32.37733 ], [ 36.5113172, 32.3593018 ], [ 36.5314773, 32.3570534 ], [ 36.54155, 32.35593 ], [ 36.5681043, 32.3529704 ], [ 36.69206, 32.33915 ], [ 36.70842, 32.32838 ], [ 36.7156743, 32.3309204 ], [ 36.83481, 32.31644 ], [ 36.95287, 32.38866 ], [ 37.0986438, 32.466796 ], [ 37.3842748, 32.6198967 ], [ 37.4976935, 32.6806908 ], [ 37.80586, 32.84587 ], [ 38.3195191, 33.1211994 ], [ 38.7925, 33.37472 ], [ 38.792883, 33.3738347 ], [ 38.79703, 33.36425 ], [ 38.88895, 33.08987 ], [ 38.89703, 33.06575 ], [ 39.0859974, 32.5015294 ], [ 39.06091, 32.49554 ], [ 39.02694, 32.48744 ], [ 38.98603, 32.47766 ], [ 39.04367, 32.30405 ], [ 39.25734, 32.35493 ] ] ] ] } },
{ "type": "Feature", "properties": { "POLYGON_ID": "JOR_GAUL2011_ADM1_1706", "ADM0_ISO3": "JOR", "ADM0_NAME": "Jordan", "ADM0_CODE": 130, "ADM1_NAME": "Tafiela", "ADM1_CODE": 1706, "GEOSET": "GAUL", "GEOSET_YEAR": 2011.0, "GEOSET_VERSION": "GAUL_v1", "GEOSET_UNIT": "ADM1", "CENTROID_LONG": 35.666047204505333, "CENTROID_LAT": 30.789017462096414 }, "geometry": { "type": "MultiPolygon", "coordinates": [ [ [ [ 36.0718324, 30.8247211 ], [ 35.9906497, 30.6459375 ], [ 35.8345334, 30.6475362 ], [ 35.8169312, 30.6218971 ], [ 35.7360984, 30.6278695 ], [ 35.6333897, 30.5991975 ], [ 35.4950996, 30.6224874 ], [ 35.4211907, 30.6262857 ], [ 35.3668223, 30.6799058 ], [ 35.3079091, 30.7589456 ], [ 35.3015646, 30.7606286 ], [ 35.2968318, 30.7623748 ], [ 35.308365, 30.762882 ], [ 35.336194, 30.8209783 ], [ 35.329213, 30.841477 ], [ 35.331037, 30.862033 ], [ 35.334797, 30.87318 ], [ 35.353962, 30.909002 ], [ 35.3669146, 30.9231418 ], [ 35.3683297, 30.9217245 ], [ 35.3727564, 30.9194515 ], [ 35.3794745, 30.9211028 ], [ 35.3934586, 30.9168745 ], [ 35.4198322, 30.8946603 ], [ 35.4602567, 30.9129444 ], [ 35.458012, 30.9707827 ], [ 35.4876276, 31.0068661 ], [ 35.5379299, 31.0103864 ], [ 35.567854, 30.9950338 ], [ 35.759991, 30.9592113 ], [ 35.8841938, 30.8951892 ], [ 35.9713877, 30.8728631 ], [ 36.0718324, 30.8247211 ] ] ] ] } },
{ "type": "Feature", "properties": { "POLYGON_ID": "JOR_GAUL2011_ADM1_1702", "ADM0_ISO3": "JOR", "ADM0_NAME": "Jordan", "ADM0_CODE": 130, "ADM1_NAME": "Balqa", "ADM1_CODE": 1702, "GEOSET": "GAUL", "GEOSET_YEAR": 2011.0, "GEOSET_VERSION": "GAUL_v1", "GEOSET_UNIT": "ADM1", "CENTROID_LONG": 35.666462999950781, "CENTROID_LAT": 32.018097531272346 }, "geometry": { "type": "MultiPolygon", "coordinates": [ [ [ [ 35.6823498, 32.1935103 ], [ 35.7537962, 32.1817527 ], [ 35.8311778, 32.1892686 ], [ 35.8578631, 32.1661242 ], [ 35.8443533, 32.1362656 ], [ 35.881848, 32.1217171 ], [ 35.8980013, 32.0858733 ], [ 35.8570615, 32.0322214 ], [ 35.8166654, 32.0295955 ], [ 35.7789237, 31.98123 ], [ 35.6828954, 31.8897282 ], [ 35.6928109, 31.8245803 ], [ 35.6510848, 31.7956808 ], [ 35.6251823, 31.7745815 ], [ 35.6076754, 31.7171268 ], [ 35.5290123, 31.7251128 ], [ 35.5325956, 31.731011 ], [ 35.5576064, 31.7650555 ], [ 35.5555888, 31.7697229 ], [ 35.5526124, 31.7731755 ], [ 35.5522068, 31.773646 ], [ 35.5474126, 31.7834713 ], [ 35.5514627, 31.7903531 ], [ 35.5515304, 31.7986052 ], [ 35.5469583, 31.7999499 ], [ 35.5469309, 31.799958 ], [ 35.5428082, 31.8055288 ], [ 35.543753, 31.8177862 ], [ 35.5409862, 31.8193152 ], [ 35.5429904, 31.8223822 ], [ 35.5459567, 31.8231031 ], [ 35.5486895, 31.8237673 ], [ 35.5479906, 31.8280105 ], [ 35.5474543, 31.8310063 ], [ 35.5469077, 31.8344377 ], [ 35.5496103, 31.8366849 ], [ 35.5486029, 31.8394664 ], [ 35.5459839, 31.8466973 ], [ 35.5410152, 31.8503779 ], [ 35.5390646, 31.8518228 ], [ 35.5365819, 31.8562345 ], [ 35.5398963, 31.8575197 ], [ 35.5499747, 31.8730093 ], [ 35.5442788, 31.8756833 ], [ 35.5400339, 31.8777751 ], [ 35.5330853, 31.8827111 ], [ 35.5312524, 31.8987914 ], [ 35.527773, 31.8993386 ], [ 35.5254624, 31.9020942 ], [ 35.5244706, 31.9077335 ], [ 35.5253866, 31.909659 ], [ 35.5272131, 31.9212221 ], [ 35.526635, 31.9231444 ], [ 35.5303859, 31.9238303 ], [ 35.5362666, 31.9249056 ], [ 35.5413634, 31.9368474 ], [ 35.5411985, 31.9431047 ], [ 35.5417221, 31.9599355 ], [ 35.5431376, 31.9658108 ], [ 35.5477345, 31.968809 ], [ 35.5433992, 31.9769324 ], [ 35.541392, 31.9788908 ], [ 35.5369255, 31.9816211 ], [ 35.5354218, 31.9850798 ], [ 35.5348392, 31.9888824 ], [ 35.5357225, 31.9931501 ], [ 35.539081, 31.9958569 ], [ 35.5364639, 31.9999571 ], [ 35.5350558, 32.0016089 ], [ 35.5323139, 31.9991151 ], [ 35.5300194, 32.0000925 ], [ 35.5262015, 32.0025566 ], [ 35.5259981, 32.0057317 ], [ 35.5275594, 32.0147356 ], [ 35.5290056, 32.0186642 ], [ 35.5223937, 32.0229135 ], [ 35.5236421, 32.0291907 ], [ 35.5222386, 32.0314965 ], [ 35.519231, 32.035256 ], [ 35.5194817, 32.0445794 ], [ 35.5197315, 32.048342 ], [ 35.5234918, 32.0505444 ], [ 35.5287737, 32.0650496 ], [ 35.5334555, 32.076295 ], [ 35.538275, 32.0791867 ], [ 35.5453968, 32.0828757 ], [ 35.5437519, 32.0900421 ], [ 35.5400835, 32.0918984 ], [ 35.5385296, 32.0972118 ], [ 35.5365602, 32.1008527 ], [ 35.5354786, 32.1028524 ], [ 35.5328899, 32.1068289 ], [ 35.54139, 32.1125268 ], [ 35.5496074, 32.123177 ], [ 35.5512946, 32.1285029 ], [ 35.5463492, 32.1298939 ], [ 35.5435551, 32.1396118 ], [ 35.5440936, 32.1423753 ], [ 35.5460485, 32.1441297 ], [ 35.5489558, 32.1420746 ], [ 35.5563915, 32.1439802 ], [ 35.5576997, 32.1443155 ], [ 35.5610691, 32.1511543 ], [ 35.5585671, 32.1591274 ], [ 35.5581923, 32.1591821 ], [ 35.54966, 32.1604284 ], [ 35.5480921, 32.1672005 ], [ 35.5490736, 32.1688917 ], [ 35.5534898, 32.166652 ], [ 35.557778, 32.16809 ], [ 35.5563744, 32.1710976 ], [ 35.5570261, 32.1743557 ], [ 35.5589785, 32.1801214 ], [ 35.5627007, 32.1841275 ], [ 35.5660759, 32.1874081 ], [ 35.5691381, 32.1906922 ], [ 35.570429, 32.1920766 ], [ 35.5704092, 32.1927318 ], [ 35.5702721, 32.1972535 ], [ 35.5702713, 32.1972814 ], [ 35.5687926, 32.1973805 ], [ 35.5667743, 32.1975538 ], [ 35.5631916, 32.2029777 ], [ 35.5631415, 32.2052334 ], [ 35.5684047, 32.2121007 ], [ 35.5716128, 32.2100956 ], [ 35.5741692, 32.2120505 ], [ 35.569307, 32.216612 ], [ 35.5667498, 32.2188715 ], [ 35.5666002, 32.2245319 ], [ 35.5715109, 32.22739 ], [ 35.5702397, 32.2305156 ], [ 35.564545, 32.2287926 ], [ 35.5621891, 32.2314994 ], [ 35.5639435, 32.2393692 ], [ 35.5676559, 32.2420926 ], [ 35.5689934, 32.2442319 ], [ 35.6140952, 32.2467922 ], [ 35.6433501, 32.2063461 ], [ 35.6823498, 32.1935103 ] ] ] ] } }
]
}
