{
"type": "FeatureCollection",
"name": "KHM_GAUL1993_ADM1",
"crs": { "type": "name", "properties": { "name": "urn:ogc:def:crs:OGC:1.3:CRS84" } },
"features": [
{ "type": "Feature", "properties": { "POLYGON_ID": "KHM_GAUL1993_ADM1_113202", "ADM0_ISO3": "KHM", "ADM0_NAME": "Cambodia", "ADM0_CODE": 44, "ADM1_NAME": "Siem Reap Otdar Meanchey", "ADM1_CODE": 113202, "GEOSET": "GAUL", "GEOSET_YEAR": 1993.0, "GEOSET_VERSION": "GAUL_v1", "GEOSET_UNIT": "ADM1", "CENTROID_LONG": 103.93476267036115, "CENTROID_LAT": 13.757779484706061 }, "geometry": { "type": "MultiPolygon", "coordinates": [ [ [ [ 103.70479, 14.38804 ], [ 103.71395, 14.37762 ], [ 103.742, 14.37787 ], [ 103.75175, 14.37298 ], [ 103.76425, 14.37296 ], [ 103.7665241, 14.370973 ], [ 103.77431, 14.36417 ], [ 103.797868, 14.3654797 ], [ 103.8003591, 14.3639224 ], [ 103.80431, 14.36145 ], [ 103.8136416, 14.3535583 ], [ 103.81604, 14.35153 ], [ 103.8261631, 14.3511899 ], [ 103.82973, 14.35107 ], [ 103.83252, 14.35295 ], [ 103.8331985, 14.3538744 ], [ 103.84568, 14.36859 ], [ 103.8542, 14.36666 ], [ 103.88248, 14.34114 ], [ 103.88914, 14.3378 ], [ 103.90594, 14.33417 ], [ 103.9345797, 14.32798 ], [ 103.94037, 14.33405 ], [ 103.94366, 14.34836 ], [ 103.9614, 14.3452 ], [ 103.97363, 14.34656 ], [ 103.98607, 14.34975 ], [ 103.991704, 14.3501381 ], [ 104.0050257, 14.3533035 ], [ 104.01147, 14.34517 ], [ 104.02902, 14.33366 ], [ 104.03651, 14.337 ], [ 104.0442756, 14.3374717 ], [ 104.05182, 14.33793 ], [ 104.0603803, 14.3400238 ], [ 104.0645849, 14.3410523 ], [ 104.06895, 14.34212 ], [ 104.09291, 14.34756 ], [ 104.10652, 14.36548 ], [ 104.1422264, 14.3670813 ], [ 104.1461299, 14.3656467 ], [ 104.14846, 14.35327 ], [ 104.1652756, 14.3522234 ], [ 104.17513, 14.3516132 ], [ 104.1752125, 14.3622368 ], [ 104.17528, 14.37094 ], [ 104.1872783, 14.3786951 ], [ 104.19021, 14.38059 ], [ 104.1920198, 14.3839684 ], [ 104.2345967, 14.3686665 ], [ 104.23801, 14.36789 ], [ 104.2459807, 14.3745395 ], [ 104.2514783, 14.3812691 ], [ 104.26028, 14.39294 ], [ 104.2628842, 14.3939232 ], [ 104.26473, 14.39462 ], [ 104.30065, 14.38965 ], [ 104.30973, 14.38266 ], [ 104.3165572, 14.3764607 ], [ 104.34796, 14.36576 ], [ 104.35569, 14.36886 ], [ 104.3818997, 14.36672 ], [ 104.39903, 14.37157 ], [ 104.40621, 14.36501 ], [ 104.413333, 14.364371 ], [ 104.433664, 14.3610681 ], [ 104.43742, 14.35972 ], [ 104.44572, 14.35617 ], [ 104.45684, 14.35426 ], [ 104.46445, 14.35 ], [ 104.46973, 14.34433 ], [ 104.4710006, 14.3440041 ], [ 104.4710145, 14.3440006 ], [ 104.4710959, 14.3424086 ], [ 104.4711606, 14.341143 ], [ 104.4711064, 14.3393764 ], [ 104.4697954, 14.3347974 ], [ 104.4683865, 14.3205292 ], [ 104.4586285, 14.2817282 ], [ 104.4677741, 14.2328891 ], [ 104.4458816, 14.206245 ], [ 104.4659164, 14.1751041 ], [ 104.5124525, 14.1418443 ], [ 104.4404083, 14.0634939 ], [ 104.4214069, 13.9921597 ], [ 104.4301796, 13.9330177 ], [ 104.3742279, 13.8364314 ], [ 104.4322457, 13.7181368 ], [ 104.4442569, 13.6512352 ], [ 104.4060781, 13.5949303 ], [ 104.4140436, 13.5528648 ], [ 104.5378217, 13.5415223 ], [ 104.5560773, 13.522836 ], [ 104.6029306, 13.5199285 ], [ 104.6538066, 13.4920251 ], [ 104.6383647, 13.4409871 ], [ 104.6052687, 13.4173903 ], [ 104.5709882, 13.3597524 ], [ 104.5687336, 13.2484291 ], [ 104.5530208, 13.2041049 ], [ 104.4872718, 13.1785763 ], [ 104.47746, 13.1595418 ], [ 104.4646827, 13.0118025 ], [ 104.4406784, 12.9813552 ], [ 104.3773483, 12.9331392 ], [ 104.354694, 12.8933355 ], [ 104.2844354, 12.8725763 ], [ 104.2141431, 12.7802307 ], [ 104.1622089, 12.8692789 ], [ 104.1622562, 12.9160879 ], [ 104.1293499, 12.9588476 ], [ 104.0991668, 13.0582715 ], [ 104.0590241, 13.1287385 ], [ 103.9922341, 13.1891768 ], [ 103.7824842, 13.239127 ], [ 103.7102301, 13.2653817 ], [ 103.6870724, 13.2832798 ], [ 103.5984722, 13.2901469 ], [ 103.5578806, 13.3279532 ], [ 103.5112122, 13.3497418 ], [ 103.4702957, 13.34315 ], [ 103.4194404, 13.3643269 ], [ 103.3973945, 13.4213241 ], [ 103.420849, 13.5425048 ], [ 103.4187039, 13.5931349 ], [ 103.4001213, 13.6419089 ], [ 103.4436281, 13.688402 ], [ 103.4247718, 13.7068559 ], [ 103.4394497, 13.8093076 ], [ 103.4268131, 13.8424354 ], [ 103.446625, 13.8966893 ], [ 103.4395232, 13.9157492 ], [ 103.3902092, 13.9325336 ], [ 103.3311845, 14.0224252 ], [ 103.2684094, 13.952118 ], [ 103.207456, 13.9355243 ], [ 103.1750489, 13.9907833 ], [ 103.1904552, 14.0076156 ], [ 103.2144024, 14.1031594 ], [ 103.1286582, 14.1062982 ], [ 103.0861867, 14.1376622 ], [ 103.0371873, 14.2445628 ], [ 103.0373692, 14.244793 ], [ 103.0386752, 14.2464453 ], [ 103.04056, 14.24883 ], [ 103.0573402, 14.2685603 ], [ 103.06407, 14.27459 ], [ 103.07779, 14.2836 ], [ 103.09269, 14.29263 ], [ 103.1144, 14.30317 ], [ 103.13705, 14.31373 ], [ 103.1488334, 14.3185934 ], [ 103.16376, 14.32206 ], [ 103.18694, 14.32963 ], [ 103.2310515, 14.3245368 ], [ 103.2320456, 14.3246176 ], [ 103.2738081, 14.3456754 ], [ 103.29927, 14.34831 ], [ 103.3261, 14.35066 ], [ 103.3285932, 14.3500529 ], [ 103.33226, 14.34916 ], [ 103.34045, 14.35253 ], [ 103.354658, 14.3515745 ], [ 103.35651, 14.35145 ], [ 103.3742686, 14.3474103 ], [ 103.39986, 14.35248 ], [ 103.4046074, 14.3579158 ], [ 103.405167, 14.3585566 ], [ 103.40948, 14.36737 ], [ 103.41628, 14.36957 ], [ 103.4195574, 14.3746375 ], [ 103.4237366, 14.3797342 ], [ 103.43624, 14.3858 ], [ 103.469, 14.36225 ], [ 103.47783, 14.36931 ], [ 103.48958, 14.38355 ], [ 103.4957465, 14.3844382 ], [ 103.5001573, 14.3868658 ], [ 103.51502, 14.39711 ], [ 103.5594, 14.41952 ], [ 103.62162, 14.39671 ], [ 103.64977, 14.40525 ], [ 103.6547602, 14.4087665 ], [ 103.66047, 14.41279 ], [ 103.66064, 14.41625 ], [ 103.65709, 14.42998 ], [ 103.6578536, 14.4326165 ], [ 103.6593, 14.43761 ], [ 103.66257, 14.43951 ], [ 103.70017, 14.43418 ], [ 103.70615, 14.42946 ], [ 103.70633, 14.40715 ], [ 103.70479, 14.38804 ] ] ] ] } },
{ "type": "Feature", "properties": { "POLYGON_ID": "KHM_GAUL1993_ADM1_113203", "ADM0_ISO3": "KHM", "ADM0_NAME": "Cambodia", "ADM0_CODE": 44, "ADM1_NAME": "Battambang", "ADM1_CODE": 113203, "GEOSET": "GAUL", "GEOSET_YEAR": 1993.0, "GEOSET_VERSION": "GAUL_v1", "GEOSET_UNIT": "ADM1", "CENTROID_LONG": 103.05076108135263, "CENTROID_LAT": 12.968662264886071 }, "geometry": { "type": "MultiPolygon", "coordinates": [ [ [ [ 102.6916185, 13.3774251 ], [ 102.7501697, 13.4079971 ], [ 102.853086, 13.3796884 ], [ 102.9878752, 13.3581788 ], [ 102.9913947, 13.3754186 ], [ 103.1295287, 13.4086527 ], [ 103.179958, 13.4080985 ], [ 103.2247708, 13.3843888 ], [ 103.2880147, 13.3833823 ], [ 103.4194404, 13.3643269 ], [ 103.4702957, 13.34315 ], [ 103.5112122, 13.3497418 ], [ 103.5578806, 13.3279532 ], [ 103.5984722, 13.2901469 ], [ 103.6870724, 13.2832798 ], [ 103.7102301, 13.2653817 ], [ 103.6908806, 13.2299079 ], [ 103.7075782, 13.1684655 ], [ 103.7119793, 13.0836182 ], [ 103.7468373, 13.0378528 ], [ 103.7502483, 13.0080574 ], [ 103.7219957, 12.970393 ], [ 103.7336985, 12.9252826 ], [ 103.7066406, 12.9097932 ], [ 103.6938931, 12.8595948 ], [ 103.6409923, 12.8471813 ], [ 103.6483298, 12.8093269 ], [ 103.6264251, 12.7752721 ], [ 103.6278217, 12.7166345 ], [ 103.649446, 12.6611829 ], [ 103.6147244, 12.5229219 ], [ 103.5099215, 12.5027634 ], [ 103.3956664, 12.5566961 ], [ 103.3323734, 12.5646592 ], [ 103.2510638, 12.5162645 ], [ 103.233611, 12.5238285 ], [ 103.0743034, 12.4533829 ], [ 103.0249532, 12.4441886 ], [ 102.9864229, 12.4703869 ], [ 102.945034, 12.4272155 ], [ 102.9090941, 12.4309395 ], [ 102.8733351, 12.3949868 ], [ 102.8429814, 12.4098836 ], [ 102.8140838, 12.3681537 ], [ 102.7876653, 12.3969418 ], [ 102.7884305, 12.3984839 ], [ 102.78043, 12.45908 ], [ 102.7435655, 12.4679095 ], [ 102.74107, 12.46978 ], [ 102.73675, 12.47608 ], [ 102.73212, 12.48998 ], [ 102.7315, 12.50565 ], [ 102.72634, 12.51704 ], [ 102.6984448, 12.5346728 ], [ 102.69237, 12.53982 ], [ 102.6874037, 12.5418644 ], [ 102.68122, 12.54441 ], [ 102.67365, 12.55216 ], [ 102.6732342, 12.5521707 ], [ 102.67248, 12.55219 ], [ 102.6714349, 12.5544716 ], [ 102.65399, 12.57673 ], [ 102.6501, 12.58141 ], [ 102.6495692, 12.5834055 ], [ 102.64727, 12.59205 ], [ 102.64328, 12.60341 ], [ 102.63004, 12.60897 ], [ 102.6282312, 12.609891 ], [ 102.61264, 12.61783 ], [ 102.5871, 12.64181 ], [ 102.57481, 12.64827 ], [ 102.55234, 12.64917 ], [ 102.53017, 12.6542 ], [ 102.5217459, 12.662042 ], [ 102.51729, 12.66619 ], [ 102.516416, 12.667368 ], [ 102.5159085, 12.6680539 ], [ 102.50632, 12.69265 ], [ 102.5067681, 12.6953389 ], [ 102.50739, 12.69907 ], [ 102.5264008, 12.750838 ], [ 102.5301402, 12.7583747 ], [ 102.53448, 12.766 ], [ 102.53523, 12.78072 ], [ 102.53943, 12.80434 ], [ 102.53482, 12.81573 ], [ 102.52104, 12.81958 ], [ 102.5186998, 12.8232705 ], [ 102.51882, 12.83162 ], [ 102.5192969, 12.8327374 ], [ 102.5204773, 12.8355131 ], [ 102.51418, 12.84281 ], [ 102.51544, 12.88376 ], [ 102.5135301, 12.8884067 ], [ 102.51029, 12.89629 ], [ 102.5055, 12.90329 ], [ 102.5040079, 12.9098167 ], [ 102.50053, 12.92503 ], [ 102.4925231, 12.9424027 ], [ 102.48968, 12.94688 ], [ 102.4907013, 12.9475895 ], [ 102.50049, 12.95439 ], [ 102.5053086, 12.9607382 ], [ 102.50234, 12.96471 ], [ 102.4998933, 12.9660194 ], [ 102.49608, 12.96806 ], [ 102.4935186, 12.9704474 ], [ 102.4862475, 12.97463 ], [ 102.4904959, 12.9788961 ], [ 102.49283, 12.98124 ], [ 102.4971434, 12.9819793 ], [ 102.50129, 12.98269 ], [ 102.5038734, 12.9872388 ], [ 102.51937, 12.99453 ], [ 102.5284015, 12.9980983 ], [ 102.5319962, 12.9995207 ], [ 102.51675, 13.00216 ], [ 102.49997, 13.01665 ], [ 102.4861, 13.03925 ], [ 102.48254, 13.04968 ], [ 102.4638471, 13.079068 ], [ 102.46314, 13.07898 ], [ 102.45569, 13.08166 ], [ 102.44162, 13.0824 ], [ 102.43839, 13.08523 ], [ 102.43444, 13.09865 ], [ 102.4259219, 13.109564 ], [ 102.42049, 13.12839 ], [ 102.42012, 13.13324 ], [ 102.41554, 13.13908 ], [ 102.40653, 13.14639 ], [ 102.4058571, 13.1478577 ], [ 102.40548, 13.14868 ], [ 102.39484, 13.17171 ], [ 102.39355, 13.18946 ], [ 102.3918283, 13.1947937 ], [ 102.3798774, 13.2250325 ], [ 102.38071, 13.22861 ], [ 102.3796916, 13.2323938 ], [ 102.37853, 13.23671 ], [ 102.3723648, 13.2420231 ], [ 102.36328, 13.26268 ], [ 102.3597099, 13.2733871 ], [ 102.3516968, 13.2974156 ], [ 102.3555254, 13.3193018 ], [ 102.35065, 13.33389 ], [ 102.3509751, 13.338716 ], [ 102.3513, 13.34354 ], [ 102.35401, 13.35017 ], [ 102.35835, 13.3685 ], [ 102.35988, 13.3830082 ], [ 102.3600024, 13.3841686 ], [ 102.3600698, 13.384808 ], [ 102.36502, 13.39806 ], [ 102.36517, 13.41808 ], [ 102.3654723, 13.4269646 ], [ 102.36571, 13.43395 ], [ 102.36091, 13.4536 ], [ 102.3611834, 13.4574615 ], [ 102.36187, 13.46716 ], [ 102.3630527, 13.4732411 ], [ 102.6907104, 13.4764754 ], [ 102.6908244, 13.4640816 ], [ 102.6908816, 13.4578557 ], [ 102.6910092, 13.4439535 ], [ 102.6911517, 13.4284386 ], [ 102.6913256, 13.4094436 ], [ 102.6916185, 13.3774251 ] ] ] ] } },
{ "type": "Feature", "properties": { "POLYGON_ID": "KHM_GAUL1993_ADM1_65290", "ADM0_ISO3": "KHM", "ADM0_NAME": "Cambodia", "ADM0_CODE": 44, "ADM1_NAME": "Area under National Administration 1", "ADM1_CODE": 65290, "GEOSET": "GAUL", "GEOSET_YEAR": 1993.0, "GEOSET_VERSION": "GAUL_v1", "GEOSET_UNIT": "ADM1", "CENTROID_LONG": 104.07394888488969, "CENTROID_LAT": 12.885375608507188 }, "geometry": { "type": "MultiPolygon", "coordinates": [ [ [ [ 104.2141431, 12.7802307 ], [ 104.2273441, 12.7405962 ], [ 104.3138925, 12.7296878 ], [ 104.4090089, 12.755791 ], [ 104.4500406, 12.7411956 ], [ 104.4749623, 12.7012035 ], [ 104.4781224, 12.6481568 ], [ 104.4500264, 12.5990906 ], [ 104.5205341, 12.5586177 ], [ 104.5143124, 12.5231884 ], [ 104.598249, 12.4830704 ], [ 104.5864672, 12.448476 ], [ 104.5517696, 12.4760217 ], [ 104.5182112, 12.4557058 ], [ 104.4786298, 12.511669 ], [ 104.3901248, 12.506426 ], [ 104.307878, 12.5440731 ], [ 104.2126835, 12.5723968 ], [ 104.1765148, 12.6354994 ], [ 104.1594284, 12.6406001 ], [ 104.1417369, 12.7362477 ], [ 104.1319545, 12.7324724 ], [ 104.1048236, 12.7790235 ], [ 104.0135328, 12.7858681 ], [ 103.9340366, 12.8221382 ], [ 103.841165, 12.9065219 ], [ 103.8063729, 12.8988726 ], [ 103.7902521, 12.9796449 ], [ 103.7502483, 13.0080574 ], [ 103.7468373, 13.0378528 ], [ 103.7119793, 13.0836182 ], [ 103.7075782, 13.1684655 ], [ 103.6908806, 13.2299079 ], [ 103.7102301, 13.2653817 ], [ 103.7824842, 13.239127 ], [ 103.9922341, 13.1891768 ], [ 104.0590241, 13.1287385 ], [ 104.0991668, 13.0582715 ], [ 104.1293499, 12.9588476 ], [ 104.1622562, 12.9160879 ], [ 104.1622089, 12.8692789 ], [ 104.2141431, 12.7802307 ] ] ] ] } },
{ "type": "Feature", "properties": { "POLYGON_ID": "KHM_GAUL1993_ADM1_65289", "ADM0_ISO3": "KHM", "ADM0_NAME": "Cambodia", "ADM0_CODE": 44, "ADM1_NAME": "Area under National Administration 2", "ADM1_CODE": 65289, "GEOSET": "GAUL", "GEOSET_YEAR": 1993.0, "GEOSET_VERSION": "GAUL_v1", "GEOSET_UNIT": "ADM1", "CENTROID_LONG": 103.13310046666668, "CENTROID_LAT": 10.307194533333334 }, "geometry": { "type": "MultiPolygon", "coordinates": [ [ [ [ 103.1383342, 10.3165616 ], [ 103.1381142, 10.3006541 ], [ 103.122853, 10.3043679 ], [ 103.1383342, 10.3165616 ] ] ] ] } },
{ "type": "Feature", "properties": { "POLYGON_ID": "KHM_GAUL1993_ADM1_791", "ADM0_ISO3": "KHM", "ADM0_NAME": "Cambodia", "ADM0_CODE": 44, "ADM1_NAME": "Banteay Meanchey", "ADM1_CODE": 791, "GEOSET": "GAUL", "GEOSET_YEAR": 1993.0, "GEOSET_VERSION": "GAUL_v1", "GEOSET_UNIT": "ADM1", "CENTROID_LONG": 103.01989416614403, "CENTROID_LAT": 13.70417110040716 }, "geometry": { "type": "MultiPolygon", "coordinates": [ [ [ [ 103.4194404, 13.3643269 ], [ 103.2880147, 13.3833823 ], [ 103.2247708, 13.3843888 ], [ 103.179958, 13.4080985 ], [ 103.1295287, 13.4086527 ], [ 102.9913947, 13.3754186 ], [ 102.9878752, 13.3581788 ], [ 102.853086, 13.3796884 ], [ 102.7501697, 13.4079971 ], [ 102.6916185, 13.3774251 ], [ 102.6913256, 13.4094436 ], [ 102.6911517, 13.4284386 ], [ 102.6910092, 13.4439535 ], [ 102.6908816, 13.4578557 ], [ 102.6908244, 13.4640816 ], [ 102.6907104, 13.4764754 ], [ 102.3630527, 13.4732411 ], [ 102.3632615, 13.4743147 ], [ 102.36526, 13.48459 ], [ 102.36561, 13.49833 ], [ 102.36573, 13.50118 ], [ 102.36327, 13.50744 ], [ 102.35426, 13.51544 ], [ 102.3469, 13.53515 ], [ 102.34296, 13.53776 ], [ 102.34, 13.54311 ], [ 102.3439499, 13.5522399 ], [ 102.34898, 13.55675 ], [ 102.36176, 13.5611 ], [ 102.36521, 13.56908 ], [ 102.3702468, 13.5740159 ], [ 102.3712, 13.57495 ], [ 102.37908, 13.56927 ], [ 102.38938, 13.56755 ], [ 102.40317, 13.56282 ], [ 102.40928, 13.56293 ], [ 102.4133131, 13.5646746 ], [ 102.4164, 13.56601 ], [ 102.43365, 13.55922 ], [ 102.44021, 13.55794 ], [ 102.4498757, 13.557925 ], [ 102.45314, 13.55792 ], [ 102.4645473, 13.5598734 ], [ 102.5050543, 13.5654429 ], [ 102.51092, 13.5669 ], [ 102.51937, 13.56626 ], [ 102.53292, 13.56231 ], [ 102.5440394, 13.5659998 ], [ 102.55287, 13.57203 ], [ 102.56755, 13.57703 ], [ 102.6158, 13.60206 ], [ 102.6255815, 13.6054963 ], [ 102.6269298, 13.6059702 ], [ 102.62162, 13.61068 ], [ 102.60458, 13.61632 ], [ 102.6013866, 13.6186932 ], [ 102.59948, 13.62011 ], [ 102.5759909, 13.6343581 ], [ 102.57303, 13.63699 ], [ 102.55965, 13.65173 ], [ 102.590158, 13.6954578 ], [ 102.65, 13.72327 ], [ 102.6616235, 13.7295495 ], [ 102.73281, 13.76926 ], [ 102.73431, 13.77338 ], [ 102.73317, 13.78674 ], [ 102.7465, 13.81685 ], [ 102.7494033, 13.8215177 ], [ 102.76572, 13.84775 ], [ 102.7733545, 13.8669422 ], [ 102.7923702, 13.9286349 ], [ 102.7940845, 13.931015 ], [ 102.7996663, 13.9368211 ], [ 102.80509, 13.94176 ], [ 102.81661, 13.95234 ], [ 102.84738, 13.98231 ], [ 102.86694, 13.99783 ], [ 102.8686468, 13.9984133 ], [ 102.87405, 14.00026 ], [ 102.88131, 14.00174 ], [ 102.89128, 14.00498 ], [ 102.8997951, 14.009327 ], [ 102.9103196, 14.0146998 ], [ 102.91373, 14.01969 ], [ 102.914, 14.02106 ], [ 102.90708, 14.02788 ], [ 102.90805, 14.03982 ], [ 102.9056917, 14.0460212 ], [ 102.90249, 14.05444 ], [ 102.90839, 14.07663 ], [ 102.907545, 14.083605 ], [ 102.9081598, 14.0872187 ], [ 102.9109375, 14.0909233 ], [ 102.91155, 14.09174 ], [ 102.9145151, 14.0936226 ], [ 102.92278, 14.09887 ], [ 102.92716, 14.10522 ], [ 102.93041, 14.11366 ], [ 102.93633, 14.13585 ], [ 102.9424866, 14.1425593 ], [ 102.94357, 14.14374 ], [ 102.9441867, 14.1459466 ], [ 102.94485, 14.14832 ], [ 102.94057, 14.16475 ], [ 102.9420863, 14.1769181 ], [ 102.96131, 14.20128 ], [ 102.99857, 14.20793 ], [ 103.0, 14.2115 ], [ 103.00731, 14.21598 ], [ 103.02265, 14.22617 ], [ 103.0329951, 14.2392587 ], [ 103.0371873, 14.2445628 ], [ 103.0861867, 14.1376622 ], [ 103.1286582, 14.1062982 ], [ 103.2144024, 14.1031594 ], [ 103.1904552, 14.0076156 ], [ 103.1750489, 13.9907833 ], [ 103.207456, 13.9355243 ], [ 103.2684094, 13.952118 ], [ 103.3311845, 14.0224252 ], [ 103.3902092, 13.9325336 ], [ 103.4395232, 13.9157492 ], [ 103.446625, 13.8966893 ], [ 103.4268131, 13.8424354 ], [ 103.4394497, 13.8093076 ], [ 103.4247718, 13.7068559 ], [ 103.4436281, 13.688402 ], [ 103.4001213, 13.6419089 ], [ 103.4187039, 13.5931349 ], [ 103.420849, 13.5425048 ], [ 103.3973945, 13.4213241 ], [ 103.4194404, 13.3643269 ] ] ] ] } },
{ "type": "Feature", "properties": { "POLYGON_ID": "KHM_GAUL1993_ADM1_793", "ADM0_ISO3": "KHM", "ADM0_NAME": "Cambodia", "ADM0_CODE": 44, "ADM1_NAME": "Kampong Cham", "ADM1_CODE": 793, "GEOSET": "GAUL", "GEOSET_YEAR": 1993.0, "GEOSET_VERSION": "GAUL_v1", "GEOSET_UNIT": "ADM1", "CENTROID_LONG": 105.5918258281794, "CENTROID_LAT": 12.025175444551387 }, "geometry": { "type": "MultiPolygon", "coordinates": [ [ [ [ 105.7384105, 12.4968403 ], [ 105.7720702, 12.3985483 ], [ 105.7752083, 12.3138596 ], [ 105.7249256, 12.2750509 ], [ 105.7446278, 12.2569767 ], [ 105.8187354, 12.257167 ], [ 105.8468527, 12.2024626 ], [ 105.9256505, 12.2124709 ], [ 105.9769169, 12.1942492 ], [ 106.0638716, 12.128053 ], [ 106.0447056, 12.0933846 ], [ 106.0864101, 12.0660607 ], [ 106.1144974, 12.073165 ], [ 106.1398666, 12.0434381 ], [ 106.176937, 12.0318772 ], [ 106.1819941, 11.9501912 ], [ 106.2836563, 11.951787 ], [ 106.3086404, 11.9605106 ], [ 106.3568693, 11.9465302 ], [ 106.3893067, 11.9566388 ], [ 106.4025931, 11.971053 ], [ 106.4047556, 11.9749433 ], [ 106.413554, 11.9725957 ], [ 106.4132399, 11.9725951 ], [ 106.4675656, 11.8690982 ], [ 106.4370388, 11.8525203 ], [ 106.4455691, 11.8224243 ], [ 106.4206934, 11.7827579 ], [ 106.414216, 11.766893 ], [ 106.4346077, 11.720142 ], [ 106.4387175, 11.7100045 ], [ 106.44435, 11.6993027 ], [ 106.4486683, 11.6970497 ], [ 106.4528333, 11.6916351 ], [ 106.4525087, 11.6724044 ], [ 106.4367461, 11.6701075 ], [ 106.4303626, 11.6729237 ], [ 106.4293364, 11.6769552 ], [ 106.4224688, 11.6768866 ], [ 106.417004, 11.6768319 ], [ 106.4128882, 11.6800001 ], [ 106.4119555, 11.683731 ], [ 106.409177, 11.6855398 ], [ 106.4047047, 11.687232 ], [ 106.4022255, 11.6900654 ], [ 106.3392187, 11.6809374 ], [ 106.3353349, 11.680571 ], [ 106.3339075, 11.6866611 ], [ 106.3038465, 11.6741653 ], [ 106.2994605, 11.6768599 ], [ 106.2998651, 11.6805016 ], [ 106.2771936, 11.7022669 ], [ 106.2710084, 11.7050265 ], [ 106.2706278, 11.7127343 ], [ 106.2681675, 11.7189543 ], [ 106.2675629, 11.7196878 ], [ 106.2613332, 11.7211117 ], [ 106.2566358, 11.7251132 ], [ 106.2436734, 11.7254327 ], [ 106.2288317, 11.7308809 ], [ 106.2076023, 11.7320082 ], [ 106.1972828, 11.7391468 ], [ 106.197124, 11.7453404 ], [ 106.1912736, 11.7528074 ], [ 106.1425437, 11.7425559 ], [ 106.1339369, 11.7453457 ], [ 106.1082269, 11.7454169 ], [ 106.1033841, 11.7499749 ], [ 106.1018741, 11.755227 ], [ 106.101437, 11.7556928 ], [ 106.0941969, 11.756171 ], [ 106.0941969, 11.7625094 ], [ 106.0922027, 11.7648597 ], [ 106.0863628, 11.7660704 ], [ 106.0768195, 11.7726225 ], [ 106.0502328, 11.7738792 ], [ 106.0486555, 11.774309 ], [ 106.0481328, 11.7753543 ], [ 106.0374308, 11.7782475 ], [ 106.0286529, 11.7762098 ], [ 106.0147845, 11.7670228 ], [ 106.0100583, 11.7504812 ], [ 106.015966, 11.7252749 ], [ 105.9832766, 11.6929793 ], [ 105.9549562, 11.6398884 ], [ 105.8817851, 11.6751888 ], [ 105.8796554, 11.673485 ], [ 105.852311, 11.6599377 ], [ 105.8103632, 11.6024049 ], [ 105.8099609, 11.6016568 ], [ 105.8097061, 11.6017161 ], [ 105.8089933, 11.6024031 ], [ 105.8075499, 11.6026389 ], [ 105.806727, 11.6019562 ], [ 105.8042093, 11.6031433 ], [ 105.8029668, 11.6026652 ], [ 105.7904583, 11.6210666 ], [ 105.771393, 11.6400985 ], [ 105.7694196, 11.6603508 ], [ 105.7019077, 11.7399667 ], [ 105.6719855, 11.7357918 ], [ 105.5224404, 11.7523481 ], [ 105.4228686, 11.7715231 ], [ 105.4132587, 11.8372899 ], [ 105.326008, 11.8619789 ], [ 105.2733038, 11.8384134 ], [ 105.2562904, 11.8088641 ], [ 105.1611321, 11.7547232 ], [ 105.1640854, 11.7325927 ], [ 105.0527891, 11.750535 ], [ 105.0561729, 11.7972189 ], [ 105.042786, 11.8470366 ], [ 104.995106, 11.8772127 ], [ 104.9078398, 11.805336 ], [ 104.8350264, 11.8234477 ], [ 104.8250909, 11.8833421 ], [ 104.8361665, 11.9424666 ], [ 104.8987335, 12.0147697 ], [ 104.8729883, 12.0700672 ], [ 104.9057731, 12.1566009 ], [ 104.9028241, 12.2039526 ], [ 104.8761161, 12.2364839 ], [ 104.9231323, 12.2596257 ], [ 104.9664465, 12.2629601 ], [ 105.0254096, 12.2148521 ], [ 105.0581813, 12.2230121 ], [ 105.1520231, 12.2165506 ], [ 105.1769803, 12.1917272 ], [ 105.2060753, 12.1978778 ], [ 105.1985873, 12.2627399 ], [ 105.1757048, 12.2824742 ], [ 105.1704661, 12.3218254 ], [ 105.1341288, 12.3619689 ], [ 105.2246677, 12.398918 ], [ 105.2677626, 12.3965809 ], [ 105.3685405, 12.3630585 ], [ 105.4027939, 12.4706869 ], [ 105.4428153, 12.491721 ], [ 105.5019728, 12.447296 ], [ 105.528022, 12.4539963 ], [ 105.5538021, 12.4891083 ], [ 105.676728, 12.4871561 ], [ 105.7384105, 12.4968403 ] ] ] ] } },
{ "type": "Feature", "properties": { "POLYGON_ID": "KHM_GAUL1993_ADM1_794", "ADM0_ISO3": "KHM", "ADM0_NAME": "Cambodia", "ADM0_CODE": 44, "ADM1_NAME": "Kampong Chhnang", "ADM1_CODE": 794, "GEOSET": "GAUL", "GEOSET_YEAR": 1993.0, "GEOSET_VERSION": "GAUL_v1", "GEOSET_UNIT": "ADM1", "CENTROID_LONG": 104.56452660445667, "CENTROID_LAT": 12.156402087244819 }, "geometry": { "type": "MultiPolygon", "coordinates": [ [ [ [ 104.8761161, 12.2364839 ], [ 104.9028241, 12.2039526 ], [ 104.9057731, 12.1566009 ], [ 104.8729883, 12.0700672 ], [ 104.8987335, 12.0147697 ], [ 104.8361665, 11.9424666 ], [ 104.8250909, 11.8833421 ], [ 104.7678013, 11.8780364 ], [ 104.7862, 11.8362015 ], [ 104.7403603, 11.8233633 ], [ 104.7084284, 11.8059509 ], [ 104.625761, 11.8029625 ], [ 104.549617, 11.7376184 ], [ 104.4918251, 11.7324166 ], [ 104.4713233, 11.751707 ], [ 104.3810708, 11.7648268 ], [ 104.3421529, 11.8035272 ], [ 104.3157739, 11.8758206 ], [ 104.2703834, 11.9093925 ], [ 104.2555227, 12.0030373 ], [ 104.2206962, 12.0168523 ], [ 104.2035032, 12.0739347 ], [ 104.1887732, 12.1608898 ], [ 104.1751584, 12.1745838 ], [ 104.1838402, 12.237694 ], [ 104.2262211, 12.2885426 ], [ 104.2673481, 12.2959361 ], [ 104.327456, 12.331759 ], [ 104.354502, 12.3924167 ], [ 104.3964621, 12.4173059 ], [ 104.3840992, 12.4532847 ], [ 104.3901248, 12.506426 ], [ 104.4786298, 12.511669 ], [ 104.5182112, 12.4557058 ], [ 104.5517696, 12.4760217 ], [ 104.5864672, 12.448476 ], [ 104.598249, 12.4830704 ], [ 104.5143124, 12.5231884 ], [ 104.5205341, 12.5586177 ], [ 104.5455137, 12.5786502 ], [ 104.6310506, 12.6045244 ], [ 104.7474498, 12.5476519 ], [ 104.8201691, 12.5290537 ], [ 104.818452, 12.4853194 ], [ 104.8881627, 12.3794288 ], [ 104.8974857, 12.3403568 ], [ 104.8567216, 12.2999452 ], [ 104.8761161, 12.2364839 ] ] ] ] } },
{ "type": "Feature", "properties": { "POLYGON_ID": "KHM_GAUL1993_ADM1_795", "ADM0_ISO3": "KHM", "ADM0_NAME": "Cambodia", "ADM0_CODE": 44, "ADM1_NAME": "Kampong Speu", "ADM1_CODE": 795, "GEOSET": "GAUL", "GEOSET_YEAR": 1993.0, "GEOSET_VERSION": "GAUL_v1", "GEOSET_UNIT": "ADM1", "CENTROID_LONG": 104.29575179564841, "CENTROID_LAT": 11.53413357309568 }, "geometry": { "type": "MultiPolygon", "coordinates": [ [ [ [ 104.7403603, 11.8233633 ], [ 104.7548567, 11.7974894 ], [ 104.7054331, 11.6824382 ], [ 104.6809921, 11.592184 ], [ 104.682782, 11.558786 ], [ 104.659366, 11.4335299 ], [ 104.6816022, 11.4187166 ], [ 104.7232031, 11.4357801 ], [ 104.7962385, 11.4172247 ], [ 104.7366756, 11.3478823 ], [ 104.7163681, 11.3214784 ], [ 104.688104, 11.1530024 ], [ 104.6888755, 11.0869755 ], [ 104.5999088, 11.084907 ], [ 104.4958131, 11.1210871 ], [ 104.4141274, 11.1347022 ], [ 104.3449495, 11.1370146 ], [ 104.3162908, 11.1016478 ], [ 104.2499728, 11.0899418 ], [ 104.1968137, 11.0997082 ], [ 104.1657941, 11.1429797 ], [ 104.078515, 11.1693149 ], [ 104.0569225, 11.1678144 ], [ 104.0321679, 11.2304329 ], [ 104.0538343, 11.263774 ], [ 104.0438348, 11.3210363 ], [ 104.0657845, 11.3664872 ], [ 104.0450244, 11.4300488 ], [ 104.0671874, 11.4526624 ], [ 104.0619384, 11.483491 ], [ 104.0061182, 11.5268727 ], [ 103.9418729, 11.5133764 ], [ 103.9092273, 11.552864 ], [ 103.7988397, 11.6200109 ], [ 103.8035151, 11.6830245 ], [ 103.7775684, 11.7185393 ], [ 103.7953314, 11.783221 ], [ 103.7845571, 11.8296673 ], [ 103.86152, 11.8403565 ], [ 103.9215189, 11.9268889 ], [ 103.9469052, 11.941172 ], [ 104.0243025, 11.8987493 ], [ 104.0671501, 11.9242602 ], [ 104.0541774, 11.9538338 ], [ 104.0956613, 11.9930256 ], [ 104.0977607, 12.0362717 ], [ 104.1656808, 12.0468536 ], [ 104.2035032, 12.0739347 ], [ 104.2206962, 12.0168523 ], [ 104.2555227, 12.0030373 ], [ 104.2703834, 11.9093925 ], [ 104.3157739, 11.8758206 ], [ 104.3421529, 11.8035272 ], [ 104.3810708, 11.7648268 ], [ 104.4713233, 11.751707 ], [ 104.4918251, 11.7324166 ], [ 104.549617, 11.7376184 ], [ 104.625761, 11.8029625 ], [ 104.7084284, 11.8059509 ], [ 104.7403603, 11.8233633 ] ] ] ] } },
{ "type": "Feature", "properties": { "POLYGON_ID": "KHM_GAUL1993_ADM1_796", "ADM0_ISO3": "KHM", "ADM0_NAME": "Cambodia", "ADM0_CODE": 44, "ADM1_NAME": "Kampong Thom", "ADM1_CODE": 796, "GEOSET": "GAUL", "GEOSET_YEAR": 1993.0, "GEOSET_VERSION": "GAUL_v1", "GEOSET_UNIT": "ADM1", "CENTROID_LONG": 105.07375484791466, "CENTROID_LAT": 12.826282791464958 }, "geometry": { "type": "MultiPolygon", "coordinates": [ [ [ [ 105.5928799, 13.227412 ], [ 105.608522, 13.1494106 ], [ 105.6515444, 13.0998754 ], [ 105.634823, 13.0559767 ], [ 105.6538319, 12.9971247 ], [ 105.681846, 12.9490728 ], [ 105.6591542, 12.9213783 ], [ 105.694158, 12.8625654 ], [ 105.6753417, 12.8251785 ], [ 105.680119, 12.7768454 ], [ 105.7010402, 12.7450952 ], [ 105.7264886, 12.6356174 ], [ 105.7211019, 12.5931771 ], [ 105.7384105, 12.4968403 ], [ 105.676728, 12.4871561 ], [ 105.5538021, 12.4891083 ], [ 105.528022, 12.4539963 ], [ 105.5019728, 12.447296 ], [ 105.4428153, 12.491721 ], [ 105.4027939, 12.4706869 ], [ 105.3685405, 12.3630585 ], [ 105.2677626, 12.3965809 ], [ 105.2246677, 12.398918 ], [ 105.1341288, 12.3619689 ], [ 105.1704661, 12.3218254 ], [ 105.1757048, 12.2824742 ], [ 105.1985873, 12.2627399 ], [ 105.2060753, 12.1978778 ], [ 105.1769803, 12.1917272 ], [ 105.1520231, 12.2165506 ], [ 105.0581813, 12.2230121 ], [ 105.0254096, 12.2148521 ], [ 104.9664465, 12.2629601 ], [ 104.9231323, 12.2596257 ], [ 104.8761161, 12.2364839 ], [ 104.8567216, 12.2999452 ], [ 104.8974857, 12.3403568 ], [ 104.8881627, 12.3794288 ], [ 104.818452, 12.4853194 ], [ 104.8201691, 12.5290537 ], [ 104.7474498, 12.5476519 ], [ 104.6310506, 12.6045244 ], [ 104.5455137, 12.5786502 ], [ 104.5205341, 12.5586177 ], [ 104.4500264, 12.5990906 ], [ 104.4781224, 12.6481568 ], [ 104.4749623, 12.7012035 ], [ 104.4500406, 12.7411956 ], [ 104.4090089, 12.755791 ], [ 104.3138925, 12.7296878 ], [ 104.2273441, 12.7405962 ], [ 104.2141431, 12.7802307 ], [ 104.2844354, 12.8725763 ], [ 104.354694, 12.8933355 ], [ 104.3773483, 12.9331392 ], [ 104.4406784, 12.9813552 ], [ 104.4646827, 13.0118025 ], [ 104.47746, 13.1595418 ], [ 104.4872718, 13.1785763 ], [ 104.5530208, 13.2041049 ], [ 104.5687336, 13.2484291 ], [ 104.6194241, 13.2579228 ], [ 104.7163403, 13.3040512 ], [ 104.7801698, 13.2990608 ], [ 104.8975747, 13.3041176 ], [ 104.9065205, 13.2792553 ], [ 104.8788977, 13.2165067 ], [ 104.8816302, 13.1651529 ], [ 104.912461, 13.1052015 ], [ 104.9564291, 13.0555153 ], [ 104.9809275, 13.0532689 ], [ 105.1620698, 13.1738179 ], [ 105.1933488, 13.2245169 ], [ 105.2826824, 13.2712928 ], [ 105.3639984, 13.3614592 ], [ 105.4445139, 13.3953045 ], [ 105.5415045, 13.4466229 ], [ 105.55526, 13.3862919 ], [ 105.5527566, 13.2750614 ], [ 105.5928799, 13.227412 ] ] ] ] } },
{ "type": "Feature", "properties": { "POLYGON_ID": "KHM_GAUL1993_ADM1_797", "ADM0_ISO3": "KHM", "ADM0_NAME": "Cambodia", "ADM0_CODE": 44, "ADM1_NAME": "Kampot", "ADM1_CODE": 797, "GEOSET": "GAUL", "GEOSET_YEAR": 1993.0, "GEOSET_VERSION": "GAUL_v1", "GEOSET_UNIT": "ADM1", "CENTROID_LONG": 104.3120669251491, "CENTROID_LAT": 10.792557907376001 }, "geometry": { "type": "MultiPolygon", "coordinates": [ [ [ [ 104.4141274, 11.1347022 ], [ 104.4141159, 11.0745809 ], [ 104.4722504, 11.0540461 ], [ 104.5033837, 11.0554328 ], [ 104.5419892, 10.984349 ], [ 104.5446435, 10.9264163 ], [ 104.5261199, 10.8913447 ], [ 104.5897307, 10.8834099 ], [ 104.6219918, 10.8994647 ], [ 104.6766372, 10.8965076 ], [ 104.7019958, 10.8565138 ], [ 104.7097772, 10.8037879 ], [ 104.7275906, 10.7736999 ], [ 104.6743752, 10.6931771 ], [ 104.6782878, 10.6185879 ], [ 104.7120193, 10.616138 ], [ 104.7156457, 10.6051685 ], [ 104.7107331, 10.5808093 ], [ 104.7165903, 10.5763808 ], [ 104.7156243, 10.5458457 ], [ 104.7220734, 10.5356779 ], [ 104.7219735, 10.5308945 ], [ 104.7204761, 10.5308435 ], [ 104.719511, 10.5304571 ], [ 104.7191072, 10.5301094 ], [ 104.7185118, 10.5303012 ], [ 104.6946398, 10.537991 ], [ 104.6467281, 10.5407694 ], [ 104.6076618, 10.532095 ], [ 104.6032035, 10.5325829 ], [ 104.5589848, 10.4938817 ], [ 104.5528612, 10.4581605 ], [ 104.5421449, 10.4484648 ], [ 104.4995347, 10.4050891 ], [ 104.4969831, 10.4050891 ], [ 104.4877977, 10.4214188 ], [ 104.4808983, 10.4275919 ], [ 104.478102, 10.4300939 ], [ 104.4454602, 10.4260933 ], [ 104.4386115, 10.4245465 ], [ 104.4195267, 10.4424378 ], [ 104.4082201, 10.4696089 ], [ 104.4176565, 10.5154199 ], [ 104.3887462, 10.5395731 ], [ 104.3831097, 10.5720965 ], [ 104.2967478, 10.5733058 ], [ 104.2693994, 10.545574 ], [ 104.2443027, 10.5711887 ], [ 104.1825104, 10.5397825 ], [ 104.145624, 10.5631794 ], [ 104.1012491, 10.5464816 ], [ 104.0482139, 10.5491652 ], [ 103.9232647, 10.6025322 ], [ 103.9566007, 10.620596 ], [ 103.9655701, 10.695949 ], [ 103.9283459, 10.7443318 ], [ 103.9492913, 10.8197528 ], [ 103.9216286, 10.8735468 ], [ 103.9374742, 10.9388003 ], [ 103.919954, 10.9502708 ], [ 103.9996537, 11.0172344 ], [ 104.0248444, 11.0069952 ], [ 104.0771631, 11.0258142 ], [ 104.0746993, 11.1429953 ], [ 104.0569225, 11.1678144 ], [ 104.078515, 11.1693149 ], [ 104.1657941, 11.1429797 ], [ 104.1968137, 11.0997082 ], [ 104.2499728, 11.0899418 ], [ 104.3162908, 11.1016478 ], [ 104.3449495, 11.1370146 ], [ 104.4141274, 11.1347022 ] ] ] ] } },
{ "type": "Feature", "properties": { "POLYGON_ID": "KHM_GAUL1993_ADM1_798", "ADM0_ISO3": "KHM", "ADM0_NAME": "Cambodia", "ADM0_CODE": 44, "ADM1_NAME": "Kandal", "ADM1_CODE": 798, "GEOSET": "GAUL", "GEOSET_YEAR": 1993.0, "GEOSET_VERSION": "GAUL_v1", "GEOSET_UNIT": "ADM1", "CENTROID_LONG": 105.00720226812335, "CENTROID_LAT": 11.433564792961317 }, "geometry": { "type": "MultiPolygon", "coordinates": [ [ [ [ 105.1640854, 11.7325927 ], [ 105.1383467, 11.6971319 ], [ 105.1149822, 11.638715 ], [ 105.1163293, 11.569437 ], [ 105.132216, 11.5324744 ], [ 105.2013843, 11.5193621 ], [ 105.2404272, 11.4600718 ], [ 105.3009991, 11.4211112 ], [ 105.2593643, 11.3876074 ], [ 105.2787845, 11.3125083 ], [ 105.2849168, 11.2487916 ], [ 105.2499312, 11.1860817 ], [ 105.2379833, 11.127276 ], [ 105.1981695, 11.0847884 ], [ 105.2007504, 11.0245621 ], [ 105.1875471, 10.9495633 ], [ 105.1934274, 10.909158 ], [ 105.1852669, 10.9091253 ], [ 105.1807821, 10.9091074 ], [ 105.1661984, 10.9182444 ], [ 105.1344273, 10.9232164 ], [ 105.1339433, 10.9231891 ], [ 105.1094457, 10.9191073 ], [ 105.1020154, 10.9221401 ], [ 105.1170719, 10.9550974 ], [ 105.1171791, 10.9603526 ], [ 105.093827, 10.954742 ], [ 105.0829092, 10.9568649 ], [ 105.0812302, 10.9571141 ], [ 105.0791183, 10.9538322 ], [ 105.0786633, 10.9365456 ], [ 105.0773068, 10.9353817 ], [ 105.0678971, 10.9379103 ], [ 105.0393559, 10.8973581 ], [ 105.0390683, 10.8972523 ], [ 105.0464202, 10.9242296 ], [ 105.0335567, 10.9887209 ], [ 104.9944307, 11.0038849 ], [ 105.0217005, 11.0977397 ], [ 105.0214358, 11.1701845 ], [ 104.9903988, 11.1707463 ], [ 104.9843594, 11.2181129 ], [ 104.9419525, 11.2411288 ], [ 104.9308393, 11.2658976 ], [ 104.9430969, 11.3236891 ], [ 104.8943638, 11.3467779 ], [ 104.8387895, 11.3390623 ], [ 104.8043756, 11.350119 ], [ 104.758688, 11.3338358 ], [ 104.7366756, 11.3478823 ], [ 104.7962385, 11.4172247 ], [ 104.7232031, 11.4357801 ], [ 104.6816022, 11.4187166 ], [ 104.659366, 11.4335299 ], [ 104.682782, 11.558786 ], [ 104.6809921, 11.592184 ], [ 104.7054331, 11.6824382 ], [ 104.7548567, 11.7974894 ], [ 104.7403603, 11.8233633 ], [ 104.7862, 11.8362015 ], [ 104.7678013, 11.8780364 ], [ 104.8250909, 11.8833421 ], [ 104.8350264, 11.8234477 ], [ 104.9078398, 11.805336 ], [ 104.995106, 11.8772127 ], [ 105.042786, 11.8470366 ], [ 105.0561729, 11.7972189 ], [ 105.0527891, 11.750535 ], [ 105.1640854, 11.7325927 ] ], [ [ 104.9033452, 11.6801584 ], [ 104.8462054, 11.636788 ], [ 104.8090043, 11.6482665 ], [ 104.7937968, 11.6153137 ], [ 104.7962918, 11.4992169 ], [ 104.7848214, 11.4530748 ], [ 104.8144634, 11.4270831 ], [ 104.8865142, 11.474384 ], [ 104.9690929, 11.5019391 ], [ 104.9658579, 11.5497608 ], [ 104.9226221, 11.6522941 ], [ 104.9033452, 11.6801584 ] ] ] ] } },
{ "type": "Feature", "properties": { "POLYGON_ID": "KHM_GAUL1993_ADM1_800", "ADM0_ISO3": "KHM", "ADM0_NAME": "Cambodia", "ADM0_CODE": 44, "ADM1_NAME": "Kep", "ADM1_CODE": 800, "GEOSET": "GAUL", "GEOSET_YEAR": 1993.0, "GEOSET_VERSION": "GAUL_v1", "GEOSET_UNIT": "ADM1", "CENTROID_LONG": 104.34773949337256, "CENTROID_LAT": 10.520156715489046 }, "geometry": { "type": "MultiPolygon", "coordinates": [ [ [ [ 104.4195267, 10.4424378 ], [ 104.3893301, 10.4520578 ], [ 104.3453285, 10.4962277 ], [ 104.300958, 10.4751986 ], [ 104.2693994, 10.545574 ], [ 104.2967478, 10.5733058 ], [ 104.3831097, 10.5720965 ], [ 104.3887462, 10.5395731 ], [ 104.4176565, 10.5154199 ], [ 104.4082201, 10.4696089 ], [ 104.4195267, 10.4424378 ] ] ] ] } },
{ "type": "Feature", "properties": { "POLYGON_ID": "KHM_GAUL1993_ADM1_799", "ADM0_ISO3": "KHM", "ADM0_NAME": "Cambodia", "ADM0_CODE": 44, "ADM1_NAME": "Koh Kong", "ADM1_CODE": 799, "GEOSET": "GAUL", "GEOSET_YEAR": 1993.0, "GEOSET_VERSION": "GAUL_v1", "GEOSET_UNIT": "ADM1", "CENTROID_LONG": 103.4614708142998, "CENTROID_LAT": 11.479040619787881 }, "geometry": { "type": "MultiPolygon", "coordinates": [ [ [ [ 103.86152, 11.8403565 ], [ 103.7845571, 11.8296673 ], [ 103.7953314, 11.783221 ], [ 103.7775684, 11.7185393 ], [ 103.8035151, 11.6830245 ], [ 103.7988397, 11.6200109 ], [ 103.9092273, 11.552864 ], [ 103.9418729, 11.5133764 ], [ 104.0061182, 11.5268727 ], [ 104.0619384, 11.483491 ], [ 104.0671874, 11.4526624 ], [ 104.0450244, 11.4300488 ], [ 104.0657845, 11.3664872 ], [ 104.0438348, 11.3210363 ], [ 104.0538343, 11.263774 ], [ 104.0321679, 11.2304329 ], [ 104.0569225, 11.1678144 ], [ 104.0746993, 11.1429953 ], [ 104.0771631, 11.0258142 ], [ 104.0248444, 11.0069952 ], [ 103.9996537, 11.0172344 ], [ 103.919954, 10.9502708 ], [ 103.8207702, 10.8990123 ], [ 103.7907226, 10.9130598 ], [ 103.7772044, 10.8736522 ], [ 103.7477637, 10.8665367 ], [ 103.705446, 10.9032016 ], [ 103.6578574, 10.9974876 ], [ 103.6686491, 11.0626159 ], [ 103.6332421, 11.0871136 ], [ 103.5924031, 11.0930036 ], [ 103.5503544, 11.1672276 ], [ 103.503963, 11.1665408 ], [ 103.4631531, 11.1204664 ], [ 103.4667524, 11.0871159 ], [ 103.4106243, 10.9566201 ], [ 103.4247745, 10.8915618 ], [ 103.3589178, 10.8738443 ], [ 103.2886399, 10.9207589 ], [ 103.2444526, 10.9178714 ], [ 103.2113744, 10.8812187 ], [ 103.1719491, 10.8596606 ], [ 103.0986382, 10.9153377 ], [ 103.1074457, 10.9625138 ], [ 103.0965093, 11.0754331 ], [ 103.1172489, 11.0994105 ], [ 103.0944675, 11.19305 ], [ 103.0653204, 11.2543132 ], [ 103.1227486, 11.3175667 ], [ 103.091111, 11.3585226 ], [ 103.0854042, 11.3953445 ], [ 103.0562746, 11.449724 ], [ 103.0138577, 11.4585972 ], [ 102.9672106, 11.5252083 ], [ 102.9389678, 11.6028015 ], [ 102.910947, 11.6472083 ], [ 102.9148436, 11.649026 ], [ 102.9177008, 11.6593565 ], [ 102.9165776, 11.6894387 ], [ 102.9159575, 11.6935022 ], [ 102.9156239, 11.6976734 ], [ 102.9163842, 11.7152636 ], [ 102.90131, 11.77924 ], [ 102.89419, 11.78468 ], [ 102.88964, 11.79076 ], [ 102.8896225, 11.792423 ], [ 102.8895569, 11.7983612 ], [ 102.8676073, 11.821381 ], [ 102.85996, 11.82407 ], [ 102.8555857, 11.827077 ], [ 102.85305, 11.82882 ], [ 102.8505, 11.83514 ], [ 102.84172, 11.85691 ], [ 102.82687, 11.90695 ], [ 102.8205, 11.91583 ], [ 102.8193077, 11.9194611 ], [ 102.81852, 11.92186 ], [ 102.81795, 11.92808 ], [ 102.81665, 11.93294 ], [ 102.8066171, 11.9452191 ], [ 102.80179, 11.96042 ], [ 102.79011, 11.97217 ], [ 102.78272, 11.98821 ], [ 102.78201, 11.99896 ], [ 102.78468, 12.01556 ], [ 102.7833371, 12.0190383 ], [ 102.8015176, 12.0106756 ], [ 102.9764421, 11.9993759 ], [ 103.1125905, 11.9460725 ], [ 103.1639156, 11.9407484 ], [ 103.3234383, 12.0060182 ], [ 103.3674947, 12.0282718 ], [ 103.3681729, 12.0584266 ], [ 103.3957, 12.1051203 ], [ 103.437223, 12.083803 ], [ 103.4795662, 12.112984 ], [ 103.5728339, 12.0632231 ], [ 103.632385, 11.9905215 ], [ 103.725706, 11.9248309 ], [ 103.7928175, 11.9284992 ], [ 103.86152, 11.8403565 ] ] ], [ [ [ 102.9829951, 11.4176775 ], [ 103.0140839, 11.4189014 ], [ 103.0350131, 11.3746473 ], [ 103.0430252, 11.2937662 ], [ 103.0167211, 11.2421998 ], [ 102.9920389, 11.2600731 ], [ 102.9905798, 11.318017 ], [ 102.9704546, 11.3946457 ], [ 102.9829951, 11.4176775 ] ] ] ] } },
{ "type": "Feature", "properties": { "POLYGON_ID": "KHM_GAUL1993_ADM1_801", "ADM0_ISO3": "KHM", "ADM0_NAME": "Cambodia", "ADM0_CODE": 44, "ADM1_NAME": "Kratie", "ADM1_CODE": 801, "GEOSET": "GAUL", "GEOSET_YEAR": 1993.0, "GEOSET_VERSION": "GAUL_v1", "GEOSET_UNIT": "ADM1", "CENTROID_LONG": 106.17209919262828, "CENTROID_LAT": 12.62582607075173 }, "geometry": { "type": "MultiPolygon", "coordinates": [ [ [ [ 106.3537666, 13.3975297 ], [ 106.360873, 13.3384016 ], [ 106.3496727, 13.2926602 ], [ 106.3760849, 13.2300284 ], [ 106.4283219, 13.1912255 ], [ 106.4193468, 13.1657544 ], [ 106.3579297, 13.1706111 ], [ 106.3424369, 13.1320055 ], [ 106.3481059, 13.0961635 ], [ 106.3827564, 13.0538535 ], [ 106.4471088, 13.0073383 ], [ 106.4656033, 13.0103994 ], [ 106.5795948, 12.9442975 ], [ 106.614112, 12.9106026 ], [ 106.6115558, 12.8486782 ], [ 106.5459343, 12.784196 ], [ 106.5060182, 12.7750174 ], [ 106.4357402, 12.7196236 ], [ 106.4069271, 12.6727169 ], [ 106.4005091, 12.6312538 ], [ 106.3626187, 12.5294599 ], [ 106.5000827, 12.4366214 ], [ 106.5716503, 12.402357 ], [ 106.6129706, 12.3108728 ], [ 106.70755, 12.2846586 ], [ 106.7499637, 12.2618003 ], [ 106.8058214, 12.1879015 ], [ 106.794977, 12.1092328 ], [ 106.8020897, 12.080406 ], [ 106.8017386, 12.0806868 ], [ 106.776655, 12.0702353 ], [ 106.7514123, 12.0216662 ], [ 106.7487619, 12.0121711 ], [ 106.7426616, 11.9924407 ], [ 106.743588, 11.9912055 ], [ 106.7378742, 11.9814425 ], [ 106.7333751, 11.9815325 ], [ 106.6906244, 11.9633836 ], [ 106.6837393, 11.965011 ], [ 106.678732, 11.9727724 ], [ 106.675978, 11.9782179 ], [ 106.6754016, 11.9781094 ], [ 106.6706577, 11.9772164 ], [ 106.6637726, 11.9832878 ], [ 106.6607682, 11.9870433 ], [ 106.6537579, 11.9713954 ], [ 106.6585937, 11.9687829 ], [ 106.6592034, 11.9684536 ], [ 106.6600171, 11.9660125 ], [ 106.6531673, 11.9640274 ], [ 106.6478743, 11.9636966 ], [ 106.643382, 11.9672744 ], [ 106.6416777, 11.9695802 ], [ 106.6351056, 11.9686414 ], [ 106.6355437, 11.9613181 ], [ 106.6350838, 11.961302 ], [ 106.631976, 11.9611929 ], [ 106.6317882, 11.9688917 ], [ 106.6313131, 11.9712674 ], [ 106.5358914, 11.9697509 ], [ 106.5305443, 11.9694714 ], [ 106.5321104, 11.9731741 ], [ 106.5342667, 11.9756754 ], [ 106.4719064, 11.9722195 ], [ 106.4677191, 11.9755304 ], [ 106.4651354, 11.9814918 ], [ 106.4551573, 11.9885791 ], [ 106.4170438, 11.9726019 ], [ 106.413554, 11.9725957 ], [ 106.4047556, 11.9749433 ], [ 106.4025931, 11.971053 ], [ 106.3893067, 11.9566388 ], [ 106.3568693, 11.9465302 ], [ 106.3086404, 11.9605106 ], [ 106.2836563, 11.951787 ], [ 106.1819941, 11.9501912 ], [ 106.176937, 12.0318772 ], [ 106.1398666, 12.0434381 ], [ 106.1144974, 12.073165 ], [ 106.0864101, 12.0660607 ], [ 106.0447056, 12.0933846 ], [ 106.0638716, 12.128053 ], [ 105.9769169, 12.1942492 ], [ 105.9256505, 12.2124709 ], [ 105.8468527, 12.2024626 ], [ 105.8187354, 12.257167 ], [ 105.7446278, 12.2569767 ], [ 105.7249256, 12.2750509 ], [ 105.7752083, 12.3138596 ], [ 105.7720702, 12.3985483 ], [ 105.7384105, 12.4968403 ], [ 105.7211019, 12.5931771 ], [ 105.7264886, 12.6356174 ], [ 105.7010402, 12.7450952 ], [ 105.680119, 12.7768454 ], [ 105.6753417, 12.8251785 ], [ 105.694158, 12.8625654 ], [ 105.6591542, 12.9213783 ], [ 105.681846, 12.9490728 ], [ 105.6538319, 12.9971247 ], [ 105.634823, 13.0559767 ], [ 105.6515444, 13.0998754 ], [ 105.608522, 13.1494106 ], [ 105.5928799, 13.227412 ], [ 105.6701902, 13.2023396 ], [ 105.7077453, 13.1994344 ], [ 105.8148037, 13.1242852 ], [ 105.8615147, 13.1107661 ], [ 105.9493722, 13.1475231 ], [ 105.9700976, 13.22608 ], [ 106.0097737, 13.2119089 ], [ 106.0290283, 13.2553601 ], [ 106.1068595, 13.3603933 ], [ 106.1689343, 13.366522 ], [ 106.2222742, 13.3573944 ], [ 106.2695237, 13.402936 ], [ 106.3537666, 13.3975297 ] ] ] ] } },
{ "type": "Feature", "properties": { "POLYGON_ID": "KHM_GAUL1993_ADM1_803", "ADM0_ISO3": "KHM", "ADM0_NAME": "Cambodia", "ADM0_CODE": 44, "ADM1_NAME": "Mondul Kiri", "ADM1_CODE": 803, "GEOSET": "GAUL", "GEOSET_YEAR": 1993.0, "GEOSET_VERSION": "GAUL_v1", "GEOSET_UNIT": "ADM1", "CENTROID_LONG": 106.99337428136874, "CENTROID_LAT": 12.765381612948353 }, "geometry": { "type": "MultiPolygon", "coordinates": [ [ [ [ 106.6119632, 13.3198862 ], [ 106.7497683, 13.2245846 ], [ 106.7788791, 13.1971107 ], [ 106.8639253, 13.1728559 ], [ 106.9370835, 13.1709254 ], [ 107.035937, 13.1817253 ], [ 107.0879758, 13.2020485 ], [ 107.0941956, 13.2700447 ], [ 107.1367903, 13.326518 ], [ 107.192466, 13.3046727 ], [ 107.2738469, 13.3552677 ], [ 107.2948357, 13.3071256 ], [ 107.3395224, 13.3129933 ], [ 107.3732266, 13.2736019 ], [ 107.4721382, 13.3308355 ], [ 107.5049367, 13.2936972 ], [ 107.568655, 13.2805624 ], [ 107.5874323, 13.3015168 ], [ 107.5995595, 13.302389 ], [ 107.6030342, 13.2987714 ], [ 107.604474, 13.2988526 ], [ 107.6061214, 13.2993597 ], [ 107.6068852, 13.2996616 ], [ 107.5554403, 13.1809025 ], [ 107.535005, 13.128586 ], [ 107.5176434, 13.0841389 ], [ 107.4942232, 13.0218133 ], [ 107.4935261, 13.0121259 ], [ 107.4912466, 13.0017051 ], [ 107.4958226, 12.9994171 ], [ 107.4990621, 12.9977973 ], [ 107.4985074, 12.9947252 ], [ 107.5003647, 12.9792354 ], [ 107.5045981, 12.9769559 ], [ 107.504761, 12.9753276 ], [ 107.4886414, 12.9422743 ], [ 107.4916187, 12.939297 ], [ 107.4935261, 12.9373896 ], [ 107.5028071, 12.9162225 ], [ 107.5016102, 12.9142477 ], [ 107.4962421, 12.9067648 ], [ 107.4918979, 12.8988003 ], [ 107.4920607, 12.8952181 ], [ 107.4968309, 12.8931944 ], [ 107.4974339, 12.8929386 ], [ 107.4979071, 12.8886321 ], [ 107.4990621, 12.8781216 ], [ 107.5072033, 12.8698176 ], [ 107.5120881, 12.8699804 ], [ 107.5137391, 12.8655775 ], [ 107.5120881, 12.8566288 ], [ 107.519004, 12.8552703 ], [ 107.5233229, 12.8530467 ], [ 107.5259281, 12.8488133 ], [ 107.5273935, 12.8398579 ], [ 107.5309701, 12.8395328 ], [ 107.5418849, 12.8348104 ], [ 107.5436784, 12.8292863 ], [ 107.5459555, 12.8222729 ], [ 107.5494164, 12.823064 ], [ 107.5522125, 12.8200403 ], [ 107.5531197, 12.8142946 ], [ 107.5529569, 12.806479 ], [ 107.557516, 12.8046879 ], [ 107.560925, 12.7958595 ], [ 107.5626813, 12.7499769 ], [ 107.5650059, 12.7467225 ], [ 107.5647547, 12.7436584 ], [ 107.5663214, 12.7346607 ], [ 107.5680995, 12.7328825 ], [ 107.568588, 12.7279978 ], [ 107.5632148, 12.7042255 ], [ 107.566436, 12.7028905 ], [ 107.568558, 12.7020111 ], [ 107.570166, 12.6955317 ], [ 107.5796545, 12.6835894 ], [ 107.5827732, 12.6795279 ], [ 107.5797874, 12.6778692 ], [ 107.5750854, 12.6262936 ], [ 107.5779959, 12.6243346 ], [ 107.5788568, 12.6237552 ], [ 107.584949, 12.6146169 ], [ 107.5770241, 12.5403492 ], [ 107.5779698, 12.5347931 ], [ 107.5709307, 12.5039665 ], [ 107.5749601, 12.500765 ], [ 107.5797903, 12.4969274 ], [ 107.5810039, 12.4940147 ], [ 107.5711734, 12.4716836 ], [ 107.5701839, 12.4649884 ], [ 107.5689488, 12.4566317 ], [ 107.5559762, 12.4218671 ], [ 107.5541339, 12.417031 ], [ 107.5499887, 12.4147282 ], [ 107.5467647, 12.4133465 ], [ 107.5492979, 12.4022927 ], [ 107.5503897, 12.3985623 ], [ 107.5520613, 12.392851 ], [ 107.555055, 12.3781126 ], [ 107.5455865, 12.3524737 ], [ 107.467993, 12.3092788 ], [ 107.4208261, 12.2446887 ], [ 107.4167875, 12.2392617 ], [ 107.413558, 12.2467769 ], [ 107.4106632, 12.2500852 ], [ 107.4081217, 12.2508554 ], [ 107.4029441, 12.2524243 ], [ 107.3652098, 12.3168537 ], [ 107.355109, 12.3214264 ], [ 107.3497567, 12.3258047 ], [ 107.3487404, 12.3336518 ], [ 107.3195894, 12.3216006 ], [ 107.3135637, 12.3206235 ], [ 107.3138894, 12.3308833 ], [ 107.2982554, 12.3284405 ], [ 107.2865208, 12.3234548 ], [ 107.2238967, 12.295075 ], [ 107.2211433, 12.2951733 ], [ 107.2195208, 12.2966484 ], [ 107.2054745, 12.2992847 ], [ 107.1523227, 12.2760675 ], [ 107.1498209, 12.2669359 ], [ 107.1395635, 12.2377901 ], [ 107.1404392, 12.2330367 ], [ 107.1205499, 12.2197772 ], [ 107.1152962, 12.2162747 ], [ 107.1124191, 12.2186514 ], [ 107.09278, 12.1812496 ], [ 107.0884019, 12.1828758 ], [ 107.0877765, 12.1866284 ], [ 107.0700138, 12.1771216 ], [ 107.0750173, 12.1754955 ], [ 107.076639, 12.1736975 ], [ 107.0807715, 12.1691159 ], [ 107.0778944, 12.1657385 ], [ 107.0701388, 12.1597342 ], [ 107.0635091, 12.1579829 ], [ 107.0596313, 12.1549808 ], [ 106.9838823, 12.0881072 ], [ 106.9313341, 12.0647625 ], [ 106.9143453, 12.0622787 ], [ 106.9055795, 12.0679427 ], [ 106.8974206, 12.0654478 ], [ 106.8856205, 12.0654478 ], [ 106.8615874, 12.0636732 ], [ 106.8599974, 12.066257 ], [ 106.848467, 12.070033 ], [ 106.8469836, 12.0727302 ], [ 106.8057844, 12.0787988 ], [ 106.8027501, 12.0798777 ], [ 106.8027222, 12.0798999 ], [ 106.8020897, 12.080406 ], [ 106.794977, 12.1092328 ], [ 106.8058214, 12.1879015 ], [ 106.7499637, 12.2618003 ], [ 106.70755, 12.2846586 ], [ 106.6129706, 12.3108728 ], [ 106.5716503, 12.402357 ], [ 106.5000827, 12.4366214 ], [ 106.3626187, 12.5294599 ], [ 106.4005091, 12.6312538 ], [ 106.4069271, 12.6727169 ], [ 106.4357402, 12.7196236 ], [ 106.5060182, 12.7750174 ], [ 106.5459343, 12.784196 ], [ 106.6115558, 12.8486782 ], [ 106.614112, 12.9106026 ], [ 106.5795948, 12.9442975 ], [ 106.4656033, 13.0103994 ], [ 106.4471088, 13.0073383 ], [ 106.3827564, 13.0538535 ], [ 106.3481059, 13.0961635 ], [ 106.3424369, 13.1320055 ], [ 106.3579297, 13.1706111 ], [ 106.4193468, 13.1657544 ], [ 106.4283219, 13.1912255 ], [ 106.3760849, 13.2300284 ], [ 106.3496727, 13.2926602 ], [ 106.360873, 13.3384016 ], [ 106.3537666, 13.3975297 ], [ 106.4220147, 13.4145689 ], [ 106.5011271, 13.3711518 ], [ 106.5148568, 13.3529794 ], [ 106.5610698, 13.3479994 ], [ 106.6119632, 13.3198862 ] ] ] ] } },
{ "type": "Feature", "properties": { "POLYGON_ID": "KHM_GAUL1993_ADM1_806", "ADM0_ISO3": "KHM", "ADM0_NAME": "Cambodia", "ADM0_CODE": 44, "ADM1_NAME": "Phnom Penh", "ADM1_CODE": 806, "GEOSET": "GAUL", "GEOSET_YEAR": 1993.0, "GEOSET_VERSION": "GAUL_v1", "GEOSET_UNIT": "ADM1", "CENTROID_LONG": 104.87021550425001, "CENTROID_LAT": 11.552931536864484 }, "geometry": { "type": "MultiPolygon", "coordinates": [ [ [ [ 104.9033452, 11.6801584 ], [ 104.9226221, 11.6522941 ], [ 104.9658579, 11.5497608 ], [ 104.9690929, 11.5019391 ], [ 104.8865142, 11.474384 ], [ 104.8144634, 11.4270831 ], [ 104.7848214, 11.4530748 ], [ 104.7962918, 11.4992169 ], [ 104.7937968, 11.6153137 ], [ 104.8090043, 11.6482665 ], [ 104.8462054, 11.636788 ], [ 104.9033452, 11.6801584 ] ] ] ] } },
{ "type": "Feature", "properties": { "POLYGON_ID": "KHM_GAUL1993_ADM1_802", "ADM0_ISO3": "KHM", "ADM0_NAME": "Cambodia", "ADM0_CODE": 44, "ADM1_NAME": "Preah Sihanouk", "ADM1_CODE": 802, "GEOSET": "GAUL", "GEOSET_YEAR": 1993.0, "GEOSET_VERSION": "GAUL_v1", "GEOSET_UNIT": "ADM1", "CENTROID_LONG": 103.73006844748902, "CENTROID_LAT": 10.69719388259546 }, "geometry": { "type": "MultiPolygon", "coordinates": [ [ [ [ 103.9232647, 10.6025322 ], [ 103.9046101, 10.6477761 ], [ 103.8537992, 10.652411 ], [ 103.8668188, 10.6181888 ], [ 103.8034292, 10.521753 ], [ 103.736968, 10.5292938 ], [ 103.7271641, 10.4976621 ], [ 103.6835111, 10.5089377 ], [ 103.643502, 10.4888148 ], [ 103.6083527, 10.5028829 ], [ 103.6152241, 10.5315374 ], [ 103.5897855, 10.5596822 ], [ 103.5640191, 10.5475937 ], [ 103.5239701, 10.6049769 ], [ 103.4906855, 10.6227082 ], [ 103.543037, 10.6855296 ], [ 103.5515293, 10.7183602 ], [ 103.5800427, 10.7414729 ], [ 103.6636442, 10.7496425 ], [ 103.6708038, 10.7991235 ], [ 103.7126379, 10.8507015 ], [ 103.705446, 10.9032016 ], [ 103.7477637, 10.8665367 ], [ 103.7772044, 10.8736522 ], [ 103.7907226, 10.9130598 ], [ 103.8207702, 10.8990123 ], [ 103.919954, 10.9502708 ], [ 103.9374742, 10.9388003 ], [ 103.9216286, 10.8735468 ], [ 103.9492913, 10.8197528 ], [ 103.9283459, 10.7443318 ], [ 103.9655701, 10.695949 ], [ 103.9566007, 10.620596 ], [ 103.9232647, 10.6025322 ] ] ], [ [ [ 103.7484336, 10.5201777 ], [ 103.7959089, 10.5011913 ], [ 103.7978401, 10.4570488 ], [ 103.7692857, 10.4425623 ], [ 103.7444996, 10.4767394 ], [ 103.7484336, 10.5201777 ] ] ], [ [ [ 103.2326639, 10.7800233 ], [ 103.2898473, 10.7222392 ], [ 103.299037, 10.6821062 ], [ 103.2670386, 10.6506214 ], [ 103.2441658, 10.7046292 ], [ 103.2116346, 10.7038639 ], [ 103.1949421, 10.7707509 ], [ 103.2326639, 10.7800233 ] ] ] ] } },
{ "type": "Feature", "properties": { "POLYGON_ID": "KHM_GAUL1993_ADM1_807", "ADM0_ISO3": "KHM", "ADM0_NAME": "Cambodia", "ADM0_CODE": 44, "ADM1_NAME": "Preah Vihear", "ADM1_CODE": 807, "GEOSET": "GAUL", "GEOSET_YEAR": 1993.0, "GEOSET_VERSION": "GAUL_v1", "GEOSET_UNIT": "ADM1", "CENTROID_LONG": 105.0097976551186, "CENTROID_LAT": 13.79573809418045 }, "geometry": { "type": "MultiPolygon", "coordinates": [ [ [ [ 104.86019, 14.40792 ], [ 104.87706, 14.41573 ], [ 104.8926859, 14.4066853 ], [ 104.8999, 14.40108 ], [ 104.9123608, 14.3958528 ], [ 104.9378367, 14.3850982 ], [ 104.94901, 14.38033 ], [ 104.957633, 14.3800628 ], [ 104.97887, 14.386 ], [ 104.99198, 14.3756 ], [ 104.99807, 14.37303 ], [ 105.0, 14.36957 ], [ 105.00081, 14.36812 ], [ 105.0, 14.34514 ], [ 104.9983384, 14.339661 ], [ 104.9974197, 14.3080072 ], [ 104.99788, 14.30576 ], [ 105.0, 14.30246 ], [ 105.00509, 14.2955 ], [ 105.01355, 14.27974 ], [ 105.01766, 14.27198 ], [ 105.02414, 14.26332 ], [ 105.0244836, 14.2609358 ], [ 105.02596, 14.25069 ], [ 105.0263803, 14.2430237 ], [ 105.02659, 14.2392 ], [ 105.0292869, 14.2338127 ], [ 105.0519, 14.21422 ], [ 105.07177, 14.20826 ], [ 105.08592, 14.20729 ], [ 105.0979393, 14.2076557 ], [ 105.09841, 14.20767 ], [ 105.12045, 14.21599 ], [ 105.13867, 14.22794 ], [ 105.15472, 14.24447 ], [ 105.15842, 14.2498 ], [ 105.1560458, 14.2523339 ], [ 105.15054, 14.25821 ], [ 105.15834, 14.27441 ], [ 105.16174, 14.28457 ], [ 105.1640081, 14.2896007 ], [ 105.16518, 14.2922 ], [ 105.17868, 14.30569 ], [ 105.1809386, 14.3133141 ], [ 105.1801645, 14.315612 ], [ 105.17554, 14.32934 ], [ 105.2000703, 14.3427087 ], [ 105.2096313, 14.2909441 ], [ 105.2501961, 14.2304802 ], [ 105.254444, 14.2287224 ], [ 105.2557639, 14.2265626 ], [ 105.2610099, 14.2066937 ], [ 105.2635035, 14.2065237 ], [ 105.2679465, 14.1977606 ], [ 105.2705534, 14.192619 ], [ 105.2711136, 14.1842157 ], [ 105.2735339, 14.1817954 ], [ 105.2806373, 14.174692 ], [ 105.3228401, 14.1617663 ], [ 105.327015, 14.1524622 ], [ 105.3270398, 14.1524068 ], [ 105.32494, 14.1456872 ], [ 105.3291695, 14.1423809 ], [ 105.3344184, 14.1382778 ], [ 105.334858, 14.1378022 ], [ 105.3409206, 14.1312447 ], [ 105.3618691, 14.1085861 ], [ 105.3730724, 14.1022046 ], [ 105.3797177, 14.1027718 ], [ 105.3872803, 14.1043943 ], [ 105.3896268, 14.100479 ], [ 105.3900859, 14.0997129 ], [ 105.3979609, 14.0995282 ], [ 105.4024033, 14.1051702 ], [ 105.4103269, 14.1089922 ], [ 105.4174535, 14.1079002 ], [ 105.4222812, 14.1054288 ], [ 105.4358958, 14.1102573 ], [ 105.4381565, 14.1054573 ], [ 105.4390632, 14.1035322 ], [ 105.4452881, 14.1036849 ], [ 105.4470356, 14.1037277 ], [ 105.4548108, 14.1019805 ], [ 105.5563079, 14.1605682 ], [ 105.5684005, 14.1549458 ], [ 105.5719256, 14.1508406 ], [ 105.5759223, 14.1436371 ], [ 105.5873201, 14.1375433 ], [ 105.5895066, 14.1379895 ], [ 105.589462, 14.1402652 ], [ 105.5854014, 14.1439688 ], [ 105.6085155, 14.144415 ], [ 105.6086604, 14.1401596 ], [ 105.6168598, 14.1259862 ], [ 105.6179754, 14.1265663 ], [ 105.6332807, 14.127191 ], [ 105.6357795, 14.1187128 ], [ 105.6324329, 14.108896 ], [ 105.6454178, 14.0972497 ], [ 105.648113, 14.0978297 ], [ 105.6611294, 14.1123128 ], [ 105.6614817, 14.1144738 ], [ 105.6597408, 14.1150741 ], [ 105.6563056, 14.1162586 ], [ 105.6594737, 14.1199622 ], [ 105.6649735, 14.1151291 ], [ 105.6656861, 14.1146723 ], [ 105.6825432, 14.1087175 ], [ 105.6862106, 14.1015138 ], [ 105.6880377, 14.1003425 ], [ 105.6991164, 14.0939191 ], [ 105.7006435, 14.0903095 ], [ 105.703945, 14.0872925 ], [ 105.7092196, 14.0887576 ], [ 105.7282179, 14.1075364 ], [ 105.7319722, 14.1019988 ], [ 105.7370033, 14.094578 ], [ 105.7398586, 14.094578 ], [ 105.7845769, 14.0845418 ], [ 105.7860714, 14.07569 ], [ 105.7822016, 14.0454718 ], [ 105.7880728, 14.0250063 ], [ 105.8434301, 13.9785398 ], [ 105.8546693, 13.975017 ], [ 105.8576888, 13.9701523 ], [ 105.8706055, 13.9651198 ], [ 105.8786575, 13.9567323 ], [ 105.8813339, 13.9557058 ], [ 105.8909032, 13.9520354 ], [ 105.8945937, 13.9471706 ], [ 105.8961762, 13.9415 ], [ 105.8987874, 13.9374412 ], [ 105.9028221, 13.9347868 ], [ 105.9033614, 13.934432 ], [ 105.9033777, 13.9344212 ], [ 105.8811273, 13.9204005 ], [ 105.7153218, 13.913882 ], [ 105.716188, 13.8647833 ], [ 105.6697426, 13.8723119 ], [ 105.6233813, 13.8540401 ], [ 105.5848747, 13.8850636 ], [ 105.5321866, 13.8499709 ], [ 105.5282638, 13.7622435 ], [ 105.568613, 13.7055125 ], [ 105.5810161, 13.6497962 ], [ 105.5663999, 13.5402591 ], [ 105.5701009, 13.4871631 ], [ 105.5415045, 13.4466229 ], [ 105.4445139, 13.3953045 ], [ 105.3639984, 13.3614592 ], [ 105.2826824, 13.2712928 ], [ 105.1933488, 13.2245169 ], [ 105.1620698, 13.1738179 ], [ 104.9809275, 13.0532689 ], [ 104.9564291, 13.0555153 ], [ 104.912461, 13.1052015 ], [ 104.8816302, 13.1651529 ], [ 104.8788977, 13.2165067 ], [ 104.9065205, 13.2792553 ], [ 104.8975747, 13.3041176 ], [ 104.7801698, 13.2990608 ], [ 104.7163403, 13.3040512 ], [ 104.6194241, 13.2579228 ], [ 104.5687336, 13.2484291 ], [ 104.5709882, 13.3597524 ], [ 104.6052687, 13.4173903 ], [ 104.6383647, 13.4409871 ], [ 104.6538066, 13.4920251 ], [ 104.6029306, 13.5199285 ], [ 104.5560773, 13.522836 ], [ 104.5378217, 13.5415223 ], [ 104.4140436, 13.5528648 ], [ 104.4060781, 13.5949303 ], [ 104.4442569, 13.6512352 ], [ 104.4322457, 13.7181368 ], [ 104.3742279, 13.8364314 ], [ 104.4301796, 13.9330177 ], [ 104.4214069, 13.9921597 ], [ 104.4404083, 14.0634939 ], [ 104.5124525, 14.1418443 ], [ 104.4659164, 14.1751041 ], [ 104.4458816, 14.206245 ], [ 104.4677741, 14.2328891 ], [ 104.4586285, 14.2817282 ], [ 104.4683865, 14.3205292 ], [ 104.4697954, 14.3347974 ], [ 104.4711064, 14.3393764 ], [ 104.4711606, 14.341143 ], [ 104.4710959, 14.3424086 ], [ 104.4710145, 14.3440006 ], [ 104.4731224, 14.34346 ], [ 104.47398, 14.34324 ], [ 104.4767133, 14.3446212 ], [ 104.47679, 14.34466 ], [ 104.4828, 14.35211 ], [ 104.50753, 14.36971 ], [ 104.51744, 14.36916 ], [ 104.53393, 14.35468 ], [ 104.55923, 14.34952 ], [ 104.57027, 14.35221 ], [ 104.57803, 14.35439 ], [ 104.5843, 14.35977 ], [ 104.6106103, 14.3918103 ], [ 104.62145, 14.39823 ], [ 104.6346657, 14.4098592 ], [ 104.64611, 14.42135 ], [ 104.65293, 14.42259 ], [ 104.65728, 14.41552 ], [ 104.6583544, 14.4129684 ], [ 104.66315, 14.40158 ], [ 104.66722, 14.39726 ], [ 104.6725735, 14.3941255 ], [ 104.68331, 14.39312 ], [ 104.6885885, 14.3969979 ], [ 104.69032, 14.39827 ], [ 104.71348, 14.42688 ], [ 104.7203331, 14.4279839 ], [ 104.7236194, 14.4245481 ], [ 104.72775, 14.41833 ], [ 104.72932, 14.40732 ], [ 104.7327129, 14.4021442 ], [ 104.74161, 14.40564 ], [ 104.75905, 14.40634 ], [ 104.7612776, 14.4076503 ], [ 104.77299, 14.42055 ], [ 104.7817737, 14.4229671 ], [ 104.78709, 14.42443 ], [ 104.79804, 14.43377 ], [ 104.80534, 14.43433 ], [ 104.8089045, 14.4327002 ], [ 104.82148, 14.42695 ], [ 104.84182, 14.4063 ], [ 104.86019, 14.40792 ] ] ] ] } },
{ "type": "Feature", "properties": { "POLYGON_ID": "KHM_GAUL1993_ADM1_808", "ADM0_ISO3": "KHM", "ADM0_NAME": "Cambodia", "ADM0_CODE": 44, "ADM1_NAME": "Prey Veng", "ADM1_CODE": 808, "GEOSET": "GAUL", "GEOSET_YEAR": 1993.0, "GEOSET_VERSION": "GAUL_v1", "GEOSET_UNIT": "ADM1", "CENTROID_LONG": 105.42739273182377, "CENTROID_LAT": 11.395826744630776 }, "geometry": { "type": "MultiPolygon", "coordinates": [ [ [ [ 105.8099609, 11.6016568 ], [ 105.8091221, 11.6000971 ], [ 105.8097532, 11.5965285 ], [ 105.8099144, 11.5956166 ], [ 105.692353, 11.5577147 ], [ 105.6885341, 11.507953 ], [ 105.655996, 11.4017041 ], [ 105.6487514, 11.2696139 ], [ 105.6101628, 11.1958111 ], [ 105.6175459, 11.146827 ], [ 105.6395748, 11.1183541 ], [ 105.6172056, 11.097212 ], [ 105.6075065, 11.0493747 ], [ 105.583803, 11.0042556 ], [ 105.6142068, 10.97368 ], [ 105.6138254, 10.9735683 ], [ 105.5523376, 10.9591842 ], [ 105.5381116, 10.9520713 ], [ 105.5046015, 10.9489099 ], [ 105.5015982, 10.951439 ], [ 105.5000501, 10.9520582 ], [ 105.496224, 10.9479615 ], [ 105.4832625, 10.9523874 ], [ 105.4823141, 10.9546003 ], [ 105.4838948, 10.9583939 ], [ 105.455759, 10.9555487 ], [ 105.4426395, 10.9612391 ], [ 105.4371071, 10.9677198 ], [ 105.4341039, 10.9716715 ], [ 105.4319031, 10.9728298 ], [ 105.4024906, 10.9289936 ], [ 105.3990131, 10.9274129 ], [ 105.3785399, 10.9035986 ], [ 105.3765677, 10.9029126 ], [ 105.3389479, 10.8594443 ], [ 105.2750239, 10.8892538 ], [ 105.2733503, 10.8894769 ], [ 105.2698863, 10.892024 ], [ 105.2646786, 10.8958534 ], [ 105.2517006, 10.8921731 ], [ 105.2393197, 10.8897776 ], [ 105.2137242, 10.8981564 ], [ 105.2006872, 10.9071235 ], [ 105.1977045, 10.9091751 ], [ 105.1934586, 10.9091581 ], [ 105.1934274, 10.909158 ], [ 105.1875471, 10.9495633 ], [ 105.2007504, 11.0245621 ], [ 105.1981695, 11.0847884 ], [ 105.2379833, 11.127276 ], [ 105.2499312, 11.1860817 ], [ 105.2849168, 11.2487916 ], [ 105.2787845, 11.3125083 ], [ 105.2593643, 11.3876074 ], [ 105.3009991, 11.4211112 ], [ 105.2404272, 11.4600718 ], [ 105.2013843, 11.5193621 ], [ 105.132216, 11.5324744 ], [ 105.1163293, 11.569437 ], [ 105.1149822, 11.638715 ], [ 105.1383467, 11.6971319 ], [ 105.1640854, 11.7325927 ], [ 105.1611321, 11.7547232 ], [ 105.2562904, 11.8088641 ], [ 105.2733038, 11.8384134 ], [ 105.326008, 11.8619789 ], [ 105.4132587, 11.8372899 ], [ 105.4228686, 11.7715231 ], [ 105.5224404, 11.7523481 ], [ 105.6719855, 11.7357918 ], [ 105.7019077, 11.7399667 ], [ 105.7694196, 11.6603508 ], [ 105.771393, 11.6400985 ], [ 105.7904583, 11.6210666 ], [ 105.8029668, 11.6026652 ], [ 105.8042093, 11.6031433 ], [ 105.806727, 11.6019562 ], [ 105.8075499, 11.6026389 ], [ 105.8089933, 11.6024031 ], [ 105.8097061, 11.6017161 ], [ 105.8099609, 11.6016568 ] ] ] ] } },
{ "type": "Feature", "properties": { "POLYGON_ID": "KHM_GAUL1993_ADM1_809", "ADM0_ISO3": "KHM", "ADM0_NAME": "Cambodia", "ADM0_CODE": 44, "ADM1_NAME": "Pursat", "ADM1_CODE": 809, "GEOSET": "GAUL", "GEOSET_YEAR": 1993.0, "GEOSET_VERSION": "GAUL_v1", "GEOSET_UNIT": "ADM1", "CENTROID_LONG": 103.60915311596999, "CENTROID_LAT": 12.331878134790548 }, "geometry": { "type": "MultiPolygon", "coordinates": [ [ [ [ 104.1319545, 12.7324724 ], [ 104.1417369, 12.7362477 ], [ 104.1594284, 12.6406001 ], [ 104.1765148, 12.6354994 ], [ 104.2126835, 12.5723968 ], [ 104.307878, 12.5440731 ], [ 104.3901248, 12.506426 ], [ 104.3840992, 12.4532847 ], [ 104.3964621, 12.4173059 ], [ 104.354502, 12.3924167 ], [ 104.327456, 12.331759 ], [ 104.2673481, 12.2959361 ], [ 104.2262211, 12.2885426 ], [ 104.1838402, 12.237694 ], [ 104.1751584, 12.1745838 ], [ 104.1887732, 12.1608898 ], [ 104.2035032, 12.0739347 ], [ 104.1656808, 12.0468536 ], [ 104.0977607, 12.0362717 ], [ 104.0956613, 11.9930256 ], [ 104.0541774, 11.9538338 ], [ 104.0671501, 11.9242602 ], [ 104.0243025, 11.8987493 ], [ 103.9469052, 11.941172 ], [ 103.9215189, 11.9268889 ], [ 103.86152, 11.8403565 ], [ 103.7928175, 11.9284992 ], [ 103.725706, 11.9248309 ], [ 103.632385, 11.9905215 ], [ 103.5728339, 12.0632231 ], [ 103.4795662, 12.112984 ], [ 103.437223, 12.083803 ], [ 103.3957, 12.1051203 ], [ 103.3681729, 12.0584266 ], [ 103.3674947, 12.0282718 ], [ 103.3234383, 12.0060182 ], [ 103.1639156, 11.9407484 ], [ 103.1125905, 11.9460725 ], [ 102.9764421, 11.9993759 ], [ 102.8015176, 12.0106756 ], [ 102.7833371, 12.0190383 ], [ 102.7829577, 12.0200211 ], [ 102.78002, 12.02763 ], [ 102.77711, 12.05693 ], [ 102.7674845, 12.0706436 ], [ 102.76416, 12.07538 ], [ 102.75556, 12.08937 ], [ 102.74751, 12.09621 ], [ 102.7464825, 12.0983431 ], [ 102.74092, 12.11706 ], [ 102.7358599, 12.1224518 ], [ 102.72902, 12.12974 ], [ 102.71561, 12.1726 ], [ 102.73862, 12.29163 ], [ 102.74464, 12.36886 ], [ 102.78758, 12.39677 ], [ 102.7876653, 12.3969418 ], [ 102.8140838, 12.3681537 ], [ 102.8429814, 12.4098836 ], [ 102.8733351, 12.3949868 ], [ 102.9090941, 12.4309395 ], [ 102.945034, 12.4272155 ], [ 102.9864229, 12.4703869 ], [ 103.0249532, 12.4441886 ], [ 103.0743034, 12.4533829 ], [ 103.233611, 12.5238285 ], [ 103.2510638, 12.5162645 ], [ 103.3323734, 12.5646592 ], [ 103.3956664, 12.5566961 ], [ 103.5099215, 12.5027634 ], [ 103.6147244, 12.5229219 ], [ 103.649446, 12.6611829 ], [ 103.6278217, 12.7166345 ], [ 103.6264251, 12.7752721 ], [ 103.6483298, 12.8093269 ], [ 103.6409923, 12.8471813 ], [ 103.6938931, 12.8595948 ], [ 103.7066406, 12.9097932 ], [ 103.7336985, 12.9252826 ], [ 103.7219957, 12.970393 ], [ 103.7502483, 13.0080574 ], [ 103.7902521, 12.9796449 ], [ 103.8063729, 12.8988726 ], [ 103.841165, 12.9065219 ], [ 103.9340366, 12.8221382 ], [ 104.0135328, 12.7858681 ], [ 104.1048236, 12.7790235 ], [ 104.1319545, 12.7324724 ] ] ] ] } },
{ "type": "Feature", "properties": { "POLYGON_ID": "KHM_GAUL1993_ADM1_810", "ADM0_ISO3": "KHM", "ADM0_NAME": "Cambodia", "ADM0_CODE": 44, "ADM1_NAME": "Ratanak Kiri", "ADM1_CODE": 810, "GEOSET": "GAUL", "GEOSET_YEAR": 1993.0, "GEOSET_VERSION": "GAUL_v1", "GEOSET_UNIT": "ADM1", "CENTROID_LONG": 107.09140921818759, "CENTROID_LAT": 13.794637318750278 }, "geometry": { "type": "MultiPolygon", "coordinates": [ [ [ [ 107.5504266, 14.6170664 ], [ 107.5519036, 14.6126353 ], [ 107.5478532, 14.6020549 ], [ 107.5453578, 14.6022108 ], [ 107.5328417, 14.5994815 ], [ 107.5293859, 14.5935573 ], [ 107.5238348, 14.584041 ], [ 107.5236345, 14.5831066 ], [ 107.5225481, 14.5780364 ], [ 107.5268371, 14.5698873 ], [ 107.5298394, 14.5570203 ], [ 107.5341284, 14.5488712 ], [ 107.5328417, 14.5248527 ], [ 107.5257209, 14.5212924 ], [ 107.5166296, 14.5107588 ], [ 107.5083943, 14.5008343 ], [ 107.488236, 14.4077628 ], [ 107.4858295, 14.4001422 ], [ 107.4710474, 14.3999521 ], [ 107.4650754, 14.4043316 ], [ 107.4600065, 14.406866 ], [ 107.4573551, 14.4081917 ], [ 107.4518184, 14.4137285 ], [ 107.4084605, 14.3417121 ], [ 107.408974, 14.3382203 ], [ 107.4136073, 14.2555031 ], [ 107.4073673, 14.2360031 ], [ 107.375733, 14.1778897 ], [ 107.3741484, 14.1744408 ], [ 107.362997, 14.1641472 ], [ 107.3372247, 14.1292128 ], [ 107.3364051, 14.1066745 ], [ 107.3625681, 14.0826561 ], [ 107.3738988, 14.0805182 ], [ 107.3852998, 14.0783671 ], [ 107.3737195, 14.0646422 ], [ 107.3694305, 14.061211 ], [ 107.3681438, 14.0547775 ], [ 107.3642837, 14.0320458 ], [ 107.3608525, 14.0221811 ], [ 107.3621392, 14.017892 ], [ 107.4001053, 13.9930695 ], [ 107.4247587, 13.9882979 ], [ 107.4462037, 13.9947314 ], [ 107.4492086, 13.9922274 ], [ 107.4563077, 13.9802364 ], [ 107.4586418, 13.9754309 ], [ 107.4589466, 13.9739073 ], [ 107.4603574, 13.9668529 ], [ 107.457784, 13.9428344 ], [ 107.456469, 13.9386263 ], [ 107.4567481, 13.9345625 ], [ 107.4607429, 13.929483 ], [ 107.4605461, 13.9283022 ], [ 107.4602323, 13.9264194 ], [ 107.4595632, 13.922405 ], [ 107.4631265, 13.9221954 ], [ 107.4728046, 13.9200458 ], [ 107.4732993, 13.9173252 ], [ 107.4567279, 13.8663745 ], [ 107.4610283, 13.8640537 ], [ 107.4724447, 13.8569543 ], [ 107.4727492, 13.8546709 ], [ 107.4513971, 13.7916664 ], [ 107.4557829, 13.7893467 ], [ 107.4784933, 13.7773346 ], [ 107.4908335, 13.7728729 ], [ 107.4977853, 13.7686779 ], [ 107.5314226, 13.7441919 ], [ 107.5502199, 13.7009086 ], [ 107.5732219, 13.6620773 ], [ 107.5761899, 13.6502053 ], [ 107.58971, 13.59788 ], [ 107.616086, 13.542826 ], [ 107.6282629, 13.4836023 ], [ 107.6318606, 13.3953201 ], [ 107.6313071, 13.3651547 ], [ 107.6232814, 13.3402475 ], [ 107.6097209, 13.3062077 ], [ 107.609009, 13.3045644 ], [ 107.6070462, 13.3000333 ], [ 107.6068852, 13.2996616 ], [ 107.6061214, 13.2993597 ], [ 107.604474, 13.2988526 ], [ 107.6030342, 13.2987714 ], [ 107.5995595, 13.302389 ], [ 107.5874323, 13.3015168 ], [ 107.568655, 13.2805624 ], [ 107.5049367, 13.2936972 ], [ 107.4721382, 13.3308355 ], [ 107.3732266, 13.2736019 ], [ 107.3395224, 13.3129933 ], [ 107.2948357, 13.3071256 ], [ 107.2738469, 13.3552677 ], [ 107.192466, 13.3046727 ], [ 107.1367903, 13.326518 ], [ 107.0941956, 13.2700447 ], [ 107.0879758, 13.2020485 ], [ 107.035937, 13.1817253 ], [ 106.9370835, 13.1709254 ], [ 106.8639253, 13.1728559 ], [ 106.7788791, 13.1971107 ], [ 106.7497683, 13.2245846 ], [ 106.6119632, 13.3198862 ], [ 106.6288256, 13.3429022 ], [ 106.6166839, 13.4247766 ], [ 106.5585665, 13.5391507 ], [ 106.534043, 13.5501508 ], [ 106.5347158, 13.6672902 ], [ 106.5902929, 13.6799122 ], [ 106.6353986, 13.7174566 ], [ 106.6670544, 13.776345 ], [ 106.6542736, 13.8484579 ], [ 106.6378672, 13.8593752 ], [ 106.6185417, 13.9897365 ], [ 106.7003842, 13.9919267 ], [ 106.7532009, 14.0181198 ], [ 106.7929752, 14.079895 ], [ 106.7551104, 14.1694895 ], [ 106.7635984, 14.2316667 ], [ 106.7522466, 14.292782 ], [ 106.7598555, 14.3836539 ], [ 106.7600141, 14.3836011 ], [ 106.7659077, 14.3816378 ], [ 106.7677089, 14.3786358 ], [ 106.7760012, 14.3750515 ], [ 106.7768792, 14.3651744 ], [ 106.7858783, 14.3526634 ], [ 106.7854393, 14.3447618 ], [ 106.793341, 14.3364211 ], [ 106.7997062, 14.3245686 ], [ 106.8047545, 14.3247881 ], [ 106.8141521, 14.3151262 ], [ 106.8137536, 14.3124966 ], [ 106.8148511, 14.3074483 ], [ 106.8192156, 14.3101614 ], [ 106.8341663, 14.3120576 ], [ 106.8354832, 14.3074483 ], [ 106.8388412, 14.2962657 ], [ 106.8475552, 14.2977907 ], [ 106.8692848, 14.3203983 ], [ 106.878723, 14.315789 ], [ 106.8932094, 14.3138135 ], [ 106.8966879, 14.3170747 ], [ 106.8967212, 14.3171059 ], [ 106.9008915, 14.3250076 ], [ 106.9071342, 14.3294431 ], [ 106.9092322, 14.3309338 ], [ 106.9193288, 14.3307143 ], [ 106.9318398, 14.3234711 ], [ 106.9412779, 14.3232516 ], [ 106.9441313, 14.3197398 ], [ 106.9451516, 14.314978 ], [ 106.9473002, 14.3140513 ], [ 106.963227, 14.3179839 ], [ 106.9766236, 14.3334272 ], [ 106.9790303, 14.3362016 ], [ 106.9776663, 14.3436835 ], [ 106.9726651, 14.3509075 ], [ 106.9941752, 14.362321 ], [ 107.0014184, 14.3708812 ], [ 107.0422437, 14.4358505 ], [ 107.0437359, 14.4362235 ], [ 107.0868003, 14.3930498 ], [ 107.0870475, 14.3930598 ], [ 107.0975554, 14.3934887 ], [ 107.1045791, 14.3996345 ], [ 107.1094079, 14.3939277 ], [ 107.1159926, 14.3945862 ], [ 107.1219189, 14.400293 ], [ 107.1206019, 14.411048 ], [ 107.1221384, 14.4185107 ], [ 107.1440875, 14.4141209 ], [ 107.1537451, 14.4191692 ], [ 107.1581349, 14.4145599 ], [ 107.1706459, 14.4264124 ], [ 107.191262, 14.4339797 ], [ 107.193034, 14.4321191 ], [ 107.2356152, 14.4455081 ], [ 107.251199, 14.4793097 ], [ 107.2476626, 14.4856445 ], [ 107.2610369, 14.5321971 ], [ 107.2653144, 14.5318407 ], [ 107.2726967, 14.5386278 ], [ 107.2731251, 14.5399131 ], [ 107.2983305, 14.5872373 ], [ 107.33702, 14.5868602 ], [ 107.3466776, 14.5783001 ], [ 107.3642369, 14.5671061 ], [ 107.363447, 14.5592132 ], [ 107.3671114, 14.548958 ], [ 107.3748227, 14.5429993 ], [ 107.397874, 14.5403395 ], [ 107.4264221, 14.52775 ], [ 107.4574267, 14.5781754 ], [ 107.4539371, 14.5864009 ], [ 107.4559312, 14.6143175 ], [ 107.518539, 14.6498541 ], [ 107.5233678, 14.6788269 ], [ 107.5561321, 14.6866018 ], [ 107.5555703, 14.6829885 ], [ 107.5508555, 14.6526651 ], [ 107.5535416, 14.64595 ], [ 107.5568601, 14.6376536 ], [ 107.5572899, 14.6286291 ], [ 107.5504266, 14.6170664 ] ] ] ] } },
{ "type": "Feature", "properties": { "POLYGON_ID": "KHM_GAUL1993_ADM1_812", "ADM0_ISO3": "KHM", "ADM0_NAME": "Cambodia", "ADM0_CODE": 44, "ADM1_NAME": "Stung Treng", "ADM1_CODE": 812, "GEOSET": "GAUL", "GEOSET_YEAR": 1993.0, "GEOSET_VERSION": "GAUL_v1", "GEOSET_UNIT": "ADM1", "CENTROID_LONG": 106.17924999466513, "CENTROID_LAT": 13.804636531553644 }, "geometry": { "type": "MultiPolygon", "coordinates": [ [ [ [ 106.5707456, 14.5105243 ], [ 106.5639791, 14.5039629 ], [ 106.5666876, 14.4999307 ], [ 106.571606, 14.501225 ], [ 106.6121831, 14.507959 ], [ 106.6247987, 14.4599616 ], [ 106.6264136, 14.4547134 ], [ 106.6321916, 14.4495195 ], [ 106.6419452, 14.4488952 ], [ 106.6601229, 14.4483526 ], [ 106.6601229, 14.444283 ], [ 106.6607904, 14.4434598 ], [ 106.6699871, 14.4321191 ], [ 106.676645, 14.4314338 ], [ 106.6849125, 14.4305827 ], [ 106.6916096, 14.428318 ], [ 106.7013743, 14.4301437 ], [ 106.7040082, 14.4257539 ], [ 106.7057907, 14.4218587 ], [ 106.7101539, 14.4237785 ], [ 106.7215675, 14.4329971 ], [ 106.7292285, 14.4286489 ], [ 106.7533936, 14.3858066 ], [ 106.75957, 14.383749 ], [ 106.7598555, 14.3836539 ], [ 106.7522466, 14.292782 ], [ 106.7635984, 14.2316667 ], [ 106.7551104, 14.1694895 ], [ 106.7929752, 14.079895 ], [ 106.7532009, 14.0181198 ], [ 106.7003842, 13.9919267 ], [ 106.6185417, 13.9897365 ], [ 106.6378672, 13.8593752 ], [ 106.6542736, 13.8484579 ], [ 106.6670544, 13.776345 ], [ 106.6353986, 13.7174566 ], [ 106.5902929, 13.6799122 ], [ 106.5347158, 13.6672902 ], [ 106.534043, 13.5501508 ], [ 106.5585665, 13.5391507 ], [ 106.6166839, 13.4247766 ], [ 106.6288256, 13.3429022 ], [ 106.6119632, 13.3198862 ], [ 106.5610698, 13.3479994 ], [ 106.5148568, 13.3529794 ], [ 106.5011271, 13.3711518 ], [ 106.4220147, 13.4145689 ], [ 106.3537666, 13.3975297 ], [ 106.2695237, 13.402936 ], [ 106.2222742, 13.3573944 ], [ 106.1689343, 13.366522 ], [ 106.1068595, 13.3603933 ], [ 106.0290283, 13.2553601 ], [ 106.0097737, 13.2119089 ], [ 105.9700976, 13.22608 ], [ 105.9493722, 13.1475231 ], [ 105.8615147, 13.1107661 ], [ 105.8148037, 13.1242852 ], [ 105.7077453, 13.1994344 ], [ 105.6701902, 13.2023396 ], [ 105.5928799, 13.227412 ], [ 105.5527566, 13.2750614 ], [ 105.55526, 13.3862919 ], [ 105.5415045, 13.4466229 ], [ 105.5701009, 13.4871631 ], [ 105.5663999, 13.5402591 ], [ 105.5810161, 13.6497962 ], [ 105.568613, 13.7055125 ], [ 105.5282638, 13.7622435 ], [ 105.5321866, 13.8499709 ], [ 105.5848747, 13.8850636 ], [ 105.6233813, 13.8540401 ], [ 105.6697426, 13.8723119 ], [ 105.716188, 13.8647833 ], [ 105.7153218, 13.913882 ], [ 105.8811273, 13.9204005 ], [ 105.9033777, 13.9344212 ], [ 105.9059186, 13.9327496 ], [ 105.9115363, 13.9290537 ], [ 105.9164554, 13.9289444 ], [ 105.988257, 13.9232658 ], [ 105.9927717, 13.9286128 ], [ 106.0025971, 13.9350349 ], [ 106.0260089, 13.9310668 ], [ 106.1083298, 13.9142848 ], [ 106.1105831, 13.914445 ], [ 106.1107007, 13.916512 ], [ 106.1096567, 13.9299659 ], [ 106.1082742, 13.9399531 ], [ 106.1103017, 13.9445873 ], [ 106.1152911, 13.9882074 ], [ 106.1170515, 13.9934884 ], [ 106.1255618, 13.9970263 ], [ 106.1349942, 13.9990303 ], [ 106.1616744, 14.0135664 ], [ 106.1639494, 14.0185441 ], [ 106.1822148, 14.0529004 ], [ 106.1883824, 14.062468 ], [ 106.1764031, 14.0698612 ], [ 106.1278171, 14.1108219 ], [ 106.1162624, 14.1414989 ], [ 106.1138158, 14.1434006 ], [ 106.0813764, 14.1850318 ], [ 106.0707191, 14.19689 ], [ 106.054541, 14.2112709 ], [ 106.0514998, 14.211092 ], [ 106.0453654, 14.2189495 ], [ 106.0458941, 14.2234959 ], [ 106.0476831, 14.2345282 ], [ 106.0314652, 14.2497481 ], [ 106.0294947, 14.2831301 ], [ 106.0264688, 14.3043113 ], [ 106.0256185, 14.3102637 ], [ 106.0041501, 14.3198051 ], [ 106.0007139, 14.3204299 ], [ 105.9963977, 14.342168 ], [ 105.998746, 14.3452208 ], [ 105.9993794, 14.3460442 ], [ 106.0008703, 14.3549893 ], [ 106.0133934, 14.3627418 ], [ 106.0254141, 14.3479383 ], [ 106.0294947, 14.347535 ], [ 106.0618935, 14.3437692 ], [ 106.0688533, 14.3424661 ], [ 106.0791462, 14.3397769 ], [ 106.0909179, 14.3630399 ], [ 106.0873399, 14.3716869 ], [ 106.0971795, 14.3755631 ], [ 106.1097027, 14.3716869 ], [ 106.1425015, 14.3687052 ], [ 106.1487631, 14.3675125 ], [ 106.1541344, 14.3614878 ], [ 106.1636716, 14.3558838 ], [ 106.1794747, 14.356182 ], [ 106.1872271, 14.364829 ], [ 106.2194296, 14.3752649 ], [ 106.2492467, 14.4483168 ], [ 106.2474577, 14.4536839 ], [ 106.2426869, 14.4611382 ], [ 106.2543156, 14.4846937 ], [ 106.2574831, 14.4826511 ], [ 106.2683296, 14.471276 ], [ 106.2692242, 14.4796248 ], [ 106.2954632, 14.4665053 ], [ 106.2981467, 14.4620327 ], [ 106.2987431, 14.4560693 ], [ 106.3061974, 14.4495095 ], [ 106.3100736, 14.4483168 ], [ 106.3312159, 14.4375533 ], [ 106.332589, 14.4405609 ], [ 106.3364143, 14.4432049 ], [ 106.3391824, 14.4440793 ], [ 106.4129762, 14.4530552 ], [ 106.4402866, 14.4918769 ], [ 106.4390891, 14.4949286 ], [ 106.4350331, 14.4973235 ], [ 106.4419862, 14.5230502 ], [ 106.4727732, 14.5099165 ], [ 106.4789152, 14.5145905 ], [ 106.4574763, 14.5464977 ], [ 106.5232994, 14.5920408 ], [ 106.5422718, 14.5921611 ], [ 106.5527262, 14.5728999 ], [ 106.5618044, 14.5458231 ], [ 106.5714105, 14.5417062 ], [ 106.5768862, 14.5164788 ], [ 106.5707456, 14.5105243 ] ] ] ] } },
{ "type": "Feature", "properties": { "POLYGON_ID": "KHM_GAUL1993_ADM1_813", "ADM0_ISO3": "KHM", "ADM0_NAME": "Cambodia", "ADM0_CODE": 44, "ADM1_NAME": "Svay Rieng", "ADM1_CODE": 813, "GEOSET": "GAUL", "GEOSET_YEAR": 1993.0, "GEOSET_VERSION": "GAUL_v1", "GEOSET_UNIT": "ADM1", "CENTROID_LONG": 105.86578522615928, "CENTROID_LAT": 11.152529498802979 }, "geometry": { "type": "MultiPolygon", "coordinates": [ [ [ [ 105.8152097, 11.5853703 ], [ 105.8184539, 11.5815429 ], [ 105.8165584, 11.5762208 ], [ 105.8187758, 11.5735366 ], [ 105.8193288, 11.5728672 ], [ 105.824687, 11.5672113 ], [ 105.8272025, 11.5645561 ], [ 105.8303873, 11.5650741 ], [ 105.8332535, 11.5655403 ], [ 105.8376278, 11.5637177 ], [ 105.8409178, 11.562051 ], [ 105.861643, 11.5665847 ], [ 105.8629923, 11.5617812 ], [ 105.8694689, 11.5552506 ], [ 105.8735168, 11.5530917 ], [ 105.8770605, 11.5485982 ], [ 105.877196, 11.5484263 ], [ 105.8843874, 11.4830033 ], [ 105.8822063, 11.481579 ], [ 105.8814507, 11.4833061 ], [ 105.8797236, 11.4824425 ], [ 105.8822063, 11.4538374 ], [ 105.8867306, 11.4507673 ], [ 105.8867731, 11.4507678 ], [ 105.8939182, 11.4522183 ], [ 105.9008183, 11.4509085 ], [ 105.9033633, 11.4471989 ], [ 105.873139, 11.404777 ], [ 105.8791839, 11.393281 ], [ 105.8813916, 11.3919263 ], [ 105.8813481, 11.3915698 ], [ 105.8729231, 11.3814072 ], [ 105.8724093, 11.3729576 ], [ 105.8763119, 11.3719395 ], [ 105.886866, 11.3654627 ], [ 105.8863229, 11.3651524 ], [ 105.8654939, 11.2905741 ], [ 105.8639254, 11.2891363 ], [ 105.8710519, 11.2787859 ], [ 105.8769906, 11.2852337 ], [ 105.8881894, 11.2852337 ], [ 105.8932798, 11.2831976 ], [ 105.9065372, 11.2840262 ], [ 105.9095689, 11.2842157 ], [ 105.910078, 11.2813311 ], [ 105.9075328, 11.2553703 ], [ 105.9091644, 11.2485153 ], [ 105.9283962, 11.2157191 ], [ 105.9307522, 11.2158159 ], [ 105.9345837, 11.2159734 ], [ 105.9396707, 11.2117145 ], [ 105.9455178, 11.2068193 ], [ 105.9927648, 11.1907545 ], [ 105.9970521, 11.1893587 ], [ 106.0071386, 11.1894434 ], [ 106.0094376, 11.1890796 ], [ 106.0183557, 11.187668 ], [ 106.0189203, 11.1875787 ], [ 106.0182661, 11.1753557 ], [ 106.0173098, 11.1574888 ], [ 106.0220436, 11.1510469 ], [ 106.0505359, 11.1309588 ], [ 106.0651994, 11.1197704 ], [ 106.0846095, 11.1028184 ], [ 106.0931703, 11.101886 ], [ 106.1024092, 11.089511 ], [ 106.1041892, 11.0814587 ], [ 106.1036398, 11.0807492 ], [ 106.1021549, 11.0788312 ], [ 106.1041044, 11.0752712 ], [ 106.1071558, 11.0734065 ], [ 106.1057996, 11.0652695 ], [ 106.1084133, 11.0597668 ], [ 106.1124109, 11.0645914 ], [ 106.1145275, 11.0711429 ], [ 106.1177508, 11.0811197 ], [ 106.16338, 11.0922551 ], [ 106.1688613, 11.0815435 ], [ 106.1757703, 11.0757671 ], [ 106.1868176, 11.0565252 ], [ 106.1906375, 11.0498718 ], [ 106.1921155, 11.0444524 ], [ 106.1929924, 11.0354878 ], [ 106.1926163, 11.033273 ], [ 106.1900285, 11.0312626 ], [ 106.1915376, 11.0203041 ], [ 106.1948425, 11.0160781 ], [ 106.2108991, 10.976412 ], [ 106.2046954, 10.975074 ], [ 106.2044756, 10.9744585 ], [ 106.1984849, 10.9707879 ], [ 106.1653605, 10.983319 ], [ 106.1595181, 10.9844875 ], [ 106.147954, 10.9774952 ], [ 106.1463404, 10.9754782 ], [ 106.1478056, 10.9714648 ], [ 106.1501055, 10.9570563 ], [ 106.1484599, 10.9545245 ], [ 106.1487461, 10.9527009 ], [ 106.1492987, 10.9503329 ], [ 106.1573747, 10.9409585 ], [ 106.1520478, 10.9320003 ], [ 106.1420419, 10.9151736 ], [ 106.146413, 10.9102301 ], [ 106.1655342, 10.888605 ], [ 106.1684526, 10.879301 ], [ 106.1924451, 10.8028121 ], [ 106.1971084, 10.7879451 ], [ 106.1527282, 10.8061729 ], [ 106.1171347, 10.8060577 ], [ 106.093106, 10.80598 ], [ 106.0827969, 10.8059466 ], [ 106.0713057, 10.8121381 ], [ 106.0638168, 10.8169567 ], [ 106.0403308, 10.8320681 ], [ 106.0330963, 10.836723 ], [ 106.0100828, 10.8489705 ], [ 105.9765008, 10.8892689 ], [ 105.9591084, 10.901101 ], [ 105.944598, 10.9181099 ], [ 105.9521045, 10.8911455 ], [ 105.9558578, 10.8855156 ], [ 105.9561541, 10.8839353 ], [ 105.9321529, 10.8509459 ], [ 105.9362025, 10.8457111 ], [ 105.9364777, 10.841124 ], [ 105.9340391, 10.8377681 ], [ 105.9047645, 10.8406519 ], [ 105.9041799, 10.8407095 ], [ 105.8970838, 10.8434628 ], [ 105.8497889, 10.8618134 ], [ 105.8643547, 10.8959037 ], [ 105.849169, 10.9241057 ], [ 105.8290919, 10.9481682 ], [ 105.8086802, 10.9731281 ], [ 105.7998832, 10.9897167 ], [ 105.7917669, 11.0050217 ], [ 105.7797711, 11.0322407 ], [ 105.7282277, 11.0247468 ], [ 105.7128744, 11.0178013 ], [ 105.6941231, 11.0012299 ], [ 105.6666196, 10.9870039 ], [ 105.6148502, 10.9738684 ], [ 105.6142068, 10.97368 ], [ 105.583803, 11.0042556 ], [ 105.6075065, 11.0493747 ], [ 105.6172056, 11.097212 ], [ 105.6395748, 11.1183541 ], [ 105.6175459, 11.146827 ], [ 105.6101628, 11.1958111 ], [ 105.6487514, 11.2696139 ], [ 105.655996, 11.4017041 ], [ 105.6885341, 11.507953 ], [ 105.692353, 11.5577147 ], [ 105.8099144, 11.5956166 ], [ 105.8112364, 11.5881407 ], [ 105.8144212, 11.5857646 ], [ 105.8152097, 11.5853703 ] ] ] ] } },
{ "type": "Feature", "properties": { "POLYGON_ID": "KHM_GAUL1993_ADM1_814", "ADM0_ISO3": "KHM", "ADM0_NAME": "Cambodia", "ADM0_CODE": 44, "ADM1_NAME": "Takeo", "ADM1_CODE": 814, "GEOSET": "GAUL", "GEOSET_YEAR": 1993.0, "GEOSET_VERSION": "GAUL_v1", "GEOSET_UNIT": "ADM1", "CENTROID_LONG": 104.81831182799124, "CENTROID_LAT": 10.940153691683426 }, "geometry": { "type": "MultiPolygon", "coordinates": [ [ [ [ 105.0390683, 10.8972523 ], [ 105.0383969, 10.8970053 ], [ 105.0517648, 10.8366104 ], [ 105.058852, 10.8214423 ], [ 105.0577149, 10.8087068 ], [ 105.0624436, 10.7998943 ], [ 105.0628913, 10.79906 ], [ 105.0641229, 10.7874474 ], [ 105.0665825, 10.7826439 ], [ 105.0770085, 10.7781194 ], [ 105.0866333, 10.7646613 ], [ 105.0978841, 10.7231101 ], [ 105.0231817, 10.6779441 ], [ 105.0036517, 10.666136 ], [ 104.9974773, 10.6627595 ], [ 104.9544278, 10.6379216 ], [ 104.9467342, 10.6328443 ], [ 104.9326144, 10.6111357 ], [ 104.9168196, 10.5795239 ], [ 104.9000233, 10.5509495 ], [ 104.8670175, 10.5210077 ], [ 104.7818131, 10.5182775 ], [ 104.7581881, 10.5175205 ], [ 104.7213169, 10.5293977 ], [ 104.7191072, 10.5301094 ], [ 104.719511, 10.5304571 ], [ 104.7204761, 10.5308435 ], [ 104.7219735, 10.5308945 ], [ 104.7220734, 10.5356779 ], [ 104.7156243, 10.5458457 ], [ 104.7165903, 10.5763808 ], [ 104.7107331, 10.5808093 ], [ 104.7156457, 10.6051685 ], [ 104.7120193, 10.616138 ], [ 104.6782878, 10.6185879 ], [ 104.6743752, 10.6931771 ], [ 104.7275906, 10.7736999 ], [ 104.7097772, 10.8037879 ], [ 104.7019958, 10.8565138 ], [ 104.6766372, 10.8965076 ], [ 104.6219918, 10.8994647 ], [ 104.5897307, 10.8834099 ], [ 104.5261199, 10.8913447 ], [ 104.5446435, 10.9264163 ], [ 104.5419892, 10.984349 ], [ 104.5033837, 11.0554328 ], [ 104.4722504, 11.0540461 ], [ 104.4141159, 11.0745809 ], [ 104.4141274, 11.1347022 ], [ 104.4958131, 11.1210871 ], [ 104.5999088, 11.084907 ], [ 104.6888755, 11.0869755 ], [ 104.688104, 11.1530024 ], [ 104.7163681, 11.3214784 ], [ 104.7366756, 11.3478823 ], [ 104.758688, 11.3338358 ], [ 104.8043756, 11.350119 ], [ 104.8387895, 11.3390623 ], [ 104.8943638, 11.3467779 ], [ 104.9430969, 11.3236891 ], [ 104.9308393, 11.2658976 ], [ 104.9419525, 11.2411288 ], [ 104.9843594, 11.2181129 ], [ 104.9903988, 11.1707463 ], [ 105.0214358, 11.1701845 ], [ 105.0217005, 11.0977397 ], [ 104.9944307, 11.0038849 ], [ 105.0335567, 10.9887209 ], [ 105.0464202, 10.9242296 ], [ 105.0390683, 10.8972523 ] ] ] ] } }
]
}
