{
"type": "FeatureCollection",
"name": "KOR_GAUL2000_ADM0",
"crs": { "type": "name", "properties": { "name": "urn:ogc:def:crs:OGC:1.3:CRS84" } },
"features": [
{ "type": "Feature", "properties": { "POLYGON_ID": "KOR_GAUL2000_ADM0_202", "ADM0_ISO3": "KOR", "ADM0_NAME": "Republic of Korea", "ADM0_CODE": 202, "GEOSET": "GAUL", "GEOSET_YEAR": 2000.0, "GEOSET_VERSION": "GAUL_v1", "GEOSET_UNIT": "ADM0", "CENTROID_LONG": 127.81591324492135, "CENTROID_LAT": 36.368260076037721 }, "geometry": { "type": "MultiPolygon", "coordinates": [ [ [ [ 130.9128265, 37.5381622 ], [ 130.920166, 37.5105095 ], [ 130.9086914, 37.4681625 ], [ 130.8791199, 37.447094 ], [ 130.8098602, 37.4690208 ], [ 130.7939758, 37.5152664 ], [ 130.8789673, 37.5386238 ], [ 130.9128265, 37.5381622 ] ] ], [ [ [ 128.361315600000012, 38.6149497 ], [ 128.361694300000011, 38.6011353 ], [ 128.4107971, 38.5403976 ], [ 128.439209, 38.4722443 ], [ 128.463653599999986, 38.4455299 ], [ 128.4631805, 38.408165 ], [ 128.5100708, 38.3651199 ], [ 128.529037499999987, 38.3143082 ], [ 128.5483246, 38.2985725 ], [ 128.563262900000012, 38.2490654 ], [ 128.5872803, 38.2262344 ], [ 128.6115723, 38.1781502 ], [ 128.609787, 38.1438141 ], [ 128.674346899999989, 38.0785789 ], [ 128.6830902, 38.0543289 ], [ 128.718093900000014, 38.0240974 ], [ 128.7685394, 37.9504738 ], [ 128.8087616, 37.9091911 ], [ 128.8282166, 37.877552 ], [ 128.8818817, 37.8193283 ], [ 128.987197900000012, 37.7295189 ], [ 129.025054899999986, 37.6905518 ], [ 129.0532532, 37.6736069 ], [ 129.0474854, 37.6231422 ], [ 129.1125183, 37.5709114 ], [ 129.1259918, 37.5045967 ], [ 129.184082, 37.4462204 ], [ 129.193801900000011, 37.4113007 ], [ 129.2548981, 37.371109 ], [ 129.2515869, 37.3579521 ], [ 129.281448399999988, 37.3050346 ], [ 129.325653100000011, 37.270916 ], [ 129.3526459, 37.2302895 ], [ 129.3413239, 37.1729774 ], [ 129.370849600000014, 37.12854 ], [ 129.3836823, 37.0945854 ], [ 129.4201965, 37.0667801 ], [ 129.4092407, 36.9743004 ], [ 129.4233398, 36.8621635 ], [ 129.475051900000011, 36.7641716 ], [ 129.4629822, 36.6724319 ], [ 129.4369659, 36.6641159 ], [ 129.4207611, 36.6389809 ], [ 129.4126434, 36.5860939 ], [ 129.4376068, 36.5446091 ], [ 129.451416, 36.5029984 ], [ 129.4343872, 36.4815865 ], [ 129.4295349, 36.4156609 ], [ 129.3847198, 36.3356934 ], [ 129.3851929, 36.2352562 ], [ 129.3752441, 36.1907272 ], [ 129.398239100000012, 36.1656532 ], [ 129.4020233, 36.1266251 ], [ 129.429611200000011, 36.0990143 ], [ 129.4178619, 36.0679054 ], [ 129.3857269, 36.0582962 ], [ 129.3786011, 36.0207443 ], [ 129.421569799999986, 35.9951019 ], [ 129.454361, 35.9915695 ], [ 129.4882965, 36.0134773 ], [ 129.5567017, 36.0813675 ], [ 129.5790405, 36.0526123 ], [ 129.5846558, 36.0164642 ], [ 129.5594482, 35.9801064 ], [ 129.5532227, 35.9477997 ], [ 129.5265503, 35.9211617 ], [ 129.537429800000012, 35.8980675 ], [ 129.514724699999988, 35.8027382 ], [ 129.496704099999988, 35.7887421 ], [ 129.4967957, 35.7501297 ], [ 129.4704132, 35.668087 ], [ 129.4472504, 35.6343613 ], [ 129.4662323, 35.5995903 ], [ 129.4615784, 35.5541 ], [ 129.43707280000001, 35.4767799 ], [ 129.3781128, 35.4658127 ], [ 129.3479156, 35.4453011 ], [ 129.3628235, 35.3572159 ], [ 129.3403473, 35.3491783 ], [ 129.3008423, 35.3158073 ], [ 129.2674561, 35.3078537 ], [ 129.2501373, 35.2519722 ], [ 129.2542877, 35.2363663 ], [ 129.2273712, 35.2055588 ], [ 129.225418100000013, 35.1792336 ], [ 129.184417700000012, 35.146595 ], [ 129.1233215, 35.1445847 ], [ 129.131958, 35.1057854 ], [ 129.059326199999987, 35.1100578 ], [ 129.035629300000011, 35.0912285 ], [ 129.0135803, 35.0523262 ], [ 128.9577942, 35.0453796 ], [ 128.953323399999988, 35.0887871 ], [ 128.9755859, 35.1704178 ], [ 128.929763799999989, 35.1112823 ], [ 128.8991852, 35.117569 ], [ 128.8594818, 35.0930367 ], [ 128.7986908, 35.0864792 ], [ 128.7172852, 35.0886536 ], [ 128.6902466, 35.1436501 ], [ 128.6720123, 35.1341476 ], [ 128.6204376, 35.1403999 ], [ 128.5872345, 35.1579781 ], [ 128.60289, 35.1032944 ], [ 128.6321259, 35.0640717 ], [ 128.6047974, 35.0519867 ], [ 128.5650177, 35.0625076 ], [ 128.580658, 35.0838547 ], [ 128.5357971, 35.1024017 ], [ 128.4862976, 35.1016121 ], [ 128.4640503, 35.0727348 ], [ 128.393096899999989, 35.0457497 ], [ 128.4778748, 35.044796 ], [ 128.487182600000011, 35.0159035 ], [ 128.420639, 34.9483223 ], [ 128.4431305, 34.8903809 ], [ 128.4575806, 34.8766556 ], [ 128.4502563, 34.8406906 ], [ 128.4088898, 34.8294144 ], [ 128.3752289, 34.8430519 ], [ 128.3894196, 34.8647118 ], [ 128.348465, 34.8690109 ], [ 128.307663, 34.8934975 ], [ 128.35592650000001, 34.907959 ], [ 128.3314972, 34.9494286 ], [ 128.303299, 34.9308891 ], [ 128.2071381, 34.9351845 ], [ 128.2021332, 34.889698 ], [ 128.1646576, 34.8963127 ], [ 128.1342468, 34.886322 ], [ 128.1085358, 34.9174614 ], [ 128.056015, 34.924427 ], [ 128.0340118, 34.9531021 ], [ 128.048614500000014, 35.0067024 ], [ 128.0257416, 35.0494156 ], [ 127.9860535, 35.0386086 ], [ 128.0089874, 35.0016403 ], [ 127.9408722, 34.9763489 ], [ 127.8803711, 34.9422226 ], [ 127.8450928, 34.9440575 ], [ 127.8016891, 34.9604301 ], [ 127.7287674, 34.9572411 ], [ 127.7041016, 34.929245 ], [ 127.673378, 34.922821 ], [ 127.6655273, 34.9013062 ], [ 127.6274796, 34.8981285 ], [ 127.6047821, 34.9164124 ], [ 127.5753479, 34.9181824 ], [ 127.5711288, 34.8859673 ], [ 127.5903778, 34.8760796 ], [ 127.632431, 34.8247147 ], [ 127.6563416, 34.8192329 ], [ 127.6997681, 34.8502045 ], [ 127.7715378, 34.8543701 ], [ 127.76651, 34.7939529 ], [ 127.7471771, 34.7715034 ], [ 127.7520981, 34.7446861 ], [ 127.7015381, 34.7146912 ], [ 127.6567688, 34.7397881 ], [ 127.6284103, 34.7034264 ], [ 127.6309128, 34.6466331 ], [ 127.6183167, 34.6344757 ], [ 127.5764465, 34.6406097 ], [ 127.5533905, 34.6559143 ], [ 127.5626297, 34.7255898 ], [ 127.5735474, 34.7587051 ], [ 127.5598373, 34.7991486 ], [ 127.5085831, 34.8717079 ], [ 127.4850388, 34.8741608 ], [ 127.47789, 34.8383751 ], [ 127.4262772, 34.8358498 ], [ 127.4005432, 34.8222961 ], [ 127.4009933, 34.7600746 ], [ 127.376297, 34.7173271 ], [ 127.4445801, 34.6618996 ], [ 127.4712372, 34.6565857 ], [ 127.5064163, 34.601841 ], [ 127.4861832, 34.569973 ], [ 127.4119873, 34.5836372 ], [ 127.3905029, 34.5565109 ], [ 127.4338303, 34.5436401 ], [ 127.4011078, 34.500473 ], [ 127.3266525, 34.4743843 ], [ 127.3185883, 34.4569931 ], [ 127.2771606, 34.4760895 ], [ 127.280983, 34.4975319 ], [ 127.2464828, 34.5172958 ], [ 127.1238327, 34.525528 ], [ 127.1136093, 34.5497284 ], [ 127.1436386, 34.5806427 ], [ 127.2247391, 34.5820885 ], [ 127.2493134, 34.6204796 ], [ 127.2321625, 34.6614571 ], [ 127.2352676, 34.6852226 ], [ 127.2672272, 34.7082367 ], [ 127.2829514, 34.7003555 ], [ 127.279747, 34.6637421 ], [ 127.3122635, 34.6642342 ], [ 127.3435364, 34.7065353 ], [ 127.3283615, 34.7419472 ], [ 127.2601166, 34.7275276 ], [ 127.2438202, 34.7634277 ], [ 127.2181778, 34.7507515 ], [ 127.2029495, 34.7060471 ], [ 127.1711273, 34.6855354 ], [ 127.1293106, 34.6995392 ], [ 127.1091385, 34.6724281 ], [ 127.0753632, 34.6565475 ], [ 127.0508575, 34.631176 ], [ 126.9915237, 34.6261864 ], [ 126.9935532, 34.5795364 ], [ 126.961647, 34.5280571 ], [ 126.975029, 34.5138016 ], [ 126.9729614, 34.4805946 ], [ 126.9361572, 34.4629364 ], [ 126.9346466, 34.4446602 ], [ 126.8765183, 34.4542313 ], [ 126.8463593, 34.4420776 ], [ 126.8044434, 34.4458733 ], [ 126.7880936, 34.5094719 ], [ 126.7930603, 34.5604935 ], [ 126.7673874, 34.5823708 ], [ 126.7504883, 34.5633698 ], [ 126.7666626, 34.5461388 ], [ 126.7527237, 34.4924011 ], [ 126.7122726, 34.4394455 ], [ 126.622757, 34.3966141 ], [ 126.6170273, 34.3515778 ], [ 126.6019135, 34.326313 ], [ 126.5622101, 34.3148232 ], [ 126.5239334, 34.2840004 ], [ 126.5123672, 34.3129997 ], [ 126.516983, 34.3525658 ], [ 126.4836273, 34.3622055 ], [ 126.4711075, 34.3813629 ], [ 126.5109634, 34.402977 ], [ 126.5086823, 34.4291954 ], [ 126.4723282, 34.4265251 ], [ 126.4596405, 34.4913445 ], [ 126.4937134, 34.5195503 ], [ 126.5222702, 34.5132523 ], [ 126.5122528, 34.5539131 ], [ 126.4705429, 34.5646973 ], [ 126.4476166, 34.5313644 ], [ 126.3651733, 34.5565147 ], [ 126.2808914, 34.593586 ], [ 126.2777176, 34.6278534 ], [ 126.260849, 34.6367722 ], [ 126.262352, 34.6929436 ], [ 126.2826767, 34.717205 ], [ 126.2900009, 34.7571678 ], [ 126.3320389, 34.7296944 ], [ 126.3504791, 34.7032852 ], [ 126.3337936, 34.6582909 ], [ 126.3558807, 34.626049 ], [ 126.3869629, 34.6045761 ], [ 126.4502716, 34.58498 ], [ 126.4765396, 34.5973434 ], [ 126.4375229, 34.6208878 ], [ 126.4194565, 34.6557922 ], [ 126.3841934, 34.6771545 ], [ 126.4006882, 34.7090683 ], [ 126.4319382, 34.6627998 ], [ 126.4668732, 34.6407433 ], [ 126.5133438, 34.6298294 ], [ 126.5604706, 34.6496277 ], [ 126.5248032, 34.7013321 ], [ 126.4863968, 34.7345123 ], [ 126.4503632, 34.7293015 ], [ 126.4074707, 34.7410088 ], [ 126.4081879, 34.7666893 ], [ 126.4493866, 34.7474518 ], [ 126.4684296, 34.7721748 ], [ 126.4890823, 34.7463722 ], [ 126.5226288, 34.7445297 ], [ 126.5225906, 34.7851448 ], [ 126.5650024, 34.8096619 ], [ 126.5906067, 34.7898941 ], [ 126.6109467, 34.8076668 ], [ 126.5678024, 34.8238106 ], [ 126.5614395, 34.8522148 ], [ 126.5893478, 34.8814888 ], [ 126.5802536, 34.904232 ], [ 126.5283203, 34.8795242 ], [ 126.5254135, 34.800209 ], [ 126.4363098, 34.803791 ], [ 126.3994827, 34.7815399 ], [ 126.3703003, 34.8007355 ], [ 126.4062729, 34.846817 ], [ 126.3845673, 34.8829613 ], [ 126.3967438, 34.9025993 ], [ 126.3889313, 34.9459419 ], [ 126.4349213, 34.9681206 ], [ 126.3964462, 34.9964523 ], [ 126.3696365, 34.9877548 ], [ 126.3688431, 34.9228401 ], [ 126.3395386, 34.9139709 ], [ 126.2979431, 34.9632339 ], [ 126.3328781, 34.9662323 ], [ 126.3439865, 34.994854 ], [ 126.3823166, 35.020462 ], [ 126.3550034, 35.0349503 ], [ 126.3330307, 35.0809555 ], [ 126.3148727, 35.0504494 ], [ 126.2587738, 35.0869904 ], [ 126.2451172, 35.110508 ], [ 126.2633209, 35.1424026 ], [ 126.3071289, 35.1341705 ], [ 126.3659287, 35.0585251 ], [ 126.4011612, 35.0679207 ], [ 126.4044113, 35.022171 ], [ 126.4535904, 35.0676613 ], [ 126.458931, 35.0968895 ], [ 126.4192886, 35.1036911 ], [ 126.3607025, 35.1701775 ], [ 126.3515167, 35.2002487 ], [ 126.3173599, 35.2059555 ], [ 126.2973175, 35.2303352 ], [ 126.3252106, 35.2388992 ], [ 126.3343964, 35.2603569 ], [ 126.3759995, 35.282608 ], [ 126.3735733, 35.3088951 ], [ 126.4069824, 35.4057655 ], [ 126.4443893, 35.4522667 ], [ 126.4802628, 35.5082092 ], [ 126.5146866, 35.5343513 ], [ 126.562149, 35.5422211 ], [ 126.5939713, 35.5381203 ], [ 126.629837, 35.570385 ], [ 126.5642166, 35.5859947 ], [ 126.5029068, 35.5764351 ], [ 126.4621735, 35.6041565 ], [ 126.46698, 35.6402855 ], [ 126.5052567, 35.6559982 ], [ 126.5288467, 35.6833496 ], [ 126.5677185, 35.6919174 ], [ 126.5934525, 35.7090988 ], [ 126.6201477, 35.7469902 ], [ 126.6352463, 35.7889023 ], [ 126.7028503, 35.7945786 ], [ 126.7817612, 35.7771225 ], [ 126.7705688, 35.7981071 ], [ 126.6833572, 35.8394203 ], [ 126.7286072, 35.8631287 ], [ 126.7776031, 35.8621178 ], [ 126.7652435, 35.8891411 ], [ 126.6064835, 35.8941498 ], [ 126.6123428, 35.9398804 ], [ 126.5988007, 35.9575691 ], [ 126.6326828, 35.9765015 ], [ 126.7075882, 35.9906425 ], [ 126.704483, 36.0038109 ], [ 126.6603012, 36.0135651 ], [ 126.6609421, 36.0420036 ], [ 126.6343765, 36.0551453 ], [ 126.6389618, 36.0834694 ], [ 126.5724335, 36.1348953 ], [ 126.5402908, 36.1440392 ], [ 126.5583572, 36.1917267 ], [ 126.5301285, 36.2138405 ], [ 126.5591583, 36.293354 ], [ 126.5157394, 36.2984428 ], [ 126.5105133, 36.3162498 ], [ 126.5569992, 36.3441238 ], [ 126.4906616, 36.3860779 ], [ 126.4976273, 36.4320068 ], [ 126.479187, 36.4887161 ], [ 126.5015869, 36.5156479 ], [ 126.462471, 36.5389481 ], [ 126.4569321, 36.5923233 ], [ 126.502327, 36.5966148 ], [ 126.5156326, 36.6231003 ], [ 126.4756317, 36.6539993 ], [ 126.4762192, 36.6826591 ], [ 126.4545822, 36.7181053 ], [ 126.413559, 36.6531143 ], [ 126.3602295, 36.6283417 ], [ 126.3756714, 36.6958504 ], [ 126.3519135, 36.743721 ], [ 126.3027267, 36.6871567 ], [ 126.3320313, 36.6497116 ], [ 126.3158798, 36.5920792 ], [ 126.2894363, 36.5996284 ], [ 126.2989731, 36.6409111 ], [ 126.259491, 36.6880112 ], [ 126.23349, 36.6932411 ], [ 126.1982269, 36.6787376 ], [ 126.158638, 36.678318 ], [ 126.1495895, 36.6957397 ], [ 126.2059631, 36.7340622 ], [ 126.1669235, 36.7570305 ], [ 126.1320267, 36.7379074 ], [ 126.1157837, 36.7690315 ], [ 126.1451035, 36.7841606 ], [ 126.1647263, 36.8297958 ], [ 126.1931763, 36.8433304 ], [ 126.1902313, 36.8796463 ], [ 126.2111969, 36.8986321 ], [ 126.2486801, 36.8704185 ], [ 126.3059769, 36.9283981 ], [ 126.3227921, 36.8905869 ], [ 126.2955704, 36.850441 ], [ 126.2898636, 36.7980537 ], [ 126.33564, 36.8168526 ], [ 126.4061813, 36.90588 ], [ 126.3496094, 36.9488564 ], [ 126.3316269, 36.9789047 ], [ 126.3492203, 36.9977226 ], [ 126.3841629, 36.9922409 ], [ 126.4028397, 37.0091896 ], [ 126.4475937, 36.9915085 ], [ 126.4356766, 36.9654388 ], [ 126.4746933, 36.9407845 ], [ 126.457283, 36.8985786 ], [ 126.5047302, 36.9211731 ], [ 126.5013733, 36.9506264 ], [ 126.5183182, 36.9809074 ], [ 126.5159302, 37.0062065 ], [ 126.5337601, 37.0433464 ], [ 126.5762863, 37.0206299 ], [ 126.5953369, 36.9843178 ], [ 126.628273, 36.972168 ], [ 126.6552277, 36.9477882 ], [ 126.677063, 36.9636917 ], [ 126.7776718, 36.9773293 ], [ 126.7792206, 36.9479179 ], [ 126.8128433, 36.9203262 ], [ 126.8368988, 36.8207321 ], [ 126.8685379, 36.882885 ], [ 126.9222565, 36.8902206 ], [ 126.8966675, 36.9297676 ], [ 126.8522034, 36.9508247 ], [ 126.7850266, 37.0335503 ], [ 126.7711029, 37.0612526 ], [ 126.7732162, 37.1281776 ], [ 126.8068924, 37.1320152 ], [ 126.8135071, 37.158432 ], [ 126.7952271, 37.1722717 ], [ 126.7433777, 37.1659698 ], [ 126.7212067, 37.1305885 ], [ 126.6887207, 37.1145363 ], [ 126.6732636, 37.1344681 ], [ 126.6620331, 37.1795158 ], [ 126.6839828, 37.2231674 ], [ 126.6636734, 37.2375031 ], [ 126.7137375, 37.2546692 ], [ 126.7584763, 37.2545395 ], [ 126.8242264, 37.2879562 ], [ 126.7483673, 37.3048325 ], [ 126.7393265, 37.337513 ], [ 126.6905365, 37.3346901 ], [ 126.7240906, 37.3663101 ], [ 126.7113037, 37.3827286 ], [ 126.6665573, 37.3908653 ], [ 126.6067963, 37.4519234 ], [ 126.6290817, 37.4955711 ], [ 126.654007, 37.492897 ], [ 126.6682663, 37.5361328 ], [ 126.6400375, 37.552948 ], [ 126.6404419, 37.5866852 ], [ 126.5976181, 37.5812874 ], [ 126.5665665, 37.6018219 ], [ 126.5290298, 37.6702805 ], [ 126.5227432, 37.7133293 ], [ 126.5509033, 37.7655411 ], [ 126.5713882, 37.7516899 ], [ 126.6100769, 37.7520142 ], [ 126.6517105, 37.78022 ], [ 126.6715088, 37.7308273 ], [ 126.6624603, 37.6820068 ], [ 126.6803894, 37.6631622 ], [ 126.7536621, 37.6186638 ], [ 126.7579727, 37.6378059 ], [ 126.6856689, 37.6719589 ], [ 126.6754227, 37.6880684 ], [ 126.689537, 37.7539406 ], [ 126.6743164, 37.769043 ], [ 126.6837082, 37.8054695 ], [ 126.6658328, 37.8330199 ], [ 126.6915932, 37.8436851 ], [ 126.6729358, 37.9542759 ], [ 126.7295341, 37.9566018 ], [ 126.7927225, 37.9956262 ], [ 126.825932, 38.0050592 ], [ 126.8578492, 38.0374934 ], [ 126.8702543, 38.0832371 ], [ 126.8856315, 38.1010695 ], [ 126.9705288, 38.1442288 ], [ 126.9662646, 38.1877759 ], [ 127.0449594, 38.2565208 ], [ 127.0960012, 38.2762914 ], [ 127.1412281, 38.3114391 ], [ 127.1544085, 38.3005847 ], [ 127.2443454, 38.3304344 ], [ 127.332344, 38.3162203 ], [ 127.3491426, 38.3259117 ], [ 127.4091005, 38.3295299 ], [ 127.4990374, 38.297225 ], [ 127.5804458, 38.3330188 ], [ 127.6205039, 38.3211306 ], [ 127.692867, 38.3217767 ], [ 127.7393861, 38.3372831 ], [ 127.7976642, 38.3229397 ], [ 127.8242834, 38.3008431 ], [ 127.8729992, 38.3123437 ], [ 127.8806232, 38.3264286 ], [ 127.9549245, 38.3126021 ], [ 128.0886669, 38.3136359 ], [ 128.117095299999988, 38.3341818 ], [ 128.1395795, 38.3309513 ], [ 128.176924, 38.3617056 ], [ 128.208841299999989, 38.3728185 ], [ 128.2848224, 38.4349732 ], [ 128.303947, 38.474256 ], [ 128.3155767, 38.5909414 ], [ 128.361315600000012, 38.6149497 ] ] ], [ [ [ 129.0974731, 35.0539589 ], [ 129.072403, 35.0510597 ], [ 129.0392914, 35.0761147 ], [ 129.065322900000012, 35.0923004 ], [ 129.0974731, 35.0539589 ] ] ], [ [ [ 128.8352356, 35.0493851 ], [ 128.8513031, 35.0394402 ], [ 128.8358307, 34.9894028 ], [ 128.8114319, 35.0321274 ], [ 128.8352356, 35.0493851 ] ] ], [ [ [ 128.6847534, 35.0327263 ], [ 128.7197418, 35.0177917 ], [ 128.695007299999986, 34.9736824 ], [ 128.715744, 34.9584847 ], [ 128.7208252, 34.9100151 ], [ 128.6978302, 34.8745537 ], [ 128.7235413, 34.8593559 ], [ 128.723968500000012, 34.8078842 ], [ 128.6683807, 34.8049355 ], [ 128.6741486, 34.7830811 ], [ 128.64212040000001, 34.7657127 ], [ 128.657028200000013, 34.7347145 ], [ 128.625762900000012, 34.7287941 ], [ 128.6226959, 34.7075729 ], [ 128.593093900000014, 34.705471 ], [ 128.575912499999987, 34.740242 ], [ 128.5774841, 34.7897797 ], [ 128.5892639, 34.8418427 ], [ 128.528183, 34.8232269 ], [ 128.5104523, 34.807251 ], [ 128.4764099, 34.8491821 ], [ 128.4750671, 34.875885 ], [ 128.5276184, 34.9171867 ], [ 128.559814499999987, 34.8980598 ], [ 128.601623499999988, 34.8941078 ], [ 128.617569, 34.9119911 ], [ 128.5975952, 34.951252 ], [ 128.6468811, 34.954525 ], [ 128.6536255, 34.9804039 ], [ 128.6847534, 35.0327263 ] ] ], [ [ [ 128.4905396, 34.796196 ], [ 128.51074220000001, 34.7645226 ], [ 128.4681244, 34.7592926 ], [ 128.4620667, 34.7818375 ], [ 128.4905396, 34.796196 ] ] ], [ [ [ 128.345367399999986, 34.8284988 ], [ 128.3774109, 34.8202209 ], [ 128.4121246, 34.8276672 ], [ 128.439743, 34.8156624 ], [ 128.4225922, 34.7603798 ], [ 128.3996582, 34.7627602 ], [ 128.380004899999989, 34.8083954 ], [ 128.345367399999986, 34.8284988 ] ] ], [ [ [ 128.249649, 34.6481934 ], [ 128.297531099999986, 34.6277847 ], [ 128.2906647, 34.615448 ], [ 128.238616900000011, 34.6176643 ], [ 128.249649, 34.6481934 ] ] ], [ [ [ 128.0157776, 34.8608475 ], [ 128.047897299999988, 34.8907738 ], [ 128.0697937, 34.8749619 ], [ 128.0805054, 34.8256149 ], [ 127.9710083, 34.8378448 ], [ 127.9633026, 34.8585892 ], [ 128.014480600000013, 34.9146271 ], [ 128.0157776, 34.8608475 ] ] ], [ [ [ 127.9023285, 34.9363098 ], [ 127.9317474, 34.9197693 ], [ 127.924881, 34.8876648 ], [ 127.8951492, 34.8741417 ], [ 127.9138489, 34.8458557 ], [ 127.9461288, 34.8216171 ], [ 127.9591904, 34.7972183 ], [ 127.990303, 34.8251343 ], [ 128.0341339, 34.8275032 ], [ 128.066162100000014, 34.8138008 ], [ 128.0530396, 34.7753029 ], [ 128.0625, 34.7471352 ], [ 128.038757299999986, 34.7265167 ], [ 128.0409851, 34.698185 ], [ 127.9979401, 34.7081909 ], [ 127.9608231, 34.7053185 ], [ 127.9465485, 34.7276955 ], [ 127.9450684, 34.7695427 ], [ 127.9101028, 34.761055 ], [ 127.9149323, 34.7289505 ], [ 127.8891373, 34.7152748 ], [ 127.86026, 34.7205391 ], [ 127.836731, 34.7469368 ], [ 127.8390503, 34.783123 ], [ 127.8130569, 34.8254547 ], [ 127.8087082, 34.8520241 ], [ 127.8269577, 34.889431 ], [ 127.8513031, 34.8962898 ], [ 127.8707733, 34.9350243 ], [ 127.9023285, 34.9363098 ] ] ], [ [ [ 127.783577, 34.7159309 ], [ 127.7788162, 34.675251 ], [ 127.8052521, 34.6512756 ], [ 127.7924728, 34.601265 ], [ 127.7954178, 34.5795708 ], [ 127.7514801, 34.5876846 ], [ 127.7127228, 34.6146393 ], [ 127.7192535, 34.6426277 ], [ 127.7592163, 34.6776085 ], [ 127.739212, 34.7226791 ], [ 127.783577, 34.7159309 ] ] ], [ [ [ 127.7440033, 34.5475655 ], [ 127.7898636, 34.4996681 ], [ 127.7699966, 34.491478 ], [ 127.6998672, 34.526516 ], [ 127.7440033, 34.5475655 ] ] ], [ [ [ 127.4571915, 34.4702492 ], [ 127.5064774, 34.4698563 ], [ 127.5379562, 34.4416275 ], [ 127.5379562, 34.4257889 ], [ 127.5008163, 34.4090042 ], [ 127.4508438, 34.4438515 ], [ 127.4571915, 34.4702492 ] ] ], [ [ [ 127.4709473, 34.5168114 ], [ 127.4980011, 34.4986229 ], [ 127.4884033, 34.479229 ], [ 127.4579926, 34.4750404 ], [ 127.4709473, 34.5168114 ] ] ], [ [ [ 127.2189026, 34.4913788 ], [ 127.236763, 34.4712677 ], [ 127.2110672, 34.4269218 ], [ 127.1352692, 34.4221077 ], [ 127.1121063, 34.4591293 ], [ 127.1782227, 34.4865456 ], [ 127.2189026, 34.4913788 ] ] ], [ [ [ 127.0335464, 34.3712654 ], [ 127.0424805, 34.3489494 ], [ 127.0726166, 34.3548546 ], [ 127.0726776, 34.3263969 ], [ 127.0384369, 34.3034134 ], [ 127.0287933, 34.3399811 ], [ 127.0335464, 34.3712654 ] ] ], [ [ [ 126.9456406, 34.3846169 ], [ 126.9220963, 34.3532295 ], [ 126.882103, 34.3615837 ], [ 126.8844223, 34.4014397 ], [ 126.9456406, 34.3846169 ] ] ], [ [ [ 126.8913803, 34.2091675 ], [ 126.9248199, 34.1668243 ], [ 126.9154968, 34.1496773 ], [ 126.8780289, 34.1444168 ], [ 126.855629, 34.1618576 ], [ 126.8613663, 34.191967 ], [ 126.8913803, 34.2091675 ] ] ], [ [ [ 126.7731934, 33.5637779 ], [ 126.8260498, 33.557579 ], [ 126.8326416, 33.5390282 ], [ 126.8633423, 33.5211029 ], [ 126.8905563, 33.5239258 ], [ 126.9158325, 33.5011139 ], [ 126.9039612, 33.4739609 ], [ 126.9191971, 33.4597206 ], [ 126.9192276, 33.4294434 ], [ 126.9011765, 33.3857422 ], [ 126.8749466, 33.3670692 ], [ 126.8391037, 33.3216248 ], [ 126.8350067, 33.3027153 ], [ 126.7786026, 33.298481 ], [ 126.7437134, 33.2736206 ], [ 126.6465836, 33.2606812 ], [ 126.5992889, 33.2310982 ], [ 126.5222778, 33.2353592 ], [ 126.472168, 33.2230034 ], [ 126.4078827, 33.2392159 ], [ 126.3692627, 33.2271919 ], [ 126.3376236, 33.2344589 ], [ 126.3036194, 33.2220573 ], [ 126.2746811, 33.1909447 ], [ 126.2360077, 33.2297783 ], [ 126.2074509, 33.2396812 ], [ 126.1637268, 33.2838936 ], [ 126.1651611, 33.332695 ], [ 126.2608185, 33.4112015 ], [ 126.2656021, 33.4301071 ], [ 126.3161011, 33.4652519 ], [ 126.3716888, 33.4743233 ], [ 126.3890533, 33.4850922 ], [ 126.4545364, 33.4952316 ], [ 126.4932098, 33.5184708 ], [ 126.5121765, 33.513813 ], [ 126.5928574, 33.532856 ], [ 126.6445084, 33.5508537 ], [ 126.6729507, 33.543602 ], [ 126.7731934, 33.5637779 ] ] ], [ [ [ 126.8381271, 34.348938 ], [ 126.8720169, 34.3409996 ], [ 126.8812027, 34.3037872 ], [ 126.8462067, 34.2933922 ], [ 126.8049088, 34.3288383 ], [ 126.8381271, 34.348938 ] ] ], [ [ [ 126.8407669, 34.4156303 ], [ 126.8374863, 34.3911781 ], [ 126.8150635, 34.3780937 ], [ 126.7498779, 34.3738556 ], [ 126.7823868, 34.4222145 ], [ 126.8133392, 34.4339027 ], [ 126.8407669, 34.4156303 ] ] ], [ [ [ 126.7338562, 34.3286705 ], [ 126.7444534, 34.28545 ], [ 126.6949615, 34.2843857 ], [ 126.6455917, 34.326664 ], [ 126.6393814, 34.3770905 ], [ 126.6776962, 34.3941078 ], [ 126.7226563, 34.3778725 ], [ 126.7338562, 34.3286705 ] ] ], [ [ [ 126.6812134, 34.1732826 ], [ 126.6551666, 34.1042976 ], [ 126.6291733, 34.1357918 ], [ 126.647377, 34.1625671 ], [ 126.6812134, 34.1732826 ] ] ], [ [ [ 126.5621872, 34.2255707 ], [ 126.5930634, 34.2175827 ], [ 126.6206207, 34.1963768 ], [ 126.6111526, 34.1739349 ], [ 126.5511169, 34.1834412 ], [ 126.5621872, 34.2255707 ] ] ], [ [ [ 126.5734024, 37.2799034 ], [ 126.6148224, 37.2553749 ], [ 126.5666733, 37.1943054 ], [ 126.5430069, 37.2043495 ], [ 126.5734024, 37.2799034 ] ] ], [ [ [ 126.5557785, 34.1622009 ], [ 126.5907135, 34.1529541 ], [ 126.5418472, 34.1173973 ], [ 126.5105972, 34.1150589 ], [ 126.5040283, 34.1510315 ], [ 126.529808, 34.1679802 ], [ 126.5557785, 34.1622009 ] ] ], [ [ [ 126.5195389, 37.5317993 ], [ 126.5738373, 37.5023613 ], [ 126.5629425, 37.4824753 ], [ 126.4842682, 37.4615746 ], [ 126.4789505, 37.4824257 ], [ 126.4938965, 37.5242271 ], [ 126.5195389, 37.5317993 ] ] ], [ [ [ 126.4881287, 37.783493 ], [ 126.5239182, 37.7415009 ], [ 126.5139236, 37.7163162 ], [ 126.5262909, 37.612175 ], [ 126.5077133, 37.5938034 ], [ 126.4618301, 37.5967178 ], [ 126.4098663, 37.5890274 ], [ 126.368248, 37.6072884 ], [ 126.3695068, 37.631794 ], [ 126.4122772, 37.6518745 ], [ 126.3837738, 37.69627 ], [ 126.355217, 37.7007141 ], [ 126.3560333, 37.7797928 ], [ 126.3952789, 37.8157082 ], [ 126.4387283, 37.8113785 ], [ 126.4881287, 37.783493 ] ] ], [ [ [ 126.4673462, 37.2820587 ], [ 126.4959412, 37.2519417 ], [ 126.4627304, 37.2248421 ], [ 126.4270401, 37.2571983 ], [ 126.4673462, 37.2820587 ] ] ], [ [ [ 126.4696579, 37.5367889 ], [ 126.4678726, 37.521244 ], [ 126.4241867, 37.5155067 ], [ 126.4225616, 37.5393944 ], [ 126.4696579, 37.5367889 ] ] ], [ [ [ 126.3669968, 36.5976563 ], [ 126.3522263, 36.5688972 ], [ 126.3796768, 36.5218468 ], [ 126.4105911, 36.4845657 ], [ 126.4167633, 36.4034119 ], [ 126.3755188, 36.4081612 ], [ 126.3357697, 36.4367142 ], [ 126.3416367, 36.4787788 ], [ 126.3104935, 36.5773048 ], [ 126.3321686, 36.601532 ], [ 126.3669968, 36.5976563 ] ] ], [ [ [ 126.3155899, 34.5424423 ], [ 126.3285522, 34.5482979 ], [ 126.3739471, 34.5103951 ], [ 126.3824234, 34.4782791 ], [ 126.3393402, 34.4037704 ], [ 126.3116608, 34.4074135 ], [ 126.2653885, 34.3753433 ], [ 126.2104797, 34.3556328 ], [ 126.1588974, 34.3511848 ], [ 126.1246033, 34.4061661 ], [ 126.0908432, 34.4140968 ], [ 126.123497, 34.4619408 ], [ 126.1747284, 34.4856834 ], [ 126.2102814, 34.480896 ], [ 126.2178192, 34.4979134 ], [ 126.2715836, 34.5288963 ], [ 126.2643967, 34.5598221 ], [ 126.3017426, 34.5650558 ], [ 126.3155899, 34.5424423 ] ] ], [ [ [ 126.3240738, 37.7081451 ], [ 126.3699875, 37.6877289 ], [ 126.3783569, 37.6588745 ], [ 126.3442307, 37.6615906 ], [ 126.2907028, 37.6881142 ], [ 126.2884216, 37.7337952 ], [ 126.3258133, 37.7381401 ], [ 126.3240738, 37.7081451 ] ] ], [ [ [ 126.3142776, 34.908432 ], [ 126.3520813, 34.8923035 ], [ 126.3209305, 34.8632889 ], [ 126.3617401, 34.8608475 ], [ 126.3724365, 34.8422089 ], [ 126.3422775, 34.8170738 ], [ 126.3278732, 34.8479652 ], [ 126.2952118, 34.8673973 ], [ 126.3142776, 34.908432 ] ] ], [ [ [ 126.241539, 37.8138123 ], [ 126.2740479, 37.8137093 ], [ 126.315773, 37.7693405 ], [ 126.2200165, 37.7561035 ], [ 126.2277527, 37.800621 ], [ 126.241539, 37.8138123 ] ] ], [ [ [ 126.3153229, 35.6119194 ], [ 126.2881393, 35.5837021 ], [ 126.2703323, 35.603199 ], [ 126.3153229, 35.6119194 ] ] ], [ [ [ 126.198082, 35.106411 ], [ 126.2170868, 35.0763397 ], [ 126.2557983, 35.0595322 ], [ 126.2735291, 35.0336113 ], [ 126.251503, 35.0183411 ], [ 126.2343063, 35.0513535 ], [ 126.1755981, 35.062912 ], [ 126.1604538, 35.0917358 ], [ 126.198082, 35.106411 ] ] ], [ [ [ 126.1583633, 34.649437 ], [ 126.1867828, 34.6292305 ], [ 126.1337128, 34.6112709 ], [ 126.1215363, 34.6517143 ], [ 126.1583633, 34.649437 ] ] ], [ [ [ 126.18013, 34.7071724 ], [ 126.1512985, 34.7007713 ], [ 126.1536102, 34.7424736 ], [ 126.1808014, 34.7259712 ], [ 126.18013, 34.7071724 ] ] ], [ [ [ 126.1218109, 37.2464142 ], [ 126.1658401, 37.2274818 ], [ 126.1175232, 37.2070694 ], [ 126.0948563, 37.2303047 ], [ 126.1218109, 37.2464142 ] ] ], [ [ [ 126.1518173, 35.1396713 ], [ 126.1169434, 35.1161995 ], [ 126.1205292, 35.0752716 ], [ 126.0999832, 35.0459404 ], [ 126.0460434, 35.0832443 ], [ 126.0839005, 35.1050606 ], [ 126.1151886, 35.1378098 ], [ 126.1518173, 35.1396713 ] ] ], [ [ [ 126.1030426, 34.7661896 ], [ 126.1452103, 34.748642 ], [ 126.1212463, 34.7148132 ], [ 126.0815735, 34.7561493 ], [ 126.1030426, 34.7661896 ] ] ], [ [ [ 126.1377029, 34.8743248 ], [ 126.1388474, 34.8520432 ], [ 126.099617, 34.7958679 ], [ 126.062233, 34.848381 ], [ 126.1139069, 34.8785744 ], [ 126.1377029, 34.8743248 ] ] ], [ [ [ 126.0441513, 34.3099213 ], [ 126.0900497, 34.3026276 ], [ 126.0965271, 34.2742577 ], [ 126.055542, 34.2711143 ], [ 126.0225372, 34.2916222 ], [ 126.0441513, 34.3099213 ] ] ], [ [ [ 126.0571518, 34.9356842 ], [ 126.0778427, 34.9299164 ], [ 126.0896606, 34.901413 ], [ 126.0866928, 34.8638573 ], [ 126.0418472, 34.8463402 ], [ 125.9912033, 34.8622093 ], [ 126.0101166, 34.8952637 ], [ 126.0461807, 34.9159851 ], [ 126.0571518, 34.9356842 ] ] ], [ [ [ 126.0374069, 34.6092262 ], [ 126.0658417, 34.5810204 ], [ 126.0190735, 34.5669861 ], [ 126.014183, 34.60289 ], [ 126.0374069, 34.6092262 ] ] ], [ [ [ 125.9989319, 34.8021507 ], [ 125.9895477, 34.7709389 ], [ 125.9334869, 34.7563934 ], [ 125.9400711, 34.7197647 ], [ 125.9102631, 34.7167702 ], [ 125.8890762, 34.7314682 ], [ 125.8918915, 34.7671967 ], [ 125.9461288, 34.7772102 ], [ 125.9752731, 34.8010902 ], [ 125.9989319, 34.8021507 ] ] ], [ [ [ 125.9940491, 34.7061348 ], [ 125.9757996, 34.6581535 ], [ 125.9208527, 34.6750069 ], [ 125.9216537, 34.7084847 ], [ 125.9649735, 34.7336502 ], [ 125.9940491, 34.7061348 ] ] ], [ [ [ 125.4284668, 34.6839676 ], [ 125.4641266, 34.6894989 ], [ 125.4271393, 34.64431 ], [ 125.3876266, 34.6397552 ], [ 125.4141464, 34.6989098 ], [ 125.4284668, 34.6839676 ] ] ], [ [ [ 124.7258544, 37.9779089 ], [ 124.7319476, 37.9480451 ], [ 124.7072374, 37.9412348 ], [ 124.6975164, 37.9154539 ], [ 124.6345604, 37.9193862 ], [ 124.6304939, 37.9687019 ], [ 124.6813124, 37.9795788 ], [ 124.7258544, 37.9779089 ] ] ], [ [ [ 124.717538, 37.8088826 ], [ 124.6719679, 37.8117115 ], [ 124.7046213, 37.8447873 ], [ 124.717538, 37.8088826 ] ] ] ] } }
]
}
