{
"type": "FeatureCollection",
"name": "KWT_GAUL1995_ADM1",
"crs": { "type": "name", "properties": { "name": "urn:ogc:def:crs:OGC:1.3:CRS84" } },
"features": [
{ "type": "Feature", "properties": { "POLYGON_ID": "KWT_GAUL1995_ADM1_1741", "ADM0_ISO3": "KWT", "ADM0_NAME": "Kuwait", "ADM0_CODE": 137, "ADM1_NAME": "Al Farwaniyah", "ADM1_CODE": 1741, "GEOSET": "GAUL", "GEOSET_YEAR": 1995.0, "GEOSET_VERSION": "GAUL_v1", "GEOSET_UNIT": "ADM1", "CENTROID_LONG": 47.938426344326224, "CENTROID_LAT": 29.257974449342722 }, "geometry": { "type": "MultiPolygon", "coordinates": [ [ [ [ 48.0433018, 29.2081008 ], [ 47.8752997, 29.18627 ], [ 47.8618695, 29.2467059 ], [ 47.8446586, 29.2611992 ], [ 47.8415446, 29.3209869 ], [ 47.8641807, 29.3199861 ], [ 47.8685845, 29.3071417 ], [ 47.9964845, 29.3318911 ], [ 48.0433018, 29.2081008 ] ] ] ] } },
{ "type": "Feature", "properties": { "POLYGON_ID": "KWT_GAUL1995_ADM1_1742", "ADM0_ISO3": "KWT", "ADM0_NAME": "Kuwait", "ADM0_CODE": 137, "ADM1_NAME": "Al Ahmadi", "ADM1_CODE": 1742, "GEOSET": "GAUL", "GEOSET_YEAR": 1995.0, "GEOSET_VERSION": "GAUL_v1", "GEOSET_UNIT": "ADM1", "CENTROID_LONG": 47.94885823654591, "CENTROID_LAT": 28.827782226190767 }, "geometry": { "type": "MultiPolygon", "coordinates": [ [ [ [ 48.0433018, 29.2081008 ], [ 48.1091099, 29.216213 ], [ 48.1358986, 29.1365337 ], [ 48.1439552, 29.0751476 ], [ 48.1882324, 28.952919 ], [ 48.2481499, 28.8884945 ], [ 48.2867126, 28.8802376 ], [ 48.2836113, 28.8035011 ], [ 48.2988129, 28.7758389 ], [ 48.3616219, 28.7386913 ], [ 48.3988724, 28.7375336 ], [ 48.3815765, 28.6880054 ], [ 48.3962097, 28.659874 ], [ 48.3905869, 28.6033745 ], [ 48.433273, 28.5314042 ], [ 47.706987, 28.521394 ], [ 47.711542, 28.540146 ], [ 47.608446, 28.652294 ], [ 47.59821, 28.685572 ], [ 47.602558, 28.75596 ], [ 47.589704, 28.833753 ], [ 47.4752468, 28.9903562 ], [ 47.5160423, 29.0251078 ], [ 47.7465938, 29.0519682 ], [ 47.766739, 29.0788286 ], [ 47.7756925, 29.2086537 ], [ 47.8446586, 29.2611992 ], [ 47.8618695, 29.2467059 ], [ 47.8752997, 29.18627 ], [ 48.0433018, 29.2081008 ] ] ] ] } },
{ "type": "Feature", "properties": { "POLYGON_ID": "KWT_GAUL1995_ADM1_1743", "ADM0_ISO3": "KWT", "ADM0_NAME": "Kuwait", "ADM0_CODE": 137, "ADM1_NAME": "Al Jahrah", "ADM1_CODE": 1743, "GEOSET": "GAUL", "GEOSET_YEAR": 1995.0, "GEOSET_VERSION": "GAUL_v1", "GEOSET_UNIT": "ADM1", "CENTROID_LONG": 47.468349201444717, "CENTROID_LAT": 29.550176451512073 }, "geometry": { "type": "MultiPolygon", "coordinates": [ [ [ [ 48.2353477, 29.9366055 ], [ 48.2948112, 29.8834572 ], [ 48.342968, 29.8034763 ], [ 48.3773193, 29.7867279 ], [ 48.3823204, 29.7515545 ], [ 48.3662071, 29.7052574 ], [ 48.3163528, 29.642622 ], [ 48.2666779, 29.5985699 ], [ 48.2247849, 29.5767441 ], [ 48.1878204, 29.5877285 ], [ 48.1533661, 29.678627 ], [ 48.1272011, 29.7024059 ], [ 48.1048584, 29.7587795 ], [ 48.0672951, 29.770422 ], [ 48.0799522, 29.8342323 ], [ 48.1441879, 29.8656311 ], [ 48.1503677, 29.9249344 ], [ 48.1103592, 29.9711971 ], [ 48.1699524, 29.9762058 ], [ 48.2353477, 29.9366055 ] ] ], [ [ [ 47.8415446, 29.3209869 ], [ 47.8446586, 29.2611992 ], [ 47.7756925, 29.2086537 ], [ 47.766739, 29.0788286 ], [ 47.7465938, 29.0519682 ], [ 47.5160423, 29.0251078 ], [ 47.4752468, 28.9903562 ], [ 47.4645204, 28.9977444 ], [ 46.575737, 29.096389 ], [ 46.5530397, 29.1011702 ], [ 46.557102, 29.102965 ], [ 46.594215, 29.146856 ], [ 46.683661, 29.221705 ], [ 46.727583, 29.279553 ], [ 46.766792, 29.321865 ], [ 46.784253, 29.355362 ], [ 46.797839, 29.368903 ], [ 46.866434, 29.437175 ], [ 46.904493, 29.524996 ], [ 46.954667, 29.604072 ], [ 46.970119, 29.61818 ], [ 46.977463, 29.635141 ], [ 46.99811, 29.663451 ], [ 47.017466, 29.738374 ], [ 47.031406, 29.752361 ], [ 47.038267, 29.769515 ], [ 47.081585, 29.85139 ], [ 47.123726, 29.953275 ], [ 47.129634, 29.970879 ], [ 47.139426, 29.986816 ], [ 47.155612, 30.000265 ], [ 47.189573, 30.028366 ], [ 47.287566, 30.058711 ], [ 47.371306, 30.103699 ], [ 47.707679, 30.103699 ], [ 47.8702738, 30.0412156 ], [ 47.954402, 30.008886 ], [ 47.9591356, 30.0037526 ], [ 48.0139389, 29.9832993 ], [ 48.0164833, 29.8480816 ], [ 48.0590096, 29.7573242 ], [ 48.1070862, 29.7291393 ], [ 48.1064606, 29.7084713 ], [ 48.1646729, 29.580719 ], [ 48.1904602, 29.5431499 ], [ 48.1696091, 29.5159454 ], [ 48.1044235, 29.5573349 ], [ 48.0173264, 29.5742264 ], [ 47.9758186, 29.5700111 ], [ 47.8598747, 29.5101757 ], [ 47.7586861, 29.4102421 ], [ 47.7507668, 29.3737297 ], [ 47.8286057, 29.3708076 ], [ 47.8415446, 29.3209869 ] ] ], [ [ [ 48.1173439, 29.9445267 ], [ 48.14328, 29.9147835 ], [ 48.119175, 29.8880234 ], [ 48.0715942, 29.9082069 ], [ 48.0918541, 29.9593353 ], [ 48.1173439, 29.9445267 ] ] ] ] } },
{ "type": "Feature", "properties": { "POLYGON_ID": "KWT_GAUL1995_ADM1_1744", "ADM0_ISO3": "KWT", "ADM0_NAME": "Kuwait", "ADM0_CODE": 137, "ADM1_NAME": "Al Kuwayt", "ADM1_CODE": 1744, "GEOSET": "GAUL", "GEOSET_YEAR": 1995.0, "GEOSET_VERSION": "GAUL_v1", "GEOSET_UNIT": "ADM1", "CENTROID_LONG": 47.950534243646793, "CENTROID_LAT": 29.342366141692587 }, "geometry": { "type": "MultiPolygon", "coordinates": [ [ [ [ 47.8641807, 29.3199861 ], [ 47.950161, 29.355072 ], [ 47.9872322, 29.3887177 ], [ 48.0101562, 29.3717107 ], [ 47.9964845, 29.3318911 ], [ 47.8685845, 29.3071417 ], [ 47.8641807, 29.3199861 ] ] ] ] } },
{ "type": "Feature", "properties": { "POLYGON_ID": "KWT_GAUL1995_ADM1_1745", "ADM0_ISO3": "KWT", "ADM0_NAME": "Kuwait", "ADM0_CODE": 137, "ADM1_NAME": "Hawalli", "ADM1_CODE": 1745, "GEOSET": "GAUL", "GEOSET_YEAR": 1995.0, "GEOSET_VERSION": "GAUL_v1", "GEOSET_UNIT": "ADM1", "CENTROID_LONG": 48.121495111978959, "CENTROID_LAT": 29.321312355961858 }, "geometry": { "type": "MultiPolygon", "coordinates": [ [ [ [ 48.3152046, 29.4726372 ], [ 48.404213, 29.408823 ], [ 48.3640099, 29.4008942 ], [ 48.3390198, 29.4263191 ], [ 48.2703476, 29.4317722 ], [ 48.3152046, 29.4726372 ] ] ], [ [ [ 48.1091099, 29.216213 ], [ 48.0433018, 29.2081008 ], [ 47.9964845, 29.3318911 ], [ 48.0101562, 29.3717107 ], [ 48.0559578, 29.3381462 ], [ 48.0946846, 29.3274174 ], [ 48.0920486, 29.2672329 ], [ 48.1091099, 29.216213 ] ] ] ] } }
]
}
