{
"type": "FeatureCollection",
"name": "LBN_GAUL1992_ADM2",
"crs": { "type": "name", "properties": { "name": "urn:ogc:def:crs:OGC:1.3:CRS84" } },
"features": [
{ "type": "Feature", "properties": { "POLYGON_ID": "LBN_GAUL1992_ADM2_143332", "ADM0_ISO3": "LBN", "ADM0_NAME": "Lebanon", "ADM0_CODE": 141, "ADM1_NAME": "North", "ADM1_CODE": 1799, "ADM2_NAME": "Tripoli", "ADM2_CODE": 143332, "GEOSET": "GAUL", "GEOSET_YEAR": 1992.0, "GEOSET_VERSION": "GAUL_v1", "GEOSET_UNIT": "ADM2", "CENTROID_LONG": 36.02820836882772, "CENTROID_LAT": 34.384166001617885 }, "geometry": { "type": "MultiPolygon", "coordinates": [ [ [ [ 36.1414019, 34.421841 ], [ 36.1829374, 34.363271 ], [ 36.1388688, 34.3009596 ], [ 36.0328108, 34.2801458 ], [ 35.9269355, 34.3568264 ], [ 35.9763449, 34.4504322 ], [ 35.8877919, 34.4518331 ], [ 35.872984, 34.401538 ], [ 35.8288809, 34.4196102 ], [ 35.8162842, 34.4555614 ], [ 35.9060786, 34.4737102 ], [ 35.9537723, 34.512481 ], [ 35.9924293, 34.4409366 ], [ 36.1224075, 34.445265 ], [ 36.1414019, 34.421841 ] ] ] ] } },
{ "type": "Feature", "properties": { "POLYGON_ID": "LBN_GAUL1992_ADM2_18796", "ADM0_ISO3": "LBN", "ADM0_NAME": "Lebanon", "ADM0_CODE": 141, "ADM1_NAME": "Beirut", "ADM1_CODE": 1798, "ADM2_NAME": "Beirut", "ADM2_CODE": 18796, "GEOSET": "GAUL", "GEOSET_YEAR": 1992.0, "GEOSET_VERSION": "GAUL_v1", "GEOSET_UNIT": "ADM2", "CENTROID_LONG": 35.521089266666671, "CENTROID_LAT": 33.8836182 }, "geometry": { "type": "MultiPolygon", "coordinates": [ [ [ [ 35.5290635, 33.8773647 ], [ 35.4911974, 33.8679472 ], [ 35.5430069, 33.9055427 ], [ 35.5290635, 33.8773647 ] ] ] ] } },
{ "type": "Feature", "properties": { "POLYGON_ID": "LBN_GAUL1992_ADM2_18791", "ADM0_ISO3": "LBN", "ADM0_NAME": "Lebanon", "ADM0_CODE": 141, "ADM1_NAME": "Bekaa", "ADM1_CODE": 1797, "ADM2_NAME": "Baalbek", "ADM2_CODE": 18791, "GEOSET": "GAUL", "GEOSET_YEAR": 1992.0, "GEOSET_VERSION": "GAUL_v1", "GEOSET_UNIT": "ADM2", "CENTROID_LONG": 36.266954024202406, "CENTROID_LAT": 34.106284156578354 }, "geometry": { "type": "MultiPolygon", "coordinates": [ [ [ [ 36.532881, 34.4311555 ], [ 36.53325, 34.43103 ], [ 36.54623, 34.42471 ], [ 36.54876, 34.42422 ], [ 36.55085, 34.42329 ], [ 36.5528, 34.4209 ], [ 36.5541, 34.41785 ], [ 36.55547, 34.41507 ], [ 36.55619, 34.41141 ], [ 36.55626, 34.40721 ], [ 36.55395, 34.39964 ], [ 36.55388, 34.39866 ], [ 36.53008, 34.37211 ], [ 36.5302667, 34.3714084 ], [ 36.5552795, 34.3372331 ], [ 36.561524, 34.3283055 ], [ 36.56109, 34.32594 ], [ 36.56009, 34.32213 ], [ 36.56009, 34.3212 ], [ 36.5986, 34.29345 ], [ 36.59586, 34.29035 ], [ 36.5823331, 34.2821776 ], [ 36.58122, 34.28152 ], [ 36.57494, 34.27666 ], [ 36.5753, 34.27448 ], [ 36.57581, 34.27328 ], [ 36.57725, 34.27045 ], [ 36.57855, 34.26789 ], [ 36.61303, 34.21425 ], [ 36.61555, 34.21207 ], [ 36.6253298, 34.2021632 ], [ 36.62262, 34.19948 ], [ 36.6193738, 34.1978628 ], [ 36.6048092, 34.1923987 ], [ 36.60416, 34.19136 ], [ 36.60142, 34.18885 ], [ 36.6011894, 34.1887549 ], [ 36.59406, 34.18373 ], [ 36.59038, 34.17599 ], [ 36.5831427, 34.162731 ], [ 36.58237, 34.16187 ], [ 36.58013, 34.16029 ], [ 36.57732, 34.15865 ], [ 36.57177, 34.15604 ], [ 36.56939, 34.15446 ], [ 36.5717, 34.14453 ], [ 36.5718328, 34.1442738 ], [ 36.56708, 34.13549 ], [ 36.56578, 34.13423 ], [ 36.56362, 34.13287 ], [ 36.56146, 34.13238 ], [ 36.55879, 34.13173 ], [ 36.5538098, 34.13091 ], [ 36.54919, 34.12993 ], [ 36.5084242, 34.0530571 ], [ 36.4806, 34.03895 ], [ 36.47939, 34.03927 ], [ 36.47858, 34.03949 ], [ 36.4759939, 34.0401811 ], [ 36.455, 34.04353 ], [ 36.44537, 34.04845 ], [ 36.4358877, 34.0510343 ], [ 36.43407, 34.05138 ], [ 36.4276838, 34.0539205 ], [ 36.42585, 34.05465 ], [ 36.4221, 34.04822 ], [ 36.41652, 34.04142 ], [ 36.41063, 34.04505 ], [ 36.4031372, 34.0415482 ], [ 36.40616, 34.0275 ], [ 36.40299, 34.02783 ], [ 36.3913, 34.02886 ], [ 36.3864, 34.0196 ], [ 36.38517, 34.01219 ], [ 36.38481, 34.00968 ], [ 36.366957, 33.9957512 ], [ 36.36627, 33.99523 ], [ 36.3282833, 33.9695332 ], [ 36.32646, 33.96733 ], [ 36.32458, 33.964 ], [ 36.2970889, 33.930205 ], [ 36.29595, 33.92852 ], [ 36.29104, 33.92078 ], [ 36.289038, 33.9184996 ], [ 36.28802, 33.91734 ], [ 36.2869427, 33.9152941 ], [ 36.2854899, 33.9095497 ], [ 36.2854478, 33.9093812 ], [ 36.31715, 33.88698 ], [ 36.3174092, 33.8858089 ], [ 36.31744, 33.88567 ], [ 36.31823, 33.88289 ], [ 36.34615, 33.87373 ], [ 36.35617, 33.874 ], [ 36.36783, 33.86835 ], [ 36.3687094, 33.8652224 ], [ 36.38503, 33.85455 ], [ 36.38568, 33.85411 ], [ 36.39043, 33.84708 ], [ 36.3905451, 33.8459518 ], [ 36.3832314, 33.8292705 ], [ 36.38229, 33.82849 ], [ 36.3515558, 33.8222684 ], [ 36.34723, 33.82309 ], [ 36.34348, 33.82402 ], [ 36.33699, 33.82533 ], [ 36.3336, 33.82544 ], [ 36.31019, 33.83429 ], [ 36.3090881, 33.8347247 ], [ 36.299438, 33.8351336 ], [ 36.29753, 33.83465 ], [ 36.280502, 33.8435213 ], [ 36.24921, 33.85346 ], [ 36.24798, 33.85346 ], [ 36.24668, 33.85368 ], [ 36.24221, 33.84871 ], [ 36.2420409, 33.8483621 ], [ 36.23896, 33.84163 ], [ 36.2384996, 33.8390151 ], [ 36.2373, 33.83569 ], [ 36.23629, 33.83542 ], [ 36.21963, 33.83493 ], [ 36.21876, 33.83312 ], [ 36.21249, 33.82865 ], [ 36.2104, 33.8298 ], [ 36.19908, 33.82898 ], [ 36.1955529, 33.8297238 ], [ 36.18825, 33.83105 ], [ 36.1841063, 33.8313937 ], [ 36.17542, 33.83258 ], [ 36.17318, 33.83367 ], [ 36.16521, 33.84806 ], [ 36.1650643, 33.848439 ], [ 36.1605655, 33.8533386 ], [ 36.15948, 33.85368 ], [ 36.15039, 33.84964 ], [ 36.14642, 33.84419 ], [ 36.1463482, 33.8440901 ], [ 36.14274, 33.83907 ], [ 36.13907, 33.83596 ], [ 36.1382952, 33.8357608 ], [ 36.1273447, 33.8357625 ], [ 36.12586, 33.83493 ], [ 36.12421, 33.83449 ], [ 36.122574, 33.8342732 ], [ 36.12096, 33.83427 ], [ 36.119564, 33.8339187 ], [ 36.1194171, 33.8338814 ], [ 36.118, 33.83351 ], [ 36.11627, 33.8334 ], [ 36.11418, 33.83323 ], [ 36.1133703, 33.8329469 ], [ 36.11295, 33.8328 ], [ 36.11043, 33.828 ], [ 36.11, 33.82473 ], [ 36.08655, 33.81552 ], [ 36.08556, 33.81622 ], [ 36.07537, 33.82282 ], [ 36.0744741, 33.8225715 ], [ 36.06917, 33.82026 ], [ 36.0691246, 33.8201933 ], [ 36.069285, 33.8211391 ], [ 36.0693093, 33.8212826 ], [ 36.0693362, 33.8214704 ], [ 36.0702743, 33.8235952 ], [ 36.0778894, 33.8285297 ], [ 36.0898768, 33.8575311 ], [ 35.9058011, 33.9333326 ], [ 35.8771855, 33.9496437 ], [ 35.9635833, 34.0426675 ], [ 36.0138732, 34.1266599 ], [ 36.0191204, 34.1729609 ], [ 36.1371362, 34.2873804 ], [ 36.2267024, 34.2627635 ], [ 36.3075168, 34.2891262 ], [ 36.3453414, 34.2681896 ], [ 36.3752797, 34.3564583 ], [ 36.4283075, 34.3911367 ], [ 36.4745149, 34.426848 ], [ 36.4829978, 34.4479854 ], [ 36.4915318, 34.4460593 ], [ 36.4925332, 34.4472377 ], [ 36.4947178, 34.4496723 ], [ 36.4949855, 34.4499707 ], [ 36.49509, 34.44989 ], [ 36.532881, 34.4311555 ] ] ] ] } },
{ "type": "Feature", "properties": { "POLYGON_ID": "LBN_GAUL1992_ADM2_18793", "ADM0_ISO3": "LBN", "ADM0_NAME": "Lebanon", "ADM0_CODE": 141, "ADM1_NAME": "Bekaa", "ADM1_CODE": 1797, "ADM2_NAME": "Hermel", "ADM2_CODE": 18793, "GEOSET": "GAUL", "GEOSET_YEAR": 1992.0, "GEOSET_VERSION": "GAUL_v1", "GEOSET_UNIT": "ADM2", "CENTROID_LONG": 36.303689826862708, "CENTROID_LAT": 34.387168328926521 }, "geometry": { "type": "MultiPolygon", "coordinates": [ [ [ [ 36.357697, 34.5036172 ], [ 36.35882, 34.50454 ], [ 36.3614383, 34.5035381 ], [ 36.36189, 34.50329 ], [ 36.37317, 34.49947 ], [ 36.3763549, 34.4994248 ], [ 36.37881, 34.49939 ], [ 36.38338, 34.49884 ], [ 36.3861392, 34.49884 ], [ 36.38926, 34.49929 ], [ 36.39322, 34.50011 ], [ 36.44612, 34.48761 ], [ 36.4462241, 34.4869192 ], [ 36.44634, 34.48615 ], [ 36.44821, 34.48364 ], [ 36.44922, 34.48255 ], [ 36.45038, 34.48184 ], [ 36.4656464, 34.4628682 ], [ 36.4661, 34.46265 ], [ 36.46769, 34.46194 ], [ 36.46855, 34.46151 ], [ 36.47079, 34.46058 ], [ 36.4714927, 34.4602827 ], [ 36.48125, 34.45862 ], [ 36.4828317, 34.4580195 ], [ 36.48392, 34.45763 ], [ 36.48601, 34.45763 ], [ 36.4865051, 34.4573653 ], [ 36.49171, 34.45333 ], [ 36.4924034, 34.4528516 ], [ 36.4943121, 34.4504906 ], [ 36.4949855, 34.4499707 ], [ 36.4947178, 34.4496723 ], [ 36.4925332, 34.4472377 ], [ 36.4915318, 34.4460593 ], [ 36.4829978, 34.4479854 ], [ 36.4745149, 34.426848 ], [ 36.4283075, 34.3911367 ], [ 36.3752797, 34.3564583 ], [ 36.3453414, 34.2681896 ], [ 36.3075168, 34.2891262 ], [ 36.2267024, 34.2627635 ], [ 36.1371362, 34.2873804 ], [ 36.1388688, 34.3009596 ], [ 36.1829374, 34.363271 ], [ 36.1414019, 34.421841 ], [ 36.2438555, 34.4188394 ], [ 36.2418004, 34.4574956 ], [ 36.287809, 34.4786319 ], [ 36.3144938, 34.5155138 ], [ 36.320333, 34.5146209 ], [ 36.3225459, 34.5177088 ], [ 36.3269371, 34.5186758 ], [ 36.329287, 34.5220088 ], [ 36.3302958, 34.5225153 ], [ 36.3314644, 34.5229732 ], [ 36.3315977, 34.5228899 ], [ 36.33072, 34.52232 ], [ 36.32912, 34.51704 ], [ 36.3329, 34.50499 ], [ 36.33807, 34.49999 ], [ 36.357697, 34.5036172 ] ] ] ] } },
{ "type": "Feature", "properties": { "POLYGON_ID": "LBN_GAUL1992_ADM2_18794", "ADM0_ISO3": "LBN", "ADM0_NAME": "Lebanon", "ADM0_CODE": 141, "ADM1_NAME": "Bekaa", "ADM1_CODE": 1797, "ADM2_NAME": "Rachiaya", "ADM2_CODE": 18794, "GEOSET": "GAUL", "GEOSET_YEAR": 1992.0, "GEOSET_VERSION": "GAUL_v1", "GEOSET_UNIT": "ADM2", "CENTROID_LONG": 35.870049551731313, "CENTROID_LAT": 33.528862193524368 }, "geometry": { "type": "MultiPolygon", "coordinates": [ [ [ [ 35.9643631, 33.6744905 ], [ 35.96403, 33.67424 ], [ 35.95005, 33.66873 ], [ 35.94901, 33.66794 ], [ 35.94471, 33.66145 ], [ 35.94432, 33.66042 ], [ 35.94328, 33.6586 ], [ 35.94152, 33.65609 ], [ 35.93983, 33.65447 ], [ 35.93788, 33.65329 ], [ 35.93605, 33.65191 ], [ 35.93372, 33.65073 ], [ 35.93254, 33.64984 ], [ 35.93625, 33.63986 ], [ 35.9368258, 33.6394282 ], [ 35.93697, 33.63932 ], [ 35.9372973, 33.6390885 ], [ 35.97679, 33.63736 ], [ 35.9776219, 33.6371324 ], [ 35.9788, 33.63681 ], [ 35.9790967, 33.634079 ], [ 35.97965, 33.63352 ], [ 35.9798414, 33.6334209 ], [ 35.9805, 33.63308 ], [ 35.9825225, 33.631476 ], [ 35.98453, 33.63081 ], [ 35.99123, 33.62486 ], [ 35.99195, 33.62417 ], [ 36.03132, 33.60711 ], [ 36.03294, 33.60628 ], [ 36.0342028, 33.6054188 ], [ 36.03555, 33.6045 ], [ 36.03841, 33.60268 ], [ 36.0391637, 33.6022455 ], [ 36.03926, 33.60219 ], [ 36.04147, 33.60072 ], [ 36.0526214, 33.5928598 ], [ 36.05396, 33.59172 ], [ 36.0625429, 33.5800218 ], [ 36.06301, 33.57544 ], [ 36.0627958, 33.5748518 ], [ 36.05045, 33.56329 ], [ 36.047, 33.56014 ], [ 36.02305, 33.54116 ], [ 36.02175, 33.5417 ], [ 36.0199088, 33.5421556 ], [ 36.01824, 33.5422 ], [ 36.0157, 33.54195 ], [ 36.0137467, 33.5415574 ], [ 36.00184, 33.53585 ], [ 36.00015, 33.53521 ], [ 35.98759, 33.53374 ], [ 35.9861877, 33.5342578 ], [ 35.97178, 33.53418 ], [ 35.9708, 33.53339 ], [ 35.95994, 33.52803 ], [ 35.9566306, 33.52718 ], [ 35.94296, 33.52026 ], [ 35.94159, 33.51874 ], [ 35.94087, 33.5179 ], [ 35.94009, 33.51707 ], [ 35.94987, 33.47545 ], [ 35.94953, 33.47343 ], [ 35.93798, 33.46253 ], [ 35.93662, 33.46121 ], [ 35.93196, 33.45817 ], [ 35.9309821, 33.4575414 ], [ 35.87416, 33.42152 ], [ 35.87236, 33.42088 ], [ 35.8695, 33.41969 ], [ 35.8683737, 33.419243 ], [ 35.85261, 33.41213 ], [ 35.8512646, 33.4115688 ], [ 35.82955, 33.39959 ], [ 35.82824, 33.3986 ], [ 35.81848, 33.38151 ], [ 35.81868, 33.38007 ], [ 35.816899, 33.36067 ], [ 35.81665, 33.3603 ], [ 35.81626, 33.35905 ], [ 35.81529, 33.35766 ], [ 35.8144565, 33.357087 ], [ 35.81301, 33.35616 ], [ 35.81184, 33.35528 ], [ 35.8011263, 33.349719 ], [ 35.79636, 33.34585 ], [ 35.7956313, 33.3452993 ], [ 35.7948258, 33.3455004 ], [ 35.7940847, 33.3456854 ], [ 35.7926333, 33.3460618 ], [ 35.7907821, 33.346701 ], [ 35.787675, 33.3467265 ], [ 35.7754473, 33.3524425 ], [ 35.7628433, 33.3635507 ], [ 35.7876042, 33.4031439 ], [ 35.739358, 33.4780789 ], [ 35.7067615, 33.5283425 ], [ 35.7683431, 33.5681049 ], [ 35.7923258, 33.6086377 ], [ 35.8998439, 33.6444124 ], [ 35.9431367, 33.6880379 ], [ 35.9643631, 33.6744905 ] ] ] ] } },
{ "type": "Feature", "properties": { "POLYGON_ID": "LBN_GAUL1992_ADM2_18792", "ADM0_ISO3": "LBN", "ADM0_NAME": "Lebanon", "ADM0_CODE": 141, "ADM1_NAME": "Bekaa", "ADM1_CODE": 1797, "ADM2_NAME": "West Bekaa", "ADM2_CODE": 18792, "GEOSET": "GAUL", "GEOSET_YEAR": 1992.0, "GEOSET_VERSION": "GAUL_v1", "GEOSET_UNIT": "ADM2", "CENTROID_LONG": 35.752952778972336, "CENTROID_LAT": 33.612516564978179 }, "geometry": { "type": "MultiPolygon", "coordinates": [ [ [ [ 35.9431367, 33.6880379 ], [ 35.8998439, 33.6444124 ], [ 35.7923258, 33.6086377 ], [ 35.7683431, 33.5681049 ], [ 35.7067615, 33.5283425 ], [ 35.739358, 33.4780789 ], [ 35.6308066, 33.4279456 ], [ 35.6223999, 33.492498 ], [ 35.6536395, 33.5889423 ], [ 35.6982127, 33.6765829 ], [ 35.7693009, 33.7360853 ], [ 35.7903594, 33.7505155 ], [ 35.9431367, 33.6880379 ] ] ] ] } },
{ "type": "Feature", "properties": { "POLYGON_ID": "LBN_GAUL1992_ADM2_18795", "ADM0_ISO3": "LBN", "ADM0_NAME": "Lebanon", "ADM0_CODE": 141, "ADM1_NAME": "Bekaa", "ADM1_CODE": 1797, "ADM2_NAME": "Zahle", "ADM2_CODE": 18795, "GEOSET": "GAUL", "GEOSET_YEAR": 1992.0, "GEOSET_VERSION": "GAUL_v1", "GEOSET_UNIT": "ADM2", "CENTROID_LONG": 35.924066414247434, "CENTROID_LAT": 33.809770133182347 }, "geometry": { "type": "MultiPolygon", "coordinates": [ [ [ [ 36.0691246, 33.8201933 ], [ 36.06772, 33.81813 ], [ 36.0642309, 33.8133721 ], [ 36.03527, 33.77185 ], [ 36.0337878, 33.7700631 ], [ 36.01608, 33.76989 ], [ 36.01543, 33.76956 ], [ 36.00245, 33.75147 ], [ 36.0005746, 33.7493951 ], [ 36.00057, 33.74939 ], [ 36.0000141, 33.7458336 ], [ 35.974733, 33.6914228 ], [ 35.97373, 33.68924 ], [ 35.9724036, 33.6860399 ], [ 35.9654, 33.67527 ], [ 35.9643631, 33.6744905 ], [ 35.9431367, 33.6880379 ], [ 35.7903594, 33.7505155 ], [ 35.7654104, 33.8092498 ], [ 35.8459423, 33.8823896 ], [ 35.9058011, 33.9333326 ], [ 36.0898768, 33.8575311 ], [ 36.0778894, 33.8285297 ], [ 36.0702743, 33.8235952 ], [ 36.0693362, 33.8214704 ], [ 36.0693093, 33.8212826 ], [ 36.069285, 33.8211391 ], [ 36.0691246, 33.8201933 ] ] ] ] } },
{ "type": "Feature", "properties": { "POLYGON_ID": "LBN_GAUL1992_ADM2_18807", "ADM0_ISO3": "LBN", "ADM0_NAME": "Lebanon", "ADM0_CODE": 141, "ADM1_NAME": "Mount Lebanon", "ADM1_CODE": 1801, "ADM2_NAME": "Aley", "ADM2_CODE": 18807, "GEOSET": "GAUL", "GEOSET_YEAR": 1992.0, "GEOSET_VERSION": "GAUL_v1", "GEOSET_UNIT": "ADM2", "CENTROID_LONG": 35.609385826486857, "CENTROID_LAT": 33.771803022987122 }, "geometry": { "type": "MultiPolygon", "coordinates": [ [ [ [ 35.7654104, 33.8092498 ], [ 35.7903594, 33.7505155 ], [ 35.7693009, 33.7360853 ], [ 35.6957157, 33.7557345 ], [ 35.6365727, 33.7491721 ], [ 35.4926525, 33.7020586 ], [ 35.4637499, 33.7616445 ], [ 35.4923917, 33.8256535 ], [ 35.5362083, 33.7997611 ], [ 35.5855749, 33.8277074 ], [ 35.6365914, 33.8076111 ], [ 35.7654104, 33.8092498 ] ] ] ] } },
{ "type": "Feature", "properties": { "POLYGON_ID": "LBN_GAUL1992_ADM2_18808", "ADM0_ISO3": "LBN", "ADM0_NAME": "Lebanon", "ADM0_CODE": 141, "ADM1_NAME": "Mount Lebanon", "ADM1_CODE": 1801, "ADM2_NAME": "Baabda", "ADM2_CODE": 18808, "GEOSET": "GAUL", "GEOSET_YEAR": 1992.0, "GEOSET_VERSION": "GAUL_v1", "GEOSET_UNIT": "ADM2", "CENTROID_LONG": 35.665470650470624, "CENTROID_LAT": 33.844848619426052 }, "geometry": { "type": "MultiPolygon", "coordinates": [ [ [ [ 35.8459423, 33.8823896 ], [ 35.7654104, 33.8092498 ], [ 35.6365914, 33.8076111 ], [ 35.5855749, 33.8277074 ], [ 35.5362083, 33.7997611 ], [ 35.4923917, 33.8256535 ], [ 35.4911974, 33.8679472 ], [ 35.5290635, 33.8773647 ], [ 35.556552, 33.8476102 ], [ 35.6325387, 33.8721831 ], [ 35.8002349, 33.8877212 ], [ 35.8459423, 33.8823896 ] ] ] ] } },
{ "type": "Feature", "properties": { "POLYGON_ID": "LBN_GAUL1992_ADM2_18809", "ADM0_ISO3": "LBN", "ADM0_NAME": "Lebanon", "ADM0_CODE": 141, "ADM1_NAME": "Mount Lebanon", "ADM1_CODE": 1801, "ADM2_NAME": "Chouf", "ADM2_CODE": 18809, "GEOSET": "GAUL", "GEOSET_YEAR": 1992.0, "GEOSET_VERSION": "GAUL_v1", "GEOSET_UNIT": "ADM2", "CENTROID_LONG": 35.565070704713243, "CENTROID_LAT": 33.655140280107233 }, "geometry": { "type": "MultiPolygon", "coordinates": [ [ [ [ 35.7693009, 33.7360853 ], [ 35.6982127, 33.6765829 ], [ 35.6536395, 33.5889423 ], [ 35.6223999, 33.492498 ], [ 35.6029612, 33.5772567 ], [ 35.4345023, 33.5704292 ], [ 35.3915027, 33.5886778 ], [ 35.4227865, 33.6897042 ], [ 35.4637499, 33.7616445 ], [ 35.4926525, 33.7020586 ], [ 35.6365727, 33.7491721 ], [ 35.6957157, 33.7557345 ], [ 35.7693009, 33.7360853 ] ] ] ] } },
{ "type": "Feature", "properties": { "POLYGON_ID": "LBN_GAUL1992_ADM2_18812", "ADM0_ISO3": "LBN", "ADM0_NAME": "Lebanon", "ADM0_CODE": 141, "ADM1_NAME": "Mount Lebanon", "ADM1_CODE": 1801, "ADM2_NAME": "El Metn", "ADM2_CODE": 18812, "GEOSET": "GAUL", "GEOSET_YEAR": 1992.0, "GEOSET_VERSION": "GAUL_v1", "GEOSET_UNIT": "ADM2", "CENTROID_LONG": 35.713437342017237, "CENTROID_LAT": 33.915744703006887 }, "geometry": { "type": "MultiPolygon", "coordinates": [ [ [ [ 35.8771855, 33.9496437 ], [ 35.9058011, 33.9333326 ], [ 35.8459423, 33.8823896 ], [ 35.8002349, 33.8877212 ], [ 35.6325387, 33.8721831 ], [ 35.556552, 33.8476102 ], [ 35.5290635, 33.8773647 ], [ 35.5430069, 33.9055427 ], [ 35.6002536, 33.954808 ], [ 35.6528874, 33.9409735 ], [ 35.820516, 33.9794568 ], [ 35.8771855, 33.9496437 ] ] ] ] } },
{ "type": "Feature", "properties": { "POLYGON_ID": "LBN_GAUL1992_ADM2_18810", "ADM0_ISO3": "LBN", "ADM0_NAME": "Lebanon", "ADM0_CODE": 141, "ADM1_NAME": "Mount Lebanon", "ADM1_CODE": 1801, "ADM2_NAME": "Jubail", "ADM2_CODE": 18810, "GEOSET": "GAUL", "GEOSET_YEAR": 1992.0, "GEOSET_VERSION": "GAUL_v1", "GEOSET_UNIT": "ADM2", "CENTROID_LONG": 35.813298555448952, "CENTROID_LAT": 34.124399402020423 }, "geometry": { "type": "MultiPolygon", "coordinates": [ [ [ [ 36.0138732, 34.1266599 ], [ 35.9635833, 34.0426675 ], [ 35.9394995, 34.0711103 ], [ 35.7927587, 34.04745 ], [ 35.7892594, 34.0824284 ], [ 35.6924073, 34.0852301 ], [ 35.6449573, 34.061677 ], [ 35.659369, 34.1031613 ], [ 35.6366495, 34.1534887 ], [ 35.6489766, 34.209948 ], [ 35.744985, 34.1818807 ], [ 35.8366228, 34.1912993 ], [ 35.878274, 34.1525129 ], [ 35.949581, 34.1665187 ], [ 36.0138732, 34.1266599 ] ] ] ] } },
{ "type": "Feature", "properties": { "POLYGON_ID": "LBN_GAUL1992_ADM2_18811", "ADM0_ISO3": "LBN", "ADM0_NAME": "Lebanon", "ADM0_CODE": 141, "ADM1_NAME": "Mount Lebanon", "ADM1_CODE": 1801, "ADM2_NAME": "Kasrouane", "ADM2_CODE": 18811, "GEOSET": "GAUL", "GEOSET_YEAR": 1992.0, "GEOSET_VERSION": "GAUL_v1", "GEOSET_UNIT": "ADM2", "CENTROID_LONG": 35.775301723496959, "CENTROID_LAT": 34.01573916129221 }, "geometry": { "type": "MultiPolygon", "coordinates": [ [ [ [ 35.9635833, 34.0426675 ], [ 35.8771855, 33.9496437 ], [ 35.820516, 33.9794568 ], [ 35.6528874, 33.9409735 ], [ 35.6002536, 33.954808 ], [ 35.6440459, 33.9925693 ], [ 35.6449573, 34.061677 ], [ 35.6924073, 34.0852301 ], [ 35.7892594, 34.0824284 ], [ 35.7927587, 34.04745 ], [ 35.9394995, 34.0711103 ], [ 35.9635833, 34.0426675 ] ] ] ] } },
{ "type": "Feature", "properties": { "POLYGON_ID": "LBN_GAUL1992_ADM2_18814", "ADM0_ISO3": "LBN", "ADM0_NAME": "Lebanon", "ADM0_CODE": 141, "ADM1_NAME": "South", "ADM1_CODE": 143331, "ADM2_NAME": "Bint Jubail", "ADM2_CODE": 18814, "GEOSET": "GAUL", "GEOSET_YEAR": 1992.0, "GEOSET_VERSION": "GAUL_v1", "GEOSET_UNIT": "ADM2", "CENTROID_LONG": 35.401388535759942, "CENTROID_LAT": 33.147139873871318 }, "geometry": { "type": "MultiPolygon", "coordinates": [ [ [ [ 35.4290813, 33.3111902 ], [ 35.438075, 33.3078454 ], [ 35.4267648, 33.230748 ], [ 35.4849206, 33.2022284 ], [ 35.4781608, 33.125067 ], [ 35.5076281, 33.1158936 ], [ 35.505512, 33.115842 ], [ 35.502681, 33.1141632 ], [ 35.503625, 33.089486 ], [ 35.5001384, 33.0902344 ], [ 35.4993844, 33.0903963 ], [ 35.4969089, 33.0909276 ], [ 35.489798, 33.092454 ], [ 35.463044, 33.093042 ], [ 35.445825, 33.090667 ], [ 35.431038, 33.065849 ], [ 35.395705, 33.060867 ], [ 35.381932, 33.062391 ], [ 35.37819, 33.05499 ], [ 35.3587836, 33.0568818 ], [ 35.3535651, 33.0576357 ], [ 35.351095, 33.0585284 ], [ 35.3387062, 33.0681147 ], [ 35.3346419, 33.0752842 ], [ 35.324629, 33.095741 ], [ 35.317156, 33.10501 ], [ 35.309347, 33.100767 ], [ 35.300957, 33.10049 ], [ 35.3000649, 33.1032046 ], [ 35.2958513, 33.1071494 ], [ 35.2957562, 33.1072056 ], [ 35.3098628, 33.1565341 ], [ 35.4286343, 33.2733029 ], [ 35.4290813, 33.3111902 ] ] ] ] } },
{ "type": "Feature", "properties": { "POLYGON_ID": "LBN_GAUL1992_ADM2_18813", "ADM0_ISO3": "LBN", "ADM0_NAME": "Lebanon", "ADM0_CODE": 141, "ADM1_NAME": "South", "ADM1_CODE": 143331, "ADM2_NAME": "Hasbaiya", "ADM2_CODE": 18813, "GEOSET": "GAUL", "GEOSET_YEAR": 1992.0, "GEOSET_VERSION": "GAUL_v1", "GEOSET_UNIT": "ADM2", "CENTROID_LONG": 35.695596238676828, "CENTROID_LAT": 33.378338208627341 }, "geometry": { "type": "MultiPolygon", "coordinates": [ [ [ [ 35.7956313, 33.3452993 ], [ 35.79505, 33.34486 ], [ 35.78534, 33.33958 ], [ 35.7844372, 33.3392068 ], [ 35.7690057, 33.3329508 ], [ 35.76777, 33.33253 ], [ 35.7671037, 33.3322706 ], [ 35.76646, 33.33202 ], [ 35.7637, 33.33099 ], [ 35.7619, 33.33066 ], [ 35.75045, 33.32714 ], [ 35.74996, 33.32681 ], [ 35.73546, 33.32729 ], [ 35.7336326, 33.327851 ], [ 35.6907491, 33.2958199 ], [ 35.69017, 33.29574 ], [ 35.6883457, 33.2953727 ], [ 35.68765, 33.29516 ], [ 35.658522, 33.2743902 ], [ 35.6576, 33.2747 ], [ 35.6469464, 33.2785271 ], [ 35.643, 33.27987 ], [ 35.64193, 33.27943 ], [ 35.63761, 33.27792 ], [ 35.63611, 33.27722 ], [ 35.6223608, 33.2721966 ], [ 35.6215015, 33.2718777 ], [ 35.6384306, 33.3037501 ], [ 35.6050991, 33.4022096 ], [ 35.6308066, 33.4279456 ], [ 35.739358, 33.4780789 ], [ 35.7876042, 33.4031439 ], [ 35.7628433, 33.3635507 ], [ 35.7754473, 33.3524425 ], [ 35.787675, 33.3467265 ], [ 35.7907821, 33.346701 ], [ 35.7926333, 33.3460618 ], [ 35.7940847, 33.3456854 ], [ 35.7948258, 33.3455004 ], [ 35.7956313, 33.3452993 ] ] ] ] } },
{ "type": "Feature", "properties": { "POLYGON_ID": "LBN_GAUL1992_ADM2_18815", "ADM0_ISO3": "LBN", "ADM0_NAME": "Lebanon", "ADM0_CODE": 141, "ADM1_NAME": "South", "ADM1_CODE": 143331, "ADM2_NAME": "Marjaayoun", "ADM2_CODE": 18815, "GEOSET": "GAUL", "GEOSET_YEAR": 1992.0, "GEOSET_VERSION": "GAUL_v1", "GEOSET_UNIT": "ADM2", "CENTROID_LONG": 35.531228214157352, "CENTROID_LAT": 33.265329813323653 }, "geometry": { "type": "MultiPolygon", "coordinates": [ [ [ [ 35.6215015, 33.2718777 ], [ 35.6214, 33.27184 ], [ 35.6209095, 33.2534043 ], [ 35.62102, 33.25328 ], [ 35.62159, 33.25328 ], [ 35.62348, 33.24304 ], [ 35.6237482, 33.2427335 ], [ 35.624445, 33.24235 ], [ 35.6238519, 33.2426192 ], [ 35.6139511, 33.2471126 ], [ 35.6072876, 33.2501368 ], [ 35.584642, 33.281954 ], [ 35.576722, 33.286683 ], [ 35.568328, 33.290835 ], [ 35.564571, 33.288289 ], [ 35.56444, 33.273819 ], [ 35.557156, 33.26448 ], [ 35.555778, 33.258363 ], [ 35.546153, 33.254488 ], [ 35.546291, 33.237605 ], [ 35.537458, 33.232535 ], [ 35.5374442, 33.2318883 ], [ 35.536951, 33.20881 ], [ 35.542415, 33.198525 ], [ 35.5383052, 33.1831221 ], [ 35.5335788, 33.165408 ], [ 35.526523, 33.138964 ], [ 35.519515, 33.1161834 ], [ 35.5112091, 33.1159809 ], [ 35.5076281, 33.1158936 ], [ 35.4781608, 33.125067 ], [ 35.4849206, 33.2022284 ], [ 35.4267648, 33.230748 ], [ 35.438075, 33.3078454 ], [ 35.5288955, 33.2956822 ], [ 35.5419044, 33.3511747 ], [ 35.6050991, 33.4022096 ], [ 35.6384306, 33.3037501 ], [ 35.6215015, 33.2718777 ] ] ] ] } },
{ "type": "Feature", "properties": { "POLYGON_ID": "LBN_GAUL1992_ADM2_18816", "ADM0_ISO3": "LBN", "ADM0_NAME": "Lebanon", "ADM0_CODE": 141, "ADM1_NAME": "South", "ADM1_CODE": 143331, "ADM2_NAME": "Nabatiye", "ADM2_CODE": 18816, "GEOSET": "GAUL", "GEOSET_YEAR": 1992.0, "GEOSET_VERSION": "GAUL_v1", "GEOSET_UNIT": "ADM2", "CENTROID_LONG": 35.449755316455267, "CENTROID_LAT": 33.38579423367711 }, "geometry": { "type": "MultiPolygon", "coordinates": [ [ [ [ 35.5419044, 33.3511747 ], [ 35.5288955, 33.2956822 ], [ 35.438075, 33.3078454 ], [ 35.4290813, 33.3111902 ], [ 35.3425243, 33.326359 ], [ 35.3140849, 33.365255 ], [ 35.389219, 33.4205105 ], [ 35.3941801, 33.4578741 ], [ 35.4648086, 33.4866439 ], [ 35.4839699, 33.4865246 ], [ 35.5000765, 33.4968409 ], [ 35.5423365, 33.4195051 ], [ 35.5419044, 33.3511747 ] ] ] ] } },
{ "type": "Feature", "properties": { "POLYGON_ID": "LBN_GAUL1992_ADM2_18797", "ADM0_ISO3": "LBN", "ADM0_NAME": "Lebanon", "ADM0_CODE": 141, "ADM1_NAME": "North", "ADM1_CODE": 1799, "ADM2_NAME": "Akkar", "ADM2_CODE": 18797, "GEOSET": "GAUL", "GEOSET_YEAR": 1992.0, "GEOSET_VERSION": "GAUL_v1", "GEOSET_UNIT": "ADM2", "CENTROID_LONG": 36.179176027018521, "CENTROID_LAT": 34.547109335338575 }, "geometry": { "type": "MultiPolygon", "coordinates": [ [ [ [ 36.34911, 34.67137 ], [ 36.3496238, 34.6707907 ], [ 36.34933, 34.66366 ], [ 36.34933, 34.66256 ], [ 36.35028, 34.66031 ], [ 36.35217, 34.65811 ], [ 36.35443, 34.6553 ], [ 36.3653907, 34.6440516 ], [ 36.36718, 34.64258 ], [ 36.3698, 34.64082 ], [ 36.37381, 34.63845 ], [ 36.37817, 34.6352 ], [ 36.3815672, 34.6329243 ], [ 36.4068, 34.62915 ], [ 36.41009, 34.62727 ], [ 36.4312638, 34.6180234 ], [ 36.43514, 34.62117 ], [ 36.4624902, 34.6352742 ], [ 36.46311, 34.63542 ], [ 36.4633638, 34.6352338 ], [ 36.46005, 34.60905 ], [ 36.46027, 34.60553 ], [ 36.43273, 34.5921 ], [ 36.43215, 34.59309 ], [ 36.4257883, 34.6045359 ], [ 36.42414, 34.60536 ], [ 36.41576, 34.60878 ], [ 36.41322, 34.60905 ], [ 36.40382, 34.60366 ], [ 36.4040389, 34.602834 ], [ 36.404411, 34.6026084 ], [ 36.41454, 34.55888 ], [ 36.41173, 34.5571732 ], [ 36.39904, 34.5502 ], [ 36.3947252, 34.5481969 ], [ 36.38762, 34.54486 ], [ 36.3762, 34.53947 ], [ 36.3323699, 34.5233913 ], [ 36.3315977, 34.5228899 ], [ 36.3314644, 34.5229732 ], [ 36.3302958, 34.5225153 ], [ 36.329287, 34.5220088 ], [ 36.3269371, 34.5186758 ], [ 36.3225459, 34.5177088 ], [ 36.320333, 34.5146209 ], [ 36.3144938, 34.5155138 ], [ 36.287809, 34.4786319 ], [ 36.2418004, 34.4574956 ], [ 36.2438555, 34.4188394 ], [ 36.1414019, 34.421841 ], [ 36.1224075, 34.445265 ], [ 35.9924293, 34.4409366 ], [ 35.9537723, 34.512481 ], [ 35.9973987, 34.5494321 ], [ 35.9807594, 34.6435648 ], [ 35.98092, 34.6486 ], [ 35.98106, 34.64998 ], [ 35.98879, 34.65053 ], [ 35.98988, 34.65053 ], [ 35.99141, 34.64402 ], [ 35.9915106, 34.6437652 ], [ 35.99703, 34.64337 ], [ 35.9974692, 34.6433033 ], [ 36.0022837, 34.6448138 ], [ 36.00292, 34.64508 ], [ 36.00437, 34.64508 ], [ 36.00631, 34.6454 ], [ 36.00645, 34.64577 ], [ 36.01832, 34.63659 ], [ 36.01881, 34.63628 ], [ 36.02005, 34.63586 ], [ 36.02089, 34.63601 ], [ 36.0210842, 34.6362374 ], [ 36.02533, 34.63187 ], [ 36.02616, 34.63172 ], [ 36.02748, 34.62993 ], [ 36.02824, 34.62967 ], [ 36.03276, 34.63103 ], [ 36.034, 34.63134 ], [ 36.03338, 34.62778 ], [ 36.0341398, 34.6276335 ], [ 36.03581, 34.62888 ], [ 36.0361047, 34.6289546 ], [ 36.0371283, 34.6287213 ], [ 36.0372686, 34.6283537 ], [ 36.04185, 34.62993 ], [ 36.04268, 34.63004 ], [ 36.04324, 34.62977 ], [ 36.0434096, 34.6295106 ], [ 36.04358, 34.62925 ], [ 36.04483, 34.62946 ], [ 36.0456, 34.62993 ], [ 36.05129, 34.6282 ], [ 36.0516316, 34.6281669 ], [ 36.05608, 34.63276 ], [ 36.05677, 34.63328 ], [ 36.05788, 34.63323 ], [ 36.0585, 34.63302 ], [ 36.0625723, 34.6359305 ], [ 36.06274, 34.63596 ], [ 36.06336, 34.63591 ], [ 36.0638973, 34.6358332 ], [ 36.06475, 34.63407 ], [ 36.06482, 34.63334 ], [ 36.06642, 34.63371 ], [ 36.06794, 34.63381 ], [ 36.0690158, 34.6333416 ], [ 36.06933, 34.63323 ], [ 36.069881, 34.6332973 ], [ 36.07315, 34.62872 ], [ 36.0735895, 34.6283045 ], [ 36.07835, 34.63413 ], [ 36.07905, 34.63434 ], [ 36.08009, 34.63381 ], [ 36.08009, 34.6335 ], [ 36.08016, 34.6332586 ], [ 36.08044, 34.63103 ], [ 36.08044, 34.63066 ], [ 36.08085, 34.63066 ], [ 36.0812, 34.63071 ], [ 36.08453, 34.63208 ], [ 36.0850885, 34.6322219 ], [ 36.0886429, 34.6293477 ], [ 36.08925, 34.62914 ], [ 36.0903895, 34.6302818 ], [ 36.09078, 34.63035 ], [ 36.0914749, 34.6302904 ], [ 36.09189, 34.62956 ], [ 36.09751, 34.63633 ], [ 36.0989, 34.63649 ], [ 36.10008, 34.63528 ], [ 36.10077, 34.63465 ], [ 36.10126, 34.63481 ], [ 36.10265, 34.63544 ], [ 36.10348, 34.63528 ], [ 36.1042491, 34.6350928 ], [ 36.105, 34.63491 ], [ 36.10875, 34.63381 ], [ 36.10979, 34.6335 ], [ 36.11097, 34.6335 ], [ 36.11236, 34.63376 ], [ 36.11354, 34.63376 ], [ 36.11382, 34.63397 ], [ 36.11458, 34.63486 ], [ 36.11777, 34.63832 ], [ 36.11895, 34.6389 ], [ 36.12187, 34.64136 ], [ 36.12285, 34.64183 ], [ 36.123926, 34.6416618 ], [ 36.12465, 34.64162 ], [ 36.12555, 34.64178 ], [ 36.12652, 34.64215 ], [ 36.1290022, 34.6393524 ], [ 36.13034, 34.6389 ], [ 36.1311166, 34.6387631 ], [ 36.1322295, 34.6391671 ], [ 36.13256, 34.63921 ], [ 36.13964, 34.63481 ], [ 36.1405283, 34.6343573 ], [ 36.14505, 34.63517 ], [ 36.1454551, 34.6350968 ], [ 36.14783, 34.63434 ], [ 36.14831, 34.63392 ], [ 36.15261, 34.63307 ], [ 36.15525, 34.63313 ], [ 36.16031, 34.63323 ], [ 36.1620301, 34.6333057 ], [ 36.17108, 34.62851 ], [ 36.1716997, 34.6283708 ], [ 36.17246, 34.6282 ], [ 36.1733037, 34.628291 ], [ 36.18378, 34.63523 ], [ 36.18857, 34.63691 ], [ 36.1889585, 34.6371383 ], [ 36.18954, 34.63748 ], [ 36.19391, 34.63674 ], [ 36.19453, 34.63617 ], [ 36.20022, 34.63695 ], [ 36.20106, 34.63711 ], [ 36.20189, 34.63617 ], [ 36.20286, 34.63586 ], [ 36.20495, 34.63523 ], [ 36.21209, 34.63061 ], [ 36.21341, 34.6304 ], [ 36.21833, 34.63035 ], [ 36.22035, 34.62993 ], [ 36.2226143, 34.6280062 ], [ 36.22306, 34.62747 ], [ 36.22424, 34.62631 ], [ 36.22521, 34.62552 ], [ 36.22757, 34.6294 ], [ 36.22847, 34.62935 ], [ 36.23063, 34.6285261 ], [ 36.23097, 34.62835 ], [ 36.2379099, 34.6290386 ], [ 36.2378486, 34.6292315 ], [ 36.23721, 34.6323291 ], [ 36.2377, 34.63224 ], [ 36.23895, 34.63176 ], [ 36.2390877, 34.6315895 ], [ 36.2438328, 34.63535 ], [ 36.2442264, 34.6356968 ], [ 36.24631, 34.63386 ], [ 36.24749, 34.63318 ], [ 36.2506938, 34.6328345 ], [ 36.25113, 34.633 ], [ 36.2520929, 34.6329432 ], [ 36.25346, 34.63261 ], [ 36.25521, 34.63212 ], [ 36.25645, 34.63146 ], [ 36.25791, 34.63014 ], [ 36.26133, 34.62948 ], [ 36.26242, 34.62893 ], [ 36.2627875, 34.6283738 ], [ 36.26279, 34.6275 ], [ 36.2654867, 34.62689 ], [ 36.2668, 34.62744 ], [ 36.26898, 34.6286 ], [ 36.27022, 34.62904 ], [ 36.27466, 34.62898 ], [ 36.2765853, 34.6280125 ], [ 36.28457, 34.63228 ], [ 36.2852976, 34.6317318 ], [ 36.28595, 34.63091 ], [ 36.2864448, 34.6304152 ], [ 36.29572, 34.63443 ], [ 36.29644, 34.63498 ], [ 36.30045, 34.64032 ], [ 36.30074, 34.6412 ], [ 36.30759, 34.6553 ], [ 36.3075555, 34.6557486 ], [ 36.30751, 34.65634 ], [ 36.3046, 34.66096 ], [ 36.3035088, 34.6633337 ], [ 36.30271, 34.66576 ], [ 36.30336, 34.66944 ], [ 36.30518, 34.67247 ], [ 36.3131301, 34.6834407 ], [ 36.3137, 34.68381 ], [ 36.3141309, 34.6839396 ], [ 36.31626, 34.68458 ], [ 36.34911, 34.67137 ] ] ] ] } },
{ "type": "Feature", "properties": { "POLYGON_ID": "LBN_GAUL1992_ADM2_18798", "ADM0_ISO3": "LBN", "ADM0_NAME": "Lebanon", "ADM0_CODE": 141, "ADM1_NAME": "North", "ADM1_CODE": 1799, "ADM2_NAME": "Batroun", "ADM2_CODE": 18798, "GEOSET": "GAUL", "GEOSET_YEAR": 1992.0, "GEOSET_VERSION": "GAUL_v1", "GEOSET_UNIT": "ADM2", "CENTROID_LONG": 35.816280284671429, "CENTROID_LAT": 34.215193487795432 }, "geometry": { "type": "MultiPolygon", "coordinates": [ [ [ [ 35.8250881, 34.2647093 ], [ 35.8256226, 34.2613406 ], [ 35.8549174, 34.2506409 ], [ 35.9123374, 34.2120397 ], [ 35.9840751, 34.2101745 ], [ 36.0191204, 34.1729609 ], [ 36.0138732, 34.1266599 ], [ 35.949581, 34.1665187 ], [ 35.878274, 34.1525129 ], [ 35.8366228, 34.1912993 ], [ 35.744985, 34.1818807 ], [ 35.6489766, 34.209948 ], [ 35.6643785, 34.2855462 ], [ 35.7332564, 34.3382044 ], [ 35.7045967, 34.2957963 ], [ 35.7317868, 34.2650906 ], [ 35.7932117, 34.2477701 ], [ 35.8250881, 34.2647093 ] ] ] ] } },
{ "type": "Feature", "properties": { "POLYGON_ID": "LBN_GAUL1992_ADM2_18799", "ADM0_ISO3": "LBN", "ADM0_NAME": "Lebanon", "ADM0_CODE": 141, "ADM1_NAME": "North", "ADM1_CODE": 1799, "ADM2_NAME": "Bcharre", "ADM2_CODE": 18799, "GEOSET": "GAUL", "GEOSET_YEAR": 1992.0, "GEOSET_VERSION": "GAUL_v1", "GEOSET_UNIT": "ADM2", "CENTROID_LONG": 35.987823315787573, "CENTROID_LAT": 34.247147388382693 }, "geometry": { "type": "MultiPolygon", "coordinates": [ [ [ [ 36.1388688, 34.3009596 ], [ 36.1371362, 34.2873804 ], [ 36.0191204, 34.1729609 ], [ 35.9840751, 34.2101745 ], [ 35.9123374, 34.2120397 ], [ 35.8549174, 34.2506409 ], [ 35.8256226, 34.2613406 ], [ 35.8250881, 34.2647093 ], [ 35.8703506, 34.2948118 ], [ 35.9358035, 34.2653584 ], [ 36.0328108, 34.2801458 ], [ 36.1388688, 34.3009596 ] ] ] ] } },
{ "type": "Feature", "properties": { "POLYGON_ID": "LBN_GAUL1992_ADM2_18800", "ADM0_ISO3": "LBN", "ADM0_NAME": "Lebanon", "ADM0_CODE": 141, "ADM1_NAME": "North", "ADM1_CODE": 1799, "ADM2_NAME": "Koura", "ADM2_CODE": 18800, "GEOSET": "GAUL", "GEOSET_YEAR": 1992.0, "GEOSET_VERSION": "GAUL_v1", "GEOSET_UNIT": "ADM2", "CENTROID_LONG": 35.796984867741415, "CENTROID_LAT": 34.327322633776703 }, "geometry": { "type": "MultiPolygon", "coordinates": [ [ [ [ 35.872984, 34.401538 ], [ 35.8524018, 34.3478322 ], [ 35.8703506, 34.2948118 ], [ 35.8250881, 34.2647093 ], [ 35.7932117, 34.2477701 ], [ 35.7317868, 34.2650906 ], [ 35.7045967, 34.2957963 ], [ 35.7332564, 34.3382044 ], [ 35.7685183, 34.3857326 ], [ 35.8017551, 34.3986492 ], [ 35.8288809, 34.4196102 ], [ 35.872984, 34.401538 ] ] ] ] } },
{ "type": "Feature", "properties": { "POLYGON_ID": "LBN_GAUL1992_ADM2_18803", "ADM0_ISO3": "LBN", "ADM0_NAME": "Lebanon", "ADM0_CODE": 141, "ADM1_NAME": "North", "ADM1_CODE": 1799, "ADM2_NAME": "Zgharta", "ADM2_CODE": 18803, "GEOSET": "GAUL", "GEOSET_YEAR": 1992.0, "GEOSET_VERSION": "GAUL_v1", "GEOSET_UNIT": "ADM2", "CENTROID_LONG": 35.92210594231684, "CENTROID_LAT": 34.351976451065312 }, "geometry": { "type": "MultiPolygon", "coordinates": [ [ [ [ 36.0328108, 34.2801458 ], [ 35.9358035, 34.2653584 ], [ 35.8703506, 34.2948118 ], [ 35.8524018, 34.3478322 ], [ 35.872984, 34.401538 ], [ 35.8877919, 34.4518331 ], [ 35.9763449, 34.4504322 ], [ 35.9269355, 34.3568264 ], [ 36.0328108, 34.2801458 ] ] ] ] } },
{ "type": "Feature", "properties": { "POLYGON_ID": "LBN_GAUL1992_ADM2_18804", "ADM0_ISO3": "LBN", "ADM0_NAME": "Lebanon", "ADM0_CODE": 141, "ADM1_NAME": "South", "ADM1_CODE": 143331, "ADM2_NAME": "Jezzine", "ADM2_CODE": 18804, "GEOSET": "GAUL", "GEOSET_YEAR": 1992.0, "GEOSET_VERSION": "GAUL_v1", "GEOSET_UNIT": "ADM2", "CENTROID_LONG": 35.548909711471332, "CENTROID_LAT": 33.493754507961569 }, "geometry": { "type": "MultiPolygon", "coordinates": [ [ [ [ 35.6223999, 33.492498 ], [ 35.6308066, 33.4279456 ], [ 35.6050991, 33.4022096 ], [ 35.5419044, 33.3511747 ], [ 35.5423365, 33.4195051 ], [ 35.5000765, 33.4968409 ], [ 35.4438355, 33.5094234 ], [ 35.4345023, 33.5704292 ], [ 35.6029612, 33.5772567 ], [ 35.6223999, 33.492498 ] ] ] ] } },
{ "type": "Feature", "properties": { "POLYGON_ID": "LBN_GAUL1992_ADM2_18805", "ADM0_ISO3": "LBN", "ADM0_NAME": "Lebanon", "ADM0_CODE": 141, "ADM1_NAME": "South", "ADM1_CODE": 143331, "ADM2_NAME": "Saida", "ADM2_CODE": 18805, "GEOSET": "GAUL", "GEOSET_YEAR": 1992.0, "GEOSET_VERSION": "GAUL_v1", "GEOSET_UNIT": "ADM2", "CENTROID_LONG": 35.359013023515139, "CENTROID_LAT": 33.456820973711167 }, "geometry": { "type": "MultiPolygon", "coordinates": [ [ [ [ 35.4345023, 33.5704292 ], [ 35.4438355, 33.5094234 ], [ 35.5000765, 33.4968409 ], [ 35.4839699, 33.4865246 ], [ 35.4648086, 33.4866439 ], [ 35.3941801, 33.4578741 ], [ 35.389219, 33.4205105 ], [ 35.3140849, 33.365255 ], [ 35.3425243, 33.326359 ], [ 35.2508172, 33.3396779 ], [ 35.2998378, 33.4663658 ], [ 35.3581215, 33.5149612 ], [ 35.3915027, 33.5886778 ], [ 35.4345023, 33.5704292 ] ] ] ] } },
{ "type": "Feature", "properties": { "POLYGON_ID": "LBN_GAUL1992_ADM2_18806", "ADM0_ISO3": "LBN", "ADM0_NAME": "Lebanon", "ADM0_CODE": 141, "ADM1_NAME": "South", "ADM1_CODE": 143331, "ADM2_NAME": "Sour", "ADM2_CODE": 18806, "GEOSET": "GAUL", "GEOSET_YEAR": 1992.0, "GEOSET_VERSION": "GAUL_v1", "GEOSET_UNIT": "ADM2", "CENTROID_LONG": 35.280382744827442, "CENTROID_LAT": 33.216927579607777 }, "geometry": { "type": "MultiPolygon", "coordinates": [ [ [ [ 35.3425243, 33.326359 ], [ 35.4290813, 33.3111902 ], [ 35.4286343, 33.2733029 ], [ 35.3098628, 33.1565341 ], [ 35.2957562, 33.1072056 ], [ 35.2951439, 33.1075672 ], [ 35.294267, 33.108085 ], [ 35.2935999, 33.107729 ], [ 35.280978, 33.100993 ], [ 35.2756189, 33.1005866 ], [ 35.2717492, 33.1002932 ], [ 35.270507, 33.100199 ], [ 35.252511, 33.0956795 ], [ 35.238919, 33.092266 ], [ 35.232118, 33.093352 ], [ 35.22671, 33.098488 ], [ 35.211707, 33.099889 ], [ 35.2084609, 33.0962589 ], [ 35.193195, 33.085197 ], [ 35.190097, 33.089355 ], [ 35.17269, 33.093789 ], [ 35.169185, 33.090893 ], [ 35.160005, 33.088716 ], [ 35.155488, 33.085977 ], [ 35.155855, 33.09155 ], [ 35.135086, 33.091129 ], [ 35.1150375, 33.0930095 ], [ 35.2113727, 33.2070605 ], [ 35.2155243, 33.2654751 ], [ 35.2508172, 33.3396779 ], [ 35.3425243, 33.326359 ] ] ] ] } }
]
}
