{
"type": "FeatureCollection",
"name": "LBR_GAUL1995_ADM0",
"crs": { "type": "name", "properties": { "name": "urn:ogc:def:crs:OGC:1.3:CRS84" } },
"features": [
{ "type": "Feature", "properties": { "POLYGON_ID": "LBR_GAUL1995_ADM0_144", "ADM0_ISO3": "LBR", "ADM0_NAME": "Liberia", "ADM0_CODE": 144, "GEOSET": "GAUL", "GEOSET_YEAR": 1995.0, "GEOSET_VERSION": "GAUL_v1", "GEOSET_UNIT": "ADM0", "CENTROID_LONG": -9.3101296499913389, "CENTROID_LAT": 6.4469793412077463 }, "geometry": { "type": "MultiPolygon", "coordinates": [ [ [ [ -9.74584, 8.53097 ], [ -9.73529, 8.5198798 ], [ -9.7377584, 8.5121838 ], [ -9.74159, 8.50659 ], [ -9.74512, 8.49398 ], [ -9.74285, 8.48685 ], [ -9.72314, 8.464 ], [ -9.72, 8.44768 ], [ -9.70717, 8.47401 ], [ -9.7047319, 8.4805023 ], [ -9.6986174, 8.4859017 ], [ -9.69184, 8.4915966 ], [ -9.69184, 8.4908983 ], [ -9.69184, 8.4906818 ], [ -9.67106, 8.49354 ], [ -9.65245, 8.47896 ], [ -9.63361, 8.46598 ], [ -9.62812, 8.4586 ], [ -9.6274584, 8.4570714 ], [ -9.624932, 8.4512281 ], [ -9.63235, 8.44438 ], [ -9.634543, 8.4407514 ], [ -9.64373, 8.43343 ], [ -9.6558, 8.42065 ], [ -9.6590844, 8.4118636 ], [ -9.65931, 8.41126 ], [ -9.65774, 8.40413 ], [ -9.6547506, 8.4022704 ], [ -9.64552, 8.4029 ], [ -9.6146232, 8.4075435 ], [ -9.60605, 8.40679 ], [ -9.59796, 8.41064 ], [ -9.5927292, 8.4159304 ], [ -9.59006, 8.41863 ], [ -9.58469, 8.42984 ], [ -9.582569, 8.4310734 ], [ -9.5771863, 8.4322806 ], [ -9.57407, 8.43161 ], [ -9.5702089, 8.4245048 ], [ -9.5660123, 8.4104865 ], [ -9.5610902, 8.4032803 ], [ -9.53331, 8.38335 ], [ -9.4798614, 8.376439 ], [ -9.47733, 8.37218 ], [ -9.4775927, 8.3677433 ], [ -9.47786, 8.36323 ], [ -9.48021, 8.35664 ], [ -9.481796, 8.3545041 ], [ -9.48618, 8.3486 ], [ -9.48944, 8.3445 ], [ -9.5156, 8.32999 ], [ -9.517861, 8.3281 ], [ -9.52017, 8.32617 ], [ -9.51457, 8.31985 ], [ -9.5112178, 8.317668 ], [ -9.5010241, 8.3110327 ], [ -9.50102, 8.31103 ], [ -9.5004569, 8.3053136 ], [ -9.50016, 8.3023 ], [ -9.50415, 8.29108 ], [ -9.50326, 8.2855601 ], [ -9.49915, 8.28002 ], [ -9.4943295, 8.2771001 ], [ -9.490414, 8.2732964 ], [ -9.48817, 8.26732 ], [ -9.4892589, 8.2642887 ], [ -9.48928, 8.26423 ], [ -9.5166, 8.2427 ], [ -9.5160922, 8.2384804 ], [ -9.51602, 8.23788 ], [ -9.5126784, 8.2065698 ], [ -9.51417, 8.20321 ], [ -9.5168397, 8.2007996 ], [ -9.5200078, 8.196724 ], [ -9.52164, 8.18811 ], [ -9.5020171, 8.1786353 ], [ -9.50096, 8.17833 ], [ -9.4668035, 8.1678489 ], [ -9.46453, 8.16652 ], [ -9.45926, 8.1055 ], [ -9.44902, 8.08637 ], [ -9.4483617, 8.0835662 ], [ -9.44767, 8.08062 ], [ -9.4469437, 8.0798248 ], [ -9.44493, 8.07762 ], [ -9.4447847, 8.0728788 ], [ -9.44474, 8.0714209 ], [ -9.445373, 8.070009 ], [ -9.4537843, 8.0537633 ], [ -9.4558, 8.05085 ], [ -9.457424, 8.0485123 ], [ -9.45803, 8.04764 ], [ -9.4588804, 8.0453941 ], [ -9.460119, 8.0383041 ], [ -9.45995, 8.03618 ], [ -9.4591681, 8.0352759 ], [ -9.45675, 8.03248 ], [ -9.4549139, 8.0322071 ], [ -9.4535251, 8.0320008 ], [ -9.43038, 8.04814 ], [ -9.4276201, 8.047887 ], [ -9.4278343, 8.0411069 ], [ -9.4281008, 8.0379968 ], [ -9.43122, 8.02634 ], [ -9.421347, 8.0143188 ], [ -9.42118, 8.01249 ], [ -9.42133, 8.0 ], [ -9.41178, 7.98639 ], [ -9.4104964, 7.9820823 ], [ -9.40973, 7.97951 ], [ -9.41183, 7.97263 ], [ -9.4155346, 7.970169 ], [ -9.42315, 7.96511 ], [ -9.43243, 7.94794 ], [ -9.43033, 7.89815 ], [ -9.42396, 7.87264 ], [ -9.42348, 7.86229 ], [ -9.41703, 7.85218 ], [ -9.4148002, 7.8501506 ], [ -9.41091, 7.84661 ], [ -9.4077172, 7.8384149 ], [ -9.40664, 7.83565 ], [ -9.4066372, 7.8356471 ], [ -9.39586, 7.82459 ], [ -9.3878937, 7.8068577 ], [ -9.38719, 7.8062 ], [ -9.3863865, 7.8060713 ], [ -9.37868, 7.80296 ], [ -9.36949, 7.80368 ], [ -9.3563251, 7.7776778 ], [ -9.35677, 7.77694 ], [ -9.3572466, 7.7755256 ], [ -9.35739, 7.7751 ], [ -9.35533, 7.7728 ], [ -9.3491053, 7.7741488 ], [ -9.349594, 7.7638982 ], [ -9.35055, 7.7597 ], [ -9.3497208, 7.7564667 ], [ -9.34896, 7.7535 ], [ -9.3474527, 7.7520525 ], [ -9.34392, 7.74866 ], [ -9.3490238, 7.7390699 ], [ -9.35187, 7.7184 ], [ -9.362741, 7.7058281 ], [ -9.3648254, 7.7020089 ], [ -9.37067, 7.68199 ], [ -9.3693929, 7.6734432 ], [ -9.3695246, 7.6388912 ], [ -9.36924, 7.63816 ], [ -9.3690324, 7.6378759 ], [ -9.36509, 7.63248 ], [ -9.3644696, 7.6316358 ], [ -9.36351, 7.63033 ], [ -9.35662, 7.62801 ], [ -9.3560463, 7.6273667 ], [ -9.35456, 7.6257 ], [ -9.35715, 7.61217 ], [ -9.3581908, 7.6105598 ], [ -9.37638, 7.58242 ], [ -9.37852, 7.56544 ], [ -9.3894982, 7.546157 ], [ -9.39938, 7.5288 ], [ -9.39951, 7.52399 ], [ -9.3995826, 7.5211329 ], [ -9.39965, 7.51848 ], [ -9.4009808, 7.5161672 ], [ -9.40545, 7.5084 ], [ -9.4106784, 7.493941 ], [ -9.4339741, 7.4541179 ], [ -9.4358234, 7.4531821 ], [ -9.4533532, 7.4386704 ], [ -9.45638, 7.43378 ], [ -9.46642, 7.400559 ], [ -9.47107, 7.38517 ], [ -9.4721303, 7.3842343 ], [ -9.47754, 7.37946 ], [ -9.4785149, 7.3763755 ], [ -9.4783441, 7.3700871 ], [ -9.47784, 7.36201 ], [ -9.45655, 7.39177 ], [ -9.4513128, 7.3962266 ], [ -9.41571, 7.41777 ], [ -9.41086, 7.42349 ], [ -9.4093622, 7.4232177 ], [ -9.40833, 7.42303 ], [ -9.4068505, 7.421416 ], [ -9.40558, 7.42003 ], [ -9.4047913, 7.4180615 ], [ -9.40079, 7.40808 ], [ -9.39696, 7.38855 ], [ -9.3960303, 7.3886153 ], [ -9.39397, 7.38876 ], [ -9.3909532, 7.3907546 ], [ -9.3865252, 7.3917011 ], [ -9.3843, 7.39148 ], [ -9.3821995, 7.3923851 ], [ -9.3650521, 7.4101082 ], [ -9.36074, 7.41273 ], [ -9.3544881, 7.4257935 ], [ -9.35008, 7.42922 ], [ -9.34525, 7.42897 ], [ -9.3420255, 7.4274363 ], [ -9.3254078, 7.4254249 ], [ -9.32455, 7.42567 ], [ -9.3234172, 7.426927 ], [ -9.32063, 7.43002 ], [ -9.3107385, 7.4291509 ], [ -9.30959, 7.42905 ], [ -9.3045703, 7.4253586 ], [ -9.30018, 7.42213 ], [ -9.2933252, 7.4187241 ], [ -9.29009, 7.41221 ], [ -9.2888991, 7.4056435 ], [ -9.2883, 7.40234 ], [ -9.28995, 7.3927 ], [ -9.281542, 7.3838006 ], [ -9.27459, 7.37955 ], [ -9.274578, 7.3795507 ], [ -9.2706943, 7.3797639 ], [ -9.2653725, 7.3806067 ], [ -9.2591, 7.38344 ], [ -9.2356319, 7.3878264 ], [ -9.22732, 7.38938 ], [ -9.2172696, 7.3866637 ], [ -9.21178, 7.38518 ], [ -9.2021266, 7.3803073 ], [ -9.2038, 7.36066 ], [ -9.2060447, 7.355561 ], [ -9.20612, 7.35539 ], [ -9.2061304, 7.3532526 ], [ -9.2048965, 7.3488093 ], [ -9.20135, 7.34182 ], [ -9.2013438, 7.3412595 ], [ -9.20133, 7.34002 ], [ -9.2012266, 7.3233781 ], [ -9.20121, 7.3207 ], [ -9.1954367, 7.3114954 ], [ -9.19024, 7.30321 ], [ -9.1845202, 7.3001631 ], [ -9.18198, 7.29881 ], [ -9.16068, 7.27668 ], [ -9.15379, 7.27343 ], [ -9.1371711, 7.2739423 ], [ -9.134, 7.27404 ], [ -9.1193704, 7.275735 ], [ -9.11606, 7.27373 ], [ -9.104943, 7.2501911 ], [ -9.104512, 7.2470869 ], [ -9.10394, 7.24294 ], [ -9.0980966, 7.2327216 ], [ -9.09415, 7.22582 ], [ -9.0963381, 7.2192773 ], [ -9.09652, 7.21831 ], [ -9.0996757, 7.2141219 ], [ -9.10462, 7.20756 ], [ -9.1058, 7.20113 ], [ -9.1046753, 7.1948152 ], [ -9.1044504, 7.1935525 ], [ -9.09245, 7.20107 ], [ -9.0863545, 7.2022664 ], [ -9.0844, 7.20265 ], [ -9.0686049, 7.2011993 ], [ -9.066, 7.20096 ], [ -9.0651619, 7.2015922 ], [ -9.0533, 7.21054 ], [ -9.0463556, 7.2145905 ], [ -9.03181, 7.23272 ], [ -9.0289439, 7.2348108 ], [ -8.97652, 7.24832 ], [ -8.9642159, 7.2516024 ], [ -8.9452974, 7.2647784 ], [ -8.94447, 7.26355 ], [ -8.9443187, 7.2635092 ], [ -8.94102, 7.26262 ], [ -8.93779, 7.26513 ], [ -8.9377891, 7.2653061 ], [ -8.9191269, 7.288422 ], [ -8.91904, 7.28846 ], [ -8.9172052, 7.288204 ], [ -8.9156, 7.28798 ], [ -8.9117249, 7.2815399 ], [ -8.90646, 7.27279 ], [ -8.9068843, 7.2690522 ], [ -8.90719, 7.26636 ], [ -8.9057922, 7.263145 ], [ -8.9055911, 7.2626824 ], [ -8.90284, 7.26106 ], [ -8.86351, 7.25812 ], [ -8.84807, 7.26333 ], [ -8.8366174, 7.2791392 ], [ -8.8340282, 7.2886638 ], [ -8.83573, 7.29185 ], [ -8.8373412, 7.2948742 ], [ -8.83777, 7.30185 ], [ -8.83337, 7.30734 ], [ -8.8332471, 7.3095098 ], [ -8.83311, 7.31193 ], [ -8.837268, 7.3246334 ], [ -8.8371902, 7.3257273 ], [ -8.8459358, 7.3454075 ], [ -8.84583, 7.34735 ], [ -8.83539, 7.36452 ], [ -8.8318602, 7.3686547 ], [ -8.80668, 7.40249 ], [ -8.802819, 7.4058577 ], [ -8.80081, 7.40761 ], [ -8.7990395, 7.4091543 ], [ -8.7884508, 7.4120395 ], [ -8.7868645, 7.4117271 ], [ -8.7799382, 7.4122283 ], [ -8.7774438, 7.4234684 ], [ -8.77429, 7.43768 ], [ -8.77633, 7.44343 ], [ -8.7753906, 7.4480172 ], [ -8.77239, 7.4503 ], [ -8.75718, 7.45436 ], [ -8.7272601, 7.4891321 ], [ -8.7268605, 7.4895595 ], [ -8.7153, 7.50029 ], [ -8.7135815, 7.5024924 ], [ -8.70905, 7.5083 ], [ -8.70672, 7.51425 ], [ -8.7087118, 7.5196635 ], [ -8.7117601, 7.5333372 ], [ -8.71128, 7.53614 ], [ -8.71074, 7.53929 ], [ -8.7116195, 7.5466361 ], [ -8.72174, 7.5471401 ], [ -8.7225402, 7.5516392 ], [ -8.72264, 7.5522 ], [ -8.71374, 7.5836 ], [ -8.7125381, 7.5931705 ], [ -8.70433, 7.62417 ], [ -8.70727, 7.63474 ], [ -8.7071481, 7.6360807 ], [ -8.70679, 7.64002 ], [ -8.7016834, 7.6455242 ], [ -8.6633753, 7.6943365 ], [ -8.65936, 7.69616 ], [ -8.6388283, 7.6954355 ], [ -8.6007, 7.69409 ], [ -8.5597316, 7.6926301 ], [ -8.55799, 7.68477 ], [ -8.55475, 7.64965 ], [ -8.5625016, 7.6231392 ], [ -8.55911, 7.61972 ], [ -8.54458, 7.6051 ], [ -8.48715, 7.57121 ], [ -8.481323, 7.5647408 ], [ -8.47218, 7.55459 ], [ -8.4721772, 7.5545834 ], [ -8.4704493, 7.5505029 ], [ -8.4697423, 7.5488334 ], [ -8.46449, 7.53643 ], [ -8.4260063, 7.5078019 ], [ -8.4144193, 7.4941836 ], [ -8.4086389, 7.4732138 ], [ -8.40961, 7.46914 ], [ -8.40554, 7.45627 ], [ -8.40983, 7.42897 ], [ -8.39889, 7.40917 ], [ -8.38988, 7.32878 ], [ -8.37277, 7.30206 ], [ -8.3606478, 7.2816463 ], [ -8.3584117, 7.2741533 ], [ -8.35337, 7.27326 ], [ -8.3589913, 7.2383088 ], [ -8.35726, 7.23425 ], [ -8.3572295, 7.2342374 ], [ -8.34601, 7.2296 ], [ -8.33571, 7.21921 ], [ -8.3313708, 7.213671 ], [ -8.33049, 7.20564 ], [ -8.31809, 7.20258 ], [ -8.3150088, 7.2013001 ], [ -8.31419, 7.20096 ], [ -8.30755, 7.19426 ], [ -8.30364, 7.19447 ], [ -8.30184, 7.18735 ], [ -8.2976703, 7.1870698 ], [ -8.29425, 7.18684 ], [ -8.2917974, 7.1834425 ], [ -8.285798, 7.183037 ], [ -8.28413, 7.18518 ], [ -8.27788, 7.1514 ], [ -8.2929, 7.13931 ], [ -8.29938, 7.08883 ], [ -8.2836047, 6.9973503 ], [ -8.2845045, 6.9899572 ], [ -8.2847516, 6.9879384 ], [ -8.2882747, 6.985411 ], [ -8.2930517, 6.9838481 ], [ -8.3017111, 6.9742489 ], [ -8.305413, 6.9737168 ], [ -8.30967, 6.97429 ], [ -8.3118641, 6.972256 ], [ -8.32165, 6.96976 ], [ -8.32489, 6.9661 ], [ -8.324039, 6.9644329 ], [ -8.32148, 6.95942 ], [ -8.3218857, 6.9566717 ], [ -8.31793, 6.93506 ], [ -8.3163265, 6.9273882 ], [ -8.31524, 6.92219 ], [ -8.30888, 6.90631 ], [ -8.3101574, 6.9036459 ], [ -8.32456, 6.89904 ], [ -8.3254891, 6.8977346 ], [ -8.32619, 6.89675 ], [ -8.3230009, 6.8912215 ], [ -8.3305991, 6.8843654 ], [ -8.33133, 6.88139 ], [ -8.33203, 6.87956 ], [ -8.3197608, 6.8582081 ], [ -8.31813, 6.85537 ], [ -8.3093811, 6.8618773 ], [ -8.30843, 6.86221 ], [ -8.3238, 6.82646 ], [ -8.3167625, 6.8110375 ], [ -8.34056, 6.79072 ], [ -8.3437, 6.76202 ], [ -8.3450437, 6.7622749 ], [ -8.3473814, 6.7619315 ], [ -8.34945, 6.76091 ], [ -8.3517727, 6.7614986 ], [ -8.36449, 6.74445 ], [ -8.36771, 6.74401 ], [ -8.3677396, 6.7439005 ], [ -8.36982, 6.73621 ], [ -8.3793043, 6.7318581 ], [ -8.3831947, 6.7282349 ], [ -8.381514, 6.7264166 ], [ -8.38042, 6.72524 ], [ -8.3829335, 6.7194002 ], [ -8.38576, 6.72205 ], [ -8.38898, 6.72184 ], [ -8.40584, 6.707 ], [ -8.40183, 6.68239 ], [ -8.43048, 6.65613 ], [ -8.44311, 6.65941 ], [ -8.4477303, 6.6546086 ], [ -8.49391, 6.61602 ], [ -8.49722, 6.6154 ], [ -8.52276, 6.59435 ], [ -8.52112, 6.601 ], [ -8.52867, 6.60816 ], [ -8.53036, 6.59209 ], [ -8.53113, 6.5767 ], [ -8.5308662, 6.5763829 ], [ -8.5295923, 6.5748515 ], [ -8.53974, 6.55607 ], [ -8.5466, 6.56231 ], [ -8.5536574, 6.5635167 ], [ -8.562329, 6.5568285 ], [ -8.5631472, 6.5545979 ], [ -8.5625857, 6.5507906 ], [ -8.55541, 6.5488 ], [ -8.5686622, 6.51877 ], [ -8.5993, 6.50559 ], [ -8.5961463, 6.502303 ], [ -8.54787, 6.49523 ], [ -8.5457932, 6.4943727 ], [ -8.54053, 6.4922 ], [ -8.52796, 6.47858 ], [ -8.49027, 6.43244 ], [ -8.4735, 6.43075 ], [ -8.45654, 6.47116 ], [ -8.45774, 6.48684 ], [ -8.45166, 6.48873 ], [ -8.4383858, 6.4816091 ], [ -8.41405, 6.45977 ], [ -8.4002366, 6.432729 ], [ -8.40588, 6.43095 ], [ -8.4073501, 6.4221305 ], [ -8.4011308, 6.4229562 ], [ -8.3927421, 6.3970639 ], [ -8.3925798, 6.3947607 ], [ -8.39256, 6.39448 ], [ -8.3847665, 6.3833021 ], [ -8.4051, 6.36996 ], [ -8.4110524, 6.3672207 ], [ -8.4081511, 6.3637644 ], [ -8.3994676, 6.3569786 ], [ -8.39691, 6.35498 ], [ -8.3944263, 6.3504547 ], [ -8.3718157, 6.3628931 ], [ -8.36928, 6.36472 ], [ -8.36548, 6.36187 ], [ -8.3647954, 6.3608705 ], [ -8.3426, 6.36917 ], [ -8.33936, 6.37283 ], [ -8.3381118, 6.3718104 ], [ -8.3357065, 6.3698458 ], [ -8.3294374, 6.3659152 ], [ -8.32355, 6.36287 ], [ -8.31647, 6.35548 ], [ -8.31211, 6.35453 ], [ -8.3107231, 6.3557404 ], [ -8.3081827, 6.3579577 ], [ -8.3037758, 6.3466748 ], [ -8.284403, 6.3471381 ], [ -8.28043, 6.34678 ], [ -8.27725, 6.34125 ], [ -8.2752, 6.33848 ], [ -8.2751962, 6.3384801 ], [ -8.26945, 6.33868 ], [ -8.2685955, 6.3376587 ], [ -8.26694, 6.33568 ], [ -8.26927, 6.32972 ], [ -8.27571, 6.32746 ], [ -8.27965, 6.32334 ], [ -8.277265, 6.3209342 ], [ -8.2762137, 6.3198737 ], [ -8.27231, 6.31962 ], [ -8.2674978, 6.3190713 ], [ -8.2670728, 6.3190229 ], [ -8.2620224, 6.3184471 ], [ -8.2553018, 6.3193437 ], [ -8.2520801, 6.3202 ], [ -8.2519514, 6.3201477 ], [ -8.249418, 6.3191175 ], [ -8.24106, 6.31853 ], [ -8.225362, 6.3089353 ], [ -8.21678, 6.30369 ], [ -8.2106702, 6.3046564 ], [ -8.2077127, 6.3074709 ], [ -8.20619, 6.30892 ], [ -8.2034817, 6.3034344 ], [ -8.1963677, 6.3030898 ], [ -8.19518, 6.3045 ], [ -8.18284, 6.29248 ], [ -8.1770302, 6.2879111 ], [ -8.1746, 6.286 ], [ -8.1716708, 6.2756427 ], [ -8.11856, 6.2804 ], [ -8.04027, 6.30891 ], [ -7.9954047, 6.3054387 ], [ -7.9925464, 6.3013037 ], [ -7.99206, 6.3006 ], [ -7.991547, 6.2954461 ], [ -7.96529, 6.28114 ], [ -7.922516, 6.2860434 ], [ -7.92158, 6.28847 ], [ -7.91745, 6.28661 ], [ -7.9161287, 6.284369 ], [ -7.9138277, 6.2733237 ], [ -7.91341, 6.27073 ], [ -7.9123383, 6.2706586 ], [ -7.90164, 6.27985 ], [ -7.89959, 6.27708 ], [ -7.89439, 6.26142 ], [ -7.88985, 6.25244 ], [ -7.85414, 6.22948 ], [ -7.8496045, 6.2246391 ], [ -7.8439048, 6.2185555 ], [ -7.8410176, 6.2154739 ], [ -7.8284654, 6.2020764 ], [ -7.8238655, 6.1971667 ], [ -7.82058, 6.19366 ], [ -7.836691, 6.1882391 ], [ -7.8395403, 6.1855928 ], [ -7.8389511, 6.1823732 ], [ -7.834134, 6.1759748 ], [ -7.8346373, 6.1710509 ], [ -7.83522, 6.16663 ], [ -7.8315811, 6.1599421 ], [ -7.8442807, 6.1492181 ], [ -7.84829, 6.09408 ], [ -7.8477613, 6.0923583 ], [ -7.84191, 6.08508 ], [ -7.84426, 6.07683 ], [ -7.80212, 6.0922 ], [ -7.7969329, 6.0880428 ], [ -7.7909464, 6.0524257 ], [ -7.79042, 6.05122 ], [ -7.77257, 6.0394 ], [ -7.7707618, 6.0359255 ], [ -7.78961, 5.99514 ], [ -7.7819172, 5.9801642 ], [ -7.76608, 5.97477 ], [ -7.76357, 5.97085 ], [ -7.762369, 5.9652127 ], [ -7.7584, 5.95335 ], [ -7.73943, 5.93784 ], [ -7.71858, 5.92829 ], [ -7.71358, 5.9193 ], [ -7.7031916, 5.9120383 ], [ -7.6774974, 5.9109229 ], [ -7.68209, 5.92324 ], [ -7.6818417, 5.9241293 ], [ -7.6808045, 5.9278441 ], [ -7.66331, 5.95071 ], [ -7.66056, 5.95023 ], [ -7.6589398, 5.9439901 ], [ -7.65787, 5.93987 ], [ -7.65963, 5.91575 ], [ -7.656131, 5.9151722 ], [ -7.6544786, 5.9153175 ], [ -7.6524146, 5.9160672 ], [ -7.6438815, 5.9146302 ], [ -7.63762, 5.90848 ], [ -7.63188, 5.90914 ], [ -7.62293, 5.90701 ], [ -7.6148492, 5.9073705 ], [ -7.6136681, 5.9070936 ], [ -7.61151, 5.89729 ], [ -7.6080633, 5.897293 ], [ -7.6046023, 5.8990788 ], [ -7.60236, 5.89057 ], [ -7.5948077, 5.8953304 ], [ -7.59358, 5.89948 ], [ -7.57522, 5.89729 ], [ -7.5530293, 5.8711531 ], [ -7.5533411, 5.8693503 ], [ -7.5689751, 5.8729752 ], [ -7.5712221, 5.8697989 ], [ -7.57195, 5.86877 ], [ -7.56991, 5.86462 ], [ -7.56319, 5.863518 ], [ -7.56119, 5.86319 ], [ -7.5430649, 5.8349286 ], [ -7.53978, 5.83478 ], [ -7.5381624, 5.8464503 ], [ -7.53808, 5.84948 ], [ -7.5316516, 5.8494411 ], [ -7.5230459, 5.8555323 ], [ -7.519184, 5.8590164 ], [ -7.51254, 5.85599 ], [ -7.51074, 5.85023 ], [ -7.51953, 5.84132 ], [ -7.51794, 5.83878 ], [ -7.4768068, 5.810641 ], [ -7.47563, 5.81047 ], [ -7.4752976, 5.812617 ], [ -7.47371, 5.82287 ], [ -7.46905, 5.83273 ], [ -7.469545, 5.8341495 ], [ -7.4708409, 5.8378654 ], [ -7.46681, 5.8596 ], [ -7.42979, 5.83201 ], [ -7.4392, 5.79622 ], [ -7.42928, 5.7688 ], [ -7.44132, 5.7537 ], [ -7.40435, 5.64773 ], [ -7.37878, 5.62388 ], [ -7.37403, 5.57833 ], [ -7.39565, 5.57296 ], [ -7.39197, 5.53822 ], [ -7.3847885, 5.5327553 ], [ -7.37852, 5.52457 ], [ -7.42106, 5.47863 ], [ -7.41352, 5.43985 ], [ -7.44485, 5.42085 ], [ -7.423518, 5.3817834 ], [ -7.41875, 5.3747 ], [ -7.4102496, 5.3706301 ], [ -7.4001435, 5.3620902 ], [ -7.39842, 5.35917 ], [ -7.38636, 5.37817 ], [ -7.3838882, 5.3805056 ], [ -7.37464, 5.37948 ], [ -7.3775272, 5.3715526 ], [ -7.3763346, 5.3370434 ], [ -7.37288, 5.33371 ], [ -7.3657702, 5.33251 ], [ -7.4088866, 5.2604953 ], [ -7.4154, 5.25443 ], [ -7.42226, 5.25816 ], [ -7.4189433, 5.2653106 ], [ -7.41854, 5.26618 ], [ -7.4197905, 5.2684203 ], [ -7.4221885, 5.2727162 ], [ -7.42511, 5.27795 ], [ -7.42257, 5.28138 ], [ -7.41798, 5.28158 ], [ -7.4115093, 5.2940018 ], [ -7.41328, 5.29696 ], [ -7.420581, 5.2965227 ], [ -7.42385, 5.29542 ], [ -7.44942, 5.28133 ], [ -7.45975, 5.24483 ], [ -7.46395, 5.23428 ], [ -7.47092, 5.15041 ], [ -7.50548, 5.09337 ], [ -7.5094659, 5.0952359 ], [ -7.5137683, 5.1017905 ], [ -7.5147027, 5.1037439 ], [ -7.52823, 5.09925 ], [ -7.5358, 5.09203 ], [ -7.5554834, 5.0668467 ], [ -7.55409, 5.0631 ], [ -7.54838, 5.05846 ], [ -7.55139, 5.0171 ], [ -7.54206, 5.00508 ], [ -7.54529, 4.96739 ], [ -7.5429365, 4.9646856 ], [ -7.53503, 4.9556 ], [ -7.53391, 4.9526 ], [ -7.5353631, 4.9490167 ], [ -7.52655, 4.91898 ], [ -7.53941, 4.91699 ], [ -7.54626, 4.92209 ], [ -7.5499339, 4.9227313 ], [ -7.5633322, 4.90657 ], [ -7.57067, 4.90661 ], [ -7.5792392, 4.9108176 ], [ -7.58419, 4.91014 ], [ -7.58877, 4.87522 ], [ -7.5872102, 4.8676209 ], [ -7.58519, 4.86071 ], [ -7.5871897, 4.8538514 ], [ -7.5838, 4.82644 ], [ -7.5900105, 4.8232592 ], [ -7.5902462, 4.8228996 ], [ -7.59256, 4.81937 ], [ -7.58193, 4.79423 ], [ -7.558553, 4.7833241 ], [ -7.55886, 4.77937 ], [ -7.5580931, 4.6906352 ], [ -7.56309, 4.6904 ], [ -7.5649857, 4.6862995 ], [ -7.56855, 4.66192 ], [ -7.5707536, 4.6565919 ], [ -7.56907, 4.65204 ], [ -7.5645, 4.64925 ], [ -7.561112, 4.648908 ], [ -7.54641, 4.60912 ], [ -7.56587, 4.57728 ], [ -7.55539, 4.56663 ], [ -7.56088, 4.5324 ], [ -7.54998, 4.51021 ], [ -7.5605662, 4.4608956 ], [ -7.56011, 4.45386 ], [ -7.5578289, 4.4496923 ], [ -7.5556, 4.44562 ], [ -7.5446041, 4.4376158 ], [ -7.54042, 4.43457 ], [ -7.5574, 4.39348 ], [ -7.5231345, 4.3617264 ], [ -7.628838, 4.363005 ], [ -7.721269, 4.371417 ], [ -7.743332, 4.3846 ], [ -7.828539, 4.419153 ], [ -7.817859, 4.433314 ], [ -7.834901, 4.45667 ], [ -7.8623615, 4.470891 ], [ -7.9396015, 4.4958651 ], [ -7.948353, 4.50827 ], [ -8.008438, 4.525498 ], [ -8.140701, 4.552736 ], [ -8.185654, 4.557429 ], [ -8.250122, 4.571937 ], [ -8.301463, 4.614915 ], [ -8.350257, 4.63984 ], [ -8.408316, 4.652396 ], [ -8.451723, 4.674603 ], [ -8.473288, 4.701304 ], [ -8.511043, 4.729047 ], [ -8.6071983, 4.7762698 ], [ -8.716086, 4.807283 ], [ -8.726358, 4.828945 ], [ -8.792149, 4.852817 ], [ -8.810134, 4.878735 ], [ -8.847659, 4.897436 ], [ -8.849198, 4.91252 ], [ -8.881069, 4.933926 ], [ -8.920142, 4.948886 ], [ -9.0435757, 4.9849742 ], [ -9.0401782, 5.0069374 ], [ -9.116049, 5.041441 ], [ -9.128652, 5.064128 ], [ -9.17108, 5.080877 ], [ -9.207602, 5.11116 ], [ -9.295302, 5.148768 ], [ -9.298662, 5.184218 ], [ -9.345477, 5.20482 ], [ -9.375844, 5.239866 ], [ -9.435023, 5.278759 ], [ -9.488827, 5.342012 ], [ -9.494774, 5.380293 ], [ -9.5808093, 5.4393546 ], [ -9.594161, 5.475595 ], [ -9.7217319, 5.5595547 ], [ -9.7780227, 5.6025641 ], [ -9.873691, 5.7084296 ], [ -9.8989441, 5.7187293 ], [ -9.9601903, 5.7795486 ], [ -10.0064114, 5.8097135 ], [ -10.0196352, 5.8331166 ], [ -10.0597114, 5.8676124 ], [ -10.0525203, 5.8848682 ], [ -10.0796051, 5.9213447 ], [ -10.1488012, 5.9688543 ], [ -10.1983673, 5.9906927 ], [ -10.2185294, 6.0346013 ], [ -10.241123, 6.052766 ], [ -10.2984381, 6.0803792 ], [ -10.3599987, 6.1033728 ], [ -10.380374, 6.135036 ], [ -10.400229, 6.145424 ], [ -10.510811, 6.184169 ], [ -10.6141965, 6.2136121 ], [ -10.6938057, 6.2325869 ], [ -10.7163123, 6.2586842 ], [ -10.7594727, 6.2725242 ], [ -10.8165837, 6.3111499 ], [ -10.800248, 6.3302511 ], [ -10.7937208, 6.3650144 ], [ -10.8190325, 6.4144327 ], [ -10.862255, 6.45929 ], [ -10.9604991, 6.5266625 ], [ -11.0069005, 6.5517741 ], [ -11.128721, 6.608192 ], [ -11.2529338, 6.6618916 ], [ -11.3530757, 6.7021819 ], [ -11.384191, 6.74768 ], [ -11.3631541, 6.7716417 ], [ -11.3740187, 6.8083774 ], [ -11.3971896, 6.8480712 ], [ -11.4561868, 6.8865543 ], [ -11.497478, 6.9234367 ], [ -11.4545432, 6.9255668 ], [ -11.4179, 6.9379373 ], [ -11.4196207, 6.9451084 ], [ -11.4207667, 6.9498849 ], [ -11.4305885, 6.9643524 ], [ -11.4318958, 6.9686203 ], [ -11.4302343, 6.9703715 ], [ -11.3972185, 6.9904179 ], [ -11.396175, 6.9996632 ], [ -11.3935338, 7.0039462 ], [ -11.3850246, 7.0092757 ], [ -11.3765713, 7.0107548 ], [ -11.3696321, 7.019615 ], [ -11.3683353, 7.0432668 ], [ -11.3628956, 7.0506783 ], [ -11.3750903, 7.0626946 ], [ -11.3742007, 7.0699763 ], [ -11.3652156, 7.0799457 ], [ -11.3321559, 7.0780774 ], [ -11.3321708, 7.0984539 ], [ -11.3361531, 7.1049305 ], [ -11.3325125, 7.1126638 ], [ -11.3386991, 7.1187314 ], [ -11.3412095, 7.1265004 ], [ -11.3479645, 7.1321749 ], [ -11.3521431, 7.1394684 ], [ -11.3455996, 7.1468685 ], [ -11.3307729, 7.156148 ], [ -11.3343566, 7.1562317 ], [ -11.3349515, 7.1573858 ], [ -11.3281224, 7.1640839 ], [ -11.3083729, 7.2007276 ], [ -11.3108832, 7.2056412 ], [ -11.3102361, 7.2085895 ], [ -11.3039352, 7.2131484 ], [ -11.3023262, 7.2116321 ], [ -11.3035069, 7.206474 ], [ -11.2997088, 7.2037204 ], [ -11.2937511, 7.2053676 ], [ -11.2922769, 7.2046817 ], [ -11.2898131, 7.2035354 ], [ -11.2908601, 7.201501 ], [ -11.2952364, 7.1994696 ], [ -11.2974988, 7.1984196 ], [ -11.2962377, 7.1956713 ], [ -11.2938196, 7.1956897 ], [ -11.2864554, 7.1996921 ], [ -11.2864583, 7.202361 ], [ -11.28647, 7.2133031 ], [ -11.2828843, 7.217146 ], [ -11.2809972, 7.2191685 ], [ -11.274763, 7.2239869 ], [ -11.2721631, 7.2283289 ], [ -11.2718812, 7.2315769 ], [ -11.2727942, 7.2332471 ], [ -11.2743201, 7.2360384 ], [ -11.2722884, 7.2382161 ], [ -11.2440898, 7.2370171 ], [ -11.2418124, 7.2419553 ], [ -11.234952, 7.2497001 ], [ -11.2289346, 7.248769 ], [ -11.1791537, 7.2683194 ], [ -11.1835557, 7.2753388 ], [ -11.1777762, 7.2781315 ], [ -11.1751826, 7.2863288 ], [ -11.1798225, 7.2890413 ], [ -11.1775501, 7.2933839 ], [ -11.141882, 7.3335373 ], [ -11.1445113, 7.3382843 ], [ -11.1394431, 7.3440426 ], [ -11.1276647, 7.3519305 ], [ -11.1275934, 7.3564039 ], [ -11.1065682, 7.3791034 ], [ -11.1020379, 7.3853976 ], [ -11.1027637, 7.388943 ], [ -11.1006579, 7.3900495 ], [ -11.0916397, 7.3916437 ], [ -11.0595646, 7.4026011 ], [ -11.0334321, 7.4258599 ], [ -11.033789, 7.4360321 ], [ -11.027365, 7.4319072 ], [ -11.0267102, 7.4372218 ], [ -11.0193338, 7.4388874 ], [ -11.0098677, 7.4415253 ], [ -11.0104703, 7.4467991 ], [ -11.007496, 7.4508442 ], [ -11.0035104, 7.4542944 ], [ -11.0004171, 7.453759 ], [ -10.9920295, 7.4637528 ], [ -10.9859024, 7.4669056 ], [ -10.9756112, 7.4711291 ], [ -10.9755517, 7.473687 ], [ -10.9773958, 7.4753526 ], [ -10.970079, 7.4842161 ], [ -10.9453921, 7.5034898 ], [ -10.9400383, 7.5053933 ], [ -10.9329594, 7.5123533 ], [ -10.9305347, 7.5084453 ], [ -10.927903, 7.5042036 ], [ -10.9286169, 7.4999206 ], [ -10.8923748, 7.521346 ], [ -10.8887014, 7.5246075 ], [ -10.8853107, 7.5255593 ], [ -10.8758523, 7.5296638 ], [ -10.8606833, 7.5372186 ], [ -10.8189832, 7.5763608 ], [ -10.8190878, 7.5778758 ], [ -10.8220744, 7.5796002 ], [ -10.8135541, 7.5898673 ], [ -10.7902136, 7.608249 ], [ -10.7912504, 7.618595 ], [ -10.7755736, 7.6358497 ], [ -10.7749988, 7.643164 ], [ -10.7749988, 7.6491936 ], [ -10.7667941, 7.649712 ], [ -10.7611478, 7.6562487 ], [ -10.7525373, 7.659889 ], [ -10.747558, 7.6605532 ], [ -10.7484322, 7.6641629 ], [ -10.7338964, 7.6810431 ], [ -10.7266046, 7.6870839 ], [ -10.7257678, 7.6956907 ], [ -10.7179379, 7.7026368 ], [ -10.7092486, 7.7126222 ], [ -10.7066451, 7.7192378 ], [ -10.707806, 7.7268339 ], [ -10.700424, 7.7349033 ], [ -10.6960174, 7.7385774 ], [ -10.691791, 7.7411583 ], [ -10.6893026, 7.7425066 ], [ -10.6827749, 7.7433785 ], [ -10.6729926, 7.747737 ], [ -10.6706031, 7.7503097 ], [ -10.6624435, 7.7519438 ], [ -10.6586075, 7.7571403 ], [ -10.6564289, 7.7605981 ], [ -10.651309, 7.7648726 ], [ -10.644569, 7.7681053 ], [ -10.6388662, 7.7685223 ], [ -10.6342793, 7.7663021 ], [ -10.605, 7.774533 ], [ -10.605, 7.9292 ], [ -10.605, 8.0183882 ], [ -10.605, 8.0386653 ], [ -10.6025179, 8.0413557 ], [ -10.5930595, 8.0436757 ], [ -10.5752135, 8.0477208 ], [ -10.5545717, 8.0804384 ], [ -10.5471716, 8.0863743 ], [ -10.5434477, 8.0893614 ], [ -10.536402, 8.099199 ], [ -10.5329439, 8.1060763 ], [ -10.5300038, 8.1116688 ], [ -10.5239957, 8.1208892 ], [ -10.5253679, 8.122305 ], [ -10.5277433, 8.1247558 ], [ -10.5241146, 8.1282655 ], [ -10.5132337, 8.1347829 ], [ -10.5008554, 8.1447433 ], [ -10.4852104, 8.1462305 ], [ -10.4846751, 8.1487884 ], [ -10.4794402, 8.1502161 ], [ -10.4720044, 8.1528335 ], [ -10.4621892, 8.1569975 ], [ -10.4552292, 8.1547965 ], [ -10.4449736, 8.1540498 ], [ -10.442975, 8.1539042 ], [ -10.4382161, 8.152655 ], [ -10.4335166, 8.1542612 ], [ -10.4266162, 8.148491 ], [ -10.4111497, 8.1486694 ], [ -10.4012155, 8.1506325 ], [ -10.3951478, 8.1508704 ], [ -10.3890207, 8.1494427 ], [ -10.3858679, 8.1511679 ], [ -10.3890207, 8.1552724 ], [ -10.3872956, 8.1613401 ], [ -10.3768855, 8.1652067 ], [ -10.3733758, 8.1651472 ], [ -10.3720076, 8.1642549 ], [ -10.3710558, 8.1627082 ], [ -10.3662969, 8.1578303 ], [ -10.3550007, 8.1506323 ], [ -10.3535073, 8.1496807 ], [ -10.3498786, 8.1516438 ], [ -10.3457145, 8.1552724 ], [ -10.3445819, 8.1574028 ], [ -10.3432161, 8.1599719 ], [ -10.3349475, 8.1666938 ], [ -10.3340772, 8.1680126 ], [ -10.3272142, 8.1784127 ], [ -10.3273461, 8.1806991 ], [ -10.3273927, 8.181506 ], [ -10.3195405, 8.188228 ], [ -10.319797, 8.1895107 ], [ -10.3203733, 8.192392 ], [ -10.3191835, 8.1943551 ], [ -10.3088953, 8.1976286 ], [ -10.3087139, 8.1976863 ], [ -10.302415, 8.1961838 ], [ -10.3021638, 8.1962541 ], [ -10.3006832, 8.1988166 ], [ -10.3013376, 8.2043488 ], [ -10.2996125, 8.2121415 ], [ -10.2957459, 8.218923 ], [ -10.29527, 8.2231466 ], [ -10.3022299, 8.2333782 ], [ -10.3014566, 8.2401597 ], [ -10.3078811, 8.2446212 ], [ -10.3118072, 8.256459 ], [ -10.3109149, 8.256697 ], [ -10.3109149, 8.2633 ], [ -10.3138298, 8.2641923 ], [ -10.3138426, 8.2642629 ], [ -10.3160308, 8.2763275 ], [ -10.3201948, 8.2834659 ], [ -10.3149005, 8.2887602 ], [ -10.3014566, 8.2965529 ], [ -10.3035386, 8.3026205 ], [ -10.2988392, 8.3067846 ], [ -10.2968761, 8.3174922 ], [ -10.2946156, 8.3235598 ], [ -10.2943777, 8.3279023 ], [ -10.2950915, 8.331412 ], [ -10.2889644, 8.3380745 ], [ -10.2896187, 8.3415842 ], [ -10.2932474, 8.3433093 ], [ -10.2897972, 8.3505072 ], [ -10.2947346, 8.3545523 ], [ -10.2954484, 8.3578835 ], [ -10.293069, 8.3641891 ], [ -10.2864065, 8.3715059 ], [ -10.2884885, 8.3770382 ], [ -10.2901541, 8.3793582 ], [ -10.2870608, 8.3864371 ], [ -10.2853952, 8.3897088 ], [ -10.2821234, 8.3907796 ], [ -10.2782568, 8.3944677 ], [ -10.2809932, 8.4011302 ], [ -10.2773645, 8.4106481 ], [ -10.2732005, 8.41969 ], [ -10.2769481, 8.4241515 ], [ -10.2806958, 8.4261741 ], [ -10.2756989, 8.4355729 ], [ -10.2721892, 8.4404508 ], [ -10.2717728, 8.4446149 ], [ -10.2746876, 8.4488979 ], [ -10.2770076, 8.4587727 ], [ -10.2792681, 8.4609737 ], [ -10.2785543, 8.4648403 ], [ -10.2747471, 8.4739417 ], [ -10.275223, 8.4784627 ], [ -10.2785971, 8.4835525 ], [ -10.2820423, 8.4879526 ], [ -10.27818, 8.49048 ], [ -10.2694, 8.49159 ], [ -10.2622706, 8.4876504 ], [ -10.25187, 8.49128 ], [ -10.2485143, 8.4913754 ], [ -10.24519, 8.49147 ], [ -10.2415158, 8.4873246 ], [ -10.2352598, 8.4940937 ], [ -10.23201, 8.49761 ], [ -10.22948, 8.49668 ], [ -10.2292448, 8.4945218 ], [ -10.23114, 8.48498 ], [ -10.2300479, 8.4827683 ], [ -10.22955, 8.48176 ], [ -10.21811, 8.48092 ], [ -10.2125824, 8.4804702 ], [ -10.2078996, 8.4864327 ], [ -10.19973, 8.49309 ], [ -10.1942109, 8.498541 ], [ -10.1926754, 8.499832 ], [ -10.17104, 8.51271 ], [ -10.1658387, 8.5141317 ], [ -10.16365, 8.51473 ], [ -10.1624443, 8.5193026 ], [ -10.16129, 8.52368 ], [ -10.14239, 8.52244 ], [ -10.13824, 8.52196 ], [ -10.1310596, 8.5238638 ], [ -10.12553, 8.52533 ], [ -10.12069, 8.52278 ], [ -10.10894, 8.52111 ], [ -10.1031833, 8.5170915 ], [ -10.09373, 8.51805 ], [ -10.08681, 8.51801 ], [ -10.0832018, 8.5159163 ], [ -10.08019, 8.5127123 ], [ -10.07833, 8.5074 ], [ -10.0715602, 8.5066449 ], [ -10.0610502, 8.5017515 ], [ -10.05486, 8.49579 ], [ -10.05257, 8.49325 ], [ -10.0523781, 8.4922144 ], [ -10.0545181, 8.4763787 ], [ -10.05664, 8.46572 ], [ -10.0623753, 8.4559462 ], [ -10.06269, 8.45541 ], [ -10.0642, 8.44711 ], [ -10.06744, 8.42926 ], [ -10.06678, 8.42352 ], [ -10.0667755, 8.4235175 ], [ -10.06263, 8.4212 ], [ -10.05526, 8.42093 ], [ -10.03768, 8.43048 ], [ -10.02845, 8.43135 ], [ -10.0263661, 8.4322352 ], [ -10.02313, 8.43361 ], [ -10.01294, 8.44205 ], [ -10.00673, 8.43949 ], [ -10.0037531, 8.4394767 ], [ -9.99496, 8.44127 ], [ -9.9880927, 8.447348 ], [ -9.9821061, 8.4547262 ], [ -9.97972, 8.45768 ], [ -9.9777139, 8.4601687 ], [ -9.97361, 8.46526 ], [ -9.9654562, 8.4677034 ], [ -9.9646, 8.46796 ], [ -9.9543202, 8.4763471 ], [ -9.94559, 8.48347 ], [ -9.9444863, 8.483655 ], [ -9.9402816, 8.4843597 ], [ -9.9388125, 8.4862096 ], [ -9.93448, 8.49167 ], [ -9.9344751, 8.4916721 ], [ -9.9295568, 8.4937486 ], [ -9.91944, 8.49802 ], [ -9.89613, 8.50018 ], [ -9.8947161, 8.4992874 ], [ -9.88878, 8.49554 ], [ -9.88509, 8.49552 ], [ -9.87563, 8.49661 ], [ -9.8725439, 8.4978984 ], [ -9.862045, 8.5004113 ], [ -9.85899, 8.50064 ], [ -9.8492376, 8.4900669 ], [ -9.84877, 8.48956 ], [ -9.848634, 8.4894127 ], [ -9.84685, 8.48748 ], [ -9.845, 8.48815 ], [ -9.8377124, 8.4992527 ], [ -9.8373, 8.49958 ], [ -9.8330319, 8.5012614 ], [ -9.83268, 8.5014 ], [ -9.80431, 8.5026 ], [ -9.7996811, 8.5056262 ], [ -9.7945076, 8.5110513 ], [ -9.7941, 8.51241 ], [ -9.79569, 8.51586 ], [ -9.7974737, 8.5165666 ], [ -9.80002, 8.52416 ], [ -9.8019379, 8.5241704 ], [ -9.8037108, 8.5241823 ], [ -9.80439, 8.52625 ], [ -9.8007764, 8.5329714 ], [ -9.79741, 8.53608 ], [ -9.7942, 8.53308 ], [ -9.7927331, 8.5331912 ], [ -9.79143, 8.53329 ], [ -9.7905695, 8.5341568 ], [ -9.78191, 8.54288 ], [ -9.7745427, 8.5507998 ], [ -9.77296, 8.55179 ], [ -9.7686541, 8.5510396 ], [ -9.75936, 8.54942 ], [ -9.7536, 8.54617 ], [ -9.74584, 8.53097 ] ] ] ] } }
]
}
