{
"type": "FeatureCollection",
"name": "LCA_GAUL2005_ADM0",
"crs": { "type": "name", "properties": { "name": "urn:ogc:def:crs:OGC:1.3:CRS84" } },
"features": [
{ "type": "Feature", "properties": { "POLYGON_ID": "LCA_GAUL2005_ADM0_209", "ADM0_ISO3": "LCA", "ADM0_NAME": "Saint Lucia", "ADM0_CODE": 209, "GEOSET": "GAUL", "GEOSET_YEAR": 2005.0, "GEOSET_VERSION": "GAUL_v1", "GEOSET_UNIT": "ADM0", "CENTROID_LONG": -60.966154702174052, "CENTROID_LAT": 13.898916018098127 }, "geometry": { "type": "MultiPolygon", "coordinates": [ [ [ [ -60.941431, 14.1072701 ], [ -60.9204454, 14.0795488 ], [ -60.8850832, 14.0506834 ], [ -60.888628, 14.029134 ], [ -60.8749294, 13.9857959 ], [ -60.8764314, 13.9388259 ], [ -60.8878297, 13.9286127 ], [ -60.8846111, 13.843574 ], [ -60.8931341, 13.8341567 ], [ -60.9009618, 13.7776447 ], [ -60.9542112, 13.723979 ], [ -60.9862861, 13.73506 ], [ -60.9988346, 13.7517096 ], [ -61.0301628, 13.7545692 ], [ -61.0783825, 13.8078612 ], [ -61.0632677, 13.8240389 ], [ -61.0594906, 13.8537007 ], [ -61.0791978, 13.8818895 ], [ -61.0298452, 13.9662311 ], [ -61.0144558, 14.0075159 ], [ -60.9944572, 14.0098727 ], [ -60.9731025, 14.0353292 ], [ -60.9749908, 14.0676184 ], [ -60.941431, 14.1072701 ] ] ] ] } }
]
}
