{
"type": "FeatureCollection",
"name": "LKA_GAUL2006_ADM2",
"crs": { "type": "name", "properties": { "name": "urn:ogc:def:crs:OGC:1.3:CRS84" } },
"features": [
{ "type": "Feature", "properties": { "POLYGON_ID": "LKA_GAUL2006_ADM2_25830", "ADM0_ISO3": "LKA", "ADM0_NAME": "Sri Lanka", "ADM0_CODE": 231, "ADM1_NAME": "Central", "ADM1_CODE": 2736, "ADM2_NAME": "Matale", "ADM2_CODE": 25830, "GEOSET": "GAUL", "GEOSET_YEAR": 2006.0, "GEOSET_VERSION": "GAUL_v1", "GEOSET_UNIT": "ADM2", "CENTROID_LONG": 80.735368187646401, "CENTROID_LAT": 7.6646833894826152 }, "geometry": { "type": "MultiPolygon", "coordinates": [ [ [ [ 80.9883423, 7.7203798 ], [ 80.9969254, 7.6596484 ], [ 80.9797363, 7.6243553 ], [ 80.9739609, 7.4887342 ], [ 80.917244, 7.4613266 ], [ 80.8653107, 7.4747515 ], [ 80.7907867, 7.4273543 ], [ 80.7284546, 7.4747181 ], [ 80.6995773, 7.3870535 ], [ 80.6554947, 7.3838267 ], [ 80.5663071, 7.4574795 ], [ 80.5763626, 7.479352 ], [ 80.5527267, 7.5507445 ], [ 80.5778503, 7.6054201 ], [ 80.5544128, 7.6350927 ], [ 80.5378189, 7.7363815 ], [ 80.5014725, 7.8166404 ], [ 80.6003113, 7.855278 ], [ 80.6530914, 7.9123135 ], [ 80.7054138, 7.9901543 ], [ 80.7556763, 8.0114899 ], [ 80.8188705, 7.9806886 ], [ 80.8180237, 7.9253669 ], [ 80.7963638, 7.8042517 ], [ 80.7611771, 7.7919803 ], [ 80.7817001, 7.6780128 ], [ 80.867424, 7.6906052 ], [ 80.8843536, 7.7143555 ], [ 80.9883423, 7.7203798 ] ] ] ] } },
{ "type": "Feature", "properties": { "POLYGON_ID": "LKA_GAUL2006_ADM2_41748", "ADM0_ISO3": "LKA", "ADM0_NAME": "Sri Lanka", "ADM0_CODE": 231, "ADM1_NAME": "Central", "ADM1_CODE": 2736, "ADM2_NAME": "Kandy", "ADM2_CODE": 41748, "GEOSET": "GAUL", "GEOSET_YEAR": 2006.0, "GEOSET_VERSION": "GAUL_v1", "GEOSET_UNIT": "ADM2", "CENTROID_LONG": 80.710486652918959, "CENTROID_LAT": 7.2737457576463758 }, "geometry": { "type": "MultiPolygon", "coordinates": [ [ [ [ 80.9739609, 7.4887342 ], [ 80.9760284, 7.3640261 ], [ 81.0167923, 7.2320175 ], [ 80.9487762, 7.2000518 ], [ 80.8475037, 7.1916165 ], [ 80.7713852, 7.2015934 ], [ 80.6913071, 7.0941286 ], [ 80.5441132, 7.0768061 ], [ 80.6008911, 6.9921336 ], [ 80.5518723, 6.9419775 ], [ 80.5033646, 7.023747 ], [ 80.4671478, 7.0220304 ], [ 80.4632034, 7.0889668 ], [ 80.5465393, 7.168273 ], [ 80.5214691, 7.2355442 ], [ 80.4307175, 7.3271737 ], [ 80.4210587, 7.3542371 ], [ 80.4720459, 7.3933163 ], [ 80.5563965, 7.4202824 ], [ 80.5663071, 7.4574795 ], [ 80.6554947, 7.3838267 ], [ 80.6995773, 7.3870535 ], [ 80.7284546, 7.4747181 ], [ 80.7907867, 7.4273543 ], [ 80.8653107, 7.4747515 ], [ 80.917244, 7.4613266 ], [ 80.9739609, 7.4887342 ] ] ] ] } },
{ "type": "Feature", "properties": { "POLYGON_ID": "LKA_GAUL2006_ADM2_41749", "ADM0_ISO3": "LKA", "ADM0_NAME": "Sri Lanka", "ADM0_CODE": 231, "ADM1_NAME": "Central", "ADM1_CODE": 2736, "ADM2_NAME": "Nuwara Eliya", "ADM2_CODE": 41749, "GEOSET": "GAUL", "GEOSET_YEAR": 2006.0, "GEOSET_VERSION": "GAUL_v1", "GEOSET_UNIT": "ADM2", "CENTROID_LONG": 80.711941234015853, "CENTROID_LAT": 6.968995093902433 }, "geometry": { "type": "MultiPolygon", "coordinates": [ [ [ [ 80.9487762, 7.2000518 ], [ 80.9655304, 7.1240978 ], [ 80.9575424, 7.0629196 ], [ 80.9237213, 6.9967523 ], [ 80.8671494, 6.9786563 ], [ 80.8099518, 6.917213 ], [ 80.8384399, 6.8449287 ], [ 80.8086548, 6.7916961 ], [ 80.7457352, 6.7572551 ], [ 80.6572418, 6.7534108 ], [ 80.5277176, 6.7681866 ], [ 80.4909134, 6.7877045 ], [ 80.4950485, 6.831614 ], [ 80.5002365, 6.8853726 ], [ 80.4314499, 6.9126663 ], [ 80.4671478, 7.0220304 ], [ 80.5033646, 7.023747 ], [ 80.5518723, 6.9419775 ], [ 80.6008911, 6.9921336 ], [ 80.5441132, 7.0768061 ], [ 80.6913071, 7.0941286 ], [ 80.7713852, 7.2015934 ], [ 80.8475037, 7.1916165 ], [ 80.9487762, 7.2000518 ] ] ] ] } },
{ "type": "Feature", "properties": { "POLYGON_ID": "LKA_GAUL2006_ADM2_25832", "ADM0_ISO3": "LKA", "ADM0_NAME": "Sri Lanka", "ADM0_CODE": 231, "ADM1_NAME": "Eastern", "ADM1_CODE": 2737, "ADM2_NAME": "Ampara", "ADM2_CODE": 25832, "GEOSET": "GAUL", "GEOSET_YEAR": 2006.0, "GEOSET_VERSION": "GAUL_v1", "GEOSET_UNIT": "ADM2", "CENTROID_LONG": 81.551562422654598, "CENTROID_LAT": 7.2356468902238866 }, "geometry": { "type": "MultiPolygon", "coordinates": [ [ [ [ 81.8202286, 7.451735 ], [ 81.8664169, 7.3226042 ], [ 81.8571625, 7.1025853 ], [ 81.879036, 7.0230184 ], [ 81.844368, 6.9079609 ], [ 81.8244781, 6.7649846 ], [ 81.7726517, 6.6733255 ], [ 81.7613678, 6.5971799 ], [ 81.7061996, 6.5062289 ], [ 81.6401978, 6.5415425 ], [ 81.6082153, 6.5794721 ], [ 81.6277237, 6.9081597 ], [ 81.6364212, 6.9592838 ], [ 81.6063309, 7.0262804 ], [ 81.6131668, 7.0675159 ], [ 81.5156174, 7.1023006 ], [ 81.5100555, 7.1779819 ], [ 81.543335, 7.2138391 ], [ 81.4902191, 7.3370318 ], [ 81.4532852, 7.458384 ], [ 81.3747025, 7.3953848 ], [ 81.3668365, 7.3439875 ], [ 81.3191528, 7.3343468 ], [ 81.3216476, 7.2658682 ], [ 81.2709961, 7.2781544 ], [ 81.261795, 7.3136292 ], [ 81.210556, 7.3487573 ], [ 81.1848831, 7.4472933 ], [ 81.2062607, 7.5212836 ], [ 81.1882706, 7.5730577 ], [ 81.1336899, 7.5579443 ], [ 81.0759277, 7.5102286 ], [ 81.0410767, 7.5043063 ], [ 81.0148544, 7.5937386 ], [ 80.9797363, 7.6243553 ], [ 80.9969254, 7.6596484 ], [ 80.9883423, 7.7203798 ], [ 81.091713, 7.7257781 ], [ 81.1155701, 7.6888976 ], [ 81.2183151, 7.6478868 ], [ 81.239357, 7.6787901 ], [ 81.2403412, 7.7384734 ], [ 81.3195877, 7.7349739 ], [ 81.3799438, 7.6584535 ], [ 81.4451599, 7.6412106 ], [ 81.4321976, 7.5776439 ], [ 81.4514236, 7.5421791 ], [ 81.5238647, 7.5079703 ], [ 81.6166534, 7.5076013 ], [ 81.6471024, 7.5233755 ], [ 81.6626129, 7.4056373 ], [ 81.728241, 7.4556775 ], [ 81.8202286, 7.451735 ] ] ] ] } },
{ "type": "Feature", "properties": { "POLYGON_ID": "LKA_GAUL2006_ADM2_25833", "ADM0_ISO3": "LKA", "ADM0_NAME": "Sri Lanka", "ADM0_CODE": 231, "ADM1_NAME": "Eastern", "ADM1_CODE": 2737, "ADM2_NAME": "Batticaloa", "ADM2_CODE": 25833, "GEOSET": "GAUL", "GEOSET_YEAR": 2006.0, "GEOSET_VERSION": "GAUL_v1", "GEOSET_UNIT": "ADM2", "CENTROID_LONG": 81.494344753894595, "CENTROID_LAT": 7.7913803557666244 }, "geometry": { "type": "MultiPolygon", "coordinates": [ [ [ [ 81.4033813, 8.2670336 ], [ 81.4662781, 8.0605602 ], [ 81.4857254, 8.0199137 ], [ 81.5633545, 7.9374094 ], [ 81.5796127, 7.8473368 ], [ 81.6988297, 7.7523346 ], [ 81.7881775, 7.5957894 ], [ 81.8202286, 7.451735 ], [ 81.728241, 7.4556775 ], [ 81.6626129, 7.4056373 ], [ 81.6471024, 7.5233755 ], [ 81.6166534, 7.5076013 ], [ 81.5238647, 7.5079703 ], [ 81.4514236, 7.5421791 ], [ 81.4321976, 7.5776439 ], [ 81.4451599, 7.6412106 ], [ 81.3799438, 7.6584535 ], [ 81.3195877, 7.7349739 ], [ 81.2403412, 7.7384734 ], [ 81.2254868, 7.8202801 ], [ 81.236763, 7.9219408 ], [ 81.3398972, 7.9533901 ], [ 81.3069153, 8.0294857 ], [ 81.3143692, 8.2073536 ], [ 81.3100815, 8.2521534 ], [ 81.4033813, 8.2670336 ] ] ] ] } },
{ "type": "Feature", "properties": { "POLYGON_ID": "LKA_GAUL2006_ADM2_25834", "ADM0_ISO3": "LKA", "ADM0_NAME": "Sri Lanka", "ADM0_CODE": 231, "ADM1_NAME": "Eastern", "ADM1_CODE": 2737, "ADM2_NAME": "Trincomalee", "ADM2_CODE": 25834, "GEOSET": "GAUL", "GEOSET_YEAR": 2006.0, "GEOSET_VERSION": "GAUL_v1", "GEOSET_UNIT": "ADM2", "CENTROID_LONG": 81.090770853932554, "CENTROID_LAT": 8.5544148019649029 }, "geometry": { "type": "MultiPolygon", "coordinates": [ [ [ [ 80.9666061, 8.9864674 ], [ 81.053688, 8.8661146 ], [ 81.1069946, 8.8092136 ], [ 81.2255554, 8.6570187 ], [ 81.2147293, 8.5744743 ], [ 81.1866608, 8.5121279 ], [ 81.2218781, 8.4611511 ], [ 81.2786636, 8.464613 ], [ 81.296814, 8.5084171 ], [ 81.3473358, 8.5028639 ], [ 81.4033813, 8.2670336 ], [ 81.3100815, 8.2521534 ], [ 81.257637, 8.2269211 ], [ 81.2338562, 8.1615667 ], [ 81.1968079, 8.2335243 ], [ 81.0769577, 8.2731428 ], [ 80.990593, 8.2733812 ], [ 80.9413757, 8.3419199 ], [ 80.9293137, 8.3908615 ], [ 80.9687729, 8.4574795 ], [ 80.9451065, 8.5574818 ], [ 80.8881912, 8.6384993 ], [ 80.9118652, 8.6829739 ], [ 80.8791122, 8.7525492 ], [ 80.9127197, 8.8324585 ], [ 80.8849792, 8.8694744 ], [ 80.7862473, 8.9216108 ], [ 80.7526932, 8.9051294 ], [ 80.7619476, 8.9369745 ], [ 80.8667374, 8.9596729 ], [ 80.8899994, 8.9815159 ], [ 80.9666061, 8.9864674 ] ] ] ] } },
{ "type": "Feature", "properties": { "POLYGON_ID": "LKA_GAUL2006_ADM2_25835", "ADM0_ISO3": "LKA", "ADM0_NAME": "Sri Lanka", "ADM0_CODE": 231, "ADM1_NAME": "North Central", "ADM1_CODE": 2738, "ADM2_NAME": "Anuradhapura", "ADM2_CODE": 25835, "GEOSET": "GAUL", "GEOSET_YEAR": 2006.0, "GEOSET_VERSION": "GAUL_v1", "GEOSET_UNIT": "ADM2", "CENTROID_LONG": 80.514022818848602, "CENTROID_LAT": 8.3910120365515724 }, "geometry": { "type": "MultiPolygon", "coordinates": [ [ [ [ 80.9413757, 8.3419199 ], [ 80.8999939, 8.2805634 ], [ 80.8077316, 8.2794113 ], [ 80.7604141, 8.150631 ], [ 80.7556763, 8.0114899 ], [ 80.7054138, 7.9901543 ], [ 80.6530914, 7.9123135 ], [ 80.6003113, 7.855278 ], [ 80.5014725, 7.8166404 ], [ 80.4612045, 7.9452062 ], [ 80.4255295, 7.9616642 ], [ 80.4193344, 8.0438414 ], [ 80.370224, 8.0577421 ], [ 80.3170471, 8.1125069 ], [ 80.1885223, 8.1511898 ], [ 80.1018753, 8.1973791 ], [ 80.0774918, 8.2241631 ], [ 79.9992905, 8.2288895 ], [ 79.9747314, 8.3379927 ], [ 79.9523849, 8.3697481 ], [ 80.0302277, 8.4631443 ], [ 80.0328445, 8.5257597 ], [ 80.0524063, 8.5252161 ], [ 80.0556946, 8.6391706 ], [ 80.2360916, 8.6803045 ], [ 80.2367325, 8.6318016 ], [ 80.2742691, 8.6108551 ], [ 80.2902679, 8.5605278 ], [ 80.3328247, 8.5459089 ], [ 80.3791428, 8.5801296 ], [ 80.4095306, 8.6588907 ], [ 80.4523773, 8.6926889 ], [ 80.5060959, 8.6583261 ], [ 80.5890884, 8.7227325 ], [ 80.651329, 8.8016148 ], [ 80.5967941, 8.8697262 ], [ 80.6718445, 8.8734198 ], [ 80.7526932, 8.9051294 ], [ 80.7862473, 8.9216108 ], [ 80.8849792, 8.8694744 ], [ 80.9127197, 8.8324585 ], [ 80.8791122, 8.7525492 ], [ 80.9118652, 8.6829739 ], [ 80.8881912, 8.6384993 ], [ 80.9451065, 8.5574818 ], [ 80.9687729, 8.4574795 ], [ 80.9293137, 8.3908615 ], [ 80.9413757, 8.3419199 ] ] ] ] } },
{ "type": "Feature", "properties": { "POLYGON_ID": "LKA_GAUL2006_ADM2_25836", "ADM0_ISO3": "LKA", "ADM0_NAME": "Sri Lanka", "ADM0_CODE": 231, "ADM1_NAME": "North Central", "ADM1_CODE": 2738, "ADM2_NAME": "Polonnaruwa", "ADM2_CODE": 25836, "GEOSET": "GAUL", "GEOSET_YEAR": 2006.0, "GEOSET_VERSION": "GAUL_v1", "GEOSET_UNIT": "ADM2", "CENTROID_LONG": 81.027789795193783, "CENTROID_LAT": 7.9934061912888064 }, "geometry": { "type": "MultiPolygon", "coordinates": [ [ [ [ 80.9413757, 8.3419199 ], [ 80.990593, 8.2733812 ], [ 81.0769577, 8.2731428 ], [ 81.1968079, 8.2335243 ], [ 81.2338562, 8.1615667 ], [ 81.257637, 8.2269211 ], [ 81.3100815, 8.2521534 ], [ 81.3143692, 8.2073536 ], [ 81.3069153, 8.0294857 ], [ 81.3398972, 7.9533901 ], [ 81.236763, 7.9219408 ], [ 81.2254868, 7.8202801 ], [ 81.2403412, 7.7384734 ], [ 81.239357, 7.6787901 ], [ 81.2183151, 7.6478868 ], [ 81.1155701, 7.6888976 ], [ 81.091713, 7.7257781 ], [ 80.9883423, 7.7203798 ], [ 80.8843536, 7.7143555 ], [ 80.867424, 7.6906052 ], [ 80.7817001, 7.6780128 ], [ 80.7611771, 7.7919803 ], [ 80.7963638, 7.8042517 ], [ 80.8180237, 7.9253669 ], [ 80.8188705, 7.9806886 ], [ 80.7556763, 8.0114899 ], [ 80.7604141, 8.150631 ], [ 80.8077316, 8.2794113 ], [ 80.8999939, 8.2805634 ], [ 80.9413757, 8.3419199 ] ] ] ] } },
{ "type": "Feature", "properties": { "POLYGON_ID": "LKA_GAUL2006_ADM2_25837", "ADM0_ISO3": "LKA", "ADM0_NAME": "Sri Lanka", "ADM0_CODE": 231, "ADM1_NAME": "North Western", "ADM1_CODE": 2739, "ADM2_NAME": "Kurunegala", "ADM2_CODE": 25837, "GEOSET": "GAUL", "GEOSET_YEAR": 2006.0, "GEOSET_VERSION": "GAUL_v1", "GEOSET_UNIT": "ADM2", "CENTROID_LONG": 80.238187049848932, "CENTROID_LAT": 7.6649725217193732 }, "geometry": { "type": "MultiPolygon", "coordinates": [ [ [ [ 80.5014725, 7.8166404 ], [ 80.5378189, 7.7363815 ], [ 80.5544128, 7.6350927 ], [ 80.5778503, 7.6054201 ], [ 80.5527267, 7.5507445 ], [ 80.5763626, 7.479352 ], [ 80.5663071, 7.4574795 ], [ 80.5563965, 7.4202824 ], [ 80.4720459, 7.3933163 ], [ 80.4210587, 7.3542371 ], [ 80.3919907, 7.3965535 ], [ 80.3452454, 7.382411 ], [ 80.3382339, 7.3212485 ], [ 80.2802734, 7.3183775 ], [ 80.195755, 7.2581792 ], [ 80.1235733, 7.3299794 ], [ 80.0638428, 7.2855496 ], [ 80.0053406, 7.3201771 ], [ 79.9415894, 7.2764926 ], [ 79.9380875, 7.3477626 ], [ 79.9051361, 7.5025802 ], [ 79.9056702, 7.6169043 ], [ 79.9538498, 7.7179132 ], [ 79.9985123, 7.7431693 ], [ 80.0081863, 7.8330455 ], [ 80.0644684, 7.8720045 ], [ 80.0756607, 7.9158058 ], [ 80.1480255, 7.9424644 ], [ 80.1513519, 8.0696135 ], [ 80.1142731, 8.0998583 ], [ 80.1018753, 8.1973791 ], [ 80.1885223, 8.1511898 ], [ 80.3170471, 8.1125069 ], [ 80.370224, 8.0577421 ], [ 80.4193344, 8.0438414 ], [ 80.4255295, 7.9616642 ], [ 80.4612045, 7.9452062 ], [ 80.5014725, 7.8166404 ] ] ] ] } },
{ "type": "Feature", "properties": { "POLYGON_ID": "LKA_GAUL2006_ADM2_25838", "ADM0_ISO3": "LKA", "ADM0_NAME": "Sri Lanka", "ADM0_CODE": 231, "ADM1_NAME": "North Western", "ADM1_CODE": 2739, "ADM2_NAME": "Puttalam", "ADM2_CODE": 25838, "GEOSET": "GAUL", "GEOSET_YEAR": 2006.0, "GEOSET_VERSION": "GAUL_v1", "GEOSET_UNIT": "ADM2", "CENTROID_LONG": 79.922276031977233, "CENTROID_LAT": 7.9668250029594025 }, "geometry": { "type": "MultiPolygon", "coordinates": [ [ [ [ 80.0328445, 8.5257597 ], [ 80.0302277, 8.4631443 ], [ 79.9523849, 8.3697481 ], [ 79.9747314, 8.3379927 ], [ 79.9992905, 8.2288895 ], [ 80.0774918, 8.2241631 ], [ 80.1018753, 8.1973791 ], [ 80.1142731, 8.0998583 ], [ 80.1513519, 8.0696135 ], [ 80.1480255, 7.9424644 ], [ 80.0756607, 7.9158058 ], [ 80.0644684, 7.8720045 ], [ 80.0081863, 7.8330455 ], [ 79.9985123, 7.7431693 ], [ 79.9538498, 7.7179132 ], [ 79.9056702, 7.6169043 ], [ 79.9051361, 7.5025802 ], [ 79.9380875, 7.3477626 ], [ 79.9415894, 7.2764926 ], [ 79.8405838, 7.2729206 ], [ 79.7900772, 7.5358562 ], [ 79.8002853, 7.624444 ], [ 79.7864838, 7.7655406 ], [ 79.7457428, 7.9318171 ], [ 79.748024, 7.9914832 ], [ 79.8148804, 7.9759226 ], [ 79.8354416, 8.0140266 ], [ 79.7973328, 8.0601254 ], [ 79.8342209, 8.137289 ], [ 79.8075027, 8.2365847 ], [ 79.8463898, 8.3525143 ], [ 79.8424683, 8.4182339 ], [ 79.8688812, 8.5307589 ], [ 79.9206467, 8.5669174 ], [ 80.0328445, 8.5257597 ] ] ] ] } },
{ "type": "Feature", "properties": { "POLYGON_ID": "LKA_GAUL2006_ADM2_25839", "ADM0_ISO3": "LKA", "ADM0_NAME": "Sri Lanka", "ADM0_CODE": 231, "ADM1_NAME": "Northern", "ADM1_CODE": 2740, "ADM2_NAME": "Jaffna", "ADM2_CODE": 25839, "GEOSET": "GAUL", "GEOSET_YEAR": 2006.0, "GEOSET_VERSION": "GAUL_v1", "GEOSET_UNIT": "ADM2", "CENTROID_LONG": 80.151166890241285, "CENTROID_LAT": 9.6904640710397452 }, "geometry": { "type": "MultiPolygon", "coordinates": [ [ [ [ 80.6234589, 9.4594107 ], [ 80.6172104, 9.4520378 ], [ 80.5617828, 9.4675722 ], [ 80.4511108, 9.5228043 ], [ 80.4411316, 9.5783434 ], [ 80.2994385, 9.6849051 ], [ 80.258667, 9.6126652 ], [ 80.1699371, 9.6559057 ], [ 80.1778717, 9.6086941 ], [ 80.1236267, 9.6082754 ], [ 79.9841843, 9.6851654 ], [ 79.9457626, 9.6894779 ], [ 79.9059372, 9.760745 ], [ 79.9847031, 9.8109684 ], [ 80.1111374, 9.8108511 ], [ 80.2139893, 9.8349915 ], [ 80.2470932, 9.8280411 ], [ 80.3146744, 9.7201233 ], [ 80.3892365, 9.6416903 ], [ 80.6234589, 9.4594107 ] ] ], [ [ [ 79.8638077, 9.7045784 ], [ 79.9631729, 9.6336632 ], [ 79.8676605, 9.64221 ], [ 79.8638077, 9.7045784 ] ] ], [ [ [ 79.66185, 9.5539083 ], [ 79.7236481, 9.5272989 ], [ 79.7204971, 9.4744711 ], [ 79.6547241, 9.5052652 ], [ 79.66185, 9.5539083 ] ] ] ] } },
{ "type": "Feature", "properties": { "POLYGON_ID": "LKA_GAUL2006_ADM2_25840", "ADM0_ISO3": "LKA", "ADM0_NAME": "Sri Lanka", "ADM0_CODE": 231, "ADM1_NAME": "Northern", "ADM1_CODE": 2740, "ADM2_NAME": "Kilinochchi", "ADM2_CODE": 25840, "GEOSET": "GAUL", "GEOSET_YEAR": 2006.0, "GEOSET_VERSION": "GAUL_v1", "GEOSET_UNIT": "ADM2", "CENTROID_LONG": 80.313971995614054, "CENTROID_LAT": 9.4215960676269894 }, "geometry": { "type": "MultiPolygon", "coordinates": [ [ [ [ 80.6172104, 9.4520378 ], [ 80.5853348, 9.4081497 ], [ 80.5352783, 9.4045019 ], [ 80.5156937, 9.3462124 ], [ 80.4068375, 9.3399124 ], [ 80.4056244, 9.3089256 ], [ 80.2529221, 9.3036499 ], [ 80.1917419, 9.2372475 ], [ 80.117897, 9.2117491 ], [ 80.1216354, 9.3008852 ], [ 80.0620422, 9.3351336 ], [ 80.0566559, 9.3941259 ], [ 80.1502304, 9.4408989 ], [ 80.185936, 9.4870415 ], [ 80.193718, 9.5443153 ], [ 80.2638626, 9.5059175 ], [ 80.2497025, 9.4692221 ], [ 80.3320847, 9.4550934 ], [ 80.3963394, 9.5036268 ], [ 80.320961, 9.5770187 ], [ 80.258667, 9.6126652 ], [ 80.2994385, 9.6849051 ], [ 80.4411316, 9.5783434 ], [ 80.4511108, 9.5228043 ], [ 80.5617828, 9.4675722 ], [ 80.6172104, 9.4520378 ] ] ] ] } },
{ "type": "Feature", "properties": { "POLYGON_ID": "LKA_GAUL2006_ADM2_25841", "ADM0_ISO3": "LKA", "ADM0_NAME": "Sri Lanka", "ADM0_CODE": 231, "ADM1_NAME": "Northern", "ADM1_CODE": 2740, "ADM2_NAME": "Mannar", "ADM2_CODE": 25841, "GEOSET": "GAUL", "GEOSET_YEAR": 2006.0, "GEOSET_VERSION": "GAUL_v1", "GEOSET_UNIT": "ADM2", "CENTROID_LONG": 80.095010368185072, "CENTROID_LAT": 8.8743925431753787 }, "geometry": { "type": "MultiPolygon", "coordinates": [ [ [ [ 80.3400879, 8.9590721 ], [ 80.3810501, 8.9348173 ], [ 80.4024658, 8.8569403 ], [ 80.2974243, 8.8202639 ], [ 80.2296677, 8.8278904 ], [ 80.1928635, 8.7357006 ], [ 80.2360916, 8.6803045 ], [ 80.0556946, 8.6391706 ], [ 80.0524063, 8.5252161 ], [ 80.0328445, 8.5257597 ], [ 79.9206467, 8.5669174 ], [ 79.9411469, 8.6151981 ], [ 79.9599686, 8.7240791 ], [ 79.9192276, 8.8161821 ], [ 79.9343185, 8.8847351 ], [ 79.9113159, 8.9384174 ], [ 79.9840698, 8.969759 ], [ 80.0359268, 9.01443 ], [ 80.0688324, 9.0653696 ], [ 80.08358, 9.1410809 ], [ 80.117897, 9.2117491 ], [ 80.1917419, 9.2372475 ], [ 80.1954498, 9.1760244 ], [ 80.2257385, 9.1131592 ], [ 80.1948624, 9.0458498 ], [ 80.1750183, 8.950284 ], [ 80.3400879, 8.9590721 ] ] ], [ [ [ 79.7337189, 9.106864 ], [ 79.8566818, 9.0771284 ], [ 79.9079514, 9.0250673 ], [ 79.8893585, 8.9665737 ], [ 79.8268662, 9.0272045 ], [ 79.7446747, 9.0702085 ], [ 79.7337189, 9.106864 ] ] ] ] } },
{ "type": "Feature", "properties": { "POLYGON_ID": "LKA_GAUL2006_ADM2_25842", "ADM0_ISO3": "LKA", "ADM0_NAME": "Sri Lanka", "ADM0_CODE": 231, "ADM1_NAME": "Northern", "ADM1_CODE": 2740, "ADM2_NAME": "Mullattivu", "ADM2_CODE": 25842, "GEOSET": "GAUL", "GEOSET_YEAR": 2006.0, "GEOSET_VERSION": "GAUL_v1", "GEOSET_UNIT": "ADM2", "CENTROID_LONG": 80.543234362455394, "CENTROID_LAT": 9.1769217764651909 }, "geometry": { "type": "MultiPolygon", "coordinates": [ [ [ [ 80.9666061, 8.9864674 ], [ 80.8899994, 8.9815159 ], [ 80.8667374, 8.9596729 ], [ 80.7619476, 8.9369745 ], [ 80.7872314, 9.0118685 ], [ 80.6459885, 9.1163139 ], [ 80.5839615, 9.1262798 ], [ 80.5299988, 9.076498 ], [ 80.4941101, 9.1136799 ], [ 80.4259262, 9.0908833 ], [ 80.4337921, 9.0301371 ], [ 80.3400879, 8.9590721 ], [ 80.1750183, 8.950284 ], [ 80.1948624, 9.0458498 ], [ 80.2257385, 9.1131592 ], [ 80.1954498, 9.1760244 ], [ 80.1917419, 9.2372475 ], [ 80.2529221, 9.3036499 ], [ 80.4056244, 9.3089256 ], [ 80.4068375, 9.3399124 ], [ 80.5156937, 9.3462124 ], [ 80.5352783, 9.4045019 ], [ 80.5853348, 9.4081497 ], [ 80.6172104, 9.4520378 ], [ 80.6234589, 9.4594107 ], [ 80.7938385, 9.3088837 ], [ 80.8437805, 9.2287483 ], [ 80.8808975, 9.1222868 ], [ 80.9666061, 8.9864674 ] ] ] ] } },
{ "type": "Feature", "properties": { "POLYGON_ID": "LKA_GAUL2006_ADM2_25843", "ADM0_ISO3": "LKA", "ADM0_NAME": "Sri Lanka", "ADM0_CODE": 231, "ADM1_NAME": "Northern", "ADM1_CODE": 2740, "ADM2_NAME": "Vavuniya", "ADM2_CODE": 25843, "GEOSET": "GAUL", "GEOSET_YEAR": 2006.0, "GEOSET_VERSION": "GAUL_v1", "GEOSET_UNIT": "ADM2", "CENTROID_LONG": 80.486761905687999, "CENTROID_LAT": 8.8596022178024523 }, "geometry": { "type": "MultiPolygon", "coordinates": [ [ [ [ 80.7619476, 8.9369745 ], [ 80.7526932, 8.9051294 ], [ 80.6718445, 8.8734198 ], [ 80.5967941, 8.8697262 ], [ 80.651329, 8.8016148 ], [ 80.5890884, 8.7227325 ], [ 80.5060959, 8.6583261 ], [ 80.4523773, 8.6926889 ], [ 80.4095306, 8.6588907 ], [ 80.3791428, 8.5801296 ], [ 80.3328247, 8.5459089 ], [ 80.2902679, 8.5605278 ], [ 80.2742691, 8.6108551 ], [ 80.2367325, 8.6318016 ], [ 80.2360916, 8.6803045 ], [ 80.1928635, 8.7357006 ], [ 80.2296677, 8.8278904 ], [ 80.2974243, 8.8202639 ], [ 80.4024658, 8.8569403 ], [ 80.3810501, 8.9348173 ], [ 80.3400879, 8.9590721 ], [ 80.4337921, 9.0301371 ], [ 80.4259262, 9.0908833 ], [ 80.4941101, 9.1136799 ], [ 80.5299988, 9.076498 ], [ 80.5839615, 9.1262798 ], [ 80.6459885, 9.1163139 ], [ 80.7872314, 9.0118685 ], [ 80.7619476, 8.9369745 ] ] ] ] } },
{ "type": "Feature", "properties": { "POLYGON_ID": "LKA_GAUL2006_ADM2_25844", "ADM0_ISO3": "LKA", "ADM0_NAME": "Sri Lanka", "ADM0_CODE": 231, "ADM1_NAME": "Sabaragamuwa", "ADM1_CODE": 2741, "ADM2_NAME": "Kegalle", "ADM2_CODE": 25844, "GEOSET": "GAUL", "GEOSET_YEAR": 2006.0, "GEOSET_VERSION": "GAUL_v1", "GEOSET_UNIT": "ADM2", "CENTROID_LONG": 80.342470809324183, "CENTROID_LAT": 7.1031771697725441 }, "geometry": { "type": "MultiPolygon", "coordinates": [ [ [ [ 80.4210587, 7.3542371 ], [ 80.4307175, 7.3271737 ], [ 80.5214691, 7.2355442 ], [ 80.5465393, 7.168273 ], [ 80.4632034, 7.0889668 ], [ 80.4671478, 7.0220304 ], [ 80.4314499, 6.9126663 ], [ 80.5002365, 6.8853726 ], [ 80.4950485, 6.831614 ], [ 80.4444809, 6.831768 ], [ 80.402153, 6.8594112 ], [ 80.3291321, 6.8355837 ], [ 80.2111206, 6.9169197 ], [ 80.2170105, 6.9755402 ], [ 80.1790619, 6.9780946 ], [ 80.1530762, 7.183856 ], [ 80.1811676, 7.1936383 ], [ 80.195755, 7.2581792 ], [ 80.2802734, 7.3183775 ], [ 80.3382339, 7.3212485 ], [ 80.3452454, 7.382411 ], [ 80.3919907, 7.3965535 ], [ 80.4210587, 7.3542371 ] ] ] ] } },
{ "type": "Feature", "properties": { "POLYGON_ID": "LKA_GAUL2006_ADM2_25845", "ADM0_ISO3": "LKA", "ADM0_NAME": "Sri Lanka", "ADM0_CODE": 231, "ADM1_NAME": "Sabaragamuwa", "ADM1_CODE": 2741, "ADM2_NAME": "Ratnapura", "ADM2_CODE": 25845, "GEOSET": "GAUL", "GEOSET_YEAR": 2006.0, "GEOSET_VERSION": "GAUL_v1", "GEOSET_UNIT": "ADM2", "CENTROID_LONG": 80.564047043905717, "CENTROID_LAT": 6.5852194945284372 }, "geometry": { "type": "MultiPolygon", "coordinates": [ [ [ [ 80.4950485, 6.831614 ], [ 80.4909134, 6.7877045 ], [ 80.5277176, 6.7681866 ], [ 80.6572418, 6.7534108 ], [ 80.7457352, 6.7572551 ], [ 80.8086548, 6.7916961 ], [ 80.8295898, 6.670608 ], [ 80.8577347, 6.6568971 ], [ 80.9277802, 6.6888304 ], [ 80.8762589, 6.6100674 ], [ 80.8647537, 6.550982 ], [ 80.83181, 6.5004392 ], [ 80.8464203, 6.386981 ], [ 80.8986511, 6.3487458 ], [ 80.9199142, 6.2977819 ], [ 80.9533005, 6.2402501 ], [ 80.882019, 6.2466788 ], [ 80.8674622, 6.2713022 ], [ 80.7892303, 6.2673669 ], [ 80.697052, 6.3083625 ], [ 80.670723, 6.3055434 ], [ 80.6311798, 6.3520212 ], [ 80.6183014, 6.3967299 ], [ 80.5344162, 6.3881612 ], [ 80.4955902, 6.3681583 ], [ 80.4199219, 6.3917756 ], [ 80.3813324, 6.4254522 ], [ 80.2952118, 6.5622768 ], [ 80.3026581, 6.5965843 ], [ 80.2495728, 6.6369734 ], [ 80.2136307, 6.6971154 ], [ 80.177742, 6.8157511 ], [ 80.1804504, 6.8683124 ], [ 80.2111206, 6.9169197 ], [ 80.3291321, 6.8355837 ], [ 80.402153, 6.8594112 ], [ 80.4444809, 6.831768 ], [ 80.4950485, 6.831614 ] ] ] ] } },
{ "type": "Feature", "properties": { "POLYGON_ID": "LKA_GAUL2006_ADM2_25846", "ADM0_ISO3": "LKA", "ADM0_NAME": "Sri Lanka", "ADM0_CODE": 231, "ADM1_NAME": "Southern", "ADM1_CODE": 2742, "ADM2_NAME": "Galle", "ADM2_CODE": 25846, "GEOSET": "GAUL", "GEOSET_YEAR": 2006.0, "GEOSET_VERSION": "GAUL_v1", "GEOSET_UNIT": "ADM2", "CENTROID_LONG": 80.249923479283922, "CENTROID_LAT": 6.2248955398197143 }, "geometry": { "type": "MultiPolygon", "coordinates": [ [ [ [ 80.3813324, 6.4254522 ], [ 80.4199219, 6.3917756 ], [ 80.4955902, 6.3681583 ], [ 80.4607925, 6.3479528 ], [ 80.4954224, 6.2996588 ], [ 80.4532242, 6.2877288 ], [ 80.4068451, 6.334815 ], [ 80.3866959, 6.3079028 ], [ 80.4376144, 6.2549882 ], [ 80.4399796, 6.2264686 ], [ 80.3852539, 6.1674886 ], [ 80.388176, 6.1336818 ], [ 80.4368439, 6.0938969 ], [ 80.3875275, 6.0544252 ], [ 80.3815613, 5.964138 ], [ 80.2619247, 5.9989958 ], [ 80.1907578, 6.0422449 ], [ 80.1012344, 6.1292377 ], [ 80.0336761, 6.2688856 ], [ 80.0273361, 6.3362546 ], [ 79.9870987, 6.4391961 ], [ 80.0227661, 6.4324317 ], [ 80.1896591, 6.3545265 ], [ 80.3813324, 6.4254522 ] ] ] ] } },
{ "type": "Feature", "properties": { "POLYGON_ID": "LKA_GAUL2006_ADM2_25847", "ADM0_ISO3": "LKA", "ADM0_NAME": "Sri Lanka", "ADM0_CODE": 231, "ADM1_NAME": "Southern", "ADM1_CODE": 2742, "ADM2_NAME": "Hambantota", "ADM2_CODE": 25847, "GEOSET": "GAUL", "GEOSET_YEAR": 2006.0, "GEOSET_VERSION": "GAUL_v1", "GEOSET_UNIT": "ADM2", "CENTROID_LONG": 81.098742636527064, "CENTROID_LAT": 6.2588374963514317 }, "geometry": { "type": "MultiPolygon", "coordinates": [ [ [ [ 81.7061996, 6.5062289 ], [ 81.6492844, 6.445467 ], [ 81.5560532, 6.3674498 ], [ 81.5072632, 6.3533797 ], [ 81.4797974, 6.3112006 ], [ 81.441391, 6.2961688 ], [ 81.4003983, 6.249824 ], [ 81.3245773, 6.201798 ], [ 81.1005096, 6.1196041 ], [ 80.9452591, 6.0837998 ], [ 80.8604279, 6.0421829 ], [ 80.8081818, 6.03686 ], [ 80.7248764, 5.9786463 ], [ 80.6899033, 5.9914837 ], [ 80.6902771, 6.0623093 ], [ 80.6095963, 6.2054334 ], [ 80.670723, 6.3055434 ], [ 80.697052, 6.3083625 ], [ 80.7892303, 6.2673669 ], [ 80.8674622, 6.2713022 ], [ 80.882019, 6.2466788 ], [ 80.9533005, 6.2402501 ], [ 80.9199142, 6.2977819 ], [ 81.0194244, 6.3461189 ], [ 81.073761, 6.4219403 ], [ 81.1845551, 6.4064679 ], [ 81.2525864, 6.3405786 ], [ 81.2762375, 6.3690295 ], [ 81.3402939, 6.3815436 ], [ 81.4260483, 6.4182959 ], [ 81.4794998, 6.4193916 ], [ 81.4820557, 6.4955468 ], [ 81.6082153, 6.5794721 ], [ 81.6401978, 6.5415425 ], [ 81.7061996, 6.5062289 ] ] ] ] } },
{ "type": "Feature", "properties": { "POLYGON_ID": "LKA_GAUL2006_ADM2_25848", "ADM0_ISO3": "LKA", "ADM0_NAME": "Sri Lanka", "ADM0_CODE": 231, "ADM1_NAME": "Southern", "ADM1_CODE": 2742, "ADM2_NAME": "Matara", "ADM2_CODE": 25848, "GEOSET": "GAUL", "GEOSET_YEAR": 2006.0, "GEOSET_VERSION": "GAUL_v1", "GEOSET_UNIT": "ADM2", "CENTROID_LONG": 80.536653544919517, "CENTROID_LAT": 6.1405025136052096 }, "geometry": { "type": "MultiPolygon", "coordinates": [ [ [ [ 80.670723, 6.3055434 ], [ 80.6095963, 6.2054334 ], [ 80.6902771, 6.0623093 ], [ 80.6899033, 5.9914837 ], [ 80.7248764, 5.9786463 ], [ 80.6960068, 5.963233 ], [ 80.5737152, 5.9375491 ], [ 80.4534836, 5.9407458 ], [ 80.3815613, 5.964138 ], [ 80.3875275, 6.0544252 ], [ 80.4368439, 6.0938969 ], [ 80.388176, 6.1336818 ], [ 80.3852539, 6.1674886 ], [ 80.4399796, 6.2264686 ], [ 80.4376144, 6.2549882 ], [ 80.3866959, 6.3079028 ], [ 80.4068451, 6.334815 ], [ 80.4532242, 6.2877288 ], [ 80.4954224, 6.2996588 ], [ 80.4607925, 6.3479528 ], [ 80.4955902, 6.3681583 ], [ 80.5344162, 6.3881612 ], [ 80.6183014, 6.3967299 ], [ 80.6311798, 6.3520212 ], [ 80.670723, 6.3055434 ] ] ] ] } },
{ "type": "Feature", "properties": { "POLYGON_ID": "LKA_GAUL2006_ADM2_25849", "ADM0_ISO3": "LKA", "ADM0_NAME": "Sri Lanka", "ADM0_CODE": 231, "ADM1_NAME": "Uva", "ADM1_CODE": 2743, "ADM2_NAME": "Badulla", "ADM2_CODE": 25849, "GEOSET": "GAUL", "GEOSET_YEAR": 2006.0, "GEOSET_VERSION": "GAUL_v1", "GEOSET_UNIT": "ADM2", "CENTROID_LONG": 81.045276045957067, "CENTROID_LAT": 7.0749724991079699 }, "geometry": { "type": "MultiPolygon", "coordinates": [ [ [ [ 81.2709961, 7.2781544 ], [ 81.2077026, 7.2054586 ], [ 81.1278915, 7.1429586 ], [ 81.1697998, 7.0826879 ], [ 81.2137299, 7.0960593 ], [ 81.243309, 7.0465269 ], [ 81.2355728, 6.9692321 ], [ 81.2026672, 6.9207644 ], [ 81.1112289, 6.8650537 ], [ 81.1384964, 6.8378749 ], [ 81.0656357, 6.8127522 ], [ 81.0643768, 6.7580047 ], [ 81.0848465, 6.7259727 ], [ 81.0615158, 6.6447496 ], [ 81.0838242, 6.6171088 ], [ 81.0256271, 6.5702839 ], [ 80.9394684, 6.6907439 ], [ 80.9277802, 6.6888304 ], [ 80.8577347, 6.6568971 ], [ 80.8295898, 6.670608 ], [ 80.8086548, 6.7916961 ], [ 80.8384399, 6.8449287 ], [ 80.8099518, 6.917213 ], [ 80.8671494, 6.9786563 ], [ 80.9237213, 6.9967523 ], [ 80.9575424, 7.0629196 ], [ 80.9655304, 7.1240978 ], [ 80.9487762, 7.2000518 ], [ 81.0167923, 7.2320175 ], [ 80.9760284, 7.3640261 ], [ 80.9739609, 7.4887342 ], [ 80.9797363, 7.6243553 ], [ 81.0148544, 7.5937386 ], [ 81.0410767, 7.5043063 ], [ 81.0759277, 7.5102286 ], [ 81.1336899, 7.5579443 ], [ 81.1882706, 7.5730577 ], [ 81.2062607, 7.5212836 ], [ 81.1848831, 7.4472933 ], [ 81.210556, 7.3487573 ], [ 81.261795, 7.3136292 ], [ 81.2709961, 7.2781544 ] ] ] ] } },
{ "type": "Feature", "properties": { "POLYGON_ID": "LKA_GAUL2006_ADM2_25850", "ADM0_ISO3": "LKA", "ADM0_NAME": "Sri Lanka", "ADM0_CODE": 231, "ADM1_NAME": "Uva", "ADM1_CODE": 2743, "ADM2_NAME": "Moneragala", "ADM2_CODE": 25850, "GEOSET": "GAUL", "GEOSET_YEAR": 2006.0, "GEOSET_VERSION": "GAUL_v1", "GEOSET_UNIT": "ADM2", "CENTROID_LONG": 81.302943897222477, "CENTROID_LAT": 6.7862942387893259 }, "geometry": { "type": "MultiPolygon", "coordinates": [ [ [ [ 81.6082153, 6.5794721 ], [ 81.4820557, 6.4955468 ], [ 81.4794998, 6.4193916 ], [ 81.4260483, 6.4182959 ], [ 81.3402939, 6.3815436 ], [ 81.2762375, 6.3690295 ], [ 81.2525864, 6.3405786 ], [ 81.1845551, 6.4064679 ], [ 81.073761, 6.4219403 ], [ 81.0194244, 6.3461189 ], [ 80.9199142, 6.2977819 ], [ 80.8986511, 6.3487458 ], [ 80.8464203, 6.386981 ], [ 80.83181, 6.5004392 ], [ 80.8647537, 6.550982 ], [ 80.8762589, 6.6100674 ], [ 80.9277802, 6.6888304 ], [ 80.9394684, 6.6907439 ], [ 81.0256271, 6.5702839 ], [ 81.0838242, 6.6171088 ], [ 81.0615158, 6.6447496 ], [ 81.0848465, 6.7259727 ], [ 81.0643768, 6.7580047 ], [ 81.0656357, 6.8127522 ], [ 81.1384964, 6.8378749 ], [ 81.1112289, 6.8650537 ], [ 81.2026672, 6.9207644 ], [ 81.2355728, 6.9692321 ], [ 81.243309, 7.0465269 ], [ 81.2137299, 7.0960593 ], [ 81.1697998, 7.0826879 ], [ 81.1278915, 7.1429586 ], [ 81.2077026, 7.2054586 ], [ 81.2709961, 7.2781544 ], [ 81.3216476, 7.2658682 ], [ 81.3191528, 7.3343468 ], [ 81.3668365, 7.3439875 ], [ 81.3747025, 7.3953848 ], [ 81.4532852, 7.458384 ], [ 81.4902191, 7.3370318 ], [ 81.543335, 7.2138391 ], [ 81.5100555, 7.1779819 ], [ 81.5156174, 7.1023006 ], [ 81.6131668, 7.0675159 ], [ 81.6063309, 7.0262804 ], [ 81.6364212, 6.9592838 ], [ 81.6277237, 6.9081597 ], [ 81.6082153, 6.5794721 ] ] ] ] } },
{ "type": "Feature", "properties": { "POLYGON_ID": "LKA_GAUL2006_ADM2_25851", "ADM0_ISO3": "LKA", "ADM0_NAME": "Sri Lanka", "ADM0_CODE": 231, "ADM1_NAME": "Western", "ADM1_CODE": 2744, "ADM2_NAME": "Colombo", "ADM2_CODE": 25851, "GEOSET": "GAUL", "GEOSET_YEAR": 2006.0, "GEOSET_VERSION": "GAUL_v1", "GEOSET_UNIT": "ADM2", "CENTROID_LONG": 80.01296068222932, "CENTROID_LAT": 6.8691461315416102 }, "geometry": { "type": "MultiPolygon", "coordinates": [ [ [ [ 80.1790619, 6.9780946 ], [ 80.2170105, 6.9755402 ], [ 80.2111206, 6.9169197 ], [ 80.1804504, 6.8683124 ], [ 80.177742, 6.8157511 ], [ 80.1568298, 6.8230319 ], [ 80.0653, 6.7935448 ], [ 80.0343399, 6.8027577 ], [ 79.9898605, 6.7621112 ], [ 79.9181671, 6.7494526 ], [ 79.901062, 6.7153382 ], [ 79.8616714, 6.8336 ], [ 79.8409042, 6.9359527 ], [ 79.8690033, 6.9780188 ], [ 80.0547256, 6.9080467 ], [ 80.0934906, 6.9130692 ], [ 80.1234055, 6.9733529 ], [ 80.1790619, 6.9780946 ] ] ] ] } },
{ "type": "Feature", "properties": { "POLYGON_ID": "LKA_GAUL2006_ADM2_25852", "ADM0_ISO3": "LKA", "ADM0_NAME": "Sri Lanka", "ADM0_CODE": 231, "ADM1_NAME": "Western", "ADM1_CODE": 2744, "ADM2_NAME": "Gampaha", "ADM2_CODE": 25852, "GEOSET": "GAUL", "GEOSET_YEAR": 2006.0, "GEOSET_VERSION": "GAUL_v1", "GEOSET_UNIT": "ADM2", "CENTROID_LONG": 80.011036293736367, "CENTROID_LAT": 7.1241526143015923 }, "geometry": { "type": "MultiPolygon", "coordinates": [ [ [ [ 80.195755, 7.2581792 ], [ 80.1811676, 7.1936383 ], [ 80.1530762, 7.183856 ], [ 80.1790619, 6.9780946 ], [ 80.1234055, 6.9733529 ], [ 80.0934906, 6.9130692 ], [ 80.0547256, 6.9080467 ], [ 79.8690033, 6.9780188 ], [ 79.8166733, 7.2024164 ], [ 79.8405838, 7.2729206 ], [ 79.9415894, 7.2764926 ], [ 80.0053406, 7.3201771 ], [ 80.0638428, 7.2855496 ], [ 80.1235733, 7.3299794 ], [ 80.195755, 7.2581792 ] ] ] ] } },
{ "type": "Feature", "properties": { "POLYGON_ID": "LKA_GAUL2006_ADM2_25853", "ADM0_ISO3": "LKA", "ADM0_NAME": "Sri Lanka", "ADM0_CODE": 231, "ADM1_NAME": "Western", "ADM1_CODE": 2744, "ADM2_NAME": "Kalutara", "ADM2_CODE": 25853, "GEOSET": "GAUL", "GEOSET_YEAR": 2006.0, "GEOSET_VERSION": "GAUL_v1", "GEOSET_UNIT": "ADM2", "CENTROID_LONG": 80.126827218412558, "CENTROID_LAT": 6.5804858670108199 }, "geometry": { "type": "MultiPolygon", "coordinates": [ [ [ [ 80.177742, 6.8157511 ], [ 80.2136307, 6.6971154 ], [ 80.2495728, 6.6369734 ], [ 80.3026581, 6.5965843 ], [ 80.2952118, 6.5622768 ], [ 80.3813324, 6.4254522 ], [ 80.1896591, 6.3545265 ], [ 80.0227661, 6.4324317 ], [ 79.9870987, 6.4391961 ], [ 79.982338, 6.5112944 ], [ 79.901062, 6.7153382 ], [ 79.9181671, 6.7494526 ], [ 79.9898605, 6.7621112 ], [ 80.0343399, 6.8027577 ], [ 80.0653, 6.7935448 ], [ 80.1568298, 6.8230319 ], [ 80.177742, 6.8157511 ] ] ] ] } }
]
}
