{
"type": "FeatureCollection",
"name": "LKA_GAUL2003_ADM0",
"crs": { "type": "name", "properties": { "name": "urn:ogc:def:crs:OGC:1.3:CRS84" } },
"features": [
{ "type": "Feature", "properties": { "POLYGON_ID": "LKA_GAUL2003_ADM0_231", "ADM0_ISO3": "LKA", "ADM0_NAME": "Sri Lanka", "ADM0_CODE": 231, "GEOSET": "GAUL", "GEOSET_YEAR": 2003.0, "GEOSET_VERSION": "GAUL_v1", "GEOSET_UNIT": "ADM0", "CENTROID_LONG": 80.701822878824544, "CENTROID_LAT": 7.6205411873092483 }, "geometry": { "type": "MultiPolygon", "coordinates": [ [ [ [ 80.2120132, 9.8350525 ], [ 80.2470932, 9.8280411 ], [ 80.2774048, 9.7743616 ], [ 80.3146744, 9.7201233 ], [ 80.3551559, 9.6719618 ], [ 80.3892365, 9.6416903 ], [ 80.5420532, 9.5201807 ], [ 80.6147995, 9.4669085 ], [ 80.6763687, 9.4148827 ], [ 80.7401505, 9.3502321 ], [ 80.7938385, 9.3088837 ], [ 80.8437805, 9.2287483 ], [ 80.855835, 9.1795626 ], [ 80.8808975, 9.1222868 ], [ 80.9331055, 9.0362539 ], [ 81.0289459, 8.8927956 ], [ 81.053688, 8.8661146 ], [ 81.07547, 8.8638268 ], [ 81.1069946, 8.8092136 ], [ 81.1898499, 8.708087 ], [ 81.2255554, 8.6570187 ], [ 81.2147293, 8.5744743 ], [ 81.2015839, 8.5517073 ], [ 81.2105789, 8.5126028 ], [ 81.1866608, 8.5121279 ], [ 81.1580505, 8.5446653 ], [ 81.1213913, 8.5093737 ], [ 81.1352997, 8.4896307 ], [ 81.1702194, 8.5138407 ], [ 81.1910782, 8.5056963 ], [ 81.197876, 8.4780712 ], [ 81.2218781, 8.4611511 ], [ 81.2786636, 8.464613 ], [ 81.296814, 8.5084171 ], [ 81.3213882, 8.5254421 ], [ 81.3473358, 8.5028639 ], [ 81.3626556, 8.4551678 ], [ 81.4138947, 8.2210655 ], [ 81.4453735, 8.1251459 ], [ 81.4597168, 8.1100302 ], [ 81.4662781, 8.0605602 ], [ 81.4857254, 8.0199137 ], [ 81.5278931, 7.984479 ], [ 81.5633545, 7.9374094 ], [ 81.5643539, 7.8953185 ], [ 81.5796127, 7.8473368 ], [ 81.6244888, 7.8180146 ], [ 81.6373825, 7.7952156 ], [ 81.6707687, 7.764853 ], [ 81.6988297, 7.7523346 ], [ 81.7585526, 7.658123 ], [ 81.7881775, 7.5957894 ], [ 81.8009567, 7.5528245 ], [ 81.8263931, 7.4304552 ], [ 81.8389816, 7.4147105 ], [ 81.8664169, 7.3226042 ], [ 81.8571625, 7.1025853 ], [ 81.879036, 7.0230184 ], [ 81.844368, 6.9079609 ], [ 81.8399124, 6.8352776 ], [ 81.8222046, 6.8129368 ], [ 81.8244781, 6.7649846 ], [ 81.8002243, 6.7296848 ], [ 81.7978745, 6.7053657 ], [ 81.7726517, 6.6733255 ], [ 81.7764435, 6.6495438 ], [ 81.7613678, 6.5971799 ], [ 81.7420807, 6.5770149 ], [ 81.7025757, 6.4981947 ], [ 81.6492844, 6.445467 ], [ 81.6223984, 6.4346857 ], [ 81.6161041, 6.4148555 ], [ 81.5560532, 6.3674498 ], [ 81.5072632, 6.3533797 ], [ 81.4797974, 6.3112006 ], [ 81.441391, 6.2961688 ], [ 81.4003983, 6.249824 ], [ 81.3393326, 6.2214422 ], [ 81.3245773, 6.201798 ], [ 81.2373199, 6.1792407 ], [ 81.2269058, 6.1651845 ], [ 81.1839447, 6.1580081 ], [ 81.1665955, 6.1447477 ], [ 81.1005096, 6.1196041 ], [ 80.9952393, 6.0995407 ], [ 80.9452591, 6.0837998 ], [ 80.9032898, 6.0634303 ], [ 80.8688507, 6.0558262 ], [ 80.8604279, 6.0421829 ], [ 80.8081818, 6.03686 ], [ 80.781189, 6.0062675 ], [ 80.7492371, 5.9980273 ], [ 80.6960068, 5.963233 ], [ 80.6229019, 5.9459023 ], [ 80.5888138, 5.9195285 ], [ 80.5737152, 5.9375491 ], [ 80.5232925, 5.9353819 ], [ 80.4534836, 5.9407458 ], [ 80.4533539, 5.9623799 ], [ 80.4199677, 5.956233 ], [ 80.3789291, 5.9642253 ], [ 80.3104553, 5.9921174 ], [ 80.2619247, 5.9989958 ], [ 80.242157, 6.0268679 ], [ 80.1907578, 6.0422449 ], [ 80.1705475, 6.0651374 ], [ 80.1266479, 6.0977144 ], [ 80.1012344, 6.1292377 ], [ 80.0867691, 6.1681395 ], [ 80.0632401, 6.2035985 ], [ 80.0336761, 6.2688856 ], [ 80.0382385, 6.2914348 ], [ 80.0273361, 6.3362546 ], [ 79.9762497, 6.4729304 ], [ 79.982338, 6.5112944 ], [ 79.9284363, 6.65732 ], [ 79.9007034, 6.7142868 ], [ 79.8616714, 6.8336 ], [ 79.8575439, 6.875145 ], [ 79.8409042, 6.9359527 ], [ 79.8679504, 6.9690561 ], [ 79.8679504, 6.9983497 ], [ 79.8426285, 7.108355 ], [ 79.8166733, 7.2024164 ], [ 79.8385925, 7.2220874 ], [ 79.8402786, 7.2846613 ], [ 79.8196564, 7.3975849 ], [ 79.8018188, 7.468729 ], [ 79.7900772, 7.5358562 ], [ 79.7865906, 7.6070476 ], [ 79.8002853, 7.624444 ], [ 79.7993469, 7.6825061 ], [ 79.7864838, 7.7655406 ], [ 79.7457428, 7.9318171 ], [ 79.7061234, 8.0556774 ], [ 79.6991501, 8.1407471 ], [ 79.7093735, 8.1689835 ], [ 79.6931458, 8.213438 ], [ 79.7184448, 8.2183933 ], [ 79.7309952, 8.2403107 ], [ 79.7574158, 8.2561531 ], [ 79.7707901, 8.2277126 ], [ 79.7383194, 8.2015038 ], [ 79.7482758, 8.1857977 ], [ 79.7306366, 8.0896215 ], [ 79.7450943, 8.0354729 ], [ 79.7375565, 8.0124569 ], [ 79.748024, 7.9914832 ], [ 79.8148804, 7.9759226 ], [ 79.8354416, 8.0140266 ], [ 79.7973328, 8.0601254 ], [ 79.7991714, 8.0831404 ], [ 79.8342209, 8.137289 ], [ 79.8192062, 8.1640015 ], [ 79.8184509, 8.2035332 ], [ 79.8075027, 8.2365847 ], [ 79.833847, 8.291276 ], [ 79.8463898, 8.3525143 ], [ 79.8424683, 8.4182339 ], [ 79.8620605, 8.4640169 ], [ 79.8688812, 8.5307589 ], [ 79.9207153, 8.5582037 ], [ 79.9186935, 8.5887508 ], [ 79.9411469, 8.6151981 ], [ 79.9599686, 8.7240791 ], [ 79.9192276, 8.8161821 ], [ 79.9343185, 8.8847351 ], [ 79.9113159, 8.9384174 ], [ 79.9490204, 8.9479837 ], [ 79.9840698, 8.969759 ], [ 79.9944916, 8.9949999 ], [ 80.0359268, 9.01443 ], [ 80.0688324, 9.0653696 ], [ 80.08358, 9.1410809 ], [ 80.0955276, 9.1522713 ], [ 80.1182709, 9.2122755 ], [ 80.1216354, 9.3008852 ], [ 80.0846787, 9.3294668 ], [ 80.0620422, 9.3351336 ], [ 80.0566559, 9.3941259 ], [ 80.1154175, 9.4186821 ], [ 80.1502304, 9.4408989 ], [ 80.185936, 9.4870415 ], [ 80.1508255, 9.5330334 ], [ 80.193718, 9.5443153 ], [ 80.223381, 9.5333185 ], [ 80.2638626, 9.5059175 ], [ 80.2497025, 9.4692221 ], [ 80.2927246, 9.4522133 ], [ 80.3320847, 9.4550934 ], [ 80.3925858, 9.4835587 ], [ 80.3963394, 9.5036268 ], [ 80.3617325, 9.542634 ], [ 80.320961, 9.5770187 ], [ 80.2312317, 9.6286898 ], [ 80.1699371, 9.6559057 ], [ 80.1778717, 9.6086941 ], [ 80.1236267, 9.6082754 ], [ 80.0965881, 9.6180658 ], [ 80.0439453, 9.6506224 ], [ 80.013649, 9.6531696 ], [ 79.9841843, 9.6851654 ], [ 79.9457626, 9.6894779 ], [ 79.9256744, 9.7396221 ], [ 79.9059372, 9.760745 ], [ 79.9546204, 9.7981329 ], [ 79.9847031, 9.8109684 ], [ 80.0454636, 9.8176804 ], [ 80.1111374, 9.8108511 ], [ 80.139183, 9.825243 ], [ 80.2120132, 9.8350525 ] ] ], [ [ [ 79.8638077, 9.7045784 ], [ 79.8841324, 9.7009659 ], [ 79.9069595, 9.6732845 ], [ 79.9631729, 9.6336632 ], [ 79.9175949, 9.6338787 ], [ 79.8989182, 9.6177359 ], [ 79.8676605, 9.64221 ], [ 79.8438797, 9.6854439 ], [ 79.8638077, 9.7045784 ] ] ], [ [ [ 79.7337189, 9.106864 ], [ 79.7880325, 9.0995636 ], [ 79.8566818, 9.0771284 ], [ 79.9079514, 9.0250673 ], [ 79.8766479, 9.0204372 ], [ 79.9249725, 8.9755573 ], [ 79.8893585, 8.9665737 ], [ 79.8268662, 9.0272045 ], [ 79.7446747, 9.0702085 ], [ 79.6995163, 9.0818567 ], [ 79.6993103, 9.0989914 ], [ 79.7337189, 9.106864 ] ] ], [ [ [ 79.8991547, 9.7650414 ], [ 79.8800659, 9.7050142 ], [ 79.8616867, 9.7261353 ], [ 79.8676605, 9.762887 ], [ 79.8991547, 9.7650414 ] ] ], [ [ [ 79.8147583, 9.6266136 ], [ 79.827095, 9.5961685 ], [ 79.8590012, 9.5937262 ], [ 79.8531113, 9.567606 ], [ 79.8030396, 9.5786629 ], [ 79.8147583, 9.6266136 ] ] ], [ [ [ 79.66185, 9.5539083 ], [ 79.6967011, 9.5290689 ], [ 79.7236481, 9.5272989 ], [ 79.7314148, 9.4928608 ], [ 79.7204971, 9.4744711 ], [ 79.6859741, 9.485055 ], [ 79.6547241, 9.5052652 ], [ 79.6511002, 9.5454578 ], [ 79.66185, 9.5539083 ] ] ] ] } }
]
}
