{
"type": "FeatureCollection",
"name": "LTU_GAUL2006_ADM0",
"crs": { "type": "name", "properties": { "name": "urn:ogc:def:crs:OGC:1.3:CRS84" } },
"features": [
{ "type": "Feature", "properties": { "POLYGON_ID": "LTU_GAUL2006_ADM0_147", "ADM0_ISO3": "LTU", "ADM0_NAME": "Lithuania", "ADM0_CODE": 147, "GEOSET": "GAUL", "GEOSET_YEAR": 2006.0, "GEOSET_VERSION": "GAUL_v1", "GEOSET_UNIT": "ADM0", "CENTROID_LONG": 23.90463655260319, "CENTROID_LAT": 55.335809454185004 }, "geometry": { "type": "MultiPolygon", "coordinates": [ [ [ [ 26.61967, 55.67435 ], [ 26.63162, 55.65785 ], [ 26.6283988, 55.5807688 ], [ 26.57388, 55.53441 ], [ 26.51646, 55.52355 ], [ 26.54989, 55.48989 ], [ 26.55895, 55.3904 ], [ 26.45492, 55.34525 ], [ 26.54026, 55.33671 ], [ 26.59343, 55.32323 ], [ 26.66505, 55.34513 ], [ 26.72875, 55.32544 ], [ 26.81057, 55.32284 ], [ 26.84585, 55.30938 ], [ 26.85239, 55.28497 ], [ 26.74331, 55.25633 ], [ 26.72642, 55.2128 ], [ 26.6854199, 55.2039299 ], [ 26.69351, 55.16429 ], [ 26.6151, 55.14244 ], [ 26.49832, 55.15423 ], [ 26.46778, 55.12595 ], [ 26.37245, 55.15276 ], [ 26.32625, 55.14176 ], [ 26.26215, 55.10949 ], [ 26.27614, 55.09118 ], [ 26.21693, 54.99491 ], [ 26.10555, 54.96978 ], [ 26.07187, 54.93938 ], [ 26.0366, 54.93842 ], [ 25.99433, 54.95775 ], [ 25.8656881, 54.9226881 ], [ 25.85183, 54.89161 ], [ 25.75194, 54.8152 ], [ 25.74131, 54.77435 ], [ 25.75834, 54.72021 ], [ 25.74001, 54.69799 ], [ 25.74015, 54.65093 ], [ 25.76327, 54.59323 ], [ 25.74958, 54.56835 ], [ 25.68554, 54.53275 ], [ 25.6248597, 54.465149 ], [ 25.63721, 54.43675 ], [ 25.60842, 54.41182 ], [ 25.5904, 54.3727 ], [ 25.55713, 54.34686 ], [ 25.5938178, 54.3158608 ], [ 25.69103, 54.32048 ], [ 25.7274492, 54.2789109 ], [ 25.7625, 54.2704 ], [ 25.79471, 54.20438 ], [ 25.79186, 54.16851 ], [ 25.7414, 54.17017 ], [ 25.66293, 54.14045 ], [ 25.5406, 54.1584 ], [ 25.52197, 54.18284 ], [ 25.5752, 54.20518 ], [ 25.58462, 54.24962 ], [ 25.52688, 54.29502 ], [ 25.44799, 54.30046 ], [ 25.37235, 54.2757 ], [ 25.28773, 54.27419 ], [ 25.24015, 54.26416 ], [ 25.15797, 54.1884 ], [ 25.07556, 54.14107 ], [ 25.02015, 54.13765 ], [ 24.95201, 54.1626 ], [ 24.88495, 54.13766 ], [ 24.81944, 54.12286 ], [ 24.80323, 54.07793 ], [ 24.83522, 54.0436 ], [ 24.84285, 54.01414 ], [ 24.81435, 53.97827 ], [ 24.76473, 53.96052 ], [ 24.69046, 53.96186 ], [ 24.71723, 53.99368 ], [ 24.70623, 54.017 ], [ 24.63221, 54.00609 ], [ 24.5179, 53.95907 ], [ 24.43326, 53.90923 ], [ 24.3851, 53.9056 ], [ 24.24664, 53.91912 ], [ 24.18679, 53.94988 ], [ 24.1362686, 53.9613991 ], [ 24.09048, 53.9414 ], [ 23.99911, 53.93902 ], [ 23.93574, 53.96655 ], [ 23.90542, 53.94978 ], [ 23.84639, 53.95697 ], [ 23.80094, 53.93279 ], [ 23.78675, 53.90505 ], [ 23.74226, 53.9328 ], [ 23.68698, 53.93387 ], [ 23.6361, 53.91666 ], [ 23.50595, 53.96659 ], [ 23.49112, 53.9886 ], [ 23.51642, 54.03772 ], [ 23.51198, 54.09148 ], [ 23.48867, 54.15182 ], [ 23.44355, 54.16484 ], [ 23.38738, 54.21452 ], [ 23.35607, 54.23039 ], [ 23.25643, 54.24787 ], [ 23.21277, 54.28212 ], [ 23.14784, 54.3111 ], [ 23.09972, 54.29744 ], [ 23.04899, 54.31236 ], [ 23.0603283, 54.3430108 ], [ 23.01065, 54.3523 ], [ 22.99574, 54.38583 ], [ 22.90787, 54.39766 ], [ 22.85455, 54.42547 ], [ 22.79814, 54.40238 ], [ 22.81734, 54.38374 ], [ 22.78779, 54.36525 ], [ 22.77188, 54.37395 ], [ 22.74511, 54.42966 ], [ 22.70208, 54.46533 ], [ 22.68992, 54.53757 ], [ 22.7068498, 54.5703472 ], [ 22.68608, 54.58844 ], [ 22.7460687, 54.6330895 ], [ 22.75404, 54.65093 ], [ 22.72886, 54.69437 ], [ 22.73958, 54.72333 ], [ 22.77831, 54.74955 ], [ 22.84445, 54.76781 ], [ 22.8928, 54.81372 ], [ 22.87296, 54.85514 ], [ 22.84917, 54.86777 ], [ 22.85476, 54.90061 ], [ 22.79524, 54.91122 ], [ 22.73134, 54.96645 ], [ 22.67186, 54.9879 ], [ 22.61246, 55.02024 ], [ 22.58557, 55.07003 ], [ 22.54845, 55.06995 ], [ 22.46907, 55.04788 ], [ 22.41946, 55.05666 ], [ 22.27589, 55.06712 ], [ 22.14171, 55.05051 ], [ 22.12005, 55.02787 ], [ 22.07105, 55.02619 ], [ 22.03497, 55.04902 ], [ 22.0424896, 55.0786289 ], [ 22.00292, 55.08728 ], [ 21.95206, 55.07565 ], [ 21.84999, 55.09867 ], [ 21.82157, 55.12001 ], [ 21.74864, 55.12794 ], [ 21.65336, 55.18234 ], [ 21.55581, 55.20027 ], [ 21.50208, 55.19449 ], [ 21.44558, 55.23101 ], [ 21.41168, 55.27743 ], [ 21.35427, 55.28477 ], [ 21.2764877, 55.2457006 ], [ 21.2738419, 55.2799339 ], [ 21.3001938, 55.2998314 ], [ 21.2598324, 55.3372192 ], [ 21.256361, 55.3683548 ], [ 21.198101, 55.3451958 ], [ 21.2507992, 55.4204826 ], [ 21.2593956, 55.4607391 ], [ 21.2338905, 55.5180359 ], [ 21.2106495, 55.5283623 ], [ 21.2066021, 55.5640907 ], [ 21.1814442, 55.5909271 ], [ 21.1364441, 55.69347 ], [ 21.085041, 55.7308159 ], [ 21.0652714, 55.7967758 ], [ 21.0600319, 55.8676949 ], [ 21.0481987, 55.9110107 ], [ 21.0786934, 56.0 ], [ 21.0714283, 56.0634308 ], [ 21.12871, 56.08058 ], [ 21.19416, 56.07568 ], [ 21.24122, 56.12276 ], [ 21.23216, 56.15728 ], [ 21.2729, 56.16854 ], [ 21.32997, 56.21304 ], [ 21.45684, 56.25136 ], [ 21.48178, 56.28686 ], [ 21.52473, 56.2905 ], [ 21.60565, 56.32217 ], [ 21.69756, 56.31092 ], [ 21.80042, 56.34281 ], [ 21.85707, 56.36843 ], [ 21.88553, 56.36051 ], [ 21.97242, 56.37823 ], [ 22.0, 56.4148 ], [ 22.14404, 56.42598 ], [ 22.24483, 56.4051 ], [ 22.31792, 56.4103 ], [ 22.34244, 56.39404 ], [ 22.4024, 56.40711 ], [ 22.47484, 56.40561 ], [ 22.52752, 56.39201 ], [ 22.58311, 56.39071 ], [ 22.63762, 56.36519 ], [ 22.69831, 56.35782 ], [ 22.7356874, 56.373909 ], [ 22.84186, 56.36925 ], [ 22.91483, 56.37827 ], [ 22.95948, 56.41405 ], [ 23.01557, 56.39213 ], [ 23.03034, 56.32996 ], [ 23.10812, 56.30696 ], [ 23.17989, 56.34625 ], [ 23.17473, 56.36435 ], [ 23.30259, 56.38156 ], [ 23.36639, 56.38111 ], [ 23.43564, 56.35716 ], [ 23.53613, 56.33286 ], [ 23.64606, 56.36431 ], [ 23.77679, 56.3657 ], [ 23.76288, 56.33309 ], [ 23.82072, 56.34278 ], [ 23.8605, 56.33523 ], [ 24.01477, 56.33002 ], [ 24.09245, 56.27796 ], [ 24.1576, 56.25665 ], [ 24.20329, 56.26205 ], [ 24.30234, 56.29712 ], [ 24.329, 56.29852 ], [ 24.43884, 56.25858 ], [ 24.56139, 56.28303 ], [ 24.57932, 56.31475 ], [ 24.65291, 56.37094 ], [ 24.71829, 56.39435 ], [ 24.79345, 56.401 ], [ 24.8741, 56.41638 ], [ 24.9173, 56.40142 ], [ 24.9658, 56.3558 ], [ 24.97353, 56.30964 ], [ 25.01787, 56.29439 ], [ 25.06929, 56.25663 ], [ 25.07213, 56.22546 ], [ 25.09741, 56.18651 ], [ 25.17223, 56.17376 ], [ 25.23916, 56.18445 ], [ 25.30717, 56.14884 ], [ 25.44833, 56.15695 ], [ 25.50393, 56.14824 ], [ 25.55464, 56.16182 ], [ 25.5668, 56.14036 ], [ 25.64251, 56.13644 ], [ 25.67726, 56.14888 ], [ 25.70872, 56.08346 ], [ 25.82099, 56.053 ], [ 25.86075, 56.0 ], [ 25.9146595, 56.0 ], [ 26.02, 55.96892 ], [ 26.10616, 55.898 ], [ 26.20663, 55.8563 ], [ 26.22983, 55.83601 ], [ 26.25451, 55.78434 ], [ 26.27939, 55.75898 ], [ 26.34736, 55.74155 ], [ 26.3791799, 55.7039905 ], [ 26.4633, 55.69756 ], [ 26.53986, 55.66886 ], [ 26.61967, 55.67435 ] ] ], [ [ [ 20.9883728, 55.2722511 ], [ 20.9415134, 55.2779521 ], [ 20.9943886, 55.3349648 ], [ 21.042675, 55.3987122 ], [ 21.0910835, 55.5106621 ], [ 21.1060028, 55.6305962 ], [ 21.0954571, 55.7080154 ], [ 21.1349239, 55.6789818 ], [ 21.132122, 55.5560722 ], [ 21.1120129, 55.5020103 ], [ 21.1209068, 55.4865875 ], [ 21.0908585, 55.4390144 ], [ 21.1128006, 55.4212532 ], [ 21.0583649, 55.3642654 ], [ 21.0629063, 55.3313065 ], [ 21.0111275, 55.3135834 ], [ 20.9883728, 55.2722511 ] ] ] ] } }
]
}
