{
"type": "FeatureCollection",
"name": "LTU_GAUL2004_ADM1",
"crs": { "type": "name", "properties": { "name": "urn:ogc:def:crs:OGC:1.3:CRS84" } },
"features": [
{ "type": "Feature", "properties": { "POLYGON_ID": "LTU_GAUL2004_ADM1_1866", "ADM0_ISO3": "LTU", "ADM0_NAME": "Lithuania", "ADM0_CODE": 147, "ADM1_NAME": "Alytaus", "ADM1_CODE": 1866, "GEOSET": "GAUL", "GEOSET_YEAR": 2004.0, "GEOSET_VERSION": "GAUL_v1", "GEOSET_UNIT": "ADM1", "CENTROID_LONG": 24.123751344607101, "CENTROID_LAT": 54.220679973116852 }, "geometry": { "type": "MultiPolygon", "coordinates": [ [ [ [ 24.4199982, 54.5310974 ], [ 24.4231987, 54.4384995 ], [ 24.4958992, 54.419899 ], [ 24.6616993, 54.4422989 ], [ 24.7169991, 54.3861008 ], [ 24.8002987, 54.3931999 ], [ 24.9216003, 54.426899 ], [ 25.0056, 54.4388008 ], [ 24.9881992, 54.3857002 ], [ 24.9091988, 54.3596992 ], [ 24.9221001, 54.3033981 ], [ 24.780899, 54.2411995 ], [ 24.7581997, 54.2048988 ], [ 24.8050003, 54.1876984 ], [ 24.847596, 54.13499 ], [ 24.80323, 54.07793 ], [ 24.84285, 54.01414 ], [ 24.81435, 53.97827 ], [ 24.76473, 53.96052 ], [ 24.69046, 53.96186 ], [ 24.70623, 54.017 ], [ 24.63221, 54.00609 ], [ 24.5179, 53.95907 ], [ 24.43326, 53.90923 ], [ 24.3851, 53.9056 ], [ 24.24664, 53.91912 ], [ 24.1362686, 53.9613991 ], [ 24.09048, 53.9414 ], [ 23.99911, 53.93902 ], [ 23.93574, 53.96655 ], [ 23.84639, 53.95697 ], [ 23.80094, 53.93279 ], [ 23.68698, 53.93387 ], [ 23.6361, 53.91666 ], [ 23.50595, 53.96659 ], [ 23.49112, 53.9886 ], [ 23.51642, 54.03772 ], [ 23.48867, 54.15182 ], [ 23.44355, 54.16484 ], [ 23.38738, 54.21452 ], [ 23.3112503, 54.2397602 ], [ 23.3097992, 54.2993011 ], [ 23.3640995, 54.360199 ], [ 23.5172005, 54.4161987 ], [ 23.5414009, 54.4673004 ], [ 23.6147003, 54.5107002 ], [ 23.6594009, 54.5140991 ], [ 23.6826992, 54.4736977 ], [ 23.7586994, 54.4606018 ], [ 23.7954998, 54.4736977 ], [ 23.9094009, 54.4692001 ], [ 23.9895992, 54.4874992 ], [ 24.0210991, 54.5442009 ], [ 24.0694981, 54.5533981 ], [ 24.1134987, 54.5271988 ], [ 24.2597981, 54.5607986 ], [ 24.3218994, 54.5201988 ], [ 24.4199982, 54.5310974 ] ] ] ] } },
{ "type": "Feature", "properties": { "POLYGON_ID": "LTU_GAUL2004_ADM1_1867", "ADM0_ISO3": "LTU", "ADM0_NAME": "Lithuania", "ADM0_CODE": 147, "ADM1_NAME": "Kauno", "ADM1_CODE": 1867, "GEOSET": "GAUL", "GEOSET_YEAR": 2004.0, "GEOSET_VERSION": "GAUL_v1", "GEOSET_UNIT": "ADM1", "CENTROID_LONG": 23.893956833935253, "CENTROID_LAT": 55.071172098499318 }, "geometry": { "type": "MultiPolygon", "coordinates": [ [ [ [ 23.9141998, 55.5569 ], [ 23.9344997, 55.513298 ], [ 23.9827995, 55.5123978 ], [ 24.0410995, 55.478199 ], [ 24.0554008, 55.4482994 ], [ 24.2574997, 55.4511986 ], [ 24.4024982, 55.4314995 ], [ 24.4492989, 55.3987999 ], [ 24.408699, 55.351799 ], [ 24.3941002, 55.2933998 ], [ 24.4312992, 55.2723999 ], [ 24.4194984, 55.2294998 ], [ 24.5072994, 55.2150993 ], [ 24.4888992, 55.1829987 ], [ 24.6011009, 55.0698013 ], [ 24.6296997, 55.0652008 ], [ 24.5636997, 54.9897003 ], [ 24.7782993, 54.912899 ], [ 24.8099003, 54.8840981 ], [ 24.7637997, 54.8633003 ], [ 24.7677002, 54.8269997 ], [ 24.6541996, 54.7981987 ], [ 24.6308002, 54.6936989 ], [ 24.4698009, 54.6886978 ], [ 24.483099, 54.6042976 ], [ 24.4333, 54.5918999 ], [ 24.4199982, 54.5310974 ], [ 24.3218994, 54.5201988 ], [ 24.2597981, 54.5607986 ], [ 24.1134987, 54.5271988 ], [ 24.0694981, 54.5533981 ], [ 24.0210991, 54.5442009 ], [ 23.9895992, 54.4874992 ], [ 23.9094009, 54.4692001 ], [ 23.7954998, 54.4736977 ], [ 23.7586994, 54.4606018 ], [ 23.7728004, 54.5193977 ], [ 23.7357006, 54.5516014 ], [ 23.6806984, 54.5562973 ], [ 23.6268997, 54.6137009 ], [ 23.6935997, 54.6571007 ], [ 23.6419983, 54.7129974 ], [ 23.6422005, 54.7470016 ], [ 23.6019993, 54.8424988 ], [ 23.6176987, 54.8595009 ], [ 23.5512009, 54.8936005 ], [ 23.4924984, 54.882 ], [ 23.4723988, 54.9314995 ], [ 23.4249992, 54.9473991 ], [ 23.5834999, 55.0317001 ], [ 23.4911995, 55.0461998 ], [ 23.4204998, 55.0719986 ], [ 23.4776993, 55.1227989 ], [ 23.5011997, 55.203598 ], [ 23.4410992, 55.2184982 ], [ 23.3701992, 55.2154999 ], [ 23.3511009, 55.2434006 ], [ 23.2872982, 55.2317009 ], [ 23.1820984, 55.2374992 ], [ 23.1867008, 55.2643013 ], [ 23.0541992, 55.2546005 ], [ 22.8642998, 55.3171997 ], [ 22.8164997, 55.3197975 ], [ 22.7981987, 55.3737984 ], [ 22.7238998, 55.3830986 ], [ 22.6860008, 55.4154015 ], [ 22.6756992, 55.4803009 ], [ 22.8441982, 55.5063019 ], [ 22.8404999, 55.4654999 ], [ 22.9867992, 55.4836998 ], [ 23.0740986, 55.5079994 ], [ 23.0967999, 55.5627975 ], [ 23.2124996, 55.5618973 ], [ 23.2586994, 55.5249977 ], [ 23.3507004, 55.5445976 ], [ 23.4556999, 55.4898987 ], [ 23.4729004, 55.5172997 ], [ 23.5333004, 55.5245018 ], [ 23.5946999, 55.469799 ], [ 23.9141998, 55.5569 ] ] ] ] } },
{ "type": "Feature", "properties": { "POLYGON_ID": "LTU_GAUL2004_ADM1_1868", "ADM0_ISO3": "LTU", "ADM0_NAME": "Lithuania", "ADM0_CODE": 147, "ADM1_NAME": "Klaipedos", "ADM1_CODE": 1868, "GEOSET": "GAUL", "GEOSET_YEAR": 2004.0, "GEOSET_VERSION": "GAUL_v1", "GEOSET_UNIT": "ADM1", "CENTROID_LONG": 21.553025494450317, "CENTROID_LAT": 55.695340973129667 }, "geometry": { "type": "MultiPolygon", "coordinates": [ [ [ [ 21.8801994, 55.597599 ], [ 21.8297005, 55.5256996 ], [ 21.8712997, 55.4869003 ], [ 21.8653984, 55.4272003 ], [ 21.9146004, 55.4380989 ], [ 22.0047989, 55.4180985 ], [ 21.9988995, 55.3546982 ], [ 21.9452, 55.3302994 ], [ 21.8848991, 55.2770996 ], [ 22.0251999, 55.2345009 ], [ 22.0584984, 55.1678009 ], [ 22.0895996, 55.1469994 ], [ 22.2887993, 55.1559982 ], [ 22.2684002, 55.1218987 ], [ 22.2830566, 55.0670838 ], [ 22.14171, 55.05051 ], [ 22.07105, 55.02619 ], [ 22.0424896, 55.0786289 ], [ 21.95206, 55.07565 ], [ 21.84999, 55.09867 ], [ 21.82157, 55.12001 ], [ 21.74864, 55.12794 ], [ 21.65336, 55.18234 ], [ 21.55581, 55.20027 ], [ 21.50208, 55.19449 ], [ 21.44558, 55.23101 ], [ 21.41168, 55.27743 ], [ 21.35427, 55.28477 ], [ 21.2764877, 55.2457006 ], [ 21.3001938, 55.2998314 ], [ 21.2598324, 55.3372192 ], [ 21.198101, 55.3451958 ], [ 21.2507992, 55.4204826 ], [ 21.2593956, 55.4607391 ], [ 21.2066021, 55.5640907 ], [ 21.1814442, 55.5909271 ], [ 21.1364441, 55.69347 ], [ 21.085041, 55.7308159 ], [ 21.0481987, 55.9110107 ], [ 21.0786934, 56.0 ], [ 21.0714283, 56.0634308 ], [ 21.12871, 56.08058 ], [ 21.19416, 56.07568 ], [ 21.2729, 56.16854 ], [ 21.32997, 56.21304 ], [ 21.45684, 56.25136 ], [ 21.48178, 56.28686 ], [ 21.60565, 56.32217 ], [ 21.69756, 56.31092 ], [ 21.85707, 56.36843 ], [ 21.9796748, 56.3822692 ], [ 21.9387989, 56.3208008 ], [ 22.0160007, 56.2284012 ], [ 21.9664993, 56.1944008 ], [ 21.9195995, 56.1259003 ], [ 21.8495007, 56.1320992 ], [ 21.8059998, 56.0881004 ], [ 21.7384987, 56.1106987 ], [ 21.6381989, 56.010601 ], [ 21.5925999, 56.0014 ], [ 21.5788994, 55.9451981 ], [ 21.615099, 55.8986015 ], [ 21.5237007, 55.8068008 ], [ 21.605299, 55.8117981 ], [ 21.6277981, 55.7751999 ], [ 21.6933994, 55.7550011 ], [ 21.7497997, 55.7565994 ], [ 21.7824001, 55.6431007 ], [ 21.8801994, 55.597599 ] ] ], [ [ [ 20.9883728, 55.2722511 ], [ 20.9415134, 55.2779521 ], [ 21.042675, 55.3987122 ], [ 21.0910835, 55.5106621 ], [ 21.1209068, 55.4865875 ], [ 21.0908585, 55.4390144 ], [ 21.1128006, 55.4212532 ], [ 21.0583649, 55.3642654 ], [ 21.0629063, 55.3313065 ], [ 21.0111275, 55.3135834 ], [ 20.9883728, 55.2722511 ] ] ] ] } },
{ "type": "Feature", "properties": { "POLYGON_ID": "LTU_GAUL2004_ADM1_1869", "ADM0_ISO3": "LTU", "ADM0_NAME": "Lithuania", "ADM0_CODE": 147, "ADM1_NAME": "Marijampoles", "ADM1_CODE": 1869, "GEOSET": "GAUL", "GEOSET_YEAR": 2004.0, "GEOSET_VERSION": "GAUL_v1", "GEOSET_UNIT": "ADM1", "CENTROID_LONG": 23.174324314606466, "CENTROID_LAT": 54.703592178327717 }, "geometry": { "type": "MultiPolygon", "coordinates": [ [ [ [ 23.4204998, 55.0719986 ], [ 23.4911995, 55.0461998 ], [ 23.5834999, 55.0317001 ], [ 23.4249992, 54.9473991 ], [ 23.4723988, 54.9314995 ], [ 23.4924984, 54.882 ], [ 23.5512009, 54.8936005 ], [ 23.6176987, 54.8595009 ], [ 23.6019993, 54.8424988 ], [ 23.6422005, 54.7470016 ], [ 23.6419983, 54.7129974 ], [ 23.6935997, 54.6571007 ], [ 23.6268997, 54.6137009 ], [ 23.6806984, 54.5562973 ], [ 23.7357006, 54.5516014 ], [ 23.7728004, 54.5193977 ], [ 23.7586994, 54.4606018 ], [ 23.6826992, 54.4736977 ], [ 23.6594009, 54.5140991 ], [ 23.6147003, 54.5107002 ], [ 23.5414009, 54.4673004 ], [ 23.5172005, 54.4161987 ], [ 23.3640995, 54.360199 ], [ 23.3097992, 54.2993011 ], [ 23.3112503, 54.2397602 ], [ 23.24045, 54.25448 ], [ 23.14784, 54.3111 ], [ 23.09972, 54.29744 ], [ 23.04899, 54.31236 ], [ 22.99574, 54.38583 ], [ 22.90787, 54.39766 ], [ 22.85455, 54.42547 ], [ 22.79814, 54.40238 ], [ 22.7877863, 54.365252 ], [ 22.74511, 54.42966 ], [ 22.70208, 54.46533 ], [ 22.68608, 54.58844 ], [ 22.75404, 54.65093 ], [ 22.72886, 54.69437 ], [ 22.77831, 54.74955 ], [ 22.84445, 54.76781 ], [ 22.8928, 54.81372 ], [ 22.84917, 54.86777 ], [ 22.85476, 54.90061 ], [ 22.79524, 54.91122 ], [ 22.73134, 54.96645 ], [ 22.61246, 55.02024 ], [ 22.5864476, 55.068405 ], [ 22.6588993, 55.0468979 ], [ 22.865799, 55.089901 ], [ 22.9407997, 55.0828972 ], [ 23.043499, 55.1041985 ], [ 23.3305988, 55.0666008 ], [ 23.4204998, 55.0719986 ] ] ] ] } },
{ "type": "Feature", "properties": { "POLYGON_ID": "LTU_GAUL2004_ADM1_1870", "ADM0_ISO3": "LTU", "ADM0_NAME": "Lithuania", "ADM0_CODE": 147, "ADM1_NAME": "Panevezio", "ADM1_CODE": 1870, "GEOSET": "GAUL", "GEOSET_YEAR": 2004.0, "GEOSET_VERSION": "GAUL_v1", "GEOSET_UNIT": "ADM1", "CENTROID_LONG": 24.810295550605797, "CENTROID_LAT": 55.91697257248854 }, "geometry": { "type": "MultiPolygon", "coordinates": [ [ [ [ 25.3747997, 56.1562866 ], [ 25.64251, 56.13644 ], [ 25.67726, 56.14888 ], [ 25.70872, 56.08346 ], [ 25.8210778, 56.0529126 ], [ 25.86075, 56.0 ], [ 25.9146595, 56.0 ], [ 26.02, 55.96892 ], [ 26.0567518, 55.9389332 ], [ 25.9769993, 55.9179993 ], [ 25.9719982, 55.8621979 ], [ 25.9097996, 55.8577995 ], [ 25.9116001, 55.8234978 ], [ 25.8379993, 55.8342972 ], [ 25.8212986, 55.769001 ], [ 25.7432003, 55.7495995 ], [ 25.6939983, 55.7122993 ], [ 25.6037998, 55.7430992 ], [ 25.5356998, 55.7168007 ], [ 25.3612995, 55.7577019 ], [ 25.3028984, 55.7114983 ], [ 25.2558994, 55.717598 ], [ 25.0949993, 55.6837006 ], [ 25.0727997, 55.7184982 ], [ 24.9631996, 55.7361984 ], [ 24.9197006, 55.7198982 ], [ 24.8085003, 55.7260017 ], [ 24.7348995, 55.7168007 ], [ 24.7165985, 55.6879005 ], [ 24.6497002, 55.6597977 ], [ 24.719101, 55.6296005 ], [ 24.6709995, 55.589901 ], [ 24.6597004, 55.5224991 ], [ 24.6583996, 55.4641991 ], [ 24.5552998, 55.4572983 ], [ 24.5391998, 55.4230003 ], [ 24.4492989, 55.3987999 ], [ 24.4024982, 55.4314995 ], [ 24.2574997, 55.4511986 ], [ 24.0554008, 55.4482994 ], [ 24.0410995, 55.478199 ], [ 23.9827995, 55.5123978 ], [ 23.9344997, 55.513298 ], [ 23.9141998, 55.5569 ], [ 23.9319992, 55.6206017 ], [ 24.0417995, 55.6222 ], [ 24.0302982, 55.6674995 ], [ 24.0498009, 55.7375984 ], [ 24.0323009, 55.7807999 ], [ 23.9832001, 55.7834015 ], [ 23.970499, 55.8400002 ], [ 24.0895996, 55.8828011 ], [ 24.1090984, 55.9177017 ], [ 24.0401001, 55.9528999 ], [ 24.0261002, 56.0066986 ], [ 24.0788002, 56.0642014 ], [ 24.1103992, 56.0709 ], [ 24.1415997, 56.1312981 ], [ 24.1921005, 56.1613007 ], [ 24.1448002, 56.2019997 ], [ 24.1598023, 56.2567192 ], [ 24.329, 56.29852 ], [ 24.43884, 56.25858 ], [ 24.56139, 56.28303 ], [ 24.57932, 56.31475 ], [ 24.65291, 56.37094 ], [ 24.7127984, 56.3847049 ], [ 24.8741, 56.41638 ], [ 24.9658, 56.3558 ], [ 24.97353, 56.30964 ], [ 25.06929, 56.25663 ], [ 25.09741, 56.18651 ], [ 25.17223, 56.17376 ], [ 25.23916, 56.18445 ], [ 25.30717, 56.14884 ], [ 25.3747997, 56.1562866 ] ] ] ] } },
{ "type": "Feature", "properties": { "POLYGON_ID": "LTU_GAUL2004_ADM1_1871", "ADM0_ISO3": "LTU", "ADM0_NAME": "Lithuania", "ADM0_CODE": 147, "ADM1_NAME": "Siauliu", "ADM1_CODE": 1871, "GEOSET": "GAUL", "GEOSET_YEAR": 2004.0, "GEOSET_VERSION": "GAUL_v1", "GEOSET_UNIT": "ADM1", "CENTROID_LONG": 23.290482584945195, "CENTROID_LAT": 55.944017736788879 }, "geometry": { "type": "MultiPolygon", "coordinates": [ [ [ [ 23.4223024, 56.3688175 ], [ 23.53613, 56.33286 ], [ 23.64606, 56.36431 ], [ 23.77679, 56.3657 ], [ 23.871181, 56.3358837 ], [ 24.01477, 56.33002 ], [ 24.09245, 56.27796 ], [ 24.1598023, 56.2567192 ], [ 24.1448002, 56.2019997 ], [ 24.1921005, 56.1613007 ], [ 24.1415997, 56.1312981 ], [ 24.1103992, 56.0709 ], [ 24.0788002, 56.0642014 ], [ 24.0261002, 56.0066986 ], [ 24.0401001, 55.9528999 ], [ 24.1090984, 55.9177017 ], [ 24.0895996, 55.8828011 ], [ 23.970499, 55.8400002 ], [ 23.9832001, 55.7834015 ], [ 24.0323009, 55.7807999 ], [ 24.0498009, 55.7375984 ], [ 24.0302982, 55.6674995 ], [ 24.0417995, 55.6222 ], [ 23.9319992, 55.6206017 ], [ 23.9141998, 55.5569 ], [ 23.5946999, 55.469799 ], [ 23.5333004, 55.5245018 ], [ 23.4729004, 55.5172997 ], [ 23.4556999, 55.4898987 ], [ 23.3507004, 55.5445976 ], [ 23.2586994, 55.5249977 ], [ 23.2124996, 55.5618973 ], [ 23.0967999, 55.5627975 ], [ 23.0740986, 55.5079994 ], [ 22.9867992, 55.4836998 ], [ 22.8404999, 55.4654999 ], [ 22.8441982, 55.5063019 ], [ 22.6756992, 55.4803009 ], [ 22.6385994, 55.4936981 ], [ 22.5233994, 55.5849991 ], [ 22.4790001, 55.6320992 ], [ 22.4689999, 55.6694984 ], [ 22.5261002, 55.6860008 ], [ 22.4895992, 55.7910995 ], [ 22.5716, 55.8082008 ], [ 22.5672989, 55.8659973 ], [ 22.6343002, 55.8606987 ], [ 22.6732998, 55.8956985 ], [ 22.6557999, 55.9364014 ], [ 22.5914993, 55.9729004 ], [ 22.6210995, 56.037899 ], [ 22.7055988, 56.0427017 ], [ 22.7472, 56.0633011 ], [ 22.6906986, 56.1123009 ], [ 22.6138992, 56.0830002 ], [ 22.5688992, 56.1008987 ], [ 22.5086002, 56.0861015 ], [ 22.4321003, 56.0932007 ], [ 22.4403, 56.1340981 ], [ 22.3995991, 56.1495972 ], [ 22.4403, 56.2313004 ], [ 22.4993992, 56.2344017 ], [ 22.4857998, 56.3050003 ], [ 22.5900002, 56.3045006 ], [ 22.6352021, 56.370622 ], [ 22.69831, 56.35782 ], [ 22.7356874, 56.373909 ], [ 22.84186, 56.36925 ], [ 22.9293237, 56.3947815 ], [ 23.01557, 56.39213 ], [ 23.03034, 56.32996 ], [ 23.10812, 56.30696 ], [ 23.17989, 56.34625 ], [ 23.17473, 56.36435 ], [ 23.30259, 56.38156 ], [ 23.4223024, 56.3688175 ] ] ] ] } },
{ "type": "Feature", "properties": { "POLYGON_ID": "LTU_GAUL2004_ADM1_1872", "ADM0_ISO3": "LTU", "ADM0_NAME": "Lithuania", "ADM0_CODE": 147, "ADM1_NAME": "Taurages", "ADM1_CODE": 1872, "GEOSET": "GAUL", "GEOSET_YEAR": 2004.0, "GEOSET_VERSION": "GAUL_v1", "GEOSET_UNIT": "ADM1", "CENTROID_LONG": 22.513025326747538, "CENTROID_LAT": 55.320709139515969 }, "geometry": { "type": "MultiPolygon", "coordinates": [ [ [ [ 22.4689999, 55.6694984 ], [ 22.4790001, 55.6320992 ], [ 22.5233994, 55.5849991 ], [ 22.6385994, 55.4936981 ], [ 22.6756992, 55.4803009 ], [ 22.6860008, 55.4154015 ], [ 22.7238998, 55.3830986 ], [ 22.7981987, 55.3737984 ], [ 22.8164997, 55.3197975 ], [ 22.8642998, 55.3171997 ], [ 23.0541992, 55.2546005 ], [ 23.1867008, 55.2643013 ], [ 23.1820984, 55.2374992 ], [ 23.2872982, 55.2317009 ], [ 23.3511009, 55.2434006 ], [ 23.3701992, 55.2154999 ], [ 23.4410992, 55.2184982 ], [ 23.5011997, 55.203598 ], [ 23.4776993, 55.1227989 ], [ 23.4204998, 55.0719986 ], [ 23.3305988, 55.0666008 ], [ 23.043499, 55.1041985 ], [ 22.9407997, 55.0828972 ], [ 22.865799, 55.089901 ], [ 22.6588993, 55.0468979 ], [ 22.5864476, 55.068405 ], [ 22.46907, 55.04788 ], [ 22.2830566, 55.0670838 ], [ 22.2684002, 55.1218987 ], [ 22.2887993, 55.1559982 ], [ 22.0895996, 55.1469994 ], [ 22.0584984, 55.1678009 ], [ 22.0251999, 55.2345009 ], [ 21.8848991, 55.2770996 ], [ 21.9452, 55.3302994 ], [ 21.9988995, 55.3546982 ], [ 22.0047989, 55.4180985 ], [ 21.9146004, 55.4380989 ], [ 21.8653984, 55.4272003 ], [ 21.8712997, 55.4869003 ], [ 21.8297005, 55.5256996 ], [ 21.8801994, 55.597599 ], [ 22.0464001, 55.618 ], [ 22.0633984, 55.6585007 ], [ 22.1445999, 55.6791992 ], [ 22.2416992, 55.6882019 ], [ 22.2894993, 55.6649017 ], [ 22.4689999, 55.6694984 ] ] ] ] } },
{ "type": "Feature", "properties": { "POLYGON_ID": "LTU_GAUL2004_ADM1_1873", "ADM0_ISO3": "LTU", "ADM0_NAME": "Lithuania", "ADM0_CODE": 147, "ADM1_NAME": "Telsiu", "ADM1_CODE": 1873, "GEOSET": "GAUL", "GEOSET_YEAR": 2004.0, "GEOSET_VERSION": "GAUL_v1", "GEOSET_UNIT": "ADM1", "CENTROID_LONG": 22.145744290587807, "CENTROID_LAT": 55.993929899509929 }, "geometry": { "type": "MultiPolygon", "coordinates": [ [ [ [ 22.6352021, 56.370622 ], [ 22.5900002, 56.3045006 ], [ 22.4857998, 56.3050003 ], [ 22.4993992, 56.2344017 ], [ 22.4403, 56.2313004 ], [ 22.3995991, 56.1495972 ], [ 22.4403, 56.1340981 ], [ 22.4321003, 56.0932007 ], [ 22.5086002, 56.0861015 ], [ 22.5688992, 56.1008987 ], [ 22.6138992, 56.0830002 ], [ 22.6906986, 56.1123009 ], [ 22.7472, 56.0633011 ], [ 22.7055988, 56.0427017 ], [ 22.6210995, 56.037899 ], [ 22.5914993, 55.9729004 ], [ 22.6557999, 55.9364014 ], [ 22.6732998, 55.8956985 ], [ 22.6343002, 55.8606987 ], [ 22.5672989, 55.8659973 ], [ 22.5716, 55.8082008 ], [ 22.4895992, 55.7910995 ], [ 22.5261002, 55.6860008 ], [ 22.4689999, 55.6694984 ], [ 22.2894993, 55.6649017 ], [ 22.2416992, 55.6882019 ], [ 22.1445999, 55.6791992 ], [ 22.0633984, 55.6585007 ], [ 22.0464001, 55.618 ], [ 21.8801994, 55.597599 ], [ 21.7824001, 55.6431007 ], [ 21.7497997, 55.7565994 ], [ 21.6933994, 55.7550011 ], [ 21.6277981, 55.7751999 ], [ 21.605299, 55.8117981 ], [ 21.5237007, 55.8068008 ], [ 21.615099, 55.8986015 ], [ 21.5788994, 55.9451981 ], [ 21.5925999, 56.0014 ], [ 21.6381989, 56.010601 ], [ 21.7384987, 56.1106987 ], [ 21.8059998, 56.0881004 ], [ 21.8495007, 56.1320992 ], [ 21.9195995, 56.1259003 ], [ 21.9664993, 56.1944008 ], [ 22.0160007, 56.2284012 ], [ 21.9387989, 56.3208008 ], [ 21.9796748, 56.3822692 ], [ 21.9804517, 56.3828925 ], [ 22.0, 56.4148 ], [ 22.14404, 56.42598 ], [ 22.24483, 56.4051 ], [ 22.4024, 56.40711 ], [ 22.58311, 56.39071 ], [ 22.6352021, 56.370622 ] ] ] ] } },
{ "type": "Feature", "properties": { "POLYGON_ID": "LTU_GAUL2004_ADM1_1874", "ADM0_ISO3": "LTU", "ADM0_NAME": "Lithuania", "ADM0_CODE": 147, "ADM1_NAME": "Utenos", "ADM1_CODE": 1874, "GEOSET": "GAUL", "GEOSET_YEAR": 2004.0, "GEOSET_VERSION": "GAUL_v1", "GEOSET_UNIT": "ADM1", "CENTROID_LONG": 25.697151913034347, "CENTROID_LAT": 55.476677971972805 }, "geometry": { "type": "MultiPolygon", "coordinates": [ [ [ [ 26.61967, 55.67435 ], [ 26.6283988, 55.5807688 ], [ 26.57388, 55.53441 ], [ 26.51646, 55.52355 ], [ 26.54989, 55.48989 ], [ 26.55895, 55.3904 ], [ 26.45492, 55.34525 ], [ 26.59343, 55.32323 ], [ 26.66505, 55.34513 ], [ 26.72875, 55.32544 ], [ 26.81057, 55.32284 ], [ 26.85239, 55.28497 ], [ 26.743016, 55.2558677 ], [ 26.6317997, 55.2519989 ], [ 26.6012993, 55.2224998 ], [ 26.4508991, 55.209301 ], [ 26.3355007, 55.2164001 ], [ 26.1826992, 55.2551994 ], [ 26.1203995, 55.2915001 ], [ 25.9309006, 55.278801 ], [ 25.8652, 55.294899 ], [ 25.8260994, 55.2705002 ], [ 25.7721996, 55.3086014 ], [ 25.7143993, 55.2837982 ], [ 25.6547985, 55.2041016 ], [ 25.7047997, 55.1483994 ], [ 25.7898998, 55.1199989 ], [ 25.7283993, 55.035099 ], [ 25.6583996, 55.0582008 ], [ 25.5368996, 55.0541992 ], [ 25.4573994, 55.0278015 ], [ 25.4023991, 55.0395012 ], [ 25.3272991, 55.0303993 ], [ 25.1485996, 55.0966988 ], [ 25.1669006, 55.1525002 ], [ 25.2219982, 55.1637001 ], [ 25.1804981, 55.2058983 ], [ 25.1889, 55.2615013 ], [ 25.0942993, 55.2668991 ], [ 25.0644989, 55.3126984 ], [ 24.9869003, 55.3061981 ], [ 24.9554005, 55.3625984 ], [ 24.8208981, 55.3609009 ], [ 24.7863998, 55.3722 ], [ 24.7903996, 55.4283981 ], [ 24.7488003, 55.4888 ], [ 24.6704006, 55.4985008 ], [ 24.6597004, 55.5224991 ], [ 24.6709995, 55.589901 ], [ 24.719101, 55.6296005 ], [ 24.6497002, 55.6597977 ], [ 24.7165985, 55.6879005 ], [ 24.7348995, 55.7168007 ], [ 24.8085003, 55.7260017 ], [ 24.9197006, 55.7198982 ], [ 24.9631996, 55.7361984 ], [ 25.0727997, 55.7184982 ], [ 25.0949993, 55.6837006 ], [ 25.2558994, 55.717598 ], [ 25.3028984, 55.7114983 ], [ 25.3612995, 55.7577019 ], [ 25.5356998, 55.7168007 ], [ 25.6037998, 55.7430992 ], [ 25.6939983, 55.7122993 ], [ 25.7432003, 55.7495995 ], [ 25.8212986, 55.769001 ], [ 25.8379993, 55.8342972 ], [ 25.9116001, 55.8234978 ], [ 25.9097996, 55.8577995 ], [ 25.9719982, 55.8621979 ], [ 25.9769993, 55.9179993 ], [ 26.0567518, 55.9389332 ], [ 26.10616, 55.898 ], [ 26.20663, 55.8563 ], [ 26.27939, 55.75898 ], [ 26.34736, 55.74155 ], [ 26.3791799, 55.7039905 ], [ 26.4633, 55.69756 ], [ 26.53986, 55.66886 ], [ 26.61967, 55.67435 ] ] ] ] } },
{ "type": "Feature", "properties": { "POLYGON_ID": "LTU_GAUL2004_ADM1_1875", "ADM0_ISO3": "LTU", "ADM0_NAME": "Lithuania", "ADM0_CODE": 147, "ADM1_NAME": "Vilniaus", "ADM1_CODE": 1875, "GEOSET": "GAUL", "GEOSET_YEAR": 2004.0, "GEOSET_VERSION": "GAUL_v1", "GEOSET_UNIT": "ADM1", "CENTROID_LONG": 25.244215233720364, "CENTROID_LAT": 54.821704515118846 }, "geometry": { "type": "MultiPolygon", "coordinates": [ [ [ [ 26.743016, 55.2558677 ], [ 26.72642, 55.2128 ], [ 26.6854199, 55.2039299 ], [ 26.69351, 55.16429 ], [ 26.6151, 55.14244 ], [ 26.49832, 55.15423 ], [ 26.46778, 55.12595 ], [ 26.37245, 55.15276 ], [ 26.26215, 55.10949 ], [ 26.27614, 55.09118 ], [ 26.21693, 54.99491 ], [ 26.1521599, 54.9791626 ], [ 26.07187, 54.93938 ], [ 25.99433, 54.95775 ], [ 25.8656881, 54.9226881 ], [ 25.85183, 54.89161 ], [ 25.75194, 54.8152 ], [ 25.74131, 54.77435 ], [ 25.75834, 54.72021 ], [ 25.74015, 54.65093 ], [ 25.76327, 54.59323 ], [ 25.68554, 54.53275 ], [ 25.6248597, 54.465149 ], [ 25.63721, 54.43675 ], [ 25.55713, 54.34686 ], [ 25.5938178, 54.3158608 ], [ 25.69103, 54.32048 ], [ 25.7625, 54.2704 ], [ 25.79471, 54.20438 ], [ 25.66293, 54.14045 ], [ 25.5406, 54.1584 ], [ 25.52197, 54.18284 ], [ 25.5752, 54.20518 ], [ 25.58462, 54.24962 ], [ 25.52688, 54.29502 ], [ 25.44799, 54.30046 ], [ 25.37235, 54.2757 ], [ 25.24015, 54.26416 ], [ 25.15797, 54.1884 ], [ 25.07556, 54.14107 ], [ 25.02015, 54.13765 ], [ 24.95201, 54.1626 ], [ 24.847596, 54.13499 ], [ 24.8050003, 54.1876984 ], [ 24.7581997, 54.2048988 ], [ 24.780899, 54.2411995 ], [ 24.9221001, 54.3033981 ], [ 24.9091988, 54.3596992 ], [ 24.9881992, 54.3857002 ], [ 25.0056, 54.4388008 ], [ 24.9216003, 54.426899 ], [ 24.8002987, 54.3931999 ], [ 24.7169991, 54.3861008 ], [ 24.6616993, 54.4422989 ], [ 24.4958992, 54.419899 ], [ 24.4231987, 54.4384995 ], [ 24.4199982, 54.5310974 ], [ 24.4333, 54.5918999 ], [ 24.483099, 54.6042976 ], [ 24.4698009, 54.6886978 ], [ 24.6308002, 54.6936989 ], [ 24.6541996, 54.7981987 ], [ 24.7677002, 54.8269997 ], [ 24.7637997, 54.8633003 ], [ 24.8099003, 54.8840981 ], [ 24.7782993, 54.912899 ], [ 24.5636997, 54.9897003 ], [ 24.6296997, 55.0652008 ], [ 24.6011009, 55.0698013 ], [ 24.4888992, 55.1829987 ], [ 24.5072994, 55.2150993 ], [ 24.4194984, 55.2294998 ], [ 24.4312992, 55.2723999 ], [ 24.3941002, 55.2933998 ], [ 24.408699, 55.351799 ], [ 24.4492989, 55.3987999 ], [ 24.5391998, 55.4230003 ], [ 24.5552998, 55.4572983 ], [ 24.6583996, 55.4641991 ], [ 24.6597004, 55.5224991 ], [ 24.6704006, 55.4985008 ], [ 24.7488003, 55.4888 ], [ 24.7903996, 55.4283981 ], [ 24.7863998, 55.3722 ], [ 24.8208981, 55.3609009 ], [ 24.9554005, 55.3625984 ], [ 24.9869003, 55.3061981 ], [ 25.0644989, 55.3126984 ], [ 25.0942993, 55.2668991 ], [ 25.1889, 55.2615013 ], [ 25.1804981, 55.2058983 ], [ 25.2219982, 55.1637001 ], [ 25.1669006, 55.1525002 ], [ 25.1485996, 55.0966988 ], [ 25.3272991, 55.0303993 ], [ 25.4023991, 55.0395012 ], [ 25.4573994, 55.0278015 ], [ 25.5368996, 55.0541992 ], [ 25.6583996, 55.0582008 ], [ 25.7283993, 55.035099 ], [ 25.7898998, 55.1199989 ], [ 25.7047997, 55.1483994 ], [ 25.6547985, 55.2041016 ], [ 25.7143993, 55.2837982 ], [ 25.7721996, 55.3086014 ], [ 25.8260994, 55.2705002 ], [ 25.8652, 55.294899 ], [ 25.9309006, 55.278801 ], [ 26.1203995, 55.2915001 ], [ 26.1826992, 55.2551994 ], [ 26.3355007, 55.2164001 ], [ 26.4508991, 55.209301 ], [ 26.6012993, 55.2224998 ], [ 26.6317997, 55.2519989 ], [ 26.743016, 55.2558677 ] ] ] ] } }
]
}
