{
"type": "FeatureCollection",
"name": "LUX_GAUL2008_ADM0",
"crs": { "type": "name", "properties": { "name": "urn:ogc:def:crs:OGC:1.3:CRS84" } },
"features": [
{ "type": "Feature", "properties": { "POLYGON_ID": "LUX_GAUL2008_ADM0_148", "ADM0_ISO3": "LUX", "ADM0_NAME": "Luxembourg", "ADM0_CODE": 148, "GEOSET": "GAUL", "GEOSET_YEAR": 2008.0, "GEOSET_VERSION": "GAUL_v1", "GEOSET_UNIT": "ADM0", "CENTROID_LONG": 6.0951818029714886, "CENTROID_LAT": 49.778534404305027 }, "geometry": { "type": "MultiPolygon", "coordinates": [ [ [ [ 6.13802, 50.1329 ], [ 6.11875, 50.09415 ], [ 6.11889, 50.06328 ], [ 6.1485288, 50.0257591 ], [ 6.14233, 50.0 ], [ 6.17248, 49.98727 ], [ 6.18067, 49.95966 ], [ 6.21757, 49.9521 ], [ 6.23049, 49.9124 ], [ 6.26301, 49.88377 ], [ 6.31436, 49.87213 ], [ 6.32246, 49.84338 ], [ 6.3672, 49.85112 ], [ 6.40846, 49.81906 ], [ 6.51856, 49.81189 ], [ 6.50708, 49.79082 ], [ 6.52102, 49.76458 ], [ 6.5153, 49.728 ], [ 6.42753, 49.66325 ], [ 6.44447, 49.65554 ], [ 6.42584, 49.618 ], [ 6.36452, 49.57067 ], [ 6.38537, 49.5559 ], [ 6.36326, 49.52404 ], [ 6.37459, 49.45884 ], [ 6.30421, 49.47784 ], [ 6.254088, 49.5091202 ], [ 6.1766877, 49.5059394 ], [ 6.13098, 49.49354 ], [ 6.12433, 49.47065 ], [ 6.06036, 49.46428 ], [ 6.04794, 49.45322 ], [ 5.98557, 49.45733 ], [ 5.97302, 49.49174 ], [ 5.91676, 49.50225 ], [ 5.85998, 49.50291 ], [ 5.8166199, 49.5466285 ], [ 5.8745667, 49.5763983 ], [ 5.87601, 49.60818 ], [ 5.90005, 49.66941 ], [ 5.85975, 49.67912 ], [ 5.8875894, 49.7106796 ], [ 5.82983, 49.72845 ], [ 5.78875, 49.801 ], [ 5.7539699, 49.7956318 ], [ 5.74789, 49.84403 ], [ 5.77229, 49.88724 ], [ 5.7627488, 49.9177894 ], [ 5.78014, 49.9607 ], [ 5.83386, 49.97971 ], [ 5.82109, 50.01297 ], [ 5.86923, 50.04769 ], [ 5.85954, 50.06978 ], [ 5.89081, 50.08399 ], [ 5.90462, 50.12 ], [ 5.9583, 50.13461 ], [ 5.96264, 50.17207 ], [ 6.02025, 50.18468 ], [ 6.06267, 50.15778 ], [ 6.08299, 50.17461 ], [ 6.1225687, 50.1666387 ], [ 6.13802, 50.1329 ] ] ] ] } }
]
}
