{
"type": "FeatureCollection",
"name": "LVA_GAUL2006_ADM0",
"crs": { "type": "name", "properties": { "name": "urn:ogc:def:crs:OGC:1.3:CRS84" } },
"features": [
{ "type": "Feature", "properties": { "POLYGON_ID": "LVA_GAUL2006_ADM0_140", "ADM0_ISO3": "LVA", "ADM0_NAME": "Latvia", "ADM0_CODE": 140, "GEOSET": "GAUL", "GEOSET_YEAR": 2006.0, "GEOSET_VERSION": "GAUL_v1", "GEOSET_UNIT": "ADM0", "CENTROID_LONG": 24.932198682958926, "CENTROID_LAT": 56.8539719931752 }, "geometry": { "type": "MultiPolygon", "coordinates": [ [ [ [ 27.32212, 57.54839 ], [ 27.39854, 57.5283 ], [ 27.51275, 57.54104 ], [ 27.55121, 57.53885 ], [ 27.5672899, 57.5144995 ], [ 27.55319, 57.47579 ], [ 27.51669, 57.46696 ], [ 27.53962, 57.43419 ], [ 27.64966, 57.4051 ], [ 27.68017, 57.37793 ], [ 27.76224, 57.35265 ], [ 27.7933, 57.32783 ], [ 27.83944, 57.31658 ], [ 27.8668, 57.26702 ], [ 27.86426, 57.24235 ], [ 27.82146, 57.15967 ], [ 27.75889, 57.12744 ], [ 27.72687, 57.09959 ], [ 27.75226, 57.08212 ], [ 27.7453, 57.04555 ], [ 27.7174, 57.01263 ], [ 27.74086, 56.98689 ], [ 27.72324, 56.93051 ], [ 27.67188, 56.91104 ], [ 27.6752095, 56.8644518 ], [ 27.70876, 56.855 ], [ 27.84634, 56.87568 ], [ 27.90226, 56.83218 ], [ 27.9718, 56.82376 ], [ 27.9513082, 56.7772395 ], [ 27.91815, 56.76457 ], [ 27.92047, 56.73606 ], [ 27.98326, 56.70805 ], [ 28.00943, 56.66897 ], [ 28.03978, 56.59504 ], [ 28.13352, 56.57718 ], [ 28.13898, 56.54764 ], [ 28.1025493, 56.5226129 ], [ 28.12288, 56.4926 ], [ 28.18432, 56.4411 ], [ 28.19154, 56.4064 ], [ 28.16487, 56.38008 ], [ 28.1982, 56.34658 ], [ 28.24113, 56.27555 ], [ 28.1926, 56.23423 ], [ 28.2030981, 56.2125317 ], [ 28.1754891, 56.1721598 ], [ 28.15134, 56.1658 ], [ 28.0871, 56.13305 ], [ 28.04089, 56.12037 ], [ 27.96918, 56.11755 ], [ 27.93649, 56.06461 ], [ 27.8628486, 56.0411999 ], [ 27.82439, 56.02005 ], [ 27.80461, 55.98701 ], [ 27.75711, 55.97456 ], [ 27.66517, 55.93539 ], [ 27.62538, 55.89041 ], [ 27.63383, 55.83565 ], [ 27.60297, 55.78648 ], [ 27.46668, 55.79127 ], [ 27.38848, 55.81347 ], [ 27.29966, 55.7912 ], [ 27.25705, 55.80583 ], [ 27.17593, 55.85322 ], [ 27.13271, 55.85162 ], [ 27.0834794, 55.8288201 ], [ 27.00806, 55.83153 ], [ 26.93692, 55.79166 ], [ 26.87942, 55.71725 ], [ 26.80348, 55.68848 ], [ 26.74796, 55.68886 ], [ 26.66769, 55.70557 ], [ 26.61967, 55.67435 ], [ 26.53986, 55.66886 ], [ 26.4633, 55.69756 ], [ 26.3791799, 55.7039905 ], [ 26.34736, 55.74155 ], [ 26.27939, 55.75898 ], [ 26.25451, 55.78434 ], [ 26.22983, 55.83601 ], [ 26.20663, 55.8563 ], [ 26.10616, 55.898 ], [ 26.02, 55.96892 ], [ 25.9146595, 56.0 ], [ 25.86075, 56.0 ], [ 25.82099, 56.053 ], [ 25.70872, 56.08346 ], [ 25.67726, 56.14888 ], [ 25.64251, 56.13644 ], [ 25.5668, 56.14036 ], [ 25.55464, 56.16182 ], [ 25.50393, 56.14824 ], [ 25.44833, 56.15695 ], [ 25.30717, 56.14884 ], [ 25.23916, 56.18445 ], [ 25.17223, 56.17376 ], [ 25.09741, 56.18651 ], [ 25.07213, 56.22546 ], [ 25.06929, 56.25663 ], [ 25.01787, 56.29439 ], [ 24.97353, 56.30964 ], [ 24.9658, 56.3558 ], [ 24.9173, 56.40142 ], [ 24.8741, 56.41638 ], [ 24.79345, 56.401 ], [ 24.71829, 56.39435 ], [ 24.65291, 56.37094 ], [ 24.57932, 56.31475 ], [ 24.56139, 56.28303 ], [ 24.43884, 56.25858 ], [ 24.329, 56.29852 ], [ 24.30234, 56.29712 ], [ 24.20329, 56.26205 ], [ 24.1576, 56.25665 ], [ 24.09245, 56.27796 ], [ 24.01477, 56.33002 ], [ 23.8605, 56.33523 ], [ 23.82072, 56.34278 ], [ 23.76288, 56.33309 ], [ 23.77679, 56.3657 ], [ 23.64606, 56.36431 ], [ 23.53613, 56.33286 ], [ 23.43564, 56.35716 ], [ 23.36639, 56.38111 ], [ 23.30259, 56.38156 ], [ 23.17473, 56.36435 ], [ 23.17989, 56.34625 ], [ 23.10812, 56.30696 ], [ 23.03034, 56.32996 ], [ 23.01557, 56.39213 ], [ 22.95948, 56.41405 ], [ 22.91483, 56.37827 ], [ 22.84186, 56.36925 ], [ 22.7356874, 56.373909 ], [ 22.69831, 56.35782 ], [ 22.63762, 56.36519 ], [ 22.58311, 56.39071 ], [ 22.52752, 56.39201 ], [ 22.47484, 56.40561 ], [ 22.4024, 56.40711 ], [ 22.34244, 56.39404 ], [ 22.31792, 56.4103 ], [ 22.24483, 56.4051 ], [ 22.14404, 56.42598 ], [ 22.0, 56.4148 ], [ 21.97242, 56.37823 ], [ 21.88553, 56.36051 ], [ 21.85707, 56.36843 ], [ 21.80042, 56.34281 ], [ 21.69756, 56.31092 ], [ 21.60565, 56.32217 ], [ 21.52473, 56.2905 ], [ 21.48178, 56.28686 ], [ 21.45684, 56.25136 ], [ 21.32997, 56.21304 ], [ 21.2729, 56.16854 ], [ 21.23216, 56.15728 ], [ 21.24122, 56.12276 ], [ 21.19416, 56.07568 ], [ 21.12871, 56.08058 ], [ 21.0714283, 56.0634308 ], [ 21.0320911, 56.1494331 ], [ 20.9808578, 56.2276611 ], [ 20.993351, 56.2862015 ], [ 20.9742661, 56.3691101 ], [ 21.0156384, 56.466362 ], [ 20.9950733, 56.5087433 ], [ 21.0038319, 56.5593033 ], [ 21.0358753, 56.6123085 ], [ 21.0645466, 56.6907883 ], [ 21.0660381, 56.8332558 ], [ 21.1324444, 56.867691 ], [ 21.2419682, 56.9079323 ], [ 21.2808723, 56.9395447 ], [ 21.3656502, 56.9864349 ], [ 21.4168625, 57.0498238 ], [ 21.4214306, 57.114212 ], [ 21.4119549, 57.1726341 ], [ 21.4295197, 57.2921448 ], [ 21.5078278, 57.3585625 ], [ 21.5586681, 57.3933029 ], [ 21.6634502, 57.5036926 ], [ 21.6959457, 57.5620003 ], [ 21.7596779, 57.5821495 ], [ 21.8510513, 57.5951996 ], [ 21.9683762, 57.5970688 ], [ 22.1991405, 57.6537247 ], [ 22.4870358, 57.7413902 ], [ 22.590229, 57.7616653 ], [ 22.5971355, 57.7435379 ], [ 22.5745201, 57.6922607 ], [ 22.591341, 57.6308327 ], [ 22.6597996, 57.5749016 ], [ 22.7505951, 57.5338631 ], [ 22.8474979, 57.4974709 ], [ 22.9511318, 57.4188461 ], [ 23.0411243, 57.3822098 ], [ 23.1379623, 57.3625069 ], [ 23.1280499, 57.3392601 ], [ 23.1598873, 57.3119354 ], [ 23.1858578, 57.2367706 ], [ 23.2409973, 57.1617661 ], [ 23.2424068, 57.1122437 ], [ 23.2983437, 57.0721703 ], [ 23.3807678, 57.0458412 ], [ 23.4987278, 57.0357857 ], [ 23.5695019, 56.9786224 ], [ 23.6562824, 56.9640312 ], [ 23.7701778, 56.9690895 ], [ 23.8693199, 56.9883118 ], [ 23.9998188, 57.029953 ], [ 24.0264282, 57.0573845 ], [ 24.1496925, 57.092514 ], [ 24.220623, 57.1260529 ], [ 24.2578659, 57.1542282 ], [ 24.3743858, 57.2162132 ], [ 24.4089642, 57.2540321 ], [ 24.4053669, 57.3838959 ], [ 24.3826084, 57.4748039 ], [ 24.3862247, 57.5024872 ], [ 24.364872, 57.5423698 ], [ 24.3827038, 57.6199417 ], [ 24.3568153, 57.6871452 ], [ 24.3408947, 57.7004814 ], [ 24.3438663, 57.7972412 ], [ 24.3363171, 57.828022 ], [ 24.3562222, 57.8781471 ], [ 24.4127484, 57.8672104 ], [ 24.45746, 57.88037 ], [ 24.46523, 57.91642 ], [ 24.5915, 57.9594 ], [ 24.63091, 57.94225 ], [ 24.67348, 57.96183 ], [ 24.70081, 57.95047 ], [ 24.79799, 57.9869 ], [ 24.84539, 57.97974 ], [ 24.93272, 58.00343 ], [ 25.00291, 58.00832 ], [ 25.07748, 58.06329 ], [ 25.11735, 58.08181 ], [ 25.19269, 58.0715 ], [ 25.21563, 58.03377 ], [ 25.26999, 57.99431 ], [ 25.30168, 57.99994 ], [ 25.29594, 58.04093 ], [ 25.2653, 58.05851 ], [ 25.29386, 58.07761 ], [ 25.3604097, 58.0340102 ], [ 25.4478192, 58.0135003 ], [ 25.4625894, 57.9811706 ], [ 25.5254, 57.96636 ], [ 25.56864, 57.97057 ], [ 25.6661, 57.90713 ], [ 25.74993, 57.92089 ], [ 25.85906, 57.86192 ], [ 25.97161, 57.85212 ], [ 25.99995, 57.86086 ], [ 26.04991, 57.84853 ], [ 26.02137, 57.77955 ], [ 26.09661, 57.74635 ], [ 26.18517, 57.73001 ], [ 26.17977, 57.69958 ], [ 26.22386, 57.66374 ], [ 26.27686, 57.60322 ], [ 26.38683, 57.57545 ], [ 26.47574, 57.56735 ], [ 26.4836298, 57.527931 ], [ 26.52239, 57.51619 ], [ 26.57063, 57.52877 ], [ 26.60483, 57.52023 ], [ 26.63123, 57.54481 ], [ 26.67731, 57.56211 ], [ 26.75204, 57.5682 ], [ 26.8464185, 57.6050492 ], [ 26.90942, 57.64128 ], [ 26.95257, 57.62079 ], [ 27.00324, 57.61826 ], [ 27.09167, 57.57031 ], [ 27.2064, 57.54417 ], [ 27.32212, 57.54839 ] ] ] ] } }
]
}
