{
"type": "FeatureCollection",
"name": "MAR_GAUL1995_ADM1",
"crs": { "type": "name", "properties": { "name": "urn:ogc:def:crs:OGC:1.3:CRS84" } },
"features": [
{ "type": "Feature", "properties": { "POLYGON_ID": "MAR_GAUL1995_ADM1_2110", "ADM0_ISO3": "MAR", "ADM0_NAME": "Morocco", "ADM0_CODE": 169, "ADM1_NAME": "Sud", "ADM1_CODE": 2110, "GEOSET": "GAUL", "GEOSET_YEAR": 1995.0, "GEOSET_VERSION": "GAUL_v1", "GEOSET_UNIT": "ADM1", "CENTROID_LONG": -8.4088702307461141, "CENTROID_LAT": 29.616117236769426 }, "geometry": { "type": "MultiPolygon", "coordinates": [ [ [ [ -5.1197354, 30.0114745 ], [ -5.1309908, 30.0036149 ], [ -5.1465718, 29.9927347 ], [ -5.2498011, 29.9206499 ], [ -5.2551964, 29.9116725 ], [ -5.2774985, 29.9019511 ], [ -5.3011349, 29.8758367 ], [ -5.3030411, 29.8727868 ], [ -5.3041848, 29.8649715 ], [ -5.3133031, 29.8526387 ], [ -5.3287743, 29.8384759 ], [ -5.3295368, 29.8340917 ], [ -5.323437, 29.8220829 ], [ -5.3219121, 29.7799567 ], [ -5.5025278, 29.5602966 ], [ -5.5548667, 29.4966433 ], [ -5.5674318, 29.4863462 ], [ -5.6109648, 29.4905839 ], [ -5.6420505, 29.4992407 ], [ -5.676883, 29.5313937 ], [ -5.6861463, 29.5390707 ], [ -5.6904374, 29.5362437 ], [ -5.7128467, 29.5171714 ], [ -5.7258116, 29.5199196 ], [ -5.7300914, 29.519344 ], [ -5.7372135, 29.5136047 ], [ -5.7479057, 29.5161754 ], [ -5.7496587, 29.5221974 ], [ -5.7482283, 29.5349627 ], [ -5.7216344, 29.5735193 ], [ -5.7210625, 29.5881968 ], [ -5.7911833, 29.6137463 ], [ -5.8041685, 29.6141398 ], [ -5.8364347, 29.607057 ], [ -5.9969108, 29.5765736 ], [ -6.0019367, 29.5804397 ], [ -6.0634078, 29.5626556 ], [ -6.1020688, 29.5680682 ], [ -6.1565809, 29.5808263 ], [ -6.1967883, 29.5843058 ], [ -6.2397021, 29.5680682 ], [ -6.2583608, 29.5683597 ], [ -6.2891882, 29.5688414 ], [ -6.2988535, 29.5653619 ], [ -6.3170242, 29.5700012 ], [ -6.3703764, 29.5696146 ], [ -6.3900935, 29.5568565 ], [ -6.4001454, 29.5611092 ], [ -6.423342, 29.5638155 ], [ -6.4627763, 29.5634289 ], [ -6.4681888, 29.5572431 ], [ -6.4840398, 29.5529904 ], [ -6.5230875, 29.5197419 ], [ -6.5516966, 29.5239946 ], [ -6.5690941, 29.5209017 ], [ -6.6000229, 29.5267009 ], [ -6.6135543, 29.5274741 ], [ -6.6255392, 29.5212883 ], [ -6.6491224, 29.5197419 ], [ -6.6639444, 29.51511 ], [ -6.7089905, 29.5083056 ], [ -6.7351043, 29.4851402 ], [ -6.7466721, 29.474826 ], [ -6.775533, 29.4620604 ], [ -6.7991272, 29.4613637 ], [ -6.8598251, 29.4834005 ], [ -6.8849547, 29.4826273 ], [ -6.9064639, 29.5001998 ], [ -6.9306028, 29.4956038 ], [ -6.9671237, 29.4956633 ], [ -6.9992864, 29.5030474 ], [ -7.0234751, 29.492995 ], [ -7.0288154, 29.5005343 ], [ -7.0357264, 29.4967646 ], [ -7.0448365, 29.5002202 ], [ -7.0602292, 29.5011626 ], [ -7.1016955, 29.5231523 ], [ -7.1202296, 29.5256654 ], [ -7.1205437, 29.5196967 ], [ -7.1320233, 29.5194167 ], [ -7.1398192, 29.5210998 ], [ -7.2541889, 29.4719209 ], [ -7.2892623, 29.4437097 ], [ -7.3140424, 29.4166421 ], [ -7.3449223, 29.3928151 ], [ -7.4674889, 29.3656878 ], [ -7.4843862, 29.3629901 ], [ -7.5837525, 29.3751729 ], [ -7.6248696, 29.3568987 ], [ -7.6288671, 29.329868 ], [ -7.6322935, 29.321873 ], [ -7.6391464, 29.3127359 ], [ -7.6492353, 29.3041698 ], [ -7.6612278, 29.3003627 ], [ -7.7729945, 29.2588368 ], [ -7.7867345, 29.250641 ], [ -7.8226512, 29.222438 ], [ -7.8601507, 29.2013771 ], [ -7.8813582, 29.1928185 ], [ -7.8903867, 29.1894139 ], [ -7.9557117, 29.1402394 ], [ -7.9597074, 29.1296125 ], [ -7.9972111, 29.1070814 ], [ -8.0866101, 29.0603804 ], [ -8.1456604, 29.0238114 ], [ -8.1712437, 29.0022424 ], [ -8.2002174, 28.9982395 ], [ -8.2232819, 28.9896618 ], [ -8.2543524, 28.9604975 ], [ -8.2835166, 28.9442951 ], [ -8.3721532, 28.8751014 ], [ -8.4344425, 28.8139992 ], [ -8.4518308, 28.8017142 ], [ -8.4637008, 28.7955948 ], [ -8.5510038, 28.7604376 ], [ -8.666595, 28.7135398 ], [ -8.6666158, 28.3086106 ], [ -8.666649, 27.6620364 ], [ -8.73032, 27.66483 ], [ -9.2545283, 27.6648132 ], [ -9.33925, 27.66464 ], [ -10.0671966, 27.6667793 ], [ -10.1489463, 27.6668196 ], [ -10.61574, 27.66614 ], [ -10.6961182, 27.6658624 ], [ -11.06733, 27.66582 ], [ -11.30659, 27.66777 ], [ -11.562092, 27.6658743 ], [ -11.60854, 27.66669 ], [ -11.78432, 27.66965 ], [ -12.3177, 27.66894 ], [ -12.4442017, 27.6684673 ], [ -13.1730279, 27.6670081 ], [ -13.162764, 27.695725 ], [ -13.071907, 27.735513 ], [ -13.009623, 27.806518 ], [ -12.980522, 27.894056 ], [ -12.91713, 27.954322 ], [ -12.659336, 27.982708 ], [ -12.2179825, 28.0585588 ], [ -12.0806791, 28.0880992 ], [ -11.942174, 28.1530388 ], [ -11.7422033, 28.2282803 ], [ -11.5860162, 28.2761933 ], [ -11.4631036, 28.3369638 ], [ -11.3423863, 28.494463 ], [ -11.2486595, 28.572749 ], [ -11.2162558, 28.6110835 ], [ -11.0951337, 28.7043019 ], [ -11.0410391, 28.7625686 ], [ -10.8443001, 28.8484415 ], [ -10.6540274, 28.9426603 ], [ -10.5065238, 29.0315781 ], [ -10.437643, 29.0995109 ], [ -10.3817454, 29.1800636 ], [ -10.2949014, 29.2623066 ], [ -10.2161094, 29.3106299 ], [ -10.182724, 29.3764122 ], [ -10.1256266, 29.4352748 ], [ -10.0759371, 29.5022839 ], [ -10.0438749, 29.5896614 ], [ -9.981698, 29.6759428 ], [ -9.8309203, 29.8086784 ], [ -9.7630424, 29.9108244 ], [ -9.6937051, 30.0534409 ], [ -9.6668913, 30.0888145 ], [ -9.6424643, 30.170914 ], [ -9.6200453, 30.3105278 ], [ -9.6039166, 30.3637115 ], [ -9.6080351, 30.4177377 ], [ -9.661292, 30.4459727 ], [ -9.7042893, 30.5427984 ], [ -9.7407087, 30.551008 ], [ -9.7832624, 30.609339 ], [ -9.825928, 30.6269484 ], [ -9.8897478, 30.630642 ], [ -9.8729756, 30.7001891 ], [ -9.8049085, 30.8173791 ], [ -9.8270953, 30.847679 ], [ -9.8076273, 30.892966 ], [ -9.8202409, 30.9506871 ], [ -9.7452774, 30.8853493 ], [ -9.7226076, 30.8345757 ], [ -9.6488132, 30.8337498 ], [ -9.598052, 30.815237 ], [ -9.5416994, 30.8634911 ], [ -9.5148745, 30.8317165 ], [ -9.4572992, 30.8134785 ], [ -9.346406, 30.8338184 ], [ -9.323103, 30.8157043 ], [ -9.2684507, 30.8107586 ], [ -9.1351061, 30.8479691 ], [ -9.0438223, 30.8360348 ], [ -8.9950476, 30.8806458 ], [ -8.9212952, 30.9057369 ], [ -8.8583288, 30.9389801 ], [ -8.8190193, 30.9788857 ], [ -8.711545, 30.9293079 ], [ -8.6855087, 30.8481541 ], [ -8.6500978, 30.8516846 ], [ -8.6154385, 30.8800259 ], [ -8.5504999, 30.8888493 ], [ -8.4236031, 30.8824902 ], [ -8.3904819, 30.9121704 ], [ -8.3210754, 30.9062366 ], [ -8.1819267, 30.9297333 ], [ -8.0981922, 30.9638481 ], [ -8.0458155, 30.9094715 ], [ -7.9889278, 30.9397068 ], [ -7.9052229, 31.0031815 ], [ -7.9026589, 31.0491562 ], [ -7.831706, 31.08218 ], [ -7.7768931, 31.1316242 ], [ -7.6929379, 31.1724663 ], [ -7.6342401, 31.1731834 ], [ -7.569088, 31.1964226 ], [ -7.4877439, 31.2697468 ], [ -7.4387021, 31.2901058 ], [ -7.3466029, 31.2944984 ], [ -7.280344, 31.3070564 ], [ -7.2279391, 31.3691273 ], [ -7.1427488, 31.399086 ], [ -7.073276, 31.398241 ], [ -6.9103851, 31.3565578 ], [ -6.8328128, 31.3739605 ], [ -6.7769542, 31.3615341 ], [ -6.7415619, 31.4261665 ], [ -6.7574582, 31.4633312 ], [ -6.7248292, 31.5109768 ], [ -6.6461139, 31.5291882 ], [ -6.595612, 31.5180817 ], [ -6.5341301, 31.5358105 ], [ -6.3832979, 31.616003 ], [ -6.222959, 31.6698399 ], [ -6.1599679, 31.7198963 ], [ -6.0620508, 31.7197723 ], [ -6.0482812, 31.7842369 ], [ -5.9535861, 31.8201847 ], [ -5.9163599, 31.8619957 ], [ -5.8623552, 31.8729877 ], [ -5.8034668, 31.9191227 ], [ -5.8093662, 31.9850502 ], [ -5.7698908, 31.9933681 ], [ -5.7039881, 32.0334015 ], [ -5.6578498, 32.0228615 ], [ -5.5307641, 31.9396038 ], [ -5.5739331, 31.8751736 ], [ -5.682157, 31.774334 ], [ -5.785696, 31.6856346 ], [ -5.7847328, 31.643528 ], [ -5.7129321, 31.6346474 ], [ -5.6413088, 31.6490517 ], [ -5.501863, 31.6164646 ], [ -5.4599242, 31.5643215 ], [ -5.3872361, 31.5264282 ], [ -5.3094888, 31.5058022 ], [ -5.2546811, 31.4634972 ], [ -5.2354002, 31.4083977 ], [ -5.240221, 31.3490467 ], [ -5.264504, 31.273035 ], [ -5.3064332, 31.1889782 ], [ -5.3290029, 31.0379448 ], [ -5.3590779, 30.9112148 ], [ -5.3381748, 30.8040924 ], [ -5.2505412, 30.6721935 ], [ -5.2008119, 30.6133156 ], [ -5.2000728, 30.4490166 ], [ -5.211195, 30.3975086 ], [ -5.2082548, 30.3093815 ], [ -5.214879, 30.195797 ], [ -5.1922541, 30.1314335 ], [ -5.1522522, 30.0935555 ], [ -5.1326551, 30.0441761 ], [ -5.132565, 30.0442123 ], [ -5.1197354, 30.0114745 ] ] ] ] } },
{ "type": "Feature", "properties": { "POLYGON_ID": "MAR_GAUL1995_ADM1_2111", "ADM0_ISO3": "MAR", "ADM0_NAME": "Morocco", "ADM0_CODE": 169, "ADM1_NAME": "Tensift", "ADM1_CODE": 2111, "GEOSET": "GAUL", "GEOSET_YEAR": 1995.0, "GEOSET_VERSION": "GAUL_v1", "GEOSET_UNIT": "ADM1", "CENTROID_LONG": -8.4402374282507626, "CENTROID_LAT": 31.7087631180462 }, "geometry": { "type": "MultiPolygon", "coordinates": [ [ [ [ -7.1427488, 31.399086 ], [ -7.2279391, 31.3691273 ], [ -7.280344, 31.3070564 ], [ -7.3466029, 31.2944984 ], [ -7.4387021, 31.2901058 ], [ -7.4877439, 31.2697468 ], [ -7.569088, 31.1964226 ], [ -7.6342401, 31.1731834 ], [ -7.6929379, 31.1724663 ], [ -7.7768931, 31.1316242 ], [ -7.831706, 31.08218 ], [ -7.9026589, 31.0491562 ], [ -7.9052229, 31.0031815 ], [ -7.9889278, 30.9397068 ], [ -8.0458155, 30.9094715 ], [ -8.0981922, 30.9638481 ], [ -8.1819267, 30.9297333 ], [ -8.3210754, 30.9062366 ], [ -8.3904819, 30.9121704 ], [ -8.4236031, 30.8824902 ], [ -8.5504999, 30.8888493 ], [ -8.6154385, 30.8800259 ], [ -8.6500978, 30.8516846 ], [ -8.6855087, 30.8481541 ], [ -8.711545, 30.9293079 ], [ -8.8190193, 30.9788857 ], [ -8.8583288, 30.9389801 ], [ -8.9212952, 30.9057369 ], [ -8.9950476, 30.8806458 ], [ -9.0438223, 30.8360348 ], [ -9.1351061, 30.8479691 ], [ -9.2684507, 30.8107586 ], [ -9.323103, 30.8157043 ], [ -9.346406, 30.8338184 ], [ -9.4572992, 30.8134785 ], [ -9.5148745, 30.8317165 ], [ -9.5416994, 30.8634911 ], [ -9.598052, 30.815237 ], [ -9.6488132, 30.8337498 ], [ -9.7226076, 30.8345757 ], [ -9.7452774, 30.8853493 ], [ -9.8202409, 30.9506871 ], [ -9.8083028, 31.00868 ], [ -9.8392642, 31.1007982 ], [ -9.8388932, 31.1434865 ], [ -9.8165852, 31.1917157 ], [ -9.8202414, 31.2341207 ], [ -9.7979794, 31.2913457 ], [ -9.8028148, 31.367171 ], [ -9.8425109, 31.3910691 ], [ -9.7916944, 31.4556131 ], [ -9.7619981, 31.5197381 ], [ -9.7222449, 31.5584257 ], [ -9.6785004, 31.623737 ], [ -9.6760758, 31.6985814 ], [ -9.648095, 31.7200049 ], [ -9.570698, 31.8083675 ], [ -9.4600078, 31.9223341 ], [ -9.3442115, 32.0332609 ], [ -9.3215462, 32.1139297 ], [ -9.2794685, 32.1543053 ], [ -9.2507875, 32.2186479 ], [ -9.2656827, 32.2517505 ], [ -9.2459702, 32.288322 ], [ -9.2807504, 32.3299295 ], [ -9.2858015, 32.3761908 ], [ -9.2476812, 32.4169706 ], [ -9.2316302, 32.4748261 ], [ -9.2702948, 32.5154185 ], [ -9.2784621, 32.547771 ], [ -9.1250207, 32.6585689 ], [ -9.0602379, 32.7211321 ], [ -9.0114555, 32.6885605 ], [ -9.0068779, 32.6099014 ], [ -8.9931154, 32.5813217 ], [ -8.9048185, 32.5054398 ], [ -8.8500681, 32.4867287 ], [ -8.7526588, 32.5022202 ], [ -8.6793146, 32.5049286 ], [ -8.6388426, 32.4807205 ], [ -8.5767031, 32.3509903 ], [ -8.552166, 32.325489 ], [ -8.4964428, 32.3231888 ], [ -8.4369507, 32.3536491 ], [ -8.3501463, 32.3819962 ], [ -8.33887, 32.4036331 ], [ -8.2657871, 32.4141464 ], [ -8.2443542, 32.467926 ], [ -8.1820889, 32.4687195 ], [ -8.0983152, 32.5282936 ], [ -8.063036, 32.5710983 ], [ -8.0441742, 32.6243706 ], [ -8.0724344, 32.6879578 ], [ -8.0358791, 32.7119598 ], [ -8.0335417, 32.7866821 ], [ -7.9673529, 32.8144264 ], [ -7.951292, 32.7759895 ], [ -7.9078231, 32.7234459 ], [ -7.9028091, 32.6982613 ], [ -7.810823, 32.6742897 ], [ -7.7199912, 32.6269264 ], [ -7.6832962, 32.5551147 ], [ -7.6554518, 32.5460358 ], [ -7.5866899, 32.4303169 ], [ -7.5142341, 32.4309616 ], [ -7.4172091, 32.4843025 ], [ -7.3403931, 32.4876251 ], [ -7.2953582, 32.4340858 ], [ -7.2447572, 32.4323044 ], [ -7.1493039, 32.3705368 ], [ -7.1107512, 32.3668861 ], [ -7.0934901, 32.3403244 ], [ -7.1047168, 32.2619858 ], [ -7.0844722, 32.1831856 ], [ -7.0949321, 32.1474457 ], [ -7.0834012, 32.0612907 ], [ -7.0543499, 32.0200577 ], [ -7.0203099, 32.0076828 ], [ -7.0085979, 31.9687195 ], [ -7.031435, 31.9471817 ], [ -7.0262361, 31.9027214 ], [ -6.9756899, 31.8499947 ], [ -7.0060158, 31.8376236 ], [ -7.0008712, 31.7858181 ], [ -7.1300759, 31.7660618 ], [ -7.1700048, 31.7848244 ], [ -7.2191968, 31.7824783 ], [ -7.2652421, 31.7480164 ], [ -7.2654071, 31.6842651 ], [ -7.2152839, 31.647644 ], [ -7.2218671, 31.6123199 ], [ -7.1419702, 31.6183777 ], [ -7.1166921, 31.5959282 ], [ -7.1260748, 31.5408745 ], [ -7.1521459, 31.4857941 ], [ -7.1427488, 31.399086 ] ] ] ] } },
{ "type": "Feature", "properties": { "POLYGON_ID": "MAR_GAUL1995_ADM1_2105", "ADM0_ISO3": "MAR", "ADM0_NAME": "Morocco", "ADM0_CODE": 169, "ADM1_NAME": "Centre", "ADM1_CODE": 2105, "GEOSET": "GAUL", "GEOSET_YEAR": 1995.0, "GEOSET_VERSION": "GAUL_v1", "GEOSET_UNIT": "ADM1", "CENTROID_LONG": -7.1224793815759115, "CENTROID_LAT": 32.665715759789421 }, "geometry": { "type": "MultiPolygon", "coordinates": [ [ [ [ -6.3614159, 33.2388878 ], [ -6.3978481, 33.1765327 ], [ -6.3881979, 33.16185 ], [ -6.2901802, 33.1337585 ], [ -6.278554, 33.1071739 ], [ -6.2388349, 33.0959091 ], [ -6.1924548, 33.0580864 ], [ -6.1360469, 33.0352325 ], [ -6.1273732, 32.9986076 ], [ -6.0834522, 32.9826965 ], [ -6.0762248, 32.958416 ], [ -6.138135, 32.9397583 ], [ -6.140388, 32.901844 ], [ -6.1083989, 32.8915329 ], [ -6.0423002, 32.9023743 ], [ -6.0208001, 32.8226776 ], [ -6.0194411, 32.7751427 ], [ -5.9990902, 32.7571335 ], [ -5.9374981, 32.7652321 ], [ -5.892776, 32.7433167 ], [ -5.8754082, 32.7125359 ], [ -5.8379912, 32.7089462 ], [ -5.7852011, 32.6585884 ], [ -5.772223, 32.6008835 ], [ -5.712646, 32.6230659 ], [ -5.6829062, 32.6186104 ], [ -5.632174, 32.5814743 ], [ -5.573195, 32.5766411 ], [ -5.5510368, 32.524292 ], [ -5.5007062, 32.4505692 ], [ -5.5439572, 32.3766632 ], [ -5.5319238, 32.3582344 ], [ -5.5550351, 32.3132858 ], [ -5.528955, 32.2946892 ], [ -5.5507379, 32.260231 ], [ -5.6012959, 32.2704391 ], [ -5.6625161, 32.2606239 ], [ -5.7331071, 32.1823006 ], [ -5.7917638, 32.1623154 ], [ -5.8185401, 32.112278 ], [ -5.8093662, 31.9850502 ], [ -5.8034668, 31.9191227 ], [ -5.8623552, 31.8729877 ], [ -5.9163599, 31.8619957 ], [ -5.9535861, 31.8201847 ], [ -6.0482812, 31.7842369 ], [ -6.0620508, 31.7197723 ], [ -6.1599679, 31.7198963 ], [ -6.222959, 31.6698399 ], [ -6.3832979, 31.616003 ], [ -6.5341301, 31.5358105 ], [ -6.595612, 31.5180817 ], [ -6.6461139, 31.5291882 ], [ -6.7248292, 31.5109768 ], [ -6.7574582, 31.4633312 ], [ -6.7415619, 31.4261665 ], [ -6.7769542, 31.3615341 ], [ -6.8328128, 31.3739605 ], [ -6.9103851, 31.3565578 ], [ -7.073276, 31.398241 ], [ -7.1427488, 31.399086 ], [ -7.1521459, 31.4857941 ], [ -7.1260748, 31.5408745 ], [ -7.1166921, 31.5959282 ], [ -7.1419702, 31.6183777 ], [ -7.2218671, 31.6123199 ], [ -7.2152839, 31.647644 ], [ -7.2654071, 31.6842651 ], [ -7.2652421, 31.7480164 ], [ -7.2191968, 31.7824783 ], [ -7.1700048, 31.7848244 ], [ -7.1300759, 31.7660618 ], [ -7.0008712, 31.7858181 ], [ -7.0060158, 31.8376236 ], [ -6.9756899, 31.8499947 ], [ -7.0262361, 31.9027214 ], [ -7.031435, 31.9471817 ], [ -7.0085979, 31.9687195 ], [ -7.0203099, 32.0076828 ], [ -7.0543499, 32.0200577 ], [ -7.0834012, 32.0612907 ], [ -7.0949321, 32.1474457 ], [ -7.0844722, 32.1831856 ], [ -7.1047168, 32.2619858 ], [ -7.0934901, 32.3403244 ], [ -7.1107512, 32.3668861 ], [ -7.1493039, 32.3705368 ], [ -7.2447572, 32.4323044 ], [ -7.2953582, 32.4340858 ], [ -7.3403931, 32.4876251 ], [ -7.4172091, 32.4843025 ], [ -7.5142341, 32.4309616 ], [ -7.5866899, 32.4303169 ], [ -7.6554518, 32.5460358 ], [ -7.6832962, 32.5551147 ], [ -7.7199912, 32.6269264 ], [ -7.810823, 32.6742897 ], [ -7.9028091, 32.6982613 ], [ -7.9078231, 32.7234459 ], [ -7.951292, 32.7759895 ], [ -7.9673529, 32.8144264 ], [ -8.0335417, 32.7866821 ], [ -8.0358791, 32.7119598 ], [ -8.0724344, 32.6879578 ], [ -8.0441742, 32.6243706 ], [ -8.063036, 32.5710983 ], [ -8.0983152, 32.5282936 ], [ -8.1820889, 32.4687195 ], [ -8.2443542, 32.467926 ], [ -8.2657871, 32.4141464 ], [ -8.33887, 32.4036331 ], [ -8.3501463, 32.3819962 ], [ -8.4369507, 32.3536491 ], [ -8.4964428, 32.3231888 ], [ -8.552166, 32.325489 ], [ -8.5767031, 32.3509903 ], [ -8.6388426, 32.4807205 ], [ -8.6793146, 32.5049286 ], [ -8.7526588, 32.5022202 ], [ -8.8500681, 32.4867287 ], [ -8.9048185, 32.5054398 ], [ -8.9931154, 32.5813217 ], [ -9.0068779, 32.6099014 ], [ -9.0114555, 32.6885605 ], [ -9.0602379, 32.7211321 ], [ -9.0178335, 32.7590446 ], [ -8.897779, 32.8442092 ], [ -8.8587311, 32.885305 ], [ -8.7484851, 32.9743395 ], [ -8.6133938, 33.1439216 ], [ -8.628754, 33.1608062 ], [ -8.5462603, 33.2451343 ], [ -8.5095516, 33.2650733 ], [ -8.4867464, 33.2448768 ], [ -8.438512, 33.2552128 ], [ -8.3365363, 33.3234396 ], [ -8.3115595, 33.359589 ], [ -8.2233596, 33.381809 ], [ -7.9193196, 33.488264 ], [ -7.8325762, 33.5290686 ], [ -7.8006452, 33.5295833 ], [ -7.6663317, 33.5997863 ], [ -7.5880262, 33.6039724 ], [ -7.5227766, 33.6274766 ], [ -7.4021506, 33.7134321 ], [ -7.3449269, 33.7188492 ], [ -7.270593, 33.7776252 ], [ -7.1267971, 33.8295997 ], [ -7.0689311, 33.8065529 ], [ -7.0267792, 33.7684593 ], [ -6.981698, 33.7781715 ], [ -6.9286232, 33.8294907 ], [ -6.882957, 33.8386993 ], [ -6.849967, 33.823349 ], [ -6.7952819, 33.7005615 ], [ -6.7221389, 33.6742516 ], [ -6.7503891, 33.5655212 ], [ -6.78337, 33.5487404 ], [ -6.850637, 33.5602112 ], [ -6.9395928, 33.5964088 ], [ -6.968688, 33.5790596 ], [ -6.9367561, 33.5403214 ], [ -6.921771, 33.4242592 ], [ -6.9520621, 33.3389206 ], [ -6.9219398, 33.2666512 ], [ -6.788784, 33.2071114 ], [ -6.7530589, 33.2220879 ], [ -6.7050629, 33.2036438 ], [ -6.604754, 33.21558 ], [ -6.565062, 33.1920967 ], [ -6.5225, 33.1420784 ], [ -6.4819121, 33.1902847 ], [ -6.3614159, 33.2388878 ] ] ] ] } },
{ "type": "Feature", "properties": { "POLYGON_ID": "MAR_GAUL1995_ADM1_2108", "ADM0_ISO3": "MAR", "ADM0_NAME": "Morocco", "ADM0_CODE": 169, "ADM1_NAME": "Nord Ouest", "ADM1_CODE": 2108, "GEOSET": "GAUL", "GEOSET_YEAR": 1995.0, "GEOSET_VERSION": "GAUL_v1", "GEOSET_UNIT": "ADM1", "CENTROID_LONG": -5.8753647338207955, "CENTROID_LAT": 34.536721513622048 }, "geometry": { "type": "MultiPolygon", "coordinates": [ [ [ [ -5.3606304, 35.8909198 ], [ -5.335428, 35.7175622 ], [ -5.3197322, 35.6829202 ], [ -5.2840618, 35.6661987 ], [ -5.2443867, 35.5548147 ], [ -5.1731594, 35.5313801 ], [ -5.1064776, 35.4772141 ], [ -5.0576593, 35.4051003 ], [ -5.0157689, 35.4016177 ], [ -4.9260438, 35.3167526 ], [ -4.8683317, 35.3017282 ], [ -4.8171963, 35.2575429 ], [ -4.7535435, 35.2255932 ], [ -4.6798328, 35.2044125 ], [ -4.6491271, 35.2108731 ], [ -4.5919281, 35.1917247 ], [ -4.4526753, 35.1612197 ], [ -4.481257, 35.1341019 ], [ -4.463707, 35.0388718 ], [ -4.488071, 34.9867516 ], [ -4.5549011, 34.9507866 ], [ -4.656044, 34.9361534 ], [ -4.7071552, 34.8960648 ], [ -4.8005452, 34.8483315 ], [ -4.8133259, 34.8240662 ], [ -4.8809218, 34.8006516 ], [ -4.9850621, 34.7857475 ], [ -5.0116448, 34.7927094 ], [ -5.0879211, 34.7734489 ], [ -5.1466022, 34.7300835 ], [ -5.1735268, 34.605854 ], [ -5.1738958, 34.5653191 ], [ -5.2344012, 34.5578728 ], [ -5.2395549, 34.5383873 ], [ -5.3122001, 34.5010605 ], [ -5.3113532, 34.4773445 ], [ -5.4351478, 34.4048653 ], [ -5.4805388, 34.394722 ], [ -5.4730191, 34.3344002 ], [ -5.4273882, 34.3358803 ], [ -5.4308062, 34.299469 ], [ -5.4046302, 34.268013 ], [ -5.4460158, 34.2587013 ], [ -5.4500279, 34.2204742 ], [ -5.5807781, 34.0967216 ], [ -5.6007748, 34.1517754 ], [ -5.7417669, 34.1844749 ], [ -5.7197099, 34.2197571 ], [ -5.8164182, 34.2540321 ], [ -5.8525429, 34.2312393 ], [ -5.8504481, 34.2051811 ], [ -5.923295, 34.1750908 ], [ -5.880197, 34.1480293 ], [ -5.8595128, 34.0454788 ], [ -5.7819381, 33.9846725 ], [ -5.772923, 33.9471397 ], [ -5.8269882, 33.9045029 ], [ -5.821146, 33.8720322 ], [ -5.7849932, 33.8149834 ], [ -5.7471099, 33.7857475 ], [ -5.7447252, 33.7478523 ], [ -5.7592592, 33.6234665 ], [ -5.7782521, 33.5625534 ], [ -5.7889242, 33.4540558 ], [ -5.7856321, 33.3791504 ], [ -5.7699709, 33.3438149 ], [ -5.7903848, 33.2856331 ], [ -5.8135099, 33.2786026 ], [ -5.9382291, 33.3092079 ], [ -5.9761949, 33.2991028 ], [ -6.0361652, 33.2522011 ], [ -6.10642, 33.2711258 ], [ -6.1408691, 33.3705444 ], [ -6.2305708, 33.3813553 ], [ -6.2615738, 33.3971367 ], [ -6.3494902, 33.3849983 ], [ -6.377604, 33.3349304 ], [ -6.3871212, 33.2806358 ], [ -6.3614159, 33.2388878 ], [ -6.4819121, 33.1902847 ], [ -6.5225, 33.1420784 ], [ -6.565062, 33.1920967 ], [ -6.604754, 33.21558 ], [ -6.7050629, 33.2036438 ], [ -6.7530589, 33.2220879 ], [ -6.788784, 33.2071114 ], [ -6.9219398, 33.2666512 ], [ -6.9520621, 33.3389206 ], [ -6.921771, 33.4242592 ], [ -6.9367561, 33.5403214 ], [ -6.968688, 33.5790596 ], [ -6.9395928, 33.5964088 ], [ -6.850637, 33.5602112 ], [ -6.78337, 33.5487404 ], [ -6.7503891, 33.5655212 ], [ -6.7221389, 33.6742516 ], [ -6.7952819, 33.7005615 ], [ -6.849967, 33.823349 ], [ -6.882957, 33.8386993 ], [ -6.9286232, 33.8294907 ], [ -6.981698, 33.7781715 ], [ -7.0267792, 33.7684593 ], [ -7.0689311, 33.8065529 ], [ -7.1267971, 33.8295997 ], [ -7.0428501, 33.8723923 ], [ -6.9401577, 33.9406166 ], [ -6.7985468, 34.0756425 ], [ -6.7454599, 34.1386627 ], [ -6.6962063, 34.21689 ], [ -6.6789358, 34.2607426 ], [ -6.5352912, 34.454408 ], [ -6.3900968, 34.6979466 ], [ -6.3022507, 34.8680944 ], [ -6.2460672, 34.9941452 ], [ -6.1688354, 35.1941324 ], [ -6.1269311, 35.2643002 ], [ -6.081541, 35.3961466 ], [ -6.0276093, 35.4763124 ], [ -5.9301534, 35.7871906 ], [ -5.9075256, 35.8009869 ], [ -5.7690034, 35.7823263 ], [ -5.7394907, 35.8182799 ], [ -5.6897634, 35.8382792 ], [ -5.6043166, 35.8300159 ], [ -5.5530725, 35.8452444 ], [ -5.4652348, 35.9143994 ], [ -5.3800271, 35.9144856 ], [ -5.3606304, 35.8909198 ] ] ] ] } },
{ "type": "Feature", "properties": { "POLYGON_ID": "MAR_GAUL1995_ADM1_2106", "ADM0_ISO3": "MAR", "ADM0_NAME": "Morocco", "ADM0_CODE": 169, "ADM1_NAME": "Centre Nord", "ADM1_CODE": 2106, "GEOSET": "GAUL", "GEOSET_YEAR": 1995.0, "GEOSET_VERSION": "GAUL_v1", "GEOSET_UNIT": "ADM1", "CENTROID_LONG": -4.16102341738394, "CENTROID_LAT": 33.968892671762141 }, "geometry": { "type": "MultiPolygon", "coordinates": [ [ [ [ -3.8057497, 35.2028506 ], [ -3.797575, 35.174614 ], [ -3.8109801, 35.1108475 ], [ -3.792608, 34.999485 ], [ -3.7969699, 34.8934174 ], [ -3.729898, 34.8425446 ], [ -3.676733, 34.8479233 ], [ -3.636091, 34.8265152 ], [ -3.5929489, 34.8310585 ], [ -3.584852, 34.7571754 ], [ -3.608638, 34.7235527 ], [ -3.574271, 34.6999588 ], [ -3.6325691, 34.6682777 ], [ -3.6131811, 34.6093483 ], [ -3.603523, 34.6120682 ], [ -3.5658331, 34.5656929 ], [ -3.4974861, 34.5504837 ], [ -3.474026, 34.6152191 ], [ -3.441432, 34.6457329 ], [ -3.321104, 34.6957359 ], [ -3.293788, 34.756382 ], [ -3.166537, 34.7547035 ], [ -3.1098411, 34.7058029 ], [ -3.0775199, 34.7067413 ], [ -2.9700949, 34.645195 ], [ -2.9873829, 34.6073532 ], [ -3.070811, 34.5689545 ], [ -3.0798199, 34.4885788 ], [ -3.1558671, 34.4260216 ], [ -3.2251041, 34.3940048 ], [ -3.2302101, 34.3461685 ], [ -3.131259, 34.2661743 ], [ -3.1299551, 34.1745453 ], [ -3.087966, 34.1445274 ], [ -3.1152611, 34.0714302 ], [ -3.137922, 34.0526924 ], [ -3.2499571, 34.0166893 ], [ -3.264802, 33.9640999 ], [ -3.1615739, 33.8643646 ], [ -3.1264019, 33.8100815 ], [ -3.1204281, 33.7316208 ], [ -3.1386039, 33.6819267 ], [ -3.222831, 33.5951462 ], [ -3.2573271, 33.5381393 ], [ -3.238198, 33.4846458 ], [ -3.1360519, 33.4254837 ], [ -3.0627079, 33.3401756 ], [ -3.0003891, 33.2822075 ], [ -2.969074, 33.227005 ], [ -2.9992721, 33.1586609 ], [ -3.1075931, 33.1331406 ], [ -3.220305, 33.094429 ], [ -3.3518701, 33.0808296 ], [ -3.446785, 33.0935211 ], [ -3.6031721, 33.0926514 ], [ -3.675993, 33.0832558 ], [ -3.7265379, 33.0579491 ], [ -3.805249, 32.9918633 ], [ -3.8412969, 32.9450378 ], [ -3.9444239, 32.7815437 ], [ -4.0032129, 32.7272263 ], [ -4.0498509, 32.661087 ], [ -4.0540471, 32.6375885 ], [ -4.089642, 32.625248 ], [ -4.2579732, 32.6280899 ], [ -4.2901812, 32.6475906 ], [ -4.2931671, 32.7182121 ], [ -4.3849001, 32.7961197 ], [ -4.4252911, 32.8180695 ], [ -4.450098, 32.8632927 ], [ -4.4812412, 32.8868141 ], [ -4.5790238, 32.8900375 ], [ -4.668736, 32.8761024 ], [ -4.7138491, 32.8916588 ], [ -4.762826, 32.9373436 ], [ -4.750524, 33.0072517 ], [ -4.8366761, 33.0842361 ], [ -4.8886161, 33.2238083 ], [ -4.9245219, 33.2928848 ], [ -4.98593, 33.3387566 ], [ -5.0011959, 33.4060478 ], [ -4.909081, 33.5139694 ], [ -4.8906312, 33.5532036 ], [ -4.8971462, 33.5856743 ], [ -4.9967661, 33.6619759 ], [ -5.0927291, 33.6729927 ], [ -5.1267362, 33.7260399 ], [ -5.0808172, 33.8267326 ], [ -5.0868058, 33.8765068 ], [ -5.1439528, 33.9327545 ], [ -5.165369, 34.0006104 ], [ -5.2545648, 34.0136833 ], [ -5.2985978, 34.0710144 ], [ -5.3718371, 34.0663834 ], [ -5.381937, 34.1139793 ], [ -5.3821549, 34.2256775 ], [ -5.4046302, 34.268013 ], [ -5.4308062, 34.299469 ], [ -5.4273882, 34.3358803 ], [ -5.4730191, 34.3344002 ], [ -5.4805388, 34.394722 ], [ -5.4351478, 34.4048653 ], [ -5.3113532, 34.4773445 ], [ -5.3122001, 34.5010605 ], [ -5.2395549, 34.5383873 ], [ -5.2344012, 34.5578728 ], [ -5.1738958, 34.5653191 ], [ -5.1735268, 34.605854 ], [ -5.1466022, 34.7300835 ], [ -5.0879211, 34.7734489 ], [ -5.0116448, 34.7927094 ], [ -4.9850621, 34.7857475 ], [ -4.8809218, 34.8006516 ], [ -4.8133259, 34.8240662 ], [ -4.8005452, 34.8483315 ], [ -4.7071552, 34.8960648 ], [ -4.656044, 34.9361534 ], [ -4.5549011, 34.9507866 ], [ -4.488071, 34.9867516 ], [ -4.463707, 35.0388718 ], [ -4.481257, 35.1341019 ], [ -4.4526753, 35.1612197 ], [ -4.3548351, 35.1474595 ], [ -4.2500572, 35.1884135 ], [ -4.1116319, 35.2062095 ], [ -4.0237302, 35.2373076 ], [ -3.9811174, 35.2359902 ], [ -3.9275744, 35.2616577 ], [ -3.9072504, 35.2137495 ], [ -3.8465102, 35.1968796 ], [ -3.8057497, 35.2028506 ] ] ] ] } },
{ "type": "Feature", "properties": { "POLYGON_ID": "MAR_GAUL1995_ADM1_2107", "ADM0_ISO3": "MAR", "ADM0_NAME": "Morocco", "ADM0_CODE": 169, "ADM1_NAME": "Meknès - Tafilalet", "ADM1_CODE": 2107, "GEOSET": "GAUL", "GEOSET_YEAR": 1995.0, "GEOSET_VERSION": "GAUL_v1", "GEOSET_UNIT": "ADM1", "CENTROID_LONG": -4.806719451311035, "CENTROID_LAT": 32.036156086852131 }, "geometry": { "type": "MultiPolygon", "coordinates": [ [ [ [ -5.4046302, 34.268013 ], [ -5.3821549, 34.2256775 ], [ -5.381937, 34.1139793 ], [ -5.3718371, 34.0663834 ], [ -5.2985978, 34.0710144 ], [ -5.2545648, 34.0136833 ], [ -5.165369, 34.0006104 ], [ -5.1439528, 33.9327545 ], [ -5.0868058, 33.8765068 ], [ -5.0808172, 33.8267326 ], [ -5.1267362, 33.7260399 ], [ -5.0927291, 33.6729927 ], [ -4.9967661, 33.6619759 ], [ -4.8971462, 33.5856743 ], [ -4.8906312, 33.5532036 ], [ -4.909081, 33.5139694 ], [ -5.0011959, 33.4060478 ], [ -4.98593, 33.3387566 ], [ -4.9245219, 33.2928848 ], [ -4.8886161, 33.2238083 ], [ -4.8366761, 33.0842361 ], [ -4.750524, 33.0072517 ], [ -4.762826, 32.9373436 ], [ -4.7138491, 32.8916588 ], [ -4.668736, 32.8761024 ], [ -4.5790238, 32.8900375 ], [ -4.4812412, 32.8868141 ], [ -4.450098, 32.8632927 ], [ -4.4252911, 32.8180695 ], [ -4.3849001, 32.7961197 ], [ -4.2931671, 32.7182121 ], [ -4.2901812, 32.6475906 ], [ -4.2579732, 32.6280899 ], [ -4.089642, 32.625248 ], [ -4.0540471, 32.6375885 ], [ -3.9861331, 32.5908051 ], [ -3.9137671, 32.4734154 ], [ -3.869874, 32.3901405 ], [ -3.847837, 32.3035126 ], [ -3.7537429, 32.2866173 ], [ -3.6688731, 32.2331848 ], [ -3.6867061, 32.200634 ], [ -3.6684611, 32.1768036 ], [ -3.5573239, 32.1846886 ], [ -3.4628479, 32.1767273 ], [ -3.253041, 32.1440048 ], [ -3.243983, 32.1187248 ], [ -3.284951, 32.0506859 ], [ -3.296262, 31.9835548 ], [ -3.2960141, 31.9010181 ], [ -3.2833929, 31.8416786 ], [ -3.2722459, 31.7486572 ], [ -3.264492, 31.7166138 ], [ -3.264447, 31.7166233 ], [ -3.2636665, 31.7136154 ], [ -3.6664722, 31.6340395 ], [ -3.6682865, 31.4078422 ], [ -3.6684877, 31.3827521 ], [ -3.7332213, 31.3374194 ], [ -3.7628028, 31.3330014 ], [ -3.7626712, 31.3298574 ], [ -3.7581927, 31.3287755 ], [ -3.7839325, 31.2928551 ], [ -3.7849273, 31.2897463 ], [ -3.7825413, 31.2857926 ], [ -3.778754, 31.285767 ], [ -3.7762303, 31.2925457 ], [ -3.7711602, 31.2951312 ], [ -3.7683566, 31.2897395 ], [ -3.7733457, 31.284218 ], [ -3.7626341, 31.276829 ], [ -3.75735, 31.2830115 ], [ -3.7631761, 31.2559785 ], [ -3.7732129, 31.254317 ], [ -3.7740509, 31.2508425 ], [ -3.7603057, 31.1827888 ], [ -3.767605, 31.1217049 ], [ -3.7570402, 31.1259308 ], [ -3.7502894, 31.1257262 ], [ -3.7443624, 31.1255466 ], [ -3.7378314, 31.1234336 ], [ -3.7362947, 31.1470604 ], [ -3.7236169, 31.1451396 ], [ -3.721504, 31.1503259 ], [ -3.6984534, 31.1756815 ], [ -3.699606, 31.1674217 ], [ -3.6967246, 31.165885 ], [ -3.6686798, 31.1532072 ], [ -3.6707928, 31.1051853 ], [ -3.6740583, 31.0928917 ], [ -3.6700244, 31.0888578 ], [ -3.6583071, 31.0905866 ], [ -3.6421717, 31.0902025 ], [ -3.6369853, 31.1003831 ], [ -3.6485106, 31.1284279 ], [ -3.647166, 31.1401453 ], [ -3.6400588, 31.1485971 ], [ -3.6346803, 31.1399532 ], [ -3.6371774, 31.1261229 ], [ -3.6358328, 31.1169027 ], [ -3.6294939, 31.1059537 ], [ -3.6193133, 31.1186314 ], [ -3.6148953, 31.1217049 ], [ -3.6141269, 31.1096033 ], [ -3.6043304, 31.0986543 ], [ -3.6072117, 31.0940442 ], [ -3.6014491, 31.0763721 ], [ -3.5908843, 31.0756038 ], [ -3.5912685, 31.0558187 ], [ -3.5874949, 31.0568949 ], [ -3.5778223, 31.0492878 ], [ -3.5730201, 31.0496719 ], [ -3.5593819, 31.0562029 ], [ -3.559574, 31.060813 ], [ -3.5472804, 31.0613893 ], [ -3.5492012, 31.0508245 ], [ -3.5476645, 31.0439093 ], [ -3.5397889, 31.0377625 ], [ -3.5349867, 31.0035709 ], [ -3.5376528, 31.000096 ], [ -3.5372257, 30.9936895 ], [ -3.5393612, 30.9838663 ], [ -3.5414967, 30.977887 ], [ -3.5355173, 30.9748973 ], [ -3.5370122, 30.9704128 ], [ -3.5470315, 30.9689517 ], [ -3.5471501, 30.9686129 ], [ -3.5457676, 30.9648606 ], [ -3.5417102, 30.9603761 ], [ -3.5372257, 30.9612303 ], [ -3.5376528, 30.9550374 ], [ -3.5446999, 30.9546103 ], [ -3.5429915, 30.9488445 ], [ -3.5647734, 30.9274897 ], [ -3.5639134, 30.9297011 ], [ -3.5661459, 30.93166 ], [ -3.5722456, 30.9301351 ], [ -3.5735799, 30.9246072 ], [ -3.5756767, 30.9196512 ], [ -3.5813952, 30.9162201 ], [ -3.5833014, 30.9125984 ], [ -3.5837914, 30.9084944 ], [ -3.5848263, 30.8998271 ], [ -3.6141812, 30.8657068 ], [ -3.620296, 30.8631942 ], [ -3.6393016, 30.852748 ], [ -3.6480571, 30.8495447 ], [ -3.6505889, 30.8439766 ], [ -3.6502077, 30.8359707 ], [ -3.6570261, 30.7935952 ], [ -3.658948, 30.7844126 ], [ -3.6572605, 30.7734486 ], [ -3.6538294, 30.769255 ], [ -3.6489113, 30.7679695 ], [ -3.6429319, 30.7728811 ], [ -3.6360984, 30.7715998 ], [ -3.6202809, 30.7421875 ], [ -3.6170404, 30.7318942 ], [ -3.6258088, 30.7261757 ], [ -3.6292399, 30.7221728 ], [ -3.6374345, 30.6990463 ], [ -3.8409815, 30.6275798 ], [ -3.9833797, 30.595876 ], [ -4.1484412, 30.584623 ], [ -4.3229213, 30.5281968 ], [ -4.5997217, 30.2887147 ], [ -4.9352103, 30.140328 ], [ -5.1030163, 30.0231494 ], [ -5.1197354, 30.0114745 ], [ -5.132565, 30.0442123 ], [ -5.1326551, 30.0441761 ], [ -5.1522522, 30.0935555 ], [ -5.1922541, 30.1314335 ], [ -5.214879, 30.195797 ], [ -5.2082548, 30.3093815 ], [ -5.211195, 30.3975086 ], [ -5.2000728, 30.4490166 ], [ -5.2008119, 30.6133156 ], [ -5.2505412, 30.6721935 ], [ -5.3381748, 30.8040924 ], [ -5.3590779, 30.9112148 ], [ -5.3290029, 31.0379448 ], [ -5.3064332, 31.1889782 ], [ -5.264504, 31.273035 ], [ -5.240221, 31.3490467 ], [ -5.2354002, 31.4083977 ], [ -5.2546811, 31.4634972 ], [ -5.3094888, 31.5058022 ], [ -5.3872361, 31.5264282 ], [ -5.4599242, 31.5643215 ], [ -5.501863, 31.6164646 ], [ -5.6413088, 31.6490517 ], [ -5.7129321, 31.6346474 ], [ -5.7847328, 31.643528 ], [ -5.785696, 31.6856346 ], [ -5.682157, 31.774334 ], [ -5.5739331, 31.8751736 ], [ -5.5307641, 31.9396038 ], [ -5.6578498, 32.0228615 ], [ -5.7039881, 32.0334015 ], [ -5.7698908, 31.9933681 ], [ -5.8093662, 31.9850502 ], [ -5.8185401, 32.112278 ], [ -5.7917638, 32.1623154 ], [ -5.7331071, 32.1823006 ], [ -5.6625161, 32.2606239 ], [ -5.6012959, 32.2704391 ], [ -5.5507379, 32.260231 ], [ -5.528955, 32.2946892 ], [ -5.5550351, 32.3132858 ], [ -5.5319238, 32.3582344 ], [ -5.5439572, 32.3766632 ], [ -5.5007062, 32.4505692 ], [ -5.5510368, 32.524292 ], [ -5.573195, 32.5766411 ], [ -5.632174, 32.5814743 ], [ -5.6829062, 32.6186104 ], [ -5.712646, 32.6230659 ], [ -5.772223, 32.6008835 ], [ -5.7852011, 32.6585884 ], [ -5.8379912, 32.7089462 ], [ -5.8754082, 32.7125359 ], [ -5.892776, 32.7433167 ], [ -5.9374981, 32.7652321 ], [ -5.9990902, 32.7571335 ], [ -6.0194411, 32.7751427 ], [ -6.0208001, 32.8226776 ], [ -6.0423002, 32.9023743 ], [ -6.1083989, 32.8915329 ], [ -6.140388, 32.901844 ], [ -6.138135, 32.9397583 ], [ -6.0762248, 32.958416 ], [ -6.0834522, 32.9826965 ], [ -6.1273732, 32.9986076 ], [ -6.1360469, 33.0352325 ], [ -6.1924548, 33.0580864 ], [ -6.2388349, 33.0959091 ], [ -6.278554, 33.1071739 ], [ -6.2901802, 33.1337585 ], [ -6.3881979, 33.16185 ], [ -6.3978481, 33.1765327 ], [ -6.3614159, 33.2388878 ], [ -6.3871212, 33.2806358 ], [ -6.377604, 33.3349304 ], [ -6.3494902, 33.3849983 ], [ -6.2615738, 33.3971367 ], [ -6.2305708, 33.3813553 ], [ -6.1408691, 33.3705444 ], [ -6.10642, 33.2711258 ], [ -6.0361652, 33.2522011 ], [ -5.9761949, 33.2991028 ], [ -5.9382291, 33.3092079 ], [ -5.8135099, 33.2786026 ], [ -5.7903848, 33.2856331 ], [ -5.7699709, 33.3438149 ], [ -5.7856321, 33.3791504 ], [ -5.7889242, 33.4540558 ], [ -5.7782521, 33.5625534 ], [ -5.7592592, 33.6234665 ], [ -5.7447252, 33.7478523 ], [ -5.7471099, 33.7857475 ], [ -5.7849932, 33.8149834 ], [ -5.821146, 33.8720322 ], [ -5.8269882, 33.9045029 ], [ -5.772923, 33.9471397 ], [ -5.7819381, 33.9846725 ], [ -5.8595128, 34.0454788 ], [ -5.880197, 34.1480293 ], [ -5.923295, 34.1750908 ], [ -5.8504481, 34.2051811 ], [ -5.8525429, 34.2312393 ], [ -5.8164182, 34.2540321 ], [ -5.7197099, 34.2197571 ], [ -5.7417669, 34.1844749 ], [ -5.6007748, 34.1517754 ], [ -5.5807781, 34.0967216 ], [ -5.4500279, 34.2204742 ], [ -5.4460158, 34.2587013 ], [ -5.4046302, 34.268013 ] ] ] ] } },
{ "type": "Feature", "properties": { "POLYGON_ID": "MAR_GAUL1995_ADM1_2109", "ADM0_ISO3": "MAR", "ADM0_NAME": "Morocco", "ADM0_CODE": 169, "ADM1_NAME": "Oriental", "ADM1_CODE": 2109, "GEOSET": "GAUL", "GEOSET_YEAR": 1995.0, "GEOSET_VERSION": "GAUL_v1", "GEOSET_UNIT": "ADM1", "CENTROID_LONG": -2.5662130661303597, "CENTROID_LAT": 33.437578917939724 }, "geometry": { "type": "MultiPolygon", "coordinates": [ [ [ [ -2.9672404, 35.3272898 ], [ -2.9712404, 35.2903498 ], [ -2.9608404, 35.2814398 ], [ -2.9156864, 35.2477755 ], [ -2.9244603, 35.1848485 ], [ -2.8981166, 35.1436817 ], [ -2.8109212, 35.1023298 ], [ -2.7543327, 35.098245 ], [ -2.725215, 35.1188479 ], [ -2.6299293, 35.0872641 ], [ -2.5646168, 35.0812648 ], [ -2.4813114, 35.1043232 ], [ -2.4244064, 35.1474972 ], [ -2.2097432, 35.0846031 ], [ -2.2124, 35.07974 ], [ -2.21298, 35.05864 ], [ -2.2113763, 35.0563074 ], [ -2.20825, 35.05176 ], [ -2.18766, 35.03935 ], [ -2.1771, 35.02305 ], [ -2.12524, 34.99701 ], [ -2.119328, 34.9895167 ], [ -2.079145, 34.9550171 ], [ -2.05156, 34.93913 ], [ -2.040566, 34.9351464 ], [ -2.03329, 34.93251 ], [ -1.98108, 34.93401 ], [ -1.9797049, 34.9234373 ], [ -1.97085, 34.88203 ], [ -1.96298, 34.87479 ], [ -1.90749, 34.85092 ], [ -1.89919, 34.84654 ], [ -1.8928643, 34.8295763 ], [ -1.88967, 34.82101 ], [ -1.88277, 34.8122 ], [ -1.8131464, 34.782408 ], [ -1.80927, 34.78015 ], [ -1.8090462, 34.7800603 ], [ -1.7649397, 34.7623897 ], [ -1.7453901, 34.7531798 ], [ -1.74746, 34.74789 ], [ -1.77652, 34.70869 ], [ -1.8102573, 34.668967 ], [ -1.8472, 34.62547 ], [ -1.84656, 34.62128 ], [ -1.83696, 34.62217 ], [ -1.82395, 34.61631 ], [ -1.7738109, 34.5497311 ], [ -1.76437, 34.54036 ], [ -1.760287, 34.5378713 ], [ -1.75702, 34.53588 ], [ -1.752836, 34.5291933 ], [ -1.7494317, 34.5237528 ], [ -1.73297, 34.51391 ], [ -1.6921446, 34.4971962 ], [ -1.7743373, 34.4044904 ], [ -1.753698, 34.3507795 ], [ -1.7044727, 34.310067 ], [ -1.7049071, 34.3032602 ], [ -1.7104105, 34.2906603 ], [ -1.7073692, 34.2718329 ], [ -1.7121501, 34.2572071 ], [ -1.7134123, 34.2486854 ], [ -1.7124072, 34.2379757 ], [ -1.7083043, 34.2269594 ], [ -1.6651559, 34.1444983 ], [ -1.6458095, 34.1038439 ], [ -1.6972725, 33.8704593 ], [ -1.6682733, 33.7727545 ], [ -1.7278331, 33.7343864 ], [ -1.7333298, 33.713606 ], [ -1.736979, 33.6998105 ], [ -1.7097644, 33.6879878 ], [ -1.7057491, 33.6786188 ], [ -1.70218, 33.6763881 ], [ -1.6504277, 33.6799573 ], [ -1.6466355, 33.6777266 ], [ -1.632359, 33.6382431 ], [ -1.6274515, 33.6279819 ], [ -1.6234362, 33.6241897 ], [ -1.6127288, 33.6199514 ], [ -1.6029137, 33.6195052 ], [ -1.599161, 33.5471717 ], [ -1.5865633, 33.5291245 ], [ -1.6196177, 33.4873482 ], [ -1.6264366, 33.4314613 ], [ -1.6617965, 33.3772615 ], [ -1.6580004, 33.3004258 ], [ -1.6688966, 33.2817266 ], [ -1.6645671, 33.2698554 ], [ -1.664352, 33.2695638 ], [ -1.663745, 33.2688718 ], [ -1.6610232, 33.2657689 ], [ -1.6556103, 33.2552242 ], [ -1.6438705, 33.2489677 ], [ -1.6374031, 33.2368062 ], [ -1.62624, 33.2201357 ], [ -1.6146154, 33.2164967 ], [ -1.604507, 33.2101285 ], [ -1.5808808, 33.1699315 ], [ -1.5777198, 33.1595866 ], [ -1.5743904, 33.1498491 ], [ -1.5726701, 33.1459503 ], [ -1.5557847, 33.1301713 ], [ -1.5417789, 33.1200195 ], [ -1.5354044, 33.1135795 ], [ -1.5356135, 33.1108603 ], [ -1.5340757, 33.1080409 ], [ -1.5162588, 33.0983949 ], [ -1.4987221, 33.0921045 ], [ -1.4840447, 33.0816206 ], [ -1.482354, 33.0809522 ], [ -1.4758482, 33.0783802 ], [ -1.4611707, 33.043688 ], [ -1.4638394, 33.0360633 ], [ -1.4695579, 33.0314886 ], [ -1.4741326, 33.0211953 ], [ -1.4733839, 33.0060332 ], [ -1.4733702, 33.0057554 ], [ -1.4705109, 33.0038492 ], [ -1.4722265, 33.0002275 ], [ -1.4809948, 32.9784972 ], [ -1.4882382, 32.9723975 ], [ -1.4931251, 32.9660691 ], [ -1.5084798, 32.9691306 ], [ -1.5297926, 32.9609605 ], [ -1.5431357, 32.9584825 ], [ -1.5400747, 32.9543856 ], [ -1.5133588, 32.9186278 ], [ -1.4789563, 32.872582 ], [ -1.3814932, 32.7421331 ], [ -1.3651377, 32.7352699 ], [ -1.2888015, 32.7032371 ], [ -1.268839, 32.6948603 ], [ -1.0284719, 32.5377925 ], [ -1.0018995, 32.5208205 ], [ -1.001497, 32.5205634 ], [ -0.9989264, 32.5189215 ], [ -0.9978453, 32.5152043 ], [ -1.0014044, 32.5063408 ], [ -1.0164603, 32.4968206 ], [ -1.0615062, 32.4520039 ], [ -1.0735414, 32.4462729 ], [ -1.0955485, 32.4353839 ], [ -1.0981848, 32.4264435 ], [ -1.1091884, 32.4259851 ], [ -1.1175557, 32.4232342 ], [ -1.1207651, 32.4209417 ], [ -1.1220259, 32.4155546 ], [ -1.1318577, 32.4117966 ], [ -1.1373144, 32.4144615 ], [ -1.1402117, 32.4158764 ], [ -1.1454571, 32.4167183 ], [ -1.2053637, 32.3927335 ], [ -1.2211849, 32.341839 ], [ -1.2490149, 32.3244929 ], [ -1.2476806, 32.3178213 ], [ -1.2448213, 32.3151527 ], [ -1.2368154, 32.3126747 ], [ -1.2347186, 32.2892289 ], [ -1.2423433, 32.2692142 ], [ -1.2423433, 32.257396 ], [ -1.2469181, 32.2530118 ], [ -1.2474899, 32.2432904 ], [ -1.2449873, 32.2330522 ], [ -1.2432964, 32.2261349 ], [ -1.2421527, 32.2085982 ], [ -1.2404371, 32.2047859 ], [ -1.2566395, 32.1998299 ], [ -1.2667422, 32.1889648 ], [ -1.2898067, 32.1739061 ], [ -1.2957158, 32.1725718 ], [ -1.3001, 32.1659002 ], [ -1.2953346, 32.1611348 ], [ -1.2848507, 32.1592286 ], [ -1.27227, 32.1636128 ], [ -1.2654079, 32.1617066 ], [ -1.2556864, 32.1657096 ], [ -1.2472993, 32.1651377 ], [ -1.2303345, 32.1725718 ], [ -1.2244254, 32.1748592 ], [ -1.2150852, 32.1752404 ], [ -1.1832523, 32.1659002 ], [ -1.1531349, 32.1108121 ], [ -1.1619032, 32.1102403 ], [ -1.1676217, 32.1064279 ], [ -1.1817273, 32.1029968 ], [ -1.2013608, 32.0858414 ], [ -1.2318594, 32.0793604 ], [ -1.2590641, 32.0756568 ], [ -1.2707415, 32.0854765 ], [ -1.335498, 32.0820263 ], [ -1.3474408, 32.0886612 ], [ -1.3729188, 32.0883958 ], [ -1.3774305, 32.0844149 ], [ -1.3960082, 32.0854765 ], [ -1.415382, 32.0870688 ], [ -1.4220169, 32.0897228 ], [ -1.4305096, 32.0886612 ], [ -1.4360829, 32.0929075 ], [ -1.4498835, 32.0921113 ], [ -1.4581107, 32.0939691 ], [ -1.4785462, 32.0952961 ], [ -1.5796618, 32.0923767 ], [ -1.5990357, 32.0947653 ], [ -1.6157556, 32.1008694 ], [ -1.6452145, 32.1088313 ], [ -1.6600766, 32.1088313 ], [ -1.6884739, 32.1159969 ], [ -1.6996206, 32.1157315 ], [ -1.7070516, 32.1138738 ], [ -1.7158097, 32.1152007 ], [ -1.7375721, 32.1228972 ], [ -1.7500457, 32.1218356 ], [ -1.7577421, 32.1239588 ], [ -1.7686234, 32.1308591 ], [ -1.8771701, 32.1510291 ], [ -1.8872551, 32.1534177 ], [ -1.8928284, 32.1608488 ], [ -1.9100791, 32.1645643 ], [ -1.9198988, 32.1627065 ], [ -1.9225527, 32.1550101 ], [ -1.9291876, 32.1507637 ], [ -1.9381573, 32.157491 ], [ -1.9387418, 32.1579294 ], [ -1.9748356, 32.1592564 ], [ -1.9838591, 32.1714646 ], [ -1.9997828, 32.1767725 ], [ -2.0162373, 32.1757109 ], [ -2.1367268, 32.1388209 ], [ -2.1595508, 32.1396171 ], [ -2.1908675, 32.1438634 ], [ -2.2338615, 32.1571332 ], [ -2.328087, 32.1554982 ], [ -2.3628437, 32.1581948 ], [ -2.3973451, 32.157664 ], [ -2.4477703, 32.1600526 ], [ -2.4740444, 32.1528869 ], [ -2.4878388, 32.1514811 ], [ -2.5157115, 32.1486406 ], [ -2.5345546, 32.1481098 ], [ -2.5388009, 32.1459866 ], [ -2.5560138, 32.1298013 ], [ -2.5937377, 32.1114852 ], [ -2.6317741, 32.1172733 ], [ -2.6425705, 32.1189163 ], [ -2.6866261, 32.11467 ], [ -2.7399706, 32.1138738 ], [ -2.9030218, 32.1190895 ], [ -2.9050888, 32.1115746 ], [ -2.9280137, 32.0282147 ], [ -2.9112918, 32.0012823 ], [ -2.9063736, 31.996569 ], [ -2.8433843, 31.8839134 ], [ -2.8245753, 31.8003597 ], [ -3.1364186, 31.7387538 ], [ -3.1610988, 31.7338781 ], [ -3.2636665, 31.7136154 ], [ -3.264447, 31.7166233 ], [ -3.264492, 31.7166138 ], [ -3.2722459, 31.7486572 ], [ -3.2833929, 31.8416786 ], [ -3.2960141, 31.9010181 ], [ -3.296262, 31.9835548 ], [ -3.284951, 32.0506859 ], [ -3.243983, 32.1187248 ], [ -3.253041, 32.1440048 ], [ -3.4628479, 32.1767273 ], [ -3.5573239, 32.1846886 ], [ -3.6684611, 32.1768036 ], [ -3.6867061, 32.200634 ], [ -3.6688731, 32.2331848 ], [ -3.7537429, 32.2866173 ], [ -3.847837, 32.3035126 ], [ -3.869874, 32.3901405 ], [ -3.9137671, 32.4734154 ], [ -3.9861331, 32.5908051 ], [ -4.0540471, 32.6375885 ], [ -4.0498509, 32.661087 ], [ -4.0032129, 32.7272263 ], [ -3.9444239, 32.7815437 ], [ -3.8412969, 32.9450378 ], [ -3.805249, 32.9918633 ], [ -3.7265379, 33.0579491 ], [ -3.675993, 33.0832558 ], [ -3.6031721, 33.0926514 ], [ -3.446785, 33.0935211 ], [ -3.3518701, 33.0808296 ], [ -3.220305, 33.094429 ], [ -3.1075931, 33.1331406 ], [ -2.9992721, 33.1586609 ], [ -2.969074, 33.227005 ], [ -3.0003891, 33.2822075 ], [ -3.0627079, 33.3401756 ], [ -3.1360519, 33.4254837 ], [ -3.238198, 33.4846458 ], [ -3.2573271, 33.5381393 ], [ -3.222831, 33.5951462 ], [ -3.1386039, 33.6819267 ], [ -3.1204281, 33.7316208 ], [ -3.1264019, 33.8100815 ], [ -3.1615739, 33.8643646 ], [ -3.264802, 33.9640999 ], [ -3.2499571, 34.0166893 ], [ -3.137922, 34.0526924 ], [ -3.1152611, 34.0714302 ], [ -3.087966, 34.1445274 ], [ -3.1299551, 34.1745453 ], [ -3.131259, 34.2661743 ], [ -3.2302101, 34.3461685 ], [ -3.2251041, 34.3940048 ], [ -3.1558671, 34.4260216 ], [ -3.0798199, 34.4885788 ], [ -3.070811, 34.5689545 ], [ -2.9873829, 34.6073532 ], [ -2.9700949, 34.645195 ], [ -3.0775199, 34.7067413 ], [ -3.1098411, 34.7058029 ], [ -3.166537, 34.7547035 ], [ -3.293788, 34.756382 ], [ -3.321104, 34.6957359 ], [ -3.441432, 34.6457329 ], [ -3.474026, 34.6152191 ], [ -3.4974861, 34.5504837 ], [ -3.5658331, 34.5656929 ], [ -3.603523, 34.6120682 ], [ -3.6131811, 34.6093483 ], [ -3.6325691, 34.6682777 ], [ -3.574271, 34.6999588 ], [ -3.608638, 34.7235527 ], [ -3.584852, 34.7571754 ], [ -3.5929489, 34.8310585 ], [ -3.636091, 34.8265152 ], [ -3.676733, 34.8479233 ], [ -3.729898, 34.8425446 ], [ -3.7969699, 34.8934174 ], [ -3.792608, 34.999485 ], [ -3.8109801, 35.1108475 ], [ -3.797575, 35.174614 ], [ -3.8057497, 35.2028506 ], [ -3.7709936, 35.2225728 ], [ -3.7502387, 35.2740896 ], [ -3.7095979, 35.287861 ], [ -3.5866658, 35.2257929 ], [ -3.4747397, 35.1981751 ], [ -3.3350554, 35.1855359 ], [ -3.3050727, 35.2037327 ], [ -3.1652023, 35.2458933 ], [ -3.1336264, 35.2847371 ], [ -3.1027565, 35.2729267 ], [ -3.0518444, 35.313839 ], [ -2.9963459, 35.4145867 ], [ -2.9707789, 35.3672989 ], [ -2.9672404, 35.3272898 ] ] ] ] } }
]
}
