{
"type": "FeatureCollection",
"name": "MAR_GAUL2011_ADM0",
"crs": { "type": "name", "properties": { "name": "urn:ogc:def:crs:OGC:1.3:CRS84" } },
"features": [
{ "type": "Feature", "properties": { "POLYGON_ID": "MAR_GAUL2011_ADM0_169", "ADM0_ISO3": "MAR", "ADM0_NAME": "Morocco", "ADM0_CODE": 169, "GEOSET": "GAUL", "GEOSET_YEAR": 2011.0, "GEOSET_VERSION": "GAUL_v1", "GEOSET_UNIT": "ADM0", "CENTROID_LONG": -6.2814997334583129, "CENTROID_LAT": 31.841787352429169 }, "geometry": { "type": "MultiPolygon", "coordinates": [ [ [ [ -5.3606304, 35.8909198 ], [ -5.3381921, 35.8780973 ], [ -5.3533499, 35.8464172 ], [ -5.3484071, 35.7835071 ], [ -5.335428, 35.7175622 ], [ -5.3197322, 35.6829202 ], [ -5.2840618, 35.6661987 ], [ -5.2443867, 35.5548147 ], [ -5.2134809, 35.538019 ], [ -5.1731594, 35.5313801 ], [ -5.1531636, 35.5045778 ], [ -5.1064776, 35.4772141 ], [ -5.0576593, 35.4051003 ], [ -5.0157689, 35.4016177 ], [ -4.9260438, 35.3167526 ], [ -4.8683317, 35.3017282 ], [ -4.8171963, 35.2575429 ], [ -4.7535435, 35.2255932 ], [ -4.6798328, 35.2044125 ], [ -4.6491271, 35.2108731 ], [ -4.615047, 35.1894915 ], [ -4.5919281, 35.1917247 ], [ -4.5199393, 35.1751767 ], [ -4.4921021, 35.1760368 ], [ -4.4253738, 35.1542279 ], [ -4.3548351, 35.1474595 ], [ -4.2500572, 35.1884135 ], [ -4.1116319, 35.2062095 ], [ -4.0905126, 35.2189933 ], [ -4.0237302, 35.2373076 ], [ -3.9811174, 35.2359902 ], [ -3.9275744, 35.2616577 ], [ -3.9072504, 35.2137495 ], [ -3.8465102, 35.1968796 ], [ -3.8058473, 35.2028168 ], [ -3.7709936, 35.2225728 ], [ -3.7502387, 35.2740896 ], [ -3.7095979, 35.287861 ], [ -3.6657899, 35.2694725 ], [ -3.5866658, 35.2257929 ], [ -3.5378001, 35.2182133 ], [ -3.4747397, 35.1981751 ], [ -3.3350554, 35.1855359 ], [ -3.3050727, 35.2037327 ], [ -3.2199701, 35.2262751 ], [ -3.1652023, 35.2458933 ], [ -3.1336264, 35.2847371 ], [ -3.1027565, 35.2729267 ], [ -3.0518444, 35.313839 ], [ -2.9963459, 35.4145867 ], [ -2.9944614, 35.4310333 ], [ -2.9552117, 35.4351369 ], [ -2.9707789, 35.3672989 ], [ -2.9672404, 35.3272898 ], [ -2.9752204, 35.3027198 ], [ -2.9608404, 35.2814398 ], [ -2.9369704, 35.282839 ], [ -2.9156864, 35.2477755 ], [ -2.9244603, 35.1848485 ], [ -2.8981166, 35.1436817 ], [ -2.8109212, 35.1023298 ], [ -2.7543327, 35.098245 ], [ -2.725215, 35.1188479 ], [ -2.6899056, 35.1013098 ], [ -2.6299293, 35.0872641 ], [ -2.5646168, 35.0812648 ], [ -2.4813114, 35.1043232 ], [ -2.4244064, 35.1474972 ], [ -2.3944468, 35.1339996 ], [ -2.2925292, 35.1105566 ], [ -2.2097432, 35.0846031 ], [ -2.2124, 35.07974 ], [ -2.21298, 35.05864 ], [ -2.2113763, 35.0563074 ], [ -2.20825, 35.05176 ], [ -2.18766, 35.03935 ], [ -2.1771, 35.02305 ], [ -2.12524, 34.99701 ], [ -2.119328, 34.9895167 ], [ -2.079145, 34.9550171 ], [ -2.05156, 34.93913 ], [ -2.040566, 34.9351464 ], [ -2.03329, 34.93251 ], [ -1.98108, 34.93401 ], [ -1.9797049, 34.9234373 ], [ -1.97085, 34.88203 ], [ -1.96298, 34.87479 ], [ -1.90749, 34.85092 ], [ -1.89919, 34.84654 ], [ -1.8928643, 34.8295763 ], [ -1.88967, 34.82101 ], [ -1.88277, 34.8122 ], [ -1.85341, 34.80659 ], [ -1.8131464, 34.782408 ], [ -1.80927, 34.78015 ], [ -1.8090462, 34.7800603 ], [ -1.7649397, 34.7623897 ], [ -1.7453901, 34.7531798 ], [ -1.74746, 34.74789 ], [ -1.77593, 34.73277 ], [ -1.77652, 34.70869 ], [ -1.8102573, 34.668967 ], [ -1.8472, 34.62547 ], [ -1.84656, 34.62128 ], [ -1.83696, 34.62217 ], [ -1.82395, 34.61631 ], [ -1.7738109, 34.5497311 ], [ -1.76437, 34.54036 ], [ -1.760287, 34.5378713 ], [ -1.75702, 34.53588 ], [ -1.752836, 34.5291933 ], [ -1.7494317, 34.5237528 ], [ -1.73297, 34.51391 ], [ -1.6921446, 34.4971962 ], [ -1.7743373, 34.4044904 ], [ -1.77947, 34.38397 ], [ -1.753698, 34.3507795 ], [ -1.7044727, 34.310067 ], [ -1.7049071, 34.3032602 ], [ -1.7104105, 34.2906603 ], [ -1.7073692, 34.2718329 ], [ -1.7121501, 34.2572071 ], [ -1.7134123, 34.2486854 ], [ -1.7124072, 34.2379757 ], [ -1.7083043, 34.2269594 ], [ -1.6651559, 34.1444983 ], [ -1.6452508, 34.1064574 ], [ -1.6972725, 33.8704593 ], [ -1.6682733, 33.7727545 ], [ -1.7278331, 33.7343864 ], [ -1.7333298, 33.713606 ], [ -1.736979, 33.6998105 ], [ -1.7097644, 33.6879878 ], [ -1.7057491, 33.6786188 ], [ -1.70218, 33.6763881 ], [ -1.6504277, 33.6799573 ], [ -1.6466355, 33.6777266 ], [ -1.632359, 33.6382431 ], [ -1.6274515, 33.6279819 ], [ -1.6234362, 33.6241897 ], [ -1.6127288, 33.6199514 ], [ -1.6029137, 33.6195052 ], [ -1.5933217, 33.6054518 ], [ -1.599161, 33.5471717 ], [ -1.5865633, 33.5291245 ], [ -1.6196177, 33.4873482 ], [ -1.6264366, 33.4314613 ], [ -1.645256, 33.4207458 ], [ -1.6617965, 33.3772615 ], [ -1.6580004, 33.3004258 ], [ -1.6688966, 33.2817266 ], [ -1.6645671, 33.2698554 ], [ -1.664352, 33.2695638 ], [ -1.663745, 33.2688718 ], [ -1.6610232, 33.2657689 ], [ -1.6556103, 33.2552242 ], [ -1.6438705, 33.2489677 ], [ -1.6374031, 33.2368062 ], [ -1.62624, 33.2201357 ], [ -1.6146154, 33.2164967 ], [ -1.604507, 33.2101285 ], [ -1.5808808, 33.1699315 ], [ -1.5777198, 33.1595866 ], [ -1.5743904, 33.1498491 ], [ -1.5726701, 33.1459503 ], [ -1.5557847, 33.1301713 ], [ -1.5417789, 33.1200195 ], [ -1.5354044, 33.1135795 ], [ -1.5356135, 33.1108603 ], [ -1.5340757, 33.1080409 ], [ -1.5162588, 33.0983949 ], [ -1.4987221, 33.0921045 ], [ -1.4840447, 33.0816206 ], [ -1.482354, 33.0809522 ], [ -1.4758482, 33.0783802 ], [ -1.4611707, 33.043688 ], [ -1.4638394, 33.0360633 ], [ -1.4695579, 33.0314886 ], [ -1.4741326, 33.0211953 ], [ -1.4733839, 33.0060332 ], [ -1.4733702, 33.0057554 ], [ -1.4705109, 33.0038492 ], [ -1.4722265, 33.0002275 ], [ -1.4809948, 32.9784972 ], [ -1.4882382, 32.9723975 ], [ -1.4931251, 32.9660691 ], [ -1.5084798, 32.9691306 ], [ -1.5297926, 32.9609605 ], [ -1.5431357, 32.9584825 ], [ -1.5400747, 32.9543856 ], [ -1.5133588, 32.9186278 ], [ -1.4789563, 32.872582 ], [ -1.3814932, 32.7421331 ], [ -1.3651377, 32.7352699 ], [ -1.2888015, 32.7032371 ], [ -1.268839, 32.6948603 ], [ -1.0284719, 32.5377925 ], [ -1.0018995, 32.5208205 ], [ -1.001497, 32.5205634 ], [ -0.9989264, 32.5189215 ], [ -0.9978453, 32.5152043 ], [ -1.0014044, 32.5063408 ], [ -1.0164603, 32.4968206 ], [ -1.0615062, 32.4520039 ], [ -1.0735414, 32.4462729 ], [ -1.0955485, 32.4353839 ], [ -1.0981848, 32.4264435 ], [ -1.1091884, 32.4259851 ], [ -1.1175557, 32.4232342 ], [ -1.1207651, 32.4209417 ], [ -1.1220259, 32.4155546 ], [ -1.1318577, 32.4117966 ], [ -1.1373144, 32.4144615 ], [ -1.1402117, 32.4158764 ], [ -1.1454571, 32.4167183 ], [ -1.2053637, 32.3927335 ], [ -1.2211849, 32.341839 ], [ -1.2490149, 32.3244929 ], [ -1.2476806, 32.3178213 ], [ -1.2448213, 32.3151527 ], [ -1.2368154, 32.3126747 ], [ -1.2347186, 32.2892289 ], [ -1.2423433, 32.2692142 ], [ -1.2423433, 32.257396 ], [ -1.2469181, 32.2530118 ], [ -1.2474899, 32.2432904 ], [ -1.2449873, 32.2330522 ], [ -1.2432964, 32.2261349 ], [ -1.2421527, 32.2085982 ], [ -1.2404371, 32.2047859 ], [ -1.2566395, 32.1998299 ], [ -1.2667422, 32.1889648 ], [ -1.2898067, 32.1739061 ], [ -1.2957158, 32.1725718 ], [ -1.3001, 32.1659002 ], [ -1.2953346, 32.1611348 ], [ -1.2848507, 32.1592286 ], [ -1.27227, 32.1636128 ], [ -1.2654079, 32.1617066 ], [ -1.2556864, 32.1657096 ], [ -1.2472993, 32.1651377 ], [ -1.2303345, 32.1725718 ], [ -1.2244254, 32.1748592 ], [ -1.2150852, 32.1752404 ], [ -1.1832523, 32.1659002 ], [ -1.1531349, 32.1108121 ], [ -1.1619032, 32.1102403 ], [ -1.1676217, 32.1064279 ], [ -1.1817273, 32.1029968 ], [ -1.2013608, 32.0858414 ], [ -1.2318594, 32.0793604 ], [ -1.2590641, 32.0756568 ], [ -1.2707415, 32.0854765 ], [ -1.335498, 32.0820263 ], [ -1.3474408, 32.0886612 ], [ -1.3729188, 32.0883958 ], [ -1.3774305, 32.0844149 ], [ -1.3960082, 32.0854765 ], [ -1.415382, 32.0870688 ], [ -1.4220169, 32.0897228 ], [ -1.4305096, 32.0886612 ], [ -1.4360829, 32.0929075 ], [ -1.4498835, 32.0921113 ], [ -1.4581107, 32.0939691 ], [ -1.4785462, 32.0952961 ], [ -1.5796618, 32.0923767 ], [ -1.5990357, 32.0947653 ], [ -1.6157556, 32.1008694 ], [ -1.6452145, 32.1088313 ], [ -1.6600766, 32.1088313 ], [ -1.6884739, 32.1159969 ], [ -1.6996206, 32.1157315 ], [ -1.7070516, 32.1138738 ], [ -1.7158097, 32.1152007 ], [ -1.7375721, 32.1228972 ], [ -1.7500457, 32.1218356 ], [ -1.7577421, 32.1239588 ], [ -1.7686234, 32.1308591 ], [ -1.824091, 32.147579 ], [ -1.8771701, 32.1510291 ], [ -1.8872551, 32.1534177 ], [ -1.8928284, 32.1608488 ], [ -1.9100791, 32.1645643 ], [ -1.9198988, 32.1627065 ], [ -1.9225527, 32.1550101 ], [ -1.9291876, 32.1507637 ], [ -1.9381573, 32.157491 ], [ -1.9387418, 32.1579294 ], [ -1.9748356, 32.1592564 ], [ -1.9838591, 32.1714646 ], [ -1.9997828, 32.1767725 ], [ -2.0162373, 32.1757109 ], [ -2.0430422, 32.1635027 ], [ -2.1367268, 32.1388209 ], [ -2.1595508, 32.1396171 ], [ -2.1908675, 32.1438634 ], [ -2.2338615, 32.1571332 ], [ -2.268363, 32.1621757 ], [ -2.328087, 32.1554982 ], [ -2.3628437, 32.1581948 ], [ -2.3973451, 32.157664 ], [ -2.4477703, 32.1600526 ], [ -2.4740444, 32.1528869 ], [ -2.4878388, 32.1514811 ], [ -2.5157115, 32.1486406 ], [ -2.5345546, 32.1481098 ], [ -2.5388009, 32.1459866 ], [ -2.5560138, 32.1298013 ], [ -2.5937377, 32.1114852 ], [ -2.6317741, 32.1172733 ], [ -2.6425705, 32.1189163 ], [ -2.6866261, 32.11467 ], [ -2.7399706, 32.1138738 ], [ -2.8360438, 32.1138738 ], [ -2.9030218, 32.1190895 ], [ -2.9050888, 32.1115746 ], [ -2.9164586, 32.0976846 ], [ -2.9280137, 32.0282147 ], [ -2.9112918, 32.0012823 ], [ -2.9063736, 31.996569 ], [ -2.8831459, 31.9625776 ], [ -2.8713497, 31.9234363 ], [ -2.8433843, 31.8839134 ], [ -2.8419784, 31.8359175 ], [ -2.8245753, 31.8003597 ], [ -3.1364186, 31.7387538 ], [ -3.1610988, 31.7338781 ], [ -3.6664722, 31.6340395 ], [ -3.6682865, 31.4078422 ], [ -3.6684877, 31.3827521 ], [ -3.6802051, 31.3662326 ], [ -3.7332213, 31.3374194 ], [ -3.7628028, 31.3330014 ], [ -3.7626712, 31.3298574 ], [ -3.7581927, 31.3287755 ], [ -3.7839325, 31.2928551 ], [ -3.7849273, 31.2897463 ], [ -3.7825413, 31.2857926 ], [ -3.778754, 31.285767 ], [ -3.7762303, 31.2925457 ], [ -3.7711602, 31.2951312 ], [ -3.7683566, 31.2897395 ], [ -3.7733457, 31.284218 ], [ -3.7626341, 31.276829 ], [ -3.75735, 31.2830115 ], [ -3.7631761, 31.2559785 ], [ -3.7732129, 31.254317 ], [ -3.7740509, 31.2508425 ], [ -3.7603057, 31.1827888 ], [ -3.7708705, 31.1516705 ], [ -3.767605, 31.1217049 ], [ -3.7570402, 31.1259308 ], [ -3.7502894, 31.1257262 ], [ -3.7443624, 31.1255466 ], [ -3.7378314, 31.1234336 ], [ -3.7362947, 31.1470604 ], [ -3.7236169, 31.1451396 ], [ -3.721504, 31.1503259 ], [ -3.6984534, 31.1756815 ], [ -3.699606, 31.1674217 ], [ -3.6967246, 31.165885 ], [ -3.6686798, 31.1532072 ], [ -3.6707928, 31.1051853 ], [ -3.6740583, 31.0928917 ], [ -3.6700244, 31.0888578 ], [ -3.6583071, 31.0905866 ], [ -3.6421717, 31.0902025 ], [ -3.6369853, 31.1003831 ], [ -3.6485106, 31.1284279 ], [ -3.647166, 31.1401453 ], [ -3.6400588, 31.1485971 ], [ -3.6346803, 31.1399532 ], [ -3.6371774, 31.1261229 ], [ -3.6358328, 31.1169027 ], [ -3.6294939, 31.1059537 ], [ -3.6193133, 31.1186314 ], [ -3.6148953, 31.1217049 ], [ -3.6141269, 31.1096033 ], [ -3.6043304, 31.0986543 ], [ -3.6072117, 31.0940442 ], [ -3.6014491, 31.0763721 ], [ -3.5908843, 31.0756038 ], [ -3.5912685, 31.0558187 ], [ -3.5874949, 31.0568949 ], [ -3.5778223, 31.0492878 ], [ -3.5730201, 31.0496719 ], [ -3.5593819, 31.0562029 ], [ -3.559574, 31.060813 ], [ -3.5472804, 31.0613893 ], [ -3.5492012, 31.0508245 ], [ -3.5476645, 31.0439093 ], [ -3.5397889, 31.0377625 ], [ -3.5349867, 31.0035709 ], [ -3.5376528, 31.000096 ], [ -3.5372257, 30.9936895 ], [ -3.5393612, 30.9838663 ], [ -3.5414967, 30.977887 ], [ -3.5355173, 30.9748973 ], [ -3.5370122, 30.9704128 ], [ -3.5470315, 30.9689517 ], [ -3.5471501, 30.9686129 ], [ -3.5457676, 30.9648606 ], [ -3.5417102, 30.9603761 ], [ -3.5372257, 30.9612303 ], [ -3.5376528, 30.9550374 ], [ -3.5446999, 30.9546103 ], [ -3.5429915, 30.9488445 ], [ -3.5647734, 30.9274897 ], [ -3.5639134, 30.9297011 ], [ -3.5661459, 30.93166 ], [ -3.5722456, 30.9301351 ], [ -3.5735799, 30.9246072 ], [ -3.5756767, 30.9196512 ], [ -3.5813952, 30.9162201 ], [ -3.5833014, 30.9125984 ], [ -3.5837914, 30.9084944 ], [ -3.5848263, 30.8998271 ], [ -3.6141812, 30.8657068 ], [ -3.620296, 30.8631942 ], [ -3.6393016, 30.852748 ], [ -3.6480571, 30.8495447 ], [ -3.6505889, 30.8439766 ], [ -3.6502077, 30.8359707 ], [ -3.6570261, 30.7935952 ], [ -3.658948, 30.7844126 ], [ -3.6572605, 30.7734486 ], [ -3.6538294, 30.769255 ], [ -3.6489113, 30.7679695 ], [ -3.6429319, 30.7728811 ], [ -3.6360984, 30.7715998 ], [ -3.6202809, 30.7421875 ], [ -3.6170404, 30.7318942 ], [ -3.6258088, 30.7261757 ], [ -3.6292399, 30.7221728 ], [ -3.6374345, 30.6990463 ], [ -3.8409815, 30.6275798 ], [ -3.9833797, 30.595876 ], [ -4.1484412, 30.584623 ], [ -4.3229213, 30.5281968 ], [ -4.5997217, 30.2887147 ], [ -4.9352103, 30.140328 ], [ -5.1030163, 30.0231494 ], [ -5.1309908, 30.0036149 ], [ -5.1465718, 29.9927347 ], [ -5.2498011, 29.9206499 ], [ -5.2551964, 29.9116725 ], [ -5.2774985, 29.9019511 ], [ -5.3011349, 29.8758367 ], [ -5.3030411, 29.8727868 ], [ -5.3041848, 29.8649715 ], [ -5.3133031, 29.8526387 ], [ -5.3287743, 29.8384759 ], [ -5.3295368, 29.8340917 ], [ -5.323437, 29.8220829 ], [ -5.3219121, 29.7799567 ], [ -5.5025278, 29.5602966 ], [ -5.5548667, 29.4966433 ], [ -5.5674318, 29.4863462 ], [ -5.6109648, 29.4905839 ], [ -5.6420505, 29.4992407 ], [ -5.676883, 29.5313937 ], [ -5.6861463, 29.5390707 ], [ -5.6904374, 29.5362437 ], [ -5.7128467, 29.5171714 ], [ -5.7258116, 29.5199196 ], [ -5.7300914, 29.519344 ], [ -5.7372135, 29.5136047 ], [ -5.7479057, 29.5161754 ], [ -5.7496587, 29.5221974 ], [ -5.7482283, 29.5349627 ], [ -5.7216344, 29.5735193 ], [ -5.7210625, 29.5881968 ], [ -5.7911833, 29.6137463 ], [ -5.8041685, 29.6141398 ], [ -5.8364347, 29.607057 ], [ -5.884047, 29.5940718 ], [ -5.922609, 29.5952523 ], [ -5.9969108, 29.5765736 ], [ -6.0019367, 29.5804397 ], [ -6.0634078, 29.5626556 ], [ -6.1020688, 29.5680682 ], [ -6.1565809, 29.5808263 ], [ -6.1967883, 29.5843058 ], [ -6.2397021, 29.5680682 ], [ -6.2583608, 29.5683597 ], [ -6.2891882, 29.5688414 ], [ -6.2988535, 29.5653619 ], [ -6.3170242, 29.5700012 ], [ -6.3703764, 29.5696146 ], [ -6.3900935, 29.5568565 ], [ -6.4001454, 29.5611092 ], [ -6.423342, 29.5638155 ], [ -6.4627763, 29.5634289 ], [ -6.4681888, 29.5572431 ], [ -6.4840398, 29.5529904 ], [ -6.5230875, 29.5197419 ], [ -6.5516966, 29.5239946 ], [ -6.5690941, 29.5209017 ], [ -6.6000229, 29.5267009 ], [ -6.6135543, 29.5274741 ], [ -6.6255392, 29.5212883 ], [ -6.6491224, 29.5197419 ], [ -6.6639444, 29.51511 ], [ -6.7089905, 29.5083056 ], [ -6.7351043, 29.4851402 ], [ -6.7466721, 29.474826 ], [ -6.775533, 29.4620604 ], [ -6.7991272, 29.4613637 ], [ -6.8354333, 29.4661799 ], [ -6.8598251, 29.4834005 ], [ -6.8849547, 29.4826273 ], [ -6.9064639, 29.5001998 ], [ -6.9306028, 29.4956038 ], [ -6.9671237, 29.4956633 ], [ -6.9992864, 29.5030474 ], [ -7.0234751, 29.492995 ], [ -7.0288154, 29.5005343 ], [ -7.0357264, 29.4967646 ], [ -7.0448365, 29.5002202 ], [ -7.0602292, 29.5011626 ], [ -7.1016955, 29.5231523 ], [ -7.1202296, 29.5256654 ], [ -7.1205437, 29.5196967 ], [ -7.1320233, 29.5194167 ], [ -7.1398192, 29.5210998 ], [ -7.1508749, 29.5203374 ], [ -7.2541889, 29.4719209 ], [ -7.2892623, 29.4437097 ], [ -7.3140424, 29.4166421 ], [ -7.3449223, 29.3928151 ], [ -7.4674889, 29.3656878 ], [ -7.4843862, 29.3629901 ], [ -7.5317851, 29.3627997 ], [ -7.5837525, 29.3751729 ], [ -7.6248696, 29.3568987 ], [ -7.6288671, 29.329868 ], [ -7.6322935, 29.321873 ], [ -7.6391464, 29.3127359 ], [ -7.6492353, 29.3041698 ], [ -7.6612278, 29.3003627 ], [ -7.7729945, 29.2588368 ], [ -7.7867345, 29.250641 ], [ -7.8226512, 29.222438 ], [ -7.8601507, 29.2013771 ], [ -7.8813582, 29.1928185 ], [ -7.8903867, 29.1894139 ], [ -7.9557117, 29.1402394 ], [ -7.9597074, 29.1296125 ], [ -7.9972111, 29.1070814 ], [ -8.0866101, 29.0603804 ], [ -8.1456604, 29.0238114 ], [ -8.1712437, 29.0022424 ], [ -8.2002174, 28.9982395 ], [ -8.2232819, 28.9896618 ], [ -8.2543524, 28.9604975 ], [ -8.2835166, 28.9442951 ], [ -8.3721532, 28.8751014 ], [ -8.4344425, 28.8139992 ], [ -8.4518308, 28.8017142 ], [ -8.4637008, 28.7955948 ], [ -8.5510038, 28.7604376 ], [ -8.666595, 28.7135398 ], [ -8.6666158, 28.3086106 ], [ -8.6666312, 28.0090046 ], [ -8.666649, 27.6620364 ], [ -8.73032, 27.66483 ], [ -9.2545283, 27.6648132 ], [ -9.33925, 27.66464 ], [ -9.63142, 27.66573 ], [ -10.0671966, 27.6667793 ], [ -10.1489463, 27.6668196 ], [ -10.61574, 27.66614 ], [ -10.6961182, 27.6658624 ], [ -10.82801, 27.66716 ], [ -11.06733, 27.66582 ], [ -11.30659, 27.66777 ], [ -11.562092, 27.6658743 ], [ -11.60854, 27.66669 ], [ -11.78432, 27.66965 ], [ -12.3177, 27.66894 ], [ -12.4442017, 27.6684673 ], [ -12.7640748, 27.6680059 ], [ -13.1730279, 27.6670081 ], [ -13.162764, 27.695725 ], [ -13.071907, 27.735513 ], [ -13.042379, 27.762234 ], [ -13.009623, 27.806518 ], [ -12.980522, 27.894056 ], [ -12.958976, 27.921426 ], [ -12.91713, 27.954322 ], [ -12.862643, 27.956186 ], [ -12.826834, 27.965398 ], [ -12.659336, 27.982708 ], [ -12.550941, 27.998048 ], [ -12.5246783, 28.0063208 ], [ -12.2179825, 28.0585588 ], [ -12.0806791, 28.0880992 ], [ -11.942174, 28.1530388 ], [ -11.7422033, 28.2282803 ], [ -11.5860162, 28.2761933 ], [ -11.5072125, 28.3094184 ], [ -11.4631036, 28.3369638 ], [ -11.4455886, 28.3716071 ], [ -11.4102224, 28.4018082 ], [ -11.3818522, 28.4465354 ], [ -11.3516545, 28.469304 ], [ -11.3423863, 28.494463 ], [ -11.30455, 28.530925 ], [ -11.2486595, 28.572749 ], [ -11.2162558, 28.6110835 ], [ -11.1631784, 28.6476372 ], [ -11.0951337, 28.7043019 ], [ -11.0683998, 28.7438775 ], [ -11.0410391, 28.7625686 ], [ -10.8443001, 28.8484415 ], [ -10.6540274, 28.9426603 ], [ -10.5637985, 28.9939946 ], [ -10.5065238, 29.0315781 ], [ -10.437643, 29.0995109 ], [ -10.4240045, 29.1286229 ], [ -10.3817454, 29.1800636 ], [ -10.2949014, 29.2623066 ], [ -10.2161094, 29.3106299 ], [ -10.182724, 29.3764122 ], [ -10.1256266, 29.4352748 ], [ -10.0959181, 29.4846368 ], [ -10.0759371, 29.5022839 ], [ -10.0726927, 29.5318614 ], [ -10.0438749, 29.5896614 ], [ -9.9852342, 29.6608941 ], [ -9.981698, 29.6759428 ], [ -9.9298306, 29.725611 ], [ -9.896446, 29.7489888 ], [ -9.8309203, 29.8086784 ], [ -9.7887889, 29.8653886 ], [ -9.7630424, 29.9108244 ], [ -9.6937051, 30.0534409 ], [ -9.6668913, 30.0888145 ], [ -9.6424643, 30.170914 ], [ -9.6200453, 30.3105278 ], [ -9.6039166, 30.3637115 ], [ -9.6080351, 30.4177377 ], [ -9.6408896, 30.4249254 ], [ -9.661292, 30.4459727 ], [ -9.6770064, 30.4947227 ], [ -9.7042893, 30.5427984 ], [ -9.7407087, 30.551008 ], [ -9.747292, 30.5725997 ], [ -9.7832624, 30.609339 ], [ -9.825928, 30.6269484 ], [ -9.8897478, 30.630642 ], [ -9.8729756, 30.7001891 ], [ -9.8291871, 30.764766 ], [ -9.8049085, 30.8173791 ], [ -9.8270953, 30.847679 ], [ -9.8076273, 30.892966 ], [ -9.8243199, 30.9765441 ], [ -9.8083028, 31.00868 ], [ -9.8248711, 31.0605191 ], [ -9.8191102, 31.0831346 ], [ -9.8392642, 31.1007982 ], [ -9.8388932, 31.1434865 ], [ -9.8165852, 31.1917157 ], [ -9.8202414, 31.2341207 ], [ -9.7979794, 31.2913457 ], [ -9.8028148, 31.367171 ], [ -9.8425109, 31.3910691 ], [ -9.8343004, 31.4116935 ], [ -9.7916944, 31.4556131 ], [ -9.7619981, 31.5197381 ], [ -9.7222449, 31.5584257 ], [ -9.6785004, 31.623737 ], [ -9.6760758, 31.6985814 ], [ -9.648095, 31.7200049 ], [ -9.570698, 31.8083675 ], [ -9.5266961, 31.8499522 ], [ -9.4600078, 31.9223341 ], [ -9.3442115, 32.0332609 ], [ -9.3295329, 32.0665997 ], [ -9.3215462, 32.1139297 ], [ -9.2794685, 32.1543053 ], [ -9.2507875, 32.2186479 ], [ -9.2656827, 32.2517505 ], [ -9.2459702, 32.288322 ], [ -9.2524115, 32.3197752 ], [ -9.2807504, 32.3299295 ], [ -9.2858015, 32.3761908 ], [ -9.2476812, 32.4169706 ], [ -9.2316302, 32.4748261 ], [ -9.2702948, 32.5154185 ], [ -9.2784621, 32.547771 ], [ -9.1250207, 32.6585689 ], [ -9.0500017, 32.7329776 ], [ -8.897779, 32.8442092 ], [ -8.8587311, 32.885305 ], [ -8.7814787, 32.9525497 ], [ -8.7484851, 32.9743395 ], [ -8.7233593, 33.0115629 ], [ -8.6133938, 33.1439216 ], [ -8.628754, 33.1608062 ], [ -8.5462603, 33.2451343 ], [ -8.5095516, 33.2650733 ], [ -8.4867464, 33.2448768 ], [ -8.438512, 33.2552128 ], [ -8.3938197, 33.2802381 ], [ -8.3365363, 33.3234396 ], [ -8.3115595, 33.359589 ], [ -8.2233596, 33.381809 ], [ -8.1830249, 33.4027573 ], [ -8.1520293, 33.4070474 ], [ -8.026419, 33.4531231 ], [ -7.9587501, 33.4820977 ], [ -7.9193196, 33.488264 ], [ -7.8325762, 33.5290686 ], [ -7.8006452, 33.5295833 ], [ -7.7583294, 33.5484438 ], [ -7.6663317, 33.5997863 ], [ -7.6249817, 33.6109393 ], [ -7.5880262, 33.6039724 ], [ -7.5227766, 33.6274766 ], [ -7.478179, 33.6549014 ], [ -7.4021506, 33.7134321 ], [ -7.3449269, 33.7188492 ], [ -7.270593, 33.7776252 ], [ -7.2214844, 33.8009561 ], [ -7.1909418, 33.8041098 ], [ -7.1276251, 33.8286885 ], [ -7.0634206, 33.8699259 ], [ -7.0428501, 33.8723923 ], [ -6.9401577, 33.9406166 ], [ -6.7985468, 34.0756425 ], [ -6.7454599, 34.1386627 ], [ -6.6962063, 34.21689 ], [ -6.6789358, 34.2607426 ], [ -6.5352912, 34.454408 ], [ -6.4989321, 34.5118384 ], [ -6.3900968, 34.6979466 ], [ -6.3022507, 34.8680944 ], [ -6.2856274, 34.8332991 ], [ -6.2597135, 34.8255246 ], [ -6.2572326, 34.8627192 ], [ -6.2988985, 34.8781429 ], [ -6.2460672, 34.9941452 ], [ -6.202077, 35.1145003 ], [ -6.1688354, 35.1941324 ], [ -6.155926, 35.1963985 ], [ -6.1269311, 35.2643002 ], [ -6.081541, 35.3961466 ], [ -6.050141, 35.4553591 ], [ -6.0276093, 35.4763124 ], [ -6.0080592, 35.5295519 ], [ -5.9685868, 35.6719706 ], [ -5.9301534, 35.7871906 ], [ -5.9075256, 35.8009869 ], [ -5.8451155, 35.7982246 ], [ -5.7690034, 35.7823263 ], [ -5.7394907, 35.8182799 ], [ -5.6897634, 35.8382792 ], [ -5.6502943, 35.8280509 ], [ -5.6043166, 35.8300159 ], [ -5.5530725, 35.8452444 ], [ -5.5212186, 35.8763431 ], [ -5.4652348, 35.9143994 ], [ -5.4416308, 35.9042852 ], [ -5.3800271, 35.9144856 ], [ -5.3606304, 35.8909198 ] ] ] ] } }
]
}
