{
"type": "FeatureCollection",
"name": "MDA_GAUL1992_ADM1",
"crs": { "type": "name", "properties": { "name": "urn:ogc:def:crs:OGC:1.3:CRS84" } },
"features": [
{ "type": "Feature", "properties": { "POLYGON_ID": "MDA_GAUL1992_ADM1_2062", "ADM0_ISO3": "MDA", "ADM0_NAME": "Moldova, Republic of", "ADM0_CODE": 165, "ADM1_NAME": "Balti", "ADM1_CODE": 2062, "GEOSET": "GAUL", "GEOSET_YEAR": 1992.0, "GEOSET_VERSION": "GAUL_v1", "GEOSET_UNIT": "ADM1", "CENTROID_LONG": 27.732058179102935, "CENTROID_LAT": 47.697703194681338 }, "geometry": { "type": "MultiPolygon", "coordinates": [ [ [ [ 27.6273727, 48.0228271 ], [ 27.6447868, 48.0005035 ], [ 27.6108475, 47.9482498 ], [ 27.6236076, 47.9283295 ], [ 27.7039471, 47.9072914 ], [ 27.7599945, 47.9483185 ], [ 27.8157539, 47.888485 ], [ 27.8704605, 47.867569 ], [ 27.8773384, 47.8278236 ], [ 27.9659061, 47.832161 ], [ 28.0196457, 47.8819389 ], [ 28.0939827, 47.7981834 ], [ 28.1417866, 47.8090706 ], [ 28.1474991, 47.7693329 ], [ 28.2290478, 47.7633781 ], [ 28.2125912, 47.7134209 ], [ 28.3057652, 47.6978798 ], [ 28.3429661, 47.6683159 ], [ 28.3695183, 47.5808182 ], [ 28.3217449, 47.5802574 ], [ 28.2983246, 47.5398636 ], [ 28.1550407, 47.5524673 ], [ 28.1059704, 47.5066414 ], [ 28.1326942, 47.4795074 ], [ 28.1092377, 47.426403 ], [ 27.9379635, 47.4304085 ], [ 27.8809032, 47.4426003 ], [ 27.8656597, 47.409317 ], [ 27.7782326, 47.3962364 ], [ 27.6861954, 47.4014435 ], [ 27.6040982, 47.3722284 ], [ 27.56241, 47.43771 ], [ 27.55167, 47.4798 ], [ 27.48378, 47.49125 ], [ 27.45684, 47.54069 ], [ 27.3666301, 47.6186227 ], [ 27.29631, 47.66836 ], [ 27.26444, 47.73283 ], [ 27.2892082, 47.7601871 ], [ 27.22206, 47.82287 ], [ 27.21508, 47.89921 ], [ 27.1685123, 47.9239031 ], [ 27.2228222, 47.9445648 ], [ 27.2521229, 48.0039864 ], [ 27.3010826, 48.0116959 ], [ 27.3697567, 47.9859467 ], [ 27.5108852, 48.035305 ], [ 27.6273727, 48.0228271 ] ] ] ] } },
{ "type": "Feature", "properties": { "POLYGON_ID": "MDA_GAUL1992_ADM1_2063", "ADM0_ISO3": "MDA", "ADM0_NAME": "Moldova, Republic of", "ADM0_CODE": 165, "ADM1_NAME": "Cahul", "ADM1_CODE": 2063, "GEOSET": "GAUL", "GEOSET_YEAR": 1992.0, "GEOSET_VERSION": "GAUL_v1", "GEOSET_UNIT": "ADM1", "CENTROID_LONG": 28.357856125410947, "CENTROID_LAT": 45.918880507928506 }, "geometry": { "type": "MultiPolygon", "coordinates": [ [ [ [ 28.4337502, 46.4022522 ], [ 28.4068394, 46.3634644 ], [ 28.4358788, 46.330761 ], [ 28.4789619, 46.3210182 ], [ 28.4623718, 46.2234077 ], [ 28.4669418, 46.1916161 ], [ 28.3910408, 46.1340027 ], [ 28.4131184, 46.1124535 ], [ 28.4083385, 46.0703812 ], [ 28.4689388, 46.0740585 ], [ 28.5573521, 46.0243874 ], [ 28.5456409, 46.0029984 ], [ 28.5734634, 45.9536247 ], [ 28.6468525, 45.9461212 ], [ 28.7121391, 45.9593086 ], [ 28.7668408, 45.9521118 ], [ 28.79045, 45.84645 ], [ 28.71186, 45.81926 ], [ 28.71773, 45.79196 ], [ 28.60573, 45.76879 ], [ 28.60032, 45.73582 ], [ 28.54789, 45.73716 ], [ 28.49601, 45.67532 ], [ 28.5276082, 45.6647022 ], [ 28.54778, 45.5836 ], [ 28.50103, 45.56753 ], [ 28.5162869, 45.5054677 ], [ 28.43553, 45.48762 ], [ 28.40616, 45.51966 ], [ 28.31025, 45.54561 ], [ 28.26891, 45.53105 ], [ 28.21632, 45.4689 ], [ 28.2162652, 45.4689089 ], [ 28.18663, 45.47503 ], [ 28.16597, 45.54096 ], [ 28.10762, 45.57931 ], [ 28.09454, 45.61331 ], [ 28.17293, 45.64302 ], [ 28.17185, 45.72474 ], [ 28.15556, 45.77914 ], [ 28.1235, 45.79431 ], [ 28.11953, 45.95637 ], [ 28.09305, 46.01541 ], [ 28.09488, 46.08244 ], [ 28.1240484, 46.1232635 ], [ 28.13861, 46.1917 ], [ 28.11551, 46.24493 ], [ 28.18648, 46.29642 ], [ 28.2062, 46.37931 ], [ 28.2448288, 46.4003984 ], [ 28.2881031, 46.4037476 ], [ 28.3451118, 46.373291 ], [ 28.382515, 46.4136162 ], [ 28.4337502, 46.4022522 ] ] ] ] } },
{ "type": "Feature", "properties": { "POLYGON_ID": "MDA_GAUL1992_ADM1_2064", "ADM0_ISO3": "MDA", "ADM0_NAME": "Moldova, Republic of", "ADM0_CODE": 165, "ADM1_NAME": "Chisinau", "ADM1_CODE": 2064, "GEOSET": "GAUL", "GEOSET_YEAR": 1992.0, "GEOSET_VERSION": "GAUL_v1", "GEOSET_UNIT": "ADM1", "CENTROID_LONG": 28.879660735661034, "CENTROID_LAT": 47.014885898748737 }, "geometry": { "type": "MultiPolygon", "coordinates": [ [ [ [ 28.5190601, 47.3100548 ], [ 28.5574646, 47.2931862 ], [ 28.6250401, 47.2904816 ], [ 28.6621056, 47.2132607 ], [ 28.7529716, 47.2056732 ], [ 28.7659016, 47.2453232 ], [ 28.8124847, 47.2363586 ], [ 28.8859978, 47.2733345 ], [ 28.9769611, 47.3006935 ], [ 29.0420952, 47.259079 ], [ 29.0431347, 47.2145958 ], [ 29.12467, 47.2046738 ], [ 29.1292534, 47.1776428 ], [ 29.0323353, 47.1050453 ], [ 29.0671635, 47.0603943 ], [ 29.1851006, 47.1479874 ], [ 29.2567139, 47.1317558 ], [ 29.2531376, 47.1031799 ], [ 29.3380699, 47.0582924 ], [ 29.3390083, 46.9780731 ], [ 29.2585506, 46.9578094 ], [ 29.3178597, 46.9170151 ], [ 29.3808517, 46.9421272 ], [ 29.4402351, 46.9275436 ], [ 29.4284344, 46.8743896 ], [ 29.398035, 46.8387909 ], [ 29.4107037, 46.7863121 ], [ 29.3128223, 46.7844048 ], [ 29.2649307, 46.7425385 ], [ 29.1932449, 46.7341461 ], [ 29.1280956, 46.7702026 ], [ 29.0814819, 46.7680473 ], [ 29.0256405, 46.7992935 ], [ 28.9696503, 46.7781143 ], [ 28.7412167, 46.7593651 ], [ 28.6958675, 46.7929459 ], [ 28.6854935, 46.8327026 ], [ 28.5749836, 46.8975716 ], [ 28.4912624, 46.9583397 ], [ 28.511116, 46.9749222 ], [ 28.4354992, 47.0173836 ], [ 28.4531021, 47.0609818 ], [ 28.3412151, 47.0519905 ], [ 28.2783546, 47.0729446 ], [ 28.3017712, 47.1133347 ], [ 28.2843781, 47.142807 ], [ 28.3752651, 47.1431656 ], [ 28.4313946, 47.2127838 ], [ 28.4362068, 47.265976 ], [ 28.4654388, 47.3015747 ], [ 28.5190601, 47.3100548 ] ] ] ] } },
{ "type": "Feature", "properties": { "POLYGON_ID": "MDA_GAUL1992_ADM1_2066", "ADM0_ISO3": "MDA", "ADM0_NAME": "Moldova, Republic of", "ADM0_CODE": 165, "ADM1_NAME": "Dubasari", "ADM1_CODE": 2066, "GEOSET": "GAUL", "GEOSET_YEAR": 1992.0, "GEOSET_VERSION": "GAUL_v1", "GEOSET_UNIT": "ADM1", "CENTROID_LONG": 29.234242169198033, "CENTROID_LAT": 47.374950760077809 }, "geometry": { "type": "MultiPolygon", "coordinates": [ [ [ [ 28.8909891, 48.0117824 ], [ 28.94376, 47.95612 ], [ 28.98904, 47.97902 ], [ 29.02903, 47.94889 ], [ 29.07667, 47.94212 ], [ 29.10968, 47.98392 ], [ 29.18855, 47.99401 ], [ 29.20927, 47.88752 ], [ 29.24013, 47.79784 ], [ 29.26775, 47.75804 ], [ 29.22216, 47.72405 ], [ 29.24186, 47.63993 ], [ 29.2011567, 47.5715198 ], [ 29.13371, 47.549 ], [ 29.19498, 47.48171 ], [ 29.2081, 47.43987 ], [ 29.2518698, 47.4262028 ], [ 29.32738, 47.43842 ], [ 29.33934, 47.38365 ], [ 29.38786, 47.38613 ], [ 29.39292, 47.31917 ], [ 29.44327, 47.30026 ], [ 29.49114, 47.31572 ], [ 29.50361, 47.36467 ], [ 29.58986, 47.36605 ], [ 29.6044487, 47.2634797 ], [ 29.56068, 47.24401 ], [ 29.591198, 47.1418694 ], [ 29.515, 47.13092 ], [ 29.5522773, 47.0803719 ], [ 29.61986, 47.10266 ], [ 29.60511, 46.96949 ], [ 29.65303, 46.92592 ], [ 29.73461, 46.91968 ], [ 29.74938, 46.86876 ], [ 29.79607, 46.86278 ], [ 29.87348, 46.88401 ], [ 29.88286, 46.84548 ], [ 29.97173, 46.82879 ], [ 29.94013, 46.80594 ], [ 29.97921, 46.76361 ], [ 29.97286, 46.69187 ], [ 29.94784, 46.65216 ], [ 29.9671888, 46.5930942 ], [ 29.95351, 46.56306 ], [ 29.91046, 46.55973 ], [ 29.9098927, 46.5249149 ], [ 29.8424015, 46.5769272 ], [ 29.7329578, 46.6068459 ], [ 29.7121468, 46.6641312 ], [ 29.6783237, 46.6531754 ], [ 29.5793304, 46.6703339 ], [ 29.5213051, 46.753212 ], [ 29.443224, 46.7488251 ], [ 29.4107037, 46.7863121 ], [ 29.398035, 46.8387909 ], [ 29.4284344, 46.8743896 ], [ 29.4402351, 46.9275436 ], [ 29.3808517, 46.9421272 ], [ 29.3178597, 46.9170151 ], [ 29.2585506, 46.9578094 ], [ 29.3390083, 46.9780731 ], [ 29.3380699, 47.0582924 ], [ 29.2531376, 47.1031799 ], [ 29.2567139, 47.1317558 ], [ 29.1851006, 47.1479874 ], [ 29.0671635, 47.0603943 ], [ 29.0323353, 47.1050453 ], [ 29.1292534, 47.1776428 ], [ 29.12467, 47.2046738 ], [ 29.0431347, 47.2145958 ], [ 29.0420952, 47.259079 ], [ 28.9769611, 47.3006935 ], [ 28.9560947, 47.3381233 ], [ 29.0039425, 47.3641052 ], [ 29.0612717, 47.4464264 ], [ 28.9821301, 47.4793701 ], [ 28.9776306, 47.5357895 ], [ 28.9323311, 47.5868378 ], [ 28.9036179, 47.7331162 ], [ 28.9597511, 47.8051186 ], [ 28.9482117, 47.8440971 ], [ 28.8922977, 47.8499222 ], [ 28.8702106, 47.8683014 ], [ 28.7665539, 47.8846855 ], [ 28.7352753, 47.9491692 ], [ 28.6990719, 47.9199562 ], [ 28.6489506, 47.9138451 ], [ 28.5951557, 47.8450089 ], [ 28.5380554, 47.8436928 ], [ 28.4461308, 47.8878212 ], [ 28.4486103, 47.9402275 ], [ 28.4148769, 47.960247 ], [ 28.4254818, 48.0022926 ], [ 28.5020255, 48.0662226 ], [ 28.50091, 48.11096 ], [ 28.5445999, 48.1616795 ], [ 28.57718, 48.17215 ], [ 28.65559, 48.14526 ], [ 28.76025, 48.13814 ], [ 28.85447, 48.12167 ], [ 28.8556, 48.03298 ], [ 28.8909891, 48.0117824 ] ] ] ] } },
{ "type": "Feature", "properties": { "POLYGON_ID": "MDA_GAUL1992_ADM1_2067", "ADM0_ISO3": "MDA", "ADM0_NAME": "Moldova, Republic of", "ADM0_CODE": 165, "ADM1_NAME": "Edinet", "ADM1_CODE": 2067, "GEOSET": "GAUL", "GEOSET_YEAR": 1992.0, "GEOSET_VERSION": "GAUL_v1", "GEOSET_UNIT": "ADM1", "CENTROID_LONG": 27.383835751082838, "CENTROID_LAT": 48.239097585434962 }, "geometry": { "type": "MultiPolygon", "coordinates": [ [ [ [ 27.9985426, 48.3261137 ], [ 27.9566917, 48.280159 ], [ 27.9378433, 48.2079735 ], [ 27.8713169, 48.1685829 ], [ 27.8131256, 48.1934853 ], [ 27.7851048, 48.1737633 ], [ 27.8408794, 48.1194878 ], [ 27.7639103, 48.0960312 ], [ 27.6694088, 48.0536003 ], [ 27.6273727, 48.0228271 ], [ 27.5108852, 48.035305 ], [ 27.3697567, 47.9859467 ], [ 27.3010826, 48.0116959 ], [ 27.2521229, 48.0039864 ], [ 27.2228222, 47.9445648 ], [ 27.1685123, 47.9239031 ], [ 27.1663, 48.0 ], [ 27.11939, 48.01808 ], [ 27.0362, 48.09572 ], [ 27.04481, 48.13073 ], [ 26.94275, 48.17123 ], [ 26.85909, 48.23593 ], [ 26.8142, 48.25564 ], [ 26.73375, 48.26163 ], [ 26.62361, 48.2505 ], [ 26.67446, 48.30825 ], [ 26.6905, 48.34767 ], [ 26.75258, 48.31863 ], [ 26.77267, 48.27746 ], [ 26.82015, 48.29317 ], [ 26.8287697, 48.3406903 ], [ 26.72648, 48.39499 ], [ 26.88107, 48.4259 ], [ 26.92827, 48.37053 ], [ 27.00289, 48.36539 ], [ 27.09411, 48.40908 ], [ 27.15061, 48.3828 ], [ 27.19716, 48.39617 ], [ 27.2295393, 48.3745306 ], [ 27.28478, 48.38408 ], [ 27.32388, 48.44143 ], [ 27.38126, 48.41063 ], [ 27.46419, 48.42336 ], [ 27.47164, 48.44889 ], [ 27.5466925, 48.4674346 ], [ 27.5996, 48.46718 ], [ 27.6826, 48.44354 ], [ 27.76365, 48.45857 ], [ 27.87266, 48.40975 ], [ 27.8908, 48.37418 ], [ 27.93683, 48.34072 ], [ 27.9985426, 48.3261137 ] ] ] ] } },
{ "type": "Feature", "properties": { "POLYGON_ID": "MDA_GAUL1992_ADM1_2068", "ADM0_ISO3": "MDA", "ADM0_NAME": "Moldova, Republic of", "ADM0_CODE": 165, "ADM1_NAME": "Gagauzia", "ADM1_CODE": 2068, "GEOSET": "GAUL", "GEOSET_YEAR": 1992.0, "GEOSET_VERSION": "GAUL_v1", "GEOSET_UNIT": "ADM1", "CENTROID_LONG": 28.673347088272124, "CENTROID_LAT": 46.176409222914998 }, "geometry": { "type": "MultiPolygon", "coordinates": [ [ [ [ 29.0549988, 46.2068103 ], [ 28.95815, 46.10687 ], [ 29.0103695, 46.0649086 ], [ 28.9780992, 46.0125097 ], [ 28.7942, 45.97723 ], [ 28.7668408, 45.9521118 ], [ 28.7121391, 45.9593086 ], [ 28.6468525, 45.9461212 ], [ 28.5734634, 45.9536247 ], [ 28.5456409, 46.0029984 ], [ 28.5573521, 46.0243874 ], [ 28.4689388, 46.0740585 ], [ 28.4083385, 46.0703812 ], [ 28.4131184, 46.1124535 ], [ 28.3910408, 46.1340027 ], [ 28.4669418, 46.1916161 ], [ 28.4623718, 46.2234077 ], [ 28.4789619, 46.3210182 ], [ 28.4358788, 46.330761 ], [ 28.4068394, 46.3634644 ], [ 28.4337502, 46.4022522 ], [ 28.4559727, 46.4315262 ], [ 28.5493011, 46.4711876 ], [ 28.7215462, 46.3984756 ], [ 28.7189846, 46.3166847 ], [ 28.7374992, 46.2721176 ], [ 28.7794418, 46.2703247 ], [ 28.7711449, 46.2203293 ], [ 28.8142128, 46.2050285 ], [ 28.8550282, 46.2167435 ], [ 28.9282837, 46.1631775 ], [ 28.9692097, 46.2138138 ], [ 29.0549988, 46.2068103 ] ] ] ] } },
{ "type": "Feature", "properties": { "POLYGON_ID": "MDA_GAUL1992_ADM1_2069", "ADM0_ISO3": "MDA", "ADM0_NAME": "Moldova, Republic of", "ADM0_CODE": 165, "ADM1_NAME": "Lapusna", "ADM1_CODE": 2069, "GEOSET": "GAUL", "GEOSET_YEAR": 1992.0, "GEOSET_VERSION": "GAUL_v1", "GEOSET_UNIT": "ADM1", "CENTROID_LONG": 28.562933483951223, "CENTROID_LAT": 46.612181043675996 }, "geometry": { "type": "MultiPolygon", "coordinates": [ [ [ [ 28.4354992, 47.0173836 ], [ 28.511116, 46.9749222 ], [ 28.4912624, 46.9583397 ], [ 28.5749836, 46.8975716 ], [ 28.6854935, 46.8327026 ], [ 28.6958675, 46.7929459 ], [ 28.6690121, 46.7740135 ], [ 28.7282944, 46.7228928 ], [ 28.773756, 46.7290268 ], [ 28.8505344, 46.6849709 ], [ 28.8513966, 46.5785408 ], [ 28.9259357, 46.5670586 ], [ 28.9328232, 46.5304909 ], [ 29.0190468, 46.5292816 ], [ 29.0386843, 46.4978 ], [ 28.99671, 46.46864 ], [ 28.93682, 46.46199 ], [ 28.99285, 46.33089 ], [ 28.94741, 46.28032 ], [ 29.0549988, 46.2068103 ], [ 28.9692097, 46.2138138 ], [ 28.9282837, 46.1631775 ], [ 28.8550282, 46.2167435 ], [ 28.8142128, 46.2050285 ], [ 28.7711449, 46.2203293 ], [ 28.7794418, 46.2703247 ], [ 28.7374992, 46.2721176 ], [ 28.7189846, 46.3166847 ], [ 28.7215462, 46.3984756 ], [ 28.5493011, 46.4711876 ], [ 28.4559727, 46.4315262 ], [ 28.4337502, 46.4022522 ], [ 28.382515, 46.4136162 ], [ 28.3451118, 46.373291 ], [ 28.2881031, 46.4037476 ], [ 28.2448288, 46.4003984 ], [ 28.2564193, 46.4709693 ], [ 28.22016, 46.50907 ], [ 28.22951, 46.57942 ], [ 28.25548, 46.61873 ], [ 28.23992, 46.66873 ], [ 28.1656896, 46.7945404 ], [ 28.1200309, 46.8544486 ], [ 28.1158593, 46.9013781 ], [ 28.1543026, 46.8829231 ], [ 28.1951313, 46.9001999 ], [ 28.2115879, 46.950161 ], [ 28.2756863, 46.9546165 ], [ 28.2770271, 47.0165596 ], [ 28.3351498, 46.9678307 ], [ 28.3956985, 46.9524498 ], [ 28.4353905, 46.9792595 ], [ 28.4354992, 47.0173836 ] ] ] ] } },
{ "type": "Feature", "properties": { "POLYGON_ID": "MDA_GAUL1992_ADM1_2070", "ADM0_ISO3": "MDA", "ADM0_NAME": "Moldova, Republic of", "ADM0_CODE": 165, "ADM1_NAME": "Orhei", "ADM1_CODE": 2070, "GEOSET": "GAUL", "GEOSET_YEAR": 1992.0, "GEOSET_VERSION": "GAUL_v1", "GEOSET_UNIT": "ADM1", "CENTROID_LONG": 28.643836225186991, "CENTROID_LAT": 47.501480574986097 }, "geometry": { "type": "MultiPolygon", "coordinates": [ [ [ [ 28.9769611, 47.3006935 ], [ 28.8859978, 47.2733345 ], [ 28.8124847, 47.2363586 ], [ 28.7659016, 47.2453232 ], [ 28.7529716, 47.2056732 ], [ 28.6621056, 47.2132607 ], [ 28.6250401, 47.2904816 ], [ 28.5574646, 47.2931862 ], [ 28.5190601, 47.3100548 ], [ 28.5377522, 47.3266449 ], [ 28.4667606, 47.3571663 ], [ 28.4576092, 47.417572 ], [ 28.3550053, 47.3942451 ], [ 28.1685772, 47.3959351 ], [ 28.1092377, 47.426403 ], [ 28.1326942, 47.4795074 ], [ 28.1059704, 47.5066414 ], [ 28.1550407, 47.5524673 ], [ 28.2983246, 47.5398636 ], [ 28.3217449, 47.5802574 ], [ 28.3695183, 47.5808182 ], [ 28.3429661, 47.6683159 ], [ 28.4093971, 47.67276 ], [ 28.4759903, 47.7343864 ], [ 28.5679111, 47.6886711 ], [ 28.5983009, 47.7218857 ], [ 28.6996307, 47.7063026 ], [ 28.7277355, 47.7562027 ], [ 28.8023205, 47.7598152 ], [ 28.8699474, 47.7761688 ], [ 28.8922977, 47.8499222 ], [ 28.9482117, 47.8440971 ], [ 28.9597511, 47.8051186 ], [ 28.9036179, 47.7331162 ], [ 28.9323311, 47.5868378 ], [ 28.9776306, 47.5357895 ], [ 28.9821301, 47.4793701 ], [ 29.0612717, 47.4464264 ], [ 29.0039425, 47.3641052 ], [ 28.9560947, 47.3381233 ], [ 28.9769611, 47.3006935 ] ] ] ] } },
{ "type": "Feature", "properties": { "POLYGON_ID": "MDA_GAUL1992_ADM1_2071", "ADM0_ISO3": "MDA", "ADM0_NAME": "Moldova, Republic of", "ADM0_CODE": 165, "ADM1_NAME": "Soroca", "ADM1_CODE": 2071, "GEOSET": "GAUL", "GEOSET_YEAR": 1992.0, "GEOSET_VERSION": "GAUL_v1", "GEOSET_UNIT": "ADM1", "CENTROID_LONG": 28.207432760765048, "CENTROID_LAT": 47.969021791121968 }, "geometry": { "type": "MultiPolygon", "coordinates": [ [ [ [ 28.5020255, 48.0662226 ], [ 28.4254818, 48.0022926 ], [ 28.4148769, 47.960247 ], [ 28.4486103, 47.9402275 ], [ 28.4461308, 47.8878212 ], [ 28.5380554, 47.8436928 ], [ 28.5951557, 47.8450089 ], [ 28.6489506, 47.9138451 ], [ 28.6990719, 47.9199562 ], [ 28.7352753, 47.9491692 ], [ 28.7665539, 47.8846855 ], [ 28.8702106, 47.8683014 ], [ 28.8922977, 47.8499222 ], [ 28.8699474, 47.7761688 ], [ 28.8023205, 47.7598152 ], [ 28.7277355, 47.7562027 ], [ 28.6996307, 47.7063026 ], [ 28.5983009, 47.7218857 ], [ 28.5679111, 47.6886711 ], [ 28.4759903, 47.7343864 ], [ 28.4093971, 47.67276 ], [ 28.3429661, 47.6683159 ], [ 28.3057652, 47.6978798 ], [ 28.2125912, 47.7134209 ], [ 28.2290478, 47.7633781 ], [ 28.1474991, 47.7693329 ], [ 28.1417866, 47.8090706 ], [ 28.0939827, 47.7981834 ], [ 28.0196457, 47.8819389 ], [ 27.9659061, 47.832161 ], [ 27.8773384, 47.8278236 ], [ 27.8704605, 47.867569 ], [ 27.8157539, 47.888485 ], [ 27.7599945, 47.9483185 ], [ 27.7039471, 47.9072914 ], [ 27.6236076, 47.9283295 ], [ 27.6108475, 47.9482498 ], [ 27.6447868, 48.0005035 ], [ 27.6273727, 48.0228271 ], [ 27.6694088, 48.0536003 ], [ 27.7639103, 48.0960312 ], [ 27.8408794, 48.1194878 ], [ 27.7851048, 48.1737633 ], [ 27.8131256, 48.1934853 ], [ 27.8713169, 48.1685829 ], [ 27.9378433, 48.2079735 ], [ 27.9566917, 48.280159 ], [ 27.9985426, 48.3261137 ], [ 28.0500192, 48.32706 ], [ 28.09649, 48.30175 ], [ 28.08338, 48.25344 ], [ 28.10763, 48.23411 ], [ 28.1886, 48.25544 ], [ 28.21793, 48.20869 ], [ 28.34627, 48.24935 ], [ 28.3717298, 48.2248783 ], [ 28.35766, 48.18509 ], [ 28.31101, 48.15653 ], [ 28.35423, 48.13693 ], [ 28.38118, 48.17557 ], [ 28.42637, 48.17577 ], [ 28.44949, 48.08844 ], [ 28.5020255, 48.0662226 ] ] ] ] } },
{ "type": "Feature", "properties": { "POLYGON_ID": "MDA_GAUL1992_ADM1_2072", "ADM0_ISO3": "MDA", "ADM0_NAME": "Moldova, Republic of", "ADM0_CODE": 165, "ADM1_NAME": "Tighina", "ADM1_CODE": 2072, "GEOSET": "GAUL", "GEOSET_YEAR": 1992.0, "GEOSET_VERSION": "GAUL_v1", "GEOSET_UNIT": "ADM1", "CENTROID_LONG": 29.380958016158882, "CENTROID_LAT": 46.591676378972018 }, "geometry": { "type": "MultiPolygon", "coordinates": [ [ [ [ 29.4107037, 46.7863121 ], [ 29.443224, 46.7488251 ], [ 29.5213051, 46.753212 ], [ 29.5793304, 46.6703339 ], [ 29.6783237, 46.6531754 ], [ 29.7121468, 46.6641312 ], [ 29.7329578, 46.6068459 ], [ 29.8424015, 46.5769272 ], [ 29.9098927, 46.5249149 ], [ 29.94617, 46.50133 ], [ 29.99422, 46.50467 ], [ 30.02192, 46.45761 ], [ 30.07457, 46.40327 ], [ 30.01038, 46.3824 ], [ 29.94687, 46.40275 ], [ 29.88554, 46.36442 ], [ 29.82906, 46.38208 ], [ 29.75419, 46.47519 ], [ 29.73698, 46.43426 ], [ 29.6727, 46.43879 ], [ 29.68043, 46.36354 ], [ 29.59343, 46.36434 ], [ 29.56053, 46.40868 ], [ 29.49858, 46.44361 ], [ 29.50892, 46.46488 ], [ 29.45276, 46.49722 ], [ 29.4013, 46.46095 ], [ 29.35031, 46.50635 ], [ 29.31448, 46.47144 ], [ 29.32344, 46.41848 ], [ 29.2342, 46.42647 ], [ 29.242207, 46.563329 ], [ 29.1951, 46.54919 ], [ 29.16666, 46.51908 ], [ 29.06152, 46.52057 ], [ 29.0386843, 46.4978 ], [ 29.0190468, 46.5292816 ], [ 28.9328232, 46.5304909 ], [ 28.9259357, 46.5670586 ], [ 28.8513966, 46.5785408 ], [ 28.8505344, 46.6849709 ], [ 28.773756, 46.7290268 ], [ 28.7282944, 46.7228928 ], [ 28.6690121, 46.7740135 ], [ 28.6958675, 46.7929459 ], [ 28.7412167, 46.7593651 ], [ 28.9696503, 46.7781143 ], [ 29.0256405, 46.7992935 ], [ 29.0814819, 46.7680473 ], [ 29.1280956, 46.7702026 ], [ 29.1932449, 46.7341461 ], [ 29.2649307, 46.7425385 ], [ 29.3128223, 46.7844048 ], [ 29.4107037, 46.7863121 ] ] ] ] } },
{ "type": "Feature", "properties": { "POLYGON_ID": "MDA_GAUL1992_ADM1_2073", "ADM0_ISO3": "MDA", "ADM0_NAME": "Moldova, Republic of", "ADM0_CODE": 165, "ADM1_NAME": "Ungheni", "ADM1_CODE": 2073, "GEOSET": "GAUL", "GEOSET_YEAR": 1992.0, "GEOSET_VERSION": "GAUL_v1", "GEOSET_UNIT": "ADM1", "CENTROID_LONG": 28.10590762898682, "CENTROID_LAT": 47.219783708047999 }, "geometry": { "type": "MultiPolygon", "coordinates": [ [ [ [ 28.1092377, 47.426403 ], [ 28.1685772, 47.3959351 ], [ 28.3550053, 47.3942451 ], [ 28.4576092, 47.417572 ], [ 28.4667606, 47.3571663 ], [ 28.5377522, 47.3266449 ], [ 28.5190601, 47.3100548 ], [ 28.4654388, 47.3015747 ], [ 28.4362068, 47.265976 ], [ 28.4313946, 47.2127838 ], [ 28.3752651, 47.1431656 ], [ 28.2843781, 47.142807 ], [ 28.3017712, 47.1133347 ], [ 28.2783546, 47.0729446 ], [ 28.3412151, 47.0519905 ], [ 28.4531021, 47.0609818 ], [ 28.4354992, 47.0173836 ], [ 28.4353905, 46.9792595 ], [ 28.3956985, 46.9524498 ], [ 28.3351498, 46.9678307 ], [ 28.2770271, 47.0165596 ], [ 28.2756863, 46.9546165 ], [ 28.2115879, 46.950161 ], [ 28.1951313, 46.9001999 ], [ 28.1543026, 46.8829231 ], [ 28.1158593, 46.9013781 ], [ 28.0987264, 46.9915425 ], [ 28.02172, 47.03517 ], [ 27.90722, 47.08108 ], [ 27.85622, 47.13903 ], [ 27.81142, 47.16583 ], [ 27.7881, 47.22837 ], [ 27.7326295, 47.2986202 ], [ 27.64454, 47.31143 ], [ 27.6040982, 47.3722284 ], [ 27.6861954, 47.4014435 ], [ 27.7782326, 47.3962364 ], [ 27.8656597, 47.409317 ], [ 27.8809032, 47.4426003 ], [ 27.9379635, 47.4304085 ], [ 28.1092377, 47.426403 ] ] ] ] } }
]
}
