{
"type": "FeatureCollection",
"name": "MDG_GAUL1996_ADM0",
"crs": { "type": "name", "properties": { "name": "urn:ogc:def:crs:OGC:1.3:CRS84" } },
"features": [
{ "type": "Feature", "properties": { "POLYGON_ID": "MDG_GAUL1996_ADM0_150", "ADM0_ISO3": "MDG", "ADM0_NAME": "Madagascar", "ADM0_CODE": 150, "GEOSET": "GAUL", "GEOSET_YEAR": 1996.0, "GEOSET_VERSION": "GAUL_v1", "GEOSET_UNIT": "ADM0", "CENTROID_LONG": 46.700523580539631, "CENTROID_LAT": -19.392904940368059 }, "geometry": { "type": "MultiPolygon", "coordinates": [ [ [ [ 49.2459897, -11.9520417 ], [ 49.295216, -11.9711801 ], [ 49.3144311, -12.0145827 ], [ 49.326932, -12.0647432 ], [ 49.3589031, -12.1077482 ], [ 49.3421053, -12.1237043 ], [ 49.35178, -12.1559176 ], [ 49.3305776, -12.1700227 ], [ 49.309925, -12.1644867 ], [ 49.2906466, -12.1898734 ], [ 49.2608445, -12.1818299 ], [ 49.2446653, -12.1493232 ], [ 49.2239372, -12.1767986 ], [ 49.225055, -12.214573 ], [ 49.2497714, -12.2330268 ], [ 49.282716, -12.2419939 ], [ 49.2818301, -12.257446 ], [ 49.2539072, -12.2821081 ], [ 49.2169171, -12.250076 ], [ 49.1968816, -12.2690087 ], [ 49.1865267, -12.3045149 ], [ 49.2243089, -12.3120034 ], [ 49.267037, -12.3041844 ], [ 49.2790109, -12.2785642 ], [ 49.3085184, -12.273937 ], [ 49.309408, -12.3155278 ], [ 49.3508155, -12.3057892 ], [ 49.3554307, -12.2756519 ], [ 49.3381318, -12.2537573 ], [ 49.3571048, -12.2295431 ], [ 49.3874634, -12.2467511 ], [ 49.4156956, -12.344046 ], [ 49.4328375, -12.3477521 ], [ 49.4495353, -12.3826296 ], [ 49.4798324, -12.3556187 ], [ 49.5235156, -12.3704168 ], [ 49.5321338, -12.4227668 ], [ 49.513272, -12.4577811 ], [ 49.5184477, -12.4786021 ], [ 49.5450544, -12.5032239 ], [ 49.5406233, -12.5915738 ], [ 49.5572871, -12.6138221 ], [ 49.5425258, -12.6492974 ], [ 49.5671784, -12.6748094 ], [ 49.590881, -12.6590909 ], [ 49.6329352, -12.6948669 ], [ 49.6471065, -12.7444096 ], [ 49.6658252, -12.7787734 ], [ 49.7178422, -12.7713013 ], [ 49.7401638, -12.7961446 ], [ 49.7861859, -12.807698 ], [ 49.7783532, -12.8256985 ], [ 49.7843409, -12.8638612 ], [ 49.8043972, -12.8987387 ], [ 49.8587619, -12.9000122 ], [ 49.8363215, -12.9246497 ], [ 49.8453756, -12.9550951 ], [ 49.8771399, -12.9606451 ], [ 49.888123, -13.0016624 ], [ 49.9306411, -13.0443575 ], [ 49.93179, -13.0827559 ], [ 49.9182362, -13.1861009 ], [ 49.9321916, -13.2049849 ], [ 49.9525774, -13.2778504 ], [ 49.9696163, -13.291154 ], [ 49.9602167, -13.3225098 ], [ 49.976627, -13.3620006 ], [ 50.0219361, -13.3908189 ], [ 50.008748, -13.422682 ], [ 50.0293771, -13.5291818 ], [ 50.0554689, -13.5573684 ], [ 50.0597566, -13.6055696 ], [ 50.084959, -13.628339 ], [ 50.0846339, -13.6785843 ], [ 50.1254774, -13.7503659 ], [ 50.1396764, -13.7960243 ], [ 50.1418882, -13.9117279 ], [ 50.138745, -14.0124664 ], [ 50.1660487, -14.0517281 ], [ 50.1576709, -14.1408529 ], [ 50.1466998, -14.1797221 ], [ 50.1472451, -14.2456869 ], [ 50.185029, -14.2692035 ], [ 50.2016036, -14.3005007 ], [ 50.1934104, -14.3749389 ], [ 50.1800535, -14.4118167 ], [ 50.1765408, -14.4699588 ], [ 50.1851863, -14.492148 ], [ 50.1839158, -14.5861904 ], [ 50.2095157, -14.6409027 ], [ 50.225935, -14.7128456 ], [ 50.2239188, -14.75896 ], [ 50.2521038, -14.8039618 ], [ 50.2649606, -14.8704694 ], [ 50.2923762, -14.9126177 ], [ 50.2941261, -14.9361986 ], [ 50.3154661, -14.9507364 ], [ 50.3330041, -15.025771 ], [ 50.3661003, -15.0786382 ], [ 50.3822494, -15.0879586 ], [ 50.4068056, -15.1264155 ], [ 50.4335277, -15.1517349 ], [ 50.4376693, -15.1906521 ], [ 50.4724978, -15.2152142 ], [ 50.4675908, -15.2497328 ], [ 50.4808399, -15.3301498 ], [ 50.4609274, -15.381634 ], [ 50.4681822, -15.4008464 ], [ 50.4444583, -15.4333822 ], [ 50.4617837, -15.4564998 ], [ 50.4348053, -15.4802815 ], [ 50.4329709, -15.5273839 ], [ 50.4204404, -15.568588 ], [ 50.3586612, -15.6938737 ], [ 50.3590141, -15.7076184 ], [ 50.3304728, -15.7709698 ], [ 50.3225663, -15.8120798 ], [ 50.2940706, -15.8474614 ], [ 50.299019, -15.8661088 ], [ 50.2453445, -15.9098291 ], [ 50.2448767, -15.9279781 ], [ 50.2214151, -15.988444 ], [ 50.1610337, -15.9896009 ], [ 50.1445135, -15.943473 ], [ 50.080769, -15.9253198 ], [ 50.0245009, -15.8845856 ], [ 50.0119805, -15.8324666 ], [ 50.0185865, -15.7864045 ], [ 49.9553083, -15.73727 ], [ 49.9627733, -15.7095245 ], [ 49.9554695, -15.6708828 ], [ 49.9674314, -15.6316845 ], [ 49.8911437, -15.5612164 ], [ 49.8929244, -15.5298686 ], [ 49.906247, -15.5008747 ], [ 49.8925208, -15.4712813 ], [ 49.9042675, -15.4462785 ], [ 49.8663987, -15.424169 ], [ 49.8420278, -15.4367244 ], [ 49.7809015, -15.443481 ], [ 49.7579809, -15.4567497 ], [ 49.7308552, -15.4448423 ], [ 49.6793421, -15.4703705 ], [ 49.6315285, -15.5239313 ], [ 49.6159071, -15.5531164 ], [ 49.6208715, -15.6033414 ], [ 49.6425804, -15.6059703 ], [ 49.6511841, -15.6638807 ], [ 49.6417324, -15.6851749 ], [ 49.6828597, -15.7979529 ], [ 49.7031286, -15.8714509 ], [ 49.7313092, -15.9096905 ], [ 49.6940834, -15.9721896 ], [ 49.6750104, -16.0455347 ], [ 49.6965092, -16.0749917 ], [ 49.7055507, -16.1224758 ], [ 49.7252485, -16.1468082 ], [ 49.7614404, -16.163876 ], [ 49.7825337, -16.159403 ], [ 49.8285158, -16.1810391 ], [ 49.8582237, -16.2217223 ], [ 49.8234824, -16.3052355 ], [ 49.8129407, -16.3498283 ], [ 49.826517, -16.3902247 ], [ 49.828075, -16.4222774 ], [ 49.8560884, -16.4449083 ], [ 49.8410287, -16.5093647 ], [ 49.8401442, -16.5607127 ], [ 49.8067562, -16.5989562 ], [ 49.799283, -16.6360349 ], [ 49.7762491, -16.662043 ], [ 49.7680305, -16.693611 ], [ 49.7417952, -16.690633 ], [ 49.7213053, -16.7134035 ], [ 49.7245539, -16.7524068 ], [ 49.759082, -16.8075602 ], [ 49.8044453, -16.8502278 ], [ 49.7012975, -16.8663776 ], [ 49.6295022, -16.8862999 ], [ 49.6052054, -16.900139 ], [ 49.5696134, -16.9782878 ], [ 49.5328047, -17.0308253 ], [ 49.518536, -17.0917621 ], [ 49.4675413, -17.2034157 ], [ 49.4092556, -17.2842428 ], [ 49.4261456, -17.2978715 ], [ 49.4105885, -17.3611028 ], [ 49.4152141, -17.3806697 ], [ 49.453021, -17.4178368 ], [ 49.4466028, -17.4471464 ], [ 49.4760611, -17.4822036 ], [ 49.4672544, -17.5281735 ], [ 49.482369, -17.5344708 ], [ 49.4752423, -17.5841209 ], [ 49.4868934, -17.6037831 ], [ 49.4926502, -17.6543047 ], [ 49.5174555, -17.6758687 ], [ 49.5196791, -17.6995789 ], [ 49.5026942, -17.7388533 ], [ 49.4938776, -17.7807641 ], [ 49.4319067, -17.9659536 ], [ 49.4196235, -18.0319106 ], [ 49.4015253, -18.0972979 ], [ 49.4196852, -18.1397173 ], [ 49.4092811, -18.1665224 ], [ 49.3724668, -18.2204713 ], [ 49.3652613, -18.2793647 ], [ 49.348181, -18.3201728 ], [ 49.338113, -18.4058261 ], [ 49.3082461, -18.4535962 ], [ 49.2626764, -18.5706791 ], [ 49.2256834, -18.6470369 ], [ 49.1876811, -18.7598586 ], [ 49.111457, -18.9518084 ], [ 49.1024329, -18.9834911 ], [ 49.0770806, -19.0235434 ], [ 49.0324917, -19.1317187 ], [ 49.0039026, -19.2114761 ], [ 48.9908001, -19.2608561 ], [ 48.9868159, -19.3281743 ], [ 48.9051384, -19.5182581 ], [ 48.885644, -19.5558721 ], [ 48.85926, -19.641281 ], [ 48.8199597, -19.8145596 ], [ 48.8128459, -19.929409 ], [ 48.7879547, -20.0020841 ], [ 48.7556209, -20.0613718 ], [ 48.7280863, -20.1293143 ], [ 48.688245, -20.2015647 ], [ 48.6443817, -20.2984789 ], [ 48.6067508, -20.3912602 ], [ 48.5093108, -20.6834995 ], [ 48.4854967, -20.8015316 ], [ 48.4485711, -20.9432086 ], [ 48.4424544, -20.9927026 ], [ 48.38777, -21.1401744 ], [ 48.3511336, -21.2295363 ], [ 48.313665, -21.3930416 ], [ 48.292625, -21.462268 ], [ 48.227339, -21.6459471 ], [ 48.1301371, -21.9013572 ], [ 48.1085707, -21.9454836 ], [ 48.025234, -22.1436961 ], [ 47.9586438, -22.2954105 ], [ 47.9435175, -22.3465639 ], [ 47.8935287, -22.4833449 ], [ 47.8609752, -22.6611648 ], [ 47.8561395, -22.7502991 ], [ 47.8414052, -22.789715 ], [ 47.8398931, -22.8255375 ], [ 47.8066246, -22.9788996 ], [ 47.7707521, -23.0715106 ], [ 47.7583626, -23.1182885 ], [ 47.7396595, -23.2310298 ], [ 47.7123492, -23.3256553 ], [ 47.6679159, -23.4228869 ], [ 47.647234, -23.4798474 ], [ 47.6284471, -23.5578805 ], [ 47.6135139, -23.6554854 ], [ 47.5954286, -23.7314957 ], [ 47.5920624, -23.7880753 ], [ 47.4924052, -24.0063972 ], [ 47.4784541, -24.0426232 ], [ 47.4572428, -24.0640905 ], [ 47.4056846, -24.1574877 ], [ 47.3793733, -24.2504465 ], [ 47.3582477, -24.2804533 ], [ 47.3258674, -24.3619287 ], [ 47.3057985, -24.4246192 ], [ 47.3055411, -24.4654 ], [ 47.2801115, -24.5416809 ], [ 47.2369318, -24.6315343 ], [ 47.2255715, -24.6676356 ], [ 47.1943741, -24.7155345 ], [ 47.1926467, -24.7912449 ], [ 47.1630541, -24.8055651 ], [ 47.1308019, -24.8517471 ], [ 47.1211794, -24.8958874 ], [ 47.1389507, -24.9212703 ], [ 47.1041655, -24.9472682 ], [ 47.0878147, -24.9731516 ], [ 47.0462302, -24.9748523 ], [ 46.999228, -25.0013563 ], [ 46.9922279, -25.023301 ], [ 46.9577252, -25.0612794 ], [ 46.9052667, -25.072034 ], [ 46.8062131, -25.1211052 ], [ 46.7671927, -25.1588893 ], [ 46.7561396, -25.1473091 ], [ 46.7174656, -25.180217 ], [ 46.6851358, -25.1821197 ], [ 46.6312284, -25.1988019 ], [ 46.6151477, -25.1820204 ], [ 46.5699899, -25.1832081 ], [ 46.5194397, -25.1656706 ], [ 46.3840186, -25.1775459 ], [ 46.3125241, -25.19176 ], [ 46.2281125, -25.2170515 ], [ 46.097564, -25.2644484 ], [ 45.9967763, -25.3045328 ], [ 45.8732437, -25.3643344 ], [ 45.7462544, -25.4458355 ], [ 45.712841, -25.4633406 ], [ 45.6702348, -25.504343 ], [ 45.6144897, -25.5375153 ], [ 45.5224962, -25.5727003 ], [ 45.4803316, -25.5787854 ], [ 45.388016, -25.5783194 ], [ 45.2811282, -25.5830184 ], [ 45.2154752, -25.6010677 ], [ 45.1660459, -25.6061415 ], [ 45.1400804, -25.5971415 ], [ 45.1337568, -25.5549996 ], [ 45.1099592, -25.5308735 ], [ 45.0176383, -25.4969643 ], [ 44.9611985, -25.467597 ], [ 44.9379215, -25.4193631 ], [ 44.8903586, -25.3863141 ], [ 44.8066196, -25.3406126 ], [ 44.7081695, -25.3128724 ], [ 44.5908038, -25.2957524 ], [ 44.5254266, -25.2909643 ], [ 44.4466009, -25.2725886 ], [ 44.3505296, -25.2641774 ], [ 44.3546202, -25.2228383 ], [ 44.3136505, -25.1687429 ], [ 44.1922215, -25.0789364 ], [ 44.1408544, -25.0683693 ], [ 44.1135532, -25.0802462 ], [ 44.0219998, -24.9838634 ], [ 44.0373471, -24.9640983 ], [ 44.0220558, -24.923126 ], [ 44.0173046, -24.8683293 ], [ 43.9563728, -24.8133015 ], [ 43.9526482, -24.7867669 ], [ 43.9201046, -24.7358348 ], [ 43.919312, -24.7133598 ], [ 43.943214, -24.6887736 ], [ 43.9347654, -24.6355663 ], [ 43.9161852, -24.6024902 ], [ 43.8162433, -24.4987912 ], [ 43.7633989, -24.4667118 ], [ 43.6962079, -24.3971742 ], [ 43.6704719, -24.3320952 ], [ 43.6640916, -24.1880972 ], [ 43.6728264, -24.1179861 ], [ 43.6771495, -24.0390114 ], [ 43.6638074, -24.0013192 ], [ 43.6645796, -23.933688 ], [ 43.6743227, -23.8902606 ], [ 43.6522463, -23.8423902 ], [ 43.6648458, -23.8185913 ], [ 43.6406734, -23.7622716 ], [ 43.6402317, -23.7249181 ], [ 43.6509686, -23.6800838 ], [ 43.6382314, -23.6679444 ], [ 43.6573675, -23.6143418 ], [ 43.6867036, -23.5982712 ], [ 43.7279569, -23.5934806 ], [ 43.7695506, -23.5574392 ], [ 43.746879, -23.5485067 ], [ 43.7665008, -23.4621387 ], [ 43.6950935, -23.3951565 ], [ 43.6660362, -23.3591342 ], [ 43.6401493, -23.3626399 ], [ 43.6193725, -23.3201199 ], [ 43.6102729, -23.2602353 ], [ 43.6206459, -23.2297268 ], [ 43.617241, -23.1803567 ], [ 43.605185, -23.132544 ], [ 43.6104847, -23.1054593 ], [ 43.592472, -23.0669583 ], [ 43.5098822, -23.0074549 ], [ 43.4901538, -23.0028169 ], [ 43.4469619, -22.9519689 ], [ 43.4372194, -22.9195903 ], [ 43.370771, -22.8452878 ], [ 43.3501305, -22.7791172 ], [ 43.3486838, -22.7517141 ], [ 43.3300624, -22.6830912 ], [ 43.308164, -22.6430228 ], [ 43.2837404, -22.5539178 ], [ 43.2885638, -22.4934923 ], [ 43.2736767, -22.4744461 ], [ 43.2611467, -22.372537 ], [ 43.2279713, -22.326105 ], [ 43.2394682, -22.2917403 ], [ 43.2207243, -22.2539573 ], [ 43.2367213, -22.224017 ], [ 43.2805335, -22.2244861 ], [ 43.2924065, -22.2598743 ], [ 43.3108987, -22.2513162 ], [ 43.3158389, -22.2081246 ], [ 43.2951312, -22.1373821 ], [ 43.2562077, -22.179569 ], [ 43.2362913, -22.1588924 ], [ 43.2445506, -22.116769 ], [ 43.2394225, -22.0513355 ], [ 43.2633255, -21.9931613 ], [ 43.2908373, -21.9890745 ], [ 43.3336724, -21.9606856 ], [ 43.3535293, -21.9016817 ], [ 43.3442628, -21.844186 ], [ 43.3613386, -21.8096056 ], [ 43.3480147, -21.7506836 ], [ 43.3912785, -21.7203184 ], [ 43.426805, -21.6707195 ], [ 43.4555043, -21.6781971 ], [ 43.4954575, -21.70302 ], [ 43.5072863, -21.6912852 ], [ 43.4803634, -21.6229095 ], [ 43.4868076, -21.568305 ], [ 43.5070648, -21.552012 ], [ 43.4853451, -21.4704668 ], [ 43.4948682, -21.4536903 ], [ 43.5109962, -21.3818808 ], [ 43.5525083, -21.353153 ], [ 43.5667878, -21.3259862 ], [ 43.6155427, -21.3423568 ], [ 43.6800257, -21.3222793 ], [ 43.7335887, -21.3401986 ], [ 43.7643424, -21.3103045 ], [ 43.7455733, -21.271932 ], [ 43.78562, -21.2453208 ], [ 43.8036632, -21.2215055 ], [ 43.8389012, -21.1396182 ], [ 43.8602136, -21.0620055 ], [ 43.8818962, -21.023528 ], [ 43.8688134, -21.0128848 ], [ 43.8718558, -20.9547148 ], [ 43.9009049, -20.8614382 ], [ 43.9244084, -20.8500004 ], [ 43.9443433, -20.8194836 ], [ 43.9812783, -20.7841731 ], [ 44.0202149, -20.7753874 ], [ 43.9944845, -20.7331382 ], [ 44.0408668, -20.7133183 ], [ 44.0646919, -20.6661987 ], [ 44.0857242, -20.6032233 ], [ 44.0879947, -20.5664124 ], [ 44.1461174, -20.4886837 ], [ 44.1489952, -20.4624318 ], [ 44.1885351, -20.425539 ], [ 44.2155096, -20.4393108 ], [ 44.244099, -20.4031275 ], [ 44.2506112, -20.3555148 ], [ 44.2459635, -20.3262935 ], [ 44.2920744, -20.2656268 ], [ 44.3011188, -20.2354613 ], [ 44.3434584, -20.223907 ], [ 44.3652259, -20.1710654 ], [ 44.4033226, -20.1578072 ], [ 44.4365579, -20.0917309 ], [ 44.5038773, -20.0230007 ], [ 44.5047005, -19.9639392 ], [ 44.4868975, -19.9520418 ], [ 44.4589704, -19.8698623 ], [ 44.4294051, -19.8425691 ], [ 44.4069074, -19.8378983 ], [ 44.3889131, -19.7942017 ], [ 44.3961566, -19.738488 ], [ 44.3930831, -19.6936647 ], [ 44.4523222, -19.6696726 ], [ 44.4528438, -19.6359355 ], [ 44.4894598, -19.5752616 ], [ 44.4791239, -19.536342 ], [ 44.4587431, -19.4973919 ], [ 44.4738102, -19.4572581 ], [ 44.4505267, -19.3969218 ], [ 44.4572734, -19.3266296 ], [ 44.4169467, -19.2989468 ], [ 44.389873, -19.3212654 ], [ 44.3727515, -19.2936491 ], [ 44.3559388, -19.2924312 ], [ 44.335356, -19.2507632 ], [ 44.3425368, -19.2288085 ], [ 44.3224526, -19.1901907 ], [ 44.3450617, -19.1624569 ], [ 44.3459575, -19.1414686 ], [ 44.3018221, -19.1325495 ], [ 44.3122227, -19.1076059 ], [ 44.2781088, -19.0705165 ], [ 44.2660599, -19.038532 ], [ 44.2796622, -19.02442 ], [ 44.2865146, -18.9734499 ], [ 44.2615781, -18.9493992 ], [ 44.2670873, -18.9275285 ], [ 44.2385054, -18.8740988 ], [ 44.2577875, -18.857693 ], [ 44.2514065, -18.8017766 ], [ 44.2162652, -18.7104556 ], [ 44.1573463, -18.5997062 ], [ 44.1642966, -18.5868589 ], [ 44.140984, -18.5496652 ], [ 44.1663042, -18.5350975 ], [ 44.118339, -18.5159484 ], [ 44.1116951, -18.4954415 ], [ 44.0754345, -18.4612697 ], [ 44.0951538, -18.4322603 ], [ 44.0805276, -18.4171221 ], [ 44.080962, -18.3860882 ], [ 44.0448881, -18.3475337 ], [ 44.0503133, -18.2924421 ], [ 44.1112481, -18.2667209 ], [ 44.0785222, -18.2354003 ], [ 44.0680064, -18.1853813 ], [ 44.090923, -18.183173 ], [ 44.0644972, -18.1359109 ], [ 44.071487, -18.113021 ], [ 44.0440896, -18.073994 ], [ 44.0162622, -18.0658696 ], [ 44.0238734, -18.0040916 ], [ 44.0169131, -17.9242092 ], [ 44.027533, -17.9010811 ], [ 44.0600557, -17.9069074 ], [ 44.0296288, -17.8619401 ], [ 44.0343967, -17.8006608 ], [ 44.0189929, -17.762201 ], [ 43.9592043, -17.7378236 ], [ 43.9565022, -17.6886503 ], [ 43.9290183, -17.5450161 ], [ 43.935283, -17.4627241 ], [ 43.9675756, -17.4234843 ], [ 43.976133, -17.3867384 ], [ 44.0023724, -17.3402039 ], [ 44.0168826, -17.3358131 ], [ 44.0677216, -17.2521653 ], [ 44.0923062, -17.2227536 ], [ 44.0996855, -17.162835 ], [ 44.1407997, -17.100466 ], [ 44.1685348, -17.0836605 ], [ 44.2139745, -17.0260993 ], [ 44.2500749, -16.9546176 ], [ 44.2625296, -16.9468944 ], [ 44.2921722, -16.8800409 ], [ 44.3090935, -16.8626028 ], [ 44.3849187, -16.7505096 ], [ 44.4241907, -16.7172628 ], [ 44.4399363, -16.6653879 ], [ 44.4308697, -16.5681424 ], [ 44.4651011, -16.5524731 ], [ 44.4703875, -16.4994399 ], [ 44.4467856, -16.4286632 ], [ 44.4359896, -16.3771081 ], [ 44.462968, -16.3192112 ], [ 44.4725979, -16.2599791 ], [ 44.4612886, -16.2014672 ], [ 44.484793, -16.1858097 ], [ 44.5031398, -16.2056915 ], [ 44.503263, -16.2628873 ], [ 44.5199029, -16.2750347 ], [ 44.5493021, -16.1911089 ], [ 44.600756, -16.1934012 ], [ 44.6391177, -16.2115048 ], [ 44.690573, -16.2173835 ], [ 44.7294864, -16.231607 ], [ 44.713713, -16.2586388 ], [ 44.7731975, -16.2533003 ], [ 44.7977227, -16.2654344 ], [ 44.7980992, -16.2881074 ], [ 44.7807297, -16.3151426 ], [ 44.7949425, -16.3738993 ], [ 44.818856, -16.3430042 ], [ 44.8094213, -16.3043495 ], [ 44.8430455, -16.2921386 ], [ 44.8755909, -16.2925471 ], [ 44.9140409, -16.210635 ], [ 44.9412454, -16.1927373 ], [ 44.9679091, -16.1897806 ], [ 44.990838, -16.2168357 ], [ 45.0249705, -16.2120675 ], [ 44.9833754, -16.1674954 ], [ 45.0105672, -16.1428908 ], [ 45.0388717, -16.0990846 ], [ 45.1408173, -15.9995916 ], [ 45.1663816, -15.9904262 ], [ 45.1988484, -15.9606404 ], [ 45.2651303, -15.9360923 ], [ 45.2658789, -15.9992157 ], [ 45.2760961, -16.0682524 ], [ 45.258922, -16.0779353 ], [ 45.2477667, -16.1074495 ], [ 45.2503356, -16.1373336 ], [ 45.2747459, -16.1517317 ], [ 45.3287186, -16.14676 ], [ 45.3173522, -16.123074 ], [ 45.3653375, -16.1278923 ], [ 45.3764857, -16.1032675 ], [ 45.3684466, -16.0794499 ], [ 45.3947571, -16.0435902 ], [ 45.4136718, -16.0427817 ], [ 45.4296055, -16.0185316 ], [ 45.4095798, -15.995898 ], [ 45.3492531, -15.9990962 ], [ 45.3485649, -15.9859573 ], [ 45.4140899, -15.9871295 ], [ 45.4636004, -15.9736307 ], [ 45.5134247, -15.9815047 ], [ 45.5577692, -15.9811367 ], [ 45.5444602, -16.033085 ], [ 45.5234801, -16.0585154 ], [ 45.501884, -16.052899 ], [ 45.481026, -16.0769075 ], [ 45.5306674, -16.0905329 ], [ 45.5986743, -16.0776414 ], [ 45.6164271, -16.0884117 ], [ 45.6519678, -16.0777433 ], [ 45.6184993, -16.0257998 ], [ 45.5998062, -16.010652 ], [ 45.6377646, -15.9685478 ], [ 45.6305939, -15.9324992 ], [ 45.6442904, -15.9271768 ], [ 45.6410479, -15.8703772 ], [ 45.657067, -15.8437921 ], [ 45.6540199, -15.806701 ], [ 45.6756368, -15.7855083 ], [ 45.7061359, -15.7949441 ], [ 45.7126194, -15.8227479 ], [ 45.7489314, -15.8550878 ], [ 45.7682453, -15.894696 ], [ 45.7949395, -15.913149 ], [ 45.7854084, -15.858308 ], [ 45.8121931, -15.8337341 ], [ 45.8336593, -15.8442154 ], [ 45.8618211, -15.832512 ], [ 45.8889798, -15.8658941 ], [ 45.9215509, -15.8289172 ], [ 45.9317121, -15.7813412 ], [ 45.9516997, -15.7884682 ], [ 45.9595218, -15.8673963 ], [ 46.028627, -15.8480153 ], [ 46.0589528, -15.8963012 ], [ 46.0894353, -15.8720623 ], [ 46.0958188, -15.8466554 ], [ 46.0522987, -15.8451962 ], [ 46.0654633, -15.818082 ], [ 46.0984687, -15.8198499 ], [ 46.1044343, -15.7913527 ], [ 46.0809139, -15.7711191 ], [ 46.0398974, -15.8140839 ], [ 46.021463, -15.7993587 ], [ 46.0901771, -15.7218965 ], [ 46.119683, -15.7125859 ], [ 46.2074418, -15.7087572 ], [ 46.2322278, -15.7176351 ], [ 46.2474669, -15.7525829 ], [ 46.2381898, -15.8018384 ], [ 46.2090477, -15.8228688 ], [ 46.2332333, -15.8399922 ], [ 46.343615, -15.791681 ], [ 46.3948001, -15.7488561 ], [ 46.3615116, -15.7226625 ], [ 46.3040055, -15.7281372 ], [ 46.3279314, -15.6601952 ], [ 46.3811449, -15.5969619 ], [ 46.4382535, -15.5538355 ], [ 46.4650828, -15.5526283 ], [ 46.509491, -15.5755113 ], [ 46.5117431, -15.5564346 ], [ 46.4826952, -15.5259789 ], [ 46.6444175, -15.4158802 ], [ 46.6716938, -15.4731147 ], [ 46.6977855, -15.4483181 ], [ 46.6984946, -15.4049129 ], [ 46.6577573, -15.3904096 ], [ 46.6926405, -15.3704435 ], [ 46.7561591, -15.3158635 ], [ 46.843464, -15.2546352 ], [ 46.871633, -15.230063 ], [ 46.944559, -15.1990533 ], [ 46.9677593, -15.2270526 ], [ 46.9591976, -15.2477305 ], [ 46.9669064, -15.2920878 ], [ 47.047948, -15.3180151 ], [ 47.0435485, -15.3703329 ], [ 47.0316451, -15.3882112 ], [ 46.9572498, -15.4231304 ], [ 46.9364543, -15.4709573 ], [ 46.9899511, -15.4909476 ], [ 47.0366075, -15.4746864 ], [ 47.0764523, -15.4696553 ], [ 47.0980355, -15.4497752 ], [ 47.1442505, -15.4574784 ], [ 47.180881, -15.4833621 ], [ 47.2373427, -15.4990204 ], [ 47.2588386, -15.4977718 ], [ 47.2718471, -15.4731771 ], [ 47.2396874, -15.4701572 ], [ 47.2432499, -15.4063909 ], [ 47.2110422, -15.4229361 ], [ 47.1840535, -15.4207447 ], [ 47.1423318, -15.3624518 ], [ 47.1612343, -15.3166902 ], [ 47.158366, -15.2827265 ], [ 47.1122377, -15.3123944 ], [ 47.0704749, -15.2746719 ], [ 47.0675313, -15.2449556 ], [ 47.0439161, -15.2304929 ], [ 47.0478224, -15.1817846 ], [ 47.1031183, -15.1077631 ], [ 47.1593057, -15.1014292 ], [ 47.1656232, -15.0839864 ], [ 47.198531, -15.0624252 ], [ 47.2277067, -15.0011119 ], [ 47.256532, -15.0088105 ], [ 47.2610299, -14.9577809 ], [ 47.2859438, -14.9343579 ], [ 47.3133895, -14.9253269 ], [ 47.3802352, -14.923611 ], [ 47.3933276, -14.8982411 ], [ 47.3881159, -14.8577417 ], [ 47.354445, -14.8530688 ], [ 47.3014139, -14.890073 ], [ 47.2825605, -14.8561123 ], [ 47.311087, -14.8153489 ], [ 47.3519647, -14.7704403 ], [ 47.4491396, -14.6785393 ], [ 47.4998489, -14.7212549 ], [ 47.4793594, -14.7691071 ], [ 47.516242, -14.8199434 ], [ 47.4800353, -14.8823861 ], [ 47.4011354, -14.9813252 ], [ 47.4122796, -15.0185413 ], [ 47.3995109, -15.0649338 ], [ 47.3997146, -15.1147132 ], [ 47.4265638, -15.1450657 ], [ 47.4404935, -15.1268041 ], [ 47.4853549, -15.0949932 ], [ 47.5096423, -15.0419462 ], [ 47.5289946, -15.0430187 ], [ 47.5577385, -15.0208133 ], [ 47.5855236, -14.9412054 ], [ 47.586804, -14.8933058 ], [ 47.6413387, -14.8172537 ], [ 47.6305345, -14.7990991 ], [ 47.6832721, -14.7302714 ], [ 47.6861905, -14.7093853 ], [ 47.7149069, -14.700298 ], [ 47.7330101, -14.6460259 ], [ 47.7572841, -14.6149732 ], [ 47.7909208, -14.5943702 ], [ 47.8255165, -14.6229116 ], [ 47.8686966, -14.6806851 ], [ 47.8927516, -14.6901674 ], [ 47.9031296, -14.7350814 ], [ 47.9264268, -14.7368469 ], [ 47.9500554, -14.6253573 ], [ 47.9916587, -14.6719261 ], [ 47.9725553, -14.7450092 ], [ 47.9795748, -14.7652515 ], [ 47.9149785, -14.7906565 ], [ 47.8844628, -14.8236011 ], [ 47.8826981, -14.8601731 ], [ 47.8700786, -14.906405 ], [ 47.8826972, -14.9494883 ], [ 47.9019716, -14.9456406 ], [ 47.9232244, -14.8727872 ], [ 47.97084, -14.8714029 ], [ 47.9573767, -14.825249 ], [ 47.995086, -14.8257904 ], [ 48.0061646, -14.7980107 ], [ 48.0138004, -14.7134337 ], [ 48.0494139, -14.6804305 ], [ 48.0168229, -14.6758959 ], [ 48.0074854, -14.6528692 ], [ 48.0134857, -14.5904042 ], [ 47.9868501, -14.5901424 ], [ 47.9728146, -14.6076943 ], [ 47.9481654, -14.5926935 ], [ 47.9486544, -14.5201047 ], [ 47.9238513, -14.5226029 ], [ 47.9204044, -14.5518601 ], [ 47.8798812, -14.5752711 ], [ 47.8765541, -14.5938447 ], [ 47.8255536, -14.60515 ], [ 47.7866489, -14.5594125 ], [ 47.7835789, -14.5885372 ], [ 47.7336436, -14.6117808 ], [ 47.717108, -14.5568843 ], [ 47.7399976, -14.5270132 ], [ 47.7172747, -14.5056537 ], [ 47.7052959, -14.4548203 ], [ 47.6931188, -14.4527714 ], [ 47.6975004, -14.3998185 ], [ 47.7200292, -14.3408654 ], [ 47.7516973, -14.3178463 ], [ 47.7694601, -14.2808282 ], [ 47.762111, -14.2518245 ], [ 47.8048439, -14.2178612 ], [ 47.839642, -14.2573489 ], [ 47.8771942, -14.2633336 ], [ 47.9013068, -14.2434324 ], [ 47.9280093, -14.2642588 ], [ 47.9392393, -14.234778 ], [ 47.9508621, -14.144033 ], [ 47.9727606, -14.1242017 ], [ 47.9946521, -14.129773 ], [ 48.0031669, -14.1655985 ], [ 47.9830752, -14.1870037 ], [ 47.9672905, -14.281275 ], [ 47.9558432, -14.3241438 ], [ 47.9805111, -14.3331011 ], [ 47.9620118, -14.3716832 ], [ 47.9742251, -14.3967535 ], [ 48.0010989, -14.3717333 ], [ 48.0470344, -14.2611195 ], [ 48.0310905, -14.239301 ], [ 48.0481239, -14.1772241 ], [ 48.0350053, -14.1412852 ], [ 48.0497125, -14.1154697 ], [ 48.042165, -14.0770259 ], [ 48.0013577, -14.0649558 ], [ 47.9712372, -14.0472615 ], [ 47.9484894, -14.0208995 ], [ 47.9883984, -14.008442 ], [ 48.0076332, -13.9757367 ], [ 48.0390576, -13.9699132 ], [ 48.0205454, -13.9337808 ], [ 47.9933245, -13.9204838 ], [ 47.9165873, -13.9160093 ], [ 47.8929381, -13.9002038 ], [ 47.8742184, -13.8136775 ], [ 47.8593846, -13.7744664 ], [ 47.8842868, -13.71111 ], [ 47.8827376, -13.6596457 ], [ 47.8941553, -13.592071 ], [ 47.9368298, -13.5956898 ], [ 47.9742019, -13.5115927 ], [ 47.9984592, -13.5271651 ], [ 47.9663535, -13.5575025 ], [ 48.0116849, -13.5944333 ], [ 48.0448988, -13.5472109 ], [ 48.0621506, -13.5349308 ], [ 48.0915204, -13.5859837 ], [ 48.1463351, -13.6012906 ], [ 48.1388558, -13.6323522 ], [ 48.1428804, -13.6697241 ], [ 48.1647008, -13.6831032 ], [ 48.155781, -13.7133765 ], [ 48.1655392, -13.7558339 ], [ 48.2097112, -13.7840124 ], [ 48.2249172, -13.8122445 ], [ 48.2574513, -13.8234227 ], [ 48.3334264, -13.7913069 ], [ 48.3617568, -13.7432105 ], [ 48.3459241, -13.7108587 ], [ 48.3309991, -13.6566327 ], [ 48.3828817, -13.6072375 ], [ 48.4320266, -13.5778826 ], [ 48.4647423, -13.5704931 ], [ 48.4881449, -13.5851489 ], [ 48.5392365, -13.5570771 ], [ 48.5038604, -13.4663477 ], [ 48.479967, -13.4366266 ], [ 48.4721197, -13.3820905 ], [ 48.5080433, -13.3924895 ], [ 48.529815, -13.4367349 ], [ 48.5793646, -13.4536964 ], [ 48.5831839, -13.4794833 ], [ 48.6214095, -13.4721233 ], [ 48.6521239, -13.4793652 ], [ 48.6669878, -13.4661129 ], [ 48.7087644, -13.4724204 ], [ 48.746265, -13.4579513 ], [ 48.769179, -13.4271234 ], [ 48.7941782, -13.4265709 ], [ 48.8349293, -13.3796472 ], [ 48.8103987, -13.3347704 ], [ 48.8153479, -13.2961817 ], [ 48.9043304, -13.2691146 ], [ 48.8682579, -13.2598009 ], [ 48.8493348, -13.2439315 ], [ 48.8458164, -13.2105488 ], [ 48.8230343, -13.1998305 ], [ 48.8396391, -13.1718985 ], [ 48.836912, -13.1307561 ], [ 48.8490011, -13.0784583 ], [ 48.884191, -13.0268455 ], [ 48.9242278, -13.013776 ], [ 48.9614814, -12.9872843 ], [ 48.9553243, -12.9532367 ], [ 48.9602739, -12.9097461 ], [ 48.9888306, -12.9176946 ], [ 49.0002317, -12.9038731 ], [ 48.9828809, -12.8737317 ], [ 48.9555133, -12.8816336 ], [ 48.9596993, -12.8184318 ], [ 48.9415188, -12.7947229 ], [ 48.900145, -12.7676097 ], [ 48.8955319, -12.6747204 ], [ 48.8553584, -12.6637111 ], [ 48.8528737, -12.6157849 ], [ 48.86274, -12.5803206 ], [ 48.883709, -12.5652909 ], [ 48.8853754, -12.5378727 ], [ 48.8204955, -12.5657153 ], [ 48.8221078, -12.5308548 ], [ 48.8050521, -12.5031027 ], [ 48.7835843, -12.4955514 ], [ 48.743705, -12.42868 ], [ 48.7589093, -12.3973854 ], [ 48.7823702, -12.4116143 ], [ 48.8358134, -12.4130765 ], [ 48.8616183, -12.4298947 ], [ 48.8619906, -12.4484422 ], [ 48.8875911, -12.4749155 ], [ 48.8867032, -12.5242563 ], [ 48.941152, -12.4887258 ], [ 48.9548547, -12.4040845 ], [ 48.9703198, -12.4035562 ], [ 48.9775305, -12.3519653 ], [ 49.0126131, -12.3206684 ], [ 49.0918955, -12.316304 ], [ 49.0886709, -12.2803286 ], [ 49.1156009, -12.2637421 ], [ 49.1359219, -12.2867864 ], [ 49.1583814, -12.2303687 ], [ 49.1437346, -12.2160718 ], [ 49.1845742, -12.1789015 ], [ 49.1879985, -12.1597163 ], [ 49.1728406, -12.1245605 ], [ 49.1351172, -12.105498 ], [ 49.1103492, -12.1127157 ], [ 49.0931174, -12.0976921 ], [ 49.141535, -12.075193 ], [ 49.1625817, -12.0763449 ], [ 49.1799812, -12.0968108 ], [ 49.2139916, -12.0999937 ], [ 49.1936553, -12.0666659 ], [ 49.1834554, -12.031964 ], [ 49.2365008, -12.0013063 ], [ 49.2049295, -11.9904272 ], [ 49.2459897, -11.9520417 ] ] ], [ [ [ 50.0110931, -16.7021855 ], [ 50.0202456, -16.7156245 ], [ 50.0033989, -16.742592 ], [ 49.9524813, -16.862122 ], [ 49.9475397, -16.8919164 ], [ 49.9031759, -16.9534777 ], [ 49.878748, -17.0132703 ], [ 49.8236383, -17.0746223 ], [ 49.8334575, -17.0170109 ], [ 49.8600412, -16.9763074 ], [ 49.857193, -16.9287962 ], [ 49.887334, -16.8776027 ], [ 49.9001085, -16.8744841 ], [ 49.9275982, -16.8153691 ], [ 49.9517316, -16.8039017 ], [ 49.9696512, -16.7787477 ], [ 49.9764452, -16.7334442 ], [ 50.0110931, -16.7021855 ] ] ], [ [ [ 49.5554411, -12.4270144 ], [ 49.584713, -12.5158026 ], [ 49.5612485, -12.5147759 ], [ 49.5634914, -12.4646747 ], [ 49.5554411, -12.4270144 ] ] ], [ [ [ 48.6181745, -12.8209373 ], [ 48.6323789, -12.8374505 ], [ 48.6130752, -12.8619779 ], [ 48.6154967, -12.8982243 ], [ 48.5904362, -12.9378653 ], [ 48.5760306, -12.9140276 ], [ 48.6099123, -12.8656362 ], [ 48.6181745, -12.8209373 ] ] ], [ [ [ 48.3462624, -13.4407367 ], [ 48.3722165, -13.468019 ], [ 48.3671407, -13.4911003 ], [ 48.3308222, -13.4897031 ], [ 48.3247714, -13.4564633 ], [ 48.3462624, -13.4407367 ] ] ], [ [ [ 48.3512755, -13.5343061 ], [ 48.3687905, -13.5523211 ], [ 48.3624784, -13.5956938 ], [ 48.335186, -13.5884519 ], [ 48.3276079, -13.550757 ], [ 48.3512755, -13.5343061 ] ] ], [ [ [ 48.2690605, -13.1988735 ], [ 48.3119231, -13.2191406 ], [ 48.2895089, -13.2736128 ], [ 48.3289442, -13.290045 ], [ 48.325933, -13.3316689 ], [ 48.3103153, -13.3649728 ], [ 48.3532775, -13.4037879 ], [ 48.3100367, -13.4226948 ], [ 48.2777598, -13.4082286 ], [ 48.2043242, -13.3931639 ], [ 48.1900187, -13.3686959 ], [ 48.182759, -13.3029425 ], [ 48.2623611, -13.2668825 ], [ 48.2470473, -13.2146796 ], [ 48.2690605, -13.1988735 ] ] ], [ [ [ 47.7924005, -13.9808155 ], [ 47.8328359, -14.0564767 ], [ 47.7875239, -14.0417285 ], [ 47.7818165, -14.0057546 ], [ 47.7924005, -13.9808155 ] ] ], [ [ [ 47.5949326, -14.5061372 ], [ 47.6040303, -14.5383471 ], [ 47.6306917, -14.5468023 ], [ 47.6292582, -14.5707608 ], [ 47.5781422, -14.5849755 ], [ 47.5807501, -14.5240088 ], [ 47.5949326, -14.5061372 ] ] ], [ [ [ 43.3042107, -21.8620548 ], [ 43.3126747, -21.9043566 ], [ 43.2942669, -21.9329962 ], [ 43.2763982, -21.9047527 ], [ 43.3042107, -21.8620548 ] ] ] ] } }
]
}
