{
"type": "FeatureCollection",
"name": "MDV_GAUL2004_ADM1",
"crs": { "type": "name", "properties": { "name": "urn:ogc:def:crs:OGC:1.3:CRS84" } },
"features": [
{ "type": "Feature", "properties": { "POLYGON_ID": "MDV_GAUL2004_ADM1_1905", "ADM0_ISO3": "MDV", "ADM0_NAME": "Maldives", "ADM0_CODE": 154, "ADM1_NAME": "Alifu Alifu", "ADM1_CODE": 1905, "GEOSET": "GAUL", "GEOSET_YEAR": 2004.0, "GEOSET_VERSION": "GAUL_v1", "GEOSET_UNIT": "ADM1", "CENTROID_LONG": 72.9588144, "CENTROID_LAT": 4.4365493333333328 }, "geometry": { "type": "MultiPolygon", "coordinates": [ [ [ [ 72.9616628, 4.4432997 ], [ 72.9622147, 4.4292578 ], [ 72.9525657, 4.4370905 ], [ 72.9616628, 4.4432997 ] ] ] ] } },
{ "type": "Feature", "properties": { "POLYGON_ID": "MDV_GAUL2004_ADM1_1906", "ADM0_ISO3": "MDV", "ADM0_NAME": "Maldives", "ADM0_CODE": 154, "ADM1_NAME": "Alifu Dhaalu", "ADM1_CODE": 1906, "GEOSET": "GAUL", "GEOSET_YEAR": 2004.0, "GEOSET_VERSION": "GAUL_v1", "GEOSET_UNIT": "ADM1", "CENTROID_LONG": 72.924725921438082, "CENTROID_LAT": 3.5285661116298326 }, "geometry": { "type": "MultiPolygon", "coordinates": [ [ [ [ 72.9167824, 3.5166652 ], [ 72.9226249, 3.5257254 ], [ 72.928215, 3.5370473 ], [ 72.9283447, 3.5320635 ], [ 72.9217915, 3.5227191 ], [ 72.9167824, 3.5166652 ] ] ] ] } },
{ "type": "Feature", "properties": { "POLYGON_ID": "MDV_GAUL2004_ADM1_1907", "ADM0_ISO3": "MDV", "ADM0_NAME": "Maldives", "ADM0_CODE": 154, "ADM1_NAME": "Baa", "ADM1_CODE": 1907, "GEOSET": "GAUL", "GEOSET_YEAR": 2004.0, "GEOSET_VERSION": "GAUL_v1", "GEOSET_UNIT": "ADM1", "CENTROID_LONG": 72.998856366666672, "CENTROID_LAT": 4.8733938333333331 }, "geometry": { "type": "MultiPolygon", "coordinates": [ [ [ [ 73.0020202, 4.8797835 ], [ 73.0001711, 4.8658655 ], [ 72.9943778, 4.8745325 ], [ 73.0020202, 4.8797835 ] ] ] ] } },
{ "type": "Feature", "properties": { "POLYGON_ID": "MDV_GAUL2004_ADM1_1908", "ADM0_ISO3": "MDV", "ADM0_NAME": "Maldives", "ADM0_CODE": 154, "ADM1_NAME": "Dhaalu", "ADM1_CODE": 1908, "GEOSET": "GAUL", "GEOSET_YEAR": 2004.0, "GEOSET_VERSION": "GAUL_v1", "GEOSET_UNIT": "ADM1", "CENTROID_LONG": 73.020080583470147, "CENTROID_LAT": 2.7473313575292968 }, "geometry": { "type": "MultiPolygon", "coordinates": [ [ [ [ 73.0202595, 2.7512464 ], [ 73.0216711, 2.7497027 ], [ 73.0207818, 2.7453203 ], [ 73.0180937, 2.7435122 ], [ 73.0202595, 2.7512464 ] ] ] ] } },
{ "type": "Feature", "properties": { "POLYGON_ID": "MDV_GAUL2004_ADM1_1909", "ADM0_ISO3": "MDV", "ADM0_NAME": "Maldives", "ADM0_CODE": 154, "ADM1_NAME": "Faafu", "ADM1_CODE": 1909, "GEOSET": "GAUL", "GEOSET_YEAR": 2004.0, "GEOSET_VERSION": "GAUL_v1", "GEOSET_UNIT": "ADM1", "CENTROID_LONG": 72.889816565153012, "CENTROID_LAT": 3.0558538266608175 }, "geometry": { "type": "MultiPolygon", "coordinates": [ [ [ [ 72.8918182, 3.0591949 ], [ 72.8926011, 3.05211 ], [ 72.8877289, 3.0532605 ], [ 72.8866931, 3.0586695 ], [ 72.8918182, 3.0591949 ] ] ] ] } },
{ "type": "Feature", "properties": { "POLYGON_ID": "MDV_GAUL2004_ADM1_1910", "ADM0_ISO3": "MDV", "ADM0_NAME": "Maldives", "ADM0_CODE": 154, "ADM1_NAME": "Gaafu Alifu", "ADM1_CODE": 1910, "GEOSET": "GAUL", "GEOSET_YEAR": 2004.0, "GEOSET_VERSION": "GAUL_v1", "GEOSET_UNIT": "ADM1", "CENTROID_LONG": 73.553158629529008, "CENTROID_LAT": 0.38062232758889641 }, "geometry": { "type": "MultiPolygon", "coordinates": [ [ [ [ 73.5583154, 0.3921917 ], [ 73.5580597, 0.3903873 ], [ 73.5551154, 0.3865204 ], [ 73.5526845, 0.3803336 ], [ 73.5528132, 0.3736317 ], [ 73.5484609, 0.3707956 ], [ 73.5511489, 0.3764669 ], [ 73.5528115, 0.3836846 ], [ 73.5549877, 0.387036 ], [ 73.5557552, 0.3906447 ], [ 73.5583154, 0.3921917 ] ] ] ] } },
{ "type": "Feature", "properties": { "POLYGON_ID": "MDV_GAUL2004_ADM1_1911", "ADM0_ISO3": "MDV", "ADM0_NAME": "Maldives", "ADM0_CODE": 154, "ADM1_NAME": "Gaafu Dhaalu", "ADM1_CODE": 1911, "GEOSET": "GAUL", "GEOSET_YEAR": 2004.0, "GEOSET_VERSION": "GAUL_v1", "GEOSET_UNIT": "ADM1", "CENTROID_LONG": 73.4364157, "CENTROID_LAT": 0.27996186666666667 }, "geometry": { "type": "MultiPolygon", "coordinates": [ [ [ [ 73.4466988, 0.2862353 ], [ 73.4340269, 0.2712839 ], [ 73.4285214, 0.2823664 ], [ 73.4466988, 0.2862353 ] ] ] ] } },
{ "type": "Feature", "properties": { "POLYGON_ID": "MDV_GAUL2004_ADM1_1913", "ADM0_ISO3": "MDV", "ADM0_NAME": "Maldives", "ADM0_CODE": 154, "ADM1_NAME": "Haa Alifu", "ADM1_CODE": 1913, "GEOSET": "GAUL", "GEOSET_YEAR": 2004.0, "GEOSET_VERSION": "GAUL_v1", "GEOSET_UNIT": "ADM1", "CENTROID_LONG": 73.231054186286357, "CENTROID_LAT": 6.8824035101729208 }, "geometry": { "type": "MultiPolygon", "coordinates": [ [ [ [ 73.2344958, 6.9218079 ], [ 73.2362471, 6.9014568 ], [ 73.2344184, 6.8731041 ], [ 73.2256605, 6.8707524 ], [ 73.2213826, 6.8769212 ], [ 73.2302634, 6.8810771 ], [ 73.235228, 6.8981032 ], [ 73.2344958, 6.9218079 ] ] ] ] } },
{ "type": "Feature", "properties": { "POLYGON_ID": "MDV_GAUL2004_ADM1_1914", "ADM0_ISO3": "MDV", "ADM0_NAME": "Maldives", "ADM0_CODE": 154, "ADM1_NAME": "Haa Dhaalu", "ADM1_CODE": 1914, "GEOSET": "GAUL", "GEOSET_YEAR": 2004.0, "GEOSET_VERSION": "GAUL_v1", "GEOSET_UNIT": "ADM1", "CENTROID_LONG": 73.1771169, "CENTROID_LAT": 6.7619005 }, "geometry": { "type": "MultiPolygon", "coordinates": [ [ [ [ 73.1832434, 6.7688079 ], [ 73.1746751, 6.7507378 ], [ 73.1734322, 6.7661558 ], [ 73.1832434, 6.7688079 ] ] ] ] } },
{ "type": "Feature", "properties": { "POLYGON_ID": "MDV_GAUL2004_ADM1_1915", "ADM0_ISO3": "MDV", "ADM0_NAME": "Maldives", "ADM0_CODE": 154, "ADM1_NAME": "Kaafu", "ADM1_CODE": 1915, "GEOSET": "GAUL", "GEOSET_YEAR": 2004.0, "GEOSET_VERSION": "GAUL_v1", "GEOSET_UNIT": "ADM1", "CENTROID_LONG": 73.5307053130919, "CENTROID_LAT": 4.1867641463531848 }, "geometry": { "type": "MultiPolygon", "coordinates": [ [ [ [ 73.5447889, 4.2128265 ], [ 73.5370142, 4.1883026 ], [ 73.5277127, 4.1762275 ], [ 73.5253111, 4.1932953 ], [ 73.5367642, 4.1891265 ], [ 73.5447889, 4.2128265 ] ] ] ] } },
{ "type": "Feature", "properties": { "POLYGON_ID": "MDV_GAUL2004_ADM1_1916", "ADM0_ISO3": "MDV", "ADM0_NAME": "Maldives", "ADM0_CODE": 154, "ADM1_NAME": "Laamu", "ADM1_CODE": 1916, "GEOSET": "GAUL", "GEOSET_YEAR": 2004.0, "GEOSET_VERSION": "GAUL_v1", "GEOSET_UNIT": "ADM1", "CENTROID_LONG": 73.543400484551938, "CENTROID_LAT": 1.9264605616269534 }, "geometry": { "type": "MultiPolygon", "coordinates": [ [ [ [ 73.5435429, 1.9431106 ], [ 73.553054, 1.927952 ], [ 73.5366777, 1.9052548 ], [ 73.5395982, 1.941369 ], [ 73.5435429, 1.9431106 ] ] ] ] } },
{ "type": "Feature", "properties": { "POLYGON_ID": "MDV_GAUL2004_ADM1_1917", "ADM0_ISO3": "MDV", "ADM0_NAME": "Maldives", "ADM0_CODE": 154, "ADM1_NAME": "Lhaviyani", "ADM1_CODE": 1917, "GEOSET": "GAUL", "GEOSET_YEAR": 2004.0, "GEOSET_VERSION": "GAUL_v1", "GEOSET_UNIT": "ADM1", "CENTROID_LONG": 73.644512677281512, "CENTROID_LAT": 5.4117383784770565 }, "geometry": { "type": "MultiPolygon", "coordinates": [ [ [ [ 73.6406344, 5.4253745 ], [ 73.6438674, 5.4171336 ], [ 73.6481441, 5.4024511 ], [ 73.6500804, 5.3988469 ], [ 73.6485436, 5.3960083 ], [ 73.64543, 5.4083734 ], [ 73.6428421, 5.4155847 ], [ 73.6394875, 5.4204745 ], [ 73.6406344, 5.4253745 ] ] ] ] } },
{ "type": "Feature", "properties": { "POLYGON_ID": "MDV_GAUL2004_ADM1_1918", "ADM0_ISO3": "MDV", "ADM0_NAME": "Maldives", "ADM0_CODE": 154, "ADM1_NAME": "Male'", "ADM1_CODE": 1918, "GEOSET": "GAUL", "GEOSET_YEAR": 2004.0, "GEOSET_VERSION": "GAUL_v1", "GEOSET_UNIT": "ADM1", "CENTROID_LONG": 73.50931293333332, "CENTROID_LAT": 4.1734645 }, "geometry": { "type": "MultiPolygon", "coordinates": [ [ [ [ 73.5085841, 4.181052 ], [ 73.516628, 4.169977 ], [ 73.5027267, 4.1693645 ], [ 73.5085841, 4.181052 ] ] ] ] } },
{ "type": "Feature", "properties": { "POLYGON_ID": "MDV_GAUL2004_ADM1_1919", "ADM0_ISO3": "MDV", "ADM0_NAME": "Maldives", "ADM0_CODE": 154, "ADM1_NAME": "Meemu", "ADM1_CODE": 1919, "GEOSET": "GAUL", "GEOSET_YEAR": 2004.0, "GEOSET_VERSION": "GAUL_v1", "GEOSET_UNIT": "ADM1", "CENTROID_LONG": 73.424976033333337, "CENTROID_LAT": 2.7787699 }, "geometry": { "type": "MultiPolygon", "coordinates": [ [ [ [ 73.4284796, 2.7915501 ], [ 73.425889, 2.7728088 ], [ 73.4205595, 2.7719508 ], [ 73.4284796, 2.7915501 ] ] ] ] } },
{ "type": "Feature", "properties": { "POLYGON_ID": "MDV_GAUL2004_ADM1_1920", "ADM0_ISO3": "MDV", "ADM0_NAME": "Maldives", "ADM0_CODE": 154, "ADM1_NAME": "Noonu", "ADM1_CODE": 1920, "GEOSET": "GAUL", "GEOSET_YEAR": 2004.0, "GEOSET_VERSION": "GAUL_v1", "GEOSET_UNIT": "ADM1", "CENTROID_LONG": 73.479731147584218, "CENTROID_LAT": 5.8309626546248721 }, "geometry": { "type": "MultiPolygon", "coordinates": [ [ [ [ 73.4814242, 5.8265454 ], [ 73.4760218, 5.8257576 ], [ 73.4797211, 5.8376232 ], [ 73.4825582, 5.8353114 ], [ 73.4814242, 5.8265454 ] ] ] ] } },
{ "type": "Feature", "properties": { "POLYGON_ID": "MDV_GAUL2004_ADM1_1921", "ADM0_ISO3": "MDV", "ADM0_NAME": "Maldives", "ADM0_CODE": 154, "ADM1_NAME": "Raa", "ADM1_CODE": 1921, "GEOSET": "GAUL", "GEOSET_YEAR": 2004.0, "GEOSET_VERSION": "GAUL_v1", "GEOSET_UNIT": "ADM1", "CENTROID_LONG": 72.9383268, "CENTROID_LAT": 5.9788445333333327 }, "geometry": { "type": "MultiPolygon", "coordinates": [ [ [ [ 72.9401083, 5.9781322 ], [ 72.9364679, 5.9777442 ], [ 72.9384042, 5.9806572 ], [ 72.9401083, 5.9781322 ] ] ] ] } },
{ "type": "Feature", "properties": { "POLYGON_ID": "MDV_GAUL2004_ADM1_1922", "ADM0_ISO3": "MDV", "ADM0_NAME": "Maldives", "ADM0_CODE": 154, "ADM1_NAME": "Seenu", "ADM1_CODE": 1922, "GEOSET": "GAUL", "GEOSET_YEAR": 2004.0, "GEOSET_VERSION": "GAUL_v1", "GEOSET_UNIT": "ADM1", "CENTROID_LONG": 73.086807241890938, "CENTROID_LAT": -0.60426702075937677 }, "geometry": { "type": "MultiPolygon", "coordinates": [ [ [ [ 73.0875024, -0.5848929 ], [ 73.0815697, -0.5919012 ], [ 73.0984788, -0.6149947 ], [ 73.0899609, -0.6196357 ], [ 73.0758896, -0.590448 ], [ 73.0875024, -0.5848929 ] ] ] ] } },
{ "type": "Feature", "properties": { "POLYGON_ID": "MDV_GAUL2004_ADM1_1923", "ADM0_ISO3": "MDV", "ADM0_NAME": "Maldives", "ADM0_CODE": 154, "ADM1_NAME": "Shaviyani", "ADM1_CODE": 1923, "GEOSET": "GAUL", "GEOSET_YEAR": 2004.0, "GEOSET_VERSION": "GAUL_v1", "GEOSET_UNIT": "ADM1", "CENTROID_LONG": 73.298208847904888, "CENTROID_LAT": 6.1907177516646597 }, "geometry": { "type": "MultiPolygon", "coordinates": [ [ [ [ 73.2983544, 6.2013046 ], [ 73.3004813, 6.1928105 ], [ 73.2975603, 6.1839602 ], [ 73.2954474, 6.1848739 ], [ 73.298497, 6.1954914 ], [ 73.2983544, 6.2013046 ] ] ] ] } },
{ "type": "Feature", "properties": { "POLYGON_ID": "MDV_GAUL2004_ADM1_1924", "ADM0_ISO3": "MDV", "ADM0_NAME": "Maldives", "ADM0_CODE": 154, "ADM1_NAME": "Thaa", "ADM1_CODE": 1924, "GEOSET": "GAUL", "GEOSET_YEAR": 2004.0, "GEOSET_VERSION": "GAUL_v1", "GEOSET_UNIT": "ADM1", "CENTROID_LONG": 73.361614687530931, "CENTROID_LAT": 2.3906514613033703 }, "geometry": { "type": "MultiPolygon", "coordinates": [ [ [ [ 73.3613396, 2.3789487 ], [ 73.3606966, 2.3806236 ], [ 73.3606749, 2.398923 ], [ 73.36401, 2.3955764 ], [ 73.3627312, 2.3935131 ], [ 73.3613396, 2.3789487 ] ] ] ] } },
{ "type": "Feature", "properties": { "POLYGON_ID": "MDV_GAUL2004_ADM1_1925", "ADM0_ISO3": "MDV", "ADM0_NAME": "Maldives", "ADM0_CODE": 154, "ADM1_NAME": "Vaavu", "ADM1_CODE": 1925, "GEOSET": "GAUL", "GEOSET_YEAR": 2004.0, "GEOSET_VERSION": "GAUL_v1", "GEOSET_UNIT": "ADM1", "CENTROID_LONG": 73.538902432173828, "CENTROID_LAT": 3.4879569544527298 }, "geometry": { "type": "MultiPolygon", "coordinates": [ [ [ [ 73.5409403, 3.4884127 ], [ 73.5382506, 3.4863466 ], [ 73.5369665, 3.4873757 ], [ 73.5392716, 3.4895696 ], [ 73.5409403, 3.4884127 ] ] ] ] } }
]
}
