{
"type": "FeatureCollection",
"name": "MHL_GAUL1997_ADM2",
"crs": { "type": "name", "properties": { "name": "urn:ogc:def:crs:OGC:1.3:CRS84" } },
"features": [
{ "type": "Feature", "properties": { "POLYGON_ID": "MHL_GAUL1997_ADM2_19488", "ADM0_ISO3": "MHL", "ADM0_NAME": "Marshall Islands", "ADM0_CODE": 157, "ADM1_NAME": "Administrative unit not available", "ADM1_CODE": 2002, "ADM2_NAME": "Administrative unit not available", "ADM2_CODE": 19488, "GEOSET": "GAUL", "GEOSET_YEAR": 1997.0, "GEOSET_VERSION": "GAUL_v1", "GEOSET_UNIT": "ADM2", "CENTROID_LONG": 171.03895369895992, "CENTROID_LAT": 7.1411838385055875 }, "geometry": { "type": "MultiPolygon", "coordinates": [ [ [ [ 171.0654207, 7.1141981 ], [ 171.0517859, 7.1216617 ], [ 171.038756299999989, 7.1375796 ], [ 171.0294077, 7.1427839 ], [ 171.029842800000011, 7.1524351 ], [ 171.0380702, 7.1550278 ], [ 171.041511500000013, 7.1391036 ], [ 171.051773700000012, 7.1238559 ], [ 171.0654207, 7.1141981 ] ] ] ] } }
]
}
