{
"type": "FeatureCollection",
"name": "MKD_GAUL2004_ADM0",
"crs": { "type": "name", "properties": { "name": "urn:ogc:def:crs:OGC:1.3:CRS84" } },
"features": [
{ "type": "Feature", "properties": { "POLYGON_ID": "MKD_GAUL2004_ADM0_241", "ADM0_ISO3": "MKD", "ADM0_NAME": "The former Yugoslav Republic of Macedonia", "ADM0_CODE": 241, "GEOSET": "GAUL", "GEOSET_YEAR": 2004.0, "GEOSET_VERSION": "GAUL_v1", "GEOSET_UNIT": "ADM0", "CENTROID_LONG": 21.700242465906555, "CENTROID_LAT": 41.600372051630906 }, "geometry": { "type": "MultiPolygon", "coordinates": [ [ [ [ 22.3599198, 42.3121728 ], [ 22.37951, 42.30845 ], [ 22.41438, 42.26794 ], [ 22.45013, 42.24203 ], [ 22.47031, 42.20146 ], [ 22.50197, 42.19552 ], [ 22.52834, 42.1399 ], [ 22.60061, 42.09795 ], [ 22.63073, 42.0936 ], [ 22.67705, 42.06418 ], [ 22.71761, 42.06722 ], [ 22.73363, 42.04779 ], [ 22.82936, 42.02054 ], [ 22.8675, 42.01566 ], [ 22.8780198, 41.9760491 ], [ 22.87353, 41.93587 ], [ 22.89922, 41.90347 ], [ 22.90233, 41.87604 ], [ 22.92772, 41.86229 ], [ 22.94119, 41.816 ], [ 22.97023, 41.77044 ], [ 23.0082, 41.76917 ], [ 23.03397, 41.72238 ], [ 22.98452, 41.65237 ], [ 22.9600095, 41.6468318 ], [ 22.9532, 41.58553 ], [ 22.9728893, 41.559809 ], [ 22.95844, 41.53433 ], [ 22.95771, 41.49377 ], [ 22.97943, 41.44751 ], [ 22.95254, 41.41825 ], [ 22.9660895, 41.3935091 ], [ 22.9641, 41.3535 ], [ 22.9482, 41.34986 ], [ 22.93672, 41.34084 ], [ 22.7988696, 41.3406375 ], [ 22.76493, 41.32316 ], [ 22.74775, 41.16547 ], [ 22.70706, 41.1424 ], [ 22.66677, 41.18651 ], [ 22.61149, 41.12944 ], [ 22.56232, 41.13086 ], [ 22.4831, 41.11935 ], [ 22.41682, 41.11935 ], [ 22.37312, 41.13784 ], [ 22.3332995, 41.1286993 ], [ 22.31388, 41.14716 ], [ 22.26044, 41.16618 ], [ 22.17255, 41.15751 ], [ 22.12955, 41.12344 ], [ 22.06746, 41.15676 ], [ 22.03021, 41.13371 ], [ 21.93107, 41.10378 ], [ 21.90386, 41.06948 ], [ 21.91215, 41.05019 ], [ 21.85968, 41.01931 ], [ 21.84383, 40.99522 ], [ 21.80036, 40.97484 ], [ 21.80378, 40.94487 ], [ 21.78381, 40.92914 ], [ 21.73048, 40.9308 ], [ 21.7051, 40.94435 ], [ 21.64824, 40.90177 ], [ 21.56779, 40.86659 ], [ 21.52486, 40.90994 ], [ 21.46479, 40.90688 ], [ 21.41709, 40.91804 ], [ 21.3616896, 40.87906 ], [ 21.25995, 40.85988 ], [ 21.21295, 40.88381 ], [ 21.15701, 40.85835 ], [ 21.10488, 40.8542 ], [ 20.98057, 40.8552199 ], [ 20.97934, 40.89718 ], [ 20.94642, 40.92276 ], [ 20.91174, 40.91576 ], [ 20.84715, 40.93734 ], [ 20.81249, 40.89755 ], [ 20.75779, 40.90115 ], [ 20.7316995, 40.9116914 ], [ 20.70019, 41.00901 ], [ 20.66972, 41.08727 ], [ 20.59564, 41.09251 ], [ 20.59686, 41.12783 ], [ 20.5635, 41.1789 ], [ 20.5152, 41.23247 ], [ 20.50704, 41.31045 ], [ 20.51625, 41.33671 ], [ 20.5483897, 41.3732099 ], [ 20.5572479, 41.4167909 ], [ 20.51798, 41.43714 ], [ 20.49575, 41.48874 ], [ 20.45242, 41.51887 ], [ 20.4569598, 41.5533198 ], [ 20.5246084, 41.56558 ], [ 20.55766, 41.58217 ], [ 20.54346, 41.62149 ], [ 20.51662, 41.6617 ], [ 20.5294999, 41.6880296 ], [ 20.51399, 41.72283 ], [ 20.51924, 41.75052 ], [ 20.54645, 41.7901 ], [ 20.5737, 41.79794 ], [ 20.55957, 41.824 ], [ 20.55945, 41.86476 ], [ 20.5935, 41.8770034 ], [ 20.62243, 41.85235 ], [ 20.6636395, 41.87477 ], [ 20.6839, 41.85792 ], [ 20.73517, 41.87703 ], [ 20.76992, 41.91558 ], [ 20.7556683, 41.9471371 ], [ 20.7675, 41.96103 ], [ 20.74833, 41.99165 ], [ 20.74893, 42.02639 ], [ 20.79216, 42.08306 ], [ 20.84394, 42.0984 ], [ 20.88653, 42.09586 ], [ 20.94227, 42.13713 ], [ 21.02693, 42.15252 ], [ 21.10462, 42.20575 ], [ 21.1661778, 42.1961013 ], [ 21.21544, 42.12915 ], [ 21.22261, 42.0945 ], [ 21.24998, 42.09115 ], [ 21.32254, 42.10708 ], [ 21.29871, 42.1398 ], [ 21.35497, 42.21675 ], [ 21.48177, 42.28049 ], [ 21.50429, 42.27322 ], [ 21.52573, 42.241 ], [ 21.58683, 42.26092 ], [ 21.6837, 42.24212 ], [ 21.82026, 42.29479 ], [ 21.84225, 42.32529 ], [ 21.89979, 42.30239 ], [ 21.93102, 42.30954 ], [ 21.94432, 42.34463 ], [ 22.0328, 42.29851 ], [ 22.09544, 42.3016 ], [ 22.18357, 42.33408 ], [ 22.22538, 42.3371 ], [ 22.2693898, 42.3622402 ], [ 22.33379, 42.32134 ], [ 22.3599198, 42.3121728 ] ] ] ] } }
]
}
