{
"type": "FeatureCollection",
"name": "MLT_GAUL1998_ADM0",
"crs": { "type": "name", "properties": { "name": "urn:ogc:def:crs:OGC:1.3:CRS84" } },
"features": [
{ "type": "Feature", "properties": { "POLYGON_ID": "MLT_GAUL1998_ADM0_156", "ADM0_ISO3": "MLT", "ADM0_NAME": "Malta", "ADM0_CODE": 156, "GEOSET": "GAUL", "GEOSET_YEAR": 1998.0, "GEOSET_VERSION": "GAUL_v1", "GEOSET_UNIT": "ADM0", "CENTROID_LONG": 14.402342625082406, "CENTROID_LAT": 35.921881808144398 }, "geometry": { "type": "MultiPolygon", "coordinates": [ [ [ [ 14.3678966, 35.9979719 ], [ 14.3935297, 35.9677075 ], [ 14.481548, 35.9362748 ], [ 14.5194679, 35.9014888 ], [ 14.5751675, 35.8675727 ], [ 14.5643305, 35.828879 ], [ 14.5308491, 35.8323365 ], [ 14.5304885, 35.8063212 ], [ 14.4497578, 35.8195537 ], [ 14.3716618, 35.8537073 ], [ 14.3365041, 35.8798094 ], [ 14.3286935, 35.8983173 ], [ 14.3435287, 35.9347008 ], [ 14.3363388, 35.9696811 ], [ 14.3678966, 35.9979719 ] ] ], [ [ [ 14.2364206, 36.0819507 ], [ 14.2818158, 36.0616754 ], [ 14.3112184, 36.0585651 ], [ 14.3364783, 36.0328049 ], [ 14.2611646, 36.0119311 ], [ 14.2189273, 36.0208452 ], [ 14.1924571, 36.0479074 ], [ 14.1849298, 36.074225 ], [ 14.2364206, 36.0819507 ] ] ] ] } }
]
}
