{
"type": "FeatureCollection",
"name": "MNE_GAUL2010_ADM1",
"crs": { "type": "name", "properties": { "name": "urn:ogc:def:crs:OGC:1.3:CRS84" } },
"features": [
{ "type": "Feature", "properties": { "POLYGON_ID": "MNE_GAUL2010_ADM1_25350", "ADM0_ISO3": "MNE", "ADM0_NAME": "Montenegro", "ADM0_CODE": 2647, "ADM1_NAME": "Andrijevica", "ADM1_CODE": 25350, "GEOSET": "GAUL", "GEOSET_YEAR": 2010.0, "GEOSET_VERSION": "GAUL_v1", "GEOSET_UNIT": "ADM1", "CENTROID_LONG": 19.775045290156299, "CENTROID_LAT": 42.708651185708383 }, "geometry": { "type": "MultiPolygon", "coordinates": [ [ [ [ 19.9780136, 42.7067964 ], [ 19.9771441, 42.7059868 ], [ 19.8874474, 42.6897392 ], [ 19.8301697, 42.6444893 ], [ 19.7998085, 42.5985031 ], [ 19.7710276, 42.5965221 ], [ 19.72286, 42.66091 ], [ 19.650587, 42.6142962 ], [ 19.6446228, 42.6838722 ], [ 19.6691189, 42.7398262 ], [ 19.637043, 42.8265305 ], [ 19.7085953, 42.7904396 ], [ 19.8680191, 42.7631073 ], [ 19.9431763, 42.7418518 ], [ 19.9780136, 42.7067964 ] ] ] ] } },
{ "type": "Feature", "properties": { "POLYGON_ID": "MNE_GAUL2010_ADM1_25351", "ADM0_ISO3": "MNE", "ADM0_NAME": "Montenegro", "ADM0_CODE": 2647, "ADM1_NAME": "Bar", "ADM1_CODE": 25351, "GEOSET": "GAUL", "GEOSET_YEAR": 2010.0, "GEOSET_VERSION": "GAUL_v1", "GEOSET_UNIT": "ADM1", "CENTROID_LONG": 19.152389338416459, "CENTROID_LAT": 42.157463629999505 }, "geometry": { "type": "MultiPolygon", "coordinates": [ [ [ [ 19.2816766, 42.1801271 ], [ 19.4029137, 42.1023768 ], [ 19.3787898, 42.0547791 ], [ 19.2972927, 42.0533066 ], [ 19.2571011, 42.0386391 ], [ 19.1948376, 42.0447235 ], [ 19.170269, 42.0181046 ], [ 19.2047386, 41.9709473 ], [ 19.1473658, 41.9743881 ], [ 19.1517505, 42.038951 ], [ 19.0817649, 42.0840692 ], [ 19.0680166, 42.1325336 ], [ 19.0164941, 42.1370814 ], [ 18.9604719, 42.1891443 ], [ 18.9006767, 42.2671623 ], [ 18.9061775, 42.2871094 ], [ 18.9666805, 42.2555008 ], [ 18.9839897, 42.2870369 ], [ 19.0697956, 42.2833672 ], [ 19.1166592, 42.3066177 ], [ 19.1306992, 42.2861099 ], [ 19.2816766, 42.1801271 ] ] ] ] } },
{ "type": "Feature", "properties": { "POLYGON_ID": "MNE_GAUL2010_ADM1_25352", "ADM0_ISO3": "MNE", "ADM0_NAME": "Montenegro", "ADM0_CODE": 2647, "ADM1_NAME": "Berane", "ADM1_CODE": 25352, "GEOSET": "GAUL", "GEOSET_YEAR": 2010.0, "GEOSET_VERSION": "GAUL_v1", "GEOSET_UNIT": "ADM1", "CENTROID_LONG": 19.894312132405044, "CENTROID_LAT": 42.861980660966935 }, "geometry": { "type": "MultiPolygon", "coordinates": [ [ [ [ 20.1220672, 42.9633844 ], [ 20.0750484, 42.8687553 ], [ 20.0276718, 42.8412552 ], [ 20.0535143, 42.7782727 ], [ 19.98269, 42.73907 ], [ 19.9780136, 42.7067964 ], [ 19.9431763, 42.7418518 ], [ 19.8680191, 42.7631073 ], [ 19.7085953, 42.7904396 ], [ 19.637043, 42.8265305 ], [ 19.6570187, 42.8606911 ], [ 19.6263618, 42.8889999 ], [ 19.7673187, 42.9257393 ], [ 19.8869343, 42.933075 ], [ 19.8957348, 42.9537582 ], [ 20.0368193, 42.9899328 ], [ 20.06852, 42.99437 ], [ 20.1220672, 42.9633844 ] ] ] ] } },
{ "type": "Feature", "properties": { "POLYGON_ID": "MNE_GAUL2010_ADM1_25353", "ADM0_ISO3": "MNE", "ADM0_NAME": "Montenegro", "ADM0_CODE": 2647, "ADM1_NAME": "Bijelo Polje", "ADM1_CODE": 25353, "GEOSET": "GAUL", "GEOSET_YEAR": 2010.0, "GEOSET_VERSION": "GAUL_v1", "GEOSET_UNIT": "ADM1", "CENTROID_LONG": 19.702322323578457, "CENTROID_LAT": 43.059637968792323 }, "geometry": { "type": "MultiPolygon", "coordinates": [ [ [ [ 20.0368193, 42.9899328 ], [ 19.8957348, 42.9537582 ], [ 19.8869343, 42.933075 ], [ 19.7673187, 42.9257393 ], [ 19.6263618, 42.8889999 ], [ 19.6386833, 42.9230995 ], [ 19.6056061, 42.9496498 ], [ 19.6004009, 43.0167542 ], [ 19.3787708, 43.0769653 ], [ 19.4753571, 43.1703262 ], [ 19.4763107, 43.2000999 ], [ 19.5356099, 43.2516732 ], [ 19.57835, 43.24355 ], [ 19.63453, 43.17196 ], [ 19.77593, 43.15977 ], [ 19.77953, 43.13562 ], [ 19.84884, 43.1001 ], [ 19.96664, 43.07964 ], [ 19.98684, 43.0523 ], [ 20.04811, 43.02223 ], [ 20.0368193, 42.9899328 ] ] ] ] } },
{ "type": "Feature", "properties": { "POLYGON_ID": "MNE_GAUL2010_ADM1_25354", "ADM0_ISO3": "MNE", "ADM0_NAME": "Montenegro", "ADM0_CODE": 2647, "ADM1_NAME": "Budva", "ADM1_CODE": 25354, "GEOSET": "GAUL", "GEOSET_YEAR": 2010.0, "GEOSET_VERSION": "GAUL_v1", "GEOSET_UNIT": "ADM1", "CENTROID_LONG": 18.842603497007726, "CENTROID_LAT": 42.288996064146303 }, "geometry": { "type": "MultiPolygon", "coordinates": [ [ [ [ 18.9604719, 42.1891443 ], [ 18.9059381, 42.2163002 ], [ 18.8922226, 42.263288 ], [ 18.7477886, 42.2916948 ], [ 18.7803288, 42.3486404 ], [ 18.8799953, 42.3112373 ], [ 18.9061775, 42.2871094 ], [ 18.9006767, 42.2671623 ], [ 18.9604719, 42.1891443 ] ] ] ] } },
{ "type": "Feature", "properties": { "POLYGON_ID": "MNE_GAUL2010_ADM1_25355", "ADM0_ISO3": "MNE", "ADM0_NAME": "Montenegro", "ADM0_CODE": 2647, "ADM1_NAME": "Cetinje", "ADM1_CODE": 25355, "GEOSET": "GAUL", "GEOSET_YEAR": 2010.0, "GEOSET_VERSION": "GAUL_v1", "GEOSET_UNIT": "ADM1", "CENTROID_LONG": 18.868922993303634, "CENTROID_LAT": 42.481726394290241 }, "geometry": { "type": "MultiPolygon", "coordinates": [ [ [ [ 18.9277382, 42.614933 ], [ 18.9808369, 42.5481224 ], [ 18.9649944, 42.4922371 ], [ 18.9162254, 42.4854889 ], [ 18.9963093, 42.4368668 ], [ 18.9989491, 42.4163322 ], [ 19.1140194, 42.3465843 ], [ 19.1166592, 42.3066177 ], [ 19.0697956, 42.2833672 ], [ 18.9839897, 42.2870369 ], [ 18.9666805, 42.2555008 ], [ 18.9061775, 42.2871094 ], [ 18.8799953, 42.3112373 ], [ 18.7803288, 42.3486404 ], [ 18.7458591, 42.4076767 ], [ 18.7610066, 42.4275092 ], [ 18.756792, 42.4897853 ], [ 18.7026634, 42.552887 ], [ 18.6629868, 42.6315804 ], [ 18.7099953, 42.7088776 ], [ 18.8444252, 42.6929665 ], [ 18.9277382, 42.614933 ] ] ] ] } },
{ "type": "Feature", "properties": { "POLYGON_ID": "MNE_GAUL2010_ADM1_25356", "ADM0_ISO3": "MNE", "ADM0_NAME": "Montenegro", "ADM0_CODE": 2647, "ADM1_NAME": "Danilovgrad", "ADM1_CODE": 25356, "GEOSET": "GAUL", "GEOSET_YEAR": 2010.0, "GEOSET_VERSION": "GAUL_v1", "GEOSET_UNIT": "ADM1", "CENTROID_LONG": 19.103315464260305, "CENTROID_LAT": 42.598712803310484 }, "geometry": { "type": "MultiPolygon", "coordinates": [ [ [ [ 19.2730904, 42.6628227 ], [ 19.1854515, 42.5418129 ], [ 19.1654282, 42.4678879 ], [ 19.1299324, 42.4765434 ], [ 19.0560074, 42.4648094 ], [ 18.9649944, 42.4922371 ], [ 18.9808369, 42.5481224 ], [ 18.9277382, 42.614933 ], [ 18.9973373, 42.6282082 ], [ 18.9796619, 42.6789589 ], [ 19.0219784, 42.6962662 ], [ 19.1162186, 42.6904716 ], [ 19.1515675, 42.6997833 ], [ 19.2028313, 42.7596283 ], [ 19.2730904, 42.6628227 ] ] ] ] } },
{ "type": "Feature", "properties": { "POLYGON_ID": "MNE_GAUL2010_ADM1_25357", "ADM0_ISO3": "MNE", "ADM0_NAME": "Montenegro", "ADM0_CODE": 2647, "ADM1_NAME": "Herceg Novi", "ADM1_CODE": 25357, "GEOSET": "GAUL", "GEOSET_YEAR": 2010.0, "GEOSET_VERSION": "GAUL_v1", "GEOSET_UNIT": "ADM1", "CENTROID_LONG": 18.526364647510469, "CENTROID_LAT": 42.502181003758373 }, "geometry": { "type": "MultiPolygon", "coordinates": [ [ [ [ 18.5386973, 42.5744283 ], [ 18.6283283, 42.5100861 ], [ 18.5778389, 42.5034332 ], [ 18.5652981, 42.4681816 ], [ 18.6727501, 42.4602167 ], [ 18.5222794, 42.4239619 ], [ 18.43398, 42.48361 ], [ 18.46055, 42.53514 ], [ 18.45394, 42.5614 ], [ 18.49465, 42.58546 ], [ 18.5386973, 42.5744283 ] ] ] ] } },
{ "type": "Feature", "properties": { "POLYGON_ID": "MNE_GAUL2010_ADM1_25358", "ADM0_ISO3": "MNE", "ADM0_NAME": "Montenegro", "ADM0_CODE": 2647, "ADM1_NAME": "Kolasin", "ADM1_CODE": 25358, "GEOSET": "GAUL", "GEOSET_YEAR": 2010.0, "GEOSET_VERSION": "GAUL_v1", "GEOSET_UNIT": "ADM1", "CENTROID_LONG": 19.429545872643033, "CENTROID_LAT": 42.799531955363548 }, "geometry": { "type": "MultiPolygon", "coordinates": [ [ [ [ 19.6263618, 42.8889999 ], [ 19.6570187, 42.8606911 ], [ 19.637043, 42.8265305 ], [ 19.6691189, 42.7398262 ], [ 19.6446228, 42.6838722 ], [ 19.5310955, 42.706459 ], [ 19.4408894, 42.7030106 ], [ 19.4188137, 42.6816711 ], [ 19.3425426, 42.6642876 ], [ 19.2730904, 42.6628227 ], [ 19.2028313, 42.7596283 ], [ 19.2461014, 42.8465347 ], [ 19.2076721, 42.8699303 ], [ 19.2348804, 42.9130554 ], [ 19.3679905, 42.9252281 ], [ 19.3716564, 42.9434166 ], [ 19.3927059, 42.9277191 ], [ 19.4818115, 42.9076996 ], [ 19.5884457, 42.9134941 ], [ 19.6263618, 42.8889999 ] ] ] ] } },
{ "type": "Feature", "properties": { "POLYGON_ID": "MNE_GAUL2010_ADM1_25359", "ADM0_ISO3": "MNE", "ADM0_NAME": "Montenegro", "ADM0_CODE": 2647, "ADM1_NAME": "Kotor", "ADM1_CODE": 25359, "GEOSET": "GAUL", "GEOSET_YEAR": 2010.0, "GEOSET_VERSION": "GAUL_v1", "GEOSET_UNIT": "ADM1", "CENTROID_LONG": 18.647363834951314, "CENTROID_LAT": 42.534045723855698 }, "geometry": { "type": "MultiPolygon", "coordinates": [ [ [ [ 18.7610066, 42.4275092 ], [ 18.7458591, 42.4076767 ], [ 18.6877382, 42.4513604 ], [ 18.7345871, 42.4662643 ], [ 18.7610066, 42.4275092 ] ] ], [ [ [ 18.756792, 42.4897853 ], [ 18.686234, 42.4811291 ], [ 18.6727501, 42.4602167 ], [ 18.5652981, 42.4681816 ], [ 18.5778389, 42.5034332 ], [ 18.6283283, 42.5100861 ], [ 18.5386973, 42.5744283 ], [ 18.5481073, 42.595234 ], [ 18.5841465, 42.6227798 ], [ 18.6629868, 42.6315804 ], [ 18.7026634, 42.552887 ], [ 18.756792, 42.4897853 ] ] ] ] } },
{ "type": "Feature", "properties": { "POLYGON_ID": "MNE_GAUL2010_ADM1_25360", "ADM0_ISO3": "MNE", "ADM0_NAME": "Montenegro", "ADM0_CODE": 2647, "ADM1_NAME": "Mojkovac", "ADM1_CODE": 25360, "GEOSET": "GAUL", "GEOSET_YEAR": 2010.0, "GEOSET_VERSION": "GAUL_v1", "GEOSET_UNIT": "ADM1", "CENTROID_LONG": 19.474820511684424, "CENTROID_LAT": 42.982044997651407 }, "geometry": { "type": "MultiPolygon", "coordinates": [ [ [ [ 19.6263618, 42.8889999 ], [ 19.5884457, 42.9134941 ], [ 19.4818115, 42.9076996 ], [ 19.3927059, 42.9277191 ], [ 19.3716564, 42.9434166 ], [ 19.3192196, 43.0051651 ], [ 19.3787708, 43.0769653 ], [ 19.6004009, 43.0167542 ], [ 19.6056061, 42.9496498 ], [ 19.6386833, 42.9230995 ], [ 19.6263618, 42.8889999 ] ] ] ] } },
{ "type": "Feature", "properties": { "POLYGON_ID": "MNE_GAUL2010_ADM1_25361", "ADM0_ISO3": "MNE", "ADM0_NAME": "Montenegro", "ADM0_CODE": 2647, "ADM1_NAME": "Niksic", "ADM1_CODE": 25361, "GEOSET": "GAUL", "GEOSET_YEAR": 2010.0, "GEOSET_VERSION": "GAUL_v1", "GEOSET_UNIT": "ADM1", "CENTROID_LONG": 18.804382850970441, "CENTROID_LAT": 42.835803910745327 }, "geometry": { "type": "MultiPolygon", "coordinates": [ [ [ [ 18.9983635, 42.9445877 ], [ 19.0695763, 42.9209023 ], [ 19.1603699, 42.8623772 ], [ 19.2076721, 42.8699303 ], [ 19.2461014, 42.8465347 ], [ 19.2028313, 42.7596283 ], [ 19.1515675, 42.6997833 ], [ 19.1162186, 42.6904716 ], [ 19.0219784, 42.6962662 ], [ 18.9796619, 42.6789589 ], [ 18.9973373, 42.6282082 ], [ 18.9277382, 42.614933 ], [ 18.8444252, 42.6929665 ], [ 18.7099953, 42.7088776 ], [ 18.6629868, 42.6315804 ], [ 18.5841465, 42.6227798 ], [ 18.5481073, 42.595234 ], [ 18.524, 42.61925 ], [ 18.57682, 42.64293 ], [ 18.55073, 42.67138 ], [ 18.56698, 42.72147 ], [ 18.47641, 42.75368 ], [ 18.45997, 42.82152 ], [ 18.50982, 42.88546 ], [ 18.48535, 42.92689 ], [ 18.48743, 42.96388 ], [ 18.54052, 43.03164 ], [ 18.66315, 43.0368302 ], [ 18.6526021, 43.1251605 ], [ 18.7584, 43.0818787 ], [ 18.7843628, 43.0223274 ], [ 18.8497791, 42.9691582 ], [ 18.8998699, 42.953537 ], [ 18.9983635, 42.9445877 ] ] ] ] } },
{ "type": "Feature", "properties": { "POLYGON_ID": "MNE_GAUL2010_ADM1_25362", "ADM0_ISO3": "MNE", "ADM0_NAME": "Montenegro", "ADM0_CODE": 2647, "ADM1_NAME": "Plav", "ADM1_CODE": 25362, "GEOSET": "GAUL", "GEOSET_YEAR": 2010.0, "GEOSET_VERSION": "GAUL_v1", "GEOSET_UNIT": "ADM1", "CENTROID_LONG": 19.923574339853207, "CENTROID_LAT": 42.590716265142746 }, "geometry": { "type": "MultiPolygon", "coordinates": [ [ [ [ 20.0791267, 42.5553715 ], [ 20.01474, 42.54202 ], [ 20.00198, 42.50953 ], [ 19.90527, 42.50696 ], [ 19.8298885, 42.4666466 ], [ 19.7877096, 42.4874729 ], [ 19.74368, 42.54446 ], [ 19.7710276, 42.5965221 ], [ 19.7998085, 42.5985031 ], [ 19.8301697, 42.6444893 ], [ 19.8874474, 42.6897392 ], [ 19.9771441, 42.7059868 ], [ 20.1112063, 42.6548718 ], [ 20.07563, 42.62063 ], [ 20.0791267, 42.5553715 ] ] ] ] } },
{ "type": "Feature", "properties": { "POLYGON_ID": "MNE_GAUL2010_ADM1_25363", "ADM0_ISO3": "MNE", "ADM0_NAME": "Montenegro", "ADM0_CODE": 2647, "ADM1_NAME": "Pljevlja", "ADM1_CODE": 25363, "GEOSET": "GAUL", "GEOSET_YEAR": 2010.0, "GEOSET_VERSION": "GAUL_v1", "GEOSET_UNIT": "ADM1", "CENTROID_LONG": 19.245683991240604, "CENTROID_LAT": 43.328950589987677 }, "geometry": { "type": "MultiPolygon", "coordinates": [ [ [ [ 19.2327562, 43.5261201 ], [ 19.24434, 43.46965 ], [ 19.44722, 43.38613 ], [ 19.45613, 43.35205 ], [ 19.50755, 43.3206 ], [ 19.5088393, 43.2792234 ], [ 19.5356099, 43.2516732 ], [ 19.4763107, 43.2000999 ], [ 19.4753571, 43.1703262 ], [ 19.3787708, 43.0769653 ], [ 19.3588963, 43.1191368 ], [ 19.1600018, 43.2280426 ], [ 19.0647354, 43.2155762 ], [ 19.0015, 43.25246 ], [ 19.03171, 43.30296 ], [ 19.07789, 43.3105 ], [ 19.04227, 43.36369 ], [ 19.02821, 43.41842 ], [ 18.9555, 43.49211 ], [ 18.99133, 43.55698 ], [ 19.04547, 43.52715 ], [ 19.04571, 43.50683 ], [ 19.15527, 43.53683 ], [ 19.2327562, 43.5261201 ] ] ] ] } },
{ "type": "Feature", "properties": { "POLYGON_ID": "MNE_GAUL2010_ADM1_25364", "ADM0_ISO3": "MNE", "ADM0_NAME": "Montenegro", "ADM0_CODE": 2647, "ADM1_NAME": "Pluzine", "ADM1_CODE": 25364, "GEOSET": "GAUL", "GEOSET_YEAR": 2010.0, "GEOSET_VERSION": "GAUL_v1", "GEOSET_UNIT": "ADM1", "CENTROID_LONG": 18.852717039322901, "CENTROID_LAT": 43.157082809461592 }, "geometry": { "type": "MultiPolygon", "coordinates": [ [ [ [ 18.9933972, 43.2582121 ], [ 18.9852352, 43.1827927 ], [ 19.0279198, 43.1281548 ], [ 18.9872894, 43.116787 ], [ 18.9341927, 43.0039215 ], [ 19.0222721, 42.9719467 ], [ 18.9983635, 42.9445877 ], [ 18.8998699, 42.953537 ], [ 18.8497791, 42.9691582 ], [ 18.7843628, 43.0223274 ], [ 18.7584, 43.0818787 ], [ 18.6526021, 43.1251605 ], [ 18.66803, 43.20369 ], [ 18.71716, 43.23187 ], [ 18.68842, 43.25468 ], [ 18.73692, 43.28695 ], [ 18.91024, 43.36043 ], [ 18.95969, 43.31702 ], [ 18.95468, 43.28957 ], [ 18.9933972, 43.2582121 ] ] ] ] } },
{ "type": "Feature", "properties": { "POLYGON_ID": "MNE_GAUL2010_ADM1_25365", "ADM0_ISO3": "MNE", "ADM0_NAME": "Montenegro", "ADM0_CODE": 2647, "ADM1_NAME": "Podgorica", "ADM1_CODE": 25365, "GEOSET": "GAUL", "GEOSET_YEAR": 2010.0, "GEOSET_VERSION": "GAUL_v1", "GEOSET_UNIT": "ADM1", "CENTROID_LONG": 19.334837048365195, "CENTROID_LAT": 42.472754469146821 }, "geometry": { "type": "MultiPolygon", "coordinates": [ [ [ [ 19.6446228, 42.6838722 ], [ 19.650587, 42.6142962 ], [ 19.6133, 42.57823 ], [ 19.61738, 42.54143 ], [ 19.50293, 42.43748 ], [ 19.4694, 42.38859 ], [ 19.4267, 42.37123 ], [ 19.4223484, 42.3269972 ], [ 19.35, 42.24023 ], [ 19.2816766, 42.1801271 ], [ 19.1306992, 42.2861099 ], [ 19.1166592, 42.3066177 ], [ 19.1140194, 42.3465843 ], [ 18.9989491, 42.4163322 ], [ 18.9963093, 42.4368668 ], [ 18.9162254, 42.4854889 ], [ 18.9649944, 42.4922371 ], [ 19.0560074, 42.4648094 ], [ 19.1299324, 42.4765434 ], [ 19.1654282, 42.4678879 ], [ 19.1854515, 42.5418129 ], [ 19.2730904, 42.6628227 ], [ 19.3425426, 42.6642876 ], [ 19.4188137, 42.6816711 ], [ 19.4408894, 42.7030106 ], [ 19.5310955, 42.706459 ], [ 19.6446228, 42.6838722 ] ] ] ] } },
{ "type": "Feature", "properties": { "POLYGON_ID": "MNE_GAUL2010_ADM1_25366", "ADM0_ISO3": "MNE", "ADM0_NAME": "Montenegro", "ADM0_CODE": 2647, "ADM1_NAME": "Rozaj", "ADM1_CODE": 25366, "GEOSET": "GAUL", "GEOSET_YEAR": 2010.0, "GEOSET_VERSION": "GAUL_v1", "GEOSET_UNIT": "ADM1", "CENTROID_LONG": 20.186276074328479, "CENTROID_LAT": 42.858368497550266 }, "geometry": { "type": "MultiPolygon", "coordinates": [ [ [ [ 20.3580527, 42.8323506 ], [ 20.25488, 42.81524 ], [ 20.20217, 42.75459 ], [ 20.15231, 42.75269 ], [ 20.0535143, 42.7782727 ], [ 20.0276718, 42.8412552 ], [ 20.0750484, 42.8687553 ], [ 20.1220672, 42.9633844 ], [ 20.1704, 42.97226 ], [ 20.34982, 42.89655 ], [ 20.3580527, 42.8323506 ] ] ] ] } },
{ "type": "Feature", "properties": { "POLYGON_ID": "MNE_GAUL2010_ADM1_25367", "ADM0_ISO3": "MNE", "ADM0_NAME": "Montenegro", "ADM0_CODE": 2647, "ADM1_NAME": "Savnik", "ADM1_CODE": 25367, "GEOSET": "GAUL", "GEOSET_YEAR": 2010.0, "GEOSET_VERSION": "GAUL_v1", "GEOSET_UNIT": "ADM1", "CENTROID_LONG": 19.139609111909536, "CENTROID_LAT": 42.988311764771552 }, "geometry": { "type": "MultiPolygon", "coordinates": [ [ [ [ 19.0279198, 43.1281548 ], [ 19.0477943, 43.0910454 ], [ 19.1703434, 43.0523224 ], [ 19.2031975, 43.0664787 ], [ 19.2561493, 43.0460167 ], [ 19.2536545, 43.0180016 ], [ 19.3192196, 43.0051651 ], [ 19.3716564, 42.9434166 ], [ 19.3679905, 42.9252281 ], [ 19.2348804, 42.9130554 ], [ 19.2076721, 42.8699303 ], [ 19.1603699, 42.8623772 ], [ 19.0695763, 42.9209023 ], [ 18.9983635, 42.9445877 ], [ 19.0222721, 42.9719467 ], [ 18.9341927, 43.0039215 ], [ 18.9872894, 43.116787 ], [ 19.0279198, 43.1281548 ] ] ] ] } },
{ "type": "Feature", "properties": { "POLYGON_ID": "MNE_GAUL2010_ADM1_25368", "ADM0_ISO3": "MNE", "ADM0_NAME": "Montenegro", "ADM0_CODE": 2647, "ADM1_NAME": "Tivat", "ADM1_CODE": 25368, "GEOSET": "GAUL", "GEOSET_YEAR": 2010.0, "GEOSET_VERSION": "GAUL_v1", "GEOSET_UNIT": "ADM1", "CENTROID_LONG": 18.683601510338935, "CENTROID_LAT": 42.379399449032498 }, "geometry": { "type": "MultiPolygon", "coordinates": [ [ [ [ 18.7458591, 42.4076767 ], [ 18.7803288, 42.3486404 ], [ 18.7477886, 42.2916948 ], [ 18.6932931, 42.3451851 ], [ 18.6963905, 42.3698069 ], [ 18.6077126, 42.3660646 ], [ 18.5454344, 42.4181633 ], [ 18.5709239, 42.4338958 ], [ 18.7006404, 42.396187 ], [ 18.6877382, 42.4513604 ], [ 18.7458591, 42.4076767 ] ] ] ] } },
{ "type": "Feature", "properties": { "POLYGON_ID": "MNE_GAUL2010_ADM1_25369", "ADM0_ISO3": "MNE", "ADM0_NAME": "Montenegro", "ADM0_CODE": 2647, "ADM1_NAME": "Ulcinj", "ADM1_CODE": 25369, "GEOSET": "GAUL", "GEOSET_YEAR": 2010.0, "GEOSET_VERSION": "GAUL_v1", "GEOSET_UNIT": "ADM1", "CENTROID_LONG": 19.283499999571355, "CENTROID_LAT": 41.973414746201726 }, "geometry": { "type": "MultiPolygon", "coordinates": [ [ [ [ 19.3787898, 42.0547791 ], [ 19.37606, 41.97379 ], [ 19.34477, 41.91231 ], [ 19.38129, 41.88464 ], [ 19.3718508, 41.8531281 ], [ 19.313076, 41.8917012 ], [ 19.2437976, 41.909575 ], [ 19.1560888, 41.9507052 ], [ 19.1473658, 41.9743881 ], [ 19.2047386, 41.9709473 ], [ 19.170269, 42.0181046 ], [ 19.1948376, 42.0447235 ], [ 19.2571011, 42.0386391 ], [ 19.2972927, 42.0533066 ], [ 19.3787898, 42.0547791 ] ] ] ] } },
{ "type": "Feature", "properties": { "POLYGON_ID": "MNE_GAUL2010_ADM1_25370", "ADM0_ISO3": "MNE", "ADM0_NAME": "Montenegro", "ADM0_CODE": 2647, "ADM1_NAME": "Zabljak", "ADM1_CODE": 25370, "GEOSET": "GAUL", "GEOSET_YEAR": 2010.0, "GEOSET_VERSION": "GAUL_v1", "GEOSET_UNIT": "ADM1", "CENTROID_LONG": 19.17809948288178, "CENTROID_LAT": 43.12963909776002 }, "geometry": { "type": "MultiPolygon", "coordinates": [ [ [ [ 19.0015, 43.25246 ], [ 19.0647354, 43.2155762 ], [ 19.1600018, 43.2280426 ], [ 19.3588963, 43.1191368 ], [ 19.3787708, 43.0769653 ], [ 19.3192196, 43.0051651 ], [ 19.2536545, 43.0180016 ], [ 19.2561493, 43.0460167 ], [ 19.2031975, 43.0664787 ], [ 19.1703434, 43.0523224 ], [ 19.0477943, 43.0910454 ], [ 19.0279198, 43.1281548 ], [ 18.9852352, 43.1827927 ], [ 18.9933972, 43.2582121 ], [ 19.0015, 43.25246 ] ] ] ] } }
]
}
