{
"type": "FeatureCollection",
"name": "MOZ_GAUL2006_ADM0",
"crs": { "type": "name", "properties": { "name": "urn:ogc:def:crs:OGC:1.3:CRS84" } },
"features": [
{ "type": "Feature", "properties": { "POLYGON_ID": "MOZ_GAUL2006_ADM0_170", "ADM0_ISO3": "MOZ", "ADM0_NAME": "Mozambique", "ADM0_CODE": 170, "GEOSET": "GAUL", "GEOSET_YEAR": 2006.0, "GEOSET_VERSION": "GAUL_v1", "GEOSET_UNIT": "ADM0", "CENTROID_LONG": 35.55326500907421, "CENTROID_LAT": -17.261350169529909 }, "geometry": { "type": "MultiPolygon", "coordinates": [ [ [ [ 32.8915232, -26.8583317 ], [ 32.87409, -26.86416 ], [ 32.82028, -26.86868 ], [ 32.77436, -26.86697 ], [ 32.736529, -26.8665248 ], [ 32.72507, -26.86639 ], [ 32.68525, -26.86565 ], [ 32.6566, -26.8654 ], [ 32.48349, -26.8629 ], [ 32.41965, -26.86282 ], [ 32.3536, -26.861 ], [ 32.346538, -26.8588991 ], [ 32.3439376, -26.8577707 ], [ 32.33481, -26.85381 ], [ 32.32557, -26.85239 ], [ 32.3220889, -26.8522171 ], [ 32.31148, -26.85169 ], [ 32.28428, -26.85025 ], [ 32.2661923, -26.8448537 ], [ 32.24894, -26.83953 ], [ 32.2423761, -26.8373108 ], [ 32.2279614, -26.8327948 ], [ 32.22143, -26.83286 ], [ 32.21566, -26.83684 ], [ 32.20894, -26.84279 ], [ 32.2065882, -26.8449544 ], [ 32.17956, -26.86008 ], [ 32.1391297, -26.837878 ], [ 32.13366, -26.83498 ], [ 32.13489, -26.7263 ], [ 32.13665, -26.72101 ], [ 32.13581, -26.70747 ], [ 32.1354742, -26.6891926 ], [ 32.13537, -26.67075 ], [ 32.1366867, -26.6507558 ], [ 32.13726, -26.64205 ], [ 32.13565, -26.6276 ], [ 32.1359151, -26.6070772 ], [ 32.1367, -26.53556 ], [ 32.12715, -26.51425 ], [ 32.1038956, -26.464251 ], [ 32.08925, -26.43246 ], [ 32.0802454, -26.4077501 ], [ 32.08042, -26.39853 ], [ 32.0791, -26.38935 ], [ 32.07669, -26.36412 ], [ 32.07492, -26.31249 ], [ 32.0812017, -26.2865897 ], [ 32.10134, -26.1942 ], [ 32.10186, -26.19204 ], [ 32.10807, -26.16595 ], [ 32.08774, -26.0109 ], [ 32.07808, -26.00864 ], [ 32.0446722, -26.0006237 ], [ 32.02851, -25.99712 ], [ 32.0285117, -25.997278 ], [ 32.0229874, -25.9962802 ], [ 32.00411, -25.99031 ], [ 31.98213, -25.95205 ], [ 31.93938, -25.84708 ], [ 31.9386961, -25.8387031 ], [ 31.93805, -25.83079 ], [ 31.95763, -25.77567 ], [ 31.97316, -25.72492 ], [ 31.9765972, -25.7140011 ], [ 32.00433, -25.66747 ], [ 32.01257, -25.63762 ], [ 32.0044299, -25.5503021 ], [ 32.0004771, -25.5252495 ], [ 31.98099, -25.51957 ], [ 31.9917689, -25.4394519 ], [ 31.99252, -25.43769 ], [ 31.99726, -25.42635 ], [ 32.02504, -25.37308 ], [ 32.03798, -25.18079 ], [ 32.03938, -25.16114 ], [ 32.04439, -25.12845 ], [ 32.01702, -24.82617 ], [ 32.0144778, -24.8067661 ], [ 32.01291, -24.7948 ], [ 32.00089, -24.67985 ], [ 32.00464, -24.63002 ], [ 32.0049592, -24.6116445 ], [ 32.01154, -24.47837 ], [ 31.99921, -24.38013 ], [ 31.9948612, -24.3468341 ], [ 31.98794, -24.30421 ], [ 31.9868066, -24.302433 ], [ 31.98359, -24.29739 ], [ 31.96782, -24.2735 ], [ 31.9522655, -24.2506712 ], [ 31.94988, -24.24717 ], [ 31.94743, -24.24278 ], [ 31.9141959, -24.1918159 ], [ 31.91347, -24.19085 ], [ 31.9124699, -24.1841894 ], [ 31.89157, -24.0 ], [ 31.87845, -23.97719 ], [ 31.8769307, -23.9617709 ], [ 31.8748196, -23.9507997 ], [ 31.8031, -23.90616 ], [ 31.7830868, -23.8926182 ], [ 31.76206, -23.88067 ], [ 31.69538, -23.72056 ], [ 31.6944913, -23.7016589 ], [ 31.69134, -23.64144 ], [ 31.68943, -23.61941 ], [ 31.6773429, -23.6066608 ], [ 31.67227, -23.60131 ], [ 31.6635739, -23.593936 ], [ 31.63236, -23.55791 ], [ 31.58611, -23.50754 ], [ 31.583138, -23.5034129 ], [ 31.561189, -23.47747 ], [ 31.5571, -23.47 ], [ 31.54572, -23.40337 ], [ 31.55198, -23.29112 ], [ 31.55484, -23.28336 ], [ 31.5545356, -23.2775721 ], [ 31.55408, -23.26891 ], [ 31.5564299, -23.223663 ], [ 31.55765, -23.20017 ], [ 31.5579065, -23.1951546 ], [ 31.55874, -23.17886 ], [ 31.55306, -23.1609 ], [ 31.5493167, -23.1532264 ], [ 31.5296612, -23.0899617 ], [ 31.52066, -23.06045 ], [ 31.5191226, -23.0576627 ], [ 31.4770459, -22.9351964 ], [ 31.46642, -22.90372 ], [ 31.36263, -22.59569 ], [ 31.35493, -22.56804 ], [ 31.3363993, -22.5157478 ], [ 31.3063, -22.42089 ], [ 31.3101632, -22.4184415 ], [ 31.3112693, -22.4177395 ], [ 31.369, -22.38078 ], [ 31.3815, -22.37179 ], [ 31.39959, -22.3537 ], [ 31.4456184, -22.307796 ], [ 31.49774, -22.25554 ], [ 31.50398, -22.2515 ], [ 31.5091483, -22.244277 ], [ 31.5113, -22.24127 ], [ 31.5384232, -22.2137499 ], [ 31.57224, -22.17971 ], [ 31.59031, -22.15954 ], [ 31.5977262, -22.1531028 ], [ 31.60281, -22.14869 ], [ 31.61132, -22.14078 ], [ 31.62462, -22.12581 ], [ 31.85602, -21.88759 ], [ 31.86472, -21.8815 ], [ 31.8737475, -21.8718903 ], [ 31.95486, -21.78687 ], [ 32.27324, -21.45678 ], [ 32.3998, -21.3276 ], [ 32.4135097, -21.3170972 ], [ 32.4166, -21.31582 ], [ 32.44022, -21.30915 ], [ 32.4448388, -21.3097855 ], [ 32.46853, -21.32387 ], [ 32.48002, -21.32811 ], [ 32.4799451, -21.3249745 ], [ 32.47602, -21.31131 ], [ 32.45766, -21.28244 ], [ 32.4466944, -21.269539 ], [ 32.43124, -21.25074 ], [ 32.42673, -21.23554 ], [ 32.42216, -21.227 ], [ 32.4146362, -21.2194175 ], [ 32.41319, -21.21796 ], [ 32.39933, -21.20657 ], [ 32.39506, -21.19275 ], [ 32.3954082, -21.1909911 ], [ 32.3994694, -21.1843273 ], [ 32.4062599, -21.175869 ], [ 32.40583, -21.16989 ], [ 32.40002, -21.16317 ], [ 32.3864296, -21.1551477 ], [ 32.37569, -21.14572 ], [ 32.3734606, -21.1443266 ], [ 32.3680067, -21.1387952 ], [ 32.36672, -21.13668 ], [ 32.38794, -21.09853 ], [ 32.4090629, -21.078688 ], [ 32.43942, -21.04619 ], [ 32.46841, -21.01178 ], [ 32.4729896, -21.0048541 ], [ 32.5169492, -20.9121173 ], [ 32.5170388, -20.9102685 ], [ 32.51714, -20.90818 ], [ 32.51855, -20.8889 ], [ 32.51528, -20.8721 ], [ 32.51193, -20.86449 ], [ 32.4978, -20.8074 ], [ 32.4966291, -20.77914 ], [ 32.49445, -20.72446 ], [ 32.4945544, -20.7132304 ], [ 32.48458, -20.65776 ], [ 32.49205, -20.61855 ], [ 32.50387, -20.60832 ], [ 32.52404, -20.59241 ], [ 32.5275, -20.58831 ], [ 32.5412818, -20.577793 ], [ 32.5670667, -20.5608616 ], [ 32.6334441, -20.5600284 ], [ 32.64593, -20.55991 ], [ 32.67706, -20.54684 ], [ 32.69464, -20.51666 ], [ 32.72189, -20.46703 ], [ 32.74435, -20.43527 ], [ 32.76454, -20.41084 ], [ 32.7760323, -20.399871 ], [ 32.8007, -20.37137 ], [ 32.8007452, -20.3658372 ], [ 32.80036, -20.35299 ], [ 32.80705, -20.33926 ], [ 32.8235215, -20.3250468 ], [ 32.83282, -20.31509 ], [ 32.86399, -20.28706 ], [ 32.8607638, -20.2745342 ], [ 32.8626641, -20.2660492 ], [ 32.86619, -20.25169 ], [ 32.8389, -20.21935 ], [ 32.84683, -20.20034 ], [ 32.8520213, -20.1989931 ], [ 32.87127, -20.18948 ], [ 32.8708498, -20.1802897 ], [ 32.85568, -20.15606 ], [ 32.8681795, -20.1115817 ], [ 32.8705749, -20.1103029 ], [ 32.92005, -20.10478 ], [ 32.92035, -20.09125 ], [ 32.9184747, -20.0509036 ], [ 32.92048, -20.04761 ], [ 32.92634, -20.04398 ], [ 32.94705, -20.0409 ], [ 32.9611143, -20.039171 ], [ 32.96946, -20.03736 ], [ 32.98118, -20.03078 ], [ 32.99653, -20.02812 ], [ 33.00019, -20.02653 ], [ 33.0128003, -20.0139045 ], [ 33.01391, -20.01099 ], [ 33.02467, -19.9642 ], [ 33.0267, -19.94997 ], [ 33.0275201, -19.9425163 ], [ 33.0478625, -19.8199184 ], [ 33.0563, -19.79921 ], [ 33.05511, -19.7953 ], [ 33.0538436, -19.7872995 ], [ 33.05278, -19.78058 ], [ 33.0422854, -19.77037 ], [ 32.9924975, -19.7473682 ], [ 32.96058, -19.72488 ], [ 32.95865, -19.72303 ], [ 32.9555907, -19.7166852 ], [ 32.95554, -19.71658 ], [ 32.9563499, -19.7143281 ], [ 32.96288, -19.70836 ], [ 32.97926, -19.69169 ], [ 32.97267, -19.65834 ], [ 32.94982, -19.66417 ], [ 32.9392922, -19.6686646 ], [ 32.9199537, -19.6769798 ], [ 32.91646, -19.67888 ], [ 32.9104769, -19.679636 ], [ 32.90261, -19.68063 ], [ 32.8916598, -19.6840593 ], [ 32.85013, -19.68463 ], [ 32.83423, -19.66935 ], [ 32.84139, -19.65286 ], [ 32.8477082, -19.636695 ], [ 32.85276, -19.62377 ], [ 32.84753, -19.60949 ], [ 32.84841, -19.58836 ], [ 32.85119, -19.54129 ], [ 32.84019, -19.51892 ], [ 32.84349, -19.4985 ], [ 32.8453, -19.48358 ], [ 32.844868, -19.4764599 ], [ 32.83518, -19.47593 ], [ 32.79347, -19.47539 ], [ 32.78238, -19.46681 ], [ 32.77663, -19.45758 ], [ 32.78567, -19.38666 ], [ 32.77641, -19.36132 ], [ 32.7807434, -19.3573971 ], [ 32.78496, -19.35358 ], [ 32.80908, -19.33515 ], [ 32.83202, -19.31257 ], [ 32.84984, -19.29363 ], [ 32.8506628, -19.2892172 ], [ 32.85262, -19.27872 ], [ 32.85159, -19.21967 ], [ 32.86356, -19.17151 ], [ 32.8774, -19.09787 ], [ 32.85127, -19.06484 ], [ 32.84868, -19.0554 ], [ 32.8482003, -19.0486353 ], [ 32.84692, -19.03058 ], [ 32.8459595, -19.0272125 ], [ 32.8452762, -19.0248273 ], [ 32.83346, -19.01639 ], [ 32.8164484, -19.0168466 ], [ 32.80133, -19.01693 ], [ 32.77978, -19.02136 ], [ 32.76497, -19.02814 ], [ 32.72269, -19.02483 ], [ 32.7169402, -19.0196544 ], [ 32.71548, -19.01834 ], [ 32.703713, -18.9574779 ], [ 32.70041, -18.94058 ], [ 32.7004793, -18.9404188 ], [ 32.7020827, -18.9366911 ], [ 32.72974, -18.92932 ], [ 32.72401, -18.89115 ], [ 32.7041, -18.84436 ], [ 32.71192, -18.83363 ], [ 32.73402, -18.81818 ], [ 32.73959, -18.81639 ], [ 32.78948, -18.79655 ], [ 32.7945599, -18.7920035 ], [ 32.79729, -18.78956 ], [ 32.8035448, -18.7864345 ], [ 32.81374, -18.78134 ], [ 32.82705, -18.77753 ], [ 32.830709, -18.7775546 ], [ 32.83598, -18.77759 ], [ 32.8782303, -18.7971421 ], [ 32.89242, -18.79629 ], [ 32.92779, -18.76628 ], [ 32.95413, -18.69019 ], [ 32.8859, -18.57907 ], [ 32.8929997, -18.5393868 ], [ 32.88957, -18.53248 ], [ 32.8851002, -18.5204859 ], [ 32.88807, -18.51151 ], [ 32.90406, -18.49945 ], [ 32.91488, -18.50251 ], [ 32.9170466, -18.5022274 ], [ 32.96396, -18.47802 ], [ 32.9673589, -18.4817624 ], [ 32.97907, -18.48961 ], [ 32.9903321, -18.4855571 ], [ 33.021149, -18.4655212 ], [ 33.0163, -18.43127 ], [ 33.0237798, -18.3911207 ], [ 33.0389149, -18.3830422 ], [ 33.04165, -18.38273 ], [ 33.04673, -18.37955 ], [ 33.0532971, -18.3655761 ], [ 33.03141, -18.32479 ], [ 33.00209, -18.30475 ], [ 32.99755, -18.27268 ], [ 33.00883, -18.24037 ], [ 32.99321, -18.16196 ], [ 32.98747, -18.15664 ], [ 32.9821252, -18.1556682 ], [ 32.97408, -18.10833 ], [ 32.9657259, -18.0874874 ], [ 32.95941, -18.07173 ], [ 32.9591332, -18.0652925 ], [ 32.95858, -18.05243 ], [ 32.9562283, -18.0457229 ], [ 32.95527, -18.04299 ], [ 32.9540811, -18.0409475 ], [ 32.9491, -18.03239 ], [ 32.9484283, -18.0224301 ], [ 32.94899, -18.01126 ], [ 32.94597, -18.00137 ], [ 32.94218, -17.98894 ], [ 32.94276, -17.97425 ], [ 32.9514975, -17.9600719 ], [ 32.9566857, -17.9614017 ], [ 32.96252, -17.9629 ], [ 32.97136, -17.93333 ], [ 32.97405, -17.92646 ], [ 32.9768788, -17.9217574 ], [ 32.9772376, -17.9173081 ], [ 32.97248, -17.91362 ], [ 32.9718894, -17.9135724 ], [ 32.95605, -17.91078 ], [ 32.9546643, -17.908507 ], [ 32.9533928, -17.8968188 ], [ 32.95316, -17.89051 ], [ 32.9530629, -17.8827007 ], [ 32.953, -17.87764 ], [ 32.96131, -17.85497 ], [ 32.96012, -17.81753 ], [ 32.96934, -17.80198 ], [ 32.97534, -17.80156 ], [ 32.99043, -17.8051 ], [ 32.99948, -17.80347 ], [ 33.01013, -17.8015483 ], [ 33.01017, -17.79489 ], [ 33.01354, -17.78626 ], [ 33.0139227, -17.7852802 ], [ 33.01554, -17.78114 ], [ 33.01369, -17.76942 ], [ 33.0189911, -17.7667409 ], [ 33.02669, -17.76285 ], [ 33.0265565, -17.7599187 ], [ 33.02647, -17.75802 ], [ 33.0217, -17.75386 ], [ 33.01606, -17.75004 ], [ 33.007754, -17.7207123 ], [ 33.01253, -17.7235 ], [ 33.0202293, -17.7203293 ], [ 33.01195, -17.70214 ], [ 33.0432394, -17.6033792 ], [ 33.00918, -17.56874 ], [ 32.99961, -17.56776 ], [ 32.99003, -17.56678 ], [ 32.96273, -17.52711 ], [ 32.96231, -17.48143 ], [ 32.98619, -17.45472 ], [ 32.9948484, -17.4535815 ], [ 32.9981298, -17.4531485 ], [ 32.99679, -17.44469 ], [ 33.0040887, -17.4094292 ], [ 33.00736, -17.40068 ], [ 33.0110526, -17.3938415 ], [ 33.01995, -17.37735 ], [ 33.02959, -17.36662 ], [ 33.03443, -17.3577 ], [ 33.0452599, -17.3469701 ], [ 32.99652, -17.29778 ], [ 32.98651, -17.17928 ], [ 32.93801, -17.06857 ], [ 32.9006, -17.01488 ], [ 32.8905, -17.00146 ], [ 32.85996, -16.96087 ], [ 32.84955, -16.94817 ], [ 32.83845, -16.93203 ], [ 32.8364141, -16.9276377 ], [ 32.83567, -16.92077 ], [ 32.8405276, -16.9181063 ], [ 32.86175, -16.91108 ], [ 32.87679, -16.90958 ], [ 32.9065085, -16.8981555 ], [ 32.91221, -16.89422 ], [ 32.9378165, -16.8370318 ], [ 32.9386, -16.83704 ], [ 32.9400146, -16.8324367 ], [ 32.95169, -16.805 ], [ 32.95432, -16.80341 ], [ 32.95725, -16.79334 ], [ 32.9590532, -16.789363 ], [ 32.96669, -16.77252 ], [ 32.9687254, -16.7653397 ], [ 32.97855, -16.7072 ], [ 32.91995, -16.702 ], [ 32.8975002, -16.7182264 ], [ 32.89338, -16.72018 ], [ 32.86868, -16.70853 ], [ 32.85343, -16.70796 ], [ 32.82553, -16.70914 ], [ 32.81745, -16.70633 ], [ 32.80888, -16.70535 ], [ 32.80385, -16.70783 ], [ 32.78098, -16.70697 ], [ 32.76976, -16.70941 ], [ 32.70918, -16.68554 ], [ 32.7066, -16.65133 ], [ 32.71025, -16.6415 ], [ 32.7099501, -16.631256 ], [ 32.7124168, -16.6050394 ], [ 32.70916, -16.59996 ], [ 32.57563, -16.53668 ], [ 32.4741419, -16.4947051 ], [ 32.4618362, -16.4892994 ], [ 32.41203, -16.46957 ], [ 32.34819, -16.45196 ], [ 32.34418, -16.44917 ], [ 32.3414554, -16.4489062 ], [ 32.33633, -16.44841 ], [ 32.28533, -16.43458 ], [ 32.23178, -16.43539 ], [ 32.18465, -16.43694 ], [ 32.04374, -16.44152 ], [ 32.02687, -16.43949 ], [ 32.0199949, -16.438208 ], [ 31.9498386, -16.4214354 ], [ 31.91348, -16.41287 ], [ 31.90726, -16.39766 ], [ 31.90953, -16.38713 ], [ 31.9091836, -16.383666 ], [ 31.90891, -16.38093 ], [ 31.91115, -16.37316 ], [ 31.88337, -16.3329 ], [ 31.877245, -16.3288437 ], [ 31.85195, -16.31782 ], [ 31.84849, -16.30951 ], [ 31.8306796, -16.3083654 ], [ 31.82985, -16.29941 ], [ 31.8288519, -16.2982661 ], [ 31.8254, -16.29431 ], [ 31.8158914, -16.2910937 ], [ 31.8182, -16.28205 ], [ 31.81612, -16.27744 ], [ 31.80858, -16.27229 ], [ 31.80128, -16.26761 ], [ 31.79785, -16.25793 ], [ 31.78574, -16.2564 ], [ 31.77081, -16.23671 ], [ 31.75797, -16.23699 ], [ 31.6917, -16.20169 ], [ 31.54513, -16.18423 ], [ 31.4975295, -16.1693694 ], [ 31.48142, -16.15691 ], [ 31.4703365, -16.1583778 ], [ 31.46594, -16.15896 ], [ 31.45604, -16.15422 ], [ 31.4305857, -16.1563513 ], [ 31.4288625, -16.1528861 ], [ 31.4303423, -16.1410571 ], [ 31.42665, -16.1352 ], [ 31.4090774, -16.1357886 ], [ 31.40453, -16.13715 ], [ 31.3438359, -16.0719554 ], [ 31.34178, -16.06852 ], [ 31.33895, -16.05311 ], [ 31.30733, -16.02715 ], [ 31.26775, -16.00977 ], [ 31.24972, -16.0097 ], [ 31.24689, -16.00848 ], [ 31.24701, -16.00141 ], [ 31.23537, -16.00213 ], [ 31.21538, -16.00756 ], [ 31.20091, -16.0045273 ], [ 31.18991, -16.0042 ], [ 31.1879744, -16.0028622 ], [ 31.18596, -16.00147 ], [ 31.17826, -15.99043 ], [ 31.15141, -15.98855 ], [ 31.1404875, -15.9823208 ], [ 31.107282, -15.9936727 ], [ 31.0777253, -16.0131737 ], [ 31.07239, -16.01623 ], [ 31.03057, -16.01884 ], [ 31.02892, -16.0279 ], [ 31.02029, -16.04455 ], [ 30.9897276, -16.0579944 ], [ 30.98211, -16.05898 ], [ 30.9572, -16.03867 ], [ 30.95486, -16.02818 ], [ 30.94988, -16.01631 ], [ 30.94198, -16.01086 ], [ 30.92249, -16.0 ], [ 30.6556015, -16.0 ], [ 30.4246, -16.0 ], [ 30.4244984, -15.9983693 ], [ 30.42344, -15.98138 ], [ 30.4251499, -15.6282698 ], [ 30.4182588, -15.6175687 ], [ 30.40822, -15.60733 ], [ 30.40346, -15.59554 ], [ 30.39007, -15.57558 ], [ 30.3655, -15.54533 ], [ 30.3717211, -15.5307931 ], [ 30.3807, -15.51339 ], [ 30.39397, -15.48888 ], [ 30.3998, -15.48049 ], [ 30.40136, -15.47271 ], [ 30.38167, -15.42141 ], [ 30.38423, -15.39588 ], [ 30.38569, -15.38131 ], [ 30.37956, -15.36674 ], [ 30.37573, -15.34257 ], [ 30.35026, -15.31114 ], [ 30.34041, -15.30569 ], [ 30.3294234, -15.2946536 ], [ 30.27963, -15.25115 ], [ 30.26591, -15.22497 ], [ 30.25593, -15.21423 ], [ 30.2563, -15.20689 ], [ 30.25984, -15.19455 ], [ 30.25725, -15.18073 ], [ 30.2507528, -15.1707337 ], [ 30.2317, -15.14171 ], [ 30.22943, -15.13662 ], [ 30.23332, -15.11808 ], [ 30.2327, -15.11302 ], [ 30.2297643, -15.1087296 ], [ 30.22141, -15.09652 ], [ 30.22083, -15.08962 ], [ 30.22286, -15.08059 ], [ 30.22486, -15.05042 ], [ 30.2283451, -15.0474568 ], [ 30.2343, -15.03818 ], [ 30.22804, -15.01855 ], [ 30.2273324, -15.0175259 ], [ 30.22113, -15.00855 ], [ 30.21825, -15.0 ], [ 30.217721, -14.9984244 ], [ 30.24158, -14.98939 ], [ 30.36455, -14.95981 ], [ 30.51658, -14.8884 ], [ 30.62761, -14.84748 ], [ 30.6653673, -14.8361408 ], [ 30.6694382, -14.8327615 ], [ 30.6863927, -14.8266661 ], [ 30.73859, -14.8079 ], [ 30.79851, -14.7838 ], [ 30.85666, -14.77012 ], [ 30.9443, -14.74949 ], [ 31.07846, -14.71747 ], [ 31.18857, -14.67999 ], [ 31.26679, -14.6588 ], [ 31.3643108, -14.6413076 ], [ 31.42727, -14.62736 ], [ 31.46516, -14.62013 ], [ 31.4711893, -14.6202042 ], [ 31.4824, -14.61568 ], [ 31.49052, -14.61196 ], [ 31.68331, -14.50643 ], [ 31.81082, -14.47834 ], [ 31.93185, -14.41886 ], [ 32.03169, -14.39242 ], [ 32.05626, -14.38879 ], [ 32.07606, -14.37985 ], [ 32.15928, -14.34947 ], [ 32.16399, -14.34998 ], [ 32.1712315, -14.3468583 ], [ 32.24233, -14.323 ], [ 32.3581, -14.2996 ], [ 32.39588, -14.29446 ], [ 32.4307237, -14.2871201 ], [ 32.45116, -14.28282 ], [ 32.53567, -14.24639 ], [ 32.56848, -14.23243 ], [ 32.5804787, -14.2273218 ], [ 32.61069, -14.21446 ], [ 32.6549, -14.19946 ], [ 32.7670207, -14.1592647 ], [ 32.79414, -14.14874 ], [ 32.81076, -14.14341 ], [ 32.84305, -14.13306 ], [ 32.91418, -14.10744 ], [ 32.9181683, -14.1068634 ], [ 32.94794, -14.09783 ], [ 33.05447, -14.05856 ], [ 33.2081446, -14.0039132 ], [ 33.2422222, -13.9985213 ], [ 33.2461771, -14.0034283 ], [ 33.266996, -14.0292587 ], [ 33.291779, -14.0311651 ], [ 33.3022642, -14.0426034 ], [ 33.3146557, -14.0654801 ], [ 33.3175153, -14.0864503 ], [ 33.2984514, -14.1426888 ], [ 33.3175153, -14.1646123 ], [ 33.3440602, -14.2177795 ], [ 33.3639909, -14.212279 ], [ 33.3641656, -14.2109254 ], [ 33.3680496, -14.2090976 ], [ 33.3961513, -14.251136 ], [ 33.4057471, -14.2710129 ], [ 33.4071179, -14.2783239 ], [ 33.4183129, -14.2854065 ], [ 33.4322496, -14.3169353 ], [ 33.4411599, -14.3215047 ], [ 33.4443585, -14.3272165 ], [ 33.4505271, -14.3486926 ], [ 33.4482278, -14.3606096 ], [ 33.4617222, -14.3793076 ], [ 33.4660631, -14.3815923 ], [ 33.4666568, -14.3824235 ], [ 33.4736026, -14.4019261 ], [ 33.4818777, -14.4040662 ], [ 33.4930225, -14.4085517 ], [ 33.4942161, -14.4096707 ], [ 33.5039891, -14.4188328 ], [ 33.5291366, -14.4228744 ], [ 33.5378687, -14.4283471 ], [ 33.5446567, -14.4327695 ], [ 33.5558517, -14.4535603 ], [ 33.560878, -14.4711524 ], [ 33.5654331, -14.4778994 ], [ 33.5757857, -14.4811123 ], [ 33.5994468, -14.4881608 ], [ 33.6054154, -14.4914648 ], [ 33.6066749, -14.495086 ], [ 33.6111271, -14.5078861 ], [ 33.6211227, -14.5253783 ], [ 33.6289763, -14.5353738 ], [ 33.6282623, -14.5400146 ], [ 33.6218366, -14.5492962 ], [ 33.6243355, -14.5600057 ], [ 33.6307612, -14.5717862 ], [ 33.636116, -14.5871365 ], [ 33.6506201, -14.5957987 ], [ 33.6618188, -14.6024868 ], [ 33.680739, -14.6142673 ], [ 33.6882356, -14.6074846 ], [ 33.6918055, -14.5917773 ], [ 33.702158, -14.5842807 ], [ 33.7160804, -14.5792829 ], [ 33.7142955, -14.5650035 ], [ 33.7103687, -14.5596488 ], [ 33.702515, -14.5385867 ], [ 33.7110826, -14.5268062 ], [ 33.7117966, -14.5164537 ], [ 33.7087159, -14.5065272 ], [ 33.7142955, -14.5003894 ], [ 33.725719, -14.4978905 ], [ 33.7374994, -14.4996754 ], [ 33.7439252, -14.5114559 ], [ 33.7621313, -14.5214515 ], [ 33.7739118, -14.5307331 ], [ 33.7817655, -14.532161 ], [ 33.7967588, -14.5428705 ], [ 33.7999716, -14.5485823 ], [ 33.8103242, -14.5492962 ], [ 33.8174639, -14.5482253 ], [ 33.8321002, -14.5357308 ], [ 33.8584216, -14.5077082 ], [ 33.8607194, -14.5073252 ], [ 33.8695835, -14.5157397 ], [ 33.8745813, -14.5171677 ], [ 33.8827919, -14.5132408 ], [ 33.8842199, -14.5071721 ], [ 33.8924305, -14.4911078 ], [ 33.90314, -14.4846821 ], [ 33.9184903, -14.4771855 ], [ 33.9242021, -14.4757575 ], [ 33.9396944, -14.4785584 ], [ 34.0866111, -14.4885852 ], [ 34.0845833, -14.457616 ], [ 34.1124444, -14.4497279 ], [ 34.1841356, -14.4365409 ], [ 34.210242, -14.441653 ], [ 34.227161, -14.4280156 ], [ 34.234, -14.4240081 ], [ 34.2589571, -14.430641 ], [ 34.2795225, -14.4124822 ], [ 34.2828873, -14.4107124 ], [ 34.3481548, -14.3945838 ], [ 34.3497512, -14.3919897 ], [ 34.356971, -14.3857909 ], [ 34.3935073, -14.3949797 ], [ 34.3945201, -14.404703 ], [ 34.4206475, -14.4334076 ], [ 34.4210044, -14.4414977 ], [ 34.4419932, -14.4715135 ], [ 34.4484872, -14.4803424 ], [ 34.4510451, -14.4965823 ], [ 34.4617072, -14.5142923 ], [ 34.4932805, -14.539472 ], [ 34.4948272, -14.5411377 ], [ 34.4971403, -14.5512256 ], [ 34.4987533, -14.5539867 ], [ 34.5152905, -14.5541057 ], [ 34.5423569, -14.601338 ], [ 34.5439036, -14.6068703 ], [ 34.541762, -14.6106774 ], [ 34.541762, -14.6245378 ], [ 34.5431302, -14.6351859 ], [ 34.5508635, -14.6422053 ], [ 34.5229048, -14.6803361 ], [ 34.51999, -14.683251 ], [ 34.5202874, -14.6871771 ], [ 34.5290319, -14.7000857 ], [ 34.5292104, -14.7102578 ], [ 34.547, -14.7519489 ], [ 34.5675197, -14.773492 ], [ 34.5649753, -14.7804466 ], [ 34.5834621, -14.8084106 ], [ 34.5835216, -14.8147162 ], [ 34.5759668, -14.8192372 ], [ 34.5722786, -14.8261376 ], [ 34.5768591, -14.8445784 ], [ 34.5765022, -14.859688 ], [ 34.5781678, -14.8745001 ], [ 34.56865, -14.8851482 ], [ 34.5656756, -14.8978783 ], [ 34.5753719, -14.9057306 ], [ 34.5893513, -14.9361282 ], [ 34.592742, -14.9593279 ], [ 34.5968466, -14.9618264 ], [ 34.5999237, -14.9716846 ], [ 34.6003112, -14.9722121 ], [ 34.6160833, -14.9781217 ], [ 34.6132054, -14.9895471 ], [ 34.6218309, -14.9978752 ], [ 34.5970343, -15.0454361 ], [ 34.5905309, -15.0462663 ], [ 34.5731389, -15.0656134 ], [ 34.5765555, -15.0864769 ], [ 34.5852222, -15.0857227 ], [ 34.5890917, -15.0903097 ], [ 34.5921439, -15.0939279 ], [ 34.5915002, -15.0969455 ], [ 34.5832118, -15.1075675 ], [ 34.5699344, -15.1220922 ], [ 34.571584, -15.12857 ], [ 34.576864, -15.1425881 ], [ 34.5761305, -15.1430143 ], [ 34.5811196, -15.1628903 ], [ 34.5773376, -15.1688048 ], [ 34.5777801, -15.2010328 ], [ 34.6036913, -15.2370026 ], [ 34.6040937, -15.2467394 ], [ 34.5993935, -15.2503523 ], [ 34.6004725, -15.2833933 ], [ 34.5721805, -15.3095892 ], [ 34.5755672, -15.3117588 ], [ 34.5753661, -15.3224612 ], [ 34.520848, -15.3509072 ], [ 34.5190067, -15.3813015 ], [ 34.5218394, -15.3862373 ], [ 34.5185623, -15.3909708 ], [ 34.4660379, -15.4295222 ], [ 34.4443272, -15.4551017 ], [ 34.4391384, -15.4595621 ], [ 34.4263679, -15.4820878 ], [ 34.4279382, -15.485807 ], [ 34.4267811, -15.4949417 ], [ 34.4421616, -15.5378115 ], [ 34.4458333, -15.5887862 ], [ 34.4501085, -15.5895362 ], [ 34.4534722, -15.597702 ], [ 34.4509413, -15.6031586 ], [ 34.434761, -15.6158293 ], [ 34.430002, -15.6461079 ], [ 34.4331066, -15.6549941 ], [ 34.4351667, -15.6608905 ], [ 34.4256111, -15.6624737 ], [ 34.3915552, -15.6827795 ], [ 34.3681992, -15.7360995 ], [ 34.3364184, -15.7392909 ], [ 34.3002495, -15.759104 ], [ 34.2816111, -15.7862954 ], [ 34.2713475, -15.7968372 ], [ 34.2695636, -15.8052249 ], [ 34.2729898, -15.8129584 ], [ 34.2679368, -15.8169476 ], [ 34.2535756, -15.830378 ], [ 34.2551142, -15.8342245 ], [ 34.2557032, -15.835697 ], [ 34.2503568, -15.842189 ], [ 34.2501183, -15.8424786 ], [ 34.2509842, -15.8460384 ], [ 34.2516464, -15.8487607 ], [ 34.2525119, -15.8523187 ], [ 34.254885, -15.8541494 ], [ 34.2571659, -15.855909 ], [ 34.2522459, -15.8786475 ], [ 34.2547778, -15.8832863 ], [ 34.26154, -15.8850627 ], [ 34.2630018, -15.886337 ], [ 34.2527778, -15.8932747 ], [ 34.2527778, -15.8960671 ], [ 34.2798814, -15.9258319 ], [ 34.2797715, -15.9339647 ], [ 34.2912073, -15.9315712 ], [ 34.3156745, -15.937555 ], [ 34.3297697, -15.9612243 ], [ 34.3439979, -15.9767823 ], [ 34.3556996, -15.9867553 ], [ 34.3772414, -16.0124193 ], [ 34.4100859, -16.0287751 ], [ 34.4255693, -16.0417992 ], [ 34.4225855, -16.049386 ], [ 34.4189952, -16.0894112 ], [ 34.3929456, -16.140727 ], [ 34.4045556, -16.1614271 ], [ 34.4041469, -16.1619215 ], [ 34.4011185, -16.1655845 ], [ 34.3977942, -16.1828295 ], [ 34.4009107, -16.1880238 ], [ 34.4013263, -16.192387 ], [ 34.3996641, -16.196958 ], [ 34.401534, -16.2006979 ], [ 34.4058973, -16.2046455 ], [ 34.4058973, -16.2166963 ], [ 34.4156625, -16.2272927 ], [ 34.419818, -16.2389279 ], [ 34.419818, -16.2476543 ], [ 34.423444, -16.2530973 ], [ 34.4245278, -16.2547241 ], [ 34.4315354, -16.2624248 ], [ 34.4426431, -16.2693769 ], [ 34.4553338, -16.2816609 ], [ 34.5015743, -16.2927586 ], [ 34.5113157, -16.2854834 ], [ 34.5161247, -16.2851135 ], [ 34.5234492, -16.2809933 ], [ 34.5247222, -16.2802772 ], [ 34.5252649, -16.2811832 ], [ 34.537429, -16.2922655 ], [ 34.5410329, -16.2943616 ], [ 34.5412256, -16.295683 ], [ 34.5443622, -16.3034864 ], [ 34.5513908, -16.3049661 ], [ 34.5551996, -16.3070139 ], [ 34.5710278, -16.3155239 ], [ 34.5725277, -16.3205797 ], [ 34.5781548, -16.3540402 ], [ 34.5841112, -16.3576724 ], [ 34.5888474, -16.3733674 ], [ 34.5847415, -16.3800482 ], [ 34.5860021, -16.3976968 ], [ 34.5914385, -16.4046302 ], [ 34.5914577, -16.4071363 ], [ 34.5915, -16.4126816 ], [ 34.5941961, -16.4168423 ], [ 34.6028628, -16.4218848 ], [ 34.6099537, -16.4201514 ], [ 34.6141295, -16.4247999 ], [ 34.6372505, -16.4380895 ], [ 34.6423603, -16.438024 ], [ 34.6444531, -16.4466415 ], [ 34.647777, -16.451812 ], [ 34.6783075, -16.4583366 ], [ 34.6833611, -16.4628437 ], [ 34.6844628, -16.4659692 ], [ 34.6786768, -16.4788954 ], [ 34.6829377, -16.4954086 ], [ 34.687048, -16.5008084 ], [ 34.6987778, -16.5045621 ], [ 34.706622, -16.4977307 ], [ 34.7086638, -16.4971675 ], [ 34.7137622, -16.495761 ], [ 34.7361676, -16.5053634 ], [ 34.7391221, -16.5078255 ], [ 34.7644821, -16.5390946 ], [ 34.7723609, -16.5410643 ], [ 34.7765465, -16.5478351 ], [ 34.7791318, -16.5585454 ], [ 34.7791318, -16.5666704 ], [ 34.7772852, -16.573072 ], [ 34.7711389, -16.5823327 ], [ 34.7793235, -16.5816524 ], [ 34.7924273, -16.5863675 ], [ 34.7988288, -16.5930153 ], [ 34.8130833, -16.5992478 ], [ 34.8138478, -16.6047104 ], [ 34.8164331, -16.605449 ], [ 34.821134, -16.6023151 ], [ 34.8215476, -16.6024502 ], [ 34.826774, -16.6058183 ], [ 34.8297595, -16.6044844 ], [ 34.83256, -16.6032331 ], [ 34.8340373, -16.6045873 ], [ 34.842901, -16.6133278 ], [ 34.8465942, -16.6154207 ], [ 34.84925, -16.6194681 ], [ 34.8488101, -16.6265002 ], [ 34.8534881, -16.6373336 ], [ 34.8518878, -16.6507522 ], [ 34.8554578, -16.6601084 ], [ 34.8559503, -16.6693413 ], [ 34.8584124, -16.6751274 ], [ 34.8627211, -16.6775895 ], [ 34.8719541, -16.6790668 ], [ 34.8815564, -16.6881767 ], [ 34.9112251, -16.7076275 ], [ 34.9155371, -16.7146441 ], [ 34.9217354, -16.746433 ], [ 34.937316, -16.7485489 ], [ 34.9786915, -16.7490259 ], [ 34.9836009, -16.7511029 ], [ 34.9856123, -16.7551259 ], [ 34.9863388, -16.7565788 ], [ 34.9873755, -16.762256 ], [ 34.9888349, -16.7681577 ], [ 34.99375, -16.775065 ], [ 34.991951, -16.780759 ], [ 34.9918146, -16.7898116 ], [ 34.995119, -16.7925495 ], [ 35.0337602, -16.8183271 ], [ 35.035, -16.824116 ], [ 35.03987, -16.827104 ], [ 35.0461011, -16.8270096 ], [ 35.0580913, -16.8328631 ], [ 35.0629063, -16.8288978 ], [ 35.0712572, -16.820397 ], [ 35.076, -16.8216719 ], [ 35.0837809, -16.8185383 ], [ 35.1193195, -16.8166385 ], [ 35.1300276, -16.8179701 ], [ 35.1354167, -16.8173667 ], [ 35.1442741, -16.8252224 ], [ 35.1515034, -16.8321736 ], [ 35.1574121, -16.8388777 ], [ 35.1618436, -16.8500133 ], [ 35.1597982, -16.8609216 ], [ 35.1580833, -16.8629181 ], [ 35.1548006, -16.863358 ], [ 35.1488899, -16.8654667 ], [ 35.1478673, -16.876375 ], [ 35.1535931, -16.8883908 ], [ 35.1536623, -16.8903513 ], [ 35.1551395, -16.8925103 ], [ 35.1556067, -16.8926524 ], [ 35.1661614, -16.9168267 ], [ 35.1676386, -16.9313711 ], [ 35.1707066, -16.9351209 ], [ 35.1679795, -16.9389842 ], [ 35.164906, -16.9391009 ], [ 35.1590029, -16.9393251 ], [ 35.1574121, -16.9353481 ], [ 35.1487763, -16.9380752 ], [ 35.1420722, -16.9509152 ], [ 35.1371862, -16.9567102 ], [ 35.1402788, -16.9607247 ], [ 35.1426404, -16.9623916 ], [ 35.1354818, -16.9703456 ], [ 35.0951154, -16.9865519 ], [ 35.0870193, -16.9848474 ], [ 35.0843496, -16.985269 ], [ 35.0762247, -16.9865519 ], [ 35.0628733, -16.9928014 ], [ 35.0601747, -16.9976306 ], [ 35.0586312, -17.0007987 ], [ 35.057476, -17.00317 ], [ 35.0553455, -17.0065788 ], [ 35.057334, -17.0131125 ], [ 35.0617232, -17.0169354 ], [ 35.0638676, -17.0210664 ], [ 35.0629936, -17.022057 ], [ 35.0609335, -17.0304296 ], [ 35.0613109, -17.0317191 ], [ 35.0591688, -17.0384185 ], [ 35.0553455, -17.0462067 ], [ 35.0563397, -17.0483372 ], [ 35.0630331, -17.0505254 ], [ 35.0637255, -17.0507518 ], [ 35.0664111, -17.0552278 ], [ 35.073668, -17.0632509 ], [ 35.0810539, -17.0642452 ], [ 35.0816185, -17.0694075 ], [ 35.0932629, -17.0769939 ], [ 35.0956835, -17.0773124 ], [ 35.0962602, -17.0785482 ], [ 35.102132, -17.0850119 ], [ 35.1061941, -17.0865447 ], [ 35.0924315, -17.0913568 ], [ 35.0924167, -17.0910899 ], [ 35.0903422, -17.092316 ], [ 35.0834685, -17.103589 ], [ 35.0804097, -17.1057481 ], [ 35.0905702, -17.1239 ], [ 35.0942631, -17.1280191 ], [ 35.0971667, -17.1288105 ], [ 35.2966169, -17.1256913 ], [ 35.3042117, -17.1255626 ], [ 35.3089746, -17.1236317 ], [ 35.3009936, -17.0968568 ], [ 35.306915, -17.0685372 ], [ 35.3138661, -17.0634525 ], [ 35.3124083, -17.0605724 ], [ 35.3101551, -17.0586333 ], [ 35.3024739, -17.0614573 ], [ 35.2989046, -17.0602984 ], [ 35.291661, -17.0339744 ], [ 35.3024739, -16.9887274 ], [ 35.3046623, -16.98139 ], [ 35.3005041, -16.9776152 ], [ 35.2955871, -16.9731516 ], [ 35.2969387, -16.9688393 ], [ 35.2965526, -16.964527 ], [ 35.2948386, -16.9628453 ], [ 35.2931413, -16.9611801 ], [ 35.288121, -16.9622099 ], [ 35.2856868, -16.9642016 ], [ 35.2824571, -16.966844 ], [ 35.2778874, -16.9613732 ], [ 35.2698181, -16.9601932 ], [ 35.2679988, -16.9599272 ], [ 35.2676385, -16.9586059 ], [ 35.2700097, -16.9570761 ], [ 35.2734039, -16.9491169 ], [ 35.2655365, -16.9477356 ], [ 35.2640951, -16.9461742 ], [ 35.2632543, -16.9398081 ], [ 35.2655365, -16.9372858 ], [ 35.2690198, -16.9342229 ], [ 35.2667865, -16.9285763 ], [ 35.2728327, -16.925731 ], [ 35.2729709, -16.9254564 ], [ 35.2734132, -16.9172291 ], [ 35.2839577, -16.9042244 ], [ 35.2843225, -16.9035815 ], [ 35.2846696, -16.8989829 ], [ 35.2818558, -16.8964936 ], [ 35.2745933, -16.8971674 ], [ 35.2706899, -16.8945349 ], [ 35.2713254, -16.8923562 ], [ 35.279854, -16.8881881 ], [ 35.2834418, -16.884201 ], [ 35.2791322, -16.8796474 ], [ 35.2793138, -16.8774688 ], [ 35.2834895, -16.8730207 ], [ 35.2933134, -16.8694977 ], [ 35.2961983, -16.8635799 ], [ 35.3030066, -16.8581332 ], [ 35.3056391, -16.8530497 ], [ 35.3050274, -16.8429567 ], [ 35.3074241, -16.8393202 ], [ 35.3111765, -16.8367098 ], [ 35.3145353, -16.8309001 ], [ 35.3099056, -16.8213685 ], [ 35.3093702, -16.8208735 ], [ 35.3050945, -16.8169204 ], [ 35.3057421, -16.8117391 ], [ 35.3055718, -16.8103641 ], [ 35.3046754, -16.8076748 ], [ 35.3040051, -16.8056641 ], [ 35.3025537, -16.8052361 ], [ 35.2969245, -16.8035762 ], [ 35.2873021, -16.7782494 ], [ 35.2942535, -16.7717109 ], [ 35.2964706, -16.7696255 ], [ 35.2974286, -16.7640752 ], [ 35.2937473, -16.7580061 ], [ 35.2855774, -16.7450249 ], [ 35.294292, -16.7395783 ], [ 35.2843973, -16.7367642 ], [ 35.2814016, -16.7338594 ], [ 35.2821608, -16.7321768 ], [ 35.2881191, -16.7189719 ], [ 35.2884833, -16.7117795 ], [ 35.2732317, -16.6985471 ], [ 35.2662419, -16.6925558 ], [ 35.2607952, -16.6873815 ], [ 35.2597967, -16.6808455 ], [ 35.2577996, -16.6785761 ], [ 35.2476325, -16.6794839 ], [ 35.2332898, -16.656608 ], [ 35.228297, -16.6461687 ], [ 35.2171322, -16.653237 ], [ 35.215679, -16.6541571 ], [ 35.2062382, -16.6373633 ], [ 35.203061, -16.6359109 ], [ 35.1982498, -16.6369094 ], [ 35.1872658, -16.627287 ], [ 35.1787327, -16.6230205 ], [ 35.1751282, -16.6229004 ], [ 35.1705628, -16.6227482 ], [ 35.1721968, -16.6075884 ], [ 35.1699273, -16.6064991 ], [ 35.1664863, -16.607835 ], [ 35.1622113, -16.6094947 ], [ 35.1451452, -16.5739101 ], [ 35.1492302, -16.5543022 ], [ 35.1561292, -16.5530314 ], [ 35.165321, -16.5461717 ], [ 35.1766097, -16.5407763 ], [ 35.1786019, -16.5372071 ], [ 35.1765267, -16.5276615 ], [ 35.1868984, -16.5187925 ], [ 35.2122402, -16.5139191 ], [ 35.209741, -16.5127695 ], [ 35.2087913, -16.5076462 ], [ 35.2242113, -16.4939506 ], [ 35.2394214, -16.4926777 ], [ 35.2478533, -16.4894875 ], [ 35.2550763, -16.4833791 ], [ 35.2623989, -16.474382 ], [ 35.2622621, -16.4696075 ], [ 35.2647979, -16.4538417 ], [ 35.2631989, -16.4455907 ], [ 35.2678297, -16.4358699 ], [ 35.2636682, -16.4256682 ], [ 35.2635694, -16.3984205 ], [ 35.2644146, -16.3965401 ], [ 35.2671696, -16.390411 ], [ 35.2863494, -16.3708135 ], [ 35.2918659, -16.3644525 ], [ 35.3020199, -16.3473625 ], [ 35.288468, -16.3364407 ], [ 35.2851075, -16.3295003 ], [ 35.2787151, -16.3213546 ], [ 35.29828, -16.2666825 ], [ 35.299463, -16.2644074 ], [ 35.2962498, -16.2577166 ], [ 35.2936916, -16.2523897 ], [ 35.2932989, -16.241655 ], [ 35.2937271, -16.2405784 ], [ 35.2981845, -16.2293725 ], [ 35.3034354, -16.2284136 ], [ 35.3074991, -16.2247152 ], [ 35.3075902, -16.2167935 ], [ 35.3075958, -16.2167619 ], [ 35.3080464, -16.2160436 ], [ 35.3136799, -16.2070647 ], [ 35.3153735, -16.2058827 ], [ 35.3236535, -16.2001039 ], [ 35.3701044, -16.164248 ], [ 35.3745058, -16.155157 ], [ 35.3773877, -16.1538209 ], [ 35.3797098, -16.1545819 ], [ 35.407228, -16.1241901 ], [ 35.4276893, -16.1176404 ], [ 35.4293688, -16.1140997 ], [ 35.429628, -16.1135534 ], [ 35.437802, -16.1132128 ], [ 35.4397042, -16.1134801 ], [ 35.4506338, -16.1150161 ], [ 35.4506854, -16.1150405 ], [ 35.4545168, -16.1188979 ], [ 35.4659987, -16.1226409 ], [ 35.4712616, -16.1194669 ], [ 35.4748932, -16.1215372 ], [ 35.4814777, -16.1233022 ], [ 35.4846465, -16.1212191 ], [ 35.4863312, -16.1201118 ], [ 35.4872815, -16.1229627 ], [ 35.4881979, -16.1317873 ], [ 35.4930174, -16.1429876 ], [ 35.4987697, -16.1453888 ], [ 35.5004164, -16.1460762 ], [ 35.5012688, -16.1506004 ], [ 35.4986855, -16.1521176 ], [ 35.4967169, -16.1514048 ], [ 35.5082973, -16.1577926 ], [ 35.5123974, -16.1556813 ], [ 35.5169115, -16.1572086 ], [ 35.5198982, -16.1607724 ], [ 35.5187782, -16.1673908 ], [ 35.5230886, -16.1679678 ], [ 35.5249554, -16.1674247 ], [ 35.5303243, -16.1616476 ], [ 35.5307592, -16.1611797 ], [ 35.5342376, -16.1620275 ], [ 35.5368652, -16.1615823 ], [ 35.5417134, -16.1549728 ], [ 35.540885, -16.1513555 ], [ 35.5427647, -16.1457623 ], [ 35.5444555, -16.1407312 ], [ 35.5522671, -16.1340586 ], [ 35.5555895, -16.1294073 ], [ 35.555398, -16.1235308 ], [ 35.5577416, -16.1212787 ], [ 35.5597557, -16.1224688 ], [ 35.5705765, -16.1339121 ], [ 35.5711392, -16.1330728 ], [ 35.5716567, -16.1323009 ], [ 35.5692033, -16.1275222 ], [ 35.5708877, -16.1264419 ], [ 35.5794199, -16.1240503 ], [ 35.5834021, -16.1287192 ], [ 35.5833106, -16.1308705 ], [ 35.5916829, -16.1320209 ], [ 35.5923051, -16.1321064 ], [ 35.5965391, -16.1290167 ], [ 35.6055107, -16.1254693 ], [ 35.6128172, -16.1240932 ], [ 35.614624, -16.1259834 ], [ 35.6151552, -16.1259682 ], [ 35.6195402, -16.1253234 ], [ 35.6210921, -16.1245723 ], [ 35.6282228, -16.1211215 ], [ 35.6257892, -16.1196857 ], [ 35.6246468, -16.1190116 ], [ 35.6271142, -16.1140409 ], [ 35.6295825, -16.113174 ], [ 35.6296907, -16.113136 ], [ 35.6344451, -16.1114662 ], [ 35.6542921, -16.1046002 ], [ 35.6570099, -16.1017036 ], [ 35.6618018, -16.0996295 ], [ 35.68476, -16.1016321 ], [ 35.6869271, -16.1026227 ], [ 35.7042637, -16.1024224 ], [ 35.7081545, -16.1016662 ], [ 35.7090542, -16.1014914 ], [ 35.7092071, -16.0996181 ], [ 35.7081831, -16.0992183 ], [ 35.7078684, -16.0979309 ], [ 35.7095351, -16.0956005 ], [ 35.7109581, -16.093611 ], [ 35.7127032, -16.0916657 ], [ 35.7195176, -16.0919971 ], [ 35.7627749, -16.0696244 ], [ 35.7649086, -16.0648287 ], [ 35.7662028, -16.060656 ], [ 35.7736858, -16.0540418 ], [ 35.7809012, -16.0513696 ], [ 35.7881282, -16.0470922 ], [ 35.7933183, -16.0427746 ], [ 35.8004323, -16.0413876 ], [ 35.8097386, -16.036108 ], [ 35.8135865, -16.0338709 ], [ 35.8137824, -16.0310627 ], [ 35.8173448, -16.0219695 ], [ 35.8190002, -16.0198219 ], [ 35.8187765, -16.0016119 ], [ 35.8179264, -15.9966903 ], [ 35.8160473, -15.9950348 ], [ 35.8147163, -15.9957256 ], [ 35.8125126, -15.9968693 ], [ 35.8091123, -15.9949006 ], [ 35.8077649, -15.9721021 ], [ 35.8081872, -15.9668125 ], [ 35.8052534, -15.9643233 ], [ 35.8112765, -15.9443679 ], [ 35.8268282, -15.9335815 ], [ 35.826872, -15.9335511 ], [ 35.841989, -15.6976311 ], [ 35.8643806, -15.4490448 ], [ 35.866225, -15.4166916 ], [ 35.855792, -15.3681432 ], [ 35.803483, -15.1680401 ], [ 35.932, -14.8934522 ], [ 35.8855457, -14.8934517 ], [ 35.885544, -14.6737452 ], [ 35.780065, -14.5487109 ], [ 35.533989, -14.2570133 ], [ 35.500219, -14.1688268 ], [ 35.240822, -13.878752 ], [ 35.103036, -13.6971337 ], [ 34.940836, -13.5441346 ], [ 34.880358, -13.4813468 ], [ 34.8663819, -13.4813461 ], [ 34.865277, -13.481346 ], [ 34.6827746, -13.4813365 ], [ 34.604306, -13.4813324 ], [ 34.5799655, -13.4353042 ], [ 34.5669961, -13.406317 ], [ 34.5583472, -13.3828413 ], [ 34.5505219, -13.3107666 ], [ 34.5632894, -13.2753471 ], [ 34.5637013, -13.1855626 ], [ 34.5748214, -13.0488267 ], [ 34.5694673, -13.0072293 ], [ 34.5249869, -12.8486651 ], [ 34.5183972, -12.8025373 ], [ 34.5186664, -12.7842356 ], [ 34.5142787, -12.7325219 ], [ 34.4936859, -12.6793926 ], [ 34.4829777, -12.6312055 ], [ 34.4772117, -12.5756051 ], [ 34.4718647, -12.5626598 ], [ 34.4257298, -12.4911747 ], [ 34.4220231, -12.4718176 ], [ 34.4185223, -12.4149815 ], [ 34.3958703, -12.3713249 ], [ 34.3658049, -12.3120177 ], [ 34.359627, -12.2922487 ], [ 34.3563322, -12.2584766 ], [ 34.3600389, -12.2065828 ], [ 34.3835146, -12.1505705 ], [ 34.447764, -12.072318 ], [ 34.4634145, -12.0418407 ], [ 34.4868903, -12.0076567 ], [ 34.492229, -12.001756 ], [ 34.4947155, -11.9990078 ], [ 34.5007512, -11.9869365 ], [ 34.5359011, -11.9462903 ], [ 34.5433145, -11.9335228 ], [ 34.5466093, -11.921579 ], [ 34.542611, -11.893991 ], [ 34.553199, -11.8544466 ], [ 34.5972675, -11.7996699 ], [ 34.6368056, -11.7317137 ], [ 34.6462783, -11.685586 ], [ 34.6446308, -11.6637576 ], [ 34.6377547, -11.6400039 ], [ 34.6127411, -11.5733055 ], [ 34.8676398, -11.5733242 ], [ 34.9086987, -11.5733272 ], [ 34.9595702, -11.5733309 ], [ 35.0003396, -11.5730746 ], [ 35.116336, -11.5723451 ], [ 35.4154254, -11.5704643 ], [ 35.4241483, -11.5751132 ], [ 35.4235696, -11.5758004 ], [ 35.4232079, -11.5761621 ], [ 35.4296184, -11.5794422 ], [ 35.4308981, -11.5794759 ], [ 35.4317399, -11.5794422 ], [ 35.4329859, -11.5794759 ], [ 35.4334573, -11.5796779 ], [ 35.4436606, -11.5818331 ], [ 35.4436606, -11.5807218 ], [ 35.444031, -11.578533 ], [ 35.4443004, -11.5767819 ], [ 35.4448055, -11.5757044 ], [ 35.4479035, -11.5736839 ], [ 35.4480382, -11.574189 ], [ 35.4482739, -11.5750309 ], [ 35.4484423, -11.5757717 ], [ 35.4736642, -11.5787014 ], [ 35.4742704, -11.5786003 ], [ 35.4948116, -11.5596755 ], [ 35.4954177, -11.5603153 ], [ 35.4963943, -11.560652 ], [ 35.4975392, -11.5605173 ], [ 35.5215826, -11.5703838 ], [ 35.5212795, -11.5688012 ], [ 35.5211785, -11.5676562 ], [ 35.5213468, -11.5667134 ], [ 35.5224581, -11.5641878 ], [ 35.523502, -11.5627735 ], [ 35.5355237, -11.5640868 ], [ 35.5362645, -11.5649623 ], [ 35.536938, -11.5651307 ], [ 35.5375441, -11.565299 ], [ 35.5392154, -11.5634163 ], [ 35.5389921, -11.5629419 ], [ 35.5389247, -11.5622347 ], [ 35.5382849, -11.5616286 ], [ 35.5396596, -11.559204 ], [ 35.5402717, -11.559204 ], [ 35.5669416, -11.563447 ], [ 35.5674804, -11.563447 ], [ 35.5683896, -11.5624704 ], [ 35.5685964, -11.5618041 ], [ 35.58819, -11.5567121 ], [ 35.5889645, -11.5571162 ], [ 35.5917258, -11.5584632 ], [ 35.5926013, -11.5588673 ], [ 35.6064414, -11.5590357 ], [ 35.6072833, -11.5587663 ], [ 35.6185978, -11.5551295 ], [ 35.6194396, -11.5552642 ], [ 35.621056, -11.5552642 ], [ 35.6508576, -11.5505834 ], [ 35.709619, -11.5086254 ], [ 35.7135252, -11.4774095 ], [ 35.7141314, -11.4775779 ], [ 35.7146028, -11.4775779 ], [ 35.7152089, -11.4774095 ], [ 35.7218427, -11.4754227 ], [ 35.723156, -11.4753891 ], [ 35.7283755, -11.4762983 ], [ 35.7291837, -11.4767024 ], [ 35.7354134, -11.4771401 ], [ 35.7354814, -11.4767322 ], [ 35.7355818, -11.4761299 ], [ 35.7359859, -11.4736717 ], [ 35.7365247, -11.4713818 ], [ 35.7369961, -11.4702032 ], [ 35.7379053, -11.4670715 ], [ 35.738141, -11.4672399 ], [ 35.7388819, -11.4689236 ], [ 35.7391176, -11.4696981 ], [ 35.7429564, -11.4722574 ], [ 35.744034, -11.4724594 ], [ 35.7445391, -11.4727288 ], [ 35.7451453, -11.4730319 ], [ 35.7457851, -11.4733686 ], [ 35.7464586, -11.4738737 ], [ 35.7474014, -11.4744462 ], [ 35.7481086, -11.4744125 ], [ 35.7813787, -11.4626266 ], [ 35.8111803, -11.4203655 ], [ 35.8116517, -11.4195573 ], [ 35.816063, -11.418244 ], [ 35.8171743, -11.4180083 ], [ 35.852431, -11.4175473 ], [ 35.8531472, -11.4186542 ], [ 35.8534728, -11.419696 ], [ 35.8683181, -11.4309601 ], [ 35.8704016, -11.429723 ], [ 35.8728107, -11.429723 ], [ 35.8744385, -11.4299183 ], [ 35.8799078, -11.4265977 ], [ 35.8807542, -11.4255559 ], [ 35.8842051, -11.425621 ], [ 35.8853771, -11.4264024 ], [ 35.8862886, -11.426793 ], [ 35.8873955, -11.4272488 ], [ 35.888242, -11.4287464 ], [ 35.8890233, -11.4294626 ], [ 35.902957, -11.4330437 ], [ 35.9045848, -11.4334994 ], [ 35.9056917, -11.4336948 ], [ 35.908231, -11.4349319 ], [ 35.909403, -11.4359737 ], [ 35.9104448, -11.4370154 ], [ 35.9189743, -11.4364294 ], [ 35.9192736, -11.4362964 ], [ 35.925876, -11.4368201 ], [ 35.9273085, -11.4375363 ], [ 35.9284153, -11.4383828 ], [ 35.9287409, -11.4391641 ], [ 35.9356426, -11.4309601 ], [ 35.9362937, -11.4297881 ], [ 35.9374006, -11.4293323 ], [ 35.9382471, -11.4288115 ], [ 35.9426746, -11.4224306 ], [ 35.9435862, -11.4226259 ], [ 35.9444326, -11.4230166 ], [ 35.9447582, -11.4237979 ], [ 35.9484695, -11.428551 ], [ 35.9493159, -11.4295277 ], [ 35.9523761, -11.4436567 ], [ 35.9521808, -11.4454798 ], [ 35.955241, -11.4519258 ], [ 35.9561525, -11.4530978 ], [ 35.9575199, -11.46026 ], [ 35.956999, -11.4615622 ], [ 35.9659843, -11.46026 ], [ 35.9650727, -11.4590229 ], [ 35.9644216, -11.4581113 ], [ 35.964031, -11.4544651 ], [ 35.9648774, -11.4536838 ], [ 35.9661145, -11.4530327 ], [ 35.967026, -11.4525769 ], [ 35.9728209, -11.4576555 ], [ 35.9726256, -11.4590229 ], [ 35.9824573, -11.4583067 ], [ 35.9833037, -11.4575904 ], [ 35.98431, -11.4574602 ], [ 35.9853222, -11.4574602 ], [ 35.9867546, -11.459088 ], [ 35.9872755, -11.4605204 ], [ 35.9877964, -11.4614971 ], [ 35.9885777, -11.4627993 ], [ 35.9902706, -11.4701568 ], [ 35.9902706, -11.4715893 ], [ 35.9903357, -11.4728264 ], [ 35.9951539, -11.4762121 ], [ 35.9966515, -11.4762121 ], [ 35.9974328, -11.4769935 ], [ 35.997563, -11.4776446 ], [ 35.9980188, -11.4787515 ], [ 36.0014046, -11.4811606 ], [ 36.0024463, -11.481421 ], [ 36.0043345, -11.482593 ], [ 36.0053763, -11.4836348 ], [ 36.0258862, -11.4891041 ], [ 36.0272535, -11.4891041 ], [ 36.0314857, -11.490211 ], [ 36.0335042, -11.4912527 ], [ 36.0417081, -11.4940525 ], [ 36.042815, -11.4952245 ], [ 36.0429452, -11.4963965 ], [ 36.042815, -11.497308 ], [ 36.0426197, -11.4982847 ], [ 36.0420337, -11.4991311 ], [ 36.0417733, -11.5003682 ], [ 36.0605903, -11.527845 ], [ 36.0613716, -11.5283659 ], [ 36.0619576, -11.529603 ], [ 36.0623483, -11.5309052 ], [ 36.0619576, -11.5318819 ], [ 36.0615018, -11.5327283 ], [ 36.0613065, -11.5335747 ], [ 36.1054772, -11.5268878 ], [ 36.1058423, -11.526673 ], [ 36.1072747, -11.5260219 ], [ 36.1087723, -11.5253708 ], [ 36.1195807, -11.5118929 ], [ 36.1208829, -11.5121533 ], [ 36.1221851, -11.5126091 ], [ 36.1253104, -11.5146926 ], [ 36.1266777, -11.5154088 ], [ 36.1274591, -11.5163204 ], [ 36.1281753, -11.5195759 ], [ 36.12798, -11.5214641 ], [ 36.12798, -11.5265428 ], [ 36.128566, -11.5281054 ], [ 36.1258964, -11.5441227 ], [ 36.1267429, -11.5458807 ], [ 36.1283055, -11.5484851 ], [ 36.1292171, -11.5490711 ], [ 36.1298682, -11.5503082 ], [ 36.1307146, -11.5516104 ], [ 36.1309751, -11.5528475 ], [ 36.1461459, -11.5590331 ], [ 36.1471876, -11.5598144 ], [ 36.1514198, -11.5656744 ], [ 36.1518756, -11.5677579 ], [ 36.1594936, -11.5706879 ], [ 36.1613167, -11.5710135 ], [ 36.1770084, -11.5491688 ], [ 36.1779851, -11.5471504 ], [ 36.1790919, -11.5459784 ], [ 36.1803942, -11.5450017 ], [ 36.1815662, -11.5448715 ], [ 36.1821521, -11.5453272 ], [ 36.1844961, -11.5493641 ], [ 36.1854077, -11.5508617 ], [ 36.1856681, -11.552229 ], [ 36.1859937, -11.5541172 ], [ 36.1864495, -11.5565263 ], [ 36.1863192, -11.5608236 ], [ 36.1857332, -11.5625816 ], [ 36.1846915, -11.5632327 ], [ 36.183845, -11.571046 ], [ 36.1842357, -11.5718925 ], [ 36.1972579, -11.577492 ], [ 36.1988205, -11.5788593 ], [ 36.1994716, -11.5800964 ], [ 36.1999274, -11.5812684 ], [ 36.1950441, -11.5914908 ], [ 36.194393, -11.5920768 ], [ 36.1938721, -11.5929232 ], [ 36.1929605, -11.5943557 ], [ 36.1869052, -11.6019736 ], [ 36.1865797, -11.6031456 ], [ 36.1872959, -11.6056199 ], [ 36.1872959, -11.6078987 ], [ 36.1868401, -11.6087452 ], [ 36.1863844, -11.6096567 ], [ 36.186775, -11.6125216 ], [ 36.187947, -11.6134332 ], [ 36.1822173, -11.6382404 ], [ 36.1821521, -11.6394775 ], [ 36.1824126, -11.6404541 ], [ 36.1828033, -11.6414959 ], [ 36.1835195, -11.6428632 ], [ 36.1841706, -11.6440352 ], [ 36.1831288, -11.6597269 ], [ 36.1824777, -11.660964 ], [ 36.1829986, -11.6623314 ], [ 36.1837148, -11.6633731 ], [ 36.1846915, -11.66448 ], [ 36.185603, -11.6675402 ], [ 36.1849519, -11.6680611 ], [ 36.1849519, -11.6689076 ], [ 36.185603, -11.669754 ], [ 36.186189, -11.6705353 ], [ 36.1907468, -11.67913 ], [ 36.1906166, -11.6804973 ], [ 36.1946534, -11.6847295 ], [ 36.1962812, -11.6849899 ], [ 36.1991461, -11.6892872 ], [ 36.1995367, -11.690329 ], [ 36.2020109, -11.6933892 ], [ 36.2025318, -11.693845 ], [ 36.2040294, -11.6948868 ], [ 36.2047456, -11.696189 ], [ 36.2056571, -11.6968401 ], [ 36.2063734, -11.6983376 ], [ 36.2398403, -11.6964494 ], [ 36.240817, -11.6965796 ], [ 36.2415332, -11.6972959 ], [ 36.2641918, -11.6913708 ], [ 36.2662102, -11.6905243 ], [ 36.2686844, -11.6901337 ], [ 36.2880874, -11.7210613 ], [ 36.3191453, -11.7157873 ], [ 36.3198484, -11.7150842 ], [ 36.3293026, -11.7073229 ], [ 36.3328186, -11.707974 ], [ 36.3686295, -11.6983376 ], [ 36.3692806, -11.6961239 ], [ 36.3731873, -11.6904592 ], [ 36.3742193, -11.6897087 ], [ 36.3841259, -11.6810182 ], [ 36.3845816, -11.6795857 ], [ 36.3863396, -11.6778928 ], [ 36.3876418, -11.6775673 ], [ 36.3900509, -11.6783486 ], [ 36.3910276, -11.6793253 ], [ 36.3920043, -11.6814088 ], [ 36.4303545, -11.6851853 ], [ 36.4930562, -11.6813437 ], [ 36.5159752, -11.6976865 ], [ 36.5164961, -11.6986632 ], [ 36.5172124, -11.6994445 ], [ 36.5179937, -11.7002259 ], [ 36.5184495, -11.7018536 ], [ 36.5148174, -11.7062329 ], [ 36.5138266, -11.7072578 ], [ 36.512329, -11.7083647 ], [ 36.510571, -11.7142247 ], [ 36.511157, -11.7152665 ], [ 36.5113524, -11.716764 ], [ 36.5114744, -11.718228 ], [ 36.5067946, -11.7280282 ], [ 36.5056226, -11.7298513 ], [ 36.5046764, -11.7333218 ], [ 36.5048413, -11.7343439 ], [ 36.5045964, -11.7355686 ], [ 36.504439, -11.7399843 ], [ 36.5051669, -11.7409201 ], [ 36.5048413, -11.7427432 ], [ 36.5045158, -11.7451034 ], [ 36.5043204, -11.7465196 ], [ 36.5047762, -11.7482125 ], [ 36.505157, -11.7486695 ], [ 36.5057528, -11.7493845 ], [ 36.5070687, -11.7530629 ], [ 36.507576, -11.7545283 ], [ 36.5089433, -11.7571978 ], [ 36.510571, -11.7590209 ], [ 36.5115477, -11.7592814 ], [ 36.5172124, -11.7609742 ], [ 36.518775, -11.7612347 ], [ 36.5202074, -11.7612347 ], [ 36.5293881, -11.7514681 ], [ 36.5303647, -11.7499054 ], [ 36.5430613, -11.7350601 ], [ 36.5446891, -11.7343439 ], [ 36.5607064, -11.718522 ], [ 36.5617181, -11.7154867 ], [ 36.5647432, -11.7105134 ], [ 36.5662408, -11.7081694 ], [ 36.5729472, -11.6991841 ], [ 36.5749656, -11.6985981 ], [ 36.5763981, -11.6984679 ], [ 36.5781561, -11.698533 ], [ 36.6036144, -11.7148758 ], [ 36.6046562, -11.7147456 ], [ 36.6051107, -11.7152001 ], [ 36.6050468, -11.7162431 ], [ 36.6047213, -11.7189778 ], [ 36.6053724, -11.7189778 ], [ 36.6207385, -11.7360368 ], [ 36.64509, -11.7265306 ], [ 36.6463494, -11.7255591 ], [ 36.6480332, -11.7248391 ], [ 36.6486711, -11.7249028 ], [ 36.6839611, -11.7077136 ], [ 36.7083126, -11.6804322 ], [ 36.7089637, -11.6792602 ], [ 36.7109821, -11.6778277 ], [ 36.7361737, -11.6638114 ], [ 36.736766, -11.66155 ], [ 36.7410633, -11.6596618 ], [ 36.7432771, -11.6587503 ], [ 36.7447095, -11.6578387 ], [ 36.7452304, -11.6566667 ], [ 36.7505695, -11.653281 ], [ 36.7525616, -11.6533555 ], [ 36.7723324, -11.6411288 ], [ 36.7740233, -11.6366414 ], [ 36.7749004, -11.6354134 ], [ 36.775324, -11.6348204 ], [ 36.7944445, -11.6069852 ], [ 36.794965, -11.6051923 ], [ 36.7962004, -11.5997662 ], [ 36.7956151, -11.5988557 ], [ 36.7970459, -11.5880598 ], [ 36.7976962, -11.5859787 ], [ 36.7993872, -11.5798653 ], [ 36.8001026, -11.5781744 ], [ 36.8197433, -11.5696547 ], [ 36.8214993, -11.5699799 ], [ 36.8278001, -11.5727257 ], [ 36.8296287, -11.5752478 ], [ 36.843026, -11.5838975 ], [ 36.8440258, -11.5838235 ], [ 36.844782, -11.5837675 ], [ 36.8471883, -11.584808 ], [ 36.8510254, -11.5844829 ], [ 36.8527163, -11.5846129 ], [ 36.855773, -11.5853283 ], [ 36.8580492, -11.5842877 ], [ 36.8625367, -11.5853934 ], [ 36.8622766, -11.5862388 ], [ 36.8620815, -11.5866941 ], [ 36.8617563, -11.5876046 ], [ 36.8750235, -11.5959291 ], [ 36.8763893, -11.595799 ], [ 36.8871852, -11.5881248 ], [ 36.8883558, -11.5878647 ], [ 36.8894614, -11.5880598 ], [ 36.8909572, -11.5890353 ], [ 36.9278974, -11.6039935 ], [ 36.9287429, -11.6021725 ], [ 36.9306289, -11.599311 ], [ 36.9316045, -11.5982054 ], [ 36.932515, -11.5982054 ], [ 36.9331653, -11.5978151 ], [ 36.9341204, -11.5977501 ], [ 36.9351164, -11.5977501 ], [ 36.9359397, -11.59751 ], [ 36.9389535, -11.5966445 ], [ 36.9426605, -11.59749 ], [ 36.9624964, -11.5924172 ], [ 36.963602, -11.5914417 ], [ 36.9650978, -11.5914417 ], [ 36.9712111, -11.5874745 ], [ 36.9723818, -11.5857185 ], [ 36.9751783, -11.5844178 ], [ 36.9843483, -11.5803206 ], [ 36.9864294, -11.5796052 ], [ 36.989356, -11.5799304 ], [ 36.994689, -11.5805807 ], [ 36.9982659, -11.5821416 ], [ 37.0007373, -11.5827919 ], [ 37.0041842, -11.5835073 ], [ 37.0063954, -11.5840276 ], [ 37.0261011, -11.5858486 ], [ 37.0277921, -11.5856535 ], [ 37.0292228, -11.5872143 ], [ 37.0305236, -11.5886451 ], [ 37.0392383, -11.5925473 ], [ 37.0406041, -11.5924822 ], [ 37.0430754, -11.5931326 ], [ 37.044051, -11.5942382 ], [ 37.0467174, -11.5952788 ], [ 37.0486685, -11.5951487 ], [ 37.0499692, -11.5958641 ], [ 37.0524405, -11.5983354 ], [ 37.0537413, -11.5997662 ], [ 37.0694148, -11.6118628 ], [ 37.0707806, -11.6126433 ], [ 37.0722764, -11.6127083 ], [ 37.0787149, -11.6207727 ], [ 37.0787149, -11.6223336 ], [ 37.0800807, -11.6235042 ], [ 37.0802155, -11.6241109 ], [ 37.1024529, -11.6258455 ], [ 37.1029081, -11.6246748 ], [ 37.1037536, -11.6239594 ], [ 37.1193621, -11.6270811 ], [ 37.1213132, -11.6282518 ], [ 37.1220936, -11.6292273 ], [ 37.1229391, -11.630528 ], [ 37.1477827, -11.6316987 ], [ 37.1486281, -11.6305931 ], [ 37.1496687, -11.6307231 ], [ 37.1511645, -11.6310483 ], [ 37.1586436, -11.6320238 ], [ 37.1594891, -11.6333246 ], [ 37.1635863, -11.6351456 ], [ 37.1657325, -11.6344302 ], [ 37.1674234, -11.6354057 ], [ 37.1750976, -11.6380071 ], [ 37.1771137, -11.6383323 ], [ 37.1793249, -11.6390477 ], [ 37.181341, -11.6401533 ], [ 37.1834872, -11.6410638 ], [ 37.1850481, -11.6410638 ], [ 37.2051759, -11.6473619 ], [ 37.2053391, -11.6472422 ], [ 37.208656, -11.6480226 ], [ 37.2082657, -11.6485429 ], [ 37.2085259, -11.6494534 ], [ 37.2094364, -11.650559 ], [ 37.2205575, -11.6553066 ], [ 37.2714803, -11.6339099 ], [ 37.2990554, -11.6413239 ], [ 37.3005512, -11.6408687 ], [ 37.3015267, -11.6419093 ], [ 37.3034128, -11.6440554 ], [ 37.3045834, -11.6461366 ], [ 37.3048944, -11.6473807 ], [ 37.3156395, -11.6582982 ], [ 37.3170702, -11.6594689 ], [ 37.3177856, -11.6610947 ], [ 37.3175905, -11.6631108 ], [ 37.3392474, -11.6783292 ], [ 37.3906255, -11.6873691 ], [ 37.3925765, -11.6866537 ], [ 37.3943325, -11.6863285 ], [ 37.3966738, -11.6867188 ], [ 37.4252894, -11.6635011 ], [ 37.4241188, -11.6624605 ], [ 37.426395, -11.6573227 ], [ 37.428151, -11.6571926 ], [ 37.4411581, -11.6408687 ], [ 37.4418085, -11.6384624 ], [ 37.4433693, -11.6379421 ], [ 37.5009258, -11.614074 ], [ 37.5806594, -11.6270161 ], [ 37.6015358, -11.6190167 ], [ 37.6029015, -11.6186265 ], [ 37.656686, -11.5772639 ], [ 37.7367447, -11.5539812 ], [ 37.7380454, -11.5514448 ], [ 37.7527435, -11.544486 ], [ 37.7548897, -11.5431202 ], [ 37.7572309, -11.5403237 ], [ 37.7741402, -11.5197725 ], [ 37.7775871, -11.517171 ], [ 37.7856515, -11.4962946 ], [ 37.7863669, -11.4912219 ], [ 37.7872123, -11.4867344 ], [ 37.7885781, -11.4831574 ], [ 37.7778472, -11.4544768 ], [ 37.7872123, -11.4232597 ], [ 37.804837, -11.4123337 ], [ 37.8063978, -11.4099924 ], [ 37.8072433, -11.4078463 ], [ 37.8081538, -11.4045295 ], [ 37.8095195, -11.4027085 ], [ 37.8274693, -11.3623864 ], [ 37.8272092, -11.3615409 ], [ 37.8270141, -11.3573787 ], [ 37.8272092, -11.3554276 ], [ 37.8333876, -11.3077565 ], [ 37.8586864, -11.305025 ], [ 37.8705879, -11.2857095 ], [ 37.9131212, -11.2650282 ], [ 37.945639, -11.2589799 ], [ 37.9462893, -11.2591099 ], [ 37.971263, -11.2721821 ], [ 38.0040409, -11.2641177 ], [ 38.0065122, -11.2635974 ], [ 38.0114549, -11.2675646 ], [ 38.0128207, -11.270231 ], [ 38.0640037, -11.2765395 ], [ 38.0865203, -11.2652829 ], [ 38.0884788, -11.2639609 ], [ 38.0963129, -11.2602397 ], [ 38.0979287, -11.2604355 ], [ 38.1036085, -11.2586239 ], [ 38.1048815, -11.2574488 ], [ 38.1071338, -11.2568612 ], [ 38.109582, -11.2562247 ], [ 38.1120302, -11.2560778 ], [ 38.1143804, -11.2561267 ], [ 38.1160452, -11.2581342 ], [ 38.1187871, -11.2603866 ], [ 38.1508581, -11.2751245 ], [ 38.1528656, -11.274439 ], [ 38.1548731, -11.2724315 ], [ 38.1769066, -11.2746838 ], [ 38.1788651, -11.275859 ], [ 38.1807257, -11.2765445 ], [ 38.1814112, -11.2775237 ], [ 38.2003274, -11.2744554 ], [ 38.2032652, -11.2737372 ], [ 38.2051584, -11.2744554 ], [ 38.2064641, -11.2742595 ], [ 38.2079004, -11.2729538 ], [ 38.2107729, -11.2739331 ], [ 38.2122744, -11.2747165 ], [ 38.2148205, -11.2742595 ], [ 38.2175625, -11.2753041 ], [ 38.2191293, -11.2770014 ], [ 38.2199127, -11.2779154 ], [ 38.2206566, -11.278399 ], [ 38.2233453, -11.2791946 ], [ 38.223895, -11.2788947 ], [ 38.225723, -11.2770667 ], [ 38.226637, -11.2768056 ], [ 38.2286608, -11.2778501 ], [ 38.2370172, -11.2797434 ], [ 38.2374742, -11.280331 ], [ 38.2437415, -11.2839216 ], [ 38.246614, -11.2838563 ], [ 38.2508575, -11.284705 ], [ 38.2522756, -11.2858276 ], [ 38.2626223, -11.2875955 ], [ 38.2643132, -11.2872703 ], [ 38.2705566, -11.2932536 ], [ 38.2723776, -11.2948145 ], [ 38.2823899, -11.3275316 ], [ 38.284022, -11.3287067 ], [ 38.2862417, -11.3288373 ], [ 38.2897018, -11.3304694 ], [ 38.3205813, -11.3271399 ], [ 38.3451282, -11.3480309 ], [ 38.3467604, -11.3481615 ], [ 38.3591644, -11.3649396 ], [ 38.3606007, -11.3693789 ], [ 38.3717643, -11.3779965 ], [ 38.3741145, -11.3779965 ], [ 38.4000977, -11.3857653 ], [ 38.401077, -11.386614 ], [ 38.4084541, -11.3892254 ], [ 38.4112614, -11.3894865 ], [ 38.4339921, -11.3954868 ], [ 38.4343721, -11.3952968 ], [ 38.4356778, -11.3949051 ], [ 38.4546755, -11.4137071 ], [ 38.4555895, -11.4148169 ], [ 38.4596371, -11.4174283 ], [ 38.4601729, -11.418098 ], [ 38.4671449, -11.4190604 ], [ 38.4698868, -11.4179505 ], [ 38.4734774, -11.4181464 ], [ 38.4760235, -11.4180158 ], [ 38.4780474, -11.4189298 ], [ 38.4906472, -11.417363 ], [ 38.4907125, -11.4153392 ], [ 38.4924099, -11.4133806 ], [ 38.4946949, -11.4132501 ], [ 38.4961964, -11.4120749 ], [ 38.4962617, -11.4099206 ], [ 38.497698, -11.4086149 ], [ 38.4982855, -11.4069175 ], [ 38.5001788, -11.4041102 ], [ 38.5052057, -11.400389 ], [ 38.5044875, -11.3986916 ], [ 38.5042917, -11.3978429 ], [ 38.5042917, -11.3958191 ], [ 38.5063155, -11.3950357 ], [ 38.5143455, -11.387071 ], [ 38.5155206, -11.3864182 ], [ 38.5206781, -11.3807384 ], [ 38.5227672, -11.3775395 ], [ 38.5317112, -11.3694442 ], [ 38.5334086, -11.3693136 ], [ 38.5353671, -11.3674857 ], [ 38.5369339, -11.3659188 ], [ 38.5381743, -11.3644173 ], [ 38.5396106, -11.3635686 ], [ 38.5434624, -11.3624588 ], [ 38.5675523, -11.3460071 ], [ 38.5681399, -11.3426123 ], [ 38.5706207, -11.3415678 ], [ 38.5776061, -11.3404579 ], [ 38.5864848, -11.3329502 ], [ 38.5868112, -11.3313834 ], [ 38.5883128, -11.3311875 ], [ 38.5884433, -11.3290984 ], [ 38.5896185, -11.327858 ], [ 38.5894879, -11.3261606 ], [ 38.5917076, -11.3245938 ], [ 38.5994764, -11.3172819 ], [ 38.6033282, -11.3157151 ], [ 38.6087468, -11.3097742 ], [ 38.6104442, -11.3068364 ], [ 38.6189964, -11.2997857 ], [ 38.6227829, -11.2978272 ], [ 38.6290503, -11.292735 ], [ 38.6302254, -11.2909723 ], [ 38.6321186, -11.2894055 ], [ 38.6340772, -11.2885568 ], [ 38.6470688, -11.2819631 ], [ 38.6492884, -11.2803962 ], [ 38.6517692, -11.2785683 ], [ 38.6548376, -11.2769362 ], [ 38.6692002, -11.2746512 ], [ 38.6716157, -11.2753693 ], [ 38.6770996, -11.2763486 ], [ 38.700145, -11.2685145 ], [ 38.7015813, -11.2679922 ], [ 38.7086973, -11.2662295 ], [ 38.7112434, -11.265642 ], [ 38.7412742, -11.2694285 ], [ 38.7431674, -11.269559 ], [ 38.7455177, -11.2702119 ], [ 38.7457788, -11.2714523 ], [ 38.7696729, -11.2534338 ], [ 38.7710439, -11.2508224 ], [ 38.7723496, -11.248211 ], [ 38.780249, -11.2426618 ], [ 38.7839702, -11.2427271 ], [ 38.7880179, -11.2418131 ], [ 38.8077337, -11.2335873 ], [ 38.8097576, -11.2315635 ], [ 38.8132176, -11.2288215 ], [ 38.8153067, -11.2275158 ], [ 38.86209, -11.1882052 ], [ 38.8626033, -11.1861523 ], [ 38.8627499, -11.1845393 ], [ 38.8632631, -11.1835128 ], [ 38.8675889, -11.1818265 ], [ 38.8698617, -11.1813133 ], [ 38.8741142, -11.1776474 ], [ 38.8770005, -11.1750924 ], [ 38.8790896, -11.1733298 ], [ 38.8824191, -11.1721546 ], [ 38.8864577, -11.171186 ], [ 38.887446, -11.1716324 ], [ 38.9009599, -11.1705225 ], [ 38.9045506, -11.1701961 ], [ 38.9074884, -11.1684987 ], [ 38.9100345, -11.1675847 ], [ 38.9152572, -11.166736 ], [ 38.9176075, -11.1666708 ], [ 38.9305338, -11.1658873 ], [ 38.9330799, -11.1655609 ], [ 38.9388249, -11.1646469 ], [ 38.9454186, -11.1711101 ], [ 38.9525346, -11.1724158 ], [ 38.9548849, -11.1728075 ], [ 38.9576268, -11.1727422 ], [ 38.9618703, -11.1723505 ], [ 38.9667666, -11.1707837 ], [ 38.9958182, -11.1622967 ], [ 38.9972545, -11.1622967 ], [ 39.0056109, -11.1688904 ], [ 39.0086792, -11.1696086 ], [ 39.0148813, -11.1683681 ], [ 39.0167092, -11.1669972 ], [ 39.0199734, -11.1662138 ], [ 39.0220626, -11.167193 ], [ 39.0236947, -11.1664749 ], [ 39.0274159, -11.1670625 ], [ 39.0399505, -11.1654956 ], [ 39.0434106, -11.1629495 ], [ 39.0466748, -11.1611216 ], [ 39.0630593, -11.1572845 ], [ 39.0656969, -11.15951 ], [ 39.0770715, -11.1587681 ], [ 39.0828412, -11.1562954 ], [ 39.1085578, -11.1495366 ], [ 39.11441, -11.1460747 ], [ 39.1260319, -11.1445086 ], [ 39.1283397, -11.1454977 ], [ 39.1304828, -11.1465693 ], [ 39.1372416, -11.1464044 ], [ 39.1421047, -11.1454153 ], [ 39.1890868, -11.1604991 ], [ 39.1911475, -11.1635488 ], [ 39.1927135, -11.1662688 ], [ 39.194939, -11.1671755 ], [ 39.2002142, -11.1679173 ], [ 39.2051597, -11.1679997 ], [ 39.2414266, -11.1740992 ], [ 39.2572522, -11.1656094 ], [ 39.2604667, -11.1638785 ], [ 39.2627746, -11.16223 ], [ 39.2644231, -11.1604991 ], [ 39.2662365, -11.1590978 ], [ 39.2682147, -11.1586033 ], [ 39.2719238, -11.157779 ], [ 39.2756329, -11.1533281 ], [ 39.3129713, -11.1250976 ], [ 39.3156914, -11.1264988 ], [ 39.3179992, -11.1241909 ], [ 39.3191532, -11.1218006 ], [ 39.3309399, -11.1011944 ], [ 39.374213, -11.0756427 ], [ 39.3762736, -11.0735821 ], [ 39.3798179, -11.0728403 ], [ 39.38295, -11.0730051 ], [ 39.3902034, -11.0707796 ], [ 39.3939125, -11.0706148 ], [ 39.404875, -11.072016 ], [ 39.4059465, -11.0700378 ], [ 39.4130351, -11.0598171 ], [ 39.4154254, -11.0577565 ], [ 39.4174036, -11.0554486 ], [ 39.4225963, -11.0537177 ], [ 39.424657, -11.0538826 ], [ 39.4517747, -11.0384691 ], [ 39.4544123, -11.038634 ], [ 39.4568026, -11.0378097 ], [ 39.4683421, -11.0267648 ], [ 39.4676003, -11.0236327 ], [ 39.4788925, -11.0176981 ], [ 39.4816125, -11.0164617 ], [ 39.4843325, -11.0142362 ], [ 39.4968611, -11.0073125 ], [ 39.4992514, -11.0070653 ], [ 39.5011472, -11.006241 ], [ 39.5041145, -11.0053343 ], [ 39.512357, -10.9972567 ], [ 39.5126042, -10.9948664 ], [ 39.5142527, -10.991487 ], [ 39.5148297, -10.9894264 ], [ 39.5224128, -10.9811015 ], [ 39.5244734, -10.9805245 ], [ 39.5313147, -10.9787936 ], [ 39.5360953, -10.9771451 ], [ 39.5384856, -10.9752493 ], [ 39.5500251, -10.9726117 ], [ 39.5585149, -10.9732711 ], [ 39.5627185, -10.9721171 ], [ 39.5645319, -10.9703862 ], [ 39.568818, -10.9687377 ], [ 39.5708786, -10.9685729 ], [ 39.5731865, -10.9693147 ], [ 39.5799453, -10.9667595 ], [ 39.5821708, -10.9643692 ], [ 39.583572, -10.9632977 ], [ 39.5863744, -10.9627207 ], [ 39.5914848, -10.9597534 ], [ 39.5919793, -10.956374 ], [ 39.6063589, -10.9494517 ], [ 39.6103601, -10.9478843 ], [ 39.6185201, -10.9459061 ], [ 39.6217347, -10.9442576 ], [ 39.6254438, -10.9442576 ], [ 39.6297299, -10.9459061 ], [ 39.6318729, -10.9455764 ], [ 39.6323675, -10.9431036 ], [ 39.64061, -10.9412078 ], [ 39.643907, -10.9422794 ], [ 39.6477809, -10.9407957 ], [ 39.6587434, -10.9401363 ], [ 39.6606838, -10.9401671 ], [ 39.6678926, -10.9396418 ], [ 39.6696821, -10.9377996 ], [ 39.7006152, -10.931729 ], [ 39.7023462, -10.9319763 ], [ 39.708528, -10.9302453 ], [ 39.7107535, -10.9283496 ], [ 39.7131438, -10.9263714 ], [ 39.7155341, -10.9261241 ], [ 39.7156123, -10.9261261 ], [ 39.7187487, -10.9262065 ], [ 39.721139, -10.9253823 ], [ 39.7227875, -10.9238986 ], [ 39.7383658, -10.9181289 ], [ 39.7416628, -10.9190356 ], [ 39.744218, -10.9192004 ], [ 39.747515, -10.9192004 ], [ 39.755312, -10.9155095 ], [ 39.7583641, -10.9129661 ], [ 39.7636621, -10.9100106 ], [ 39.7693647, -10.9103161 ], [ 39.7724197, -10.9100106 ], [ 39.7747151, -10.9081555 ], [ 39.7778473, -10.9054355 ], [ 39.7799079, -10.9046112 ], [ 39.7975468, -10.896616 ], [ 39.8003493, -10.8972754 ], [ 39.8043057, -10.899336 ], [ 39.8149385, -10.8924123 ], [ 39.8162573, -10.8894451 ], [ 39.8166694, -10.886725 ], [ 39.834061, -10.8747734 ], [ 39.837358, -10.8769989 ], [ 39.8390889, -10.8741965 ], [ 39.8408198, -10.8733722 ], [ 39.8446114, -10.8707346 ], [ 39.8457653, -10.8681795 ], [ 39.8470841, -10.8656243 ], [ 39.8498042, -10.8633164 ], [ 39.8817026, -10.8454302 ], [ 39.8848347, -10.8441938 ], [ 39.887225, -10.8418035 ], [ 39.8922529, -10.8411441 ], [ 39.8944784, -10.8384241 ], [ 39.8958796, -10.8366932 ], [ 39.8990942, -10.834715 ], [ 39.9033803, -10.8337259 ], [ 39.9062652, -10.8316653 ], [ 39.9105512, -10.8296046 ], [ 39.9148373, -10.8299343 ], [ 39.9199461, -10.8305631 ], [ 39.9245635, -10.826967 ], [ 39.9260471, -10.8243295 ], [ 39.9267889, -10.8231755 ], [ 39.9326411, -10.8224337 ], [ 39.935526, -10.822681 ], [ 39.938246, -10.8234228 ], [ 39.9415727, -10.8242183 ], [ 39.9458291, -10.8240822 ], [ 39.9466925, -10.8233073 ], [ 39.9490436, -10.8211973 ], [ 39.9964379, -10.8120482 ], [ 39.9987767, -10.8105598 ], [ 40.0049277, -10.8057839 ], [ 40.0055046, -10.8022396 ], [ 40.0356721, -10.7780891 ], [ 40.0366612, -10.7775122 ], [ 40.0375679, -10.7763582 ], [ 40.0386394, -10.775534 ], [ 40.039134, -10.77438 ], [ 40.0476237, -10.7621811 ], [ 40.0534759, -10.7588017 ], [ 40.069796, -10.7423168 ], [ 40.0722687, -10.7414925 ], [ 40.07639, -10.7402561 ], [ 40.0784506, -10.7400089 ], [ 40.0786979, -10.739267 ], [ 40.078533, -10.7373713 ], [ 40.07911, -10.7360525 ], [ 40.0817476, -10.734981 ], [ 40.1029308, -10.7201445 ], [ 40.1055684, -10.7168475 ], [ 40.1290594, -10.6980546 ], [ 40.1312025, -10.6972304 ], [ 40.1317794, -10.6940158 ], [ 40.1373019, -10.6883285 ], [ 40.1423298, -10.6883285 ], [ 40.1471896, -10.6860564 ], [ 40.150325, -10.6846194 ], [ 40.1757943, -10.6598919 ], [ 40.1767834, -10.6561004 ], [ 40.1776076, -10.652721 ], [ 40.1850259, -10.6481052 ], [ 40.1880756, -10.6471161 ], [ 40.1905483, -10.6468688 ], [ 40.2085994, -10.6250263 ], [ 40.2081048, -10.6233778 ], [ 40.2084345, -10.6222238 ], [ 40.2230237, -10.6066455 ], [ 40.2254965, -10.6069752 ], [ 40.2282989, -10.6064807 ], [ 40.2307716, -10.6057388 ], [ 40.232585, -10.6040903 ], [ 40.2333268, -10.6026067 ], [ 40.2332444, -10.6003812 ], [ 40.2405802, -10.5960951 ], [ 40.2427232, -10.5973315 ], [ 40.2519548, -10.592386 ], [ 40.2538506, -10.5901606 ], [ 40.2883991, -10.5756706 ], [ 40.289046, -10.5722744 ], [ 40.2903648, -10.5700489 ], [ 40.3040473, -10.5701313 ], [ 40.3064376, -10.5709556 ], [ 40.3088279, -10.5714501 ], [ 40.3118777, -10.5698016 ], [ 40.3292693, -10.5699665 ], [ 40.3343796, -10.5715325 ], [ 40.3377591, -10.5726865 ], [ 40.3403967, -10.5730986 ], [ 40.3619972, -10.5640852 ], [ 40.3624865, -10.5613943 ], [ 40.3672671, -10.5530694 ], [ 40.3689156, -10.5514209 ], [ 40.3706466, -10.5484536 ], [ 40.3706466, -10.5449093 ], [ 40.3719654, -10.5401287 ], [ 40.3710587, -10.5383153 ], [ 40.374026, -10.5300729 ], [ 40.376746, -10.5281771 ], [ 40.3787242, -10.5265286 ], [ 40.3808672, -10.5218304 ], [ 40.38334, -10.5182861 ], [ 40.3876261, -10.5137527 ], [ 40.3916649, -10.5111976 ], [ 40.3944244, -10.5107233 ], [ 40.4178847, -10.5030403 ], [ 40.4491781, -10.4738418 ], [ 40.5330753, -10.4921224 ], [ 40.5451074, -10.5455509 ], [ 40.5339385, -10.5774275 ], [ 40.5723644, -10.5968871 ], [ 40.5685044, -10.6399607 ], [ 40.5773753, -10.6630875 ], [ 40.6241407, -10.6717725 ], [ 40.6182455, -10.6983385 ], [ 40.5698682, -10.6920045 ], [ 40.4838062, -10.7561759 ], [ 40.4920774, -10.7732503 ], [ 40.5753213, -10.8207679 ], [ 40.6058812, -10.8269486 ], [ 40.6088961, -10.8464617 ], [ 40.5845591, -10.8690768 ], [ 40.5437695, -10.8883766 ], [ 40.5111678, -10.916054 ], [ 40.4949071, -10.9418619 ], [ 40.4971933, -10.9979901 ], [ 40.5632581, -11.0302386 ], [ 40.5584032, -11.0643313 ], [ 40.4913535, -11.1466393 ], [ 40.4930526, -11.1833584 ], [ 40.5073945, -11.197492 ], [ 40.4320945, -11.2332368 ], [ 40.4188904, -11.283654 ], [ 40.3817505, -11.328792 ], [ 40.4142483, -11.3874791 ], [ 40.4750236, -11.4108125 ], [ 40.4558395, -11.4520359 ], [ 40.4556698, -11.487317 ], [ 40.4376491, -11.503864 ], [ 40.4508828, -11.5295225 ], [ 40.4183207, -11.5528135 ], [ 40.4297619, -11.5886491 ], [ 40.4611361, -11.6117376 ], [ 40.4303258, -11.6485226 ], [ 40.4445956, -11.6570664 ], [ 40.4351596, -11.7259879 ], [ 40.4652152, -11.7632688 ], [ 40.4607996, -11.8029417 ], [ 40.4705612, -11.8312354 ], [ 40.5051846, -11.847419 ], [ 40.4817548, -11.9028403 ], [ 40.5008455, -11.9687606 ], [ 40.5361975, -12.0026664 ], [ 40.5155375, -12.0182856 ], [ 40.499111, -12.056687 ], [ 40.511789, -12.0907818 ], [ 40.4882999, -12.1510695 ], [ 40.5157079, -12.2037666 ], [ 40.4926945, -12.2697422 ], [ 40.5143551, -12.3260948 ], [ 40.4963026, -12.3645224 ], [ 40.5329302, -12.4099889 ], [ 40.4989753, -12.4420343 ], [ 40.4923255, -12.4717629 ], [ 40.4730759, -12.5025053 ], [ 40.4995681, -12.5327978 ], [ 40.5696689, -12.5326536 ], [ 40.5493239, -12.5702155 ], [ 40.5787773, -12.6486447 ], [ 40.5662409, -12.6801777 ], [ 40.5782044, -12.7165502 ], [ 40.5982686, -12.704933 ], [ 40.6300767, -12.752386 ], [ 40.6097128, -12.8031317 ], [ 40.5867054, -12.8107964 ], [ 40.5467893, -12.8426487 ], [ 40.5159691, -12.9206517 ], [ 40.4907452, -12.8822733 ], [ 40.4597805, -12.8831245 ], [ 40.418969, -12.916134 ], [ 40.4044538, -12.9449726 ], [ 40.4119261, -12.9732387 ], [ 40.4534387, -13.025026 ], [ 40.4979342, -13.0356525 ], [ 40.5144951, -12.9933534 ], [ 40.504327, -12.9501781 ], [ 40.5415466, -12.971792 ], [ 40.5839558, -12.9654529 ], [ 40.5867713, -12.9866993 ], [ 40.5559483, -13.0565899 ], [ 40.5501443, -13.1000919 ], [ 40.5609632, -13.1492554 ], [ 40.5564061, -13.2251371 ], [ 40.5643689, -13.3150537 ], [ 40.5841447, -13.3604458 ], [ 40.5758393, -13.4008219 ], [ 40.5468049, -13.4252395 ], [ 40.5247996, -13.5076394 ], [ 40.5489079, -13.5531999 ], [ 40.5760308, -13.5701148 ], [ 40.5435756, -13.6147241 ], [ 40.5350765, -13.6375244 ], [ 40.5413359, -13.6864181 ], [ 40.5738551, -13.7202444 ], [ 40.5729386, -13.7667432 ], [ 40.5836624, -13.7975894 ], [ 40.5934596, -13.9002539 ], [ 40.6162302, -13.9289314 ], [ 40.6227912, -13.9839784 ], [ 40.5865407, -13.9762452 ], [ 40.5912609, -14.0084492 ], [ 40.6236593, -14.0005818 ], [ 40.6365996, -14.0179697 ], [ 40.6320653, -14.0623548 ], [ 40.6125025, -14.0894229 ], [ 40.6128806, -14.1228967 ], [ 40.586083, -14.153405 ], [ 40.5402702, -14.1563047 ], [ 40.5261076, -14.1689027 ], [ 40.5361773, -14.1988405 ], [ 40.5569568, -14.2189975 ], [ 40.5812977, -14.2076192 ], [ 40.6138156, -14.2395876 ], [ 40.6258363, -14.2146492 ], [ 40.6515234, -14.1985458 ], [ 40.6810168, -14.2027571 ], [ 40.6929048, -14.1867379 ], [ 40.7185545, -14.207236 ], [ 40.7134186, -14.2514955 ], [ 40.7386752, -14.2754273 ], [ 40.73176, -14.3327242 ], [ 40.7041004, -14.349665 ], [ 40.6771974, -14.3833377 ], [ 40.6321607, -14.3358055 ], [ 40.638324, -14.4223406 ], [ 40.6235282, -14.5224469 ], [ 40.6250742, -14.5778538 ], [ 40.6702215, -14.5600703 ], [ 40.6825637, -14.4816567 ], [ 40.6810089, -14.4617168 ], [ 40.7072086, -14.442644 ], [ 40.7574482, -14.4237677 ], [ 40.8080309, -14.4118018 ], [ 40.8253004, -14.4534196 ], [ 40.8282768, -14.5057955 ], [ 40.7674437, -14.5401109 ], [ 40.7885557, -14.5604214 ], [ 40.8012712, -14.5263316 ], [ 40.8244832, -14.5327549 ], [ 40.8298839, -14.5570602 ], [ 40.8182191, -14.6037113 ], [ 40.7987563, -14.6292258 ], [ 40.8372296, -14.6840514 ], [ 40.8345967, -14.8076534 ], [ 40.8074572, -14.8453496 ], [ 40.7737238, -14.8504025 ], [ 40.7546261, -14.8729815 ], [ 40.7051117, -14.888468 ], [ 40.6876365, -14.9014109 ], [ 40.6468813, -14.9070373 ], [ 40.6652949, -14.9302853 ], [ 40.734416, -14.9332907 ], [ 40.7444483, -14.9823346 ], [ 40.7265749, -14.9921927 ], [ 40.6782704, -14.9892748 ], [ 40.6571394, -14.9668162 ], [ 40.6370051, -14.9894382 ], [ 40.6948765, -15.0327993 ], [ 40.708708, -15.0816282 ], [ 40.683371, -15.091732 ], [ 40.6333301, -15.0868944 ], [ 40.6033957, -15.1078835 ], [ 40.5794921, -15.1371012 ], [ 40.562245, -15.12535 ], [ 40.5224561, -15.1316797 ], [ 40.514614, -15.1785435 ], [ 40.5228983, -15.1916656 ], [ 40.5671319, -15.2027903 ], [ 40.5934199, -15.1864309 ], [ 40.5966736, -15.1632439 ], [ 40.616321, -15.145241 ], [ 40.656802, -15.184486 ], [ 40.678809, -15.25052 ], [ 40.6752207, -15.2683908 ], [ 40.6343667, -15.3285352 ], [ 40.6327418, -15.3513131 ], [ 40.5892784, -15.3972183 ], [ 40.5780651, -15.4256997 ], [ 40.565495, -15.496301 ], [ 40.5265934, -15.5404954 ], [ 40.4265849, -15.6181899 ], [ 40.3719119, -15.7159021 ], [ 40.3458058, -15.7505253 ], [ 40.2430881, -15.849489 ], [ 40.1872211, -15.89962 ], [ 40.135372, -15.971135 ], [ 40.1334934, -16.0058654 ], [ 40.1071066, -16.0435029 ], [ 40.1047907, -16.0753214 ], [ 40.0497966, -16.1300012 ], [ 40.0285443, -16.1896501 ], [ 39.9558461, -16.243443 ], [ 39.8847117, -16.2471447 ], [ 39.85445, -16.2642385 ], [ 39.8515119, -16.2877001 ], [ 39.9056233, -16.2686175 ], [ 39.9315625, -16.305115 ], [ 39.9502838, -16.3111554 ], [ 39.9149942, -16.3550173 ], [ 39.9032317, -16.3872477 ], [ 39.9146219, -16.4026363 ], [ 39.862583, -16.439728 ], [ 39.8025996, -16.4651849 ], [ 39.7853124, -16.4888095 ], [ 39.7122769, -16.526786 ], [ 39.6698475, -16.5580097 ], [ 39.6289588, -16.5766793 ], [ 39.5957703, -16.6028952 ], [ 39.545297, -16.6245334 ], [ 39.5349444, -16.6454122 ], [ 39.4629425, -16.6889605 ], [ 39.3399572, -16.7440465 ], [ 39.2911057, -16.7788371 ], [ 39.2329624, -16.8116859 ], [ 39.1805303, -16.8494293 ], [ 39.126778, -16.9195564 ], [ 39.1236326, -16.9407692 ], [ 39.0729019, -17.0124952 ], [ 38.9971546, -17.009889 ], [ 38.9532737, -17.020019 ], [ 38.8690561, -17.0519931 ], [ 38.7039202, -17.0826254 ], [ 38.6103391, -17.1064622 ], [ 38.4391074, -17.1594346 ], [ 38.3830264, -17.1839171 ], [ 38.2374702, -17.2381115 ], [ 38.1986628, -17.2576499 ], [ 38.1843726, -17.2808636 ], [ 38.1502431, -17.2987001 ], [ 38.1124421, -17.2938458 ], [ 38.0815729, -17.3221929 ], [ 37.9733935, -17.3511304 ], [ 37.8454414, -17.4066176 ], [ 37.6344137, -17.5197279 ], [ 37.4228176, -17.6278114 ], [ 37.354711, -17.6686142 ], [ 37.3294847, -17.6726655 ], [ 37.3164285, -17.6913152 ], [ 37.2455561, -17.7355403 ], [ 37.1245246, -17.8380452 ], [ 37.0922519, -17.8761008 ], [ 36.9936765, -18.0056937 ], [ 36.9639847, -18.038211 ], [ 36.9652037, -18.0665304 ], [ 36.9031026, -18.1289801 ], [ 36.8788363, -18.1617417 ], [ 36.8778619, -18.1864941 ], [ 36.8479538, -18.1815915 ], [ 36.8139805, -18.2360853 ], [ 36.6965256, -18.3552558 ], [ 36.5916581, -18.4507144 ], [ 36.5384086, -18.507288 ], [ 36.5115036, -18.528312 ], [ 36.4870565, -18.5935855 ], [ 36.439651, -18.6259597 ], [ 36.4174709, -18.6802946 ], [ 36.3807077, -18.6874079 ], [ 36.3687268, -18.7248248 ], [ 36.3885163, -18.7825097 ], [ 36.3157978, -18.8597034 ], [ 36.2786224, -18.8847509 ], [ 36.1179901, -18.903893 ], [ 36.1153203, -18.9142255 ], [ 35.9957795, -18.937602 ], [ 35.9570069, -18.9402787 ], [ 35.7976986, -19.0322586 ], [ 35.7481028, -19.0692018 ], [ 35.6918203, -19.1356181 ], [ 35.6310081, -19.1916443 ], [ 35.5884032, -19.2459812 ], [ 35.5349506, -19.2974068 ], [ 35.4070626, -19.4523771 ], [ 35.3368826, -19.5197977 ], [ 35.2631313, -19.5839319 ], [ 35.2083263, -19.6257196 ], [ 35.1302783, -19.6939418 ], [ 35.0638077, -19.7290684 ], [ 34.9694832, -19.8078985 ], [ 34.9362706, -19.8127189 ], [ 34.8879246, -19.8506865 ], [ 34.8386278, -19.8483359 ], [ 34.7552093, -19.8618671 ], [ 34.7373296, -19.8828918 ], [ 34.7597419, -19.8979511 ], [ 34.764762, -19.9336389 ], [ 34.7531412, -20.0080029 ], [ 34.7530253, -20.0548312 ], [ 34.7754436, -20.1160899 ], [ 34.7783416, -20.1529837 ], [ 34.7058166, -20.1605132 ], [ 34.711741, -20.2048763 ], [ 34.739744, -20.2152848 ], [ 34.7114769, -20.3029399 ], [ 34.6907672, -20.3382253 ], [ 34.7068484, -20.374852 ], [ 34.6589526, -20.4042289 ], [ 34.7109689, -20.4463576 ], [ 34.7183692, -20.4746207 ], [ 34.6848693, -20.5202684 ], [ 34.7473198, -20.5190061 ], [ 34.7495534, -20.5444429 ], [ 34.7838669, -20.5622233 ], [ 34.8497391, -20.6358203 ], [ 34.8872313, -20.6460666 ], [ 34.8899666, -20.618005 ], [ 34.9291627, -20.6302646 ], [ 34.9605726, -20.6650395 ], [ 34.9504074, -20.6902288 ], [ 35.0012568, -20.7132748 ], [ 35.0242007, -20.7905173 ], [ 35.0244801, -20.8208495 ], [ 35.053288, -20.8693254 ], [ 35.0636657, -20.91366 ], [ 35.0952664, -20.9122731 ], [ 35.1294524, -20.9319967 ], [ 35.1120655, -20.9501383 ], [ 35.1246169, -20.9683761 ], [ 35.1012178, -21.0212044 ], [ 35.0864307, -21.0880893 ], [ 35.0252689, -21.0873212 ], [ 35.0246937, -21.1139964 ], [ 35.0661464, -21.1364187 ], [ 35.0546336, -21.1624539 ], [ 35.0793281, -21.1875044 ], [ 35.0851072, -21.2136562 ], [ 35.073521, -21.2795727 ], [ 35.0830177, -21.3112643 ], [ 35.1108246, -21.3220783 ], [ 35.1241501, -21.3830599 ], [ 35.1418195, -21.4267091 ], [ 35.2202138, -21.5557033 ], [ 35.255479, -21.5935423 ], [ 35.2726977, -21.6414859 ], [ 35.2698835, -21.7142558 ], [ 35.284545, -21.7340958 ], [ 35.2781245, -21.7711296 ], [ 35.2865144, -21.8246027 ], [ 35.3033972, -21.8793274 ], [ 35.3200107, -21.9089441 ], [ 35.3128259, -21.9740909 ], [ 35.3336008, -22.0918122 ], [ 35.3343216, -22.1469361 ], [ 35.3458932, -22.1854919 ], [ 35.3640712, -22.2103215 ], [ 35.3996483, -22.2063791 ], [ 35.4137981, -22.1760423 ], [ 35.445554, -22.1552823 ], [ 35.4436172, -22.1238863 ], [ 35.4631109, -22.1018046 ], [ 35.4877307, -22.1041866 ], [ 35.4905045, -22.1312647 ], [ 35.5122669, -22.1821049 ], [ 35.5378675, -22.1785914 ], [ 35.5287935, -22.2531485 ], [ 35.5440321, -22.3246997 ], [ 35.5401453, -22.4241269 ], [ 35.5288954, -22.4894478 ], [ 35.5041369, -22.5728839 ], [ 35.5026045, -22.608908 ], [ 35.5156881, -22.6998439 ], [ 35.5132309, -22.7871185 ], [ 35.5230878, -22.8522806 ], [ 35.5473888, -22.8840569 ], [ 35.5501287, -22.9219888 ], [ 35.5768442, -22.9153652 ], [ 35.6035468, -22.924223 ], [ 35.592482, -22.9688441 ], [ 35.5271232, -23.0704463 ], [ 35.5043457, -23.1147941 ], [ 35.4856638, -23.1818893 ], [ 35.4945964, -23.2338378 ], [ 35.4945101, -23.292868 ], [ 35.4879393, -23.3300116 ], [ 35.452051, -23.414869 ], [ 35.4239807, -23.508534 ], [ 35.4208433, -23.5956197 ], [ 35.4324484, -23.6547826 ], [ 35.4064777, -23.7346299 ], [ 35.377636, -23.6975976 ], [ 35.3622815, -23.7493934 ], [ 35.3639669, -23.7756408 ], [ 35.3494962, -23.8122198 ], [ 35.3506695, -23.8642729 ], [ 35.3366643, -23.890814 ], [ 35.3460882, -23.907887 ], [ 35.3231791, -23.9529671 ], [ 35.3335261, -23.9889439 ], [ 35.3722536, -23.949116 ], [ 35.394328, -23.9055073 ], [ 35.3805899, -23.881428 ], [ 35.3839503, -23.841254 ], [ 35.441605, -23.8454487 ], [ 35.4499626, -23.8734618 ], [ 35.4748078, -23.8799467 ], [ 35.4890396, -23.8493469 ], [ 35.4847796, -23.8089462 ], [ 35.5045409, -23.785142 ], [ 35.53851, -23.7930839 ], [ 35.5393622, -23.8435626 ], [ 35.555083, -23.8670473 ], [ 35.5320817, -23.9052486 ], [ 35.4980544, -24.0042454 ], [ 35.4937572, -24.0500932 ], [ 35.4988348, -24.1104333 ], [ 35.4694431, -24.168754 ], [ 35.4402761, -24.1982598 ], [ 35.4095012, -24.252069 ], [ 35.2625254, -24.4274501 ], [ 35.2050879, -24.4901392 ], [ 35.1995494, -24.5263388 ], [ 35.1201563, -24.6020351 ], [ 35.0113985, -24.663091 ], [ 34.9162664, -24.7016027 ], [ 34.8219752, -24.7448299 ], [ 34.7217998, -24.7801393 ], [ 34.5491155, -24.8346552 ], [ 34.4945902, -24.8583374 ], [ 34.4596951, -24.8658551 ], [ 34.3737298, -24.9030692 ], [ 34.307244, -24.9261264 ], [ 34.237667, -24.9417475 ], [ 34.1022726, -24.9948246 ], [ 34.0552849, -25.0079133 ], [ 33.9966625, -25.0329741 ], [ 33.904735, -25.0577953 ], [ 33.6942479, -25.1326077 ], [ 33.6086992, -25.1739435 ], [ 33.5493273, -25.1926554 ], [ 33.3621894, -25.2682475 ], [ 33.2301875, -25.3301075 ], [ 33.0310169, -25.4391351 ], [ 32.9373338, -25.4983038 ], [ 32.8652596, -25.5528768 ], [ 32.8299273, -25.5869692 ], [ 32.777969, -25.665348 ], [ 32.7476763, -25.7352176 ], [ 32.7330405, -25.8050718 ], [ 32.7423507, -25.8693976 ], [ 32.6722783, -25.8878974 ], [ 32.6080322, -25.9570826 ], [ 32.5892214, -25.9842118 ], [ 32.5434535, -25.9599601 ], [ 32.5246625, -25.9404881 ], [ 32.4874531, -25.9619359 ], [ 32.5604039, -25.9809413 ], [ 32.5727543, -26.0170585 ], [ 32.601162, -26.0261925 ], [ 32.6664577, -26.124792 ], [ 32.666094, -26.1486323 ], [ 32.6908502, -26.1937688 ], [ 32.7199555, -26.1828786 ], [ 32.7971356, -26.2448629 ], [ 32.8099079, -26.2751931 ], [ 32.8319026, -26.2880858 ], [ 32.8734415, -26.2779998 ], [ 32.8692238, -26.1986354 ], [ 32.9096659, -26.1083388 ], [ 32.9506406, -26.0926416 ], [ 32.9605846, -26.1108101 ], [ 32.9489463, -26.1503511 ], [ 32.9336178, -26.2897482 ], [ 32.9206288, -26.4365602 ], [ 32.9294441, -26.4543475 ], [ 32.9177101, -26.4866427 ], [ 32.9190632, -26.5212581 ], [ 32.8932585, -26.6583972 ], [ 32.9050241, -26.7099533 ], [ 32.8902043, -26.786855 ], [ 32.8915232, -26.8583317 ] ], [ [ 34.6776859, -12.0757042 ], [ 34.6834005, -12.105076 ], [ 34.7276799, -12.1332545 ], [ 34.7802713, -12.0851033 ], [ 34.7919107, -12.0365504 ], [ 34.7639222, -12.0095942 ], [ 34.7148413, -12.0021204 ], [ 34.6962318, -12.0221712 ], [ 34.6776859, -12.0757042 ] ], [ [ 34.608853, -12.0836508 ], [ 34.6376596, -12.0775731 ], [ 34.6617586, -12.0416834 ], [ 34.6580857, -12.0010153 ], [ 34.6119417, -11.9746116 ], [ 34.5849335, -11.9863425 ], [ 34.5740381, -12.0171895 ], [ 34.5803806, -12.0544564 ], [ 34.608853, -12.0836508 ] ] ], [ [ [ 40.5977686, -12.4054335 ], [ 40.6154263, -12.4191449 ], [ 40.6170146, -12.4522489 ], [ 40.5989748, -12.4605513 ], [ 40.5977686, -12.4054335 ] ] ], [ [ [ 40.5889646, -12.1865351 ], [ 40.6104081, -12.2040588 ], [ 40.6145799, -12.2315146 ], [ 40.5918011, -12.2531948 ], [ 40.5806708, -12.2163788 ], [ 40.5889646, -12.1865351 ] ] ], [ [ [ 35.4510662, -21.5036667 ], [ 35.4837326, -21.5158985 ], [ 35.4972601, -21.5634679 ], [ 35.4871067, -21.6273302 ], [ 35.4960994, -21.6484268 ], [ 35.4832261, -21.7001917 ], [ 35.4597076, -21.7530705 ], [ 35.4340152, -21.7642553 ], [ 35.4250964, -21.7269504 ], [ 35.4472433, -21.6999026 ], [ 35.4319072, -21.6579857 ], [ 35.4644037, -21.6276557 ], [ 35.4615029, -21.5643852 ], [ 35.477089, -21.5170372 ], [ 35.4510662, -21.5036667 ] ] ], [ [ [ 35.4623016, -21.8083923 ], [ 35.4468621, -21.9112086 ], [ 35.4265743, -21.9046021 ], [ 35.4124115, -21.8679806 ], [ 35.4555977, -21.8456707 ], [ 35.4623016, -21.8083923 ] ] ], [ [ [ 32.9915311, -25.9701194 ], [ 32.974187, -26.0120197 ], [ 32.9610822, -26.0710835 ], [ 32.9373201, -26.03118 ], [ 32.9081136, -26.0628741 ], [ 32.8960634, -26.0516856 ], [ 32.9143349, -26.0033473 ], [ 32.9546318, -25.9985157 ], [ 32.9915311, -25.9701194 ] ] ] ] } }
]
}
