{
"type": "FeatureCollection",
"name": "MRT_GAUL1999_ADM1",
"crs": { "type": "name", "properties": { "name": "urn:ogc:def:crs:OGC:1.3:CRS84" } },
"features": [
{ "type": "Feature", "properties": { "POLYGON_ID": "MRT_GAUL1999_ADM1_2004", "ADM0_ISO3": "MRT", "ADM0_NAME": "Mauritania", "ADM0_CODE": 159, "ADM1_NAME": "Adrar", "ADM1_CODE": 2004, "GEOSET": "GAUL", "GEOSET_YEAR": 1999.0, "GEOSET_VERSION": "GAUL_v1", "GEOSET_UNIT": "ADM1", "CENTROID_LONG": -10.17419033722895, "CENTROID_LAT": 21.037726605530032 }, "geometry": { "type": "MultiPolygon", "coordinates": [ [ [ [ -6.37939, 23.35292 ], [ -6.37606, 23.34681 ], [ -6.37604, 23.33993 ], [ -6.3774441, 23.3353772 ], [ -6.3626945, 23.2203781 ], [ -6.3596264, 23.1954982 ], [ -7.466013, 20.692098 ], [ -7.879923, 19.753278 ], [ -11.003121, 19.753595 ], [ -11.394738, 19.454693 ], [ -11.438494, 19.234145 ], [ -11.670124, 19.32952 ], [ -11.86448, 19.189023 ], [ -12.346381, 18.896885 ], [ -12.669447, 18.557303 ], [ -13.206236, 19.00027 ], [ -13.33236, 19.000269 ], [ -14.26249, 19.001266 ], [ -14.217267, 19.431434 ], [ -14.113978, 20.711833 ], [ -14.117201, 21.150659 ], [ -14.2387991, 21.3413097 ], [ -14.2326, 21.34127 ], [ -13.61325, 21.3383 ], [ -13.47845, 21.33712 ], [ -13.00176, 21.33081 ], [ -13.017645, 21.573494 ], [ -13.016464, 21.573085 ], [ -12.382859, 21.353644 ], [ -12.378448, 21.352102 ], [ -10.779931, 21.542315 ], [ -6.488683, 24.3325493 ], [ -6.48675, 24.3187 ], [ -6.45176, 24.0 ], [ -6.4547, 23.98238 ], [ -6.43729, 23.83308 ], [ -6.4377, 23.82964 ], [ -6.43476, 23.81628 ], [ -6.43264, 23.80254 ], [ -6.43261, 23.78954 ], [ -6.4293376, 23.7672339 ], [ -6.4246, 23.73494 ], [ -6.42207, 23.72119 ], [ -6.4230171, 23.7158925 ], [ -6.4215012, 23.703531 ], [ -6.42078, 23.70056 ], [ -6.41701, 23.6872 ], [ -6.41822, 23.67344 ], [ -6.4146027, 23.6550055 ], [ -6.4132319, 23.6451349 ], [ -6.41381, 23.64021 ], [ -6.40622, 23.57841 ], [ -6.4045337, 23.5747783 ], [ -6.39799, 23.53097 ], [ -6.3983723, 23.5178551 ], [ -6.39626, 23.49658 ], [ -6.39335, 23.4912382 ], [ -6.3934497, 23.4877302 ], [ -6.39373, 23.47786 ], [ -6.38699, 23.42284 ], [ -6.3846383, 23.4127268 ], [ -6.3841465, 23.4072737 ], [ -6.38445, 23.39686 ], [ -6.3819812, 23.3811395 ], [ -6.3811, 23.37891 ], [ -6.3830331, 23.3680449 ], [ -6.37939, 23.35292 ] ] ] ] } },
{ "type": "Feature", "properties": { "POLYGON_ID": "MRT_GAUL1999_ADM1_2005", "ADM0_ISO3": "MRT", "ADM0_NAME": "Mauritania", "ADM0_CODE": 159, "ADM1_NAME": "Assaba", "ADM1_CODE": 2005, "GEOSET": "GAUL", "GEOSET_YEAR": 1999.0, "GEOSET_VERSION": "GAUL_v1", "GEOSET_UNIT": "ADM1", "CENTROID_LONG": -11.53609052074618, "CENTROID_LAT": 16.580473374847955 }, "geometry": { "type": "MultiPolygon", "coordinates": [ [ [ [ -11.083198, 17.724089 ], [ -11.093892, 17.67395 ], [ -11.066607, 17.60652 ], [ -11.067013, 17.558805 ], [ -11.006803, 17.419816 ], [ -10.981328, 17.385219 ], [ -10.989897, 17.322469 ], [ -10.976867, 17.289857 ], [ -11.013638, 17.165519 ], [ -10.980284, 17.120772 ], [ -10.995534, 17.003622 ], [ -10.985046, 16.913664 ], [ -10.988171, 16.847103 ], [ -10.97327, 16.806749 ], [ -10.935284, 16.756509 ], [ -10.912583, 16.755597 ], [ -10.868599, 16.709564 ], [ -10.875923, 16.680517 ], [ -10.846662, 16.625988 ], [ -10.816342, 16.599733 ], [ -10.733667, 16.577938 ], [ -10.770582, 16.511595 ], [ -10.880752, 16.477641 ], [ -10.84832, 16.422963 ], [ -10.820761, 16.42728 ], [ -10.813594, 16.384345 ], [ -10.863238, 16.33492 ], [ -10.826794, 16.283204 ], [ -10.847529, 16.258484 ], [ -10.790664, 16.23197 ], [ -10.74857, 16.183145 ], [ -10.740859, 16.133366 ], [ -10.768715, 16.086482 ], [ -10.771765, 16.025222 ], [ -10.69762, 15.981223 ], [ -10.67186, 15.946737 ], [ -10.628658, 15.682899 ], [ -10.5853995, 15.4276219 ], [ -10.58768, 15.42733 ], [ -10.5877142, 15.4272931 ], [ -10.5906043, 15.4241781 ], [ -10.59674, 15.42142 ], [ -10.6075711, 15.4217102 ], [ -10.637537, 15.4168908 ], [ -10.64291, 15.41285 ], [ -10.69381, 15.43359 ], [ -10.7032964, 15.4359641 ], [ -10.71319, 15.43844 ], [ -10.7242215, 15.4365784 ], [ -10.7254952, 15.435185 ], [ -10.72805, 15.43239 ], [ -10.72949, 15.42436 ], [ -10.7282891, 15.4170753 ], [ -10.72646, 15.40598 ], [ -10.7252967, 15.4038091 ], [ -10.7204764, 15.378798 ], [ -10.72041, 15.37382 ], [ -10.7189884, 15.3732291 ], [ -10.7193776, 15.3660044 ], [ -10.724, 15.36121 ], [ -10.7262008, 15.3520563 ], [ -10.72689, 15.34919 ], [ -10.74324, 15.3321 ], [ -10.7475005, 15.3309703 ], [ -10.74986, 15.33258 ], [ -10.7617, 15.33009 ], [ -10.7768968, 15.3183775 ], [ -10.77809, 15.30626 ], [ -10.78046, 15.30328 ], [ -10.78756, 15.30284 ], [ -10.79488, 15.30584 ], [ -10.79819, 15.30516 ], [ -10.80001, 15.30291 ], [ -10.80582, 15.29568 ], [ -10.8098636, 15.2906475 ], [ -10.82287, 15.27446 ], [ -10.8285541, 15.2695842 ], [ -10.82927, 15.26897 ], [ -10.82484, 15.24393 ], [ -10.8297442, 15.2314062 ], [ -10.83508, 15.21778 ], [ -10.8379113, 15.2152016 ], [ -10.83911, 15.21411 ], [ -10.8517633, 15.2074199 ], [ -10.85663, 15.20612 ], [ -10.8663286, 15.1966064 ], [ -10.87393, 15.18915 ], [ -10.87357, 15.17803 ], [ -10.87661, 15.14975 ], [ -10.8781365, 15.1449731 ], [ -10.87955, 15.14055 ], [ -10.8795701, 15.136458 ], [ -10.8796, 15.13035 ], [ -10.8796043, 15.1303464 ], [ -10.88517, 15.12573 ], [ -10.8896109, 15.1173073 ], [ -10.89552, 15.1061 ], [ -10.898831, 15.1049904 ], [ -10.90292, 15.10362 ], [ -10.920872, 15.128424 ], [ -10.92817, 15.14291 ], [ -10.94469, 15.1542 ], [ -10.96831, 15.18921 ], [ -10.9916723, 15.227052 ], [ -10.99853, 15.23816 ], [ -11.0616012, 15.292075 ], [ -11.07465, 15.30391 ], [ -11.13875, 15.34851 ], [ -11.1425327, 15.3494319 ], [ -11.21044, 15.40044 ], [ -11.25375, 15.42021 ], [ -11.2677407, 15.432428 ], [ -11.29115, 15.45465 ], [ -11.3080825, 15.4811434 ], [ -11.31389, 15.49023 ], [ -11.31863, 15.49735 ], [ -11.32834, 15.50676 ], [ -11.3547756, 15.5214328 ], [ -11.36861, 15.56897 ], [ -11.37098, 15.57448 ], [ -11.38241, 15.58607 ], [ -11.3848906, 15.5885771 ], [ -11.38615, 15.58985 ], [ -11.3984705, 15.6068309 ], [ -11.41151, 15.63047 ], [ -11.42218, 15.64103 ], [ -11.511017, 15.6377843 ], [ -11.5043065, 15.6249953 ], [ -11.5372746, 15.5964724 ], [ -11.54639, 15.58857 ], [ -11.55226, 15.58334 ], [ -11.5557956, 15.5809861 ], [ -11.55965, 15.57842 ], [ -11.56747, 15.57635 ], [ -11.56983, 15.57084 ], [ -11.57219, 15.55615 ], [ -11.5704809, 15.5525703 ], [ -11.60083, 15.52906 ], [ -11.61954, 15.53043 ], [ -11.6285305, 15.52217 ], [ -11.6582526, 15.5264678 ], [ -11.660945, 15.5288377 ], [ -11.659311, 15.534342 ], [ -11.65804, 15.542138 ], [ -11.662741, 15.563519 ], [ -11.685767, 15.59173 ], [ -11.667414, 15.631529 ], [ -11.661415, 15.706525 ], [ -11.620413, 15.75452 ], [ -11.600414, 15.812516 ], [ -11.571413, 15.858512 ], [ -11.634971, 15.902499 ], [ -11.585003, 15.96602 ], [ -11.667451, 16.002238 ], [ -11.699417, 16.033499 ], [ -11.770347, 16.055338 ], [ -11.818419, 16.0085 ], [ -11.794418, 15.967504 ], [ -11.83542, 15.942506 ], [ -11.830419, 15.907507 ], [ -11.87942, 15.916508 ], [ -11.944423, 15.900508 ], [ -11.976423, 15.937506 ], [ -12.005424, 15.939506 ], [ -12.015755, 16.000402 ], [ -12.003732, 16.05685 ], [ -12.057536, 16.059589 ], [ -12.085049, 16.100929 ], [ -12.134068, 16.120515 ], [ -12.154019, 16.109371 ], [ -12.202834, 16.125984 ], [ -12.23867, 16.15416 ], [ -12.242882, 16.229164 ], [ -12.29596, 16.259092 ], [ -12.333835, 16.250904 ], [ -12.416749, 16.197662 ], [ -12.429711, 16.256758 ], [ -12.40835, 16.316072 ], [ -12.431643, 16.443067 ], [ -12.666332, 16.490952 ], [ -12.710117, 16.459018 ], [ -12.766008, 16.459846 ], [ -12.770953, 16.493216 ], [ -12.735432, 16.547668 ], [ -12.781625, 16.646291 ], [ -12.841344, 16.685083 ], [ -12.834495, 16.768989 ], [ -12.812088, 16.835867 ], [ -12.826414, 16.854505 ], [ -12.819441, 16.923944 ], [ -12.795145, 16.975512 ], [ -12.725413, 17.045453 ], [ -12.674922, 17.045865 ], [ -12.590703, 17.087633 ], [ -12.568517, 17.109204 ], [ -12.513863, 17.122241 ], [ -12.484821, 17.173422 ], [ -12.407236, 17.215333 ], [ -12.346333, 17.227526 ], [ -12.286157, 17.226565 ], [ -12.231955, 17.196261 ], [ -12.035254, 17.129864 ], [ -11.923007, 17.082597 ], [ -11.752076, 17.143073 ], [ -11.567579, 17.125986 ], [ -11.529338, 17.176078 ], [ -11.599484, 17.311476 ], [ -11.529655, 17.344542 ], [ -11.516286, 17.39126 ], [ -11.480086, 17.424099 ], [ -11.502007, 17.442114 ], [ -11.491204, 17.492356 ], [ -11.45008, 17.538257 ], [ -11.49242, 17.571466 ], [ -11.412644, 17.609612 ], [ -11.416408, 17.669614 ], [ -11.526421, 17.812713 ], [ -11.488382, 17.821836 ], [ -11.488785, 17.854787 ], [ -11.553463, 17.898357 ], [ -11.579752, 17.98487 ], [ -11.554945, 17.995429 ], [ -11.55132, 18.043967 ], [ -11.50474, 18.035386 ], [ -11.48873, 18.077933 ], [ -11.412289, 18.089908 ], [ -11.341031, 18.054023 ], [ -11.265816, 18.102081 ], [ -11.198458, 18.101327 ], [ -11.20712, 18.157022 ], [ -11.137105, 18.247651 ], [ -11.041472, 18.300399 ], [ -11.013822, 18.285702 ], [ -10.970667, 18.311527 ], [ -11.007607, 18.129735 ], [ -11.073627, 17.762141 ], [ -11.083198, 17.724089 ] ] ] ] } },
{ "type": "Feature", "properties": { "POLYGON_ID": "MRT_GAUL1999_ADM1_2006", "ADM0_ISO3": "MRT", "ADM0_NAME": "Mauritania", "ADM0_CODE": 159, "ADM1_NAME": "Brakna", "ADM1_CODE": 2006, "GEOSET": "GAUL", "GEOSET_YEAR": 1999.0, "GEOSET_VERSION": "GAUL_v1", "GEOSET_UNIT": "ADM1", "CENTROID_LONG": -13.407337240368104, "CENTROID_LAT": 17.248680937766363 }, "geometry": { "type": "MultiPolygon", "coordinates": [ [ [ [ -12.346333, 17.227526 ], [ -12.407236, 17.215333 ], [ -12.484821, 17.173422 ], [ -12.513863, 17.122241 ], [ -12.568517, 17.109204 ], [ -12.590703, 17.087633 ], [ -12.674922, 17.045865 ], [ -12.725413, 17.045453 ], [ -12.795145, 16.975512 ], [ -12.819441, 16.923944 ], [ -12.826414, 16.854505 ], [ -12.857054, 16.764716 ], [ -12.903134, 16.711439 ], [ -12.92823, 16.640452 ], [ -12.963446, 16.605859 ], [ -13.117453, 16.575454 ], [ -13.155454, 16.541456 ], [ -13.164813, 16.450637 ], [ -13.18584, 16.419647 ], [ -13.221455, 16.404466 ], [ -13.583402, 16.306369 ], [ -13.625903, 16.292533 ], [ -13.652467, 16.194482 ], [ -13.707373, 16.15401 ], [ -13.7184872, 16.1458176 ], [ -13.7184535, 16.1460756 ], [ -13.704505, 16.15952 ], [ -13.7013119, 16.1702755 ], [ -13.7027404, 16.177922 ], [ -13.7230751, 16.1797706 ], [ -13.7324861, 16.1711158 ], [ -13.7647527, 16.1449832 ], [ -13.7740798, 16.1438069 ], [ -13.7947505, 16.1449832 ], [ -13.8103797, 16.1386812 ], [ -13.8264289, 16.1295222 ], [ -13.8434025, 16.1085153 ], [ -13.8455872, 16.1070028 ], [ -13.8500407, 16.1095236 ], [ -13.8551663, 16.1275055 ], [ -13.8644934, 16.1299423 ], [ -13.8675184, 16.1826276 ], [ -13.8697031, 16.189938 ], [ -13.8769295, 16.1967442 ], [ -13.8928947, 16.1946435 ], [ -13.8983565, 16.1933831 ], [ -13.9034822, 16.1938032 ], [ -13.9063959, 16.1950229 ], [ -13.9175148, 16.208424 ], [ -13.9192793, 16.2201879 ], [ -13.9384376, 16.2347246 ], [ -13.9412945, 16.235733 ], [ -13.9533945, 16.2317837 ], [ -13.967091, 16.2239691 ], [ -13.970284, 16.2454802 ], [ -13.9690236, 16.2495135 ], [ -13.9520501, 16.2671593 ], [ -13.9512938, 16.2702683 ], [ -13.9632257, 16.2768224 ], [ -13.9867534, 16.2758981 ], [ -13.9717125, 16.3100133 ], [ -13.9642341, 16.306148 ], [ -13.9584362, 16.3075765 ], [ -13.9570917, 16.3160633 ], [ -13.9665028, 16.3312723 ], [ -13.982384, 16.3381625 ], [ -13.9960805, 16.3471535 ], [ -14.0275019, 16.3485951 ], [ -14.0303921, 16.3502136 ], [ -14.0346118, 16.3626416 ], [ -14.0709131, 16.4066886 ], [ -14.1383709, 16.4546086 ], [ -14.1332263, 16.4779616 ], [ -14.1387756, 16.4780194 ], [ -14.1415583, 16.4754269 ], [ -14.1442741, 16.4728969 ], [ -14.156695, 16.477557 ], [ -14.162302, 16.4888288 ], [ -14.1668685, 16.4939156 ], [ -14.1995281, 16.5094072 ], [ -14.2083144, 16.5353037 ], [ -14.2205689, 16.5446102 ], [ -14.2392398, 16.5473848 ], [ -14.2476214, 16.5462865 ], [ -14.2540377, 16.5407373 ], [ -14.2572748, 16.534032 ], [ -14.2584887, 16.5250723 ], [ -14.2536331, 16.5154189 ], [ -14.2597154, 16.5206744 ], [ -14.274963, 16.549697 ], [ -14.2735757, 16.5618359 ], [ -14.2665235, 16.5732812 ], [ -14.2676218, 16.5765183 ], [ -14.2822463, 16.5868075 ], [ -14.2874487, 16.5854202 ], [ -14.2918997, 16.5815473 ], [ -14.2968131, 16.5731078 ], [ -14.3332877, 16.5710846 ], [ -14.334097, 16.5769807 ], [ -14.3360045, 16.6426466 ], [ -14.3518429, 16.6401032 ], [ -14.3667565, 16.634265 ], [ -14.3842713, 16.6379066 ], [ -14.3929997, 16.6363459 ], [ -14.4109191, 16.6368084 ], [ -14.4140406, 16.6501034 ], [ -14.4182025, 16.6528202 ], [ -14.4219598, 16.6527624 ], [ -14.4268039, 16.6491157 ], [ -14.4276461, 16.6484817 ], [ -14.4373936, 16.6411437 ], [ -14.4437521, 16.6279643 ], [ -14.4564113, 16.6238601 ], [ -14.475718, 16.6270972 ], [ -14.4786082, 16.6262301 ], [ -14.4879725, 16.6169236 ], [ -14.5034641, 16.6157675 ], [ -14.5128285, 16.6241492 ], [ -14.5297074, 16.6299874 ], [ -14.5439851, 16.6443229 ], [ -14.5475112, 16.6439761 ], [ -14.5492453, 16.6420108 ], [ -14.5530604, 16.6232243 ], [ -14.6394781, 16.6175595 ], [ -14.6482644, 16.6247272 ], [ -14.6516171, 16.629525 ], [ -14.6450274, 16.650219 ], [ -14.651039, 16.6506236 ], [ -14.6665884, 16.6470398 ], [ -14.6864732, 16.6468085 ], [ -14.7173408, 16.639872 ], [ -14.7262427, 16.647271 ], [ -14.7284393, 16.6459993 ], [ -14.7289017, 16.6439761 ], [ -14.727919, 16.6335135 ], [ -14.7293641, 16.6322996 ], [ -14.7363585, 16.6329355 ], [ -14.738555, 16.6312013 ], [ -14.7386707, 16.6275018 ], [ -14.7341041, 16.6228775 ], [ -14.7532374, 16.6307967 ], [ -14.7514454, 16.6381957 ], [ -14.7555496, 16.6499878 ], [ -14.76607, 16.6563463 ], [ -14.771099, 16.6544965 ], [ -14.7766482, 16.6485427 ], [ -14.7846252, 16.6328777 ], [ -14.8126026, 16.6541497 ], [ -14.817516, 16.6536295 ], [ -14.8210999, 16.6508548 ], [ -14.8230074, 16.6470398 ], [ -14.8230074, 16.6399876 ], [ -14.8263023, 16.6353632 ], [ -14.878731, 16.6609128 ], [ -14.8827195, 16.6602192 ], [ -14.886708, 16.6570399 ], [ -14.8922572, 16.6362881 ], [ -14.9113327, 16.6402188 ], [ -14.9102344, 16.6470976 ], [ -14.9141073, 16.6495253 ], [ -14.9286162, 16.635132 ], [ -14.9454374, 16.6355367 ], [ -14.9523519, 16.6476371 ], [ -14.899751, 16.716601 ], [ -14.734598, 16.815826 ], [ -14.320485, 17.08841 ], [ -14.279755, 17.151438 ], [ -13.959477, 17.604372 ], [ -13.734123, 17.801563 ], [ -13.453046, 18.000344 ], [ -12.669447, 18.557303 ], [ -12.479442, 18.274325 ], [ -12.497458, 18.038093 ], [ -12.545442, 17.492384 ], [ -12.410437, 17.356395 ], [ -12.346333, 17.227526 ] ] ] ] } },
{ "type": "Feature", "properties": { "POLYGON_ID": "MRT_GAUL1999_ADM1_2007", "ADM0_ISO3": "MRT", "ADM0_NAME": "Mauritania", "ADM0_CODE": 159, "ADM1_NAME": "Dakhlet-Nouadhibou", "ADM1_CODE": 2007, "GEOSET": "GAUL", "GEOSET_YEAR": 1999.0, "GEOSET_VERSION": "GAUL_v1", "GEOSET_UNIT": "ADM1", "CENTROID_LONG": -15.984118565196397, "CENTROID_LAT": 20.533620067688393 }, "geometry": { "type": "MultiPolygon", "coordinates": [ [ [ [ -14.64432, 21.34335 ], [ -14.60699, 21.3435451 ], [ -14.28723, 21.34162 ], [ -14.2387991, 21.3413097 ], [ -14.117201, 21.150659 ], [ -14.616602, 21.15156 ], [ -15.554038, 21.151998 ], [ -15.871627, 21.151368 ], [ -15.588721, 20.704615 ], [ -15.609923, 20.586806 ], [ -15.739645, 19.882437 ], [ -15.760411, 19.823055 ], [ -15.946138, 19.508802 ], [ -16.03652, 19.000268 ], [ -16.1077725, 18.5993724 ], [ -16.13547, 18.662812 ], [ -16.183755, 18.92211 ], [ -16.252802, 19.072309 ], [ -16.309177, 19.146083 ], [ -16.363657, 19.197575 ], [ -16.471678, 19.259699 ], [ -16.518617, 19.366046 ], [ -16.444369, 19.376436 ], [ -16.399245, 19.398548 ], [ -16.313218, 19.466013 ], [ -16.32652, 19.532482 ], [ -16.386379, 19.513235 ], [ -16.414552, 19.458169 ], [ -16.410675, 19.433737 ], [ -16.470157, 19.422965 ], [ -16.390827, 19.572683 ], [ -16.381179, 19.604172 ], [ -16.347614, 19.635841 ], [ -16.353352, 19.688071 ], [ -16.316763, 19.735079 ], [ -16.285523, 19.739297 ], [ -16.255524, 19.780711 ], [ -16.253047, 19.881154 ], [ -16.306215, 19.90871 ], [ -16.232635, 19.969362 ], [ -16.222604, 19.992864 ], [ -16.252136, 20.127457 ], [ -16.224121, 20.153275 ], [ -16.200511, 20.20365 ], [ -16.241674, 20.286534 ], [ -16.265075, 20.278126 ], [ -16.288671, 20.326619 ], [ -16.360216, 20.423276 ], [ -16.379249, 20.520581 ], [ -16.422201, 20.584344 ], [ -16.438773, 20.631323 ], [ -16.485691, 20.674951 ], [ -16.486025, 20.723351 ], [ -16.528634, 20.728899 ], [ -16.531694, 20.556376 ], [ -16.589959, 20.599875 ], [ -16.640077, 20.65862 ], [ -16.675998, 20.679256 ], [ -16.668147, 20.736742 ], [ -16.697847, 20.749709 ], [ -16.735141, 20.816012 ], [ -16.755552, 20.828933 ], [ -16.776673, 20.925251 ], [ -16.804946, 20.929588 ], [ -16.817332, 20.979653 ], [ -16.878284, 21.06471 ], [ -16.882867, 21.112795 ], [ -16.90511, 21.146781 ], [ -16.9399434, 21.1491849 ], [ -16.947387, 21.1050636 ], [ -17.003529, 21.0180843 ], [ -17.0171611, 20.91509 ], [ -17.0515192, 20.9054525 ], [ -17.0550778, 20.8741801 ], [ -17.0280763, 20.854093 ], [ -17.0512956, 20.7716226 ], [ -17.0518475, 20.7741585 ], [ -17.0576305, 20.7998924 ], [ -17.06652, 20.8398311 ], [ -17.06637, 20.923 ], [ -17.0488, 20.98016 ], [ -17.03983, 21.04026 ], [ -17.0031, 21.10459 ], [ -16.93971, 21.32663 ], [ -16.91926, 21.33035 ], [ -16.57861, 21.33386 ], [ -16.5121244, 21.3346591 ], [ -15.87705, 21.34121 ], [ -15.5637568, 21.342553 ], [ -15.50016, 21.34277 ], [ -15.09572, 21.34357 ], [ -14.64432, 21.34335 ] ] ], [ [ [ -16.355032, 19.854786 ], [ -16.353014, 19.793132 ], [ -16.373368, 19.692039 ], [ -16.430452, 19.599153 ], [ -16.442727, 19.619912 ], [ -16.44487, 19.69225 ], [ -16.416076, 19.756595 ], [ -16.422239, 19.807529 ], [ -16.377621, 19.823328 ], [ -16.355032, 19.854786 ] ] ] ] } },
{ "type": "Feature", "properties": { "POLYGON_ID": "MRT_GAUL1999_ADM1_2008", "ADM0_ISO3": "MRT", "ADM0_NAME": "Mauritania", "ADM0_CODE": 159, "ADM1_NAME": "Gorgol", "ADM1_CODE": 2008, "GEOSET": "GAUL", "GEOSET_YEAR": 1999.0, "GEOSET_VERSION": "GAUL_v1", "GEOSET_UNIT": "ADM1", "CENTROID_LONG": -12.836091630779794, "CENTROID_LAT": 16.013856007739733 }, "geometry": { "type": "MultiPolygon", "coordinates": [ [ [ [ -12.005424, 15.939506 ], [ -12.147428, 15.884509 ], [ -12.18819, 15.898484 ], [ -12.265431, 15.862511 ], [ -12.288916, 15.808365 ], [ -12.401434, 15.707522 ], [ -12.475436, 15.649527 ], [ -12.494436, 15.568533 ], [ -12.535436, 15.539535 ], [ -12.606582, 15.560395 ], [ -12.64779, 15.433601 ], [ -12.69544, 15.307554 ], [ -12.703016, 15.28584 ], [ -12.7546769, 15.1377611 ], [ -12.7569266, 15.1391737 ], [ -12.782723, 15.1478286 ], [ -12.7913779, 15.155139 ], [ -12.7929744, 15.1664827 ], [ -12.7849077, 15.1891701 ], [ -12.7907897, 15.2056395 ], [ -12.7942348, 15.210009 ], [ -12.8017973, 15.2147985 ], [ -12.8429708, 15.2001777 ], [ -12.8512895, 15.2023624 ], [ -12.8545666, 15.2142944 ], [ -12.8736408, 15.2353012 ], [ -12.8891859, 15.2424436 ], [ -12.8980928, 15.2591651 ], [ -12.8962442, 15.2641227 ], [ -12.8920428, 15.2672317 ], [ -12.8839762, 15.268156 ], [ -12.871204, 15.2596692 ], [ -12.8641457, 15.2547116 ], [ -12.8503652, 15.2526949 ], [ -12.8411221, 15.2623581 ], [ -12.8322993, 15.2806761 ], [ -12.8336437, 15.286558 ], [ -12.8505332, 15.3167239 ], [ -12.9106969, 15.338319 ], [ -12.932124, 15.3479821 ], [ -12.9411989, 15.3557967 ], [ -12.9460725, 15.3623509 ], [ -12.947585, 15.3675606 ], [ -12.9448121, 15.3938612 ], [ -12.9470809, 15.4107507 ], [ -12.9456524, 15.4169687 ], [ -12.9398545, 15.423859 ], [ -12.9320399, 15.4283965 ], [ -12.9316198, 15.4478909 ], [ -12.9524586, 15.4425971 ], [ -12.9601051, 15.4468825 ], [ -12.9613655, 15.4538568 ], [ -12.9585086, 15.4762082 ], [ -12.9625419, 15.4899887 ], [ -12.9609454, 15.4962067 ], [ -12.9585086, 15.5004921 ], [ -12.9615141, 15.5009617 ], [ -12.9760704, 15.4984754 ], [ -12.9973293, 15.496963 ], [ -13.0079168, 15.4931817 ], [ -13.0164036, 15.485031 ], [ -13.0279994, 15.4811658 ], [ -13.0838777, 15.4929296 ], [ -13.0963137, 15.4956185 ], [ -13.1018596, 15.4993998 ], [ -13.096986, 15.5297337 ], [ -13.0853902, 15.5464552 ], [ -13.0847179, 15.5570426 ], [ -13.0874909, 15.5646051 ], [ -13.090936, 15.5677141 ], [ -13.0938769, 15.5735961 ], [ -13.0871547, 15.5770412 ], [ -13.1536247, 15.611185 ], [ -13.1837864, 15.6267015 ], [ -13.1912648, 15.6272056 ], [ -13.1990794, 15.625441 ], [ -13.2144564, 15.6126689 ], [ -13.2494119, 15.6530021 ], [ -13.2507563, 15.6720763 ], [ -13.2446223, 15.677202 ], [ -13.2324383, 15.6716562 ], [ -13.2212627, 15.6724965 ], [ -13.216053, 15.7027464 ], [ -13.2408411, 15.7266102 ], [ -13.2779813, 15.7556837 ], [ -13.2872243, 15.7854295 ], [ -13.2809222, 15.7869419 ], [ -13.2734438, 15.7831607 ], [ -13.3227679, 15.8875229 ], [ -13.3257929, 15.9298728 ], [ -13.3346998, 15.9340741 ], [ -13.3431026, 15.9402082 ], [ -13.3549505, 15.9546609 ], [ -13.3733525, 16.0107072 ], [ -13.3771337, 16.0244037 ], [ -13.3727643, 16.0493599 ], [ -13.3763775, 16.058687 ], [ -13.4455321, 16.086416 ], [ -13.4486412, 16.089273 ], [ -13.4522543, 16.0964994 ], [ -13.4539349, 16.1058264 ], [ -13.4601529, 16.1098597 ], [ -13.4687237, 16.1078431 ], [ -13.4745216, 16.1035577 ], [ -13.4861174, 16.0838112 ], [ -13.4895626, 16.0822147 ], [ -13.4939219, 16.0831324 ], [ -13.509057, 16.0918778 ], [ -13.5135104, 16.1011209 ], [ -13.5103174, 16.1125486 ], [ -13.5045195, 16.1184305 ], [ -13.4748578, 16.1375888 ], [ -13.4789751, 16.144143 ], [ -13.5237618, 16.1284298 ], [ -13.5677922, 16.1364124 ], [ -13.5816567, 16.1328833 ], [ -13.5881274, 16.1297576 ], [ -13.5891552, 16.1292611 ], [ -13.631233, 16.1089354 ], [ -13.6843384, 16.0972556 ], [ -13.7061015, 16.1170861 ], [ -13.717123, 16.1363326 ], [ -13.7189577, 16.1422103 ], [ -13.7184872, 16.1458176 ], [ -13.707373, 16.15401 ], [ -13.652467, 16.194482 ], [ -13.625903, 16.292533 ], [ -13.583402, 16.306369 ], [ -13.221455, 16.404466 ], [ -13.18584, 16.419647 ], [ -13.164813, 16.450637 ], [ -13.155454, 16.541456 ], [ -13.117453, 16.575454 ], [ -12.963446, 16.605859 ], [ -12.92823, 16.640452 ], [ -12.903134, 16.711439 ], [ -12.857054, 16.764716 ], [ -12.826414, 16.854505 ], [ -12.812088, 16.835867 ], [ -12.834495, 16.768989 ], [ -12.841344, 16.685083 ], [ -12.781625, 16.646291 ], [ -12.735432, 16.547668 ], [ -12.770953, 16.493216 ], [ -12.766008, 16.459846 ], [ -12.710117, 16.459018 ], [ -12.666332, 16.490952 ], [ -12.431643, 16.443067 ], [ -12.40835, 16.316072 ], [ -12.429711, 16.256758 ], [ -12.416749, 16.197662 ], [ -12.333835, 16.250904 ], [ -12.29596, 16.259092 ], [ -12.242882, 16.229164 ], [ -12.23867, 16.15416 ], [ -12.202834, 16.125984 ], [ -12.154019, 16.109371 ], [ -12.134068, 16.120515 ], [ -12.085049, 16.100929 ], [ -12.057536, 16.059589 ], [ -12.003732, 16.05685 ], [ -12.015755, 16.000402 ], [ -12.005424, 15.939506 ] ] ] ] } },
{ "type": "Feature", "properties": { "POLYGON_ID": "MRT_GAUL1999_ADM1_2009", "ADM0_ISO3": "MRT", "ADM0_NAME": "Mauritania", "ADM0_CODE": 159, "ADM1_NAME": "Guidimakha", "ADM1_CODE": 2009, "GEOSET": "GAUL", "GEOSET_YEAR": 1999.0, "GEOSET_VERSION": "GAUL_v1", "GEOSET_UNIT": "ADM1", "CENTROID_LONG": -12.134980190250904, "CENTROID_LAT": 15.373685743375752 }, "geometry": { "type": "MultiPolygon", "coordinates": [ [ [ [ -11.660945, 15.5288377 ], [ -11.66414, 15.53165 ], [ -11.7056882, 15.5362772 ], [ -11.71187, 15.53751 ], [ -11.7147, 15.52649 ], [ -11.71463, 15.49443 ], [ -11.7148347, 15.4893421 ], [ -11.71491, 15.48747 ], [ -11.71727, 15.48311 ], [ -11.72177, 15.47897 ], [ -11.7473, 15.45623 ], [ -11.771095, 15.3370648 ], [ -11.78622, 15.32144 ], [ -11.79732, 15.30467 ], [ -11.80533, 15.27757 ], [ -11.8059917, 15.2706217 ], [ -11.80697, 15.26035 ], [ -11.82251, 15.20063 ], [ -11.829012, 15.1929122 ], [ -11.83319, 15.18708 ], [ -11.8353889, 15.1825747 ], [ -11.816993, 15.1413335 ], [ -11.81629, 15.13565 ], [ -11.83848, 15.11198 ], [ -11.8472, 15.09153 ], [ -11.83773, 15.08098 ], [ -11.83488, 15.0757 ], [ -11.84691, 15.04835 ], [ -11.8444498, 15.0435955 ], [ -11.81453, 15.04678 ], [ -11.80153, 15.04381 ], [ -11.79229, 15.02521 ], [ -11.8095536, 14.9574542 ], [ -11.81378, 14.94404 ], [ -11.81533, 14.9223 ], [ -11.8093522, 14.908913 ], [ -11.80775, 14.89681 ], [ -11.8127, 14.8929 ], [ -11.82687, 14.88852 ], [ -11.8284721, 14.8874746 ], [ -11.84738, 14.86599 ], [ -11.8555087, 14.8579798 ], [ -11.86932, 14.84437 ], [ -11.8786429, 14.8387057 ], [ -11.90683, 14.82158 ], [ -11.9198, 14.81789 ], [ -11.9287215, 14.8169164 ], [ -11.9311617, 14.8163854 ], [ -11.9368, 14.81373 ], [ -11.9561, 14.77558 ], [ -11.97893, 14.76156 ], [ -11.9871876, 14.7604465 ], [ -11.9912432, 14.7599011 ], [ -12.00022, 14.76288 ], [ -12.0063389, 14.7628633 ], [ -12.00754, 14.76286 ], [ -12.02287, 14.7587 ], [ -12.03987, 14.75959 ], [ -12.04718, 14.7582 ], [ -12.0489795, 14.7537257 ], [ -12.0466926, 14.7445911 ], [ -12.04455, 14.7396 ], [ -12.0497105, 14.7232795 ], [ -12.0508607, 14.7219852 ], [ -12.05442, 14.71798 ], [ -12.11181, 14.74531 ], [ -12.12819, 14.76898 ], [ -12.1361, 14.77284 ], [ -12.15306, 14.7723 ], [ -12.1736457, 14.7614806 ], [ -12.18023, 14.75802 ], [ -12.1973675, 14.7583971 ], [ -12.2109177, 14.7580175 ], [ -12.22095, 14.75694 ], [ -12.23622, 14.75805 ], [ -12.2391646, 14.7593725 ], [ -12.2397644, 14.7657924 ], [ -12.2723668, 14.774381 ], [ -12.2878347, 14.7827559 ], [ -12.2894584, 14.7870715 ], [ -12.3080883, 14.8069833 ], [ -12.3173178, 14.8196739 ], [ -12.3280856, 14.8279633 ], [ -12.3358195, 14.8309116 ], [ -12.3664991, 14.8335608 ], [ -12.3740621, 14.8337317 ], [ -12.3771814, 14.837791 ], [ -12.3861545, 14.8439013 ], [ -12.3944439, 14.8447559 ], [ -12.4133302, 14.8587283 ], [ -12.4364894, 14.8829557 ], [ -12.4504619, 14.8913734 ], [ -12.4534956, 14.8974836 ], [ -12.4490091, 14.9088923 ], [ -12.4517865, 14.9206428 ], [ -12.4565721, 14.9603809 ], [ -12.4607295, 14.9815381 ], [ -12.4633344, 14.98742 ], [ -12.4719892, 14.9975033 ], [ -12.4913156, 15.0150651 ], [ -12.4994662, 15.0181741 ], [ -12.5052641, 15.017754 ], [ -12.5157676, 15.0223755 ], [ -12.5526556, 15.0332991 ], [ -12.5723181, 15.0506087 ], [ -12.5831576, 15.0568268 ], [ -12.6006354, 15.0795982 ], [ -12.6071055, 15.0846399 ], [ -12.6247513, 15.0914461 ], [ -12.6615553, 15.1091759 ], [ -12.6860073, 15.1012773 ], [ -12.6884441, 15.088001 ], [ -12.6889009, 15.0874953 ], [ -12.6930656, 15.0853121 ], [ -12.6980233, 15.0961517 ], [ -12.7194503, 15.1060669 ], [ -12.7273489, 15.1113606 ], [ -12.7339871, 15.1173266 ], [ -12.746087, 15.1323675 ], [ -12.7546769, 15.1377611 ], [ -12.703016, 15.28584 ], [ -12.69544, 15.307554 ], [ -12.64779, 15.433601 ], [ -12.606582, 15.560395 ], [ -12.535436, 15.539535 ], [ -12.494436, 15.568533 ], [ -12.475436, 15.649527 ], [ -12.401434, 15.707522 ], [ -12.288916, 15.808365 ], [ -12.265431, 15.862511 ], [ -12.18819, 15.898484 ], [ -12.147428, 15.884509 ], [ -12.005424, 15.939506 ], [ -11.976423, 15.937506 ], [ -11.944423, 15.900508 ], [ -11.87942, 15.916508 ], [ -11.830419, 15.907507 ], [ -11.83542, 15.942506 ], [ -11.794418, 15.967504 ], [ -11.818419, 16.0085 ], [ -11.770347, 16.055338 ], [ -11.699417, 16.033499 ], [ -11.667451, 16.002238 ], [ -11.585003, 15.96602 ], [ -11.634971, 15.902499 ], [ -11.571413, 15.858512 ], [ -11.600414, 15.812516 ], [ -11.620413, 15.75452 ], [ -11.661415, 15.706525 ], [ -11.667414, 15.631529 ], [ -11.685767, 15.59173 ], [ -11.662741, 15.563519 ], [ -11.65804, 15.542138 ], [ -11.659311, 15.534342 ], [ -11.660945, 15.5288377 ] ] ] ] } },
{ "type": "Feature", "properties": { "POLYGON_ID": "MRT_GAUL1999_ADM1_2010", "ADM0_ISO3": "MRT", "ADM0_NAME": "Mauritania", "ADM0_CODE": 159, "ADM1_NAME": "Hodh Ech Chargi", "ADM1_CODE": 2010, "GEOSET": "GAUL", "GEOSET_YEAR": 1999.0, "GEOSET_VERSION": "GAUL_v1", "GEOSET_UNIT": "ADM1", "CENTROID_LONG": -7.0720253568808857, "CENTROID_LAT": 18.171540327226865 }, "geometry": { "type": "MultiPolygon", "coordinates": [ [ [ [ -6.3327722, 22.9646746 ], [ -6.32939, 22.94148 ], [ -6.30302, 22.71456 ], [ -6.305, 22.70901 ], [ -6.29713, 22.64343 ], [ -6.29338, 22.61628 ], [ -6.29294, 22.59907 ], [ -6.27378, 22.44532 ], [ -6.27129, 22.43155 ], [ -6.2707612, 22.4227383 ], [ -6.2701, 22.41172 ], [ -6.2683804, 22.4061433 ], [ -6.2670013, 22.39461 ], [ -6.26102, 22.33116 ], [ -6.2586301, 22.3222921 ], [ -6.2579859, 22.31445 ], [ -6.25858, 22.31278 ], [ -6.2580577, 22.3087009 ], [ -6.25547, 22.28849 ], [ -6.22517, 22.03522 ], [ -6.22433, 22.01494 ], [ -6.19703, 21.78228 ], [ -6.19456, 21.76851 ], [ -6.1797, 21.63073 ], [ -6.1719358, 21.5627033 ], [ -6.1661, 21.51321 ], [ -6.16405, 21.50671 ], [ -6.1355988, 21.2483056 ], [ -6.13569, 21.24525 ], [ -6.1351991, 21.2428929 ], [ -6.07722, 20.76052 ], [ -6.02599, 20.31859 ], [ -6.00453, 20.15429 ], [ -5.99808, 20.03517 ], [ -5.97291, 19.82827 ], [ -5.91281, 19.31508 ], [ -5.84979, 18.74513 ], [ -5.7947, 18.26142 ], [ -5.74297, 17.76701 ], [ -5.71053, 17.49568 ], [ -5.65834, 17.00378 ], [ -5.65877, 16.99078 ], [ -5.6564, 16.98465 ], [ -5.6443011, 16.8848989 ], [ -5.64394, 16.88132 ], [ -5.6028, 16.49943 ], [ -5.4945359, 16.4341275 ], [ -5.32711, 16.33314 ], [ -5.41525, 15.91931 ], [ -5.44233, 15.79591 ], [ -5.4465228, 15.7767836 ], [ -5.4468704, 15.7751991 ], [ -5.4469999, 15.7748642 ], [ -5.45013, 15.76677 ], [ -5.4507585, 15.7602756 ], [ -5.50642, 15.50797 ], [ -5.5149305, 15.50192 ], [ -5.55331, 15.50063 ], [ -5.5764578, 15.5003933 ], [ -5.68829, 15.49961 ], [ -5.77286, 15.49853 ], [ -5.78954, 15.49748 ], [ -6.11255, 15.49423 ], [ -6.2509489, 15.4957532 ], [ -6.2577155, 15.4958031 ], [ -6.3088232, 15.49618 ], [ -6.37348, 15.49664 ], [ -6.3740168, 15.4965014 ], [ -6.38014, 15.49492 ], [ -6.3929, 15.49629 ], [ -6.43868, 15.49652 ], [ -6.56955, 15.49749 ], [ -6.5721562, 15.4959441 ], [ -6.57218, 15.49593 ], [ -6.5765436, 15.4970246 ], [ -6.71823, 15.49927 ], [ -7.1414431, 15.4963757 ], [ -7.14314, 15.49535 ], [ -7.15214, 15.4948 ], [ -7.1622722, 15.49793 ], [ -7.6590591, 15.49918 ], [ -7.66735, 15.49968 ], [ -7.97237, 15.4982 ], [ -7.98447, 15.49605 ], [ -7.99227, 15.49775 ], [ -8.0624876, 15.4972776 ], [ -8.06711, 15.49656 ], [ -8.09646, 15.49759 ], [ -8.1033083, 15.496567 ], [ -8.10784, 15.49589 ], [ -8.11067, 15.49776 ], [ -8.26696, 15.49744 ], [ -8.35859, 15.49774 ], [ -8.3588973, 15.4977096 ], [ -8.38626, 15.495 ], [ -8.38748, 15.49712 ], [ -8.40121, 15.49749 ], [ -8.41496, 15.49648 ], [ -8.41495, 15.49741 ], [ -8.6806563, 15.497742 ], [ -8.7868, 15.49806 ], [ -8.8799653, 15.4972979 ], [ -8.89872, 15.49628 ], [ -8.91691, 15.49668 ], [ -8.9875, 15.4975 ], [ -8.9996886, 15.4974732 ], [ -8.996749, 15.50056 ], [ -8.954861, 15.544545 ], [ -8.856066, 15.816191 ], [ -8.967328, 15.859238 ], [ -9.067461, 16.062436 ], [ -9.022917, 16.153285 ], [ -8.894346, 16.392476 ], [ -8.74898, 16.532714 ], [ -8.28933, 17.023428 ], [ -8.598339, 17.351402 ], [ -9.117614, 17.27728 ], [ -7.879923, 19.753278 ], [ -7.466013, 20.692098 ], [ -6.3596264, 23.1954982 ], [ -6.3592, 23.19204 ], [ -6.3535513, 23.1564721 ], [ -6.3516831, 23.1557312 ], [ -6.35166, 23.14503 ], [ -6.3327722, 22.9646746 ] ] ] ] } },
{ "type": "Feature", "properties": { "POLYGON_ID": "MRT_GAUL1999_ADM1_2011", "ADM0_ISO3": "MRT", "ADM0_NAME": "Mauritania", "ADM0_CODE": 159, "ADM1_NAME": "Hodh El Gharbi", "ADM1_CODE": 2011, "GEOSET": "GAUL", "GEOSET_YEAR": 1999.0, "GEOSET_VERSION": "GAUL_v1", "GEOSET_UNIT": "ADM1", "CENTROID_LONG": -9.8307542014487854, "CENTROID_LAT": 16.563150706315216 }, "geometry": { "type": "MultiPolygon", "coordinates": [ [ [ [ -11.083198, 17.724089 ], [ -10.339182, 17.519562 ], [ -9.724006, 17.558409 ], [ -9.501115, 17.456601 ], [ -9.117614, 17.27728 ], [ -8.598339, 17.351402 ], [ -8.28933, 17.023428 ], [ -8.74898, 16.532714 ], [ -8.894346, 16.392476 ], [ -9.022917, 16.153285 ], [ -9.067461, 16.062436 ], [ -8.967328, 15.859238 ], [ -8.856066, 15.816191 ], [ -8.954861, 15.544545 ], [ -8.996749, 15.50056 ], [ -8.9996886, 15.4974732 ], [ -9.0008202, 15.4974708 ], [ -9.04673, 15.49737 ], [ -9.0706586, 15.4973105 ], [ -9.11916, 15.49719 ], [ -9.1216654, 15.4976985 ], [ -9.1277898, 15.4976639 ], [ -9.13432, 15.49685 ], [ -9.137787, 15.496805 ], [ -9.32849, 15.49625 ], [ -9.33404, 15.51465 ], [ -9.3325958, 15.5658706 ], [ -9.33246, 15.56858 ], [ -9.32622, 15.60007 ], [ -9.31992, 15.63183 ], [ -9.3182688, 15.6382938 ], [ -9.31114, 15.6662 ], [ -9.31274, 15.6747 ], [ -9.33204, 15.69228 ], [ -9.4265477, 15.6071101 ], [ -9.44287, 15.59758 ], [ -9.43837, 15.57713 ], [ -9.4336545, 15.5556179 ], [ -9.40867, 15.44126 ], [ -9.4082839, 15.4350738 ], [ -9.46412, 15.43291 ], [ -9.4691096, 15.4333496 ], [ -9.55906, 15.43078 ], [ -9.58321, 15.43021 ], [ -9.6056085, 15.4296772 ], [ -9.69756, 15.42749 ], [ -9.70397, 15.42501 ], [ -9.7056227, 15.4185083 ], [ -9.70609, 15.41667 ], [ -9.75168, 15.40847 ], [ -9.81129, 15.36501 ], [ -9.8447822, 15.3604586 ], [ -9.86291, 15.35977 ], [ -9.9224822, 15.3738584 ], [ -9.9983, 15.35656 ], [ -10.08823, 15.35812 ], [ -10.22413, 15.40163 ], [ -10.23288, 15.40281 ], [ -10.3307422, 15.4326704 ], [ -10.33638, 15.43351 ], [ -10.50758, 15.44005 ], [ -10.5846396, 15.4277192 ], [ -10.5853995, 15.4276219 ], [ -10.628658, 15.682899 ], [ -10.67186, 15.946737 ], [ -10.69762, 15.981223 ], [ -10.771765, 16.025222 ], [ -10.768715, 16.086482 ], [ -10.740859, 16.133366 ], [ -10.74857, 16.183145 ], [ -10.790664, 16.23197 ], [ -10.847529, 16.258484 ], [ -10.826794, 16.283204 ], [ -10.863238, 16.33492 ], [ -10.813594, 16.384345 ], [ -10.820761, 16.42728 ], [ -10.84832, 16.422963 ], [ -10.880752, 16.477641 ], [ -10.770582, 16.511595 ], [ -10.733667, 16.577938 ], [ -10.816342, 16.599733 ], [ -10.846662, 16.625988 ], [ -10.875923, 16.680517 ], [ -10.868599, 16.709564 ], [ -10.912583, 16.755597 ], [ -10.935284, 16.756509 ], [ -10.97327, 16.806749 ], [ -10.988171, 16.847103 ], [ -10.985046, 16.913664 ], [ -10.995534, 17.003622 ], [ -10.980284, 17.120772 ], [ -11.013638, 17.165519 ], [ -10.976867, 17.289857 ], [ -10.989897, 17.322469 ], [ -10.981328, 17.385219 ], [ -11.006803, 17.419816 ], [ -11.067013, 17.558805 ], [ -11.066607, 17.60652 ], [ -11.093892, 17.67395 ], [ -11.083198, 17.724089 ] ] ] ] } },
{ "type": "Feature", "properties": { "POLYGON_ID": "MRT_GAUL1999_ADM1_2012", "ADM0_ISO3": "MRT", "ADM0_NAME": "Mauritania", "ADM0_CODE": 159, "ADM1_NAME": "Inchiri", "ADM1_CODE": 2012, "GEOSET": "GAUL", "GEOSET_YEAR": 1999.0, "GEOSET_VERSION": "GAUL_v1", "GEOSET_UNIT": "ADM1", "CENTROID_LONG": -14.983282555610749, "CENTROID_LAT": 20.052059616420831 }, "geometry": { "type": "MultiPolygon", "coordinates": [ [ [ [ -14.26249, 19.001266 ], [ -15.220691, 19.000032 ], [ -16.03652, 19.000268 ], [ -15.946138, 19.508802 ], [ -15.760411, 19.823055 ], [ -15.739645, 19.882437 ], [ -15.609923, 20.586806 ], [ -15.588721, 20.704615 ], [ -15.871627, 21.151368 ], [ -15.554038, 21.151998 ], [ -14.616602, 21.15156 ], [ -14.117201, 21.150659 ], [ -14.113978, 20.711833 ], [ -14.217267, 19.431434 ], [ -14.26249, 19.001266 ] ] ] ] } },
{ "type": "Feature", "properties": { "POLYGON_ID": "MRT_GAUL1999_ADM1_2013", "ADM0_ISO3": "MRT", "ADM0_NAME": "Mauritania", "ADM0_CODE": 159, "ADM1_NAME": "Nouakchott", "ADM1_CODE": 2013, "GEOSET": "GAUL", "GEOSET_YEAR": 1999.0, "GEOSET_VERSION": "GAUL_v1", "GEOSET_UNIT": "ADM1", "CENTROID_LONG": -15.958300461872936, "CENTROID_LAT": 18.059005556401246 }, "geometry": { "type": "MultiPolygon", "coordinates": [ [ [ [ -16.0203071, 17.9765376 ], [ -16.032992, 17.992464 ], [ -16.0251188, 18.0516829 ], [ -16.0291485, 18.1412636 ], [ -15.889318, 18.141939 ], [ -15.888238, 17.977257 ], [ -16.0203071, 17.9765376 ] ] ] ] } },
{ "type": "Feature", "properties": { "POLYGON_ID": "MRT_GAUL1999_ADM1_2014", "ADM0_ISO3": "MRT", "ADM0_NAME": "Mauritania", "ADM0_CODE": 159, "ADM1_NAME": "Tagant", "ADM1_CODE": 2014, "GEOSET": "GAUL", "GEOSET_YEAR": 1999.0, "GEOSET_VERSION": "GAUL_v1", "GEOSET_UNIT": "ADM1", "CENTROID_LONG": -10.347859453383734, "CENTROID_LAT": 18.592525321546685 }, "geometry": { "type": "MultiPolygon", "coordinates": [ [ [ [ -7.879923, 19.753278 ], [ -9.117614, 17.27728 ], [ -9.501115, 17.456601 ], [ -9.724006, 17.558409 ], [ -10.339182, 17.519562 ], [ -11.083198, 17.724089 ], [ -11.073627, 17.762141 ], [ -11.007607, 18.129735 ], [ -10.970667, 18.311527 ], [ -11.013822, 18.285702 ], [ -11.041472, 18.300399 ], [ -11.137105, 18.247651 ], [ -11.20712, 18.157022 ], [ -11.198458, 18.101327 ], [ -11.265816, 18.102081 ], [ -11.341031, 18.054023 ], [ -11.412289, 18.089908 ], [ -11.48873, 18.077933 ], [ -11.50474, 18.035386 ], [ -11.55132, 18.043967 ], [ -11.554945, 17.995429 ], [ -11.579752, 17.98487 ], [ -11.553463, 17.898357 ], [ -11.488785, 17.854787 ], [ -11.488382, 17.821836 ], [ -11.526421, 17.812713 ], [ -11.416408, 17.669614 ], [ -11.412644, 17.609612 ], [ -11.49242, 17.571466 ], [ -11.45008, 17.538257 ], [ -11.491204, 17.492356 ], [ -11.502007, 17.442114 ], [ -11.480086, 17.424099 ], [ -11.516286, 17.39126 ], [ -11.529655, 17.344542 ], [ -11.599484, 17.311476 ], [ -11.529338, 17.176078 ], [ -11.567579, 17.125986 ], [ -11.752076, 17.143073 ], [ -11.923007, 17.082597 ], [ -12.035254, 17.129864 ], [ -12.231955, 17.196261 ], [ -12.286157, 17.226565 ], [ -12.346333, 17.227526 ], [ -12.410437, 17.356395 ], [ -12.545442, 17.492384 ], [ -12.497458, 18.038093 ], [ -12.479442, 18.274325 ], [ -12.669447, 18.557303 ], [ -12.346381, 18.896885 ], [ -11.86448, 19.189023 ], [ -11.670124, 19.32952 ], [ -11.438494, 19.234145 ], [ -11.394738, 19.454693 ], [ -11.003121, 19.753595 ], [ -7.879923, 19.753278 ] ] ] ] } },
{ "type": "Feature", "properties": { "POLYGON_ID": "MRT_GAUL1999_ADM1_2015", "ADM0_ISO3": "MRT", "ADM0_NAME": "Mauritania", "ADM0_CODE": 159, "ADM1_NAME": "Tiris-Zemmour", "ADM1_CODE": 2015, "GEOSET": "GAUL", "GEOSET_YEAR": 1999.0, "GEOSET_VERSION": "GAUL_v1", "GEOSET_UNIT": "ADM1", "CENTROID_LONG": -9.676353830574703, "CENTROID_LAT": 24.208234892106201 }, "geometry": { "type": "MultiPolygon", "coordinates": [ [ [ [ -6.75, 26.170147 ], [ -5.75, 25.562105 ], [ -5.6822911, 25.5204074 ], [ -4.8471584, 25.0061022 ], [ -4.833333, 24.997588 ], [ -5.0, 24.99589 ], [ -5.0, 25.0 ], [ -6.5644, 25.0 ], [ -6.55528, 24.92076 ], [ -6.49258, 24.36047 ], [ -6.488683, 24.3325493 ], [ -10.779931, 21.542315 ], [ -12.378448, 21.352102 ], [ -12.382859, 21.353644 ], [ -13.016464, 21.573085 ], [ -13.017645, 21.573494 ], [ -13.0179145, 21.5776125 ], [ -13.061543, 22.2441511 ], [ -13.08011, 22.52781 ], [ -13.14523, 22.74164 ], [ -13.13827, 22.78631 ], [ -13.11355, 22.88337 ], [ -13.00694, 23.015 ], [ -13.0, 23.02284 ], [ -12.7973501, 23.1502088 ], [ -12.78139, 23.16028 ], [ -12.76334, 23.17167 ], [ -12.7455875, 23.1821531 ], [ -12.70889, 23.20528 ], [ -12.69083, 23.21667 ], [ -12.63667, 23.25083 ], [ -12.61833, 23.26139 ], [ -12.60028, 23.27278 ], [ -12.5975, 23.27611 ], [ -12.5208592, 23.2980812 ], [ -12.36583, 23.31861 ], [ -12.1558318, 23.4163892 ], [ -12.12654, 23.41261 ], [ -12.0, 23.46748 ], [ -12.0000926, 24.0005649 ], [ -12.0005, 24.00305 ], [ -12.00391, 24.10521 ], [ -12.00298, 24.51327 ], [ -12.00626, 24.78657 ], [ -12.0056126, 24.9991493 ], [ -12.00561, 25.0 ], [ -12.0042135, 25.4554629 ], [ -12.0046029, 25.9157848 ], [ -12.0034791, 25.9986361 ], [ -11.98426, 25.99846 ], [ -11.28582, 25.99848 ], [ -10.72707, 25.99962 ], [ -10.68621, 26.00001 ], [ -10.58738, 25.99967 ], [ -10.21793, 25.99967 ], [ -9.88814, 25.99775 ], [ -9.60969, 25.99909 ], [ -9.5729763, 25.9998119 ], [ -9.5629, 26.00001 ], [ -9.5496563, 25.999652 ], [ -8.97905, 25.99689 ], [ -8.67416, 25.99762 ], [ -8.67389, 26.03577 ], [ -8.67232, 26.54068 ], [ -8.67302, 27.04568 ], [ -8.67248, 27.28832 ], [ -8.666667, 27.312739 ], [ -7.8554173, 26.8321717 ], [ -7.666667, 26.72036 ], [ -7.2144234, 26.4489089 ], [ -6.75, 26.170147 ] ] ] ] } },
{ "type": "Feature", "properties": { "POLYGON_ID": "MRT_GAUL1999_ADM1_2016", "ADM0_ISO3": "MRT", "ADM0_NAME": "Mauritania", "ADM0_CODE": 159, "ADM1_NAME": "Trarza", "ADM1_CODE": 2016, "GEOSET": "GAUL", "GEOSET_YEAR": 1999.0, "GEOSET_VERSION": "GAUL_v1", "GEOSET_UNIT": "ADM1", "CENTROID_LONG": -14.847350298610127, "CENTROID_LAT": 17.93323051251102 }, "geometry": { "type": "MultiPolygon", "coordinates": [ [ [ [ -14.26249, 19.001266 ], [ -13.33236, 19.000269 ], [ -13.206236, 19.00027 ], [ -12.669447, 18.557303 ], [ -13.453046, 18.000344 ], [ -13.734123, 17.801563 ], [ -13.959477, 17.604372 ], [ -14.279755, 17.151438 ], [ -14.320485, 17.08841 ], [ -14.734598, 16.815826 ], [ -14.899751, 16.716601 ], [ -14.9523519, 16.6476371 ], [ -14.9537612, 16.6501034 ], [ -14.9542236, 16.6538029 ], [ -14.9495415, 16.6702772 ], [ -14.9519115, 16.6774449 ], [ -14.977461, 16.69074 ], [ -14.9854381, 16.6927053 ], [ -14.9911029, 16.6903931 ], [ -14.9976926, 16.6807398 ], [ -15.0002938, 16.6477912 ], [ -15.0334158, 16.6313747 ], [ -15.0398899, 16.6310279 ], [ -15.0468842, 16.6334557 ], [ -15.0520288, 16.6281955 ], [ -15.0646302, 16.6450166 ], [ -15.0694858, 16.6624736 ], [ -15.0990239, 16.6774449 ], [ -15.1163653, 16.6577336 ], [ -15.1203538, 16.6498144 ], [ -15.1210474, 16.6413171 ], [ -15.084515, 16.6166346 ], [ -15.1168277, 16.5799287 ], [ -15.1748634, 16.5876745 ], [ -15.1775224, 16.5799865 ], [ -15.180008, 16.5781368 ], [ -15.1972338, 16.5724719 ], [ -15.220529, 16.5572694 ], [ -15.2986228, 16.5755356 ], [ -15.3596066, 16.5599862 ], [ -15.3867747, 16.5405639 ], [ -15.3948095, 16.5370378 ], [ -15.4043473, 16.5362285 ], [ -15.4309373, 16.5514311 ], [ -15.4330183, 16.5663447 ], [ -15.4406485, 16.5801021 ], [ -15.4524984, 16.589004 ], [ -15.5011921, 16.5735205 ], [ -15.5097827, 16.5679054 ], [ -15.5157365, 16.5615469 ], [ -15.5183956, 16.5548994 ], [ -15.5190314, 16.5477894 ], [ -15.5078751, 16.5291186 ], [ -15.5083954, 16.5271532 ], [ -15.5175863, 16.5210259 ], [ -15.5516641, 16.5117427 ], [ -15.5868661, 16.5239776 ], [ -15.6106848, 16.5396086 ], [ -15.6225248, 16.5338082 ], [ -15.6312553, 16.526453 ], [ -15.6329895, 16.5213104 ], [ -15.6262323, 16.5021152 ], [ -15.6269499, 16.4961952 ], [ -15.6423778, 16.4859697 ], [ -15.6582841, 16.4820829 ], [ -15.7074381, 16.4729338 ], [ -15.7322543, 16.4893184 ], [ -15.7933081, 16.4996635 ], [ -15.8105898, 16.5085136 ], [ -15.8195595, 16.5089322 ], [ -15.8257751, 16.5071602 ], [ -15.9145786, 16.5135367 ], [ -15.963912, 16.4852522 ], [ -15.9930935, 16.501577 ], [ -16.0033787, 16.5027132 ], [ -16.0126474, 16.4990655 ], [ -16.0290819, 16.4858741 ], [ -16.031414, 16.4840023 ], [ -16.0527719, 16.478196 ], [ -16.1012084, 16.5229848 ], [ -16.1113143, 16.5553355 ], [ -16.1185498, 16.5560531 ], [ -16.132722, 16.5528838 ], [ -16.1447414, 16.5520466 ], [ -16.1521563, 16.5497743 ], [ -16.1584949, 16.5452894 ], [ -16.1767333, 16.5254365 ], [ -16.1980813, 16.5177225 ], [ -16.212373, 16.5149718 ], [ -16.2165589, 16.5153904 ], [ -16.2379666, 16.5249581 ], [ -16.2530955, 16.5265726 ], [ -16.2639189, 16.5243601 ], [ -16.2820378, 16.5119819 ], [ -16.2865226, 16.5028926 ], [ -16.3048806, 16.4647414 ], [ -16.310681, 16.4118799 ], [ -16.312774, 16.4081725 ], [ -16.3164814, 16.4056011 ], [ -16.3276039, 16.4045846 ], [ -16.3319093, 16.3580617 ], [ -16.3325073, 16.3517829 ], [ -16.3536758, 16.3339033 ], [ -16.3596556, 16.3285812 ], [ -16.3553502, 16.280384 ], [ -16.3932622, 16.2150247 ], [ -16.3999595, 16.2135297 ], [ -16.4147869, 16.2194494 ], [ -16.429972, 16.273325 ], [ -16.398352, 16.345658 ], [ -16.436247, 16.402327 ], [ -16.399264, 16.454735 ], [ -16.364983, 16.457409 ], [ -16.370355, 16.405085 ], [ -16.345213, 16.396748 ], [ -16.315016, 16.449743 ], [ -16.335939, 16.484385 ], [ -16.376989, 16.513225 ], [ -16.421768, 16.502622 ], [ -16.446824, 16.443209 ], [ -16.464053, 16.373802 ], [ -16.451812, 16.323918 ], [ -16.48529, 16.271141 ], [ -16.503166, 16.219886 ], [ -16.50982, 16.165878 ], [ -16.5052187, 16.0572719 ], [ -16.5087056, 16.0572719 ], [ -16.511463, 16.136503 ], [ -16.50983, 16.202196 ], [ -16.519486, 16.279398 ], [ -16.466144, 16.439211 ], [ -16.450788, 16.509634 ], [ -16.434788, 16.63853 ], [ -16.350926, 16.851333 ], [ -16.158409, 17.296838 ], [ -16.109205, 17.430284 ], [ -16.060525, 17.618838 ], [ -16.045306, 17.727616 ], [ -16.035079, 17.911576 ], [ -16.0203071, 17.9765376 ], [ -15.888238, 17.977257 ], [ -15.889318, 18.141939 ], [ -16.0291485, 18.1412636 ], [ -16.039419, 18.283218 ], [ -16.050573, 18.344456 ], [ -16.05972, 18.472925 ], [ -16.09524, 18.583212 ], [ -16.1077725, 18.5993724 ], [ -16.03652, 19.000268 ], [ -15.220691, 19.000032 ], [ -14.26249, 19.001266 ] ] ] ] } }
]
}
