{
"type": "FeatureCollection",
"name": "MTQ_GAUL1996_ADM0",
"crs": { "type": "name", "properties": { "name": "urn:ogc:def:crs:OGC:1.3:CRS84" } },
"features": [
{ "type": "Feature", "properties": { "POLYGON_ID": "MTQ_GAUL1996_ADM0_158", "ADM0_ISO3": "MTQ", "ADM0_NAME": "Martinique", "ADM0_CODE": 158, "GEOSET": "GAUL", "GEOSET_YEAR": 1996.0, "GEOSET_VERSION": "GAUL_v1", "GEOSET_UNIT": "ADM0", "CENTROID_LONG": -61.017855387417889, "CENTROID_LAT": 14.651559768052779 }, "geometry": { "type": "MultiPolygon", "coordinates": [ [ [ [ -61.1441572, 14.8768751 ], [ -61.0984928, 14.86322 ], [ -61.0618258, 14.8369618 ], [ -61.0316979, 14.8310352 ], [ -61.0158432, 14.8074188 ], [ -60.9684853, 14.760702 ], [ -60.9628301, 14.7394924 ], [ -60.888082, 14.7800538 ], [ -60.8744898, 14.7675969 ], [ -60.9129871, 14.7449303 ], [ -60.9368507, 14.750181 ], [ -60.9443431, 14.7226769 ], [ -60.9122274, 14.6915403 ], [ -60.9105184, 14.6659019 ], [ -60.865523, 14.5886996 ], [ -60.8358201, 14.5565348 ], [ -60.8192453, 14.4699058 ], [ -60.8269365, 14.4352789 ], [ -60.8683906, 14.3948737 ], [ -60.8934208, 14.4195468 ], [ -60.8798592, 14.4385145 ], [ -60.9116512, 14.4607532 ], [ -60.9973713, 14.468475 ], [ -61.0180263, 14.4805762 ], [ -61.0625158, 14.4557342 ], [ -61.0790389, 14.4794589 ], [ -61.0941908, 14.5247976 ], [ -61.078199, 14.541159 ], [ -61.0430715, 14.5524592 ], [ -61.0122937, 14.5354093 ], [ -60.9940067, 14.5466743 ], [ -61.0140786, 14.570313 ], [ -61.0257694, 14.6117667 ], [ -61.0923128, 14.6012066 ], [ -61.1108398, 14.6255281 ], [ -61.1523557, 14.6497492 ], [ -61.1846871, 14.7089408 ], [ -61.1766481, 14.745309 ], [ -61.2268663, 14.8024969 ], [ -61.2258547, 14.832079 ], [ -61.2055422, 14.8618414 ], [ -61.1441572, 14.8768751 ] ] ] ] } }
]
}
