{
"type": "FeatureCollection",
"name": "MUS_GAUL1995_ADM2",
"crs": { "type": "name", "properties": { "name": "urn:ogc:def:crs:OGC:1.3:CRS84" } },
"features": [
{ "type": "Feature", "properties": { "POLYGON_ID": "MUS_GAUL1995_ADM2_19536", "ADM0_ISO3": "MUS", "ADM0_NAME": "Mauritius", "ADM0_CODE": 160, "ADM1_NAME": "Black River", "ADM1_CODE": 2018, "ADM2_NAME": "Administrative unit not available", "ADM2_CODE": 19536, "GEOSET": "GAUL", "GEOSET_YEAR": 1995.0, "GEOSET_VERSION": "GAUL_v1", "GEOSET_UNIT": "ADM2", "CENTROID_LONG": 57.406680341874626, "CENTROID_LAT": -20.324067818906023 }, "geometry": { "type": "MultiPolygon", "coordinates": [ [ [ [ 57.4599342, -20.1899509 ], [ 57.4399338, -20.3099728 ], [ 57.4500008, -20.4299927 ], [ 57.3999329, -20.4199867 ], [ 57.3737747, -20.4799652 ], [ 57.3366611, -20.4592756 ], [ 57.367882, -20.4146882 ], [ 57.3648726, -20.2807936 ], [ 57.4021252, -20.2008741 ], [ 57.45691, -20.166904 ], [ 57.4599342, -20.1899509 ] ] ] ] } },
{ "type": "Feature", "properties": { "POLYGON_ID": "MUS_GAUL1995_ADM2_19537", "ADM0_ISO3": "MUS", "ADM0_NAME": "Mauritius", "ADM0_CODE": 160, "ADM1_NAME": "Flacq", "ADM1_CODE": 2019, "ADM2_NAME": "Administrative unit not available", "ADM2_CODE": 19537, "GEOSET": "GAUL", "GEOSET_YEAR": 1995.0, "GEOSET_VERSION": "GAUL_v1", "GEOSET_UNIT": "ADM2", "CENTROID_LONG": 57.707850290341675, "CENTROID_LAT": -20.231144338803229 }, "geometry": { "type": "MultiPolygon", "coordinates": [ [ [ [ 57.7701601, -20.3198552 ], [ 57.6599998, -20.3399925 ], [ 57.6599998, -20.2799511 ], [ 57.6100006, -20.2499924 ], [ 57.6100006, -20.1899509 ], [ 57.6399994, -20.1599922 ], [ 57.7508398, -20.1148473 ], [ 57.7507446, -20.141728 ], [ 57.807395, -20.2319054 ], [ 57.7701601, -20.3198552 ] ] ] ] } },
{ "type": "Feature", "properties": { "POLYGON_ID": "MUS_GAUL1995_ADM2_19538", "ADM0_ISO3": "MUS", "ADM0_NAME": "Mauritius", "ADM0_CODE": 160, "ADM1_NAME": "Grand Port", "ADM1_CODE": 2020, "ADM2_NAME": "Administrative unit not available", "ADM2_CODE": 19538, "GEOSET": "GAUL", "GEOSET_YEAR": 1995.0, "GEOSET_VERSION": "GAUL_v1", "GEOSET_UNIT": "ADM2", "CENTROID_LONG": 57.643810705482423, "CENTROID_LAT": -20.401750563737103 }, "geometry": { "type": "MultiPolygon", "coordinates": [ [ [ [ 57.6148609, -20.4997641 ], [ 57.5599327, -20.4199867 ], [ 57.5099335, -20.4099789 ], [ 57.5900002, -20.3399925 ], [ 57.6599998, -20.3399925 ], [ 57.7701601, -20.3198552 ], [ 57.7767689, -20.3393084 ], [ 57.7036736, -20.381814 ], [ 57.7279623, -20.4266079 ], [ 57.6806356, -20.4750279 ], [ 57.6148609, -20.4997641 ] ] ] ] } },
{ "type": "Feature", "properties": { "POLYGON_ID": "MUS_GAUL1995_ADM2_19539", "ADM0_ISO3": "MUS", "ADM0_NAME": "Mauritius", "ADM0_CODE": 160, "ADM1_NAME": "Moka", "ADM1_CODE": 2021, "ADM2_NAME": "Administrative unit not available", "ADM2_CODE": 19539, "GEOSET": "GAUL", "GEOSET_YEAR": 1995.0, "GEOSET_VERSION": "GAUL_v1", "GEOSET_UNIT": "ADM2", "CENTROID_LONG": 57.568565533759489, "CENTROID_LAT": -20.263018191831595 }, "geometry": { "type": "MultiPolygon", "coordinates": [ [ [ [ 57.6599998, -20.3399925 ], [ 57.5900002, -20.3399925 ], [ 57.5499992, -20.3399925 ], [ 57.5200005, -20.2799511 ], [ 57.4799995, -20.2499924 ], [ 57.4699326, -20.1899509 ], [ 57.5499992, -20.1899509 ], [ 57.6100006, -20.1899509 ], [ 57.6100006, -20.2499924 ], [ 57.6599998, -20.2799511 ], [ 57.6599998, -20.3399925 ] ] ] ] } },
{ "type": "Feature", "properties": { "POLYGON_ID": "MUS_GAUL1995_ADM2_19540", "ADM0_ISO3": "MUS", "ADM0_NAME": "Mauritius", "ADM0_CODE": 160, "ADM1_NAME": "Pamplemousses", "ADM1_CODE": 2022, "ADM2_NAME": "Administrative unit not available", "ADM2_CODE": 19540, "GEOSET": "GAUL", "GEOSET_YEAR": 1995.0, "GEOSET_VERSION": "GAUL_v1", "GEOSET_UNIT": "ADM2", "CENTROID_LONG": 57.565069124474753, "CENTROID_LAT": -20.114984828933149 }, "geometry": { "type": "MultiPolygon", "coordinates": [ [ [ [ 57.6399994, -20.1599922 ], [ 57.6100006, -20.1899509 ], [ 57.5499992, -20.1899509 ], [ 57.5200005, -20.1399784 ], [ 57.4906253, -20.1499863 ], [ 57.5247738, -20.0474498 ], [ 57.5570792, -20.0147131 ], [ 57.5999336, -20.0599861 ], [ 57.5999336, -20.0899448 ], [ 57.6399994, -20.1599922 ] ] ] ] } },
{ "type": "Feature", "properties": { "POLYGON_ID": "MUS_GAUL1995_ADM2_19541", "ADM0_ISO3": "MUS", "ADM0_NAME": "Mauritius", "ADM0_CODE": 160, "ADM1_NAME": "Plaines Wilhems", "ADM1_CODE": 2023, "ADM2_NAME": "Administrative unit not available", "ADM2_CODE": 19541, "GEOSET": "GAUL", "GEOSET_YEAR": 1995.0, "GEOSET_VERSION": "GAUL_v1", "GEOSET_UNIT": "ADM2", "CENTROID_LONG": 57.490096354412699, "CENTROID_LAT": -20.331222498028694 }, "geometry": { "type": "MultiPolygon", "coordinates": [ [ [ [ 57.5900002, -20.3399925 ], [ 57.5099335, -20.4099789 ], [ 57.4500008, -20.4299927 ], [ 57.4399338, -20.3099728 ], [ 57.4599342, -20.1899509 ], [ 57.4699326, -20.1899509 ], [ 57.4799995, -20.2499924 ], [ 57.5200005, -20.2799511 ], [ 57.5499992, -20.3399925 ], [ 57.5900002, -20.3399925 ] ] ] ] } },
{ "type": "Feature", "properties": { "POLYGON_ID": "MUS_GAUL1995_ADM2_19542", "ADM0_ISO3": "MUS", "ADM0_NAME": "Mauritius", "ADM0_CODE": 160, "ADM1_NAME": "Port Louis", "ADM1_CODE": 2024, "ADM2_NAME": "Administrative unit not available", "ADM2_CODE": 19542, "GEOSET": "GAUL", "GEOSET_YEAR": 1995.0, "GEOSET_VERSION": "GAUL_v1", "GEOSET_UNIT": "ADM2", "CENTROID_LONG": 57.50175244521526, "CENTROID_LAT": -20.170848686642259 }, "geometry": { "type": "MultiPolygon", "coordinates": [ [ [ [ 57.5499992, -20.1899509 ], [ 57.4699326, -20.1899509 ], [ 57.4599342, -20.1899509 ], [ 57.45691, -20.166904 ], [ 57.4906253, -20.1499863 ], [ 57.5200005, -20.1399784 ], [ 57.5499992, -20.1899509 ] ] ] ] } },
{ "type": "Feature", "properties": { "POLYGON_ID": "MUS_GAUL1995_ADM2_19543", "ADM0_ISO3": "MUS", "ADM0_NAME": "Mauritius", "ADM0_CODE": 160, "ADM1_NAME": "Riviere Du Rempart", "ADM1_CODE": 2025, "ADM2_NAME": "Administrative unit not available", "ADM2_CODE": 19543, "GEOSET": "GAUL", "GEOSET_YEAR": 1995.0, "GEOSET_VERSION": "GAUL_v1", "GEOSET_UNIT": "ADM2", "CENTROID_LONG": 57.645932944110797, "CENTROID_LAT": -20.067087482857112 }, "geometry": { "type": "MultiPolygon", "coordinates": [ [ [ [ 57.7508398, -20.1148473 ], [ 57.6399994, -20.1599922 ], [ 57.5999336, -20.0899448 ], [ 57.5999336, -20.0599861 ], [ 57.5570792, -20.0147131 ], [ 57.5519202, -20.0052296 ], [ 57.5517095, -20.0048423 ], [ 57.6091488, -19.9824687 ], [ 57.6836499, -20.0096095 ], [ 57.7092945, -20.0988659 ], [ 57.7508398, -20.1148473 ] ] ] ] } },
{ "type": "Feature", "properties": { "POLYGON_ID": "MUS_GAUL1995_ADM2_19535", "ADM0_ISO3": "MUS", "ADM0_NAME": "Mauritius", "ADM0_CODE": 160, "ADM1_NAME": "Administrative unit not available", "ADM1_CODE": 2017, "ADM2_NAME": "Administrative unit not available", "ADM2_CODE": 19535, "GEOSET": "GAUL", "GEOSET_YEAR": 1995.0, "GEOSET_VERSION": "GAUL_v1", "GEOSET_UNIT": "ADM2", "CENTROID_LONG": 63.425141800911184, "CENTROID_LAT": -19.721308606420028 }, "geometry": { "type": "MultiPolygon", "coordinates": [ [ [ [ 63.4570229, -19.6676376 ], [ 63.5021555, -19.7165401 ], [ 63.4692541, -19.7410876 ], [ 63.4046913, -19.7447889 ], [ 63.3773004, -19.7704995 ], [ 63.3345786, -19.7486518 ], [ 63.4570229, -19.6676376 ] ] ] ] } },
{ "type": "Feature", "properties": { "POLYGON_ID": "MUS_GAUL1995_ADM2_19544", "ADM0_ISO3": "MUS", "ADM0_NAME": "Mauritius", "ADM0_CODE": 160, "ADM1_NAME": "Savanne", "ADM1_CODE": 2026, "ADM2_NAME": "Administrative unit not available", "ADM2_CODE": 19544, "GEOSET": "GAUL", "GEOSET_YEAR": 1995.0, "GEOSET_VERSION": "GAUL_v1", "GEOSET_UNIT": "ADM2", "CENTROID_LONG": 57.492884017207501, "CENTROID_LAT": -20.468192737935809 }, "geometry": { "type": "MultiPolygon", "coordinates": [ [ [ [ 57.5099335, -20.4099789 ], [ 57.5599327, -20.4199867 ], [ 57.6148609, -20.4997641 ], [ 57.5272984, -20.525214 ], [ 57.4483483, -20.5016895 ], [ 57.4165695, -20.5120801 ], [ 57.3737747, -20.4799652 ], [ 57.3999329, -20.4199867 ], [ 57.4500008, -20.4299927 ], [ 57.5099335, -20.4099789 ] ] ] ] } }
]
}
