{
"type": "FeatureCollection",
"name": "MUS_GAUL2010_ADM1",
"crs": { "type": "name", "properties": { "name": "urn:ogc:def:crs:OGC:1.3:CRS84" } },
"features": [
{ "type": "Feature", "properties": { "POLYGON_ID": "MUS_GAUL2010_ADM1_2017", "ADM0_ISO3": "MUS", "ADM0_NAME": "Mauritius", "ADM0_CODE": 160, "ADM1_NAME": "Administrative unit not available", "ADM1_CODE": 2017, "GEOSET": "GAUL", "GEOSET_YEAR": 2010.0, "GEOSET_VERSION": "GAUL_v1", "GEOSET_UNIT": "ADM1", "CENTROID_LONG": 63.421571181071712, "CENTROID_LAT": -19.718822226656712 }, "geometry": { "type": "MultiPolygon", "coordinates": [ [ [ [ 63.4570229, -19.6676376 ], [ 63.4915087, -19.6796993 ], [ 63.5021555, -19.7165401 ], [ 63.4692541, -19.7410876 ], [ 63.4046913, -19.7447889 ], [ 63.3773004, -19.7704995 ], [ 63.3345786, -19.7486518 ], [ 63.3351009, -19.7200295 ], [ 63.3783676, -19.7111088 ], [ 63.4570229, -19.6676376 ] ] ] ] } },
{ "type": "Feature", "properties": { "POLYGON_ID": "MUS_GAUL2010_ADM1_2018", "ADM0_ISO3": "MUS", "ADM0_NAME": "Mauritius", "ADM0_CODE": 160, "ADM1_NAME": "Black River", "ADM1_CODE": 2018, "GEOSET": "GAUL", "GEOSET_YEAR": 2010.0, "GEOSET_VERSION": "GAUL_v1", "GEOSET_UNIT": "ADM1", "CENTROID_LONG": 57.405899697306104, "CENTROID_LAT": -20.327219177023895 }, "geometry": { "type": "MultiPolygon", "coordinates": [ [ [ [ 57.4599342, -20.1899509 ], [ 57.4399338, -20.3099728 ], [ 57.4599342, -20.3500004 ], [ 57.4399338, -20.3699512 ], [ 57.4500008, -20.4299927 ], [ 57.3999329, -20.4199867 ], [ 57.3999329, -20.4500084 ], [ 57.3737747, -20.4799652 ], [ 57.3366611, -20.4592756 ], [ 57.367882, -20.4146882 ], [ 57.3590292, -20.3792199 ], [ 57.3648726, -20.2807936 ], [ 57.4021252, -20.2008741 ], [ 57.45691, -20.166904 ], [ 57.4599342, -20.1899509 ] ] ] ] } },
{ "type": "Feature", "properties": { "POLYGON_ID": "MUS_GAUL2010_ADM1_2019", "ADM0_ISO3": "MUS", "ADM0_NAME": "Mauritius", "ADM0_CODE": 160, "ADM1_NAME": "Flacq", "ADM1_CODE": 2019, "GEOSET": "GAUL", "GEOSET_YEAR": 2010.0, "GEOSET_VERSION": "GAUL_v1", "GEOSET_UNIT": "ADM1", "CENTROID_LONG": 57.710732103614589, "CENTROID_LAT": -20.233305552733459 }, "geometry": { "type": "MultiPolygon", "coordinates": [ [ [ [ 57.7701601, -20.3198552 ], [ 57.7099342, -20.3399925 ], [ 57.6599998, -20.3399925 ], [ 57.6599998, -20.2799511 ], [ 57.6100006, -20.2499924 ], [ 57.6399994, -20.2199726 ], [ 57.6100006, -20.1899509 ], [ 57.6399994, -20.1599922 ], [ 57.7508398, -20.1148473 ], [ 57.7507446, -20.141728 ], [ 57.807395, -20.2319054 ], [ 57.7701601, -20.3198552 ] ] ] ] } },
{ "type": "Feature", "properties": { "POLYGON_ID": "MUS_GAUL2010_ADM1_2020", "ADM0_ISO3": "MUS", "ADM0_NAME": "Mauritius", "ADM0_CODE": 160, "ADM1_NAME": "Grand Port", "ADM1_CODE": 2020, "GEOSET": "GAUL", "GEOSET_YEAR": 2010.0, "GEOSET_VERSION": "GAUL_v1", "GEOSET_UNIT": "ADM1", "CENTROID_LONG": 57.642296332032373, "CENTROID_LAT": -20.40324134659717 }, "geometry": { "type": "MultiPolygon", "coordinates": [ [ [ [ 57.6148609, -20.4997641 ], [ 57.5599327, -20.4199867 ], [ 57.5099335, -20.4099789 ], [ 57.5900002, -20.3399925 ], [ 57.6599998, -20.3399925 ], [ 57.7099342, -20.3399925 ], [ 57.7701601, -20.3198552 ], [ 57.7767689, -20.3393084 ], [ 57.7036736, -20.381814 ], [ 57.7279623, -20.4266079 ], [ 57.6806356, -20.4750279 ], [ 57.6148609, -20.4997641 ] ] ] ] } },
{ "type": "Feature", "properties": { "POLYGON_ID": "MUS_GAUL2010_ADM1_2021", "ADM0_ISO3": "MUS", "ADM0_NAME": "Mauritius", "ADM0_CODE": 160, "ADM1_NAME": "Moka", "ADM1_CODE": 2021, "GEOSET": "GAUL", "GEOSET_YEAR": 2010.0, "GEOSET_VERSION": "GAUL_v1", "GEOSET_UNIT": "ADM1", "CENTROID_LONG": 57.572094305098936, "CENTROID_LAT": -20.262480962692123 }, "geometry": { "type": "MultiPolygon", "coordinates": [ [ [ [ 57.6599998, -20.3399925 ], [ 57.5900002, -20.3399925 ], [ 57.5499992, -20.3399925 ], [ 57.5200005, -20.2799511 ], [ 57.4799995, -20.2499924 ], [ 57.4699326, -20.1899509 ], [ 57.5, -20.1999588 ], [ 57.5499992, -20.1899509 ], [ 57.6100006, -20.1899509 ], [ 57.6399994, -20.2199726 ], [ 57.6100006, -20.2499924 ], [ 57.6599998, -20.2799511 ], [ 57.6599998, -20.3399925 ] ] ] ] } },
{ "type": "Feature", "properties": { "POLYGON_ID": "MUS_GAUL2010_ADM1_2022", "ADM0_ISO3": "MUS", "ADM0_NAME": "Mauritius", "ADM0_CODE": 160, "ADM1_NAME": "Pamplemousses", "ADM1_CODE": 2022, "GEOSET": "GAUL", "GEOSET_YEAR": 2010.0, "GEOSET_VERSION": "GAUL_v1", "GEOSET_UNIT": "ADM1", "CENTROID_LONG": 57.565069124474753, "CENTROID_LAT": -20.114984828933149 }, "geometry": { "type": "MultiPolygon", "coordinates": [ [ [ [ 57.6399994, -20.1599922 ], [ 57.6100006, -20.1899509 ], [ 57.5499992, -20.1899509 ], [ 57.5200005, -20.1399784 ], [ 57.4906253, -20.1499863 ], [ 57.5247738, -20.0474498 ], [ 57.5570792, -20.0147131 ], [ 57.5999336, -20.0599861 ], [ 57.5999336, -20.0899448 ], [ 57.6399994, -20.1599922 ] ] ] ] } },
{ "type": "Feature", "properties": { "POLYGON_ID": "MUS_GAUL2010_ADM1_2023", "ADM0_ISO3": "MUS", "ADM0_NAME": "Mauritius", "ADM0_CODE": 160, "ADM1_NAME": "Plaines Wilhems", "ADM1_CODE": 2023, "GEOSET": "GAUL", "GEOSET_YEAR": 2010.0, "GEOSET_VERSION": "GAUL_v1", "GEOSET_UNIT": "ADM1", "CENTROID_LONG": 57.491086713833205, "CENTROID_LAT": -20.328863118040449 }, "geometry": { "type": "MultiPolygon", "coordinates": [ [ [ [ 57.5900002, -20.3399925 ], [ 57.5099335, -20.4099789 ], [ 57.489933, -20.3999729 ], [ 57.4500008, -20.4299927 ], [ 57.4399338, -20.3699512 ], [ 57.4599342, -20.3500004 ], [ 57.4399338, -20.3099728 ], [ 57.4599342, -20.1899509 ], [ 57.4699326, -20.1899509 ], [ 57.4799995, -20.2499924 ], [ 57.5200005, -20.2799511 ], [ 57.5499992, -20.3399925 ], [ 57.5900002, -20.3399925 ] ] ] ] } },
{ "type": "Feature", "properties": { "POLYGON_ID": "MUS_GAUL2010_ADM1_2024", "ADM0_ISO3": "MUS", "ADM0_NAME": "Mauritius", "ADM0_CODE": 160, "ADM1_NAME": "Port Louis", "ADM1_CODE": 2024, "GEOSET": "GAUL", "GEOSET_YEAR": 2010.0, "GEOSET_VERSION": "GAUL_v1", "GEOSET_UNIT": "ADM1", "CENTROID_LONG": 57.502312613323923, "CENTROID_LAT": -20.173418283575266 }, "geometry": { "type": "MultiPolygon", "coordinates": [ [ [ [ 57.5499992, -20.1899509 ], [ 57.5, -20.1999588 ], [ 57.4699326, -20.1899509 ], [ 57.4599342, -20.1899509 ], [ 57.45691, -20.166904 ], [ 57.4906253, -20.1499863 ], [ 57.5200005, -20.1399784 ], [ 57.5499992, -20.1899509 ] ] ] ] } },
{ "type": "Feature", "properties": { "POLYGON_ID": "MUS_GAUL2010_ADM1_2025", "ADM0_ISO3": "MUS", "ADM0_NAME": "Mauritius", "ADM0_CODE": 160, "ADM1_NAME": "Riviere Du Rempart", "ADM1_CODE": 2025, "GEOSET": "GAUL", "GEOSET_YEAR": 2010.0, "GEOSET_VERSION": "GAUL_v1", "GEOSET_UNIT": "ADM1", "CENTROID_LONG": 57.644414181796684, "CENTROID_LAT": -20.06753788149766 }, "geometry": { "type": "MultiPolygon", "coordinates": [ [ [ [ 57.7508398, -20.1148473 ], [ 57.6399994, -20.1599922 ], [ 57.5999336, -20.0899448 ], [ 57.5999336, -20.0599861 ], [ 57.5570792, -20.0147131 ], [ 57.5519202, -20.0052296 ], [ 57.5517095, -20.0048423 ], [ 57.6091488, -19.9824687 ], [ 57.6836499, -20.0096095 ], [ 57.683813, -20.051578 ], [ 57.7092945, -20.0988659 ], [ 57.7508398, -20.1148473 ] ] ] ] } },
{ "type": "Feature", "properties": { "POLYGON_ID": "MUS_GAUL2010_ADM1_2026", "ADM0_ISO3": "MUS", "ADM0_NAME": "Mauritius", "ADM0_CODE": 160, "ADM1_NAME": "Savanne", "ADM1_CODE": 2026, "GEOSET": "GAUL", "GEOSET_YEAR": 2010.0, "GEOSET_VERSION": "GAUL_v1", "GEOSET_UNIT": "ADM1", "CENTROID_LONG": 57.494769796457589, "CENTROID_LAT": -20.467103420067204 }, "geometry": { "type": "MultiPolygon", "coordinates": [ [ [ [ 57.5099335, -20.4099789 ], [ 57.5599327, -20.4199867 ], [ 57.6148609, -20.4997641 ], [ 57.5272984, -20.525214 ], [ 57.4483483, -20.5016895 ], [ 57.4165695, -20.5120801 ], [ 57.3737747, -20.4799652 ], [ 57.3999329, -20.4500084 ], [ 57.3999329, -20.4199867 ], [ 57.4500008, -20.4299927 ], [ 57.489933, -20.3999729 ], [ 57.5099335, -20.4099789 ] ] ] ] } }
]
}
