{
"type": "FeatureCollection",
"name": "MWI_GAUL2009_ADM2",
"crs": { "type": "name", "properties": { "name": "urn:ogc:def:crs:OGC:1.3:CRS84" } },
"features": [
{ "type": "Feature", "properties": { "POLYGON_ID": "MWI_GAUL2009_ADM2_19307", "ADM0_ISO3": "MWI", "ADM0_NAME": "Malawi", "ADM0_CODE": 152, "ADM1_NAME": "Central Region", "ADM1_CODE": 1888, "ADM2_NAME": "Dedza", "ADM2_CODE": 19307, "GEOSET": "GAUL", "GEOSET_YEAR": 2009.0, "GEOSET_VERSION": "GAUL_v1", "GEOSET_UNIT": "ADM2", "CENTROID_LONG": 34.227695708624466, "CENTROID_LAT": -14.266904865242816 }, "geometry": { "type": "MultiPolygon", "coordinates": [ [ [ [ 34.5509682, -14.105114 ], [ 34.594799, -14.151906 ], [ 34.6139297, -14.201766 ], [ 34.6937485, -14.2346497 ], [ 34.6900826, -14.2880516 ], [ 34.738884, -14.2771511 ], [ 34.7259483, -14.3225756 ], [ 34.5854874, -14.4293976 ], [ 34.4733467, -14.4324026 ], [ 34.4002948, -14.4127169 ], [ 34.3945201, -14.404703 ], [ 34.3935073, -14.3949797 ], [ 34.356971, -14.3857909 ], [ 34.3497512, -14.3919897 ], [ 34.3481548, -14.3945838 ], [ 34.2828873, -14.4107124 ], [ 34.2795225, -14.4124822 ], [ 34.234, -14.4240081 ], [ 34.227161, -14.4280156 ], [ 34.1841356, -14.4365409 ], [ 34.1124444, -14.4497279 ], [ 34.0866111, -14.4885852 ], [ 33.9396944, -14.4785584 ], [ 33.9242021, -14.4757575 ], [ 33.9184903, -14.4771855 ], [ 33.90314, -14.4846821 ], [ 33.8924305, -14.4911078 ], [ 33.8842199, -14.5071721 ], [ 33.8827919, -14.5132408 ], [ 33.8745813, -14.5171677 ], [ 33.8695835, -14.5157397 ], [ 33.8607194, -14.5073252 ], [ 33.8584216, -14.5077082 ], [ 33.8321002, -14.5357308 ], [ 33.8174639, -14.5482253 ], [ 33.8103242, -14.5492962 ], [ 33.7999716, -14.5485823 ], [ 33.7967588, -14.5428705 ], [ 33.7817655, -14.532161 ], [ 33.7739118, -14.5307331 ], [ 33.7621313, -14.5214515 ], [ 33.7439252, -14.5114559 ], [ 33.7347418, -14.4992576 ], [ 33.725719, -14.4978905 ], [ 33.7142955, -14.5003894 ], [ 33.7087159, -14.5065272 ], [ 33.7117966, -14.5164537 ], [ 33.7110826, -14.5268062 ], [ 33.702515, -14.5385867 ], [ 33.7103687, -14.5596488 ], [ 33.7142955, -14.5650035 ], [ 33.7160804, -14.5792829 ], [ 33.702158, -14.5842807 ], [ 33.6918055, -14.5917773 ], [ 33.6882356, -14.6074846 ], [ 33.680739, -14.6142673 ], [ 33.6618188, -14.6024868 ], [ 33.6506201, -14.5957987 ], [ 33.6672707, -14.5258741 ], [ 33.6884842, -14.5115356 ], [ 33.697113, -14.4162731 ], [ 33.750145, -14.3869143 ], [ 33.8385582, -14.3118792 ], [ 33.8568649, -14.3232698 ], [ 33.9480133, -14.2901936 ], [ 33.9522057, -14.2070951 ], [ 34.0287933, -14.195467 ], [ 34.0984726, -14.0886164 ], [ 34.1654243, -14.0257931 ], [ 34.2070732, -13.9361372 ], [ 34.2613487, -13.8976459 ], [ 34.2796555, -13.8601494 ], [ 34.3846169, -13.9918938 ], [ 34.3921547, -14.0128784 ], [ 34.4884834, -14.1147203 ], [ 34.5509682, -14.105114 ] ] ] ] } },
{ "type": "Feature", "properties": { "POLYGON_ID": "MWI_GAUL2009_ADM2_19308", "ADM0_ISO3": "MWI", "ADM0_NAME": "Malawi", "ADM0_CODE": 152, "ADM1_NAME": "Central Region", "ADM1_CODE": 1888, "ADM2_NAME": "Dowa", "ADM2_CODE": 19308, "GEOSET": "GAUL", "GEOSET_YEAR": 2009.0, "GEOSET_VERSION": "GAUL_v1", "GEOSET_UNIT": "ADM2", "CENTROID_LONG": 33.787633090123755, "CENTROID_LAT": -13.570929083395843 }, "geometry": { "type": "MultiPolygon", "coordinates": [ [ [ [ 34.1142845, -13.5114603 ], [ 34.1139603, -13.632863 ], [ 34.1870041, -13.7023592 ], [ 34.2642212, -13.6851511 ], [ 34.2996292, -13.7811174 ], [ 34.2346878, -13.7990732 ], [ 34.1758614, -13.7962332 ], [ 34.1248779, -13.8321943 ], [ 34.0383759, -13.8452072 ], [ 34.0101776, -13.8003702 ], [ 33.9441185, -13.7727566 ], [ 33.8755188, -13.7645473 ], [ 33.834137, -13.78018 ], [ 33.7589149, -13.7574558 ], [ 33.7497139, -13.7053823 ], [ 33.6995697, -13.6880865 ], [ 33.5101204, -13.723156 ], [ 33.4618912, -13.6592188 ], [ 33.4363785, -13.5714235 ], [ 33.4437027, -13.5018711 ], [ 33.4064064, -13.4853134 ], [ 33.4562416, -13.3977833 ], [ 33.4596062, -13.3075552 ], [ 33.5087318, -13.3386059 ], [ 33.5449944, -13.2864704 ], [ 33.5809479, -13.2839851 ], [ 33.6048012, -13.2287683 ], [ 33.6359291, -13.2316771 ], [ 33.7016754, -13.1967449 ], [ 33.7192268, -13.3206978 ], [ 33.7827492, -13.4098406 ], [ 33.8331985, -13.5106363 ], [ 33.9278145, -13.4785662 ], [ 33.9560394, -13.5161924 ], [ 34.0259705, -13.493103 ], [ 34.0847168, -13.5314188 ], [ 34.1142845, -13.5114603 ] ] ] ] } },
{ "type": "Feature", "properties": { "POLYGON_ID": "MWI_GAUL2009_ADM2_19309", "ADM0_ISO3": "MWI", "ADM0_NAME": "Malawi", "ADM0_CODE": 152, "ADM1_NAME": "Central Region", "ADM1_CODE": 1888, "ADM2_NAME": "Kasungu", "ADM2_CODE": 19309, "GEOSET": "GAUL", "GEOSET_YEAR": 2009.0, "GEOSET_VERSION": "GAUL_v1", "GEOSET_UNIT": "ADM2", "CENTROID_LONG": 33.385904377822847, "CENTROID_LAT": -12.984970167070719 }, "geometry": { "type": "MultiPolygon", "coordinates": [ [ [ [ 33.835434, -12.7100754 ], [ 33.8149567, -12.8097916 ], [ 33.8313637, -12.8260889 ], [ 33.9517975, -12.8601418 ], [ 34.0000877, -12.9410896 ], [ 33.9370842, -12.9727278 ], [ 33.9186211, -13.0173635 ], [ 33.7891006, -13.0957012 ], [ 33.7589493, -13.1511335 ], [ 33.7016754, -13.1967449 ], [ 33.6359291, -13.2316771 ], [ 33.6048012, -13.2287683 ], [ 33.5809479, -13.2839851 ], [ 33.5449944, -13.2864704 ], [ 33.5087318, -13.3386059 ], [ 33.4596062, -13.3075552 ], [ 33.4562416, -13.3977833 ], [ 33.4064064, -13.4853134 ], [ 33.3783684, -13.4925375 ], [ 33.3782616, -13.5818996 ], [ 33.3230248, -13.6161509 ], [ 33.1770744, -13.4988556 ], [ 33.1479607, -13.4087772 ], [ 33.1473885, -13.3468685 ], [ 32.9228966, -13.3582554 ], [ 32.9395186, -13.2923688 ], [ 32.98195, -13.2284502 ], [ 33.0166, -13.21101 ], [ 32.97456, -13.12377 ], [ 32.98794, -13.03442 ], [ 33.01224, -12.98839 ], [ 33.02598, -12.91077 ], [ 32.95733, -12.84262 ], [ 32.96037, -12.75618 ], [ 33.00626, -12.70226 ], [ 33.01505, -12.65771 ], [ 33.05617, -12.61157 ], [ 33.15258, -12.5955 ], [ 33.19885, -12.61147 ], [ 33.23224, -12.59284 ], [ 33.27081, -12.53699 ], [ 33.31515, -12.52579 ], [ 33.36065, -12.55323 ], [ 33.41428, -12.51631 ], [ 33.47152, -12.4249 ], [ 33.5344824, -12.3785349 ], [ 33.5810471, -12.3838377 ], [ 33.5853539, -12.4458838 ], [ 33.5320091, -12.4640903 ], [ 33.5797462, -12.5653324 ], [ 33.5526199, -12.5946445 ], [ 33.5694809, -12.6819496 ], [ 33.600071, -12.6628284 ], [ 33.6546288, -12.7380476 ], [ 33.7666969, -12.6832809 ], [ 33.7891426, -12.7173519 ], [ 33.835434, -12.7100754 ] ] ] ] } },
{ "type": "Feature", "properties": { "POLYGON_ID": "MWI_GAUL2009_ADM2_19310", "ADM0_ISO3": "MWI", "ADM0_NAME": "Malawi", "ADM0_CODE": 152, "ADM1_NAME": "Central Region", "ADM1_CODE": 1888, "ADM2_NAME": "Lilongwe", "ADM2_CODE": 19310, "GEOSET": "GAUL", "GEOSET_YEAR": 2009.0, "GEOSET_VERSION": "GAUL_v1", "GEOSET_UNIT": "ADM2", "CENTROID_LONG": 33.682897097780405, "CENTROID_LAT": -14.016872709755132 }, "geometry": { "type": "MultiPolygon", "coordinates": [ [ [ [ 34.2346878, -13.7990732 ], [ 34.2407761, -13.8177938 ], [ 34.1863556, -13.8778334 ], [ 34.2796555, -13.8601494 ], [ 34.2613487, -13.8976459 ], [ 34.2070732, -13.9361372 ], [ 34.1654243, -14.0257931 ], [ 34.0984726, -14.0886164 ], [ 34.0287933, -14.195467 ], [ 33.9522057, -14.2070951 ], [ 33.9480133, -14.2901936 ], [ 33.8568649, -14.3232698 ], [ 33.8385582, -14.3118792 ], [ 33.750145, -14.3869143 ], [ 33.697113, -14.4162731 ], [ 33.6884842, -14.5115356 ], [ 33.6672707, -14.5258741 ], [ 33.6506201, -14.5957987 ], [ 33.636116, -14.5871365 ], [ 33.6307612, -14.5717862 ], [ 33.6243355, -14.5600057 ], [ 33.6218366, -14.5492962 ], [ 33.6282623, -14.5400146 ], [ 33.6289763, -14.5353738 ], [ 33.6211227, -14.5253783 ], [ 33.6111271, -14.5078861 ], [ 33.6066749, -14.495086 ], [ 33.6054154, -14.4914648 ], [ 33.5994468, -14.4881608 ], [ 33.5757857, -14.4811123 ], [ 33.5654331, -14.4778994 ], [ 33.560878, -14.4711524 ], [ 33.5558517, -14.4535603 ], [ 33.5446567, -14.4327695 ], [ 33.5378687, -14.4283471 ], [ 33.5291366, -14.4228744 ], [ 33.5039891, -14.4188328 ], [ 33.4942161, -14.4096707 ], [ 33.4930225, -14.4085517 ], [ 33.4818777, -14.4040662 ], [ 33.4736026, -14.4019261 ], [ 33.4666568, -14.3824235 ], [ 33.4660631, -14.3815923 ], [ 33.4617222, -14.3793076 ], [ 33.4482278, -14.3606096 ], [ 33.4505271, -14.3486926 ], [ 33.4443585, -14.3272165 ], [ 33.4411599, -14.3215047 ], [ 33.4322496, -14.3169353 ], [ 33.4183129, -14.2854065 ], [ 33.4071179, -14.2783239 ], [ 33.4057471, -14.2710129 ], [ 33.3961513, -14.251136 ], [ 33.3680496, -14.2090976 ], [ 33.3641656, -14.2109254 ], [ 33.3639909, -14.212279 ], [ 33.342286, -14.2145187 ], [ 33.3538208, -14.171917 ], [ 33.3310013, -14.1267729 ], [ 33.3542748, -14.0864553 ], [ 33.3316803, -14.0264902 ], [ 33.3397141, -13.9738874 ], [ 33.2672157, -13.8784142 ], [ 33.2450447, -13.8249855 ], [ 33.2663803, -13.7213325 ], [ 33.3230248, -13.6161509 ], [ 33.3782616, -13.5818996 ], [ 33.3783684, -13.4925375 ], [ 33.4064064, -13.4853134 ], [ 33.4437027, -13.5018711 ], [ 33.4363785, -13.5714235 ], [ 33.4618912, -13.6592188 ], [ 33.5101204, -13.723156 ], [ 33.6995697, -13.6880865 ], [ 33.7497139, -13.7053823 ], [ 33.7589149, -13.7574558 ], [ 33.834137, -13.78018 ], [ 33.8755188, -13.7645473 ], [ 33.9441185, -13.7727566 ], [ 34.0101776, -13.8003702 ], [ 34.0383759, -13.8452072 ], [ 34.1248779, -13.8321943 ], [ 34.1758614, -13.7962332 ], [ 34.2346878, -13.7990732 ] ] ] ] } },
{ "type": "Feature", "properties": { "POLYGON_ID": "MWI_GAUL2009_ADM2_19311", "ADM0_ISO3": "MWI", "ADM0_NAME": "Malawi", "ADM0_CODE": 152, "ADM1_NAME": "Central Region", "ADM1_CODE": 1888, "ADM2_NAME": "Mchinji", "ADM2_CODE": 19311, "GEOSET": "GAUL", "GEOSET_YEAR": 2009.0, "GEOSET_VERSION": "GAUL_v1", "GEOSET_UNIT": "ADM2", "CENTROID_LONG": 33.05537679949834, "CENTROID_LAT": -13.691732359198813 }, "geometry": { "type": "MultiPolygon", "coordinates": [ [ [ [ 33.3230248, -13.6161509 ], [ 33.2663803, -13.7213325 ], [ 33.2450447, -13.8249855 ], [ 33.2672157, -13.8784142 ], [ 33.3397141, -13.9738874 ], [ 33.3316803, -14.0264902 ], [ 33.3542748, -14.0864553 ], [ 33.3310013, -14.1267729 ], [ 33.3538208, -14.171917 ], [ 33.342286, -14.2145187 ], [ 33.3175153, -14.1646123 ], [ 33.3011689, -14.145814 ], [ 33.2984514, -14.1426888 ], [ 33.3175153, -14.0864503 ], [ 33.3146557, -14.0654801 ], [ 33.3022642, -14.0426034 ], [ 33.291779, -14.0311651 ], [ 33.2461771, -14.0034283 ], [ 33.2422222, -13.9985213 ], [ 33.19676, -13.99213 ], [ 33.15173, -13.93481 ], [ 33.0693799, -13.9900509 ], [ 33.04113, -14.04937 ], [ 32.99171, -14.01428 ], [ 33.00363, -13.96611 ], [ 32.94296, -13.92794 ], [ 32.93657, -13.87342 ], [ 32.8888171, -13.8134979 ], [ 32.8333688, -13.7821359 ], [ 32.7816098, -13.7482409 ], [ 32.84264, -13.70853 ], [ 32.78654, -13.64024 ], [ 32.72727, -13.64019 ], [ 32.67997, -13.61793 ], [ 32.6929184, -13.5647116 ], [ 32.74757, -13.57898 ], [ 32.8445173, -13.5145115 ], [ 32.84307, -13.463 ], [ 32.88854, -13.44935 ], [ 32.9228966, -13.3582554 ], [ 33.1473885, -13.3468685 ], [ 33.1479607, -13.4087772 ], [ 33.1770744, -13.4988556 ], [ 33.3230248, -13.6161509 ] ] ] ] } },
{ "type": "Feature", "properties": { "POLYGON_ID": "MWI_GAUL2009_ADM2_19312", "ADM0_ISO3": "MWI", "ADM0_NAME": "Malawi", "ADM0_CODE": 152, "ADM1_NAME": "Central Region", "ADM1_CODE": 1888, "ADM2_NAME": "Nkhotakota", "ADM2_CODE": 19312, "GEOSET": "GAUL", "GEOSET_YEAR": 2009.0, "GEOSET_VERSION": "GAUL_v1", "GEOSET_UNIT": "ADM2", "CENTROID_LONG": 34.088634461221169, "CENTROID_LAT": -12.842152128730698 }, "geometry": { "type": "MultiPolygon", "coordinates": [ [ [ [ 34.021801, -12.2352056 ], [ 34.0153122, -12.2588224 ], [ 34.0725174, -12.3679552 ], [ 34.1141777, -12.4002504 ], [ 34.1622925, -12.4022274 ], [ 34.1987534, -12.5270205 ], [ 34.173172, -12.5714302 ], [ 34.1751213, -12.6260719 ], [ 34.2047729, -12.697588 ], [ 34.2720642, -12.7633772 ], [ 34.2557716, -12.8214664 ], [ 34.2969818, -12.875371 ], [ 34.3030701, -12.9455204 ], [ 34.333725, -13.0246029 ], [ 34.3251076, -13.0836678 ], [ 34.3465805, -13.2679138 ], [ 34.2990112, -13.3356352 ], [ 34.3273582, -13.4167042 ], [ 34.178627, -13.4895935 ], [ 34.1286812, -13.5018034 ], [ 34.0967445, -13.301075 ], [ 34.1097488, -13.2600317 ], [ 34.0879745, -13.1630344 ], [ 34.0550194, -13.1291742 ], [ 33.9579964, -13.1276455 ], [ 33.9171753, -13.1069698 ], [ 33.9186211, -13.0173635 ], [ 33.9370842, -12.9727278 ], [ 34.0000877, -12.9410896 ], [ 33.9517975, -12.8601418 ], [ 33.8313637, -12.8260889 ], [ 33.8149567, -12.8097916 ], [ 33.835434, -12.7100754 ], [ 33.8780708, -12.6485291 ], [ 33.9240265, -12.6156836 ], [ 33.9670753, -12.6194649 ], [ 33.9992561, -12.5820913 ], [ 34.0592918, -12.5716429 ], [ 34.0751305, -12.4920797 ], [ 34.0192642, -12.5140886 ], [ 33.9492683, -12.4707136 ], [ 33.8920631, -12.457037 ], [ 33.8650894, -12.3223305 ], [ 33.7909889, -12.3156281 ], [ 33.7528114, -12.2931375 ], [ 33.7531776, -12.2311716 ], [ 33.8242188, -12.1674128 ], [ 33.8778343, -12.1929388 ], [ 34.021801, -12.2352056 ] ] ] ] } },
{ "type": "Feature", "properties": { "POLYGON_ID": "MWI_GAUL2009_ADM2_19313", "ADM0_ISO3": "MWI", "ADM0_NAME": "Malawi", "ADM0_CODE": 152, "ADM1_NAME": "Central Region", "ADM1_CODE": 1888, "ADM2_NAME": "Ntcheu", "ADM2_CODE": 19313, "GEOSET": "GAUL", "GEOSET_YEAR": 2009.0, "GEOSET_VERSION": "GAUL_v1", "GEOSET_UNIT": "ADM2", "CENTROID_LONG": 34.71530294264916, "CENTROID_LAT": -14.813834734754954 }, "geometry": { "type": "MultiPolygon", "coordinates": [ [ [ [ 34.9734192, -14.7746201 ], [ 34.9587135, -14.8479042 ], [ 34.8927155, -14.9566526 ], [ 34.9081535, -14.9904194 ], [ 34.8422928, -15.2354527 ], [ 34.81213, -15.3274813 ], [ 34.773201, -15.247076 ], [ 34.583248, -15.2089235 ], [ 34.5773376, -15.1688048 ], [ 34.5811196, -15.1628903 ], [ 34.5761305, -15.1430143 ], [ 34.576864, -15.1425881 ], [ 34.571584, -15.12857 ], [ 34.5699344, -15.1220922 ], [ 34.5832118, -15.1075675 ], [ 34.5915002, -15.0969455 ], [ 34.5921439, -15.0939279 ], [ 34.5890917, -15.0903097 ], [ 34.5852222, -15.0857227 ], [ 34.5765555, -15.0864769 ], [ 34.5905309, -15.0462663 ], [ 34.5970343, -15.0454361 ], [ 34.6218309, -14.9978752 ], [ 34.6132054, -14.9895471 ], [ 34.6160833, -14.9781217 ], [ 34.6003112, -14.9722121 ], [ 34.5999237, -14.9716846 ], [ 34.5968466, -14.9618264 ], [ 34.592742, -14.9593279 ], [ 34.5893513, -14.9361282 ], [ 34.5753719, -14.9057306 ], [ 34.5656756, -14.8978783 ], [ 34.56865, -14.8851482 ], [ 34.5781678, -14.8745001 ], [ 34.5765022, -14.859688 ], [ 34.5768591, -14.8445784 ], [ 34.5722786, -14.8261376 ], [ 34.5759668, -14.8192372 ], [ 34.5835216, -14.8147162 ], [ 34.5834621, -14.8084106 ], [ 34.5649753, -14.7804466 ], [ 34.5675197, -14.773492 ], [ 34.5292104, -14.7102578 ], [ 34.5290319, -14.7000857 ], [ 34.5200272, -14.6837418 ], [ 34.51999, -14.683251 ], [ 34.5229048, -14.6803361 ], [ 34.5508635, -14.6422053 ], [ 34.5431302, -14.6351859 ], [ 34.541762, -14.6245378 ], [ 34.541762, -14.6106774 ], [ 34.5439036, -14.6068703 ], [ 34.5423569, -14.601338 ], [ 34.4987533, -14.5539867 ], [ 34.4971403, -14.5512256 ], [ 34.4948272, -14.5411377 ], [ 34.4932805, -14.539472 ], [ 34.4617072, -14.5142923 ], [ 34.4510451, -14.4965823 ], [ 34.4484872, -14.4803424 ], [ 34.4419932, -14.4715135 ], [ 34.4210044, -14.4414977 ], [ 34.4206475, -14.4334076 ], [ 34.4002948, -14.4127169 ], [ 34.4733467, -14.4324026 ], [ 34.5854874, -14.4293976 ], [ 34.7259483, -14.3225756 ], [ 34.7423973, -14.3805933 ], [ 34.7516823, -14.4883375 ], [ 34.7899399, -14.5144415 ], [ 34.7755318, -14.5674267 ], [ 34.9209824, -14.7099915 ], [ 34.9164238, -14.7366047 ], [ 34.9734192, -14.7746201 ] ] ] ] } },
{ "type": "Feature", "properties": { "POLYGON_ID": "MWI_GAUL2009_ADM2_19314", "ADM0_ISO3": "MWI", "ADM0_NAME": "Malawi", "ADM0_CODE": 152, "ADM1_NAME": "Central Region", "ADM1_CODE": 1888, "ADM2_NAME": "Ntchisi", "ADM2_CODE": 19314, "GEOSET": "GAUL", "GEOSET_YEAR": 2009.0, "GEOSET_VERSION": "GAUL_v1", "GEOSET_UNIT": "ADM2", "CENTROID_LONG": 33.922316097098772, "CENTROID_LAT": -13.296153712043511 }, "geometry": { "type": "MultiPolygon", "coordinates": [ [ [ [ 33.9186211, -13.0173635 ], [ 33.9171753, -13.1069698 ], [ 33.9579964, -13.1276455 ], [ 34.0550194, -13.1291742 ], [ 34.0879745, -13.1630344 ], [ 34.1097488, -13.2600317 ], [ 34.0967445, -13.301075 ], [ 34.1286812, -13.5018034 ], [ 34.1142845, -13.5114603 ], [ 34.0847168, -13.5314188 ], [ 34.0259705, -13.493103 ], [ 33.9560394, -13.5161924 ], [ 33.9278145, -13.4785662 ], [ 33.8331985, -13.5106363 ], [ 33.7827492, -13.4098406 ], [ 33.7192268, -13.3206978 ], [ 33.7016754, -13.1967449 ], [ 33.7589493, -13.1511335 ], [ 33.7891006, -13.0957012 ], [ 33.9186211, -13.0173635 ] ] ] ] } },
{ "type": "Feature", "properties": { "POLYGON_ID": "MWI_GAUL2009_ADM2_19315", "ADM0_ISO3": "MWI", "ADM0_NAME": "Malawi", "ADM0_CODE": 152, "ADM1_NAME": "Central Region", "ADM1_CODE": 1888, "ADM2_NAME": "Salima", "ADM2_CODE": 19315, "GEOSET": "GAUL", "GEOSET_YEAR": 2009.0, "GEOSET_VERSION": "GAUL_v1", "GEOSET_UNIT": "ADM2", "CENTROID_LONG": 34.383559547819146, "CENTROID_LAT": -13.737071968679354 }, "geometry": { "type": "MultiPolygon", "coordinates": [ [ [ [ 34.5509682, -14.105114 ], [ 34.4884834, -14.1147203 ], [ 34.3921547, -14.0128784 ], [ 34.3846169, -13.9918938 ], [ 34.2796555, -13.8601494 ], [ 34.1863556, -13.8778334 ], [ 34.2407761, -13.8177938 ], [ 34.2346878, -13.7990732 ], [ 34.2996292, -13.7811174 ], [ 34.2642212, -13.6851511 ], [ 34.1870041, -13.7023592 ], [ 34.1139603, -13.632863 ], [ 34.1142845, -13.5114603 ], [ 34.1286812, -13.5018034 ], [ 34.178627, -13.4895935 ], [ 34.3273582, -13.4167042 ], [ 34.3681793, -13.4951229 ], [ 34.4421501, -13.5926714 ], [ 34.4852676, -13.5791292 ], [ 34.5255394, -13.5990906 ], [ 34.5958252, -13.6866446 ], [ 34.6303482, -13.7131319 ], [ 34.6206284, -13.775732 ], [ 34.5826569, -13.8350639 ], [ 34.5712242, -13.9146423 ], [ 34.5165253, -13.9672575 ], [ 34.5509682, -14.105114 ] ] ] ] } },
{ "type": "Feature", "properties": { "POLYGON_ID": "MWI_GAUL2009_ADM2_19316", "ADM0_ISO3": "MWI", "ADM0_NAME": "Malawi", "ADM0_CODE": 152, "ADM1_NAME": "Northern Region", "ADM1_CODE": 1889, "ADM2_NAME": "Chitipa", "ADM2_CODE": 19316, "GEOSET": "GAUL", "GEOSET_YEAR": 2009.0, "GEOSET_VERSION": "GAUL_v1", "GEOSET_UNIT": "ADM2", "CENTROID_LONG": 33.501408225396418, "CENTROID_LAT": -9.9632217632503437 }, "geometry": { "type": "MultiPolygon", "coordinates": [ [ [ [ 33.12338, -9.47999 ], [ 33.1267392, -9.4821611 ], [ 33.12731, -9.48253 ], [ 33.13519, -9.48348 ], [ 33.1417262, -9.4885277 ], [ 33.14327, -9.48972 ], [ 33.1476344, -9.4918539 ], [ 33.15321, -9.49458 ], [ 33.1587626, -9.4943736 ], [ 33.16989, -9.49396 ], [ 33.1732892, -9.4968171 ], [ 33.17428, -9.49765 ], [ 33.174689, -9.4976288 ], [ 33.18661, -9.49701 ], [ 33.21024, -9.50888 ], [ 33.2141205, -9.506959 ], [ 33.22133, -9.50339 ], [ 33.22479, -9.496 ], [ 33.2270564, -9.4949473 ], [ 33.22873, -9.49417 ], [ 33.2339781, -9.4936718 ], [ 33.238, -9.49329 ], [ 33.2399861, -9.4922182 ], [ 33.24519, -9.48941 ], [ 33.2500287, -9.4889585 ], [ 33.2535089, -9.4878631 ], [ 33.25563, -9.48623 ], [ 33.2649632, -9.4940242 ], [ 33.26763, -9.49776 ], [ 33.28245, -9.50126 ], [ 33.31306, -9.48895 ], [ 33.3163204, -9.4907561 ], [ 33.3392852, -9.5023939 ], [ 33.33966, -9.50282 ], [ 33.3446308, -9.5058872 ], [ 33.3491989, -9.5105689 ], [ 33.35352, -9.51803 ], [ 33.35841, -9.52232 ], [ 33.36201, -9.52281 ], [ 33.37064, -9.52399 ], [ 33.38284, -9.53556 ], [ 33.38933, -9.53583 ], [ 33.4010768, -9.551913 ], [ 33.4098, -9.55849 ], [ 33.4203863, -9.5720448 ], [ 33.42289, -9.57788 ], [ 33.4230186, -9.5846583 ], [ 33.42306, -9.58684 ], [ 33.41885, -9.59348 ], [ 33.44028, -9.6127 ], [ 33.46044, -9.61973 ], [ 33.4976, -9.62048 ], [ 33.5030147, -9.6226585 ], [ 33.51311, -9.62672 ], [ 33.53213, -9.61781 ], [ 33.54213, -9.61376 ], [ 33.55258, -9.59143 ], [ 33.5784175, -9.5859492 ], [ 33.5801928, -9.5846668 ], [ 33.5825, -9.583 ], [ 33.5867223, -9.5813681 ], [ 33.58783, -9.58094 ], [ 33.59293, -9.58141 ], [ 33.5969352, -9.586314 ], [ 33.59801, -9.58763 ], [ 33.5994363, -9.5880569 ], [ 33.60496, -9.58971 ], [ 33.609656, -9.5935734 ], [ 33.61421, -9.59732 ], [ 33.6184532, -9.5977083 ], [ 33.62186, -9.59802 ], [ 33.62879, -9.60585 ], [ 33.6419333, -9.6030242 ], [ 33.684639, -9.7306709 ], [ 33.6637268, -9.7897758 ], [ 33.6088066, -9.8612795 ], [ 33.4726181, -9.9383268 ], [ 33.4737587, -9.9748583 ], [ 33.5745583, -10.011034 ], [ 33.651432, -10.072876 ], [ 33.7181168, -10.058547 ], [ 33.7307549, -10.1109505 ], [ 33.9619522, -10.4506731 ], [ 33.7050471, -10.5695392 ], [ 33.6986178, -10.5724486 ], [ 33.64671, -10.52019 ], [ 33.6187369, -10.4487489 ], [ 33.57678, -10.4285 ], [ 33.53483, -10.33007 ], [ 33.55727, -10.22444 ], [ 33.49414, -10.17877 ], [ 33.45936, -10.17143 ], [ 33.41994, -10.12566 ], [ 33.3387, -10.08835 ], [ 33.31879, -10.04522 ], [ 33.34939, -9.94312 ], [ 33.38164, -9.90655 ], [ 33.34574, -9.82746 ], [ 33.2895, -9.81008 ], [ 33.22592, -9.71654 ], [ 33.22728, -9.65448 ], [ 33.19564, -9.60553 ], [ 33.11289, -9.61022 ], [ 33.0624276, -9.6346589 ], [ 33.0043333, -9.6307752 ], [ 33.02679, -9.50728 ], [ 32.94774, -9.48666 ], [ 32.9535061, -9.4014497 ], [ 32.9674918, -9.3944611 ], [ 32.96772, -9.38961 ], [ 32.9766234, -9.3816175 ], [ 32.99081, -9.36888 ], [ 32.9934402, -9.3681889 ], [ 32.99591, -9.36754 ], [ 33.00123, -9.36896 ], [ 33.0020473, -9.3697244 ], [ 33.01065, -9.37777 ], [ 33.0349196, -9.4135797 ], [ 33.04668, -9.41896 ], [ 33.0892004, -9.4520809 ], [ 33.09636, -9.45403 ], [ 33.10393, -9.46283 ], [ 33.1111, -9.46427 ], [ 33.12132, -9.47515 ], [ 33.12338, -9.47999 ] ] ] ] } },
{ "type": "Feature", "properties": { "POLYGON_ID": "MWI_GAUL2009_ADM2_19317", "ADM0_ISO3": "MWI", "ADM0_NAME": "Malawi", "ADM0_CODE": 152, "ADM1_NAME": "Northern Region", "ADM1_CODE": 1889, "ADM2_NAME": "Karonga", "ADM2_CODE": 19317, "GEOSET": "GAUL", "GEOSET_YEAR": 2009.0, "GEOSET_VERSION": "GAUL_v1", "GEOSET_UNIT": "ADM2", "CENTROID_LONG": 33.881530502675247, "CENTROID_LAT": -10.084162718697955 }, "geometry": { "type": "MultiPolygon", "coordinates": [ [ [ [ 33.9391249, -9.7114537 ], [ 33.9386559, -9.7174597 ], [ 33.9212265, -9.7212782 ], [ 33.8874207, -9.7507353 ], [ 33.9043465, -9.8387384 ], [ 33.9472504, -9.9028978 ], [ 33.9385262, -9.9691534 ], [ 34.004715, -10.06812 ], [ 34.000927, -10.1018839 ], [ 34.0652275, -10.1659746 ], [ 34.1080666, -10.231761 ], [ 34.1778717, -10.2863369 ], [ 34.1743927, -10.3037672 ], [ 34.2538605, -10.4011526 ], [ 34.2079315, -10.5063572 ], [ 34.2308769, -10.5278091 ], [ 34.1778793, -10.5813847 ], [ 34.119648, -10.5835676 ], [ 34.0757599, -10.5575218 ], [ 33.9619522, -10.4506731 ], [ 33.7307549, -10.1109505 ], [ 33.7181168, -10.058547 ], [ 33.651432, -10.072876 ], [ 33.5745583, -10.011034 ], [ 33.4737587, -9.9748583 ], [ 33.4726181, -9.9383268 ], [ 33.6088066, -9.8612795 ], [ 33.6637268, -9.7897758 ], [ 33.684639, -9.7306709 ], [ 33.6419333, -9.6030242 ], [ 33.6457194, -9.6022101 ], [ 33.65128, -9.60245 ], [ 33.6533846, -9.6036704 ], [ 33.66123, -9.60822 ], [ 33.6670873, -9.6090578 ], [ 33.66934, -9.60938 ], [ 33.67468, -9.60778 ], [ 33.7055812, -9.6124279 ], [ 33.71362, -9.59981 ], [ 33.7182764, -9.5953208 ], [ 33.72111, -9.5925889 ], [ 33.72337, -9.59041 ], [ 33.73032, -9.58675 ], [ 33.7353885, -9.5856392 ], [ 33.73867, -9.58492 ], [ 33.7468854, -9.584162 ], [ 33.75482, -9.58343 ], [ 33.76389, -9.58259 ], [ 33.7672775, -9.5840047 ], [ 33.77615, -9.58771 ], [ 33.7955554, -9.6055435 ], [ 33.80339, -9.60738 ], [ 33.8086193, -9.6138969 ], [ 33.81468, -9.62145 ], [ 33.8153381, -9.6251548 ], [ 33.86225, -9.65754 ], [ 33.88816, -9.67668 ], [ 33.9012365, -9.6855546 ], [ 33.91702, -9.69112 ], [ 33.9190894, -9.6950409 ], [ 33.931325, -9.7065913 ], [ 33.93895, -9.71168 ], [ 33.9391249, -9.7114537 ] ] ] ] } },
{ "type": "Feature", "properties": { "POLYGON_ID": "MWI_GAUL2009_ADM2_19318", "ADM0_ISO3": "MWI", "ADM0_NAME": "Malawi", "ADM0_CODE": 152, "ADM1_NAME": "Northern Region", "ADM1_CODE": 1889, "ADM2_NAME": "Mzimba", "ADM2_CODE": 19318, "GEOSET": "GAUL", "GEOSET_YEAR": 2009.0, "GEOSET_VERSION": "GAUL_v1", "GEOSET_UNIT": "ADM2", "CENTROID_LONG": 33.637209722504437, "CENTROID_LAT": -11.772086132452685 }, "geometry": { "type": "MultiPolygon", "coordinates": [ [ [ [ 34.0567856, -11.0975246 ], [ 34.0381889, -11.1712017 ], [ 34.0079842, -11.2139359 ], [ 34.0101624, -11.2729092 ], [ 34.04319, -11.2822723 ], [ 34.0327034, -11.3339453 ], [ 34.0471001, -11.3920059 ], [ 34.0762939, -11.3896494 ], [ 34.1012878, -11.4520521 ], [ 34.0471382, -11.5007944 ], [ 33.9748077, -11.4836826 ], [ 33.960743, -11.5332775 ], [ 33.867836, -11.5334978 ], [ 33.8220558, -11.581706 ], [ 33.7864952, -11.5934801 ], [ 33.7348022, -11.6656046 ], [ 33.7600594, -11.6997871 ], [ 33.7542381, -11.7464314 ], [ 33.8475685, -11.8147907 ], [ 33.8230934, -11.8863325 ], [ 33.7897072, -11.8854961 ], [ 33.7896118, -11.9736156 ], [ 33.8192749, -12.0081396 ], [ 33.7771263, -12.061923 ], [ 33.8242188, -12.1674128 ], [ 33.7531776, -12.2311716 ], [ 33.7528114, -12.2931375 ], [ 33.7909889, -12.3156281 ], [ 33.8650894, -12.3223305 ], [ 33.8920631, -12.457037 ], [ 33.9492683, -12.4707136 ], [ 34.0192642, -12.5140886 ], [ 34.0751305, -12.4920797 ], [ 34.0592918, -12.5716429 ], [ 33.9992561, -12.5820913 ], [ 33.9670753, -12.6194649 ], [ 33.9240265, -12.6156836 ], [ 33.8780708, -12.6485291 ], [ 33.835434, -12.7100754 ], [ 33.7891426, -12.7173519 ], [ 33.7666969, -12.6832809 ], [ 33.6546288, -12.7380476 ], [ 33.600071, -12.6628284 ], [ 33.5694809, -12.6819496 ], [ 33.5526199, -12.5946445 ], [ 33.5797462, -12.5653324 ], [ 33.5320091, -12.4640903 ], [ 33.5853539, -12.4458838 ], [ 33.5810471, -12.3838377 ], [ 33.5344824, -12.3785349 ], [ 33.54823, -12.35774 ], [ 33.45411, -12.32255 ], [ 33.3659598, -12.3481084 ], [ 33.3631, -12.31934 ], [ 33.31115, -12.24954 ], [ 33.30936, -12.16627 ], [ 33.26081, -12.11833 ], [ 33.3086, -12.00112 ], [ 33.32308, -11.89679 ], [ 33.30581, -11.85826 ], [ 33.33354, -11.79888 ], [ 33.3149, -11.7217 ], [ 33.31107, -11.5954 ], [ 33.2752602, -11.5822038 ], [ 33.22429, -11.58928 ], [ 33.24875, -11.5285 ], [ 33.24799, -11.46984 ], [ 33.2268, -11.43013 ], [ 33.2935676, -11.4218548 ], [ 33.28879, -11.36892 ], [ 33.37685, -11.23794 ], [ 33.4060096, -11.1610807 ], [ 33.33159, -11.06745 ], [ 33.3108038, -11.0104161 ], [ 33.4374352, -11.0442419 ], [ 33.436676, -11.1338644 ], [ 33.4833794, -11.1095724 ], [ 33.5294762, -11.0358286 ], [ 33.608532, -11.0767765 ], [ 33.6590233, -11.0605993 ], [ 33.6937904, -11.0943108 ], [ 33.7331696, -11.0948687 ], [ 33.7480812, -11.0289907 ], [ 33.9260178, -11.0284634 ], [ 33.9560699, -10.9709435 ], [ 34.0540466, -11.0640383 ], [ 34.0567856, -11.0975246 ] ] ] ] } },
{ "type": "Feature", "properties": { "POLYGON_ID": "MWI_GAUL2009_ADM2_19320", "ADM0_ISO3": "MWI", "ADM0_NAME": "Malawi", "ADM0_CODE": 152, "ADM1_NAME": "Northern Region", "ADM1_CODE": 1889, "ADM2_NAME": "Rumphi", "ADM2_CODE": 19320, "GEOSET": "GAUL", "GEOSET_YEAR": 2009.0, "GEOSET_VERSION": "GAUL_v1", "GEOSET_UNIT": "ADM2", "CENTROID_LONG": 33.816541565807348, "CENTROID_LAT": -10.821082547986295 }, "geometry": { "type": "MultiPolygon", "coordinates": [ [ [ [ 34.1778793, -10.5813847 ], [ 34.1975479, -10.6309395 ], [ 34.1866379, -10.7042122 ], [ 34.20401, -10.7747993 ], [ 34.2225876, -10.9338274 ], [ 34.2186356, -10.9980211 ], [ 34.1753502, -11.0513639 ], [ 34.0567856, -11.0975246 ], [ 34.0540466, -11.0640383 ], [ 33.9560699, -10.9709435 ], [ 33.9260178, -11.0284634 ], [ 33.7480812, -11.0289907 ], [ 33.7331696, -11.0948687 ], [ 33.6937904, -11.0943108 ], [ 33.6590233, -11.0605993 ], [ 33.608532, -11.0767765 ], [ 33.5294762, -11.0358286 ], [ 33.4833794, -11.1095724 ], [ 33.436676, -11.1338644 ], [ 33.4374352, -11.0442419 ], [ 33.3108038, -11.0104161 ], [ 33.3130797, -10.9433629 ], [ 33.26562, -10.86876 ], [ 33.31101, -10.86952 ], [ 33.33456, -10.82852 ], [ 33.38865, -10.81254 ], [ 33.4426, -10.8207 ], [ 33.53136, -10.76559 ], [ 33.60224, -10.65676 ], [ 33.62339, -10.65964 ], [ 33.68461, -10.6064 ], [ 33.7050471, -10.5695392 ], [ 33.9619522, -10.4506731 ], [ 34.0757599, -10.5575218 ], [ 34.119648, -10.5835676 ], [ 34.1778793, -10.5813847 ] ] ] ] } },
{ "type": "Feature", "properties": { "POLYGON_ID": "MWI_GAUL2009_ADM2_42172", "ADM0_ISO3": "MWI", "ADM0_NAME": "Malawi", "ADM0_CODE": 152, "ADM1_NAME": "Northern Region", "ADM1_CODE": 1889, "ADM2_NAME": "Likoma", "ADM2_CODE": 42172, "GEOSET": "GAUL", "GEOSET_YEAR": 2009.0, "GEOSET_VERSION": "GAUL_v1", "GEOSET_UNIT": "ADM2", "CENTROID_LONG": 34.68746388366214, "CENTROID_LAT": -12.051093941032397 }, "geometry": { "type": "MultiPolygon", "coordinates": [ [ [ [ 34.7687968, -12.094168 ], [ 34.7276799, -12.1332545 ], [ 34.6776859, -12.0757042 ], [ 34.7148413, -12.0021204 ], [ 34.7919107, -12.0365504 ], [ 34.7687968, -12.094168 ] ] ], [ [ [ 34.608853, -12.0836508 ], [ 34.5803806, -12.0544564 ], [ 34.5849335, -11.9863425 ], [ 34.6580857, -12.0010153 ], [ 34.6617586, -12.0416834 ], [ 34.608853, -12.0836508 ] ] ] ] } },
{ "type": "Feature", "properties": { "POLYGON_ID": "MWI_GAUL2009_ADM2_42173", "ADM0_ISO3": "MWI", "ADM0_NAME": "Malawi", "ADM0_CODE": 152, "ADM1_NAME": "Northern Region", "ADM1_CODE": 1889, "ADM2_NAME": "Nkhata Bay", "ADM2_CODE": 42173, "GEOSET": "GAUL", "GEOSET_YEAR": 2009.0, "GEOSET_VERSION": "GAUL_v1", "GEOSET_UNIT": "ADM2", "CENTROID_LONG": 34.040432533567255, "CENTROID_LAT": -11.675577024742184 }, "geometry": { "type": "MultiPolygon", "coordinates": [ [ [ [ 34.2186356, -10.9980211 ], [ 34.225296, -11.1027098 ], [ 34.2080116, -11.2040329 ], [ 34.2265053, -11.2998819 ], [ 34.2576523, -11.3255768 ], [ 34.2810516, -11.4628944 ], [ 34.2734146, -11.5162516 ], [ 34.3037682, -11.5791054 ], [ 34.3263359, -11.6696501 ], [ 34.3006439, -11.72894 ], [ 34.2518692, -11.7498913 ], [ 34.2359467, -11.783988 ], [ 34.1759758, -11.820466 ], [ 34.1793327, -11.9206429 ], [ 34.0801964, -11.9778194 ], [ 34.0519333, -12.022933 ], [ 34.060318, -12.0851326 ], [ 34.0357628, -12.1334047 ], [ 34.021801, -12.2352056 ], [ 33.8778343, -12.1929388 ], [ 33.8242188, -12.1674128 ], [ 33.7771263, -12.061923 ], [ 33.8192749, -12.0081396 ], [ 33.7896118, -11.9736156 ], [ 33.7897072, -11.8854961 ], [ 33.8230934, -11.8863325 ], [ 33.8475685, -11.8147907 ], [ 33.7542381, -11.7464314 ], [ 33.7600594, -11.6997871 ], [ 33.7348022, -11.6656046 ], [ 33.7864952, -11.5934801 ], [ 33.8220558, -11.581706 ], [ 33.867836, -11.5334978 ], [ 33.960743, -11.5332775 ], [ 33.9748077, -11.4836826 ], [ 34.0471382, -11.5007944 ], [ 34.1012878, -11.4520521 ], [ 34.0762939, -11.3896494 ], [ 34.0471001, -11.3920059 ], [ 34.0327034, -11.3339453 ], [ 34.04319, -11.2822723 ], [ 34.0101624, -11.2729092 ], [ 34.0079842, -11.2139359 ], [ 34.0381889, -11.1712017 ], [ 34.0567856, -11.0975246 ], [ 34.1753502, -11.0513639 ], [ 34.2186356, -10.9980211 ] ] ] ] } },
{ "type": "Feature", "properties": { "POLYGON_ID": "MWI_GAUL2009_ADM2_19321", "ADM0_ISO3": "MWI", "ADM0_NAME": "Malawi", "ADM0_CODE": 152, "ADM1_NAME": "Southern Region", "ADM1_CODE": 1890, "ADM2_NAME": "Blantyre", "ADM2_CODE": 19321, "GEOSET": "GAUL", "GEOSET_YEAR": 2009.0, "GEOSET_VERSION": "GAUL_v1", "GEOSET_UNIT": "ADM2", "CENTROID_LONG": 34.946037163519819, "CENTROID_LAT": -15.667239731545934 }, "geometry": { "type": "MultiPolygon", "coordinates": [ [ [ [ 34.9899826, -15.3516226 ], [ 35.0576706, -15.4035158 ], [ 35.0987015, -15.470932 ], [ 35.1390915, -15.4727907 ], [ 35.1196594, -15.5381374 ], [ 35.0973701, -15.6230841 ], [ 35.1200294, -15.6450586 ], [ 35.1070213, -15.7522488 ], [ 35.124752, -15.8566322 ], [ 35.0267868, -15.9259768 ], [ 34.9853401, -15.9259195 ], [ 34.9026871, -16.0138702 ], [ 34.8838348, -15.998642 ], [ 34.8687935, -15.9192295 ], [ 34.8671684, -15.8208923 ], [ 34.7361145, -15.8169966 ], [ 34.7195053, -15.6966858 ], [ 34.7635574, -15.6591759 ], [ 34.7486038, -15.5808878 ], [ 34.8582878, -15.4799938 ], [ 34.880867, -15.4161348 ], [ 34.9230766, -15.360795 ], [ 34.9899826, -15.3516226 ] ] ] ] } },
{ "type": "Feature", "properties": { "POLYGON_ID": "MWI_GAUL2009_ADM2_19322", "ADM0_ISO3": "MWI", "ADM0_NAME": "Malawi", "ADM0_CODE": 152, "ADM1_NAME": "Southern Region", "ADM1_CODE": 1890, "ADM2_NAME": "Chikwawa", "ADM2_CODE": 19322, "GEOSET": "GAUL", "GEOSET_YEAR": 2009.0, "GEOSET_VERSION": "GAUL_v1", "GEOSET_UNIT": "ADM2", "CENTROID_LONG": 34.708985751524438, "CENTROID_LAT": -16.166090863834167 }, "geometry": { "type": "MultiPolygon", "coordinates": [ [ [ [ 34.354135, -15.7409314 ], [ 34.5243034, -15.810195 ], [ 34.7304497, -15.8167887 ], [ 34.7361145, -15.8169966 ], [ 34.8671684, -15.8208923 ], [ 34.8687935, -15.9192295 ], [ 34.8838348, -15.998642 ], [ 34.9026871, -16.0138702 ], [ 34.9589729, -16.1275768 ], [ 34.9936256, -16.1470776 ], [ 35.055069, -16.2508411 ], [ 35.1205368, -16.2992058 ], [ 35.095211, -16.3443699 ], [ 35.0518723, -16.4991207 ], [ 34.9793053, -16.5652103 ], [ 34.9692345, -16.6224594 ], [ 34.9285545, -16.639761 ], [ 34.9107947, -16.6995359 ], [ 34.8815564, -16.6881767 ], [ 34.8719541, -16.6790668 ], [ 34.8627211, -16.6775895 ], [ 34.8584124, -16.6751274 ], [ 34.8559503, -16.6693413 ], [ 34.8554578, -16.6601084 ], [ 34.8518878, -16.6507522 ], [ 34.8534881, -16.6373336 ], [ 34.8488101, -16.6265002 ], [ 34.84925, -16.6194681 ], [ 34.8465942, -16.6154207 ], [ 34.842901, -16.6133278 ], [ 34.8340373, -16.6045873 ], [ 34.83256, -16.6032331 ], [ 34.8297595, -16.6044844 ], [ 34.826774, -16.6058183 ], [ 34.8215476, -16.6024502 ], [ 34.821134, -16.6023151 ], [ 34.8164331, -16.605449 ], [ 34.8138478, -16.6047104 ], [ 34.8130833, -16.5992478 ], [ 34.7988288, -16.5930153 ], [ 34.7924273, -16.5863675 ], [ 34.7793235, -16.5816524 ], [ 34.7711389, -16.5823327 ], [ 34.7772852, -16.573072 ], [ 34.7791318, -16.5666704 ], [ 34.7791318, -16.5585454 ], [ 34.7765465, -16.5478351 ], [ 34.7723609, -16.5410643 ], [ 34.7644821, -16.5390946 ], [ 34.7391221, -16.5078255 ], [ 34.7361676, -16.5053634 ], [ 34.7137622, -16.495761 ], [ 34.7086638, -16.4971675 ], [ 34.706622, -16.4977307 ], [ 34.6987778, -16.5045621 ], [ 34.687048, -16.5008084 ], [ 34.6829377, -16.4954086 ], [ 34.6786768, -16.4788954 ], [ 34.6844628, -16.4659692 ], [ 34.6833611, -16.4628437 ], [ 34.6783075, -16.4583366 ], [ 34.647777, -16.451812 ], [ 34.6444531, -16.4466415 ], [ 34.6423603, -16.438024 ], [ 34.6372505, -16.4380895 ], [ 34.6141295, -16.4247999 ], [ 34.6099537, -16.4201514 ], [ 34.6028628, -16.4218848 ], [ 34.5941961, -16.4168423 ], [ 34.5915, -16.4126816 ], [ 34.5914577, -16.4071363 ], [ 34.5914385, -16.4046302 ], [ 34.5860021, -16.3976968 ], [ 34.5847415, -16.3800482 ], [ 34.5888474, -16.3733674 ], [ 34.5841112, -16.3576724 ], [ 34.5781548, -16.3540402 ], [ 34.5725277, -16.3205797 ], [ 34.5710278, -16.3155239 ], [ 34.5551996, -16.3070139 ], [ 34.5513908, -16.3049661 ], [ 34.5443622, -16.3034864 ], [ 34.5412256, -16.295683 ], [ 34.5410329, -16.2943616 ], [ 34.537429, -16.2922655 ], [ 34.5252649, -16.2811832 ], [ 34.5247222, -16.2802772 ], [ 34.5234492, -16.2809933 ], [ 34.5161247, -16.2851135 ], [ 34.5113157, -16.2854834 ], [ 34.5015743, -16.2927586 ], [ 34.4553338, -16.2816609 ], [ 34.4426431, -16.2693769 ], [ 34.4269651, -16.2574025 ], [ 34.4245278, -16.2547241 ], [ 34.423444, -16.2530973 ], [ 34.419818, -16.2476543 ], [ 34.419818, -16.2389279 ], [ 34.4156625, -16.2272927 ], [ 34.4058973, -16.2166963 ], [ 34.4058973, -16.2046455 ], [ 34.401534, -16.2006979 ], [ 34.3996641, -16.196958 ], [ 34.4013263, -16.192387 ], [ 34.4009107, -16.1880238 ], [ 34.3977942, -16.1828295 ], [ 34.4011185, -16.1655845 ], [ 34.4041469, -16.1619215 ], [ 34.4045556, -16.1614271 ], [ 34.3929456, -16.140727 ], [ 34.4225855, -16.049386 ], [ 34.4255693, -16.0417992 ], [ 34.4100859, -16.0287751 ], [ 34.3772414, -16.0124193 ], [ 34.3556996, -15.9867553 ], [ 34.3439979, -15.9767823 ], [ 34.3297697, -15.9612243 ], [ 34.3156745, -15.937555 ], [ 34.2912073, -15.9315712 ], [ 34.2797715, -15.9339647 ], [ 34.2798814, -15.9258319 ], [ 34.2527778, -15.8960671 ], [ 34.2527778, -15.8932747 ], [ 34.2630018, -15.886337 ], [ 34.26154, -15.8850627 ], [ 34.2547778, -15.8832863 ], [ 34.2522459, -15.8786475 ], [ 34.2571659, -15.855909 ], [ 34.254885, -15.8541494 ], [ 34.2525119, -15.8523187 ], [ 34.2516464, -15.8487607 ], [ 34.2509842, -15.8460384 ], [ 34.2501183, -15.8424786 ], [ 34.2503568, -15.842189 ], [ 34.2557032, -15.835697 ], [ 34.2551142, -15.8342245 ], [ 34.2535756, -15.830378 ], [ 34.2679368, -15.8169476 ], [ 34.2729898, -15.8129584 ], [ 34.2695636, -15.8052249 ], [ 34.2713475, -15.7968372 ], [ 34.2816111, -15.7862954 ], [ 34.354135, -15.7409314 ] ] ] ] } },
{ "type": "Feature", "properties": { "POLYGON_ID": "MWI_GAUL2009_ADM2_19323", "ADM0_ISO3": "MWI", "ADM0_NAME": "Malawi", "ADM0_CODE": 152, "ADM1_NAME": "Southern Region", "ADM1_CODE": 1890, "ADM2_NAME": "Chiradzulu", "ADM2_CODE": 19323, "GEOSET": "GAUL", "GEOSET_YEAR": 2009.0, "GEOSET_VERSION": "GAUL_v1", "GEOSET_UNIT": "ADM2", "CENTROID_LONG": 35.21282451136512, "CENTROID_LAT": -15.741985755596094 }, "geometry": { "type": "MultiPolygon", "coordinates": [ [ [ [ 35.3269882, -15.6811857 ], [ 35.3021393, -15.7390566 ], [ 35.3256149, -15.9482775 ], [ 35.3077927, -15.995265 ], [ 35.2685242, -15.9691296 ], [ 35.2436714, -15.89606 ], [ 35.2010384, -15.8605099 ], [ 35.124752, -15.8566322 ], [ 35.1070213, -15.7522488 ], [ 35.1200294, -15.6450586 ], [ 35.0973701, -15.6230841 ], [ 35.1196594, -15.5381374 ], [ 35.190834, -15.5227718 ], [ 35.2521095, -15.6374207 ], [ 35.3269882, -15.6811857 ] ] ] ] } },
{ "type": "Feature", "properties": { "POLYGON_ID": "MWI_GAUL2009_ADM2_19325", "ADM0_ISO3": "MWI", "ADM0_NAME": "Malawi", "ADM0_CODE": 152, "ADM1_NAME": "Southern Region", "ADM1_CODE": 1890, "ADM2_NAME": "Mangochi", "ADM2_CODE": 19325, "GEOSET": "GAUL", "GEOSET_YEAR": 2009.0, "GEOSET_VERSION": "GAUL_v1", "GEOSET_UNIT": "ADM2", "CENTROID_LONG": 35.190241844699365, "CENTROID_LAT": -14.348360600998408 }, "geometry": { "type": "MultiPolygon", "coordinates": [ [ [ [ 34.8707639, -13.4813463 ], [ 34.880358, -13.4813468 ], [ 34.940836, -13.5441346 ], [ 35.103036, -13.6971337 ], [ 35.1666905, -13.7810379 ], [ 35.240822, -13.878752 ], [ 35.4062439, -14.0637376 ], [ 35.4138745, -14.0722708 ], [ 35.4314701, -14.0919473 ], [ 35.500219, -14.1688268 ], [ 35.533989, -14.2570133 ], [ 35.780065, -14.5487109 ], [ 35.7497826, -14.5833406 ], [ 35.656292, -14.5826073 ], [ 35.5737801, -14.6147995 ], [ 35.5492744, -14.650176 ], [ 35.5555649, -14.7093496 ], [ 35.500042, -14.7389116 ], [ 35.4971237, -14.7664623 ], [ 35.4426308, -14.7943001 ], [ 35.3667603, -14.7684507 ], [ 35.2929039, -14.6917315 ], [ 35.266304, -14.7274952 ], [ 35.2811317, -14.7787275 ], [ 35.2340965, -14.7942467 ], [ 35.1796799, -14.73736 ], [ 35.1348038, -14.7691717 ], [ 34.9734192, -14.7746201 ], [ 34.9164238, -14.7366047 ], [ 34.9209824, -14.7099915 ], [ 34.7755318, -14.5674267 ], [ 34.7899399, -14.5144415 ], [ 34.7516823, -14.4883375 ], [ 34.7423973, -14.3805933 ], [ 34.7259483, -14.3225756 ], [ 34.738884, -14.2771511 ], [ 34.8083191, -14.2517061 ], [ 34.8106613, -14.1493263 ], [ 34.8564911, -14.0986052 ], [ 34.8248596, -14.0466576 ], [ 34.8631783, -13.997467 ], [ 34.9166374, -14.0448265 ], [ 34.9409409, -14.1536589 ], [ 35.008812, -14.1811438 ], [ 35.0373383, -14.1740351 ], [ 35.0833855, -14.2287483 ], [ 35.0897865, -14.2657089 ], [ 35.1382561, -14.301734 ], [ 35.1801796, -14.369689 ], [ 35.2748146, -14.3926716 ], [ 35.2935677, -14.3472471 ], [ 35.227417, -14.253067 ], [ 35.1801605, -14.1218472 ], [ 35.1822777, -14.0488729 ], [ 35.1451645, -14.001462 ], [ 35.1101532, -13.8584194 ], [ 35.0840874, -13.8240833 ], [ 35.0614853, -13.736681 ], [ 35.0002327, -13.7231579 ], [ 34.9115448, -13.7330437 ], [ 34.8619728, -13.7252789 ], [ 34.8514442, -13.5525637 ], [ 34.8663819, -13.4813461 ], [ 34.8707639, -13.4813463 ] ] ] ] } },
{ "type": "Feature", "properties": { "POLYGON_ID": "MWI_GAUL2009_ADM2_19328", "ADM0_ISO3": "MWI", "ADM0_NAME": "Malawi", "ADM0_CODE": 152, "ADM1_NAME": "Southern Region", "ADM1_CODE": 1890, "ADM2_NAME": "Nsanje", "ADM2_CODE": 19328, "GEOSET": "GAUL", "GEOSET_YEAR": 2009.0, "GEOSET_VERSION": "GAUL_v1", "GEOSET_UNIT": "ADM2", "CENTROID_LONG": 35.1436381184213, "CENTROID_LAT": -16.741757970308825 }, "geometry": { "type": "MultiPolygon", "coordinates": [ [ [ [ 35.2642291, -16.4106152 ], [ 35.2636682, -16.4256682 ], [ 35.2678297, -16.4358699 ], [ 35.2631989, -16.4455907 ], [ 35.2647979, -16.4538417 ], [ 35.2622621, -16.4696075 ], [ 35.2623989, -16.474382 ], [ 35.2550763, -16.4833791 ], [ 35.2478533, -16.4894875 ], [ 35.2394214, -16.4926777 ], [ 35.2242113, -16.4939506 ], [ 35.2087913, -16.5076462 ], [ 35.209741, -16.5127695 ], [ 35.2122402, -16.5139191 ], [ 35.1868984, -16.5187925 ], [ 35.1765267, -16.5276615 ], [ 35.1786019, -16.5372071 ], [ 35.1766097, -16.5407763 ], [ 35.165321, -16.5461717 ], [ 35.1561292, -16.5530314 ], [ 35.1492302, -16.5543022 ], [ 35.1622113, -16.6094947 ], [ 35.1664863, -16.607835 ], [ 35.1699273, -16.6064991 ], [ 35.1721968, -16.6075884 ], [ 35.1705628, -16.6227482 ], [ 35.1751282, -16.6229004 ], [ 35.1787327, -16.6230205 ], [ 35.1872658, -16.627287 ], [ 35.1982498, -16.6369094 ], [ 35.203061, -16.6359109 ], [ 35.2062382, -16.6373633 ], [ 35.215679, -16.6541571 ], [ 35.2171322, -16.653237 ], [ 35.228297, -16.6461687 ], [ 35.2332898, -16.656608 ], [ 35.2476325, -16.6794839 ], [ 35.2577996, -16.6785761 ], [ 35.2597967, -16.6808455 ], [ 35.2607952, -16.6873815 ], [ 35.2662419, -16.6925558 ], [ 35.2732317, -16.6985471 ], [ 35.2884833, -16.7117795 ], [ 35.2881191, -16.7189719 ], [ 35.2821608, -16.7321768 ], [ 35.2814016, -16.7338594 ], [ 35.2843973, -16.7367642 ], [ 35.294292, -16.7395783 ], [ 35.2855774, -16.7450249 ], [ 35.2937473, -16.7580061 ], [ 35.2974286, -16.7640752 ], [ 35.2964706, -16.7696255 ], [ 35.2942535, -16.7717109 ], [ 35.2873021, -16.7782494 ], [ 35.2969245, -16.8035762 ], [ 35.3025537, -16.8052361 ], [ 35.3040051, -16.8056641 ], [ 35.3046754, -16.8076748 ], [ 35.3055718, -16.8103641 ], [ 35.3057421, -16.8117391 ], [ 35.3050945, -16.8169204 ], [ 35.3093702, -16.8208735 ], [ 35.3099056, -16.8213685 ], [ 35.3145353, -16.8309001 ], [ 35.3111765, -16.8367098 ], [ 35.3074241, -16.8393202 ], [ 35.3050274, -16.8429567 ], [ 35.3056391, -16.8530497 ], [ 35.3030066, -16.8581332 ], [ 35.2961983, -16.8635799 ], [ 35.2933134, -16.8694977 ], [ 35.2834895, -16.8730207 ], [ 35.2793138, -16.8774688 ], [ 35.2791322, -16.8796474 ], [ 35.2834418, -16.884201 ], [ 35.279854, -16.8881881 ], [ 35.2713254, -16.8923562 ], [ 35.2706899, -16.8945349 ], [ 35.2745933, -16.8971674 ], [ 35.2818558, -16.8964936 ], [ 35.2846696, -16.8989829 ], [ 35.2843225, -16.9035815 ], [ 35.2839577, -16.9042244 ], [ 35.2734132, -16.9172291 ], [ 35.2729709, -16.9254564 ], [ 35.2728327, -16.925731 ], [ 35.2667865, -16.9285763 ], [ 35.2690198, -16.9342229 ], [ 35.2655365, -16.9372858 ], [ 35.2632543, -16.9398081 ], [ 35.2640951, -16.9461742 ], [ 35.2655365, -16.9477356 ], [ 35.2734039, -16.9491169 ], [ 35.2700097, -16.9570761 ], [ 35.2676385, -16.9586059 ], [ 35.2679988, -16.9599272 ], [ 35.2698181, -16.9601932 ], [ 35.2778874, -16.9613732 ], [ 35.2824571, -16.966844 ], [ 35.2856868, -16.9642016 ], [ 35.288121, -16.9622099 ], [ 35.2931413, -16.9611801 ], [ 35.2948386, -16.9628453 ], [ 35.2965526, -16.964527 ], [ 35.2969387, -16.9688393 ], [ 35.2955871, -16.9731516 ], [ 35.3005041, -16.9776152 ], [ 35.3046623, -16.98139 ], [ 35.3024739, -16.9887274 ], [ 35.2989046, -17.0602984 ], [ 35.3024739, -17.0614573 ], [ 35.3101551, -17.0586333 ], [ 35.3124083, -17.0605724 ], [ 35.3138661, -17.0634525 ], [ 35.306915, -17.0685372 ], [ 35.3089746, -17.1236317 ], [ 35.3042117, -17.1255626 ], [ 35.2970049, -17.1256847 ], [ 35.2950556, -17.1271162 ], [ 35.0971667, -17.1288105 ], [ 35.0942631, -17.1280191 ], [ 35.0905702, -17.1239 ], [ 35.0804097, -17.1057481 ], [ 35.0834685, -17.103589 ], [ 35.0903422, -17.092316 ], [ 35.0924167, -17.0910899 ], [ 35.0924315, -17.0913568 ], [ 35.1061941, -17.0865447 ], [ 35.102132, -17.0850119 ], [ 35.0962602, -17.0785482 ], [ 35.0956835, -17.0773124 ], [ 35.0932629, -17.0769939 ], [ 35.0816185, -17.0694075 ], [ 35.0810539, -17.0642452 ], [ 35.073668, -17.0632509 ], [ 35.0664111, -17.0552278 ], [ 35.0637255, -17.0507518 ], [ 35.0630331, -17.0505254 ], [ 35.0563397, -17.0483372 ], [ 35.0553455, -17.0462067 ], [ 35.0591688, -17.0384185 ], [ 35.0613109, -17.0317191 ], [ 35.0609335, -17.0304296 ], [ 35.0629936, -17.022057 ], [ 35.0638676, -17.0210664 ], [ 35.0617232, -17.0169354 ], [ 35.057334, -17.0131125 ], [ 35.0553455, -17.0065788 ], [ 35.057476, -17.00317 ], [ 35.0586312, -17.0007987 ], [ 35.0601747, -16.9976306 ], [ 35.0628733, -16.9928014 ], [ 35.0762247, -16.9865519 ], [ 35.0843496, -16.985269 ], [ 35.0870193, -16.9848474 ], [ 35.0951154, -16.9865519 ], [ 35.1354818, -16.9703456 ], [ 35.1426404, -16.9623916 ], [ 35.1402788, -16.9607247 ], [ 35.1371862, -16.9567102 ], [ 35.1420722, -16.9509152 ], [ 35.1487763, -16.9380752 ], [ 35.1574121, -16.9353481 ], [ 35.1590029, -16.9393251 ], [ 35.164906, -16.9391009 ], [ 35.1679795, -16.9389842 ], [ 35.1707066, -16.9351209 ], [ 35.1676386, -16.9313711 ], [ 35.1661614, -16.9168267 ], [ 35.1556067, -16.8926524 ], [ 35.1551395, -16.8925103 ], [ 35.1536623, -16.8903513 ], [ 35.1535931, -16.8883908 ], [ 35.1478673, -16.876375 ], [ 35.1488899, -16.8654667 ], [ 35.1548006, -16.863358 ], [ 35.1580833, -16.8629181 ], [ 35.1597982, -16.8609216 ], [ 35.1618436, -16.8500133 ], [ 35.1574121, -16.8388777 ], [ 35.1515034, -16.8321736 ], [ 35.1442741, -16.8252224 ], [ 35.1354167, -16.8173667 ], [ 35.1300276, -16.8179701 ], [ 35.1193195, -16.8166385 ], [ 35.0837809, -16.8185383 ], [ 35.076, -16.8216719 ], [ 35.0712572, -16.820397 ], [ 35.0629063, -16.8288978 ], [ 35.0580913, -16.8328631 ], [ 35.0461011, -16.8270096 ], [ 35.03987, -16.827104 ], [ 35.035, -16.824116 ], [ 35.0337602, -16.8183271 ], [ 34.995119, -16.7925495 ], [ 34.9918146, -16.7898116 ], [ 34.991951, -16.780759 ], [ 34.99375, -16.775065 ], [ 34.9888349, -16.7681577 ], [ 34.9873755, -16.762256 ], [ 34.9863388, -16.7565788 ], [ 34.9856123, -16.7551259 ], [ 34.9836009, -16.7511029 ], [ 34.9786915, -16.7490259 ], [ 34.937316, -16.7485489 ], [ 34.9217354, -16.746433 ], [ 34.9155371, -16.7146441 ], [ 34.9112251, -16.7076275 ], [ 34.9107947, -16.6995359 ], [ 34.9285545, -16.639761 ], [ 34.9692345, -16.6224594 ], [ 34.9793053, -16.5652103 ], [ 35.0518723, -16.4991207 ], [ 35.095211, -16.3443699 ], [ 35.1205368, -16.2992058 ], [ 35.1756668, -16.3357811 ], [ 35.2280655, -16.4013824 ], [ 35.2642291, -16.4106152 ] ] ] ] } },
{ "type": "Feature", "properties": { "POLYGON_ID": "MWI_GAUL2009_ADM2_19329", "ADM0_ISO3": "MWI", "ADM0_NAME": "Malawi", "ADM0_CODE": 152, "ADM1_NAME": "Southern Region", "ADM1_CODE": 1890, "ADM2_NAME": "Thyolo", "ADM2_CODE": 19329, "GEOSET": "GAUL", "GEOSET_YEAR": 2009.0, "GEOSET_VERSION": "GAUL_v1", "GEOSET_UNIT": "ADM2", "CENTROID_LONG": 35.145181552666038, "CENTROID_LAT": -16.100290223725523 }, "geometry": { "type": "MultiPolygon", "coordinates": [ [ [ [ 35.3077927, -15.995265 ], [ 35.3314514, -16.1089153 ], [ 35.2792587, -16.1868038 ], [ 35.3080464, -16.2160436 ], [ 35.3075958, -16.2167619 ], [ 35.3075902, -16.2167935 ], [ 35.3074991, -16.2247152 ], [ 35.3034354, -16.2284136 ], [ 35.2981845, -16.2293725 ], [ 35.2937271, -16.2405784 ], [ 35.2932989, -16.241655 ], [ 35.2936916, -16.2523897 ], [ 35.2962498, -16.2577166 ], [ 35.299463, -16.2644074 ], [ 35.29828, -16.2666825 ], [ 35.2851075, -16.3295003 ], [ 35.288468, -16.3364407 ], [ 35.3020199, -16.3473625 ], [ 35.2957556, -16.3579059 ], [ 35.2918659, -16.3644525 ], [ 35.2863494, -16.3708135 ], [ 35.2671696, -16.390411 ], [ 35.2644146, -16.3965401 ], [ 35.2635694, -16.3984205 ], [ 35.2642291, -16.4106152 ], [ 35.2280655, -16.4013824 ], [ 35.1756668, -16.3357811 ], [ 35.1205368, -16.2992058 ], [ 35.055069, -16.2508411 ], [ 34.9936256, -16.1470776 ], [ 34.9589729, -16.1275768 ], [ 34.9026871, -16.0138702 ], [ 34.9853401, -15.9259195 ], [ 35.0267868, -15.9259768 ], [ 35.124752, -15.8566322 ], [ 35.2010384, -15.8605099 ], [ 35.2436714, -15.89606 ], [ 35.2685242, -15.9691296 ], [ 35.3077927, -15.995265 ] ] ] ] } },
{ "type": "Feature", "properties": { "POLYGON_ID": "MWI_GAUL2009_ADM2_19330", "ADM0_ISO3": "MWI", "ADM0_NAME": "Malawi", "ADM0_CODE": 152, "ADM1_NAME": "Southern Region", "ADM1_CODE": 1890, "ADM2_NAME": "Zomba", "ADM2_CODE": 19330, "GEOSET": "GAUL", "GEOSET_YEAR": 2009.0, "GEOSET_VERSION": "GAUL_v1", "GEOSET_UNIT": "ADM2", "CENTROID_LONG": 35.437051060988217, "CENTROID_LAT": -15.396603732720344 }, "geometry": { "type": "MultiPolygon", "coordinates": [ [ [ [ 35.8114098, -15.1983633 ], [ 35.855792, -15.3681432 ], [ 35.8648458, -15.4408835 ], [ 35.8643806, -15.4490448 ], [ 35.6687965, -15.4509134 ], [ 35.610321, -15.5231056 ], [ 35.5405273, -15.5509176 ], [ 35.5254021, -15.5955706 ], [ 35.4464569, -15.6673059 ], [ 35.3269882, -15.6811857 ], [ 35.2521095, -15.6374207 ], [ 35.190834, -15.5227718 ], [ 35.1196594, -15.5381374 ], [ 35.1390915, -15.4727907 ], [ 35.0987015, -15.470932 ], [ 35.0576706, -15.4035158 ], [ 34.9899826, -15.3516226 ], [ 35.0390968, -15.3237839 ], [ 35.0981255, -15.2945423 ], [ 35.1611404, -15.2077236 ], [ 35.2940407, -15.2377329 ], [ 35.3469696, -15.1969919 ], [ 35.4282227, -15.2264996 ], [ 35.4915771, -15.2276936 ], [ 35.5343513, -15.2005777 ], [ 35.8114098, -15.1983633 ] ] ] ] } },
{ "type": "Feature", "properties": { "POLYGON_ID": "MWI_GAUL2009_ADM2_42174", "ADM0_ISO3": "MWI", "ADM0_NAME": "Malawi", "ADM0_CODE": 152, "ADM1_NAME": "Southern Region", "ADM1_CODE": 1890, "ADM2_NAME": "Balaka", "ADM2_CODE": 42174, "GEOSET": "GAUL", "GEOSET_YEAR": 2009.0, "GEOSET_VERSION": "GAUL_v1", "GEOSET_UNIT": "ADM2", "CENTROID_LONG": 35.057354896267825, "CENTROID_LAT": -15.037752885965595 }, "geometry": { "type": "MultiPolygon", "coordinates": [ [ [ [ 35.2811317, -14.7787275 ], [ 35.2989044, -14.8683348 ], [ 35.2894516, -14.9140921 ], [ 35.2357636, -15.0017662 ], [ 35.2031288, -15.1139603 ], [ 35.1611404, -15.2077236 ], [ 35.0981255, -15.2945423 ], [ 35.0390968, -15.3237839 ], [ 34.81213, -15.3274813 ], [ 34.8422928, -15.2354527 ], [ 34.9081535, -14.9904194 ], [ 34.8927155, -14.9566526 ], [ 34.9587135, -14.8479042 ], [ 34.9734192, -14.7746201 ], [ 35.1348038, -14.7691717 ], [ 35.1796799, -14.73736 ], [ 35.2340965, -14.7942467 ], [ 35.2811317, -14.7787275 ] ] ] ] } },
{ "type": "Feature", "properties": { "POLYGON_ID": "MWI_GAUL2009_ADM2_42175", "ADM0_ISO3": "MWI", "ADM0_NAME": "Malawi", "ADM0_CODE": 152, "ADM1_NAME": "Southern Region", "ADM1_CODE": 1890, "ADM2_NAME": "Machinga", "ADM2_CODE": 42175, "GEOSET": "GAUL", "GEOSET_YEAR": 2009.0, "GEOSET_VERSION": "GAUL_v1", "GEOSET_UNIT": "ADM2", "CENTROID_LONG": 35.576202439518482, "CENTROID_LAT": -14.936049014778851 }, "geometry": { "type": "MultiPolygon", "coordinates": [ [ [ [ 35.8741609, -14.6602517 ], [ 35.885544, -14.6737452 ], [ 35.8855457, -14.8934517 ], [ 35.932, -14.8934522 ], [ 35.803483, -15.1680401 ], [ 35.8114098, -15.1983633 ], [ 35.5343513, -15.2005777 ], [ 35.4915771, -15.2276936 ], [ 35.4282227, -15.2264996 ], [ 35.3469696, -15.1969919 ], [ 35.2940407, -15.2377329 ], [ 35.1611404, -15.2077236 ], [ 35.2031288, -15.1139603 ], [ 35.2357636, -15.0017662 ], [ 35.2894516, -14.9140921 ], [ 35.2989044, -14.8683348 ], [ 35.2811317, -14.7787275 ], [ 35.266304, -14.7274952 ], [ 35.2929039, -14.6917315 ], [ 35.3667603, -14.7684507 ], [ 35.4426308, -14.7943001 ], [ 35.4971237, -14.7664623 ], [ 35.500042, -14.7389116 ], [ 35.5555649, -14.7093496 ], [ 35.5492744, -14.650176 ], [ 35.5737801, -14.6147995 ], [ 35.656292, -14.5826073 ], [ 35.7497826, -14.5833406 ], [ 35.780065, -14.5487109 ], [ 35.8741609, -14.6602517 ] ] ] ] } },
{ "type": "Feature", "properties": { "POLYGON_ID": "MWI_GAUL2009_ADM2_42176", "ADM0_ISO3": "MWI", "ADM0_NAME": "Malawi", "ADM0_CODE": 152, "ADM1_NAME": "Southern Region", "ADM1_CODE": 1890, "ADM2_NAME": "Mulanje", "ADM2_CODE": 42176, "GEOSET": "GAUL", "GEOSET_YEAR": 2009.0, "GEOSET_VERSION": "GAUL_v1", "GEOSET_UNIT": "ADM2", "CENTROID_LONG": 35.511162763064497, "CENTROID_LAT": -15.939220875531943 }, "geometry": { "type": "MultiPolygon", "coordinates": [ [ [ [ 35.8268282, -15.9335815 ], [ 35.8112765, -15.9443679 ], [ 35.8052534, -15.9643233 ], [ 35.8081872, -15.9668125 ], [ 35.8077649, -15.9721021 ], [ 35.8091123, -15.9949006 ], [ 35.8125126, -15.9968693 ], [ 35.8147163, -15.9957256 ], [ 35.8160473, -15.9950348 ], [ 35.8179264, -15.9966903 ], [ 35.8187765, -16.0016119 ], [ 35.8190002, -16.0198219 ], [ 35.8173448, -16.0219695 ], [ 35.8137824, -16.0310627 ], [ 35.8135865, -16.0338709 ], [ 35.8097386, -16.036108 ], [ 35.8004323, -16.0413876 ], [ 35.7933183, -16.0427746 ], [ 35.7881282, -16.0470922 ], [ 35.7809012, -16.0513696 ], [ 35.7736858, -16.0540418 ], [ 35.7662028, -16.060656 ], [ 35.7649086, -16.0648287 ], [ 35.7627749, -16.0696244 ], [ 35.7195176, -16.0919971 ], [ 35.7127032, -16.0916657 ], [ 35.7109581, -16.093611 ], [ 35.7095351, -16.0956005 ], [ 35.7078684, -16.0979309 ], [ 35.7081831, -16.0992183 ], [ 35.7092071, -16.0996181 ], [ 35.7090542, -16.1014914 ], [ 35.7081545, -16.1016662 ], [ 35.7042637, -16.1024224 ], [ 35.6869271, -16.1026227 ], [ 35.68476, -16.1016321 ], [ 35.6618018, -16.0996295 ], [ 35.6570099, -16.1017036 ], [ 35.6542921, -16.1046002 ], [ 35.6344451, -16.1114662 ], [ 35.6296907, -16.113136 ], [ 35.6295825, -16.113174 ], [ 35.6271142, -16.1140409 ], [ 35.6246468, -16.1190116 ], [ 35.6257892, -16.1196857 ], [ 35.6282228, -16.1211215 ], [ 35.6210921, -16.1245723 ], [ 35.6195402, -16.1253234 ], [ 35.6151552, -16.1259682 ], [ 35.614624, -16.1259834 ], [ 35.6128172, -16.1240932 ], [ 35.6055107, -16.1254693 ], [ 35.5965391, -16.1290167 ], [ 35.5923051, -16.1321064 ], [ 35.5916829, -16.1320209 ], [ 35.5833106, -16.1308705 ], [ 35.5834021, -16.1287192 ], [ 35.5794199, -16.1240503 ], [ 35.5708877, -16.1264419 ], [ 35.5692033, -16.1275222 ], [ 35.5716567, -16.1323009 ], [ 35.5711392, -16.1330728 ], [ 35.5705765, -16.1339121 ], [ 35.5597557, -16.1224688 ], [ 35.5577416, -16.1212787 ], [ 35.555398, -16.1235308 ], [ 35.5555895, -16.1294073 ], [ 35.5522671, -16.1340586 ], [ 35.5444555, -16.1407312 ], [ 35.5427647, -16.1457623 ], [ 35.540885, -16.1513555 ], [ 35.5417134, -16.1549728 ], [ 35.5368652, -16.1615823 ], [ 35.5342376, -16.1620275 ], [ 35.5307592, -16.1611797 ], [ 35.5303243, -16.1616476 ], [ 35.5249554, -16.1674247 ], [ 35.5230886, -16.1679678 ], [ 35.5187782, -16.1673908 ], [ 35.5198982, -16.1607724 ], [ 35.5169115, -16.1572086 ], [ 35.5123974, -16.1556813 ], [ 35.5082973, -16.1577926 ], [ 35.4967169, -16.1514048 ], [ 35.4986855, -16.1521176 ], [ 35.5012688, -16.1506004 ], [ 35.5004164, -16.1460762 ], [ 35.4987697, -16.1453888 ], [ 35.4930174, -16.1429876 ], [ 35.4881979, -16.1317873 ], [ 35.4872815, -16.1229627 ], [ 35.4863312, -16.1201118 ], [ 35.4846465, -16.1212191 ], [ 35.4814777, -16.1233022 ], [ 35.4748932, -16.1215372 ], [ 35.4712616, -16.1194669 ], [ 35.4659987, -16.1226409 ], [ 35.4545168, -16.1188979 ], [ 35.4506854, -16.1150405 ], [ 35.4506338, -16.1150161 ], [ 35.4397042, -16.1134801 ], [ 35.437802, -16.1132128 ], [ 35.429628, -16.1135534 ], [ 35.4293688, -16.1140997 ], [ 35.4276893, -16.1176404 ], [ 35.3797098, -16.1545819 ], [ 35.3773877, -16.1538209 ], [ 35.3745058, -16.155157 ], [ 35.3701044, -16.164248 ], [ 35.3236535, -16.2001039 ], [ 35.3153735, -16.2058827 ], [ 35.3136799, -16.2070647 ], [ 35.3080464, -16.2160436 ], [ 35.2792587, -16.1868038 ], [ 35.3314514, -16.1089153 ], [ 35.3077927, -15.995265 ], [ 35.3256149, -15.9482775 ], [ 35.3021393, -15.7390566 ], [ 35.3269882, -15.6811857 ], [ 35.4464569, -15.6673059 ], [ 35.5254021, -15.5955706 ], [ 35.5023537, -15.6653013 ], [ 35.5183296, -15.731698 ], [ 35.5056915, -15.7785978 ], [ 35.5374107, -15.8328981 ], [ 35.5840073, -15.8736706 ], [ 35.6284904, -15.8309183 ], [ 35.679348, -15.8313618 ], [ 35.7418747, -15.8722916 ], [ 35.7864151, -15.9301643 ], [ 35.8268282, -15.9335815 ] ] ] ] } },
{ "type": "Feature", "properties": { "POLYGON_ID": "MWI_GAUL2009_ADM2_42177", "ADM0_ISO3": "MWI", "ADM0_NAME": "Malawi", "ADM0_CODE": 152, "ADM1_NAME": "Southern Region", "ADM1_CODE": 1890, "ADM2_NAME": "Phalombe", "ADM2_CODE": 42177, "GEOSET": "GAUL", "GEOSET_YEAR": 2009.0, "GEOSET_VERSION": "GAUL_v1", "GEOSET_UNIT": "ADM2", "CENTROID_LONG": 35.696839328683673, "CENTROID_LAT": -15.669896648221661 }, "geometry": { "type": "MultiPolygon", "coordinates": [ [ [ [ 35.8268282, -15.9335815 ], [ 35.7864151, -15.9301643 ], [ 35.7418747, -15.8722916 ], [ 35.679348, -15.8313618 ], [ 35.6284904, -15.8309183 ], [ 35.5840073, -15.8736706 ], [ 35.5374107, -15.8328981 ], [ 35.5056915, -15.7785978 ], [ 35.5183296, -15.731698 ], [ 35.5023537, -15.6653013 ], [ 35.5254021, -15.5955706 ], [ 35.5405273, -15.5509176 ], [ 35.610321, -15.5231056 ], [ 35.6687965, -15.4509134 ], [ 35.8643806, -15.4490448 ], [ 35.841989, -15.6976311 ], [ 35.826872, -15.9335511 ], [ 35.8268282, -15.9335815 ] ] ] ] } },
{ "type": "Feature", "properties": { "POLYGON_ID": "MWI_GAUL2009_ADM2_65269", "ADM0_ISO3": "MWI", "ADM0_NAME": "Malawi", "ADM0_CODE": 152, "ADM1_NAME": "Area under National Administration", "ADM1_CODE": 65268, "ADM2_NAME": "Area under National Administration", "ADM2_CODE": 65269, "GEOSET": "GAUL", "GEOSET_YEAR": 2009.0, "GEOSET_VERSION": "GAUL_v1", "GEOSET_UNIT": "ADM2", "CENTROID_LONG": 34.461203503400739, "CENTROID_LAT": -11.838011864528388 }, "geometry": { "type": "MultiPolygon", "coordinates": [ [ [ [ 34.0777563, -9.5286598 ], [ 34.1231076, -9.5685538 ], [ 34.13569, -9.58067 ], [ 34.1459546, -9.5908531 ], [ 34.1553, -9.59731 ], [ 34.16568, -9.60724 ], [ 34.1729192, -9.6111485 ], [ 34.1747, -9.61211 ], [ 34.19636, -9.63795 ], [ 34.2163598, -9.653893 ], [ 34.23819, -9.67465 ], [ 34.24575, -9.68184 ], [ 34.30602, -9.74021 ], [ 34.3622484, -9.8190789 ], [ 34.39384, -9.8654 ], [ 34.39592, -9.86751 ], [ 34.42873, -9.9007 ], [ 34.4580399, -9.9412698 ], [ 34.47099, -9.95028 ], [ 34.51447, -10.00129 ], [ 34.5184327, -10.0075048 ], [ 34.53513, -10.0571607 ], [ 34.53512, -10.06084 ], [ 34.53898, -10.0642 ], [ 34.53018, -10.07968 ], [ 34.52129, -10.11279 ], [ 34.5213688, -10.1139234 ], [ 34.53581, -10.1436 ], [ 34.54205, -10.15763 ], [ 34.54321, -10.15764 ], [ 34.5475168, -10.1652299 ], [ 34.5483, -10.16661 ], [ 34.55068, -10.17468 ], [ 34.5550642, -10.2143339 ], [ 34.55258, -10.23146 ], [ 34.5698389, -10.3076319 ], [ 34.5418386, -10.3955813 ], [ 34.54162, -10.4148 ], [ 34.56315, -10.43912 ], [ 34.56941, -10.44397 ], [ 34.57056, -10.44789 ], [ 34.56798, -10.45363 ], [ 34.56843, -10.45661 ], [ 34.5684357, -10.4566154 ], [ 34.574, -10.46192 ], [ 34.57115, -10.47985 ], [ 34.5532, -10.49796 ], [ 34.5604032, -10.5201751 ], [ 34.55823, -10.52212 ], [ 34.5502873, -10.5244632 ], [ 34.5528697, -10.5278496 ], [ 34.5917745, -10.5905322 ], [ 34.59151, -10.59129 ], [ 34.6494, -10.74774 ], [ 34.6505025, -10.7520328 ], [ 34.65037, -10.81534 ], [ 34.64776, -10.83212 ], [ 34.63649, -10.94684 ], [ 34.6071393, -10.9836553 ], [ 34.60422, -10.98952 ], [ 34.61336, -11.0498 ], [ 34.62012, -11.04752 ], [ 34.6229829, -11.0491254 ], [ 34.6358263, -11.0580903 ], [ 34.6382198, -11.0682693 ], [ 34.6372816, -11.0685193 ], [ 34.6344657, -11.0746976 ], [ 34.6372592, -11.0804512 ], [ 34.63972, -11.12159 ], [ 34.646, -11.1262 ], [ 34.69792, -11.15068 ], [ 34.7022091, -11.1567999 ], [ 34.7311999, -11.1922838 ], [ 34.73312, -11.19842 ], [ 34.73803, -11.21317 ], [ 34.7389125, -11.214275 ], [ 34.79052, -11.28347 ], [ 34.78342, -11.32646 ], [ 34.79579, -11.32143 ], [ 34.7990894, -11.3213538 ], [ 34.80488, -11.32122 ], [ 34.83354, -11.33163 ], [ 34.848046, -11.338587 ], [ 34.86882, -11.34855 ], [ 34.91015, -11.37779 ], [ 34.915008, -11.3876987 ], [ 34.922, -11.40196 ], [ 34.92571, -11.41508 ], [ 34.9294387, -11.4390321 ], [ 34.93105, -11.4494 ], [ 34.9331175, -11.4626461 ], [ 34.93631, -11.4831 ], [ 34.9579185, -11.5712741 ], [ 34.959217, -11.5728911 ], [ 34.9595702, -11.5733309 ], [ 34.9581805, -11.5733308 ], [ 34.9086987, -11.5733272 ], [ 34.8676398, -11.5733242 ], [ 34.6127411, -11.5733055 ], [ 34.6377547, -11.6400039 ], [ 34.6446308, -11.6637576 ], [ 34.6462783, -11.685586 ], [ 34.6368056, -11.7317137 ], [ 34.553199, -11.8544466 ], [ 34.542611, -11.893991 ], [ 34.5466093, -11.921579 ], [ 34.5433145, -11.9335228 ], [ 34.5359011, -11.9462903 ], [ 34.5007512, -11.9869365 ], [ 34.4947155, -11.9990078 ], [ 34.492229, -12.001756 ], [ 34.4868903, -12.0076567 ], [ 34.4634145, -12.0418407 ], [ 34.447764, -12.072318 ], [ 34.3835146, -12.1505705 ], [ 34.3600389, -12.2065828 ], [ 34.3563322, -12.2584766 ], [ 34.359627, -12.2922487 ], [ 34.3658049, -12.3120177 ], [ 34.3958703, -12.3713249 ], [ 34.4185223, -12.4149815 ], [ 34.4220231, -12.4718176 ], [ 34.4257298, -12.4911747 ], [ 34.4718647, -12.5626598 ], [ 34.4772117, -12.5756051 ], [ 34.4829777, -12.6312055 ], [ 34.4936859, -12.6793926 ], [ 34.5186664, -12.7842356 ], [ 34.5183972, -12.8025373 ], [ 34.5748214, -13.0488267 ], [ 34.5632894, -13.2753471 ], [ 34.5505219, -13.3107666 ], [ 34.5583472, -13.3828413 ], [ 34.5669961, -13.406317 ], [ 34.5799655, -13.4353042 ], [ 34.604306, -13.4813324 ], [ 34.6827746, -13.4813365 ], [ 34.865277, -13.481346 ], [ 34.8663819, -13.4813461 ], [ 34.8514442, -13.5525637 ], [ 34.8619728, -13.7252789 ], [ 34.9115448, -13.7330437 ], [ 35.0002327, -13.7231579 ], [ 35.0614853, -13.736681 ], [ 35.0840874, -13.8240833 ], [ 35.1101532, -13.8584194 ], [ 35.1451645, -14.001462 ], [ 35.1822777, -14.0488729 ], [ 35.1801605, -14.1218472 ], [ 35.227417, -14.253067 ], [ 35.2935677, -14.3472471 ], [ 35.2748146, -14.3926716 ], [ 35.1801796, -14.369689 ], [ 35.1382561, -14.301734 ], [ 35.0897865, -14.2657089 ], [ 35.0833855, -14.2287483 ], [ 35.0373383, -14.1740351 ], [ 35.008812, -14.1811438 ], [ 34.9409409, -14.1536589 ], [ 34.9166374, -14.0448265 ], [ 34.8631783, -13.997467 ], [ 34.8248596, -14.0466576 ], [ 34.8564911, -14.0986052 ], [ 34.8106613, -14.1493263 ], [ 34.8083191, -14.2517061 ], [ 34.738884, -14.2771511 ], [ 34.6900826, -14.2880516 ], [ 34.6937485, -14.2346497 ], [ 34.6139297, -14.201766 ], [ 34.594799, -14.151906 ], [ 34.5509682, -14.105114 ], [ 34.5165253, -13.9672575 ], [ 34.5712242, -13.9146423 ], [ 34.5826569, -13.8350639 ], [ 34.6206284, -13.775732 ], [ 34.6303482, -13.7131319 ], [ 34.5958252, -13.6866446 ], [ 34.5255394, -13.5990906 ], [ 34.4852676, -13.5791292 ], [ 34.4421501, -13.5926714 ], [ 34.3681793, -13.4951229 ], [ 34.3273582, -13.4167042 ], [ 34.2990112, -13.3356352 ], [ 34.3465805, -13.2679138 ], [ 34.3251076, -13.0836678 ], [ 34.333725, -13.0246029 ], [ 34.3030701, -12.9455204 ], [ 34.2969818, -12.875371 ], [ 34.2557716, -12.8214664 ], [ 34.2720642, -12.7633772 ], [ 34.2047729, -12.697588 ], [ 34.1751213, -12.6260719 ], [ 34.173172, -12.5714302 ], [ 34.1987534, -12.5270205 ], [ 34.1622925, -12.4022274 ], [ 34.1141777, -12.4002504 ], [ 34.0725174, -12.3679552 ], [ 34.0153122, -12.2588224 ], [ 34.021801, -12.2352056 ], [ 34.0357628, -12.1334047 ], [ 34.060318, -12.0851326 ], [ 34.0519333, -12.022933 ], [ 34.0801964, -11.9778194 ], [ 34.1793327, -11.9206429 ], [ 34.1759758, -11.820466 ], [ 34.2359467, -11.783988 ], [ 34.2518692, -11.7498913 ], [ 34.3006439, -11.72894 ], [ 34.3263359, -11.6696501 ], [ 34.3037682, -11.5791054 ], [ 34.2734146, -11.5162516 ], [ 34.2810516, -11.4628944 ], [ 34.2576523, -11.3255768 ], [ 34.2265053, -11.2998819 ], [ 34.2080116, -11.2040329 ], [ 34.225296, -11.1027098 ], [ 34.2186356, -10.9980211 ], [ 34.2225876, -10.9338274 ], [ 34.20401, -10.7747993 ], [ 34.1866379, -10.7042122 ], [ 34.1975479, -10.6309395 ], [ 34.1778793, -10.5813847 ], [ 34.2308769, -10.5278091 ], [ 34.2079315, -10.5063572 ], [ 34.2538605, -10.4011526 ], [ 34.1743927, -10.3037672 ], [ 34.1778717, -10.2863369 ], [ 34.1080666, -10.231761 ], [ 34.0652275, -10.1659746 ], [ 34.000927, -10.1018839 ], [ 34.004715, -10.06812 ], [ 33.9385262, -9.9691534 ], [ 33.9472504, -9.9028978 ], [ 33.9043465, -9.8387384 ], [ 33.8874207, -9.7507353 ], [ 33.9212265, -9.7212782 ], [ 33.9386559, -9.7174597 ], [ 33.9391249, -9.7114537 ], [ 33.9397785, -9.7106081 ], [ 33.9477751, -9.6881755 ], [ 33.95039, -9.67783 ], [ 33.95494, -9.66416 ], [ 33.9561485, -9.6538159 ], [ 33.95737, -9.64336 ], [ 33.9669617, -9.6252683 ], [ 33.96665, -9.62176 ], [ 33.95555, -9.59668 ], [ 33.9473855, -9.5832856 ], [ 33.94623, -9.58139 ], [ 33.94535, -9.57219 ], [ 33.9479536, -9.5649837 ], [ 33.95405, -9.54811 ], [ 33.95472, -9.54626 ], [ 33.96476, -9.52838 ], [ 33.9731026, -9.5216918 ], [ 33.98614, -9.51124 ], [ 33.9982117, -9.5042716 ], [ 34.01436, -9.49495 ], [ 34.07573, -9.5266 ], [ 34.0777563, -9.5286598 ] ] ] ] } },
{ "type": "Feature", "properties": { "POLYGON_ID": "MWI_GAUL2009_ADM2_65270", "ADM0_ISO3": "MWI", "ADM0_NAME": "Malawi", "ADM0_CODE": 152, "ADM1_NAME": "Southern Region", "ADM1_CODE": 1890, "ADM2_NAME": "Neno", "ADM2_CODE": 65270, "GEOSET": "GAUL", "GEOSET_YEAR": 2009.0, "GEOSET_VERSION": "GAUL_v1", "GEOSET_UNIT": "ADM2", "CENTROID_LONG": 34.694195942134961, "CENTROID_LAT": -15.456891898721365 }, "geometry": { "type": "MultiPolygon", "coordinates": [ [ [ [ 34.81213, -15.3274813 ], [ 35.0390968, -15.3237839 ], [ 34.9899826, -15.3516226 ], [ 34.9230766, -15.360795 ], [ 34.880867, -15.4161348 ], [ 34.8582878, -15.4799938 ], [ 34.7486038, -15.5808878 ], [ 34.7635574, -15.6591759 ], [ 34.7195053, -15.6966858 ], [ 34.7361145, -15.8169966 ], [ 34.7304497, -15.8167887 ], [ 34.5985451, -15.6772585 ], [ 34.5724945, -15.5797005 ], [ 34.5014992, -15.4724083 ], [ 34.4918662, -15.4119839 ], [ 34.5185623, -15.3909708 ], [ 34.5218394, -15.3862373 ], [ 34.5190067, -15.3813015 ], [ 34.520848, -15.3509072 ], [ 34.5753661, -15.3224612 ], [ 34.5755672, -15.3117588 ], [ 34.5721805, -15.3095892 ], [ 34.5993935, -15.2503523 ], [ 34.6040937, -15.2467394 ], [ 34.6036913, -15.2370026 ], [ 34.583248, -15.2089235 ], [ 34.773201, -15.247076 ], [ 34.81213, -15.3274813 ] ] ] ] } },
{ "type": "Feature", "properties": { "POLYGON_ID": "MWI_GAUL2009_ADM2_65271", "ADM0_ISO3": "MWI", "ADM0_NAME": "Malawi", "ADM0_CODE": 152, "ADM1_NAME": "Southern Region", "ADM1_CODE": 1890, "ADM2_NAME": "Mwanza", "ADM2_CODE": 65271, "GEOSET": "GAUL", "GEOSET_YEAR": 2009.0, "GEOSET_VERSION": "GAUL_v1", "GEOSET_UNIT": "ADM2", "CENTROID_LONG": 34.518807226771131, "CENTROID_LAT": -15.669647671222855 }, "geometry": { "type": "MultiPolygon", "coordinates": [ [ [ [ 34.7304497, -15.8167887 ], [ 34.5243034, -15.810195 ], [ 34.354135, -15.7409314 ], [ 34.3915552, -15.6827795 ], [ 34.4256111, -15.6624737 ], [ 34.4351667, -15.6608905 ], [ 34.4331066, -15.6549941 ], [ 34.430002, -15.6461079 ], [ 34.4509413, -15.6031586 ], [ 34.4534722, -15.597702 ], [ 34.4501085, -15.5895362 ], [ 34.4458333, -15.5887862 ], [ 34.4267811, -15.4949417 ], [ 34.4279382, -15.485807 ], [ 34.4263679, -15.4820878 ], [ 34.440696, -15.4582232 ], [ 34.4918662, -15.4119839 ], [ 34.5014992, -15.4724083 ], [ 34.5724945, -15.5797005 ], [ 34.5985451, -15.6772585 ], [ 34.7304497, -15.8167887 ] ] ] ] } }
]
}
