{
"type": "FeatureCollection",
"name": "MYS_GAUL2004_ADM0",
"crs": { "type": "name", "properties": { "name": "urn:ogc:def:crs:OGC:1.3:CRS84" } },
"features": [
{ "type": "Feature", "properties": { "POLYGON_ID": "MYS_GAUL2004_ADM0_153", "ADM0_ISO3": "MYS", "ADM0_NAME": "Malaysia", "ADM0_CODE": 153, "GEOSET": "GAUL", "GEOSET_YEAR": 2004.0, "GEOSET_VERSION": "GAUL_v1", "GEOSET_UNIT": "ADM0", "CENTROID_LONG": 109.70955759874845, "CENTROID_LAT": 3.7894379658623536 }, "geometry": { "type": "MultiPolygon", "coordinates": [ [ [ [ 117.585999, 4.1776381 ], [ 117.5712521, 4.1812682 ], [ 117.5251071, 4.1632083 ], [ 117.4672501, 4.1768312 ], [ 117.44029, 4.19412 ], [ 117.4066835, 4.2552087 ], [ 117.36991, 4.28343 ], [ 117.2933837, 4.3131534 ], [ 117.2627702, 4.3582682 ], [ 117.224906, 4.3694462 ], [ 117.1990668, 4.3341625 ], [ 117.1764328, 4.327598 ], [ 117.14415, 4.3533 ], [ 117.11143, 4.33635 ], [ 117.07246, 4.33603 ], [ 117.03611, 4.34489 ], [ 117.0145576, 4.3204703 ], [ 117.0017398, 4.34637 ], [ 116.97375, 4.3441 ], [ 116.94596, 4.36047 ], [ 116.90615, 4.36982 ], [ 116.86965, 4.33955 ], [ 116.82764, 4.33234 ], [ 116.81017, 4.35114 ], [ 116.78297, 4.35968 ], [ 116.75185, 4.38965 ], [ 116.73551, 4.35804 ], [ 116.6995785, 4.3383405 ], [ 116.6666878, 4.3524492 ], [ 116.6191481, 4.3395451 ], [ 116.6113855, 4.3777901 ], [ 116.58807, 4.37663 ], [ 116.5621, 4.39412 ], [ 116.5365, 4.37686 ], [ 116.53352, 4.32602 ], [ 116.48728, 4.33287 ], [ 116.46822, 4.30266 ], [ 116.43737, 4.28829 ], [ 116.42946, 4.32578 ], [ 116.3961, 4.36289 ], [ 116.35095, 4.3909 ], [ 116.27599, 4.36324 ], [ 116.24723, 4.37706 ], [ 116.160773, 4.3792144 ], [ 116.156641, 4.3471423 ], [ 116.0983995, 4.3170378 ], [ 116.0801007, 4.2776854 ], [ 116.0318941, 4.3007065 ], [ 116.0338617, 4.3284499 ], [ 116.0033637, 4.3467488 ], [ 115.9569279, 4.3595383 ], [ 115.929578, 4.3552095 ], [ 115.9057699, 4.396136 ], [ 115.8754686, 4.3876752 ], [ 115.8646467, 4.3406492 ], [ 115.8705495, 4.287917 ], [ 115.8247041, 4.2619445 ], [ 115.8292296, 4.2345946 ], [ 115.8028635, 4.2214116 ], [ 115.789287, 4.2519097 ], [ 115.7662659, 4.2483679 ], [ 115.7522958, 4.2127541 ], [ 115.7282909, 4.189733 ], [ 115.7025151, 4.1924876 ], [ 115.6814616, 4.1543159 ], [ 115.6785102, 4.0925327 ], [ 115.6489959, 4.0102863 ], [ 115.6391578, 3.9616862 ], [ 115.616727, 3.9374845 ], [ 115.5807196, 3.9400424 ], [ 115.5608467, 3.9172181 ], [ 115.604331, 3.8757014 ], [ 115.6169238, 3.8400875 ], [ 115.5769812, 3.7450516 ], [ 115.5830808, 3.6976321 ], [ 115.5720621, 3.6840555 ], [ 115.5742124, 3.616962 ], [ 115.5879565, 3.5799585 ], [ 115.6119207, 3.5542322 ], [ 115.6115683, 3.5066563 ], [ 115.6570297, 3.44005 ], [ 115.6224931, 3.4115044 ], [ 115.6069869, 3.4541465 ], [ 115.5844324, 3.4640141 ], [ 115.5784414, 3.4174955 ], [ 115.5446096, 3.3646333 ], [ 115.5431999, 3.328687 ], [ 115.5312178, 3.2860449 ], [ 115.5174737, 3.2056945 ], [ 115.5220551, 3.184902 ], [ 115.5456668, 3.1813779 ], [ 115.5544772, 3.1468413 ], [ 115.5326275, 3.139793 ], [ 115.5114826, 3.0929219 ], [ 115.5174737, 3.0569756 ], [ 115.4818798, 3.016448 ], [ 115.4529819, 3.0270204 ], [ 115.4233791, 3.0132762 ], [ 115.4036439, 2.9843783 ], [ 115.3250555, 2.9790921 ], [ 115.32087, 3.01449 ], [ 115.2847132, 3.0483111 ], [ 115.2525522, 2.9961999 ], [ 115.2499724, 2.9674785 ], [ 115.221079, 2.961631 ], [ 115.1902938, 2.9337696 ], [ 115.1632923, 2.9274062 ], [ 115.1478137, 2.8990287 ], [ 115.1521133, 2.8701354 ], [ 115.0955305, 2.8183681 ], [ 115.1536612, 2.7932584 ], [ 115.1316472, 2.7377074 ], [ 115.1015499, 2.721025 ], [ 115.0984542, 2.7033106 ], [ 115.1153087, 2.6603145 ], [ 115.1134168, 2.6364087 ], [ 115.0926067, 2.6040756 ], [ 115.134055, 2.5851573 ], [ 115.1512534, 2.6075153 ], [ 115.1761911, 2.610611 ], [ 115.20789, 2.55577 ], [ 115.23586, 2.53325 ], [ 115.2485965, 2.5087963 ], [ 115.2052565, 2.4728516 ], [ 115.1846184, 2.4802469 ], [ 115.144374, 2.4762913 ], [ 115.0986262, 2.4252119 ], [ 115.0871032, 2.40251 ], [ 115.0499546, 2.4045738 ], [ 115.0288006, 2.3775723 ], [ 114.991136, 2.3483349 ], [ 114.9610387, 2.3638135 ], [ 114.9486559, 2.3230532 ], [ 114.9679181, 2.2912361 ], [ 114.936273, 2.2798852 ], [ 114.9132271, 2.2532276 ], [ 114.8621477, 2.2607949 ], [ 114.8255151, 2.2444564 ], [ 114.7988575, 2.248756 ], [ 114.7875065, 2.2006004 ], [ 114.7574093, 2.1945809 ], [ 114.7586132, 2.1419537 ], [ 114.7838949, 2.1302588 ], [ 114.804705, 2.1037732 ], [ 114.7880225, 2.0575094 ], [ 114.8016093, 2.0236285 ], [ 114.8232793, 2.0253484 ], [ 114.859052, 2.0447826 ], [ 114.8839898, 2.029132 ], [ 114.8685112, 2.0115896 ], [ 114.8687599, 1.9833736 ], [ 114.8512307, 1.9700514 ], [ 114.8545028, 1.9420048 ], [ 114.8825495, 1.9137244 ], [ 114.8570738, 1.8952603 ], [ 114.821548, 1.8926894 ], [ 114.7946699, 1.849217 ], [ 114.7518987, 1.8667462 ], [ 114.7257218, 1.8478147 ], [ 114.7273579, 1.8305192 ], [ 114.7023496, 1.8139249 ], [ 114.7147369, 1.7854108 ], [ 114.7086601, 1.7433408 ], [ 114.7131008, 1.6589671 ], [ 114.7049206, 1.636296 ], [ 114.6689273, 1.6012377 ], [ 114.6095619, 1.5750608 ], [ 114.5997455, 1.5336919 ], [ 114.6161061, 1.5152279 ], [ 114.5906304, 1.4745602 ], [ 114.5826838, 1.4411379 ], [ 114.5527673, 1.4322564 ], [ 114.4957391, 1.4745602 ], [ 114.4735355, 1.4743265 ], [ 114.4073921, 1.5149941 ], [ 114.332601, 1.4841428 ], [ 114.281182, 1.4518891 ], [ 114.2484609, 1.4514217 ], [ 114.2220503, 1.4236087 ], [ 114.201249, 1.4212715 ], [ 114.1355731, 1.4666136 ], [ 114.0972426, 1.4661462 ], [ 114.0448888, 1.4518891 ], [ 113.9745384, 1.4493182 ], [ 113.9474266, 1.4371646 ], [ 113.9345719, 1.4140261 ], [ 113.912602, 1.4144936 ], [ 113.8756739, 1.389719 ], [ 113.8480946, 1.3883167 ], [ 113.8207491, 1.3735922 ], [ 113.8298643, 1.3375989 ], [ 113.8039211, 1.301372 ], [ 113.7550732, 1.2768311 ], [ 113.7031868, 1.2658462 ], [ 113.68986, 1.24345 ], [ 113.6571435, 1.2228413 ], [ 113.6316678, 1.2191017 ], [ 113.6258247, 1.2534589 ], [ 113.5966095, 1.2628078 ], [ 113.579314, 1.3086174 ], [ 113.5377114, 1.322407 ], [ 113.4666599, 1.3044104 ], [ 113.4540389, 1.2875823 ], [ 113.4206166, 1.2852451 ], [ 113.3981792, 1.3177325 ], [ 113.3698988, 1.3235756 ], [ 113.3575116, 1.3574653 ], [ 113.2315352, 1.3946272 ], [ 113.1838559, 1.377098 ], [ 113.1410847, 1.3948609 ], [ 113.1060264, 1.4455786 ], [ 113.08814, 1.42742 ], [ 113.0433888, 1.423375 ], [ 113.0176794, 1.4053784 ], [ 112.9812187, 1.4086505 ], [ 112.9751419, 1.4378658 ], [ 113.0401167, 1.4794683 ], [ 113.0426876, 1.5135918 ], [ 113.0679296, 1.539535 ], [ 113.0569447, 1.5575316 ], [ 112.9886978, 1.579034 ], [ 112.9830885, 1.5638421 ], [ 112.9232555, 1.5708538 ], [ 112.8899298, 1.5855996 ], [ 112.864825, 1.56057 ], [ 112.8045246, 1.5421059 ], [ 112.786528, 1.5591676 ], [ 112.7294998, 1.5671142 ], [ 112.6776134, 1.5526234 ], [ 112.6596168, 1.5708538 ], [ 112.4864286, 1.5804364 ], [ 112.4443586, 1.5386001 ], [ 112.3955106, 1.5266803 ], [ 112.3520383, 1.5044766 ], [ 112.3321719, 1.5070476 ], [ 112.2611203, 1.4610043 ], [ 112.2115712, 1.4476821 ], [ 112.1994176, 1.4093517 ], [ 112.2316713, 1.3763968 ], [ 112.202456, 1.3137592 ], [ 112.1788501, 1.3039429 ], [ 112.1739419, 1.2529914 ], [ 112.1585162, 1.2380332 ], [ 112.1587499, 1.1968981 ], [ 112.1416882, 1.1669816 ], [ 112.1432631, 1.1396686 ], [ 111.93053, 1.11446 ], [ 111.92542, 1.09034 ], [ 111.8838, 1.06795 ], [ 111.85895, 1.00895 ], [ 111.8282894, 0.9876698 ], [ 111.7765306, 0.9996613 ], [ 111.7705067, 1.0177329 ], [ 111.7219989, 1.0053681 ], [ 111.70834, 1.02573 ], [ 111.6657, 1.03988 ], [ 111.58637, 1.0031 ], [ 111.5797, 0.98312 ], [ 111.54933, 0.98205 ], [ 111.54399, 0.9492 ], [ 111.5181389, 0.9666887 ], [ 111.5149685, 1.0012466 ], [ 111.4883367, 1.0342192 ], [ 111.4655095, 1.0351704 ], [ 111.4471209, 1.0142454 ], [ 111.417238, 1.0081504 ], [ 111.3849801, 1.0151965 ], [ 111.3443983, 1.039926 ], [ 111.2885984, 1.0548272 ], [ 111.2438951, 1.0786055 ], [ 111.1858758, 1.0598999 ], [ 111.1348316, 1.0497544 ], [ 111.0774464, 1.0513397 ], [ 111.0492294, 1.039926 ], [ 110.9769432, 1.0272442 ], [ 110.898316, 1.0281954 ], [ 110.8916581, 0.9869795 ], [ 110.85375, 0.95264 ], [ 110.8106, 0.94813 ], [ 110.80915, 0.90745 ], [ 110.78382, 0.91117 ], [ 110.71785, 0.9067 ], [ 110.67946, 0.8801 ], [ 110.62947, 0.87719 ], [ 110.5719097, 0.8552204 ], [ 110.4912303, 0.8791842 ], [ 110.46333, 0.89193 ], [ 110.4047497, 0.9457905 ], [ 110.39388, 0.99293 ], [ 110.3575673, 0.9830902 ], [ 110.3091967, 1.0026898 ], [ 110.27905, 0.99123 ], [ 110.2601045, 1.0754351 ], [ 110.2315705, 1.1112612 ], [ 110.2093773, 1.1195043 ], [ 110.2119137, 1.1518429 ], [ 110.1884524, 1.1857667 ], [ 110.1589672, 1.1993997 ], [ 110.0911899, 1.1969501 ], [ 110.06269, 1.2287 ], [ 110.05268, 1.26619 ], [ 109.99928, 1.29566 ], [ 109.97873, 1.29729 ], [ 109.96347, 1.33869 ], [ 109.95576, 1.39986 ], [ 109.93135, 1.41873 ], [ 109.8948687, 1.4162584 ], [ 109.8469949, 1.4254527 ], [ 109.8311427, 1.4517675 ], [ 109.79162, 1.47677 ], [ 109.79324, 1.49401 ], [ 109.751, 1.52945 ], [ 109.6807, 1.6109 ], [ 109.65331, 1.63506 ], [ 109.6659623, 1.6537251 ], [ 109.6612066, 1.6917705 ], [ 109.6818145, 1.7859329 ], [ 109.6212589, 1.8040044 ], [ 109.6000169, 1.7970294 ], [ 109.57801, 1.81057 ], [ 109.5778238, 1.836026 ], [ 109.55084, 1.85704 ], [ 109.53602, 1.92145 ], [ 109.57465, 1.93685 ], [ 109.58197, 1.96399 ], [ 109.6190396, 1.9821837 ], [ 109.6390134, 2.0272041 ], [ 109.628868, 2.0357643 ], [ 109.6429732, 2.0759545 ], [ 109.6524582, 2.0418279 ], [ 109.6426315, 2.0116341 ], [ 109.6505508, 1.991695 ], [ 109.6407928, 1.9539169 ], [ 109.6468201, 1.911665 ], [ 109.6783371, 1.882025 ], [ 109.6984711, 1.848619 ], [ 109.7649002, 1.825224 ], [ 109.8398438, 1.793153 ], [ 109.8502731, 1.772314 ], [ 109.8755035, 1.758713 ], [ 109.8683701, 1.733374 ], [ 109.9077835, 1.7168909 ], [ 109.9260178, 1.6901351 ], [ 109.9441986, 1.7026819 ], [ 110.0800934, 1.7036811 ], [ 110.1134567, 1.700016 ], [ 110.1835327, 1.709254 ], [ 110.2586365, 1.7132349 ], [ 110.281517, 1.7065001 ], [ 110.2898865, 1.686102 ], [ 110.3184509, 1.718711 ], [ 110.3000336, 1.738361 ], [ 110.3218384, 1.7918301 ], [ 110.3478622, 1.76006 ], [ 110.3474274, 1.722131 ], [ 110.4176102, 1.6794031 ], [ 110.4393234, 1.711501 ], [ 110.4396362, 1.73288 ], [ 110.4967422, 1.732808 ], [ 110.4861526, 1.675733 ], [ 110.471962, 1.6459869 ], [ 110.5099869, 1.629006 ], [ 110.526062, 1.58039 ], [ 110.5506363, 1.593425 ], [ 110.5980911, 1.601786 ], [ 110.6650467, 1.559709 ], [ 110.7082291, 1.5563129 ], [ 110.730278, 1.536232 ], [ 110.7342834, 1.4811009 ], [ 110.7561493, 1.4890561 ], [ 110.7654724, 1.568405 ], [ 110.7838898, 1.581164 ], [ 110.8138733, 1.571702 ], [ 110.8668137, 1.5398619 ], [ 110.9372635, 1.520539 ], [ 111.0058517, 1.469484 ], [ 111.0275421, 1.431239 ], [ 111.0615082, 1.401572 ], [ 111.1104202, 1.3929051 ], [ 111.1491623, 1.365332 ], [ 111.1911469, 1.369258 ], [ 111.2129364, 1.391217 ], [ 111.2503662, 1.393504 ], [ 111.2833481, 1.3355589 ], [ 111.3126373, 1.323779 ], [ 111.3043137, 1.3853149 ], [ 111.2527618, 1.416039 ], [ 111.1923065, 1.405802 ], [ 111.1675415, 1.3861229 ], [ 111.1209869, 1.4210041 ], [ 111.0626297, 1.4431731 ], [ 111.045929, 1.4878839 ], [ 111.0192566, 1.5185169 ], [ 110.9973068, 1.523898 ], [ 110.9865265, 1.568877 ], [ 111.009819, 1.6467049 ], [ 111.0311127, 1.676255 ], [ 111.0653687, 1.6762331 ], [ 111.0901871, 1.6881059 ], [ 111.1562729, 1.6763201 ], [ 111.1454163, 1.6967111 ], [ 111.1177597, 1.7016031 ], [ 111.1036072, 1.737375 ], [ 111.0796967, 1.765043 ], [ 111.1051102, 1.7941591 ], [ 111.096962, 1.820774 ], [ 111.1674118, 1.96395 ], [ 111.1680832, 2.005794 ], [ 111.1939774, 2.070549 ], [ 111.217392, 2.092988 ], [ 111.2363892, 2.1289649 ], [ 111.2683868, 2.1273119 ], [ 111.3135529, 2.1013641 ], [ 111.3157196, 2.122298 ], [ 111.2852173, 2.1412041 ], [ 111.245163, 2.1529269 ], [ 111.1725616, 2.140084 ], [ 111.1571579, 2.156086 ], [ 111.1697769, 2.18697 ], [ 111.2004929, 2.213362 ], [ 111.2016602, 2.2473981 ], [ 111.1767273, 2.251159 ], [ 111.1896896, 2.3020499 ], [ 111.1871872, 2.380213 ], [ 111.2298203, 2.440249 ], [ 111.2544098, 2.4171691 ], [ 111.3034592, 2.394459 ], [ 111.3448868, 2.3425009 ], [ 111.3616104, 2.3373082 ], [ 111.3838577, 2.364337 ], [ 111.4451523, 2.3593941 ], [ 111.4725266, 2.3678241 ], [ 111.4232178, 2.3988199 ], [ 111.4064331, 2.4182711 ], [ 111.4052963, 2.457355 ], [ 111.3861771, 2.4825411 ], [ 111.4188538, 2.4880149 ], [ 111.4557419, 2.471895 ], [ 111.465477, 2.4880459 ], [ 111.4010468, 2.523787 ], [ 111.3903198, 2.5625889 ], [ 111.4146576, 2.6268852 ], [ 111.4295502, 2.7053881 ], [ 111.4767685, 2.7279589 ], [ 111.4956131, 2.7545109 ], [ 111.5143509, 2.7559941 ], [ 111.6039734, 2.8056982 ], [ 111.6462708, 2.851922 ], [ 111.6771698, 2.8477161 ], [ 111.7841034, 2.869436 ], [ 111.9663162, 2.886688 ], [ 112.1667023, 2.9331939 ], [ 112.232933, 2.955812 ], [ 112.3026199, 2.974071 ], [ 112.4491272, 3.003932 ], [ 112.4969177, 3.0098889 ], [ 112.6781235, 3.062398 ], [ 112.7702332, 3.084388 ], [ 112.7967834, 3.084033 ], [ 112.8726578, 3.103878 ], [ 112.9681473, 3.1428802 ], [ 113.0170136, 3.1741102 ], [ 113.0734787, 3.254127 ], [ 113.060112, 3.281219 ], [ 113.1281509, 3.327234 ], [ 113.1527863, 3.351012 ], [ 113.1688919, 3.3945401 ], [ 113.2553864, 3.4702809 ], [ 113.2987137, 3.520339 ], [ 113.2899628, 3.5396309 ], [ 113.3659287, 3.622457 ], [ 113.4226227, 3.723387 ], [ 113.4323425, 3.7650511 ], [ 113.5500488, 3.839942 ], [ 113.6642838, 3.938036 ], [ 113.7213669, 3.9993842 ], [ 113.7593002, 4.033762 ], [ 113.7939835, 4.087913 ], [ 113.8035278, 4.1157699 ], [ 113.8978729, 4.2229791 ], [ 113.9350662, 4.2828779 ], [ 113.9624329, 4.3399911 ], [ 113.9509277, 4.3583641 ], [ 113.9705734, 4.3825641 ], [ 113.9912415, 4.46174 ], [ 113.9697037, 4.5599003 ], [ 113.9600067, 4.5812659 ], [ 113.9877167, 4.5944452 ], [ 114.0714569, 4.5888681 ], [ 114.07301, 4.58183 ], [ 114.15961, 4.57165 ], [ 114.19015, 4.54224 ], [ 114.25754, 4.50271 ], [ 114.29765, 4.42836 ], [ 114.31094, 4.39007 ], [ 114.30663, 4.36133 ], [ 114.32989, 4.34277 ], [ 114.31593, 4.27243 ], [ 114.32407, 4.2565 ], [ 114.37386, 4.26493 ], [ 114.42349, 4.24966 ], [ 114.4311993, 4.2717885 ], [ 114.455573, 4.265593 ], [ 114.4586913, 4.2207871 ], [ 114.4959476, 4.146767 ], [ 114.5171196, 4.1459464 ], [ 114.5450207, 4.1246102 ], [ 114.5465259, 4.077159 ], [ 114.568731, 4.0461105 ], [ 114.6154138, 4.0417131 ], [ 114.6247141, 4.00192 ], [ 114.6599898, 4.0094086 ], [ 114.7030258, 4.0300543 ], [ 114.7559486, 4.093736 ], [ 114.8006324, 4.1360936 ], [ 114.7963676, 4.1586778 ], [ 114.8073204, 4.1927965 ], [ 114.826803, 4.2135391 ], [ 114.8573353, 4.2684004 ], [ 114.8109068, 4.2529888 ], [ 114.8681913, 4.3326637 ], [ 114.8800165, 4.371435 ], [ 114.8828274, 4.4237761 ], [ 114.8297108, 4.429301 ], [ 114.8174979, 4.4768927 ], [ 114.8183702, 4.584289 ], [ 114.7969491, 4.6648362 ], [ 114.7760127, 4.6959501 ], [ 114.7770789, 4.7295842 ], [ 114.82545, 4.74717 ], [ 114.8494, 4.79511 ], [ 114.88784, 4.8151 ], [ 114.9730738, 4.8115954 ], [ 114.9928088, 4.8556623 ], [ 114.9875778, 4.8710382 ], [ 115.0116383, 4.8917201 ], [ 115.0227737, 4.83532 ], [ 115.0358551, 4.804395 ], [ 115.0249994, 4.7351443 ], [ 115.0433492, 4.6769594 ], [ 115.0392419, 4.6329155 ], [ 115.0754011, 4.5640076 ], [ 115.0797652, 4.5188268 ], [ 115.0953144, 4.4909556 ], [ 115.0914852, 4.4436904 ], [ 115.1032655, 4.4063541 ], [ 115.0901853, 4.3889505 ], [ 115.1094668, 4.3707813 ], [ 115.1483371, 4.3842314 ], [ 115.1738739, 4.3697019 ], [ 115.2456411, 4.3437248 ], [ 115.2936326, 4.3369003 ], [ 115.3198299, 4.2981548 ], [ 115.3347997, 4.3010167 ], [ 115.3642991, 4.3413032 ], [ 115.3323781, 4.3846717 ], [ 115.3022183, 4.3994214 ], [ 115.2720585, 4.4485137 ], [ 115.2775621, 4.5097139 ], [ 115.2665548, 4.5290867 ], [ 115.2904888, 4.6080468 ], [ 115.2843633, 4.6348533 ], [ 115.2593002, 4.650301 ], [ 115.2709648, 4.6841914 ], [ 115.2432219, 4.7004273 ], [ 115.2608765, 4.7280125 ], [ 115.2289925, 4.7651821 ], [ 115.2381881, 4.8036525 ], [ 115.1918601, 4.8391584 ], [ 115.1855145, 4.866775 ], [ 115.1681082, 4.8733024 ], [ 115.1545853, 4.9127639 ], [ 115.1875305, 4.9291081 ], [ 115.1870422, 4.9617639 ], [ 115.231987, 4.9526091 ], [ 115.2416534, 4.9215708 ], [ 115.2861404, 4.9135618 ], [ 115.3164215, 4.8926592 ], [ 115.3588333, 4.8966041 ], [ 115.3835907, 4.9122629 ], [ 115.4184036, 4.9773741 ], [ 115.4362869, 4.9789968 ], [ 115.4626389, 5.015121 ], [ 115.5130768, 5.0333219 ], [ 115.5488281, 5.081408 ], [ 115.5549927, 5.1460319 ], [ 115.5696564, 5.181685 ], [ 115.5673523, 5.2118092 ], [ 115.489357, 5.207624 ], [ 115.4728394, 5.2349777 ], [ 115.4448471, 5.2395592 ], [ 115.4232712, 5.2675982 ], [ 115.3656693, 5.2965288 ], [ 115.3622131, 5.3257298 ], [ 115.3750076, 5.4043822 ], [ 115.4227066, 5.4251122 ], [ 115.4428864, 5.4504189 ], [ 115.5155869, 5.5203662 ], [ 115.5582504, 5.5562601 ], [ 115.5951691, 5.630774 ], [ 115.6190414, 5.605495 ], [ 115.6000137, 5.5735259 ], [ 115.620903, 5.5546832 ], [ 115.6592331, 5.5390649 ], [ 115.7344894, 5.5305872 ], [ 115.7962189, 5.5329051 ], [ 115.8556366, 5.5632691 ], [ 115.8733063, 5.5814362 ], [ 115.8861618, 5.6253529 ], [ 115.8987808, 5.7060542 ], [ 115.8994675, 5.7455969 ], [ 115.9788895, 5.7800889 ], [ 116.0112534, 5.8228512 ], [ 116.0413284, 5.8442302 ], [ 116.0422668, 5.9545732 ], [ 116.0640793, 5.9646859 ], [ 116.082222, 5.9966359 ], [ 116.1088562, 5.998703 ], [ 116.1063385, 6.050652 ], [ 116.127243, 6.0665092 ], [ 116.0840836, 6.111105 ], [ 116.1148529, 6.1225948 ], [ 116.1644669, 6.1802778 ], [ 116.1812363, 6.2163591 ], [ 116.2127228, 6.2393351 ], [ 116.2343216, 6.281847 ], [ 116.3252792, 6.3080168 ], [ 116.3119888, 6.3601899 ], [ 116.342308, 6.3679919 ], [ 116.3436966, 6.386375 ], [ 116.4776764, 6.475471 ], [ 116.4951477, 6.4963717 ], [ 116.5050583, 6.5443902 ], [ 116.5432281, 6.5873342 ], [ 116.5752182, 6.6486592 ], [ 116.6165924, 6.6683879 ], [ 116.645813, 6.7168431 ], [ 116.6256485, 6.780036 ], [ 116.6468201, 6.811492 ], [ 116.6390533, 6.8618069 ], [ 116.6661835, 6.8705139 ], [ 116.6834335, 6.8918638 ], [ 116.7189026, 6.9630399 ], [ 116.7232971, 6.9924369 ], [ 116.7539063, 7.0312262 ], [ 116.8384094, 6.9468498 ], [ 116.8507538, 6.8799949 ], [ 116.8195038, 6.8869181 ], [ 116.8070526, 6.857986 ], [ 116.8382874, 6.8402672 ], [ 116.8538895, 6.8145232 ], [ 116.8402634, 6.7467661 ], [ 116.8011475, 6.7056808 ], [ 116.7868576, 6.6684752 ], [ 116.7564926, 6.631053 ], [ 116.7513886, 6.5867128 ], [ 116.7922592, 6.5607109 ], [ 116.8497162, 6.5781178 ], [ 116.8541336, 6.6148758 ], [ 116.8791809, 6.626338 ], [ 116.902977, 6.6557221 ], [ 116.9255829, 6.6622272 ], [ 116.9760132, 6.6983719 ], [ 116.9719162, 6.733068 ], [ 117.0149689, 6.7929769 ], [ 117.0232773, 6.8209929 ], [ 117.0492706, 6.8335962 ], [ 117.055069, 6.8726401 ], [ 117.0302811, 6.9020739 ], [ 117.0314865, 6.947093 ], [ 117.0673294, 6.9316587 ], [ 117.0593414, 6.9732432 ], [ 117.0970688, 6.993866 ], [ 117.1175232, 6.9860301 ], [ 117.1324921, 7.0094371 ], [ 117.1529465, 7.0066528 ], [ 117.1853104, 6.9751401 ], [ 117.192627, 6.9546871 ], [ 117.2420273, 6.9415221 ], [ 117.2562103, 6.8939528 ], [ 117.2522583, 6.865015 ], [ 117.2167892, 6.817976 ], [ 117.2349167, 6.7984219 ], [ 117.2470169, 6.7542958 ], [ 117.2704315, 6.7347331 ], [ 117.2802734, 6.710824 ], [ 117.264389, 6.6952271 ], [ 117.2831726, 6.6579781 ], [ 117.2893066, 6.6150041 ], [ 117.3081284, 6.6039448 ], [ 117.358223, 6.603405 ], [ 117.3917465, 6.5959969 ], [ 117.4043198, 6.5622001 ], [ 117.4578476, 6.5584311 ], [ 117.5183868, 6.6228871 ], [ 117.5270691, 6.5911641 ], [ 117.5543137, 6.5410233 ], [ 117.5960464, 6.5057859 ], [ 117.6279907, 6.509171 ], [ 117.7188263, 6.4469442 ], [ 117.7369232, 6.4209399 ], [ 117.7140274, 6.349288 ], [ 117.7303467, 6.3051062 ], [ 117.7161102, 6.2527599 ], [ 117.7036667, 6.2330203 ], [ 117.6428528, 6.2506099 ], [ 117.6237106, 6.2173219 ], [ 117.5904465, 6.1906118 ], [ 117.6161804, 6.128849 ], [ 117.6532593, 6.072001 ], [ 117.6265564, 6.0407939 ], [ 117.6710205, 6.0004792 ], [ 117.6766968, 5.9705849 ], [ 117.6573868, 5.9602799 ], [ 117.6205673, 5.9217329 ], [ 117.6166229, 5.8959951 ], [ 117.6715164, 5.909678 ], [ 117.7157974, 5.8978639 ], [ 117.766098, 5.907413 ], [ 117.7556076, 5.9403081 ], [ 117.8299866, 5.9371581 ], [ 117.8752365, 5.9469409 ], [ 117.899147, 5.9641271 ], [ 117.9045105, 5.9974451 ], [ 117.9293289, 6.0045137 ], [ 117.9854889, 6.0616159 ], [ 118.0056763, 6.0583501 ], [ 118.0099716, 6.0268478 ], [ 118.0412064, 6.0336671 ], [ 118.0326309, 5.9980593 ], [ 118.0635071, 5.9543071 ], [ 118.0475922, 5.925612 ], [ 118.0899811, 5.8928628 ], [ 118.1224823, 5.8585272 ], [ 118.1166916, 5.8380818 ], [ 118.0827026, 5.8278232 ], [ 118.0782928, 5.812202 ], [ 118.0187836, 5.7884402 ], [ 118.0002518, 5.8149228 ], [ 117.9652863, 5.7883401 ], [ 118.0136719, 5.766613 ], [ 117.9970932, 5.742054 ], [ 117.9599075, 5.7442122 ], [ 117.9441528, 5.7759748 ], [ 117.9041977, 5.77285 ], [ 117.9110031, 5.737659 ], [ 117.9392166, 5.7339149 ], [ 117.9306335, 5.6927819 ], [ 117.9498825, 5.6803212 ], [ 117.9905014, 5.6788449 ], [ 118.0493469, 5.7191648 ], [ 118.0628433, 5.6984391 ], [ 118.0975189, 5.7068582 ], [ 118.115097, 5.670258 ], [ 118.143837, 5.6890359 ], [ 118.1223602, 5.7258768 ], [ 118.1635132, 5.7480712 ], [ 118.1427231, 5.7883582 ], [ 118.15802, 5.840734 ], [ 118.20327, 5.8516479 ], [ 118.2670136, 5.8245778 ], [ 118.3844528, 5.7957401 ], [ 118.4697037, 5.7518091 ], [ 118.5704727, 5.6834469 ], [ 118.6164627, 5.6361699 ], [ 118.6332169, 5.6391063 ], [ 118.6579285, 5.618104 ], [ 118.7089005, 5.5572381 ], [ 118.7524109, 5.5318022 ], [ 118.808548, 5.507699 ], [ 118.86026, 5.4679723 ], [ 118.8937225, 5.4572792 ], [ 118.9298401, 5.41921 ], [ 118.9477768, 5.432714 ], [ 119.0020828, 5.410213 ], [ 119.0495529, 5.403369 ], [ 119.0924835, 5.4101081 ], [ 119.1090927, 5.4348779 ], [ 119.1470032, 5.448071 ], [ 119.1978683, 5.4310889 ], [ 119.2378464, 5.390923 ], [ 119.2544785, 5.3602738 ], [ 119.2634811, 5.3165469 ], [ 119.2451324, 5.2616611 ], [ 119.2675018, 5.233747 ], [ 119.2634964, 5.2100768 ], [ 119.2141571, 5.145422 ], [ 119.1660767, 5.1104221 ], [ 119.0393066, 5.0626059 ], [ 118.9585266, 5.048182 ], [ 118.8872681, 5.0192032 ], [ 118.8611069, 4.995862 ], [ 118.8248672, 4.9939179 ], [ 118.792717, 4.9822979 ], [ 118.7270126, 4.9457211 ], [ 118.7112122, 4.9533629 ], [ 118.6790771, 4.944499 ], [ 118.6258774, 4.942831 ], [ 118.5967865, 4.9528131 ], [ 118.5403976, 4.957819 ], [ 118.5118637, 4.923408 ], [ 118.4703522, 4.9237642 ], [ 118.4456863, 4.954885 ], [ 118.4471664, 4.9889178 ], [ 118.4281769, 5.006454 ], [ 118.3803177, 5.024991 ], [ 118.3273392, 5.0242229 ], [ 118.2987213, 4.9610591 ], [ 118.2567825, 4.9712939 ], [ 118.2060776, 4.9606218 ], [ 118.1651306, 4.9117441 ], [ 118.1570435, 4.887157 ], [ 118.1249237, 4.8787308 ], [ 118.1300812, 4.839159 ], [ 118.1585236, 4.8393149 ], [ 118.1863937, 4.8049731 ], [ 118.1924667, 4.7626381 ], [ 118.225769, 4.7036691 ], [ 118.2531662, 4.6840663 ], [ 118.2655334, 4.6584811 ], [ 118.2927933, 4.6556449 ], [ 118.3078537, 4.6280031 ], [ 118.3550568, 4.628099 ], [ 118.4009705, 4.5729952 ], [ 118.4315338, 4.5961361 ], [ 118.460083, 4.5654597 ], [ 118.4831924, 4.5529699 ], [ 118.4709473, 4.5231061 ], [ 118.4525833, 4.5093598 ], [ 118.498558, 4.4827709 ], [ 118.5286865, 4.5192499 ], [ 118.5546036, 4.5205503 ], [ 118.5877838, 4.5084858 ], [ 118.6354599, 4.438642 ], [ 118.6073837, 4.4012389 ], [ 118.5421829, 4.3660212 ], [ 118.546257, 4.351747 ], [ 118.4793625, 4.3542519 ], [ 118.3931274, 4.3269057 ], [ 118.3762207, 4.3430562 ], [ 118.3334503, 4.339715 ], [ 118.300087, 4.3228011 ], [ 118.2287903, 4.307127 ], [ 118.2058411, 4.2945371 ], [ 118.1687393, 4.3006158 ], [ 118.1026917, 4.276866 ], [ 118.068718, 4.2539511 ], [ 117.9769974, 4.222434 ], [ 117.9591599, 4.2362771 ], [ 117.9142838, 4.248343 ], [ 117.8769302, 4.2433691 ], [ 117.8486328, 4.2889771 ], [ 117.7976303, 4.331182 ], [ 117.7575302, 4.3308091 ], [ 117.7397079, 4.3543091 ], [ 117.7140503, 4.355052 ], [ 117.654129, 4.408308 ], [ 117.6302338, 4.3805242 ], [ 117.6128464, 4.3966589 ], [ 117.5937881, 4.3750739 ], [ 117.6134567, 4.3591661 ], [ 117.6216583, 4.3313169 ], [ 117.6186066, 4.2954412 ], [ 117.6524887, 4.281343 ], [ 117.6425781, 4.253531 ], [ 117.6056366, 4.230372 ], [ 117.585999, 4.1776381 ] ] ], [ [ [ 118.6333466, 4.495461 ], [ 118.6743622, 4.4909582 ], [ 118.7361069, 4.4539528 ], [ 118.7124405, 4.4342508 ], [ 118.6526718, 4.4459462 ], [ 118.6284637, 4.4706349 ], [ 118.6333466, 4.495461 ] ] ], [ [ [ 118.4586487, 4.6958761 ], [ 118.4910736, 4.653688 ], [ 118.5391998, 4.6521611 ], [ 118.5810928, 4.6343198 ], [ 118.5773697, 4.6191521 ], [ 118.5399933, 4.6135178 ], [ 118.5208969, 4.594027 ], [ 118.4792404, 4.6104841 ], [ 118.4624863, 4.6020241 ], [ 118.4302368, 4.6255798 ], [ 118.3686371, 4.6443901 ], [ 118.3679886, 4.6586518 ], [ 118.4273605, 4.6603189 ], [ 118.4448929, 4.696147 ], [ 118.4586487, 4.6958761 ] ] ], [ [ [ 117.8958674, 4.1667424 ], [ 117.6783541, 4.1668656 ], [ 117.6259766, 4.2057199 ], [ 117.6294708, 4.231245 ], [ 117.6785736, 4.264729 ], [ 117.7486572, 4.2586031 ], [ 117.7747116, 4.2274952 ], [ 117.8113098, 4.201653 ], [ 117.8742828, 4.1858711 ], [ 117.8958674, 4.1667424 ] ] ], [ [ [ 117.6750336, 5.9420838 ], [ 117.6836472, 6.002522 ], [ 117.713707, 5.9916568 ], [ 117.6750336, 5.9420838 ] ] ], [ [ [ 117.4747467, 6.7486382 ], [ 117.5047531, 6.6918378 ], [ 117.5065384, 6.6690888 ], [ 117.4839706, 6.6429381 ], [ 117.4269409, 6.6196032 ], [ 117.3966064, 6.6173568 ], [ 117.3408127, 6.6360602 ], [ 117.3254471, 6.6542349 ], [ 117.3348999, 6.6730599 ], [ 117.3760376, 6.678277 ], [ 117.4054337, 6.670186 ], [ 117.4289322, 6.7004728 ], [ 117.394249, 6.709033 ], [ 117.3862534, 6.731791 ], [ 117.4163818, 6.7498879 ], [ 117.448082, 6.742712 ], [ 117.4747467, 6.7486382 ] ] ], [ [ [ 117.3136215, 7.0695128 ], [ 117.3463364, 7.0472441 ], [ 117.3081284, 7.0142322 ], [ 117.2624435, 7.0443912 ], [ 117.2666092, 7.0696483 ], [ 117.3136215, 7.0695128 ] ] ], [ [ [ 117.2532806, 7.3546453 ], [ 117.2820206, 7.3523059 ], [ 117.2943878, 7.3192229 ], [ 117.274353, 7.3038697 ], [ 117.260231, 7.2474051 ], [ 117.2739792, 7.2168431 ], [ 117.2242737, 7.1859169 ], [ 117.1801224, 7.1875882 ], [ 117.1594162, 7.1802692 ], [ 117.098877, 7.1383252 ], [ 117.0756226, 7.1101079 ], [ 117.0574875, 7.1262078 ], [ 117.0690308, 7.163167 ], [ 117.052742, 7.1863809 ], [ 117.0696335, 7.2651229 ], [ 117.0607071, 7.2915421 ], [ 117.0784378, 7.3085098 ], [ 117.130661, 7.3240552 ], [ 117.1490936, 7.3518119 ], [ 117.167717, 7.3442092 ], [ 117.2348938, 7.3633981 ], [ 117.2532806, 7.3546453 ] ] ], [ [ [ 117.0207138, 7.3101902 ], [ 117.0213623, 7.2803388 ], [ 116.9933319, 7.2853632 ], [ 116.9749527, 7.3031268 ], [ 116.9534912, 7.247354 ], [ 116.9288712, 7.2338338 ], [ 116.8999023, 7.2375388 ], [ 116.8941193, 7.2083831 ], [ 116.8681183, 7.1978459 ], [ 116.865181, 7.2430873 ], [ 116.8875427, 7.286922 ], [ 116.9330673, 7.2916942 ], [ 116.975647, 7.3150659 ], [ 117.0026093, 7.3577399 ], [ 117.0207138, 7.3101902 ] ] ], [ [ [ 115.2527313, 5.3874922 ], [ 115.2417374, 5.3548293 ], [ 115.2670364, 5.2925358 ], [ 115.2340164, 5.2729592 ], [ 115.1723022, 5.283936 ], [ 115.1720581, 5.2991118 ], [ 115.1977081, 5.3488078 ], [ 115.2320938, 5.3879323 ], [ 115.2527313, 5.3874922 ] ] ], [ [ [ 111.4160233, 2.378545 ], [ 111.3856277, 2.3753841 ], [ 111.3551483, 2.348768 ], [ 111.3385773, 2.3670681 ], [ 111.3351974, 2.4010799 ], [ 111.290863, 2.4399149 ], [ 111.3016281, 2.516551 ], [ 111.2776337, 2.71786 ], [ 111.294693, 2.7752221 ], [ 111.3195267, 2.792614 ], [ 111.3574066, 2.764544 ], [ 111.3761978, 2.7186561 ], [ 111.3775177, 2.6027598 ], [ 111.3711166, 2.559721 ], [ 111.3710403, 2.491653 ], [ 111.3899765, 2.457268 ], [ 111.4008102, 2.3996139 ], [ 111.4160233, 2.378545 ] ] ], [ [ [ 104.5417862, 2.4296398 ], [ 104.5098572, 2.4431889 ], [ 104.5219421, 2.4736941 ], [ 104.5449219, 2.455605 ], [ 104.5417862, 2.4296398 ] ] ], [ [ [ 102.0910223, 6.2408725 ], [ 102.1457672, 6.209445 ], [ 102.2351608, 6.189445 ], [ 102.2498169, 6.214572 ], [ 102.2940369, 6.1872811 ], [ 102.3291473, 6.1809387 ], [ 102.3525238, 6.1633782 ], [ 102.3828964, 6.1179748 ], [ 102.4218216, 6.0244923 ], [ 102.4648666, 5.9307551 ], [ 102.4833527, 5.9019427 ], [ 102.5395966, 5.8433151 ], [ 102.5977783, 5.8106551 ], [ 102.6297913, 5.7797098 ], [ 102.7051926, 5.6933951 ], [ 102.7235184, 5.6845779 ], [ 102.8595734, 5.566474 ], [ 102.9140472, 5.5356421 ], [ 102.9786987, 5.520854 ], [ 103.1023102, 5.4048281 ], [ 103.154747, 5.3323641 ], [ 103.1891327, 5.2747021 ], [ 103.1922226, 5.2498488 ], [ 103.2254715, 5.1977091 ], [ 103.244072, 5.1536889 ], [ 103.2947769, 5.058908 ], [ 103.3286133, 4.9876671 ], [ 103.4127579, 4.8446288 ], [ 103.4302063, 4.8024459 ], [ 103.4285889, 4.7534618 ], [ 103.4469223, 4.7050629 ], [ 103.4531174, 4.6594868 ], [ 103.4397736, 4.6475959 ], [ 103.4773331, 4.5484881 ], [ 103.479248, 4.5192652 ], [ 103.4542084, 4.5067463 ], [ 103.4503784, 4.4731832 ], [ 103.4623032, 4.428494 ], [ 103.4630127, 4.3868551 ], [ 103.4959564, 4.3298631 ], [ 103.4990768, 4.3137431 ], [ 103.4779434, 4.2547379 ], [ 103.4526672, 4.2380791 ], [ 103.4442673, 4.208909 ], [ 103.4512329, 4.178277 ], [ 103.4218597, 4.1692309 ], [ 103.413208, 4.13201 ], [ 103.389267, 4.109591 ], [ 103.4070206, 4.036118 ], [ 103.4219589, 3.9996929 ], [ 103.4135666, 3.9689119 ], [ 103.3827286, 3.9387081 ], [ 103.3748016, 3.9090738 ], [ 103.3855972, 3.821604 ], [ 103.3786392, 3.8013971 ], [ 103.3491364, 3.809371 ], [ 103.3328934, 3.7616072 ], [ 103.341568, 3.7098041 ], [ 103.3767319, 3.6429119 ], [ 103.4848022, 3.506393 ], [ 103.4592438, 3.473175 ], [ 103.4341507, 3.398778 ], [ 103.4335632, 3.323792 ], [ 103.4523087, 3.2268531 ], [ 103.4532928, 3.146342 ], [ 103.4361267, 3.0029049 ], [ 103.4436798, 2.911093 ], [ 103.4644699, 2.8590031 ], [ 103.4862671, 2.825768 ], [ 103.5381088, 2.766381 ], [ 103.6409607, 2.664165 ], [ 103.6656723, 2.6683989 ], [ 103.7238235, 2.6358759 ], [ 103.7487335, 2.6348159 ], [ 103.7835999, 2.6129999 ], [ 103.822258, 2.5741429 ], [ 103.8343506, 2.5260091 ], [ 103.8268814, 2.496846 ], [ 103.840538, 2.443876 ], [ 103.8582916, 2.429745 ], [ 103.8777618, 2.393759 ], [ 103.9193573, 2.350745 ], [ 103.9430771, 2.340718 ], [ 103.9648666, 2.314374 ], [ 103.9579163, 2.29579 ], [ 103.988533, 2.251689 ], [ 103.967247, 2.246757 ], [ 103.9627228, 2.2127531 ], [ 103.996048, 2.1656489 ], [ 104.0133438, 2.1517501 ], [ 104.0327072, 2.1022 ], [ 104.1255569, 1.954494 ], [ 104.1130219, 1.9191661 ], [ 104.1168594, 1.870175 ], [ 104.1650696, 1.831718 ], [ 104.1947174, 1.783949 ], [ 104.2058868, 1.7408941 ], [ 104.2272034, 1.7143259 ], [ 104.2245636, 1.691126 ], [ 104.2521973, 1.653946 ], [ 104.2704468, 1.611308 ], [ 104.2596283, 1.596206 ], [ 104.2610168, 1.560801 ], [ 104.2901917, 1.5123521 ], [ 104.280632, 1.4788569 ], [ 104.3009872, 1.4458629 ], [ 104.2804718, 1.4119799 ], [ 104.2891235, 1.367801 ], [ 104.2480164, 1.367371 ], [ 104.2325974, 1.347014 ], [ 104.1439896, 1.3402101 ], [ 104.1294708, 1.3566149 ], [ 104.0973434, 1.3662341 ], [ 104.1187592, 1.399655 ], [ 104.0915527, 1.4329151 ], [ 104.0453568, 1.460773 ], [ 104.0656128, 1.488459 ], [ 104.0457993, 1.4991511 ], [ 104.0396805, 1.5481429 ], [ 104.0175095, 1.58551 ], [ 103.9825363, 1.620656 ], [ 103.9674301, 1.615 ], [ 103.9861832, 1.5776529 ], [ 104.0111618, 1.5536001 ], [ 104.0028229, 1.5315861 ], [ 104.0154419, 1.5011719 ], [ 104.0130997, 1.449705 ], [ 103.9698105, 1.4246831 ], [ 103.8931732, 1.4382341 ], [ 103.8711777, 1.468009 ], [ 103.8349533, 1.4820081 ], [ 103.8002625, 1.485195 ], [ 103.7619629, 1.451399 ], [ 103.7211838, 1.4704751 ], [ 103.6739578, 1.433738 ], [ 103.6373291, 1.3691339 ], [ 103.6098022, 1.3437771 ], [ 103.5577927, 1.350955 ], [ 103.5478516, 1.325731 ], [ 103.5219574, 1.3072569 ], [ 103.5107803, 1.262738 ], [ 103.4803925, 1.3024249 ], [ 103.4446564, 1.324445 ], [ 103.4185104, 1.394443 ], [ 103.4100571, 1.4395319 ], [ 103.3757629, 1.5238271 ], [ 103.3437119, 1.55732 ], [ 103.2795029, 1.5941939 ], [ 103.2222519, 1.6114911 ], [ 103.1659775, 1.640733 ], [ 103.0781097, 1.704834 ], [ 102.9976578, 1.744296 ], [ 102.9437485, 1.742251 ], [ 102.9048309, 1.7757629 ], [ 102.8798981, 1.822083 ], [ 102.8516769, 1.8458899 ], [ 102.8051605, 1.8663311 ], [ 102.7389297, 1.871684 ], [ 102.7142029, 1.856391 ], [ 102.6911774, 1.867986 ], [ 102.6400833, 1.94752 ], [ 102.6064072, 1.982839 ], [ 102.5658569, 2.013129 ], [ 102.5452271, 2.0578179 ], [ 102.5204163, 2.0811429 ], [ 102.4654617, 2.1117179 ], [ 102.4095612, 2.1342471 ], [ 102.3693466, 2.137167 ], [ 102.2247086, 2.205096 ], [ 102.2060089, 2.217124 ], [ 102.157341, 2.220525 ], [ 102.1321106, 2.2615461 ], [ 102.0844727, 2.297591 ], [ 102.064949, 2.341351 ], [ 102.0206833, 2.364044 ], [ 101.9836731, 2.369693 ], [ 101.9741592, 2.4009991 ], [ 101.9346771, 2.4248209 ], [ 101.8967209, 2.4171329 ], [ 101.8667984, 2.4262011 ], [ 101.8607636, 2.470144 ], [ 101.8345871, 2.512084 ], [ 101.7973785, 2.528764 ], [ 101.8045883, 2.573585 ], [ 101.7733536, 2.602663 ], [ 101.7054291, 2.5966711 ], [ 101.6855927, 2.6158209 ], [ 101.6067734, 2.6372221 ], [ 101.5672607, 2.6580379 ], [ 101.4834366, 2.6932411 ], [ 101.467247, 2.711916 ], [ 101.4435883, 2.7612011 ], [ 101.4137268, 2.8010728 ], [ 101.3022079, 2.838635 ], [ 101.2840576, 2.9044631 ], [ 101.3049698, 2.9471869 ], [ 101.3322678, 2.982764 ], [ 101.3632126, 3.0082111 ], [ 101.3601608, 3.072392 ], [ 101.3227234, 3.1092949 ], [ 101.308197, 3.1583259 ], [ 101.3031387, 3.249197 ], [ 101.2691574, 3.297821 ], [ 101.2465363, 3.313061 ], [ 101.2301178, 3.340476 ], [ 101.1882629, 3.352314 ], [ 101.1337585, 3.4442301 ], [ 101.097908, 3.485261 ], [ 101.0644531, 3.5768931 ], [ 101.0356903, 3.621587 ], [ 100.9431, 3.688277 ], [ 100.9266205, 3.689923 ], [ 100.9163666, 3.7200799 ], [ 100.8798065, 3.7604151 ], [ 100.8429871, 3.780046 ], [ 100.8159637, 3.779412 ], [ 100.8089066, 3.807951 ], [ 100.8162994, 3.843591 ], [ 100.8009796, 3.8555839 ], [ 100.7684479, 3.8452981 ], [ 100.7375488, 3.854331 ], [ 100.7005234, 3.89903 ], [ 100.7038574, 3.9811461 ], [ 100.7336731, 4.0082321 ], [ 100.7592926, 3.989779 ], [ 100.7717438, 4.0424318 ], [ 100.7635727, 4.0866151 ], [ 100.7297134, 4.1149759 ], [ 100.7123566, 4.1462951 ], [ 100.6910782, 4.1615171 ], [ 100.6173172, 4.1685562 ], [ 100.5993118, 4.224946 ], [ 100.5986633, 4.2530108 ], [ 100.5790329, 4.307333 ], [ 100.562088, 4.3131142 ], [ 100.5921936, 4.3721781 ], [ 100.5926971, 4.4096708 ], [ 100.6206894, 4.432394 ], [ 100.6279221, 4.52531 ], [ 100.6178818, 4.5545411 ], [ 100.5856018, 4.5764508 ], [ 100.5893173, 4.6125569 ], [ 100.605629, 4.6399002 ], [ 100.6643524, 4.6738348 ], [ 100.6327362, 4.6821737 ], [ 100.591011, 4.6735091 ], [ 100.5807571, 4.7181501 ], [ 100.584259, 4.7641449 ], [ 100.6163635, 4.7700677 ], [ 100.6150208, 4.7976723 ], [ 100.5769577, 4.7878499 ], [ 100.5518112, 4.8405647 ], [ 100.5527725, 4.8718438 ], [ 100.50737, 4.865252 ], [ 100.4862976, 4.8802371 ], [ 100.4973526, 4.9200091 ], [ 100.4746628, 4.9301658 ], [ 100.4448395, 4.9182549 ], [ 100.428833, 4.9491 ], [ 100.4231567, 4.9967179 ], [ 100.4011612, 5.0087118 ], [ 100.3769226, 5.0683169 ], [ 100.36203, 5.085588 ], [ 100.3960114, 5.1198039 ], [ 100.4180832, 5.1625471 ], [ 100.4282303, 5.208066 ], [ 100.418663, 5.2584462 ], [ 100.4232712, 5.2812061 ], [ 100.4068298, 5.3442421 ], [ 100.3759003, 5.3764839 ], [ 100.3683472, 5.395812 ], [ 100.3819275, 5.4300551 ], [ 100.3847198, 5.4638538 ], [ 100.374939, 5.5386009 ], [ 100.3426209, 5.569232 ], [ 100.3449783, 5.6308513 ], [ 100.3362885, 5.6570749 ], [ 100.3718719, 5.6662188 ], [ 100.3554001, 5.7115388 ], [ 100.3706131, 5.7724452 ], [ 100.3704376, 5.8209548 ], [ 100.3603973, 5.8791361 ], [ 100.3552094, 5.9485722 ], [ 100.3392334, 6.0262971 ], [ 100.3261566, 6.0532112 ], [ 100.2890167, 6.0944099 ], [ 100.2725372, 6.15167 ], [ 100.2381668, 6.2206721 ], [ 100.1764526, 6.280972 ], [ 100.1212535, 6.4217143 ], [ 100.1470346, 6.4498579 ], [ 100.1629109, 6.5000269 ], [ 100.1565604, 6.518655 ], [ 100.1597356, 6.5739044 ], [ 100.1806923, 6.6575194 ], [ 100.1785755, 6.6971042 ], [ 100.1923349, 6.7203894 ], [ 100.2168902, 6.7172142 ], [ 100.2431389, 6.6924472 ], [ 100.2907677, 6.7100169 ], [ 100.294033, 6.6805132 ], [ 100.3242137, 6.6600596 ], [ 100.3253697, 6.586067 ], [ 100.3531557, 6.571776 ], [ 100.3736001, 6.5452746 ], [ 100.4232568, 6.5175372 ], [ 100.460066, 6.5315609 ], [ 100.4890233, 6.5260297 ], [ 100.5114342, 6.4922794 ], [ 100.6110458, 6.4714854 ], [ 100.6537717, 6.4420634 ], [ 100.7128715, 6.4806958 ], [ 100.7412701, 6.4883711 ], [ 100.7543181, 6.4579257 ], [ 100.7768323, 6.4632984 ], [ 100.8123945, 6.444366 ], [ 100.824675, 6.4026635 ], [ 100.8216049, 6.3568676 ], [ 100.849236, 6.315421 ], [ 100.8346529, 6.2954652 ], [ 100.8533295, 6.2317602 ], [ 100.8858216, 6.2552978 ], [ 100.9449214, 6.2427614 ], [ 100.9469681, 6.2637406 ], [ 100.9873914, 6.2767886 ], [ 101.0201393, 6.2463433 ], [ 101.0833326, 6.2604146 ], [ 101.1117313, 6.2506926 ], [ 101.1227325, 6.189546 ], [ 101.0769366, 6.1713812 ], [ 101.0626093, 6.1414475 ], [ 101.0889612, 6.1355631 ], [ 101.1211975, 6.1143281 ], [ 101.1002183, 6.0485763 ], [ 101.1224767, 5.9810337 ], [ 101.0881937, 5.9104209 ], [ 101.0406068, 5.9186079 ], [ 101.0155342, 5.8838132 ], [ 101.0145108, 5.8364822 ], [ 100.9876472, 5.8065485 ], [ 100.9919966, 5.7863369 ], [ 101.0219302, 5.7638227 ], [ 101.0395834, 5.7364475 ], [ 101.0851235, 5.7198176 ], [ 101.084356, 5.7090722 ], [ 101.1224767, 5.6689048 ], [ 101.126826, 5.6330867 ], [ 101.148061, 5.613131 ], [ 101.1746687, 5.6453672 ], [ 101.2163712, 5.6586711 ], [ 101.2219997, 5.6837437 ], [ 101.244514, 5.689884 ], [ 101.2611438, 5.7116307 ], [ 101.2511659, 5.7604967 ], [ 101.2629347, 5.7981057 ], [ 101.2808437, 5.8114096 ], [ 101.3483864, 5.8085953 ], [ 101.3729473, 5.8288069 ], [ 101.3941823, 5.8725561 ], [ 101.4553289, 5.8656483 ], [ 101.4883327, 5.8684626 ], [ 101.5164754, 5.9017223 ], [ 101.5430831, 5.9186079 ], [ 101.5909259, 5.9178404 ], [ 101.6139518, 5.9099092 ], [ 101.6221387, 5.874347 ], [ 101.6569334, 5.8756262 ], [ 101.6587243, 5.8144797 ], [ 101.6894255, 5.7569149 ], [ 101.7139865, 5.7561474 ], [ 101.7170566, 5.779685 ], [ 101.755689, 5.7958031 ], [ 101.7774349, 5.7650548 ], [ 101.8195678, 5.7302493 ], [ 101.8390809, 5.7908567 ], [ 101.8667665, 5.7913103 ], [ 101.884071, 5.837697 ], [ 101.9167396, 5.8427478 ], [ 101.9439064, 5.8729563 ], [ 101.9231927, 5.9233883 ], [ 101.9446857, 5.9577433 ], [ 101.9457767, 5.9873564 ], [ 102.0032546, 6.0502679 ], [ 102.0537866, 6.0799364 ], [ 102.0612872, 6.1030047 ], [ 102.0931963, 6.1484873 ], [ 102.0784519, 6.1714064 ], [ 102.0826164, 6.2293153 ], [ 102.0910223, 6.2408725 ] ] ], [ [ [ 104.2230072, 2.7244492 ], [ 104.1715164, 2.717869 ], [ 104.1278076, 2.7514858 ], [ 104.1240997, 2.783247 ], [ 104.1336136, 2.8071091 ], [ 104.1643372, 2.8218689 ], [ 104.1551666, 2.8566551 ], [ 104.1613464, 2.8970971 ], [ 104.1851273, 2.8976409 ], [ 104.2216263, 2.801044 ], [ 104.2307968, 2.766259 ], [ 104.2230072, 2.7244492 ] ] ], [ [ [ 104.134697, 2.315191 ], [ 104.1492081, 2.2941771 ], [ 104.1328964, 2.28002 ], [ 104.1025925, 2.296531 ], [ 104.134697, 2.315191 ] ] ], [ [ [ 103.0229797, 5.7841458 ], [ 103.0473022, 5.7810411 ], [ 103.0161591, 5.7453222 ], [ 102.9958801, 5.7792158 ], [ 103.0229797, 5.7841458 ] ] ], [ [ [ 101.2818069, 2.9233279 ], [ 101.2692413, 2.925662 ], [ 101.2686768, 2.9797139 ], [ 101.3159866, 3.0653811 ], [ 101.3413467, 3.052892 ], [ 101.339653, 3.0085049 ], [ 101.3114471, 2.98282 ], [ 101.2818069, 2.9233279 ] ] ], [ [ [ 101.2344208, 3.0064831 ], [ 101.2402191, 3.0439591 ], [ 101.2574081, 3.055645 ], [ 101.2726593, 3.0240939 ], [ 101.2344208, 3.0064831 ] ] ], [ [ [ 101.2502136, 2.906621 ], [ 101.2397919, 2.951268 ], [ 101.264267, 2.950974 ], [ 101.2637405, 2.9206159 ], [ 101.2502136, 2.906621 ] ] ], [ [ [ 100.559021, 4.2489409 ], [ 100.5782471, 4.2334952 ], [ 100.5857391, 4.1874752 ], [ 100.5676498, 4.1895771 ], [ 100.5457001, 4.2234311 ], [ 100.559021, 4.2489409 ] ] ], [ [ [ 100.3110733, 5.4607439 ], [ 100.3195267, 5.432447 ], [ 100.3509369, 5.4172239 ], [ 100.3215408, 5.387373 ], [ 100.3088531, 5.3243818 ], [ 100.2881927, 5.3016453 ], [ 100.2943573, 5.279099 ], [ 100.1817398, 5.2859211 ], [ 100.2019501, 5.3134899 ], [ 100.189621, 5.3765159 ], [ 100.1974564, 5.419508 ], [ 100.1795731, 5.4324079 ], [ 100.1853333, 5.459075 ], [ 100.24086, 5.4638309 ], [ 100.2578583, 5.4789839 ], [ 100.3110733, 5.4607439 ] ] ], [ [ [ 99.8598328, 6.4532208 ], [ 99.8671722, 6.4293151 ], [ 99.8947296, 6.413662 ], [ 99.9114761, 6.3757272 ], [ 99.9098358, 6.328155 ], [ 99.8570023, 6.3086667 ], [ 99.8423157, 6.3227 ], [ 99.8117599, 6.3167501 ], [ 99.7761459, 6.2811551 ], [ 99.7377853, 6.261188 ], [ 99.7224121, 6.2984328 ], [ 99.7244949, 6.3335953 ], [ 99.7102661, 6.359117 ], [ 99.6601944, 6.3616781 ], [ 99.6466446, 6.3786941 ], [ 99.6452866, 6.4320111 ], [ 99.6666412, 6.4257932 ], [ 99.6988068, 6.4340439 ], [ 99.7895279, 6.422256 ], [ 99.8203278, 6.451417 ], [ 99.8260803, 6.4711761 ], [ 99.8598328, 6.4532208 ] ] ], [ [ [ 99.8677597, 6.236258 ], [ 99.8477707, 6.2229452 ], [ 99.8255081, 6.2411222 ], [ 99.8466492, 6.2666159 ], [ 99.8677597, 6.236258 ] ] ], [ [ [ 99.8261948, 6.1892509 ], [ 99.803894, 6.183908 ], [ 99.7754288, 6.2043872 ], [ 99.8023224, 6.2703309 ], [ 99.8257446, 6.2641063 ], [ 99.818161, 6.239059 ], [ 99.8335266, 6.2089362 ], [ 99.8261948, 6.1892509 ] ] ] ] } }
]
}
