{
"type": "FeatureCollection",
"name": "MYS_GAUL2002_ADM1",
"crs": { "type": "name", "properties": { "name": "urn:ogc:def:crs:OGC:1.3:CRS84" } },
"features": [
{ "type": "Feature", "properties": { "POLYGON_ID": "MYS_GAUL2002_ADM1_1891", "ADM0_ISO3": "MYS", "ADM0_NAME": "Malaysia", "ADM0_CODE": 153, "ADM1_NAME": "Johor", "ADM1_CODE": 1891, "GEOSET": "GAUL", "GEOSET_YEAR": 2002.0, "GEOSET_VERSION": "GAUL_v1", "GEOSET_UNIT": "ADM1", "CENTROID_LONG": 103.3849231098724, "CENTROID_LAT": 2.0467426306366892 }, "geometry": { "type": "MultiPolygon", "coordinates": [ [ [ [ 103.6335526, 2.673991 ], [ 103.6656723, 2.6683989 ], [ 103.7835999, 2.6129999 ], [ 103.822258, 2.5741429 ], [ 103.8343506, 2.5260091 ], [ 103.8268814, 2.496846 ], [ 103.840538, 2.443876 ], [ 103.8777618, 2.393759 ], [ 103.9648666, 2.314374 ], [ 103.9627228, 2.2127531 ], [ 104.0133438, 2.1517501 ], [ 104.0327072, 2.1022 ], [ 104.1255569, 1.954494 ], [ 104.1130219, 1.9191661 ], [ 104.1168594, 1.870175 ], [ 104.1650696, 1.831718 ], [ 104.1947174, 1.783949 ], [ 104.2245636, 1.691126 ], [ 104.2704468, 1.611308 ], [ 104.2610168, 1.560801 ], [ 104.2901917, 1.5123521 ], [ 104.280632, 1.4788569 ], [ 104.3009872, 1.4458629 ], [ 104.2804718, 1.4119799 ], [ 104.2891235, 1.367801 ], [ 104.2480164, 1.367371 ], [ 104.2325974, 1.347014 ], [ 104.1439896, 1.3402101 ], [ 104.0973434, 1.3662341 ], [ 104.1187592, 1.399655 ], [ 104.0915527, 1.4329151 ], [ 104.0453568, 1.460773 ], [ 104.0396805, 1.5481429 ], [ 104.0028229, 1.5315861 ], [ 104.0154419, 1.5011719 ], [ 104.0130997, 1.449705 ], [ 103.9698105, 1.4246831 ], [ 103.8931732, 1.4382341 ], [ 103.8711777, 1.468009 ], [ 103.8002625, 1.485195 ], [ 103.7619629, 1.451399 ], [ 103.7211838, 1.4704751 ], [ 103.6739578, 1.433738 ], [ 103.6373291, 1.3691339 ], [ 103.6098022, 1.3437771 ], [ 103.5577927, 1.350955 ], [ 103.5219574, 1.3072569 ], [ 103.4803925, 1.3024249 ], [ 103.4446564, 1.324445 ], [ 103.4100571, 1.4395319 ], [ 103.3757629, 1.5238271 ], [ 103.3437119, 1.55732 ], [ 103.2795029, 1.5941939 ], [ 103.2222519, 1.6114911 ], [ 103.1659775, 1.640733 ], [ 103.0781097, 1.704834 ], [ 102.9976578, 1.744296 ], [ 102.9437485, 1.742251 ], [ 102.9048309, 1.7757629 ], [ 102.8798981, 1.822083 ], [ 102.8051605, 1.8663311 ], [ 102.6911774, 1.867986 ], [ 102.6400833, 1.94752 ], [ 102.5658569, 2.013129 ], [ 102.5452271, 2.0578179 ], [ 102.4881162, 2.1010253 ], [ 102.5357666, 2.134536 ], [ 102.5321426, 2.1558411 ], [ 102.474472, 2.181567 ], [ 102.515419, 2.3253181 ], [ 102.512146, 2.3511021 ], [ 102.5391922, 2.387996 ], [ 102.5944595, 2.408565 ], [ 102.5919952, 2.4498889 ], [ 102.6309814, 2.6518631 ], [ 102.7018814, 2.8399911 ], [ 102.7889252, 2.8103671 ], [ 102.9709396, 2.5994401 ], [ 103.1458054, 2.526392 ], [ 103.2902298, 2.5829871 ], [ 103.3559036, 2.594862 ], [ 103.4163818, 2.5616801 ], [ 103.4511337, 2.5544081 ], [ 103.4785995, 2.5275979 ], [ 103.6083145, 2.4721191 ], [ 103.6304474, 2.5195711 ], [ 103.591423, 2.54406 ], [ 103.6210556, 2.5977931 ], [ 103.6335526, 2.673991 ] ] ] ] } },
{ "type": "Feature", "properties": { "POLYGON_ID": "MYS_GAUL2002_ADM1_1892", "ADM0_ISO3": "MYS", "ADM0_NAME": "Malaysia", "ADM0_CODE": 153, "ADM1_NAME": "Kedah", "ADM1_CODE": 1892, "GEOSET": "GAUL", "GEOSET_YEAR": 2002.0, "GEOSET_VERSION": "GAUL_v1", "GEOSET_UNIT": "ADM1", "CENTROID_LONG": 100.66027033818023, "CENTROID_LAT": 5.9236536143837251 }, "geometry": { "type": "MultiPolygon", "coordinates": [ [ [ [ 100.8415295, 6.3000086 ], [ 100.8533295, 6.2317602 ], [ 100.8858216, 6.2552978 ], [ 100.9449214, 6.2427614 ], [ 100.9873914, 6.2767886 ], [ 101.0201393, 6.2463433 ], [ 101.0833326, 6.2604146 ], [ 101.1117313, 6.2506926 ], [ 101.1227325, 6.189546 ], [ 101.0769366, 6.1713812 ], [ 101.0626093, 6.1414475 ], [ 101.1211975, 6.1143281 ], [ 101.1002183, 6.0485763 ], [ 101.1224767, 5.9810337 ], [ 101.0881937, 5.9104209 ], [ 101.0406068, 5.9186079 ], [ 101.0155342, 5.8838132 ], [ 101.0145108, 5.8364822 ], [ 100.9912108, 5.7939986 ], [ 100.9493256, 5.7463341 ], [ 100.9772949, 5.722868 ], [ 100.9646683, 5.6541071 ], [ 100.9219208, 5.6164389 ], [ 100.9368362, 5.540688 ], [ 100.9154663, 5.4958019 ], [ 100.8680725, 5.4710808 ], [ 100.8464661, 5.3510742 ], [ 100.816597, 5.3236079 ], [ 100.7329636, 5.3107681 ], [ 100.7276611, 5.2665811 ], [ 100.6884384, 5.2457819 ], [ 100.6567459, 5.182322 ], [ 100.6183472, 5.1385159 ], [ 100.5854645, 5.12218 ], [ 100.5565338, 5.0799112 ], [ 100.5077972, 5.095778 ], [ 100.488739, 5.1320739 ], [ 100.5508728, 5.1428051 ], [ 100.5226898, 5.3670182 ], [ 100.527771, 5.5555878 ], [ 100.4221878, 5.5623598 ], [ 100.3831406, 5.5835428 ], [ 100.3482745, 5.5762138 ], [ 100.3362885, 5.6570749 ], [ 100.3718719, 5.6662188 ], [ 100.3554001, 5.7115388 ], [ 100.3706131, 5.7724452 ], [ 100.3704376, 5.8209548 ], [ 100.3552094, 5.9485722 ], [ 100.3392334, 6.0262971 ], [ 100.2890167, 6.0944099 ], [ 100.2725372, 6.15167 ], [ 100.2381668, 6.2206721 ], [ 100.2007223, 6.2581547 ], [ 100.2119064, 6.2966661 ], [ 100.2941284, 6.3908329 ], [ 100.3655167, 6.455555 ], [ 100.3781949, 6.5432817 ], [ 100.4232568, 6.5175372 ], [ 100.4890233, 6.5260297 ], [ 100.5114342, 6.4922794 ], [ 100.6110458, 6.4714854 ], [ 100.6537717, 6.4420634 ], [ 100.7412701, 6.4883711 ], [ 100.8123945, 6.444366 ], [ 100.824675, 6.4026635 ], [ 100.8216049, 6.3568676 ], [ 100.8415295, 6.3000086 ] ] ] ] } },
{ "type": "Feature", "properties": { "POLYGON_ID": "MYS_GAUL2002_ADM1_1893", "ADM0_ISO3": "MYS", "ADM0_NAME": "Malaysia", "ADM0_CODE": 153, "ADM1_NAME": "Kelantan", "ADM1_CODE": 1893, "GEOSET": "GAUL", "GEOSET_YEAR": 2002.0, "GEOSET_VERSION": "GAUL_v1", "GEOSET_UNIT": "ADM1", "CENTROID_LONG": 102.02883950712193, "CENTROID_LAT": 5.2795903418817129 }, "geometry": { "type": "MultiPolygon", "coordinates": [ [ [ [ 102.5389575, 5.8439396 ], [ 102.4931259, 5.7905259 ], [ 102.4384918, 5.746223 ], [ 102.3797226, 5.6794109 ], [ 102.4094925, 5.5413871 ], [ 102.380661, 5.5144172 ], [ 102.4027405, 5.4366908 ], [ 102.3886795, 5.406239 ], [ 102.4323044, 5.3650489 ], [ 102.4166412, 5.2888112 ], [ 102.4151917, 5.1763768 ], [ 102.4675674, 5.1621838 ], [ 102.529808, 5.1046748 ], [ 102.5062637, 5.0678439 ], [ 102.5212708, 5.022284 ], [ 102.4989777, 4.9998922 ], [ 102.515274, 4.947928 ], [ 102.5103607, 4.9074111 ], [ 102.5718079, 4.8919692 ], [ 102.5932999, 4.8690081 ], [ 102.6527405, 4.8390069 ], [ 102.6445618, 4.8115058 ], [ 102.6586304, 4.7581401 ], [ 102.6029511, 4.7796469 ], [ 102.5875549, 4.7397308 ], [ 102.5983505, 4.7015691 ], [ 102.4910431, 4.673192 ], [ 102.4369354, 4.715127 ], [ 102.3579865, 4.7094879 ], [ 102.3355865, 4.6466622 ], [ 102.3128128, 4.637712 ], [ 102.2647934, 4.6634951 ], [ 102.2128677, 4.6297679 ], [ 102.1679306, 4.6618538 ], [ 102.1259079, 4.7140188 ], [ 102.1077728, 4.7628899 ], [ 102.0432434, 4.7289848 ], [ 101.9846725, 4.7618818 ], [ 101.9432678, 4.756134 ], [ 101.9360275, 4.670155 ], [ 101.88797, 4.618125 ], [ 101.8851089, 4.6636858 ], [ 101.8076477, 4.7615638 ], [ 101.7730331, 4.7597508 ], [ 101.7664566, 4.6701059 ], [ 101.7464294, 4.6170621 ], [ 101.6629181, 4.5934749 ], [ 101.6173859, 4.550631 ], [ 101.5788879, 4.5592661 ], [ 101.528183, 4.604753 ], [ 101.4937973, 4.6147952 ], [ 101.4688416, 4.5800819 ], [ 101.4432526, 4.578063 ], [ 101.4198685, 4.6084661 ], [ 101.3738556, 4.6161361 ], [ 101.3660965, 4.6516399 ], [ 101.3377075, 4.680707 ], [ 101.3435745, 4.7083931 ], [ 101.3818512, 4.7058172 ], [ 101.3814774, 4.7576032 ], [ 101.4103928, 4.8087859 ], [ 101.398056, 4.834569 ], [ 101.449295, 4.8895111 ], [ 101.4458542, 4.9969158 ], [ 101.4756622, 5.0998549 ], [ 101.479599, 5.1541028 ], [ 101.5112152, 5.2149849 ], [ 101.5195694, 5.2702761 ], [ 101.5664368, 5.288733 ], [ 101.5759354, 5.3314209 ], [ 101.6485977, 5.3436108 ], [ 101.6679001, 5.3244119 ], [ 101.7503738, 5.371191 ], [ 101.7457733, 5.5054541 ], [ 101.6725464, 5.50455 ], [ 101.6616516, 5.5175319 ], [ 101.6931458, 5.5832911 ], [ 101.6595917, 5.6041842 ], [ 101.6729965, 5.6641288 ], [ 101.7013702, 5.696137 ], [ 101.7004609, 5.7530626 ], [ 101.7170566, 5.779685 ], [ 101.755689, 5.7958031 ], [ 101.8195678, 5.7302493 ], [ 101.8390809, 5.7908567 ], [ 101.8667665, 5.7913103 ], [ 101.884071, 5.837697 ], [ 101.9167396, 5.8427478 ], [ 101.9439064, 5.8729563 ], [ 101.9231927, 5.9233883 ], [ 101.9457767, 5.9873564 ], [ 102.0032546, 6.0502679 ], [ 102.0537866, 6.0799364 ], [ 102.0931963, 6.1484873 ], [ 102.0784519, 6.1714064 ], [ 102.0910223, 6.2408725 ], [ 102.1457672, 6.209445 ], [ 102.2351608, 6.189445 ], [ 102.2498169, 6.214572 ], [ 102.3525238, 6.1633782 ], [ 102.3828964, 6.1179748 ], [ 102.4648666, 5.9307551 ], [ 102.5389575, 5.8439396 ] ] ] ] } },
{ "type": "Feature", "properties": { "POLYGON_ID": "MYS_GAUL2002_ADM1_1894", "ADM0_ISO3": "MYS", "ADM0_NAME": "Malaysia", "ADM0_CODE": 153, "ADM1_NAME": "Kuala Lumpur", "ADM1_CODE": 1894, "GEOSET": "GAUL", "GEOSET_YEAR": 2002.0, "GEOSET_VERSION": "GAUL_v1", "GEOSET_UNIT": "ADM1", "CENTROID_LONG": 101.69275988495437, "CENTROID_LAT": 3.1406078180423656 }, "geometry": { "type": "MultiPolygon", "coordinates": [ [ [ [ 101.7493668, 3.160661 ], [ 101.7492218, 3.0557699 ], [ 101.6775055, 3.0422211 ], [ 101.6481781, 3.1270831 ], [ 101.6153946, 3.1559949 ], [ 101.6196899, 3.198241 ], [ 101.6725922, 3.2293789 ], [ 101.7576447, 3.1928821 ], [ 101.7493668, 3.160661 ] ] ] ] } },
{ "type": "Feature", "properties": { "POLYGON_ID": "MYS_GAUL2002_ADM1_1895", "ADM0_ISO3": "MYS", "ADM0_NAME": "Malaysia", "ADM0_CODE": 153, "ADM1_NAME": "Melaka", "ADM1_CODE": 1895, "GEOSET": "GAUL", "GEOSET_YEAR": 2002.0, "GEOSET_VERSION": "GAUL_v1", "GEOSET_UNIT": "ADM1", "CENTROID_LONG": 102.30537973074902, "CENTROID_LAT": 2.3248083643629385 }, "geometry": { "type": "MultiPolygon", "coordinates": [ [ [ [ 102.5944595, 2.408565 ], [ 102.5391922, 2.387996 ], [ 102.512146, 2.3511021 ], [ 102.515419, 2.3253181 ], [ 102.474472, 2.181567 ], [ 102.5321426, 2.1558411 ], [ 102.5357666, 2.134536 ], [ 102.4881162, 2.1010253 ], [ 102.4095612, 2.1342471 ], [ 102.3693466, 2.137167 ], [ 102.2060089, 2.217124 ], [ 102.157341, 2.220525 ], [ 102.1321106, 2.2615461 ], [ 102.0844727, 2.297591 ], [ 102.064949, 2.341351 ], [ 101.9836731, 2.369693 ], [ 101.9800973, 2.3923872 ], [ 102.042366, 2.419421 ], [ 102.061203, 2.4526529 ], [ 102.1414871, 2.4579251 ], [ 102.175972, 2.4980011 ], [ 102.2319641, 2.465322 ], [ 102.2782288, 2.4577889 ], [ 102.3661499, 2.4908841 ], [ 102.4160156, 2.476352 ], [ 102.4320755, 2.456624 ], [ 102.5944595, 2.408565 ] ] ] ] } },
{ "type": "Feature", "properties": { "POLYGON_ID": "MYS_GAUL2002_ADM1_1896", "ADM0_ISO3": "MYS", "ADM0_NAME": "Malaysia", "ADM0_CODE": 153, "ADM1_NAME": "Negeri Sembilan", "ADM1_CODE": 1896, "GEOSET": "GAUL", "GEOSET_YEAR": 2002.0, "GEOSET_VERSION": "GAUL_v1", "GEOSET_UNIT": "ADM1", "CENTROID_LONG": 102.20732367180517, "CENTROID_LAT": 2.7776768961159108 }, "geometry": { "type": "MultiPolygon", "coordinates": [ [ [ [ 102.7018814, 2.8399911 ], [ 102.6309814, 2.6518631 ], [ 102.5919952, 2.4498889 ], [ 102.5944595, 2.408565 ], [ 102.4320755, 2.456624 ], [ 102.4160156, 2.476352 ], [ 102.3661499, 2.4908841 ], [ 102.2782288, 2.4577889 ], [ 102.2319641, 2.465322 ], [ 102.175972, 2.4980011 ], [ 102.1414871, 2.4579251 ], [ 102.061203, 2.4526529 ], [ 102.042366, 2.419421 ], [ 101.9800973, 2.3923872 ], [ 101.9346771, 2.4248209 ], [ 101.8667984, 2.4262011 ], [ 101.8607636, 2.470144 ], [ 101.8345871, 2.512084 ], [ 101.7973785, 2.528764 ], [ 101.8045883, 2.573585 ], [ 101.7733536, 2.602663 ], [ 101.7143226, 2.5950133 ], [ 101.740181, 2.673301 ], [ 101.7639465, 2.704798 ], [ 101.7571945, 2.869432 ], [ 101.8817215, 2.8671811 ], [ 101.9396744, 3.014895 ], [ 101.969368, 3.028074 ], [ 101.9493485, 3.1053159 ], [ 101.9578094, 3.145885 ], [ 101.9411621, 3.183167 ], [ 101.9464798, 3.2254119 ], [ 101.9081116, 3.2617509 ], [ 101.9354782, 3.2885051 ], [ 101.9700165, 3.246242 ], [ 102.0429916, 3.2243791 ], [ 102.0515518, 3.1726151 ], [ 102.0969543, 3.194391 ], [ 102.1551514, 3.1819611 ], [ 102.2977066, 3.137182 ], [ 102.3890381, 3.1196001 ], [ 102.4681396, 3.0213089 ], [ 102.6708603, 2.891037 ], [ 102.6923981, 2.8852091 ], [ 102.7018814, 2.8399911 ] ] ] ] } },
{ "type": "Feature", "properties": { "POLYGON_ID": "MYS_GAUL2002_ADM1_1897", "ADM0_ISO3": "MYS", "ADM0_NAME": "Malaysia", "ADM0_CODE": 153, "ADM1_NAME": "Pahang", "ADM1_CODE": 1897, "GEOSET": "GAUL", "GEOSET_YEAR": 2002.0, "GEOSET_VERSION": "GAUL_v1", "GEOSET_UNIT": "ADM1", "CENTROID_LONG": 102.54976476909692, "CENTROID_LAT": 3.7316450438948423 }, "geometry": { "type": "MultiPolygon", "coordinates": [ [ [ [ 104.2230072, 2.7244492 ], [ 104.1715164, 2.717869 ], [ 104.1278076, 2.7514858 ], [ 104.1336136, 2.8071091 ], [ 104.1643372, 2.8218689 ], [ 104.1613464, 2.8970971 ], [ 104.1851273, 2.8976409 ], [ 104.2307968, 2.766259 ], [ 104.2230072, 2.7244492 ] ] ], [ [ [ 103.4479175, 4.1722719 ], [ 103.4218597, 4.1692309 ], [ 103.389267, 4.109591 ], [ 103.4219589, 3.9996929 ], [ 103.4135666, 3.9689119 ], [ 103.3748016, 3.9090738 ], [ 103.3855972, 3.821604 ], [ 103.3491364, 3.809371 ], [ 103.3328934, 3.7616072 ], [ 103.341568, 3.7098041 ], [ 103.3767319, 3.6429119 ], [ 103.4848022, 3.506393 ], [ 103.4592438, 3.473175 ], [ 103.4341507, 3.398778 ], [ 103.4335632, 3.323792 ], [ 103.4523087, 3.2268531 ], [ 103.4532928, 3.146342 ], [ 103.4361267, 3.0029049 ], [ 103.4436798, 2.911093 ], [ 103.4644699, 2.8590031 ], [ 103.5381088, 2.766381 ], [ 103.6335526, 2.673991 ], [ 103.6210556, 2.5977931 ], [ 103.591423, 2.54406 ], [ 103.6304474, 2.5195711 ], [ 103.6083145, 2.4721191 ], [ 103.4785995, 2.5275979 ], [ 103.4511337, 2.5544081 ], [ 103.4163818, 2.5616801 ], [ 103.3559036, 2.594862 ], [ 103.2902298, 2.5829871 ], [ 103.1458054, 2.526392 ], [ 102.9709396, 2.5994401 ], [ 102.7889252, 2.8103671 ], [ 102.7018814, 2.8399911 ], [ 102.6923981, 2.8852091 ], [ 102.6708603, 2.891037 ], [ 102.4681396, 3.0213089 ], [ 102.3890381, 3.1196001 ], [ 102.2977066, 3.137182 ], [ 102.1551514, 3.1819611 ], [ 102.0969543, 3.194391 ], [ 102.0515518, 3.1726151 ], [ 102.0429916, 3.2243791 ], [ 101.9700165, 3.246242 ], [ 101.9354782, 3.2885051 ], [ 101.9081116, 3.2617509 ], [ 101.8862, 3.2613201 ], [ 101.823761, 3.296484 ], [ 101.7808075, 3.358721 ], [ 101.75914, 3.373455 ], [ 101.7849808, 3.4296651 ], [ 101.7615433, 3.5052359 ], [ 101.8048706, 3.5500879 ], [ 101.8145752, 3.6029661 ], [ 101.7810822, 3.6354811 ], [ 101.7649002, 3.6827869 ], [ 101.7327957, 3.711648 ], [ 101.6911697, 3.7090721 ], [ 101.6233597, 3.772593 ], [ 101.5927887, 3.803124 ], [ 101.6021423, 3.8770349 ], [ 101.5781784, 3.8982911 ], [ 101.573616, 3.959785 ], [ 101.5561295, 4.0291309 ], [ 101.5738602, 4.0928168 ], [ 101.4947586, 4.1552048 ], [ 101.5023346, 4.2073388 ], [ 101.4599838, 4.2158771 ], [ 101.4495087, 4.300983 ], [ 101.4241791, 4.3392482 ], [ 101.441185, 4.3789878 ], [ 101.3876877, 4.4087539 ], [ 101.3542557, 4.4000559 ], [ 101.3550873, 4.4576502 ], [ 101.3891525, 4.5084252 ], [ 101.3576965, 4.5515628 ], [ 101.3526993, 4.5902891 ], [ 101.3738556, 4.6161361 ], [ 101.4198685, 4.6084661 ], [ 101.4432526, 4.578063 ], [ 101.4688416, 4.5800819 ], [ 101.4937973, 4.6147952 ], [ 101.528183, 4.604753 ], [ 101.5788879, 4.5592661 ], [ 101.6173859, 4.550631 ], [ 101.6629181, 4.5934749 ], [ 101.7464294, 4.6170621 ], [ 101.7664566, 4.6701059 ], [ 101.7730331, 4.7597508 ], [ 101.8076477, 4.7615638 ], [ 101.8851089, 4.6636858 ], [ 101.88797, 4.618125 ], [ 101.9360275, 4.670155 ], [ 101.9432678, 4.756134 ], [ 101.9846725, 4.7618818 ], [ 102.0432434, 4.7289848 ], [ 102.1077728, 4.7628899 ], [ 102.1259079, 4.7140188 ], [ 102.1679306, 4.6618538 ], [ 102.2128677, 4.6297679 ], [ 102.2647934, 4.6634951 ], [ 102.3128128, 4.637712 ], [ 102.3355865, 4.6466622 ], [ 102.3579865, 4.7094879 ], [ 102.4369354, 4.715127 ], [ 102.4910431, 4.673192 ], [ 102.5983505, 4.7015691 ], [ 102.5875549, 4.7397308 ], [ 102.6029511, 4.7796469 ], [ 102.6586304, 4.7581401 ], [ 102.6838684, 4.7153101 ], [ 102.7343826, 4.683938 ], [ 102.7820358, 4.6707029 ], [ 102.8455734, 4.680182 ], [ 102.8826904, 4.6134801 ], [ 102.867836, 4.5612159 ], [ 102.8427734, 4.559412 ], [ 102.8464661, 4.5024252 ], [ 102.8925705, 4.469954 ], [ 102.9502411, 4.451273 ], [ 102.9744644, 4.481523 ], [ 103.0119476, 4.4345212 ], [ 103.0257416, 4.3961072 ], [ 103.0051346, 4.375874 ], [ 102.9563141, 4.2923932 ], [ 102.9310608, 4.2770791 ], [ 102.9347305, 4.2441459 ], [ 102.9146652, 4.2165508 ], [ 102.9210205, 4.1571231 ], [ 102.8917923, 4.1364179 ], [ 102.932518, 4.098031 ], [ 102.9953232, 4.1298199 ], [ 103.069046, 4.1124582 ], [ 103.1229324, 4.0793862 ], [ 103.1350861, 4.051713 ], [ 103.26651, 3.9806001 ], [ 103.2803268, 3.9355371 ], [ 103.3060379, 3.9188941 ], [ 103.3347549, 3.952857 ], [ 103.3254089, 4.0495548 ], [ 103.3053284, 4.0635929 ], [ 103.3065033, 4.1143608 ], [ 103.3467407, 4.1771979 ], [ 103.4394531, 4.1855769 ], [ 103.4479175, 4.1722719 ] ] ] ] } },
{ "type": "Feature", "properties": { "POLYGON_ID": "MYS_GAUL2002_ADM1_1898", "ADM0_ISO3": "MYS", "ADM0_NAME": "Malaysia", "ADM0_CODE": 153, "ADM1_NAME": "Perak", "ADM1_CODE": 1898, "GEOSET": "GAUL", "GEOSET_YEAR": 2002.0, "GEOSET_VERSION": "GAUL_v1", "GEOSET_UNIT": "ADM1", "CENTROID_LONG": 101.10923372407126, "CENTROID_LAT": 4.7750620182434957 }, "geometry": { "type": "MultiPolygon", "coordinates": [ [ [ [ 101.7004609, 5.7530626 ], [ 101.7013702, 5.696137 ], [ 101.6729965, 5.6641288 ], [ 101.6595917, 5.6041842 ], [ 101.6931458, 5.5832911 ], [ 101.6616516, 5.5175319 ], [ 101.6725464, 5.50455 ], [ 101.7457733, 5.5054541 ], [ 101.7503738, 5.371191 ], [ 101.6679001, 5.3244119 ], [ 101.6485977, 5.3436108 ], [ 101.5759354, 5.3314209 ], [ 101.5664368, 5.288733 ], [ 101.5195694, 5.2702761 ], [ 101.5112152, 5.2149849 ], [ 101.479599, 5.1541028 ], [ 101.4756622, 5.0998549 ], [ 101.4458542, 4.9969158 ], [ 101.449295, 4.8895111 ], [ 101.398056, 4.834569 ], [ 101.4103928, 4.8087859 ], [ 101.3814774, 4.7576032 ], [ 101.3818512, 4.7058172 ], [ 101.3435745, 4.7083931 ], [ 101.3377075, 4.680707 ], [ 101.3660965, 4.6516399 ], [ 101.3738556, 4.6161361 ], [ 101.3526993, 4.5902891 ], [ 101.3576965, 4.5515628 ], [ 101.3891525, 4.5084252 ], [ 101.3550873, 4.4576502 ], [ 101.3542557, 4.4000559 ], [ 101.3876877, 4.4087539 ], [ 101.441185, 4.3789878 ], [ 101.4241791, 4.3392482 ], [ 101.4495087, 4.300983 ], [ 101.4599838, 4.2158771 ], [ 101.5023346, 4.2073388 ], [ 101.4947586, 4.1552048 ], [ 101.5738602, 4.0928168 ], [ 101.5561295, 4.0291309 ], [ 101.573616, 3.959785 ], [ 101.5781784, 3.8982911 ], [ 101.6021423, 3.8770349 ], [ 101.5927887, 3.803124 ], [ 101.6233597, 3.772593 ], [ 101.5377197, 3.683712 ], [ 101.4610367, 3.715349 ], [ 101.4415512, 3.7517331 ], [ 101.3877716, 3.773428 ], [ 101.356163, 3.8029881 ], [ 101.3240433, 3.7748301 ], [ 101.3465729, 3.7114861 ], [ 101.3353348, 3.690136 ], [ 101.2807693, 3.669054 ], [ 101.2465591, 3.684026 ], [ 101.2301178, 3.714026 ], [ 101.1450806, 3.745342 ], [ 101.0865707, 3.7428701 ], [ 101.0212173, 3.8063769 ], [ 100.9610825, 3.7799089 ], [ 100.9666977, 3.8276 ], [ 100.9440918, 3.862721 ], [ 100.8291855, 3.8456881 ], [ 100.808615, 3.8500965 ], [ 100.7375488, 3.854331 ], [ 100.7005234, 3.89903 ], [ 100.7038574, 3.9811461 ], [ 100.7336731, 4.0082321 ], [ 100.7592926, 3.989779 ], [ 100.7717438, 4.0424318 ], [ 100.7635727, 4.0866151 ], [ 100.6910782, 4.1615171 ], [ 100.6173172, 4.1685562 ], [ 100.5790329, 4.307333 ], [ 100.5926971, 4.4096708 ], [ 100.6206894, 4.432394 ], [ 100.6279221, 4.52531 ], [ 100.6178818, 4.5545411 ], [ 100.5856018, 4.5764508 ], [ 100.5893173, 4.6125569 ], [ 100.6327362, 4.6821737 ], [ 100.591011, 4.6735091 ], [ 100.584259, 4.7641449 ], [ 100.5518112, 4.8405647 ], [ 100.5527725, 4.8718438 ], [ 100.50737, 4.865252 ], [ 100.4862976, 4.8802371 ], [ 100.4973526, 4.9200091 ], [ 100.4448395, 4.9182549 ], [ 100.4231567, 4.9967179 ], [ 100.4011612, 5.0087118 ], [ 100.36203, 5.085588 ], [ 100.3981267, 5.1238166 ], [ 100.488739, 5.1320739 ], [ 100.5077972, 5.095778 ], [ 100.5565338, 5.0799112 ], [ 100.5854645, 5.12218 ], [ 100.6183472, 5.1385159 ], [ 100.6567459, 5.182322 ], [ 100.6884384, 5.2457819 ], [ 100.7276611, 5.2665811 ], [ 100.7329636, 5.3107681 ], [ 100.816597, 5.3236079 ], [ 100.8464661, 5.3510742 ], [ 100.8680725, 5.4710808 ], [ 100.9154663, 5.4958019 ], [ 100.9368362, 5.540688 ], [ 100.9219208, 5.6164389 ], [ 100.9646683, 5.6541071 ], [ 100.9772949, 5.722868 ], [ 100.9493256, 5.7463341 ], [ 100.9912108, 5.7939986 ], [ 101.0395834, 5.7364475 ], [ 101.084356, 5.7090722 ], [ 101.1224767, 5.6689048 ], [ 101.148061, 5.613131 ], [ 101.1746687, 5.6453672 ], [ 101.2163712, 5.6586711 ], [ 101.2219997, 5.6837437 ], [ 101.2611438, 5.7116307 ], [ 101.2511659, 5.7604967 ], [ 101.2808437, 5.8114096 ], [ 101.3483864, 5.8085953 ], [ 101.3941823, 5.8725561 ], [ 101.4553289, 5.8656483 ], [ 101.4979016, 5.882762 ], [ 101.5430831, 5.9186079 ], [ 101.6139518, 5.9099092 ], [ 101.6221387, 5.874347 ], [ 101.6569334, 5.8756262 ], [ 101.6587243, 5.8144797 ], [ 101.7004609, 5.7530626 ] ] ] ] } },
{ "type": "Feature", "properties": { "POLYGON_ID": "MYS_GAUL2002_ADM1_1899", "ADM0_ISO3": "MYS", "ADM0_NAME": "Malaysia", "ADM0_CODE": 153, "ADM1_NAME": "Perlis", "ADM1_CODE": 1899, "GEOSET": "GAUL", "GEOSET_YEAR": 2002.0, "GEOSET_VERSION": "GAUL_v1", "GEOSET_UNIT": "ADM1", "CENTROID_LONG": 100.09670833972743, "CENTROID_LAT": 6.4582400237743247 }, "geometry": { "type": "MultiPolygon", "coordinates": [ [ [ [ 100.3781949, 6.5432817 ], [ 100.3655167, 6.455555 ], [ 100.2941284, 6.3908329 ], [ 100.2119064, 6.2966661 ], [ 100.2007223, 6.2581547 ], [ 100.1686478, 6.2959208 ], [ 100.1212535, 6.4217143 ], [ 100.1470346, 6.4498579 ], [ 100.1629109, 6.5000269 ], [ 100.1597356, 6.5739044 ], [ 100.1806923, 6.6575194 ], [ 100.1785755, 6.6971042 ], [ 100.207012, 6.720129 ], [ 100.2431389, 6.6924472 ], [ 100.2907677, 6.7100169 ], [ 100.294033, 6.6805132 ], [ 100.3242137, 6.6600596 ], [ 100.3253697, 6.586067 ], [ 100.3781949, 6.5432817 ] ] ], [ [ [ 99.8598328, 6.4532208 ], [ 99.9114761, 6.3757272 ], [ 99.9098358, 6.328155 ], [ 99.8570023, 6.3086667 ], [ 99.8117599, 6.3167501 ], [ 99.7377853, 6.261188 ], [ 99.7102661, 6.359117 ], [ 99.6601944, 6.3616781 ], [ 99.6452866, 6.4320111 ], [ 99.6988068, 6.4340439 ], [ 99.7895279, 6.422256 ], [ 99.8203278, 6.451417 ], [ 99.8598328, 6.4532208 ] ] ], [ [ [ 99.8261948, 6.1892509 ], [ 99.7754288, 6.2043872 ], [ 99.8023224, 6.2703309 ], [ 99.8335266, 6.2089362 ], [ 99.8261948, 6.1892509 ] ] ] ] } },
{ "type": "Feature", "properties": { "POLYGON_ID": "MYS_GAUL2002_ADM1_1900", "ADM0_ISO3": "MYS", "ADM0_NAME": "Malaysia", "ADM0_CODE": 153, "ADM1_NAME": "Pulau Pinang", "ADM1_CODE": 1900, "GEOSET": "GAUL", "GEOSET_YEAR": 2002.0, "GEOSET_VERSION": "GAUL_v1", "GEOSET_UNIT": "ADM1", "CENTROID_LONG": 100.40479748026054, "CENTROID_LAT": 5.3641961476389435 }, "geometry": { "type": "MultiPolygon", "coordinates": [ [ [ [ 100.488739, 5.1320739 ], [ 100.3981267, 5.1238166 ], [ 100.4282303, 5.208066 ], [ 100.4232712, 5.2812061 ], [ 100.4068298, 5.3442421 ], [ 100.3683472, 5.395812 ], [ 100.3847198, 5.4638538 ], [ 100.374939, 5.5386009 ], [ 100.3482745, 5.5762138 ], [ 100.3831406, 5.5835428 ], [ 100.4221878, 5.5623598 ], [ 100.527771, 5.5555878 ], [ 100.5226898, 5.3670182 ], [ 100.5508728, 5.1428051 ], [ 100.488739, 5.1320739 ] ] ], [ [ [ 100.3110733, 5.4607439 ], [ 100.3215408, 5.387373 ], [ 100.2943573, 5.279099 ], [ 100.1817398, 5.2859211 ], [ 100.2019501, 5.3134899 ], [ 100.189621, 5.3765159 ], [ 100.1974564, 5.419508 ], [ 100.1853333, 5.459075 ], [ 100.24086, 5.4638309 ], [ 100.2578583, 5.4789839 ], [ 100.3110733, 5.4607439 ] ] ] ] } },
{ "type": "Feature", "properties": { "POLYGON_ID": "MYS_GAUL2002_ADM1_1901", "ADM0_ISO3": "MYS", "ADM0_NAME": "Malaysia", "ADM0_CODE": 153, "ADM1_NAME": "Sabah", "ADM1_CODE": 1901, "GEOSET": "GAUL", "GEOSET_YEAR": 2002.0, "GEOSET_VERSION": "GAUL_v1", "GEOSET_UNIT": "ADM1", "CENTROID_LONG": 117.12447043464776, "CENTROID_LAT": 5.3487076483983982 }, "geometry": { "type": "MultiPolygon", "coordinates": [ [ [ [ 117.585999, 4.1776381 ], [ 117.5251071, 4.1632083 ], [ 117.44029, 4.19412 ], [ 117.4066835, 4.2552087 ], [ 117.36991, 4.28343 ], [ 117.2933837, 4.3131534 ], [ 117.2627702, 4.3582682 ], [ 117.224906, 4.3694462 ], [ 117.1764328, 4.327598 ], [ 117.14415, 4.3533 ], [ 117.11143, 4.33635 ], [ 116.97375, 4.3441 ], [ 116.90615, 4.36982 ], [ 116.86965, 4.33955 ], [ 116.82764, 4.33234 ], [ 116.75185, 4.38965 ], [ 116.73551, 4.35804 ], [ 116.6995785, 4.3383405 ], [ 116.6666878, 4.3524492 ], [ 116.6191481, 4.3395451 ], [ 116.6113855, 4.3777901 ], [ 116.5621, 4.39412 ], [ 116.5365, 4.37686 ], [ 116.53352, 4.32602 ], [ 116.48728, 4.33287 ], [ 116.43737, 4.28829 ], [ 116.42946, 4.32578 ], [ 116.3961, 4.36289 ], [ 116.35095, 4.3909 ], [ 116.27599, 4.36324 ], [ 116.24723, 4.37706 ], [ 116.160773, 4.3792144 ], [ 116.156641, 4.3471423 ], [ 116.0983995, 4.3170378 ], [ 116.0801007, 4.2776854 ], [ 116.0318941, 4.3007065 ], [ 116.0338617, 4.3284499 ], [ 115.9569279, 4.3595383 ], [ 115.929578, 4.3552095 ], [ 115.9057699, 4.396136 ], [ 115.8754686, 4.3876752 ], [ 115.8646467, 4.3406492 ], [ 115.8705495, 4.287917 ], [ 115.8247041, 4.2619445 ], [ 115.8028635, 4.2214116 ], [ 115.7662659, 4.2483679 ], [ 115.7282909, 4.189733 ], [ 115.7025151, 4.1924876 ], [ 115.682693, 4.1296658 ], [ 115.6526718, 4.1339307 ], [ 115.6410294, 4.1845737 ], [ 115.6525497, 4.2530432 ], [ 115.6780548, 4.3013968 ], [ 115.6656799, 4.3402495 ], [ 115.6013031, 4.3696342 ], [ 115.600296, 4.4187818 ], [ 115.5652847, 4.484139 ], [ 115.5849228, 4.5147023 ], [ 115.573204, 4.5681129 ], [ 115.5516434, 4.6071081 ], [ 115.5682907, 4.6438351 ], [ 115.606163, 4.6789594 ], [ 115.655365, 4.8150992 ], [ 115.6131134, 4.9765587 ], [ 115.5410614, 4.9770317 ], [ 115.4972229, 4.9532027 ], [ 115.4355425, 4.9788383 ], [ 115.4626389, 5.015121 ], [ 115.5130768, 5.0333219 ], [ 115.5488281, 5.081408 ], [ 115.5673523, 5.2118092 ], [ 115.489357, 5.207624 ], [ 115.4232712, 5.2675982 ], [ 115.3656693, 5.2965288 ], [ 115.3750076, 5.4043822 ], [ 115.4227066, 5.4251122 ], [ 115.4428864, 5.4504189 ], [ 115.5582504, 5.5562601 ], [ 115.5951691, 5.630774 ], [ 115.6190414, 5.605495 ], [ 115.6000137, 5.5735259 ], [ 115.6592331, 5.5390649 ], [ 115.7344894, 5.5305872 ], [ 115.7962189, 5.5329051 ], [ 115.8556366, 5.5632691 ], [ 115.8861618, 5.6253529 ], [ 115.8994675, 5.7455969 ], [ 115.9788895, 5.7800889 ], [ 116.0413284, 5.8442302 ], [ 116.0422668, 5.9545732 ], [ 116.082222, 5.9966359 ], [ 116.1088562, 5.998703 ], [ 116.1063385, 6.050652 ], [ 116.127243, 6.0665092 ], [ 116.0840836, 6.111105 ], [ 116.1148529, 6.1225948 ], [ 116.1644669, 6.1802778 ], [ 116.1812363, 6.2163591 ], [ 116.2127228, 6.2393351 ], [ 116.2343216, 6.281847 ], [ 116.3252792, 6.3080168 ], [ 116.3119888, 6.3601899 ], [ 116.3436966, 6.386375 ], [ 116.4776764, 6.475471 ], [ 116.5050583, 6.5443902 ], [ 116.5432281, 6.5873342 ], [ 116.5752182, 6.6486592 ], [ 116.6165924, 6.6683879 ], [ 116.645813, 6.7168431 ], [ 116.6256485, 6.780036 ], [ 116.6468201, 6.811492 ], [ 116.6390533, 6.8618069 ], [ 116.6834335, 6.8918638 ], [ 116.7189026, 6.9630399 ], [ 116.7232971, 6.9924369 ], [ 116.7539063, 7.0312262 ], [ 116.8384094, 6.9468498 ], [ 116.8507538, 6.8799949 ], [ 116.8070526, 6.857986 ], [ 116.8538895, 6.8145232 ], [ 116.8402634, 6.7467661 ], [ 116.8011475, 6.7056808 ], [ 116.7564926, 6.631053 ], [ 116.7513886, 6.5867128 ], [ 116.7922592, 6.5607109 ], [ 116.8497162, 6.5781178 ], [ 116.8541336, 6.6148758 ], [ 116.902977, 6.6557221 ], [ 116.9760132, 6.6983719 ], [ 116.9719162, 6.733068 ], [ 117.0492706, 6.8335962 ], [ 117.055069, 6.8726401 ], [ 117.0302811, 6.9020739 ], [ 117.0314865, 6.947093 ], [ 117.0970688, 6.993866 ], [ 117.1529465, 7.0066528 ], [ 117.192627, 6.9546871 ], [ 117.2420273, 6.9415221 ], [ 117.2522583, 6.865015 ], [ 117.2167892, 6.817976 ], [ 117.2470169, 6.7542958 ], [ 117.2802734, 6.710824 ], [ 117.264389, 6.6952271 ], [ 117.2893066, 6.6150041 ], [ 117.3081284, 6.6039448 ], [ 117.3917465, 6.5959969 ], [ 117.4043198, 6.5622001 ], [ 117.4578476, 6.5584311 ], [ 117.5183868, 6.6228871 ], [ 117.5543137, 6.5410233 ], [ 117.5960464, 6.5057859 ], [ 117.6279907, 6.509171 ], [ 117.7188263, 6.4469442 ], [ 117.7369232, 6.4209399 ], [ 117.7140274, 6.349288 ], [ 117.7303467, 6.3051062 ], [ 117.7036667, 6.2330203 ], [ 117.6428528, 6.2506099 ], [ 117.5904465, 6.1906118 ], [ 117.6161804, 6.128849 ], [ 117.6532593, 6.072001 ], [ 117.6265564, 6.0407939 ], [ 117.6710205, 6.0004792 ], [ 117.6766968, 5.9705849 ], [ 117.6205673, 5.9217329 ], [ 117.7157974, 5.8978639 ], [ 117.766098, 5.907413 ], [ 117.7556076, 5.9403081 ], [ 117.8299866, 5.9371581 ], [ 117.899147, 5.9641271 ], [ 117.9854889, 6.0616159 ], [ 118.0635071, 5.9543071 ], [ 118.0475922, 5.925612 ], [ 118.1224823, 5.8585272 ], [ 118.0782928, 5.812202 ], [ 118.0187836, 5.7884402 ], [ 118.0002518, 5.8149228 ], [ 117.9652863, 5.7883401 ], [ 118.0136719, 5.766613 ], [ 117.9970932, 5.742054 ], [ 117.9599075, 5.7442122 ], [ 117.9441528, 5.7759748 ], [ 117.9041977, 5.77285 ], [ 117.9110031, 5.737659 ], [ 117.9392166, 5.7339149 ], [ 117.9306335, 5.6927819 ], [ 117.9905014, 5.6788449 ], [ 118.0493469, 5.7191648 ], [ 118.0975189, 5.7068582 ], [ 118.115097, 5.670258 ], [ 118.143837, 5.6890359 ], [ 118.1223602, 5.7258768 ], [ 118.1635132, 5.7480712 ], [ 118.1427231, 5.7883582 ], [ 118.15802, 5.840734 ], [ 118.20327, 5.8516479 ], [ 118.2670136, 5.8245778 ], [ 118.3844528, 5.7957401 ], [ 118.4697037, 5.7518091 ], [ 118.5704727, 5.6834469 ], [ 118.6164627, 5.6361699 ], [ 118.6579285, 5.618104 ], [ 118.7089005, 5.5572381 ], [ 118.808548, 5.507699 ], [ 118.86026, 5.4679723 ], [ 118.8937225, 5.4572792 ], [ 118.9298401, 5.41921 ], [ 118.9477768, 5.432714 ], [ 119.0020828, 5.410213 ], [ 119.0924835, 5.4101081 ], [ 119.1090927, 5.4348779 ], [ 119.1470032, 5.448071 ], [ 119.1978683, 5.4310889 ], [ 119.2378464, 5.390923 ], [ 119.2634811, 5.3165469 ], [ 119.2451324, 5.2616611 ], [ 119.2634964, 5.2100768 ], [ 119.2141571, 5.145422 ], [ 119.1660767, 5.1104221 ], [ 119.0393066, 5.0626059 ], [ 118.9585266, 5.048182 ], [ 118.8872681, 5.0192032 ], [ 118.8611069, 4.995862 ], [ 118.792717, 4.9822979 ], [ 118.7270126, 4.9457211 ], [ 118.6258774, 4.942831 ], [ 118.5403976, 4.957819 ], [ 118.5118637, 4.923408 ], [ 118.4703522, 4.9237642 ], [ 118.4456863, 4.954885 ], [ 118.4471664, 4.9889178 ], [ 118.3803177, 5.024991 ], [ 118.3273392, 5.0242229 ], [ 118.2987213, 4.9610591 ], [ 118.2567825, 4.9712939 ], [ 118.2060776, 4.9606218 ], [ 118.1249237, 4.8787308 ], [ 118.1300812, 4.839159 ], [ 118.1585236, 4.8393149 ], [ 118.1863937, 4.8049731 ], [ 118.1924667, 4.7626381 ], [ 118.225769, 4.7036691 ], [ 118.2655334, 4.6584811 ], [ 118.3078537, 4.6280031 ], [ 118.3550568, 4.628099 ], [ 118.4009705, 4.5729952 ], [ 118.4315338, 4.5961361 ], [ 118.4831924, 4.5529699 ], [ 118.4525833, 4.5093598 ], [ 118.498558, 4.4827709 ], [ 118.5286865, 4.5192499 ], [ 118.5877838, 4.5084858 ], [ 118.6354599, 4.438642 ], [ 118.6073837, 4.4012389 ], [ 118.5421829, 4.3660212 ], [ 118.4793625, 4.3542519 ], [ 118.3931274, 4.3269057 ], [ 118.3762207, 4.3430562 ], [ 118.2058411, 4.2945371 ], [ 118.1687393, 4.3006158 ], [ 118.1026917, 4.276866 ], [ 118.068718, 4.2539511 ], [ 117.9769974, 4.222434 ], [ 117.9142838, 4.248343 ], [ 117.8769302, 4.2433691 ], [ 117.8486328, 4.2889771 ], [ 117.7976303, 4.331182 ], [ 117.7575302, 4.3308091 ], [ 117.7140503, 4.355052 ], [ 117.654129, 4.408308 ], [ 117.6134567, 4.3591661 ], [ 117.6186066, 4.2954412 ], [ 117.6524887, 4.281343 ], [ 117.6425781, 4.253531 ], [ 117.6056366, 4.230372 ], [ 117.585999, 4.1776381 ] ] ], [ [ [ 118.6333466, 4.495461 ], [ 118.6743622, 4.4909582 ], [ 118.7361069, 4.4539528 ], [ 118.7124405, 4.4342508 ], [ 118.6526718, 4.4459462 ], [ 118.6333466, 4.495461 ] ] ], [ [ [ 118.4586487, 4.6958761 ], [ 118.4910736, 4.653688 ], [ 118.5391998, 4.6521611 ], [ 118.5810928, 4.6343198 ], [ 118.5208969, 4.594027 ], [ 118.4302368, 4.6255798 ], [ 118.4273605, 4.6603189 ], [ 118.4586487, 4.6958761 ] ] ], [ [ [ 117.8958674, 4.1667424 ], [ 117.6783541, 4.1668656 ], [ 117.6259766, 4.2057199 ], [ 117.6294708, 4.231245 ], [ 117.6785736, 4.264729 ], [ 117.7486572, 4.2586031 ], [ 117.8113098, 4.201653 ], [ 117.8742828, 4.1858711 ], [ 117.8958674, 4.1667424 ] ] ], [ [ [ 117.6750336, 5.9420838 ], [ 117.6836472, 6.002522 ], [ 117.713707, 5.9916568 ], [ 117.6750336, 5.9420838 ] ] ], [ [ [ 117.4747467, 6.7486382 ], [ 117.5047531, 6.6918378 ], [ 117.4839706, 6.6429381 ], [ 117.3966064, 6.6173568 ], [ 117.3408127, 6.6360602 ], [ 117.3348999, 6.6730599 ], [ 117.4054337, 6.670186 ], [ 117.3862534, 6.731791 ], [ 117.4163818, 6.7498879 ], [ 117.4747467, 6.7486382 ] ] ], [ [ [ 117.3136215, 7.0695128 ], [ 117.3463364, 7.0472441 ], [ 117.3081284, 7.0142322 ], [ 117.2624435, 7.0443912 ], [ 117.2666092, 7.0696483 ], [ 117.3136215, 7.0695128 ] ] ], [ [ [ 117.2532806, 7.3546453 ], [ 117.2820206, 7.3523059 ], [ 117.260231, 7.2474051 ], [ 117.2739792, 7.2168431 ], [ 117.2242737, 7.1859169 ], [ 117.1594162, 7.1802692 ], [ 117.098877, 7.1383252 ], [ 117.052742, 7.1863809 ], [ 117.0784378, 7.3085098 ], [ 117.167717, 7.3442092 ], [ 117.2348938, 7.3633981 ], [ 117.2532806, 7.3546453 ] ] ], [ [ [ 117.0207138, 7.3101902 ], [ 116.9749527, 7.3031268 ], [ 116.9534912, 7.247354 ], [ 116.865181, 7.2430873 ], [ 116.8875427, 7.286922 ], [ 116.9330673, 7.2916942 ], [ 116.975647, 7.3150659 ], [ 117.0026093, 7.3577399 ], [ 117.0207138, 7.3101902 ] ] ] ] } },
{ "type": "Feature", "properties": { "POLYGON_ID": "MYS_GAUL2002_ADM1_1902", "ADM0_ISO3": "MYS", "ADM0_NAME": "Malaysia", "ADM0_CODE": 153, "ADM1_NAME": "Sarawak", "ADM1_CODE": 1902, "GEOSET": "GAUL", "GEOSET_YEAR": 2002.0, "GEOSET_VERSION": "GAUL_v1", "GEOSET_UNIT": "ADM1", "CENTROID_LONG": 113.29580000744592, "CENTROID_LAT": 2.5890829224808254 }, "geometry": { "type": "MultiPolygon", "coordinates": [ [ [ [ 115.682693, 4.1296658 ], [ 115.6785102, 4.0925327 ], [ 115.6391578, 3.9616862 ], [ 115.616727, 3.9374845 ], [ 115.5807196, 3.9400424 ], [ 115.5608467, 3.9172181 ], [ 115.604331, 3.8757014 ], [ 115.6169238, 3.8400875 ], [ 115.5769812, 3.7450516 ], [ 115.5742124, 3.616962 ], [ 115.6119207, 3.5542322 ], [ 115.6115683, 3.5066563 ], [ 115.6570297, 3.44005 ], [ 115.6224931, 3.4115044 ], [ 115.6069869, 3.4541465 ], [ 115.5446096, 3.3646333 ], [ 115.5174737, 3.2056945 ], [ 115.5456668, 3.1813779 ], [ 115.5114826, 3.0929219 ], [ 115.5174737, 3.0569756 ], [ 115.4818798, 3.016448 ], [ 115.4529819, 3.0270204 ], [ 115.4036439, 2.9843783 ], [ 115.3250555, 2.9790921 ], [ 115.32087, 3.01449 ], [ 115.2847132, 3.0483111 ], [ 115.221079, 2.961631 ], [ 115.1632923, 2.9274062 ], [ 115.1521133, 2.8701354 ], [ 115.0955305, 2.8183681 ], [ 115.1536612, 2.7932584 ], [ 115.1316472, 2.7377074 ], [ 115.1015499, 2.721025 ], [ 115.1153087, 2.6603145 ], [ 115.0926067, 2.6040756 ], [ 115.134055, 2.5851573 ], [ 115.1761911, 2.610611 ], [ 115.20789, 2.55577 ], [ 115.2485965, 2.5087963 ], [ 115.2052565, 2.4728516 ], [ 115.144374, 2.4762913 ], [ 115.0871032, 2.40251 ], [ 115.0499546, 2.4045738 ], [ 114.991136, 2.3483349 ], [ 114.9610387, 2.3638135 ], [ 114.9486559, 2.3230532 ], [ 114.9679181, 2.2912361 ], [ 114.9132271, 2.2532276 ], [ 114.8621477, 2.2607949 ], [ 114.7988575, 2.248756 ], [ 114.7875065, 2.2006004 ], [ 114.7574093, 2.1945809 ], [ 114.7586132, 2.1419537 ], [ 114.804705, 2.1037732 ], [ 114.7880225, 2.0575094 ], [ 114.8016093, 2.0236285 ], [ 114.859052, 2.0447826 ], [ 114.8687599, 1.9833736 ], [ 114.8545028, 1.9420048 ], [ 114.8825495, 1.9137244 ], [ 114.821548, 1.8926894 ], [ 114.7946699, 1.849217 ], [ 114.7518987, 1.8667462 ], [ 114.7023496, 1.8139249 ], [ 114.7131008, 1.6589671 ], [ 114.6689273, 1.6012377 ], [ 114.6095619, 1.5750608 ], [ 114.5997455, 1.5336919 ], [ 114.6161061, 1.5152279 ], [ 114.5826838, 1.4411379 ], [ 114.5527673, 1.4322564 ], [ 114.4957391, 1.4745602 ], [ 114.4735355, 1.4743265 ], [ 114.4073921, 1.5149941 ], [ 114.332601, 1.4841428 ], [ 114.281182, 1.4518891 ], [ 114.2484609, 1.4514217 ], [ 114.2056554, 1.409705 ], [ 114.1355731, 1.4666136 ], [ 114.0448888, 1.4518891 ], [ 113.9745384, 1.4493182 ], [ 113.8756739, 1.389719 ], [ 113.8207491, 1.3735922 ], [ 113.8298643, 1.3375989 ], [ 113.8039211, 1.301372 ], [ 113.7550732, 1.2768311 ], [ 113.7031868, 1.2658462 ], [ 113.68986, 1.24345 ], [ 113.6316678, 1.2191017 ], [ 113.6258247, 1.2534589 ], [ 113.5966095, 1.2628078 ], [ 113.579314, 1.3086174 ], [ 113.5377114, 1.322407 ], [ 113.4206166, 1.2852451 ], [ 113.3981792, 1.3177325 ], [ 113.3698988, 1.3235756 ], [ 113.3575116, 1.3574653 ], [ 113.2315352, 1.3946272 ], [ 113.1838559, 1.377098 ], [ 113.1410847, 1.3948609 ], [ 113.1060264, 1.4455786 ], [ 113.08814, 1.42742 ], [ 113.0433888, 1.423375 ], [ 113.0176794, 1.4053784 ], [ 112.9812187, 1.4086505 ], [ 112.9751419, 1.4378658 ], [ 113.0401167, 1.4794683 ], [ 113.0569447, 1.5575316 ], [ 112.9886978, 1.579034 ], [ 112.9830885, 1.5638421 ], [ 112.8899298, 1.5855996 ], [ 112.864825, 1.56057 ], [ 112.8045246, 1.5421059 ], [ 112.786528, 1.5591676 ], [ 112.7294998, 1.5671142 ], [ 112.6776134, 1.5526234 ], [ 112.6596168, 1.5708538 ], [ 112.4864286, 1.5804364 ], [ 112.4443586, 1.5386001 ], [ 112.3321719, 1.5070476 ], [ 112.2611203, 1.4610043 ], [ 112.2115712, 1.4476821 ], [ 112.1994176, 1.4093517 ], [ 112.2316713, 1.3763968 ], [ 112.202456, 1.3137592 ], [ 112.1788501, 1.3039429 ], [ 112.1739419, 1.2529914 ], [ 112.1432631, 1.1396686 ], [ 111.93053, 1.11446 ], [ 111.92542, 1.09034 ], [ 111.8838, 1.06795 ], [ 111.85895, 1.00895 ], [ 111.8282894, 0.9876698 ], [ 111.7219989, 1.0053681 ], [ 111.6657, 1.03988 ], [ 111.58637, 1.0031 ], [ 111.5797, 0.98312 ], [ 111.5181389, 0.9666887 ], [ 111.5149685, 1.0012466 ], [ 111.4883367, 1.0342192 ], [ 111.4471209, 1.0142454 ], [ 111.3849801, 1.0151965 ], [ 111.3443983, 1.039926 ], [ 111.2438951, 1.0786055 ], [ 111.1348316, 1.0497544 ], [ 111.0774464, 1.0513397 ], [ 110.9769432, 1.0272442 ], [ 110.898316, 1.0281954 ], [ 110.8916581, 0.9869795 ], [ 110.85375, 0.95264 ], [ 110.8106, 0.94813 ], [ 110.80915, 0.90745 ], [ 110.71785, 0.9067 ], [ 110.67946, 0.8801 ], [ 110.62947, 0.87719 ], [ 110.5719097, 0.8552204 ], [ 110.46333, 0.89193 ], [ 110.4047497, 0.9457905 ], [ 110.39388, 0.99293 ], [ 110.3575673, 0.9830902 ], [ 110.3091967, 1.0026898 ], [ 110.27905, 0.99123 ], [ 110.2601045, 1.0754351 ], [ 110.1884524, 1.1857667 ], [ 110.1589672, 1.1993997 ], [ 110.0911899, 1.1969501 ], [ 110.06269, 1.2287 ], [ 110.05268, 1.26619 ], [ 109.97873, 1.29729 ], [ 109.95576, 1.39986 ], [ 109.93135, 1.41873 ], [ 109.8469949, 1.4254527 ], [ 109.79324, 1.49401 ], [ 109.751, 1.52945 ], [ 109.65331, 1.63506 ], [ 109.6818145, 1.7859329 ], [ 109.57801, 1.81057 ], [ 109.55084, 1.85704 ], [ 109.53602, 1.92145 ], [ 109.57465, 1.93685 ], [ 109.58197, 1.96399 ], [ 109.6190396, 1.9821837 ], [ 109.6390134, 2.0272041 ], [ 109.6429732, 2.0759545 ], [ 109.6524582, 2.0418279 ], [ 109.6407928, 1.9539169 ], [ 109.6468201, 1.911665 ], [ 109.6984711, 1.848619 ], [ 109.8398438, 1.793153 ], [ 109.8755035, 1.758713 ], [ 109.8683701, 1.733374 ], [ 109.9441986, 1.7026819 ], [ 110.1134567, 1.700016 ], [ 110.2586365, 1.7132349 ], [ 110.281517, 1.7065001 ], [ 110.3218384, 1.7918301 ], [ 110.3478622, 1.76006 ], [ 110.3474274, 1.722131 ], [ 110.4176102, 1.6794031 ], [ 110.4396362, 1.73288 ], [ 110.4967422, 1.732808 ], [ 110.471962, 1.6459869 ], [ 110.5099869, 1.629006 ], [ 110.526062, 1.58039 ], [ 110.5980911, 1.601786 ], [ 110.6650467, 1.559709 ], [ 110.7082291, 1.5563129 ], [ 110.7561493, 1.4890561 ], [ 110.7654724, 1.568405 ], [ 110.7838898, 1.581164 ], [ 110.8668137, 1.5398619 ], [ 110.9372635, 1.520539 ], [ 111.0058517, 1.469484 ], [ 111.0615082, 1.401572 ], [ 111.1104202, 1.3929051 ], [ 111.1491623, 1.365332 ], [ 111.1911469, 1.369258 ], [ 111.2129364, 1.391217 ], [ 111.2503662, 1.393504 ], [ 111.2833481, 1.3355589 ], [ 111.3043137, 1.3853149 ], [ 111.2527618, 1.416039 ], [ 111.1923065, 1.405802 ], [ 111.1675415, 1.3861229 ], [ 111.1209869, 1.4210041 ], [ 111.0626297, 1.4431731 ], [ 111.045929, 1.4878839 ], [ 110.9973068, 1.523898 ], [ 110.9865265, 1.568877 ], [ 111.009819, 1.6467049 ], [ 111.0311127, 1.676255 ], [ 111.1177597, 1.7016031 ], [ 111.0796967, 1.765043 ], [ 111.1051102, 1.7941591 ], [ 111.096962, 1.820774 ], [ 111.1674118, 1.96395 ], [ 111.1680832, 2.005794 ], [ 111.1939774, 2.070549 ], [ 111.245163, 2.1529269 ], [ 111.1725616, 2.140084 ], [ 111.1697769, 2.18697 ], [ 111.2004929, 2.213362 ], [ 111.1767273, 2.251159 ], [ 111.1896896, 2.3020499 ], [ 111.1871872, 2.380213 ], [ 111.2298203, 2.440249 ], [ 111.3034592, 2.394459 ], [ 111.3448868, 2.3425009 ], [ 111.3838577, 2.364337 ], [ 111.4451523, 2.3593941 ], [ 111.4064331, 2.4182711 ], [ 111.4188538, 2.4880149 ], [ 111.3903198, 2.5625889 ], [ 111.4146576, 2.6268852 ], [ 111.4295502, 2.7053881 ], [ 111.6039734, 2.8056982 ], [ 111.6462708, 2.851922 ], [ 111.6771698, 2.8477161 ], [ 111.7841034, 2.869436 ], [ 111.9663162, 2.886688 ], [ 112.1667023, 2.9331939 ], [ 112.3026199, 2.974071 ], [ 112.4969177, 3.0098889 ], [ 112.6781235, 3.062398 ], [ 112.8726578, 3.103878 ], [ 112.9681473, 3.1428802 ], [ 113.0170136, 3.1741102 ], [ 113.0734787, 3.254127 ], [ 113.060112, 3.281219 ], [ 113.1527863, 3.351012 ], [ 113.1688919, 3.3945401 ], [ 113.2553864, 3.4702809 ], [ 113.2987137, 3.520339 ], [ 113.2899628, 3.5396309 ], [ 113.3659287, 3.622457 ], [ 113.4226227, 3.723387 ], [ 113.4323425, 3.7650511 ], [ 113.5500488, 3.839942 ], [ 113.6642838, 3.938036 ], [ 113.7593002, 4.033762 ], [ 113.8035278, 4.1157699 ], [ 113.8978729, 4.2229791 ], [ 113.9624329, 4.3399911 ], [ 113.9912415, 4.46174 ], [ 113.9697037, 4.5599003 ], [ 113.9877167, 4.5944452 ], [ 114.0714569, 4.5888681 ], [ 114.15961, 4.57165 ], [ 114.19015, 4.54224 ], [ 114.25754, 4.50271 ], [ 114.29765, 4.42836 ], [ 114.30663, 4.36133 ], [ 114.32989, 4.34277 ], [ 114.31593, 4.27243 ], [ 114.42349, 4.24966 ], [ 114.4586913, 4.2207871 ], [ 114.4959476, 4.146767 ], [ 114.5450207, 4.1246102 ], [ 114.5465259, 4.077159 ], [ 114.568731, 4.0461105 ], [ 114.6154138, 4.0417131 ], [ 114.6247141, 4.00192 ], [ 114.7030258, 4.0300543 ], [ 114.8006324, 4.1360936 ], [ 114.8073204, 4.1927965 ], [ 114.8573353, 4.2684004 ], [ 114.8109068, 4.2529888 ], [ 114.869173, 4.3347525 ], [ 114.8828274, 4.4237761 ], [ 114.8297108, 4.429301 ], [ 114.8174979, 4.4768927 ], [ 114.8183702, 4.584289 ], [ 114.7969491, 4.6648362 ], [ 114.7760127, 4.6959501 ], [ 114.7838661, 4.7333004 ], [ 114.82545, 4.74717 ], [ 114.8494, 4.79511 ], [ 114.88784, 4.8151 ], [ 114.9730738, 4.8115954 ], [ 115.0116383, 4.8917201 ], [ 115.0358551, 4.804395 ], [ 115.0249994, 4.7351443 ], [ 115.0433492, 4.6769594 ], [ 115.0392419, 4.6329155 ], [ 115.0754011, 4.5640076 ], [ 115.0953144, 4.4909556 ], [ 115.0914852, 4.4436904 ], [ 115.1094668, 4.3707813 ], [ 115.1483371, 4.3842314 ], [ 115.2456411, 4.3437248 ], [ 115.2936326, 4.3369003 ], [ 115.3198299, 4.2981548 ], [ 115.3642991, 4.3413032 ], [ 115.3323781, 4.3846717 ], [ 115.3022183, 4.3994214 ], [ 115.2720585, 4.4485137 ], [ 115.2775621, 4.5097139 ], [ 115.2665548, 4.5290867 ], [ 115.2904888, 4.6080468 ], [ 115.2593002, 4.650301 ], [ 115.2709648, 4.6841914 ], [ 115.2608765, 4.7280125 ], [ 115.2289925, 4.7651821 ], [ 115.2381881, 4.8036525 ], [ 115.1918601, 4.8391584 ], [ 115.1545853, 4.9127639 ], [ 115.1875305, 4.9291081 ], [ 115.1870422, 4.9617639 ], [ 115.231987, 4.9526091 ], [ 115.2416534, 4.9215708 ], [ 115.2861404, 4.9135618 ], [ 115.3164215, 4.8926592 ], [ 115.3835907, 4.9122629 ], [ 115.4184036, 4.9773741 ], [ 115.4355425, 4.9788383 ], [ 115.4972229, 4.9532027 ], [ 115.5410614, 4.9770317 ], [ 115.6131134, 4.9765587 ], [ 115.655365, 4.8150992 ], [ 115.606163, 4.6789594 ], [ 115.5682907, 4.6438351 ], [ 115.5516434, 4.6071081 ], [ 115.573204, 4.5681129 ], [ 115.5849228, 4.5147023 ], [ 115.5652847, 4.484139 ], [ 115.600296, 4.4187818 ], [ 115.6013031, 4.3696342 ], [ 115.6656799, 4.3402495 ], [ 115.6780548, 4.3013968 ], [ 115.6525497, 4.2530432 ], [ 115.6410294, 4.1845737 ], [ 115.6526718, 4.1339307 ], [ 115.682693, 4.1296658 ] ] ], [ [ [ 111.4160233, 2.378545 ], [ 111.3856277, 2.3753841 ], [ 111.3551483, 2.348768 ], [ 111.3351974, 2.4010799 ], [ 111.290863, 2.4399149 ], [ 111.3016281, 2.516551 ], [ 111.2776337, 2.71786 ], [ 111.294693, 2.7752221 ], [ 111.3195267, 2.792614 ], [ 111.3574066, 2.764544 ], [ 111.3761978, 2.7186561 ], [ 111.3775177, 2.6027598 ], [ 111.3710403, 2.491653 ], [ 111.4160233, 2.378545 ] ] ] ] } },
{ "type": "Feature", "properties": { "POLYGON_ID": "MYS_GAUL2002_ADM1_1903", "ADM0_ISO3": "MYS", "ADM0_NAME": "Malaysia", "ADM0_CODE": 153, "ADM1_NAME": "Selangor", "ADM1_CODE": 1903, "GEOSET": "GAUL", "GEOSET_YEAR": 2002.0, "GEOSET_VERSION": "GAUL_v1", "GEOSET_UNIT": "ADM1", "CENTROID_LONG": 101.50152681884634, "CENTROID_LAT": 3.2744212225003251 }, "geometry": { "type": "MultiPolygon", "coordinates": [ [ [ [ 101.6233597, 3.772593 ], [ 101.6911697, 3.7090721 ], [ 101.7327957, 3.711648 ], [ 101.7649002, 3.6827869 ], [ 101.7810822, 3.6354811 ], [ 101.8145752, 3.6029661 ], [ 101.8048706, 3.5500879 ], [ 101.7615433, 3.5052359 ], [ 101.7849808, 3.4296651 ], [ 101.75914, 3.373455 ], [ 101.7808075, 3.358721 ], [ 101.823761, 3.296484 ], [ 101.8862, 3.2613201 ], [ 101.9081116, 3.2617509 ], [ 101.9464798, 3.2254119 ], [ 101.9411621, 3.183167 ], [ 101.9578094, 3.145885 ], [ 101.9493485, 3.1053159 ], [ 101.969368, 3.028074 ], [ 101.9396744, 3.014895 ], [ 101.8817215, 2.8671811 ], [ 101.7571945, 2.869432 ], [ 101.7639465, 2.704798 ], [ 101.740181, 2.673301 ], [ 101.7143226, 2.5950133 ], [ 101.6855927, 2.6158209 ], [ 101.6067734, 2.6372221 ], [ 101.4834366, 2.6932411 ], [ 101.4137268, 2.8010728 ], [ 101.3022079, 2.838635 ], [ 101.2840576, 2.9044631 ], [ 101.3049698, 2.9471869 ], [ 101.3632126, 3.0082111 ], [ 101.3601608, 3.072392 ], [ 101.3227234, 3.1092949 ], [ 101.308197, 3.1583259 ], [ 101.3031387, 3.249197 ], [ 101.2301178, 3.340476 ], [ 101.1882629, 3.352314 ], [ 101.1337585, 3.4442301 ], [ 101.097908, 3.485261 ], [ 101.0644531, 3.5768931 ], [ 101.0356903, 3.621587 ], [ 100.9431, 3.688277 ], [ 100.8798065, 3.7604151 ], [ 100.8159637, 3.779412 ], [ 100.808615, 3.8500965 ], [ 100.8291855, 3.8456881 ], [ 100.9440918, 3.862721 ], [ 100.9666977, 3.8276 ], [ 100.9610825, 3.7799089 ], [ 101.0212173, 3.8063769 ], [ 101.0865707, 3.7428701 ], [ 101.1450806, 3.745342 ], [ 101.2301178, 3.714026 ], [ 101.2465591, 3.684026 ], [ 101.2807693, 3.669054 ], [ 101.3353348, 3.690136 ], [ 101.3465729, 3.7114861 ], [ 101.3240433, 3.7748301 ], [ 101.356163, 3.8029881 ], [ 101.3877716, 3.773428 ], [ 101.4415512, 3.7517331 ], [ 101.4610367, 3.715349 ], [ 101.5377197, 3.683712 ], [ 101.6233597, 3.772593 ] ], [ [ 101.7493668, 3.160661 ], [ 101.7576447, 3.1928821 ], [ 101.6725922, 3.2293789 ], [ 101.6196899, 3.198241 ], [ 101.6153946, 3.1559949 ], [ 101.6481781, 3.1270831 ], [ 101.6775055, 3.0422211 ], [ 101.7492218, 3.0557699 ], [ 101.7493668, 3.160661 ] ] ], [ [ [ 101.2818069, 2.9233279 ], [ 101.2686768, 2.9797139 ], [ 101.3159866, 3.0653811 ], [ 101.3413467, 3.052892 ], [ 101.339653, 3.0085049 ], [ 101.3114471, 2.98282 ], [ 101.2818069, 2.9233279 ] ] ] ] } },
{ "type": "Feature", "properties": { "POLYGON_ID": "MYS_GAUL2002_ADM1_1904", "ADM0_ISO3": "MYS", "ADM0_NAME": "Malaysia", "ADM0_CODE": 153, "ADM1_NAME": "Terengganu", "ADM1_CODE": 1904, "GEOSET": "GAUL", "GEOSET_YEAR": 2002.0, "GEOSET_VERSION": "GAUL_v1", "GEOSET_UNIT": "ADM1", "CENTROID_LONG": 102.9523229677629, "CENTROID_LAT": 4.9248937538306539 }, "geometry": { "type": "MultiPolygon", "coordinates": [ [ [ [ 103.4479175, 4.1722719 ], [ 103.4394531, 4.1855769 ], [ 103.3467407, 4.1771979 ], [ 103.3065033, 4.1143608 ], [ 103.3053284, 4.0635929 ], [ 103.3254089, 4.0495548 ], [ 103.3347549, 3.952857 ], [ 103.3060379, 3.9188941 ], [ 103.2803268, 3.9355371 ], [ 103.26651, 3.9806001 ], [ 103.1350861, 4.051713 ], [ 103.1229324, 4.0793862 ], [ 103.069046, 4.1124582 ], [ 102.9953232, 4.1298199 ], [ 102.932518, 4.098031 ], [ 102.8917923, 4.1364179 ], [ 102.9210205, 4.1571231 ], [ 102.9146652, 4.2165508 ], [ 102.9347305, 4.2441459 ], [ 102.9310608, 4.2770791 ], [ 102.9563141, 4.2923932 ], [ 103.0051346, 4.375874 ], [ 103.0257416, 4.3961072 ], [ 103.0119476, 4.4345212 ], [ 102.9744644, 4.481523 ], [ 102.9502411, 4.451273 ], [ 102.8925705, 4.469954 ], [ 102.8464661, 4.5024252 ], [ 102.8427734, 4.559412 ], [ 102.867836, 4.5612159 ], [ 102.8826904, 4.6134801 ], [ 102.8455734, 4.680182 ], [ 102.7820358, 4.6707029 ], [ 102.7343826, 4.683938 ], [ 102.6838684, 4.7153101 ], [ 102.6586304, 4.7581401 ], [ 102.6445618, 4.8115058 ], [ 102.6527405, 4.8390069 ], [ 102.5932999, 4.8690081 ], [ 102.5718079, 4.8919692 ], [ 102.5103607, 4.9074111 ], [ 102.515274, 4.947928 ], [ 102.4989777, 4.9998922 ], [ 102.5212708, 5.022284 ], [ 102.5062637, 5.0678439 ], [ 102.529808, 5.1046748 ], [ 102.4675674, 5.1621838 ], [ 102.4151917, 5.1763768 ], [ 102.4166412, 5.2888112 ], [ 102.4323044, 5.3650489 ], [ 102.3886795, 5.406239 ], [ 102.4027405, 5.4366908 ], [ 102.380661, 5.5144172 ], [ 102.4094925, 5.5413871 ], [ 102.3797226, 5.6794109 ], [ 102.4384918, 5.746223 ], [ 102.4931259, 5.7905259 ], [ 102.5389575, 5.8439396 ], [ 102.5977783, 5.8106551 ], [ 102.7051926, 5.6933951 ], [ 102.7235184, 5.6845779 ], [ 102.8595734, 5.566474 ], [ 102.9140472, 5.5356421 ], [ 102.9786987, 5.520854 ], [ 103.1023102, 5.4048281 ], [ 103.1891327, 5.2747021 ], [ 103.1922226, 5.2498488 ], [ 103.3286133, 4.9876671 ], [ 103.4127579, 4.8446288 ], [ 103.4302063, 4.8024459 ], [ 103.4285889, 4.7534618 ], [ 103.4531174, 4.6594868 ], [ 103.4397736, 4.6475959 ], [ 103.4773331, 4.5484881 ], [ 103.4503784, 4.4731832 ], [ 103.4630127, 4.3868551 ], [ 103.4990768, 4.3137431 ], [ 103.4779434, 4.2547379 ], [ 103.4526672, 4.2380791 ], [ 103.4479175, 4.1722719 ] ] ] ] } },
{ "type": "Feature", "properties": { "POLYGON_ID": "MYS_GAUL2002_ADM1_37336", "ADM0_ISO3": "MYS", "ADM0_NAME": "Malaysia", "ADM0_CODE": 153, "ADM1_NAME": "Labuan", "ADM1_CODE": 37336, "GEOSET": "GAUL", "GEOSET_YEAR": 2002.0, "GEOSET_VERSION": "GAUL_v1", "GEOSET_UNIT": "ADM1", "CENTROID_LONG": 115.22217619379317, "CENTROID_LAT": 5.3210662370793775 }, "geometry": { "type": "MultiPolygon", "coordinates": [ [ [ [ 115.2527313, 5.3874922 ], [ 115.2417374, 5.3548293 ], [ 115.2670364, 5.2925358 ], [ 115.2340164, 5.2729592 ], [ 115.1723022, 5.283936 ], [ 115.1977081, 5.3488078 ], [ 115.2320938, 5.3879323 ], [ 115.2527313, 5.3874922 ] ] ] ] } }
]
}
