{
"type": "FeatureCollection",
"name": "MYT_GAUL1992_ADM2",
"crs": { "type": "name", "properties": { "name": "urn:ogc:def:crs:OGC:1.3:CRS84" } },
"features": [
{ "type": "Feature", "properties": { "POLYGON_ID": "MYT_GAUL1992_ADM2_19545", "ADM0_ISO3": "MYT", "ADM0_NAME": "Mayotte", "ADM0_CODE": 161, "ADM1_NAME": "Administrative unit not available", "ADM1_CODE": 2027, "ADM2_NAME": "Administrative unit not available", "ADM2_CODE": 19545, "GEOSET": "GAUL", "GEOSET_YEAR": 1992.0, "GEOSET_VERSION": "GAUL_v1", "GEOSET_UNIT": "ADM2", "CENTROID_LONG": 45.142392963330373, "CENTROID_LAT": -12.819734526499332 }, "geometry": { "type": "MultiPolygon", "coordinates": [ [ [ [ 45.1063033, -12.6517337 ], [ 45.1378264, -12.726921 ], [ 45.201835, -12.7291639 ], [ 45.2323604, -12.7845062 ], [ 45.1953685, -12.8245201 ], [ 45.2171491, -12.8794747 ], [ 45.1690517, -12.9471616 ], [ 45.1524678, -12.9975551 ], [ 45.0923376, -12.9670418 ], [ 45.1040695, -12.9205156 ], [ 45.137345, -12.8928017 ], [ 45.0969987, -12.8555314 ], [ 45.0920704, -12.7711765 ], [ 45.0416478, -12.72364 ], [ 45.1063033, -12.6517337 ] ] ] ] } }
]
}
