{
"type": "FeatureCollection",
"name": "NAM_GAUL2010_ADM0",
"crs": { "type": "name", "properties": { "name": "urn:ogc:def:crs:OGC:1.3:CRS84" } },
"features": [
{ "type": "Feature", "properties": { "POLYGON_ID": "NAM_GAUL2010_ADM0_172", "ADM0_ISO3": "NAM", "ADM0_NAME": "Namibia", "ADM0_CODE": 172, "GEOSET": "GAUL", "GEOSET_YEAR": 2010.0, "GEOSET_VERSION": "GAUL_v1", "GEOSET_UNIT": "ADM0", "CENTROID_LONG": 17.222425688398058, "CENTROID_LAT": -22.137801731197342 }, "geometry": { "type": "MultiPolygon", "coordinates": [ [ [ [ 23.42989, -17.634459 ], [ 24.1804268, -17.4861933 ], [ 24.2492929, -17.4725656 ], [ 24.2605389, -17.4872438 ], [ 24.3272256, -17.4923294 ], [ 24.3884985, -17.4689522 ], [ 24.4733948, -17.4856033 ], [ 24.5077634, -17.5111952 ], [ 24.5487761, -17.5112773 ], [ 24.5625563, -17.5390018 ], [ 24.6086514, -17.534748 ], [ 24.626385, -17.5126307 ], [ 24.7042936, -17.4968896 ], [ 24.7590887, -17.5180106 ], [ 24.7784164, -17.5080479 ], [ 24.7911687, -17.5345487 ], [ 24.8276323, -17.5196046 ], [ 24.8796377, -17.5265785 ], [ 24.9047438, -17.5534779 ], [ 24.9402111, -17.5469025 ], [ 24.9746822, -17.5532787 ], [ 25.0079577, -17.5977125 ], [ 25.0472109, -17.5899415 ], [ 25.084073, -17.6558948 ], [ 25.1012089, -17.6634665 ], [ 25.1328904, -17.7065055 ], [ 25.1530151, -17.7079003 ], [ 25.159192, -17.7443639 ], [ 25.1952571, -17.7692707 ], [ 25.2267393, -17.768673 ], [ 25.2628044, -17.791388 ], [ 25.2227163, -17.7933901 ], [ 25.1583815, -17.779022 ], [ 25.1437989, -17.8079727 ], [ 25.116135, -17.8255575 ], [ 25.0642382, -17.840569 ], [ 25.0533013, -17.8073293 ], [ 25.014057, -17.8379956 ], [ 24.9763139, -17.825772 ], [ 24.9752417, -17.7876 ], [ 24.933853, -17.8156928 ], [ 24.9102635, -17.810546 ], [ 24.863728, -17.8455013 ], [ 24.8266282, -17.8478602 ], [ 24.80454, -17.8697341 ], [ 24.7571466, -17.8948247 ], [ 24.723907, -17.9042604 ], [ 24.7022476, -17.9396446 ], [ 24.6278336, -17.9831778 ], [ 24.6282625, -18.0138441 ], [ 24.6010275, -18.0355035 ], [ 24.5793681, -18.0696009 ], [ 24.5101009, -18.0638108 ], [ 24.4708567, -17.9930425 ], [ 24.4243211, -17.9516538 ], [ 24.4013751, -17.9583017 ], [ 24.3694794, -17.947728 ], [ 24.3412265, -17.9752173 ], [ 24.2893022, -18.0416499 ], [ 24.2702123, -18.0202693 ], [ 24.2381414, -18.0271416 ], [ 24.2129429, -18.0202693 ], [ 24.1877443, -18.030196 ], [ 24.1617822, -18.0660848 ], [ 24.1274205, -18.0989193 ], [ 24.0732054, -18.1348082 ], [ 24.0334986, -18.1378626 ], [ 24.004482, -18.1554252 ], [ 23.9792835, -18.1867325 ], [ 23.9311771, -18.2035316 ], [ 23.9113237, -18.2310209 ], [ 23.905215, -18.2638554 ], [ 23.8761984, -18.2722549 ], [ 23.8128202, -18.3234156 ], [ 23.7891488, -18.367704 ], [ 23.7677682, -18.3738128 ], [ 23.7471512, -18.4196283 ], [ 23.7150803, -18.4356638 ], [ 23.6967541, -18.4318458 ], [ 23.6539929, -18.4791886 ], [ 23.6333759, -18.4898789 ], [ 23.5708336, -18.4672222 ], [ 23.5666667, -18.4069433 ], [ 23.5488889, -18.3691664 ], [ 23.5605547, -18.3541658 ], [ 23.5488889, -18.3172222 ], [ 23.5238883, -18.3066667 ], [ 23.5247772, -18.2743574 ], [ 23.5028784, -18.2656463 ], [ 23.4993698, -18.2416907 ], [ 23.4529769, -18.2359829 ], [ 23.4488717, -18.215903 ], [ 23.4021078, -18.204212 ], [ 23.403268, -18.1747614 ], [ 23.3244654, -18.0826615 ], [ 23.3221451, -18.0396459 ], [ 23.3095617, -18.003145 ], [ 23.2934126, -18.0 ], [ 23.1002453, -18.0 ], [ 22.7266584, -18.0699269 ], [ 22.2622217, -18.1538883 ], [ 21.4625008, -18.3044447 ], [ 20.9995369, -18.3181694 ], [ 20.9994485, -19.1831715 ], [ 20.9993307, -20.3350787 ], [ 20.9992634, -20.9929072 ], [ 20.9992164, -21.4525659 ], [ 20.9991604, -21.9999409 ], [ 19.9993653, -21.9995606 ], [ 19.999407, -22.9992018 ], [ 19.9994199, -23.3088787 ], [ 19.999443, -23.8629616 ], [ 19.99948, -24.7519534 ], [ 19.9994805, -24.7630279 ], [ 19.9995866, -25.4964929 ], [ 19.9995907, -25.5250839 ], [ 19.9996018, -25.6012383 ], [ 19.999619, -25.7204543 ], [ 19.9998577, -27.3706774 ], [ 20.0000106, -28.4276356 ], [ 19.9967674, -28.4268498 ], [ 19.9903104, -28.4252855 ], [ 19.9534275, -28.4332904 ], [ 19.9457985, -28.4369593 ], [ 19.9380918, -28.4382438 ], [ 19.9341146, -28.4389067 ], [ 19.9157542, -28.4450268 ], [ 19.8907339, -28.4405939 ], [ 19.879753, -28.4419734 ], [ 19.8770714, -28.4428182 ], [ 19.8757248, -28.4432425 ], [ 19.8737935, -28.4445669 ], [ 19.8689927, -28.4502505 ], [ 19.8644679, -28.4567066 ], [ 19.8610221, -28.456724 ], [ 19.8534869, -28.4567618 ], [ 19.8484655, -28.4587483 ], [ 19.8459256, -28.462419 ], [ 19.8409057, -28.4696741 ], [ 19.8407953, -28.4805999 ], [ 19.8337874, -28.4890426 ], [ 19.8294833, -28.4968231 ], [ 19.8225857, -28.5039966 ], [ 19.7975888, -28.5028929 ], [ 19.7788825, -28.5008513 ], [ 19.7724264, -28.4944503 ], [ 19.7627697, -28.4898703 ], [ 19.7564791, -28.4877182 ], [ 19.7390972, -28.4855662 ], [ 19.7301027, -28.4877734 ], [ 19.7186803, -28.496492 ], [ 19.7104068, -28.507436 ], [ 19.6965528, -28.5175159 ], [ 19.6922487, -28.5190609 ], [ 19.6882205, -28.5184539 ], [ 19.6730563, -28.5221079 ], [ 19.6718318, -28.5280554 ], [ 19.6703898, -28.529331 ], [ 19.6689624, -28.5305937 ], [ 19.6638306, -28.5305937 ], [ 19.6604646, -28.5260689 ], [ 19.646228, -28.521213 ], [ 19.6393855, -28.5167433 ], [ 19.6291219, -28.511446 ], [ 19.6234383, -28.5107286 ], [ 19.6148853, -28.5124944 ], [ 19.6109674, -28.5158052 ], [ 19.5977241, -28.5198886 ], [ 19.5903337, -28.5251182 ], [ 19.5847014, -28.5291038 ], [ 19.5804794, -28.5282015 ], [ 19.5710166, -28.5261792 ], [ 19.5657744, -28.5271725 ], [ 19.5613599, -28.5304833 ], [ 19.5609185, -28.5328561 ], [ 19.5508756, -28.538926 ], [ 19.5462956, -28.5437819 ], [ 19.5368045, -28.5863815 ], [ 19.5287949, -28.5887057 ], [ 19.524444, -28.5899682 ], [ 19.5114765, -28.5960381 ], [ 19.5052411, -28.6000111 ], [ 19.5019302, -28.6038738 ], [ 19.5001645, -28.6102195 ], [ 19.5026738, -28.6216112 ], [ 19.4954189, -28.6546952 ], [ 19.4930541, -28.6644586 ], [ 19.4915563, -28.6706425 ], [ 19.4913956, -28.6797511 ], [ 19.4894954, -28.6822847 ], [ 19.4848128, -28.684988 ], [ 19.4792552, -28.6881965 ], [ 19.4670093, -28.7061432 ], [ 19.453391, -28.7117383 ], [ 19.442623, -28.7187058 ], [ 19.4369224, -28.7202893 ], [ 19.4316439, -28.7199726 ], [ 19.4197147, -28.7279958 ], [ 19.3875164, -28.7334853 ], [ 19.3785431, -28.7376025 ], [ 19.3742148, -28.7371802 ], [ 19.3516232, -28.7429865 ], [ 19.3420165, -28.7405584 ], [ 19.3339933, -28.7362301 ], [ 19.327448, -28.7353856 ], [ 19.3239643, -28.7371802 ], [ 19.3183692, -28.7371802 ], [ 19.3000003, -28.7316907 ], [ 19.2942996, -28.7328519 ], [ 19.2832285, -28.7388543 ], [ 19.2537614, -28.7771906 ], [ 19.2464772, -28.7883809 ], [ 19.2399319, -28.8066442 ], [ 19.2495386, -28.8368367 ], [ 19.2504655, -28.8433248 ], [ 19.2511393, -28.8452802 ], [ 19.2585119, -28.8595339 ], [ 19.2759717, -28.8717725 ], [ 19.2835316, -28.8720965 ], [ 19.2899713, -28.8763192 ], [ 19.2972555, -28.8865594 ], [ 19.2966221, -28.8931046 ], [ 19.2939584, -28.8970253 ], [ 19.2872265, -28.9069341 ], [ 19.2821592, -28.9092566 ], [ 19.2547115, -28.9021835 ], [ 19.2486941, -28.9015501 ], [ 19.2437324, -28.903028 ], [ 19.2390104, -28.9069496 ], [ 19.2375038, -28.9082009 ], [ 19.2373297, -28.9082818 ], [ 19.2300085, -28.9116846 ], [ 19.2268384, -28.9187997 ], [ 19.2252579, -28.922347 ], [ 19.2195051, -28.9274451 ], [ 19.203649, -28.9414964 ], [ 19.1992881, -28.9453609 ], [ 19.1898925, -28.9508505 ], [ 19.1787023, -28.9547565 ], [ 19.1657533, -28.9582587 ], [ 19.1490376, -28.9627797 ], [ 19.1433369, -28.9627797 ], [ 19.1360527, -28.9606683 ], [ 19.1213787, -28.9692194 ], [ 19.1048045, -28.9687971 ], [ 19.0868579, -28.9608795 ], [ 19.0716561, -28.9573957 ], [ 19.0675389, -28.9504282 ], [ 19.0602547, -28.9472611 ], [ 19.0555041, -28.9398714 ], [ 19.0442083, -28.9326927 ], [ 19.0320679, -28.9287867 ], [ 19.015177, -28.9308981 ], [ 19.0068371, -28.9281533 ], [ 19.0044091, -28.9226637 ], [ 19.0029311, -28.9067229 ], [ 19.0017698, -28.9040837 ], [ 18.9974415, -28.9011278 ], [ 18.9964914, -28.8927879 ], [ 18.9846678, -28.8803308 ], [ 18.9725274, -28.8706186 ], [ 18.9629368, -28.8717929 ], [ 18.946799, -28.8642074 ], [ 18.9323059, -28.8561557 ], [ 18.9108755, -28.8559446 ], [ 18.8855391, -28.8521441 ], [ 18.8820554, -28.8492938 ], [ 18.8726598, -28.847288 ], [ 18.8496459, -28.8485548 ], [ 18.837525, -28.8495602 ], [ 18.7807098, -28.8447543 ], [ 18.769414, -28.8397926 ], [ 18.7171577, -28.8345142 ], [ 18.6621566, -28.8443321 ], [ 18.6428376, -28.8402149 ], [ 18.6306973, -28.8406372 ], [ 18.6282692, -28.8415873 ], [ 18.6107449, -28.8535165 ], [ 18.5657728, -28.8591116 ], [ 18.5559549, -28.8610118 ], [ 18.5368471, -28.8682961 ], [ 18.5127775, -28.8900431 ], [ 18.5000037, -28.8900431 ], [ 18.4693889, -28.883709 ], [ 18.4592544, -28.8870872 ], [ 18.4535537, -28.8921545 ], [ 18.4307509, -28.8988053 ], [ 18.4286396, -28.9007055 ], [ 18.4178716, -28.9007055 ], [ 18.3958078, -28.8972218 ], [ 18.374483, -28.8943714 ], [ 18.3608647, -28.8923656 ], [ 18.3568531, -28.8849759 ], [ 18.3513636, -28.8814921 ], [ 18.3415743, -28.8847493 ], [ 18.3310945, -28.8826533 ], [ 18.3007964, -28.885926 ], [ 18.263214, -28.8794863 ], [ 18.2594136, -28.8815977 ], [ 18.2598359, -28.8878262 ], [ 18.2188754, -28.8950048 ], [ 18.1857173, -28.9162849 ], [ 18.1731643, -28.9027113 ], [ 18.1699972, -28.9028169 ], [ 18.1284033, -28.8957438 ], [ 18.1138349, -28.8880373 ], [ 18.1009556, -28.8775861 ], [ 18.044203, -28.8745693 ], [ 18.0423652, -28.8696684 ], [ 18.0344476, -28.8614341 ], [ 18.0306471, -28.8527775 ], [ 18.0252631, -28.845071 ], [ 18.0215682, -28.8452822 ], [ 18.0148118, -28.8392648 ], [ 18.0123838, -28.8356755 ], [ 18.0130172, -28.8281801 ], [ 18.0037272, -28.8188901 ], [ 18.000349, -28.8183623 ], [ 17.9583328, -28.784686 ], [ 17.9332868, -28.7866373 ], [ 17.9244454, -28.7683229 ], [ 17.908399, -28.7713844 ], [ 17.9059709, -28.7725456 ], [ 17.8065256, -28.7550213 ], [ 17.7715825, -28.7554436 ], [ 17.7501521, -28.7397139 ], [ 17.7432902, -28.741403 ], [ 17.7369198, -28.7540652 ], [ 17.7347392, -28.7583995 ], [ 17.7307276, -28.7605108 ], [ 17.7233378, -28.7606164 ], [ 17.7148923, -28.7485816 ], [ 17.7089805, -28.7446756 ], [ 17.7060246, -28.74457 ], [ 17.6950455, -28.7481593 ], [ 17.6893448, -28.7542823 ], [ 17.6866529, -28.7593584 ], [ 17.6667532, -28.7725456 ], [ 17.6535571, -28.773179 ], [ 17.6510908, -28.7739098 ], [ 17.6478565, -28.7748681 ], [ 17.6098519, -28.7504818 ], [ 17.6089018, -28.7446756 ], [ 17.6125966, -28.7256733 ], [ 17.610802, -28.722084 ], [ 17.6022509, -28.7001258 ], [ 17.5991895, -28.6951641 ], [ 17.5891605, -28.6890411 ], [ 17.5796593, -28.6887244 ], [ 17.570686, -28.6855573 ], [ 17.5632962, -28.685874 ], [ 17.5554842, -28.6883021 ], [ 17.5537951, -28.6897801 ], [ 17.5536895, -28.6950585 ], [ 17.5440828, -28.7010759 ], [ 17.5062894, -28.6968531 ], [ 17.4915098, -28.6933694 ], [ 17.4803196, -28.6976977 ], [ 17.4765454, -28.7021226 ], [ 17.4741966, -28.7048763 ], [ 17.4548776, -28.7084657 ], [ 17.4399925, -28.7138496 ], [ 17.432474, -28.7205327 ], [ 17.4257408, -28.7232452 ], [ 17.4181398, -28.7218728 ], [ 17.4110668, -28.7141663 ], [ 17.4174009, -28.6955863 ], [ 17.413706, -28.6754228 ], [ 17.4141282, -28.6702499 ], [ 17.4199345, -28.6614878 ], [ 17.426163, -28.6564205 ], [ 17.4280633, -28.6500864 ], [ 17.4255296, -28.6334066 ], [ 17.4302802, -28.6230609 ], [ 17.4314414, -28.6132431 ], [ 17.4246851, -28.600786 ], [ 17.4328138, -28.5813614 ], [ 17.432286, -28.575344 ], [ 17.4301746, -28.5708046 ], [ 17.422257, -28.5652095 ], [ 17.4160285, -28.5630981 ], [ 17.4112779, -28.5630981 ], [ 17.3895308, -28.5713324 ], [ 17.3863158, -28.5709752 ], [ 17.38288, -28.5705935 ], [ 17.3771793, -28.5665819 ], [ 17.3759125, -28.5584531 ], [ 17.377496, -28.5469462 ], [ 17.3753847, -28.5407176 ], [ 17.3751735, -28.5315332 ], [ 17.3668299, -28.5103518 ], [ 17.3590945, -28.5041382 ], [ 17.3426093, -28.4980513 ], [ 17.3401999, -28.4953883 ], [ 17.3391854, -28.4898087 ], [ 17.3327181, -28.475606 ], [ 17.3389318, -28.4527803 ], [ 17.3465404, -28.4449181 ], [ 17.3483055, -28.4394504 ], [ 17.3546562, -28.4370559 ], [ 17.3843296, -28.4371827 ], [ 17.3926991, -28.4318567 ], [ 17.4065213, -28.4076361 ], [ 17.4101988, -28.3982521 ], [ 17.4096916, -28.3891219 ], [ 17.4044924, -28.3553905 ], [ 17.3811594, -28.3305358 ], [ 17.3757066, -28.3214055 ], [ 17.3762846, -28.3130249 ], [ 17.3824275, -28.3012428 ], [ 17.3815398, -28.2946487 ], [ 17.378116, -28.2883082 ], [ 17.3717755, -28.2812069 ], [ 17.35808, -28.2657361 ], [ 17.3560511, -28.2529283 ], [ 17.3493302, -28.2439249 ], [ 17.3433701, -28.2368235 ], [ 17.3060881, -28.2254107 ], [ 17.2921391, -28.2360627 ], [ 17.2889688, -28.2399938 ], [ 17.2774291, -28.245827 ], [ 17.2504847, -28.2395026 ], [ 17.2397667, -28.2479828 ], [ 17.2221401, -28.250519 ], [ 17.2167959, -28.2483287 ], [ 17.2144048, -28.2473487 ], [ 17.2063691, -28.2402726 ], [ 17.2059085, -28.2398669 ], [ 17.2046404, -28.2368235 ], [ 17.1960174, -28.2280737 ], [ 17.1876479, -28.2158999 ], [ 17.1828292, -28.2053747 ], [ 17.1823219, -28.2004292 ], [ 17.1840973, -28.1909184 ], [ 17.1825756, -28.1862265 ], [ 17.1830828, -28.1784911 ], [ 17.1901841, -28.1622595 ], [ 17.1963978, -28.1305571 ], [ 17.1963978, -28.1275136 ], [ 17.1939884, -28.1234557 ], [ 17.1943688, -28.1149595 ], [ 17.1924667, -28.1091262 ], [ 17.1872675, -28.1030394 ], [ 17.1792785, -28.0987279 ], [ 17.1762351, -28.098601 ], [ 17.1746646, -28.0993427 ], [ 17.1441522, -28.0958112 ], [ 17.136148, -28.0917494 ], [ 17.1355341, -28.0913252 ], [ 17.130964, -28.0847788 ], [ 17.1261453, -28.0691812 ], [ 17.1171418, -28.0587828 ], [ 17.0959646, -28.0412831 ], [ 17.0882292, -28.0377324 ], [ 17.082396, -28.0331673 ], [ 17.0790989, -28.0326601 ], [ 17.0713635, -28.0355767 ], [ 17.0708563, -28.0381129 ], [ 17.0666366, -28.0424497 ], [ 17.0662911, -28.0428048 ], [ 17.0621587, -28.0445365 ], [ 17.0568847, -28.0467466 ], [ 17.0497424, -28.048665 ], [ 17.0252048, -28.0507938 ], [ 17.0194984, -28.0530764 ], [ 17.0148598, -28.0618033 ], [ 17.0070313, -28.0725749 ], [ 17.0047885, -28.0750145 ], [ 17.0040178, -28.075055 ], [ 16.9999697, -28.0752681 ], [ 16.9927416, -28.0722246 ], [ 16.9844989, -28.0620799 ], [ 16.9801874, -28.0596705 ], [ 16.9725788, -28.0590365 ], [ 16.9687416, -28.0632734 ], [ 16.9627334, -28.0699075 ], [ 16.9604051, -28.0724783 ], [ 16.9533038, -28.0756485 ], [ 16.9439199, -28.0753949 ], [ 16.9278151, -28.0694348 ], [ 16.9202065, -28.0695616 ], [ 16.9172899, -28.071971 ], [ 16.9080328, -28.0700689 ], [ 16.8991561, -28.0733659 ], [ 16.8964931, -28.07996 ], [ 16.8869824, -28.0866809 ], [ 16.8817995, -28.0972672 ], [ 16.8810223, -28.0988547 ], [ 16.8826708, -28.1068437 ], [ 16.8868556, -28.1114088 ], [ 16.8895186, -28.1195246 ], [ 16.8871092, -28.1462815 ], [ 16.8839389, -28.1494517 ], [ 16.8854606, -28.1640348 ], [ 16.8882505, -28.1724042 ], [ 16.8848266, -28.176589 ], [ 16.8779789, -28.1803932 ], [ 16.8766883, -28.1807493 ], [ 16.8759836, -28.1809437 ], [ 16.8706239, -28.1824222 ], [ 16.8692083, -28.1804799 ], [ 16.8651711, -28.1749404 ], [ 16.8569285, -28.1693608 ], [ 16.8415845, -28.163908 ], [ 16.8305521, -28.1669514 ], [ 16.8270014, -28.172531 ], [ 16.8300448, -28.1828026 ], [ 16.8347368, -28.1886359 ], [ 16.8434867, -28.1929474 ], [ 16.852617, -28.1996683 ], [ 16.8564212, -28.2056284 ], [ 16.8557872, -28.2113348 ], [ 16.847291, -28.2162804 ], [ 16.8401608, -28.2165444 ], [ 16.8233239, -28.217168 ], [ 16.8093749, -28.2136174 ], [ 16.8040489, -28.2179289 ], [ 16.8027808, -28.2242694 ], [ 16.805365, -28.2312838 ], [ 16.8077264, -28.2342873 ], [ 16.814306, -28.2376392 ], [ 16.8211682, -28.241135 ], [ 16.8264942, -28.2468415 ], [ 16.8264942, -28.261805 ], [ 16.8214218, -28.2728374 ], [ 16.8148277, -28.2765149 ], [ 16.8127627, -28.2764117 ], [ 16.8046829, -28.2760077 ], [ 16.7940309, -28.271823 ], [ 16.7794478, -28.2592688 ], [ 16.7724129, -28.2591724 ], [ 16.7539591, -28.2723302 ], [ 16.7515497, -28.2898299 ], [ 16.7549736, -28.3022573 ], [ 16.7631814, -28.311669 ], [ 16.7644843, -28.3131629 ], [ 16.7680315, -28.315177 ], [ 16.7794478, -28.3216591 ], [ 16.7893358, -28.3469972 ], [ 16.8030344, -28.3576731 ], [ 16.8043025, -28.3633795 ], [ 16.7990035, -28.3691308 ], [ 16.7835057, -28.3859516 ], [ 16.7737414, -28.3924189 ], [ 16.7679081, -28.3987594 ], [ 16.7674009, -28.4105527 ], [ 16.7752631, -28.4338856 ], [ 16.7762776, -28.4423819 ], [ 16.7679081, -28.4537948 ], [ 16.7566221, -28.4584867 ], [ 16.7491403, -28.4644468 ], [ 16.7397564, -28.4849899 ], [ 16.7282167, -28.4985585 ], [ 16.7210565, -28.5000713 ], [ 16.7192133, -28.5004607 ], [ 16.699431, -28.4979245 ], [ 16.6965143, -28.4775081 ], [ 16.6951194, -28.474972 ], [ 16.6896666, -28.4714213 ], [ 16.6736348, -28.4731089 ], [ 16.6640511, -28.4766205 ], [ 16.6588519, -28.4805516 ], [ 16.6299393, -28.494247 ], [ 16.6252459, -28.4975994 ], [ 16.6183996, -28.5024896 ], [ 16.6179677, -28.5037854 ], [ 16.6124396, -28.5203698 ], [ 16.6111738, -28.5215924 ], [ 16.6012803, -28.5311486 ], [ 16.5913892, -28.5357138 ], [ 16.5746503, -28.5385036 ], [ 16.5613353, -28.5433223 ], [ 16.5350857, -28.5562569 ], [ 16.5160643, -28.5562569 ], [ 16.5043978, -28.559554 ], [ 16.4601412, -28.5970896 ], [ 16.454308, -28.6026692 ], [ 16.4533192, -28.6317981 ], [ 16.4557285, -28.6344166 ], [ 16.4556346, -28.6347217 ], [ 16.3604755, -28.5763312 ], [ 16.3283487, -28.5516092 ], [ 16.1952417, -28.417743 ], [ 16.1182986, -28.3512883 ], [ 16.0353309, -28.2695546 ], [ 15.8559005, -28.1322183 ], [ 15.8101879, -28.092244 ], [ 15.71671, -27.999221 ], [ 15.680768, -27.952967 ], [ 15.6851328, -27.9117721 ], [ 15.6522285, -27.8717659 ], [ 15.6252444, -27.8268159 ], [ 15.5483459, -27.7535063 ], [ 15.521559, -27.6853674 ], [ 15.5290108, -27.6514849 ], [ 15.4946136, -27.602783 ], [ 15.4651222, -27.5760332 ], [ 15.4669259, -27.5584659 ], [ 15.4219581, -27.4812259 ], [ 15.3702866, -27.4400577 ], [ 15.3584525, -27.4002036 ], [ 15.3238581, -27.3679766 ], [ 15.2882419, -27.3056182 ], [ 15.280355, -27.2441643 ], [ 15.265727, -27.2268007 ], [ 15.2668324, -27.1667988 ], [ 15.2497981, -27.109873 ], [ 15.258125, -27.0990341 ], [ 15.2341368, -27.0595678 ], [ 15.2290914, -27.0168403 ], [ 15.2384667, -26.962652 ], [ 15.2132609, -26.9187065 ], [ 15.186338, -26.9192815 ], [ 15.1502687, -26.9029242 ], [ 15.1592969, -26.8729129 ], [ 15.1450842, -26.8532711 ], [ 15.116156, -26.783367 ], [ 15.110954, -26.739884 ], [ 15.091605, -26.735266 ], [ 15.0797151, -26.6586872 ], [ 15.1221741, -26.6396377 ], [ 15.1487312, -26.6527744 ], [ 15.177522, -26.604977 ], [ 15.149292, -26.579019 ], [ 15.1408664, -26.5035854 ], [ 15.1142581, -26.4621492 ], [ 15.1216559, -26.4416781 ], [ 15.091643, -26.4021547 ], [ 15.0264263, -26.3606912 ], [ 14.981332, -26.346209 ], [ 14.949929, -26.31249 ], [ 14.95253, -26.234001 ], [ 14.969235, -26.188971 ], [ 14.93218, -26.143408 ], [ 14.963118, -26.139302 ], [ 14.978946, -26.112284 ], [ 14.979238, -26.071623 ], [ 14.951064, -25.985661 ], [ 14.9171514, -25.9452602 ], [ 14.9046262, -25.9053677 ], [ 14.9103595, -25.8537431 ], [ 14.8596, -25.79696 ], [ 14.829248, -25.749574 ], [ 14.849175, -25.722316 ], [ 14.837862, -25.684472 ], [ 14.839182, -25.65359 ], [ 14.857421, -25.597761 ], [ 14.877312, -25.57513 ], [ 14.883159, -25.543737 ], [ 14.860945, -25.495332 ], [ 14.837595, -25.461593 ], [ 14.84472, -25.432003 ], [ 14.812476, -25.388727 ], [ 14.81357, -25.322841 ], [ 14.8012225, -25.299094 ], [ 14.8280258, -25.2209377 ], [ 14.8430709, -25.1986433 ], [ 14.851184, -25.129721 ], [ 14.8766869, -25.0922692 ], [ 14.8585, -25.036428 ], [ 14.794571, -24.915382 ], [ 14.799487, -24.84229 ], [ 14.772255, -24.771468 ], [ 14.745709, -24.72561 ], [ 14.680526, -24.648781 ], [ 14.62816, -24.594865 ], [ 14.595639, -24.553083 ], [ 14.617523, -24.482356 ], [ 14.608368, -24.441405 ], [ 14.527161, -24.276436 ], [ 14.505735, -24.225916 ], [ 14.463361, -24.089089 ], [ 14.4513461, -24.0117743 ], [ 14.4634573, -23.9497726 ], [ 14.51026, -23.921671 ], [ 14.508782, -23.793729 ], [ 14.502267, -23.741451 ], [ 14.503695, -23.659595 ], [ 14.5119073, -23.6248472 ], [ 14.439517, -23.438762 ], [ 14.478724, -23.472364 ], [ 14.472792, -23.420085 ], [ 14.497455, -23.389789 ], [ 14.500177, -23.333162 ], [ 14.480737, -23.241967 ], [ 14.448185, -23.163852 ], [ 14.422879, -23.091421 ], [ 14.402634, -23.012826 ], [ 14.407772, -22.950801 ], [ 14.431652, -22.934323 ], [ 14.4188247, -23.0105919 ], [ 14.460711, -23.025134 ], [ 14.4717934, -22.9900366 ], [ 14.494782, -22.9523999 ], [ 14.530627, -22.915169 ], [ 14.540149, -22.893571 ], [ 14.543235, -22.801412 ], [ 14.5220922, -22.7443824 ], [ 14.5286877, -22.7174138 ], [ 14.5200769, -22.6745016 ], [ 14.5276647, -22.649402 ], [ 14.5048883, -22.5889848 ], [ 14.509674, -22.556471 ], [ 14.488782, -22.509033 ], [ 14.469197, -22.48554 ], [ 14.428162, -22.357956 ], [ 14.388246, -22.275936 ], [ 14.319557, -22.207435 ], [ 14.288255, -22.164047 ], [ 14.291689, -22.140632 ], [ 14.1802598, -22.005154 ], [ 14.159662, -21.987845 ], [ 14.122448, -21.934098 ], [ 14.067059, -21.879726 ], [ 14.06178, -21.864505 ], [ 13.9581772, -21.7799805 ], [ 13.9801846, -21.7367957 ], [ 13.9768959, -21.7168854 ], [ 13.918502, -21.642727 ], [ 13.8800975, -21.587492 ], [ 13.8576475, -21.523749 ], [ 13.8628863, -21.5098733 ], [ 13.8210017, -21.4591878 ], [ 13.8074366, -21.4224843 ], [ 13.746902, -21.3577273 ], [ 13.7422673, -21.339147 ], [ 13.7095758, -21.3095421 ], [ 13.6906995, -21.2630296 ], [ 13.6328641, -21.1932612 ], [ 13.577129, -21.136076 ], [ 13.555466, -21.091868 ], [ 13.551207, -21.050125 ], [ 13.5028111, -20.982784 ], [ 13.459721, -20.932182 ], [ 13.453062, -20.913585 ], [ 13.415106, -20.875135 ], [ 13.380286, -20.801438 ], [ 13.381705, -20.771073 ], [ 13.3652434, -20.6892128 ], [ 13.331851, -20.599138 ], [ 13.267293, -20.492953 ], [ 13.249796, -20.457766 ], [ 13.254227, -20.404005 ], [ 13.240145, -20.321482 ], [ 13.20454, -20.261394 ], [ 13.195022, -20.21161 ], [ 13.119815, -20.126897 ], [ 13.07561, -20.097588 ], [ 13.055204, -20.072908 ], [ 13.035782, -20.013485 ], [ 13.032212, -19.983069 ], [ 13.013547, -19.962266 ], [ 12.969493, -19.872957 ], [ 12.952912, -19.850371 ], [ 12.928645, -19.781102 ], [ 12.890009, -19.730969 ], [ 12.857435, -19.655932 ], [ 12.799402, -19.557673 ], [ 12.775986, -19.502815 ], [ 12.723896, -19.423145 ], [ 12.703876, -19.380422 ], [ 12.704325, -19.338728 ], [ 12.691392, -19.303816 ], [ 12.665392, -19.273369 ], [ 12.615586, -19.184183 ], [ 12.599912, -19.134817 ], [ 12.569749, -19.086289 ], [ 12.4902052, -19.0164162 ], [ 12.46364, -18.924772 ], [ 12.386355, -18.833622 ], [ 12.387313, -18.824113 ], [ 12.330726, -18.75331 ], [ 12.320113, -18.73257 ], [ 12.171383, -18.61278 ], [ 12.035171, -18.498753 ], [ 12.003382, -18.434697 ], [ 11.999721, -18.368263 ], [ 11.957263, -18.304085 ], [ 11.958314, -18.262898 ], [ 11.933398, -18.222625 ], [ 11.890957, -18.171804 ], [ 11.857947, -18.14502 ], [ 11.83393, -18.091077 ], [ 11.828878, -18.036079 ], [ 11.8039622, -17.973256 ], [ 11.8028567, -17.8951736 ], [ 11.7685592, -17.7809142 ], [ 11.759054, -17.67807 ], [ 11.747051, -17.647869 ], [ 11.737266, -17.586494 ], [ 11.741857, -17.534956 ], [ 11.739615, -17.457003 ], [ 11.748011, -17.391 ], [ 11.7582244, -17.3727457 ], [ 11.7508582, -17.2524549 ], [ 11.7913895, -17.272797 ], [ 11.8185251, -17.2635279 ], [ 11.8835735, -17.2257706 ], [ 11.8931758, -17.2094219 ], [ 11.957583, -17.1813074 ], [ 12.0802013, -17.1415329 ], [ 12.1026271, -17.1608425 ], [ 12.161647, -17.1616614 ], [ 12.1843425, -17.1961726 ], [ 12.2340035, -17.2346613 ], [ 12.2836645, -17.241505 ], [ 12.3514585, -17.2184586 ], [ 12.3703519, -17.2333744 ], [ 12.3962645, -17.2076958 ], [ 12.4237564, -17.2074618 ], [ 12.4327059, -17.2390483 ], [ 12.4514239, -17.2540811 ], [ 12.5639069, -17.2430844 ], [ 12.5964293, -17.2347198 ], [ 12.6174758, -17.2063358 ], [ 12.6993193, -17.1686221 ], [ 12.778578, -17.1227632 ], [ 12.8054265, -17.115744 ], [ 12.823969, -17.0850349 ], [ 12.8714657, -17.066551 ], [ 12.9151019, -17.021394 ], [ 12.9628326, -17.0095783 ], [ 12.9836563, -16.9819694 ], [ 13.0981865, -16.9788107 ], [ 13.1280767, -16.967112 ], [ 13.1694316, -16.963193 ], [ 13.2705669, -16.998406 ], [ 13.3540371, -16.9740727 ], [ 13.395275, -16.9956568 ], [ 13.4621916, -17.0101047 ], [ 13.4840097, -17.034438 ], [ 13.5006803, -17.0698851 ], [ 13.5221475, -17.0911182 ], [ 13.5143678, -17.1366847 ], [ 13.5429711, -17.147155 ], [ 13.6807233, -17.2465355 ], [ 13.6966921, -17.2467695 ], [ 13.742317, -17.2723896 ], [ 13.8153169, -17.3224601 ], [ 13.8694819, -17.3430498 ], [ 13.9167446, -17.3784383 ], [ 13.9269225, -17.4082115 ], [ 13.9551749, -17.4326033 ], [ 13.9986355, -17.430556 ], [ 14.01671, -17.4144703 ], [ 14.0538534, -17.4295032 ], [ 14.1015256, -17.4386866 ], [ 14.152064, -17.4275144 ], [ 14.160955, -17.4174535 ], [ 14.2133067, -17.4096154 ], [ 14.218278, -17.388482 ], [ 14.6414934, -17.3884456 ], [ 14.9992697, -17.3884149 ], [ 15.3750585, -17.3883826 ], [ 15.86425, -17.3883405 ], [ 16.3096622, -17.3883022 ], [ 16.8692975, -17.3882541 ], [ 17.2751892, -17.3882193 ], [ 17.9990788, -17.388157 ], [ 18.4206471, -17.3881205 ], [ 18.4736551, -17.4473356 ], [ 18.4792529, -17.4833957 ], [ 18.4985821, -17.4868784 ], [ 18.536718, -17.5225765 ], [ 18.535216, -17.5397818 ], [ 18.5701545, -17.5840638 ], [ 18.5986171, -17.5832978 ], [ 18.6191562, -17.6001368 ], [ 18.6171929, -17.6247535 ], [ 18.6870409, -17.6845586 ], [ 18.7377846, -17.7187652 ], [ 18.7434479, -17.7371145 ], [ 18.7727464, -17.7346226 ], [ 18.7903405, -17.7658088 ], [ 18.8380637, -17.7726048 ], [ 18.8417638, -17.7874051 ], [ 18.8946972, -17.8158728 ], [ 18.9480838, -17.8167035 ], [ 19.0361301, -17.8349017 ], [ 19.1194725, -17.8357224 ], [ 19.1449726, -17.807487 ], [ 19.2317966, -17.827693 ], [ 19.2707967, -17.8197518 ], [ 19.2973557, -17.8379283 ], [ 19.3287676, -17.8332518 ], [ 19.3329147, -17.8512519 ], [ 19.3681207, -17.8461342 ], [ 19.3881502, -17.8598108 ], [ 19.4299739, -17.8698696 ], [ 19.4605917, -17.8629872 ], [ 19.5146802, -17.8652814 ], [ 19.5399156, -17.8738402 ], [ 19.6052983, -17.866252 ], [ 19.6312396, -17.850546 ], [ 19.6730633, -17.8485166 ], [ 19.7008575, -17.8807226 ], [ 19.7275047, -17.8778991 ], [ 19.742593, -17.9067522 ], [ 19.7606814, -17.9097522 ], [ 19.7855638, -17.8799285 ], [ 19.8085933, -17.8674873 ], [ 19.8637407, -17.883105 ], [ 19.9000055, -17.8764873 ], [ 19.911035, -17.8618402 ], [ 19.9526822, -17.8727814 ], [ 19.9677705, -17.8877815 ], [ 19.9992707, -17.8871638 ], [ 20.0262708, -17.9054286 ], [ 20.0568004, -17.8850462 ], [ 20.1151242, -17.9097522 ], [ 20.164095, -17.8888403 ], [ 20.1698303, -17.8777226 ], [ 20.2506542, -17.8903403 ], [ 20.2627425, -17.8681049 ], [ 20.2890367, -17.875252 ], [ 20.3245957, -17.8620167 ], [ 20.3703901, -17.8974874 ], [ 20.4383315, -17.9058698 ], [ 20.4641846, -17.9215758 ], [ 20.4753023, -17.9507818 ], [ 20.502126, -17.9521935 ], [ 20.5404203, -17.9824584 ], [ 20.5906264, -17.9737231 ], [ 20.6441854, -17.9765466 ], [ 20.6832739, -18.001782 ], [ 20.7190976, -18.0129879 ], [ 20.7497153, -18.0038997 ], [ 20.8017744, -18.0372528 ], [ 20.8674218, -18.0291351 ], [ 20.8885101, -18.0001055 ], [ 20.9778046, -17.9577524 ], [ 21.1008322, -17.948255 ], [ 21.1116261, -17.9351481 ], [ 21.2224288, -17.9328352 ], [ 21.2555815, -17.9624633 ], [ 21.3077888, -17.9761209 ], [ 21.3188029, -17.9877959 ], [ 21.36308, -17.9842714 ], [ 21.373213, -18.0092736 ], [ 21.424669, -18.023911 ], [ 21.7616744, -17.9584582 ], [ 22.4983169, -17.8153882 ], [ 23.42989, -17.634459 ] ] ] ] } }
]
}
