{
"type": "FeatureCollection",
"name": "NCL_GAUL2010_ADM0",
"crs": { "type": "name", "properties": { "name": "urn:ogc:def:crs:OGC:1.3:CRS84" } },
"features": [
{ "type": "Feature", "properties": { "POLYGON_ID": "NCL_GAUL2010_ADM0_178", "ADM0_ISO3": "NCL", "ADM0_NAME": "New Caledonia", "ADM0_CODE": 178, "GEOSET": "GAUL", "GEOSET_YEAR": 2010.0, "GEOSET_VERSION": "GAUL_v1", "GEOSET_UNIT": "ADM0", "CENTROID_LONG": 165.7043131432533, "CENTROID_LAT": -21.306665910641911 }, "geometry": { "type": "MultiPolygon", "coordinates": [ [ [ [ 167.9792637, -21.3527731 ], [ 167.9533074, -21.3866746 ], [ 167.9825428, -21.4399214 ], [ 167.999671, -21.4578793 ], [ 168.040705, -21.462715 ], [ 168.083463200000011, -21.4545908 ], [ 168.1187438, -21.4352652 ], [ 168.134159399999987, -21.4478787 ], [ 168.1193284, -21.4754081 ], [ 168.1081366, -21.5894376 ], [ 168.1153607, -21.6273799 ], [ 168.0438567, -21.6461881 ], [ 168.0397539, -21.6584627 ], [ 167.960986600000012, -21.6504748 ], [ 167.9355979, -21.6049478 ], [ 167.8639259, -21.5985387 ], [ 167.878796200000011, -21.5505104 ], [ 167.8537732, -21.5270703 ], [ 167.832480800000013, -21.480863 ], [ 167.8393362, -21.4516753 ], [ 167.8296212, -21.425341 ], [ 167.8076906, -21.4064147 ], [ 167.800344200000012, -21.3813246 ], [ 167.83895290000001, -21.3750152 ], [ 167.874326599999989, -21.4001392 ], [ 167.8988338, -21.3822231 ], [ 167.9586648, -21.3662574 ], [ 167.9792637, -21.3527731 ] ] ], [ [ [ 167.8161758, -21.087248 ], [ 167.8390877, -21.1172245 ], [ 167.8215984, -21.1275507 ], [ 167.801279, -21.1042181 ], [ 167.8161758, -21.087248 ] ] ], [ [ [ 167.4476244, -22.5378682 ], [ 167.4953519, -22.5594817 ], [ 167.5098674, -22.5568053 ], [ 167.5577313, -22.616636 ], [ 167.4929067, -22.6750228 ], [ 167.4512957, -22.6661179 ], [ 167.4291691, -22.6483929 ], [ 167.418927, -22.6061802 ], [ 167.4160989, -22.5546343 ], [ 167.4476244, -22.5378682 ] ] ], [ [ [ 167.1946791, -20.6789658 ], [ 167.2261924, -20.6831945 ], [ 167.3009932, -20.7285381 ], [ 167.2763381, -20.7628389 ], [ 167.275500099999988, -20.8346561 ], [ 167.2895776, -20.8783678 ], [ 167.2589978, -20.9116793 ], [ 167.3016892, -20.918464 ], [ 167.319779, -20.9370064 ], [ 167.349934100000013, -20.9383952 ], [ 167.3764826, -20.9542406 ], [ 167.3852484, -20.9801103 ], [ 167.381558, -21.0151615 ], [ 167.4334311, -21.0365586 ], [ 167.4584561, -21.0665642 ], [ 167.4086735, -21.0991886 ], [ 167.4147912, -21.1636943 ], [ 167.3828704, -21.183319 ], [ 167.3400629, -21.1831453 ], [ 167.3132869, -21.1375766 ], [ 167.2672508, -21.1227577 ], [ 167.2607265, -21.0904171 ], [ 167.1567293, -21.0862378 ], [ 167.096062, -21.0428572 ], [ 167.0891565, -21.01952 ], [ 167.0545888, -20.9875099 ], [ 167.0519894, -20.9476452 ], [ 167.0264111, -20.9404865 ], [ 167.0410875, -20.9114833 ], [ 167.0840253, -20.926279 ], [ 167.1237491, -20.9068719 ], [ 167.1410648, -20.8724234 ], [ 167.1638576, -20.8577232 ], [ 167.180218700000012, -20.8147777 ], [ 167.1705317, -20.792862 ], [ 167.1240522, -20.786388 ], [ 167.1017713, -20.7652298 ], [ 167.0357496, -20.7795016 ], [ 167.0397662, -20.7320922 ], [ 167.064709, -20.7151919 ], [ 167.0999285, -20.7100044 ], [ 167.135689, -20.7241064 ], [ 167.163008600000012, -20.711797 ], [ 167.1620041, -20.6891597 ], [ 167.1946791, -20.6789658 ] ] ], [ [ [ 164.0064293, -20.0772533 ], [ 164.0320476, -20.0789666 ], [ 164.095028899999988, -20.1575226 ], [ 164.131015600000012, -20.1754756 ], [ 164.1647202, -20.2312598 ], [ 164.212628599999988, -20.2531129 ], [ 164.258574399999986, -20.2888511 ], [ 164.3049427, -20.2852661 ], [ 164.3079602, -20.2308531 ], [ 164.3514781, -20.2336577 ], [ 164.3777026, -20.2571243 ], [ 164.4259439, -20.2733245 ], [ 164.524058700000012, -20.3178447 ], [ 164.5835638, -20.3718204 ], [ 164.5899104, -20.398876 ], [ 164.6483048, -20.4244991 ], [ 164.6731067, -20.4521031 ], [ 164.7302996, -20.4752037 ], [ 164.7604722, -20.4978281 ], [ 164.7754684, -20.5228284 ], [ 164.8172497, -20.559704 ], [ 164.8518228, -20.6161531 ], [ 164.9225151, -20.6533432 ], [ 164.9498453, -20.6918835 ], [ 164.9789322, -20.6829273 ], [ 165.070530600000012, -20.739797 ], [ 165.1173394, -20.7555411 ], [ 165.1384334, -20.7527601 ], [ 165.218584600000014, -20.7654067 ], [ 165.2612944, -20.7949801 ], [ 165.263199500000013, -20.8666958 ], [ 165.318514099999987, -20.9267954 ], [ 165.336206, -20.937232 ], [ 165.3739286, -20.9346016 ], [ 165.4144796, -20.9467329 ], [ 165.4002152, -20.9883048 ], [ 165.4080054, -21.0606533 ], [ 165.4482855, -21.1007747 ], [ 165.480973400000011, -21.1112431 ], [ 165.4966916, -21.1341156 ], [ 165.5383984, -21.1308981 ], [ 165.58438670000001, -21.1701434 ], [ 165.6099616, -21.1808682 ], [ 165.6191192, -21.2042673 ], [ 165.6012426, -21.2246555 ], [ 165.635116399999987, -21.2694731 ], [ 165.714745, -21.303755 ], [ 165.7594709, -21.2991076 ], [ 165.800537600000013, -21.3526415 ], [ 165.8265101, -21.3549127 ], [ 165.843593, -21.3729789 ], [ 165.8960925, -21.372192 ], [ 165.9448879, -21.4368088 ], [ 165.942394400000012, -21.4767316 ], [ 165.9945329, -21.4985723 ], [ 165.9868898, -21.4666908 ], [ 165.9542559, -21.4184748 ], [ 165.9763479, -21.4119105 ], [ 166.0101659, -21.4516184 ], [ 166.0540547, -21.4737477 ], [ 166.0631108, -21.5087061 ], [ 166.1201537, -21.515027 ], [ 166.1724601, -21.5657267 ], [ 166.197636, -21.5761645 ], [ 166.239127200000013, -21.6141176 ], [ 166.3028014, -21.6429967 ], [ 166.3436702, -21.6505965 ], [ 166.342011899999989, -21.679701 ], [ 166.3738797, -21.7000355 ], [ 166.413054, -21.7058847 ], [ 166.4644327, -21.7468854 ], [ 166.4699326, -21.7762226 ], [ 166.552127, -21.8477037 ], [ 166.5668703, -21.8765246 ], [ 166.614352599999989, -21.9035349 ], [ 166.6429214, -21.9341509 ], [ 166.6876505, -21.937044 ], [ 166.719904500000013, -21.9578166 ], [ 166.7268, -21.9803955 ], [ 166.7545269, -21.990912 ], [ 166.7769518, -22.0144998 ], [ 166.8549184, -22.0280289 ], [ 166.8871457, -22.0434903 ], [ 166.9182304, -22.0760735 ], [ 166.9389611, -22.0851003 ], [ 166.951059500000014, -22.1171775 ], [ 166.9506256, -22.1557373 ], [ 167.0046911, -22.2264512 ], [ 167.0231892, -22.2768506 ], [ 167.0013818, -22.339156 ], [ 166.9788179, -22.3381413 ], [ 166.9253012, -22.3951538 ], [ 166.8912915, -22.3530693 ], [ 166.8739209, -22.3204391 ], [ 166.821617800000013, -22.3437201 ], [ 166.8081272, -22.3727501 ], [ 166.782197200000013, -22.3907193 ], [ 166.74138210000001, -22.3825908 ], [ 166.7462286, -22.3487987 ], [ 166.7004025, -22.3341525 ], [ 166.6843088, -22.3103238 ], [ 166.6295754, -22.2741267 ], [ 166.5905768, -22.2924875 ], [ 166.5572578, -22.2607402 ], [ 166.568576400000012, -22.2442833 ], [ 166.508354, -22.2333563 ], [ 166.492824899999988, -22.2404058 ], [ 166.4370758, -22.3037581 ], [ 166.4413457, -22.2645432 ], [ 166.4269477, -22.2465557 ], [ 166.4213866, -22.1735025 ], [ 166.3849008, -22.168905 ], [ 166.3720701, -22.2071867 ], [ 166.300902799999989, -22.1611102 ], [ 166.270327400000014, -22.1692753 ], [ 166.2221135, -22.13943 ], [ 166.218707, -22.1254283 ], [ 166.1618775, -22.0843174 ], [ 166.1226805, -22.0908287 ], [ 166.130698200000012, -22.0638864 ], [ 166.162593, -22.0701809 ], [ 166.1684367, -22.0298983 ], [ 166.1368004, -21.9809555 ], [ 166.1478505, -21.9620315 ], [ 166.0970017, -21.9478513 ], [ 166.0779475, -21.9128246 ], [ 166.040748, -21.9004487 ], [ 166.003948, -21.9506921 ], [ 165.978005599999989, -21.929017 ], [ 165.949638599999986, -21.9253943 ], [ 165.9067972, -21.870433 ], [ 165.8347542, -21.8513459 ], [ 165.8162568, -21.8177797 ], [ 165.775641900000011, -21.8114304 ], [ 165.760931699999986, -21.7891879 ], [ 165.7726951, -21.7672668 ], [ 165.765013, -21.7219867 ], [ 165.725591400000013, -21.7035527 ], [ 165.7181372, -21.7340482 ], [ 165.6729422, -21.7440147 ], [ 165.661668, -21.7139764 ], [ 165.627704, -21.734923 ], [ 165.60982, -21.7136878 ], [ 165.563938799999988, -21.7081166 ], [ 165.507094, -21.6840964 ], [ 165.4681258, -21.6458451 ], [ 165.4582905, -21.6076148 ], [ 165.428659, -21.6200001 ], [ 165.3928468, -21.6124118 ], [ 165.2867149, -21.573306 ], [ 165.2619357, -21.5497779 ], [ 165.260665100000011, -21.5077703 ], [ 165.23450840000001, -21.5151353 ], [ 165.197273700000011, -21.4846184 ], [ 165.167705, -21.479385 ], [ 165.137290400000012, -21.4323865 ], [ 165.111481, -21.4050001 ], [ 165.1281897, -21.3875044 ], [ 165.1097497, -21.3673807 ], [ 165.0835262, -21.3899055 ], [ 165.0458485, -21.3449327 ], [ 165.0207892, -21.3308477 ], [ 164.947123800000014, -21.3567195 ], [ 164.9361509, -21.3399244 ], [ 164.94894, -21.2932652 ], [ 164.910481800000014, -21.2783034 ], [ 164.8942975, -21.2442664 ], [ 164.8672483, -21.227794 ], [ 164.8584827, -21.2035811 ], [ 164.8296838, -21.1739408 ], [ 164.8317284, -21.153019 ], [ 164.8611623, -21.1382429 ], [ 164.8383971, -21.1082719 ], [ 164.8284349, -21.0662998 ], [ 164.79141340000001, -21.0553136 ], [ 164.7231668, -21.0637546 ], [ 164.6932373, -21.0395858 ], [ 164.7094894, -21.0040774 ], [ 164.7067892, -20.9825699 ], [ 164.668941, -20.9870077 ], [ 164.6723464, -20.9342237 ], [ 164.6216823, -20.9163506 ], [ 164.5890382, -20.9273481 ], [ 164.569130300000012, -20.8921482 ], [ 164.5250124, -20.8921605 ], [ 164.5089198, -20.8691965 ], [ 164.4377322, -20.8195352 ], [ 164.4159444, -20.7875309 ], [ 164.3836115, -20.7590915 ], [ 164.4146743, -20.7516623 ], [ 164.4144246, -20.7186446 ], [ 164.3654563, -20.6951759 ], [ 164.3186751, -20.6313506 ], [ 164.3026815, -20.5838751 ], [ 164.258136, -20.5670719 ], [ 164.236488400000013, -20.5403702 ], [ 164.189237100000014, -20.5000044 ], [ 164.1563295, -20.4202768 ], [ 164.1257024, -20.4018425 ], [ 164.1797073, -20.3902595 ], [ 164.1794007, -20.3449354 ], [ 164.1612853, -20.3120157 ], [ 164.1370791, -20.2960613 ], [ 164.1070786, -20.2920481 ], [ 164.0938533, -20.2664452 ], [ 164.040154199999989, -20.3010515 ], [ 164.037128700000011, -20.2826234 ], [ 164.000372, -20.2479115 ], [ 164.0064497, -20.2361005 ], [ 164.0718594, -20.2248707 ], [ 164.0539042, -20.1940017 ], [ 164.067307699999986, -20.1645884 ], [ 164.0285116, -20.1100431 ], [ 164.0083746, -20.1042658 ], [ 164.0064293, -20.0772533 ] ] ], [ [ [ 166.8184973, -22.3940537 ], [ 166.8476316, -22.4154599 ], [ 166.8121165, -22.4496309 ], [ 166.7825435, -22.4612443 ], [ 166.776693200000011, -22.407471 ], [ 166.8184973, -22.3940537 ] ] ], [ [ [ 166.600840799999986, -20.38982 ], [ 166.6252734, -20.4283414 ], [ 166.6678451, -20.4632093 ], [ 166.6090611, -20.4713578 ], [ 166.5810487, -20.5103625 ], [ 166.5715706, -20.5465685 ], [ 166.5729168, -20.5969417 ], [ 166.6093463, -20.6161727 ], [ 166.5678374, -20.6882546 ], [ 166.505361599999986, -20.7060616 ], [ 166.480097699999988, -20.6967545 ], [ 166.529772400000013, -20.6573163 ], [ 166.5560147, -20.615374 ], [ 166.5605344, -20.5602857 ], [ 166.57227850000001, -20.5191936 ], [ 166.593341, -20.4813242 ], [ 166.595141399999989, -20.4527647 ], [ 166.58158370000001, -20.4292587 ], [ 166.5504761, -20.4048223 ], [ 166.600840799999986, -20.38982 ] ] ], [ [ [ 164.1667677, -20.050237 ], [ 164.1965253, -20.0941494 ], [ 164.216349900000012, -20.1091749 ], [ 164.231997, -20.1429794 ], [ 164.207226, -20.1434993 ], [ 164.181105, -20.1239511 ], [ 164.16358790000001, -20.085369 ], [ 164.1667677, -20.050237 ] ] ], [ [ [ 163.9648958, -20.0002389 ], [ 163.9903981, -20.0593567 ], [ 163.9665833, -20.0754423 ], [ 163.953393, -20.0506437 ], [ 163.9648958, -20.0002389 ] ] ], [ [ [ 163.808316600000012, -20.0286102 ], [ 163.827863799999989, -20.0380109 ], [ 163.815321, -20.0755227 ], [ 163.7892176, -20.0498531 ], [ 163.808316600000012, -20.0286102 ] ] ], [ [ [ 163.6458983, -19.6478951 ], [ 163.6742126, -19.6916238 ], [ 163.6731317, -19.7238033 ], [ 163.699254700000012, -19.7384149 ], [ 163.7039, -19.7693487 ], [ 163.673275600000011, -19.7722143 ], [ 163.653972399999986, -19.7549462 ], [ 163.6306116, -19.6876915 ], [ 163.6458983, -19.6478951 ] ] ], [ [ [ 163.5761819, -19.5399812 ], [ 163.6129042, -19.597045 ], [ 163.5854784, -19.5951584 ], [ 163.571415300000012, -19.5569382 ], [ 163.5761819, -19.5399812 ] ] ] ] } }
]
}
