{
"type": "FeatureCollection",
"name": "NER_GAUL2004_ADM1",
"crs": { "type": "name", "properties": { "name": "urn:ogc:def:crs:OGC:1.3:CRS84" } },
"features": [
{ "type": "Feature", "properties": { "POLYGON_ID": "NER_GAUL2004_ADM1_2202", "ADM0_ISO3": "NER", "ADM0_NAME": "Niger", "ADM0_CODE": 181, "ADM1_NAME": "Agadez", "ADM1_CODE": 2202, "GEOSET": "GAUL", "GEOSET_YEAR": 2004.0, "GEOSET_VERSION": "GAUL_v1", "GEOSET_UNIT": "ADM1", "CENTROID_LONG": 10.518389434609178, "CENTROID_LAT": 19.481150453277042 }, "geometry": { "type": "MultiPolygon", "coordinates": [ [ [ [ 14.9984189, 22.9971833 ], [ 15.05044, 22.72898 ], [ 15.13808, 22.28812 ], [ 15.19187, 21.98975 ], [ 15.19843, 21.49131 ], [ 15.2885799, 21.4323201 ], [ 15.33013, 21.37096 ], [ 15.62559, 20.96324 ], [ 15.5611, 20.91002 ], [ 15.54616, 20.88042 ], [ 15.5901, 20.77447 ], [ 15.61796, 20.7427 ], [ 15.69683, 20.68013 ], [ 15.74567, 20.62955 ], [ 15.8651586, 20.4624621 ], [ 15.99564, 20.34847 ], [ 15.83727, 20.08204 ], [ 15.75355, 19.94778 ], [ 15.70807, 19.61762 ], [ 15.67623, 19.35904 ], [ 15.63128, 19.03162 ], [ 15.5938, 18.73187 ], [ 15.58388, 18.51288 ], [ 15.5594198, 18.0062468 ], [ 15.3148003, 18.0154991 ], [ 14.4514999, 18.0074005 ], [ 13.9258003, 17.9993992 ], [ 13.4910002, 17.9953003 ], [ 13.0117998, 17.9932995 ], [ 12.8007002, 17.8866997 ], [ 12.3954, 17.6854992 ], [ 12.0787001, 17.5265999 ], [ 11.9942999, 17.4944 ], [ 11.5995998, 17.3696003 ], [ 11.4729004, 17.3073006 ], [ 11.1288004, 17.1443005 ], [ 11.0444002, 17.0979996 ], [ 10.8923998, 17.0014992 ], [ 10.5398998, 16.7721004 ], [ 10.2041998, 16.5527992 ], [ 9.8516998, 16.3213997 ], [ 9.6891499, 16.2168007 ], [ 9.6237097, 16.1685009 ], [ 9.4822798, 16.0779991 ], [ 9.3577299, 15.9895 ], [ 9.2965202, 15.9533005 ], [ 9.0875301, 15.8868999 ], [ 9.0263205, 15.8708 ], [ 8.7666702, 15.7360001 ], [ 8.6885595, 15.7018003 ], [ 8.4753599, 15.5930996 ], [ 8.3085899, 15.5447998 ], [ 8.1566095, 15.5509005 ], [ 7.9814, 15.5066004 ], [ 7.9159598, 15.5086002 ], [ 7.7407498, 15.5327997 ], [ 7.6014299, 15.5608997 ], [ 7.5528698, 15.5529003 ], [ 7.5022101, 15.5690002 ], [ 7.3544402, 15.3195 ], [ 7.2679, 15.3556995 ], [ 7.0230298, 15.4382 ], [ 6.8625898, 15.4301996 ], [ 6.7253799, 15.4281998 ], [ 6.6916099, 15.5529003 ], [ 6.58395, 15.8989 ], [ 6.6409402, 16.1926994 ], [ 6.57339, 16.2248993 ], [ 6.4256301, 16.2831993 ], [ 6.39819, 16.2992992 ], [ 6.3432999, 16.3596992 ], [ 6.1406498, 16.8183994 ], [ 6.1047602, 16.8726997 ], [ 6.04144, 16.9451008 ], [ 5.7437902, 17.1664009 ], [ 5.6065798, 17.2709999 ], [ 5.4229298, 17.3757 ], [ 5.2202802, 17.4722004 ], [ 5.14217, 17.6352005 ], [ 5.0915098, 17.7015991 ], [ 5.0514002, 17.7318001 ], [ 4.9120798, 17.8001995 ], [ 4.8888602, 17.8202991 ], [ 4.8761902, 17.9209003 ], [ 4.7326498, 17.9491005 ], [ 4.7284298, 18.0034008 ], [ 4.81709, 18.1301003 ], [ 4.81709, 18.2507992 ], [ 4.7685299, 18.3775997 ], [ 4.7600899, 18.4279003 ], [ 4.7811999, 18.4923 ], [ 4.8445301, 18.5788002 ], [ 4.8698602, 18.6793995 ], [ 4.6271, 18.6814003 ], [ 4.3400102, 18.6774006 ], [ 4.24343, 18.6708298 ], [ 4.2429516, 19.1389017 ], [ 4.5273357, 19.1943223 ], [ 5.1045, 19.306621 ], [ 5.813022, 19.441273 ], [ 6.106892, 19.694127 ], [ 6.861567, 20.337639 ], [ 7.459372, 20.84132 ], [ 7.7927369, 21.0452013 ], [ 8.719858, 21.605986 ], [ 10.2053073, 22.4842609 ], [ 10.972707, 22.9274624 ], [ 11.363128, 23.152557 ], [ 11.9985, 23.512696 ], [ 12.07869, 23.49906 ], [ 12.43478, 23.42207 ], [ 12.72861, 23.35978 ], [ 13.18805, 23.26068 ], [ 13.39798, 23.21753 ], [ 13.54474, 23.157 ], [ 13.6804, 23.07224 ], [ 14.00172, 22.80122 ], [ 14.18932, 22.64448 ], [ 14.45109, 22.7597 ], [ 14.70335, 22.87411 ], [ 14.9958698, 23.0018899 ], [ 14.9984189, 22.9971833 ] ] ] ] } },
{ "type": "Feature", "properties": { "POLYGON_ID": "NER_GAUL2004_ADM1_2203", "ADM0_ISO3": "NER", "ADM0_NAME": "Niger", "ADM0_CODE": 181, "ADM1_NAME": "Diffa", "ADM1_CODE": 2203, "GEOSET": "GAUL", "GEOSET_YEAR": 2004.0, "GEOSET_VERSION": "GAUL_v1", "GEOSET_UNIT": "ADM1", "CENTROID_LONG": 13.218610762367598, "CENTROID_LAT": 15.864118236805206 }, "geometry": { "type": "MultiPolygon", "coordinates": [ [ [ [ 15.5594198, 18.0062468 ], [ 15.53932, 17.59987 ], [ 15.5137574, 17.087545 ], [ 15.50555, 16.89787 ], [ 15.4532262, 16.843276 ], [ 15.25835, 16.63929 ], [ 14.95665, 16.32533 ], [ 14.91362, 16.27664 ], [ 14.61041, 15.95604 ], [ 14.38476, 15.73155 ], [ 14.27592, 15.58823 ], [ 13.97018, 15.15653 ], [ 13.86951, 15.04284 ], [ 13.78968, 14.86321 ], [ 13.79223, 14.80233 ], [ 13.80996, 14.72172 ], [ 13.76873, 14.69197 ], [ 13.74557, 14.69834 ], [ 13.67731, 14.63656 ], [ 13.69251, 14.61293 ], [ 13.6960196, 14.5511226 ], [ 13.6442334, 14.5158193 ], [ 13.57207, 14.50568 ], [ 13.49339, 14.47461 ], [ 13.47348, 14.44281 ], [ 13.48563, 14.35827 ], [ 13.56769, 13.99947 ], [ 13.6345466, 13.71068 ], [ 13.623951, 13.7106269 ], [ 13.59211, 13.71074 ], [ 13.5918622, 13.7106734 ], [ 13.5868502, 13.7093555 ], [ 13.5752627, 13.7100652 ], [ 13.55494, 13.71131 ], [ 13.47496, 13.71056 ], [ 13.46531, 13.71029 ], [ 13.4653175, 13.7096025 ], [ 13.416128, 13.7091825 ], [ 13.39238, 13.71184 ], [ 13.37049, 13.7136 ], [ 13.3627009, 13.7117673 ], [ 13.3625, 13.71172 ], [ 13.3537792, 13.71444 ], [ 13.3123575, 13.6981926 ], [ 13.2960941, 13.6719006 ], [ 13.2989174, 13.6699364 ], [ 13.2999477, 13.6658653 ], [ 13.2998853, 13.6657488 ], [ 13.2940578, 13.6591632 ], [ 13.2726161, 13.6487367 ], [ 13.2285257, 13.5894635 ], [ 13.2326229, 13.5729749 ], [ 13.2331553, 13.5726339 ], [ 13.209482, 13.534815 ], [ 13.2103198, 13.5348277 ], [ 13.1950261, 13.5227801 ], [ 13.198855, 13.5192697 ], [ 13.190953, 13.516912 ], [ 13.1887569, 13.5187599 ], [ 13.186272, 13.524666 ], [ 13.1868505, 13.5290369 ], [ 13.1422458, 13.5174182 ], [ 13.1415051, 13.517756 ], [ 13.1483327, 13.5474551 ], [ 13.1492539, 13.5482489 ], [ 13.1227873, 13.538292 ], [ 13.1284013, 13.528716 ], [ 13.1283761, 13.5282577 ], [ 13.1281596, 13.5243153 ], [ 13.126866, 13.5224073 ], [ 13.0874562, 13.5194604 ], [ 13.0863209, 13.5203139 ], [ 13.0763281, 13.5250283 ], [ 13.0683649, 13.5260911 ], [ 13.0233861, 13.5367294 ], [ 12.9516983, 13.4986385 ], [ 12.9475947, 13.5035527 ], [ 12.9002389, 13.4921528 ], [ 12.8917422, 13.4912795 ], [ 12.8909452, 13.4929537 ], [ 12.8911607, 13.4931228 ], [ 12.8728098, 13.502073 ], [ 12.8550538, 13.4640847 ], [ 12.8536786, 13.4536804 ], [ 12.8471147, 13.4423627 ], [ 12.8439341, 13.4420713 ], [ 12.8146168, 13.4266612 ], [ 12.8195668, 13.4257407 ], [ 12.8313221, 13.4088767 ], [ 12.8278863, 13.4038634 ], [ 12.8267973, 13.4037326 ], [ 12.7996058, 13.4078241 ], [ 12.7144519, 13.3250886 ], [ 12.7099752, 13.3237775 ], [ 12.6576349, 13.2913397 ], [ 12.6554834, 13.2914053 ], [ 12.6509835, 13.2873576 ], [ 12.5912911, 13.2773119 ], [ 12.591237, 13.2700567 ], [ 12.5848086, 13.2754675 ], [ 12.5797769, 13.2767647 ], [ 12.5810741, 13.256795 ], [ 12.5769064, 13.2555169 ], [ 12.5377249, 13.2015469 ], [ 12.5428544, 13.1968366 ], [ 12.5507821, 13.1648476 ], [ 12.5509786, 13.1621122 ], [ 12.5538811, 13.162826 ], [ 12.5353795, 13.1464473 ], [ 12.5350546, 13.1503574 ], [ 12.5020337, 13.1442669 ], [ 12.4905236, 13.1163512 ], [ 12.4929073, 13.1157969 ], [ 12.4888883, 13.0924713 ], [ 12.4921471, 13.090948 ], [ 12.4951675, 13.0895361 ], [ 12.4963826, 13.0870471 ], [ 12.4964445, 13.0869203 ], [ 12.4964673, 13.0868735 ], [ 12.4799454, 13.0790087 ], [ 12.4829969, 13.0726693 ], [ 12.4764006, 13.0624639 ], [ 12.4742962, 13.0619768 ], [ 12.4724475, 13.0630827 ], [ 12.3913142, 13.075248 ], [ 12.3831062, 13.0758665 ], [ 12.3823223, 13.0763587 ], [ 12.3799989, 13.0778173 ], [ 12.3374221, 13.0833932 ], [ 12.3399402, 13.075881 ], [ 12.3250949, 13.0855225 ], [ 12.3224815, 13.085077 ], [ 12.3208294, 13.0871196 ], [ 12.2717208, 13.0991587 ], [ 12.2723769, 13.1039444 ], [ 12.2109175, 13.1166927 ], [ 12.1638791, 13.1022347 ], [ 12.16357, 13.10216 ], [ 12.1635513, 13.102179 ], [ 12.1577121, 13.1081177 ], [ 12.1545151, 13.1083451 ], [ 12.15089, 13.10859 ], [ 12.1394, 13.09937 ], [ 12.1347, 13.10419 ], [ 12.1340166, 13.1035171 ], [ 12.13142, 13.10096 ], [ 12.1298466, 13.0911503 ], [ 12.1181, 13.0922 ], [ 12.1042259, 13.0934682 ], [ 12.0473496, 13.1265503 ], [ 12.0409967, 13.1308586 ], [ 12.0116, 13.15821 ], [ 11.9974017, 13.171081 ], [ 11.99502, 13.17324 ], [ 11.9950155, 13.1732434 ], [ 11.9289236, 13.2226726 ], [ 11.92878, 13.22278 ], [ 11.88464, 13.24537 ], [ 11.8846264, 13.2465212 ], [ 11.8773814, 13.248994 ], [ 11.81023, 13.26398 ], [ 11.7891575, 13.2679397 ], [ 11.7832003, 13.2685536 ], [ 11.77706, 13.26849 ], [ 11.7718035, 13.2718974 ], [ 11.7606277, 13.2733507 ], [ 11.73891, 13.27778 ], [ 11.69559, 13.28701 ], [ 11.6954329, 13.2870567 ], [ 11.66566, 13.2959 ], [ 11.6613581, 13.2993205 ], [ 11.6382974, 13.3051075 ], [ 11.63761, 13.30528 ], [ 11.635624, 13.3061286 ], [ 11.60151, 13.31916 ], [ 11.5916939, 13.3246686 ], [ 11.53963, 13.34796 ], [ 11.52219, 13.35306 ], [ 11.5221838, 13.3530606 ], [ 11.4857176, 13.3567768 ], [ 11.48549, 13.3568 ], [ 11.4809023, 13.3561702 ], [ 11.4755119, 13.3567543 ], [ 11.4688, 13.35777 ], [ 11.4656916, 13.3593311 ], [ 11.4643, 13.36003 ], [ 11.39558, 13.37008 ], [ 11.36759, 13.37207 ], [ 11.367005, 13.3720818 ], [ 11.30225, 13.37339 ], [ 11.30226, 13.3724742 ], [ 11.2959, 13.37378 ], [ 11.2613195, 13.3742372 ], [ 11.21271, 13.37488 ], [ 11.2126664, 13.3757989 ], [ 11.1813834, 13.3747433 ], [ 11.18099, 13.37473 ], [ 11.17462, 13.37604 ], [ 11.1539267, 13.3756552 ], [ 11.1350793, 13.3753047 ], [ 11.0808025, 13.3742954 ], [ 11.06868, 13.37407 ], [ 11.065685, 13.3753861 ], [ 11.0592431, 13.3739483 ], [ 11.02499, 13.37237 ], [ 11.02498, 13.37329 ], [ 11.0002924, 13.3735589 ], [ 10.97729, 13.37224 ], [ 10.9761498, 13.3721708 ], [ 10.9141611, 13.36841 ], [ 10.9104844, 13.368187 ], [ 10.88103, 13.3664 ], [ 10.86035, 13.36659 ], [ 10.8603304, 13.3665888 ], [ 10.8226134, 13.3642756 ], [ 10.7552769, 13.3601459 ], [ 10.7551362, 13.3601383 ], [ 10.7128963, 13.3585462 ], [ 10.6693104, 13.3569034 ], [ 10.6136999, 13.5188999 ], [ 10.7045002, 13.5993004 ], [ 10.8226995, 13.7139997 ], [ 10.8247995, 13.8004999 ], [ 10.8353996, 13.8346996 ], [ 10.9979, 13.9756002 ], [ 11.0824003, 14.0720997 ], [ 11.2554998, 14.1868 ], [ 11.3378, 14.1526003 ], [ 11.5488997, 14.1887999 ], [ 11.6671, 14.2733002 ], [ 11.7642002, 14.3498001 ], [ 11.8064003, 14.3759003 ], [ 11.8781996, 14.3718996 ], [ 11.9984999, 14.4242001 ], [ 11.9309998, 14.4504004 ], [ 11.9119997, 14.5288 ], [ 11.9245996, 14.5711002 ], [ 12.0028, 14.6092997 ], [ 12.0005999, 14.8285999 ], [ 12.0005999, 15.1405001 ], [ 11.9984999, 15.3497 ], [ 11.9984999, 15.7601004 ], [ 11.9984999, 16.2891998 ], [ 11.9963999, 16.5387001 ], [ 11.9963999, 16.9974003 ], [ 11.9942999, 17.4944 ], [ 12.0787001, 17.5265999 ], [ 12.3954, 17.6854992 ], [ 12.8007002, 17.8866997 ], [ 13.0117998, 17.9932995 ], [ 13.4910002, 17.9953003 ], [ 13.9258003, 17.9993992 ], [ 14.4514999, 18.0074005 ], [ 15.3148003, 18.0154991 ], [ 15.5594198, 18.0062468 ] ] ] ] } },
{ "type": "Feature", "properties": { "POLYGON_ID": "NER_GAUL2004_ADM1_2204", "ADM0_ISO3": "NER", "ADM0_NAME": "Niger", "ADM0_CODE": 181, "ADM1_NAME": "Dosso", "ADM1_CODE": 2204, "GEOSET": "GAUL", "GEOSET_YEAR": 2004.0, "GEOSET_VERSION": "GAUL_v1", "GEOSET_UNIT": "ADM1", "CENTROID_LONG": 3.5463335546618069, "CENTROID_LAT": 13.19847224018447 }, "geometry": { "type": "MultiPolygon", "coordinates": [ [ [ [ 4.5970093, 13.7307043 ], [ 4.5674081, 13.7243286 ], [ 4.4998586, 13.6854847 ], [ 4.4637941, 13.677651 ], [ 4.2313591, 13.4728289 ], [ 4.1878345, 13.472668 ], [ 4.1767483, 13.472627 ], [ 4.1338179, 13.4724683 ], [ 4.1342343, 13.2360948 ], [ 4.1343588, 13.1654208 ], [ 4.1020854, 12.9981043 ], [ 4.0454719, 12.8962359 ], [ 4.0178863, 12.8681094 ], [ 3.9347689, 12.7465886 ], [ 3.7791717, 12.6268707 ], [ 3.6641416, 12.5302309 ], [ 3.651701, 12.3879758 ], [ 3.6506847, 12.3578555 ], [ 3.6554199, 12.262113 ], [ 3.6580114, 12.2516705 ], [ 3.6410634, 12.2042521 ], [ 3.6369166, 12.1297891 ], [ 3.6754288, 11.9998343 ], [ 3.6667, 11.97327 ], [ 3.62543, 11.92974 ], [ 3.61934, 11.92539 ], [ 3.6177381, 11.9172364 ], [ 3.61767, 11.91689 ], [ 3.62258, 11.85249 ], [ 3.62673, 11.83937 ], [ 3.63418, 11.83129 ], [ 3.6345499, 11.8310469 ], [ 3.6657299, 11.8105555 ], [ 3.66586, 11.81047 ], [ 3.6695779, 11.8027406 ], [ 3.67118, 11.79941 ], [ 3.67945, 11.76351 ], [ 3.6792, 11.75845 ], [ 3.6690146, 11.7504889 ], [ 3.65461, 11.73923 ], [ 3.6545519, 11.7391804 ], [ 3.6217094, 11.7111642 ], [ 3.6050696, 11.6969703 ], [ 3.556389, 11.724167 ], [ 3.558611, 11.779167 ], [ 3.522778, 11.787778 ], [ 3.521111, 11.814722 ], [ 3.486667, 11.856944 ], [ 3.441111, 11.876944 ], [ 3.383611, 11.886389 ], [ 3.321389, 11.881667 ], [ 3.283333, 11.935278 ], [ 3.278333, 11.965556 ], [ 3.220278, 12.060833 ], [ 3.1277779, 12.1544422 ], [ 3.082222, 12.176667 ], [ 3.009722, 12.269444 ], [ 2.963056, 12.2875 ], [ 2.884444, 12.377222 ], [ 2.8430103, 12.4034966 ], [ 2.7462399, 12.4605999 ], [ 2.7441299, 12.5349998 ], [ 2.7230201, 12.5712996 ], [ 2.68081, 12.5229998 ], [ 2.6428101, 12.5310001 ], [ 2.6470301, 12.5691996 ], [ 2.61959, 12.5953999 ], [ 2.6301401, 12.6658001 ], [ 2.61959, 12.7282 ], [ 2.58792, 12.8006001 ], [ 2.6217, 12.8790998 ], [ 2.69769, 12.9112997 ], [ 2.69558, 12.9534998 ], [ 2.5351501, 12.9756002 ], [ 2.4697101, 13.1164999 ], [ 2.4718201, 13.1708002 ], [ 2.50771, 13.1969996 ], [ 2.5836999, 13.1829004 ], [ 2.6596999, 13.2191 ], [ 2.6596999, 13.2493 ], [ 2.69136, 13.2653999 ], [ 2.76947, 13.2693996 ], [ 2.8285699, 13.2532997 ], [ 2.8348999, 13.3397999 ], [ 2.86235, 13.4082003 ], [ 2.8412399, 13.4545002 ], [ 2.8496799, 13.5489998 ], [ 2.9214499, 13.5269003 ], [ 2.9235599, 13.5611 ], [ 2.96578, 13.6195002 ], [ 3.04389, 13.6054001 ], [ 3.1093299, 13.6073999 ], [ 3.13044, 13.7402 ], [ 3.1642101, 13.8106003 ], [ 3.3267601, 13.7441998 ], [ 3.47241, 13.8004999 ], [ 3.5146301, 13.8306999 ], [ 3.6814001, 13.9756002 ], [ 3.73839, 14.0319004 ], [ 3.75739, 14.1667004 ], [ 3.7827201, 14.217 ], [ 3.84394, 14.2813997 ], [ 3.8734901, 14.3337002 ], [ 3.9579301, 14.3900003 ], [ 3.9811499, 14.3920002 ], [ 4.1648002, 14.4383001 ], [ 4.1648002, 14.4946003 ], [ 4.2513499, 14.5288 ], [ 4.2555699, 14.6355 ], [ 4.3421202, 14.6053 ], [ 4.4328899, 14.4383001 ], [ 4.4117799, 14.2894001 ], [ 4.46456, 14.0057001 ], [ 4.5215502, 13.9372997 ], [ 4.5722198, 13.8448 ], [ 4.5970093, 13.7307043 ] ] ] ] } },
{ "type": "Feature", "properties": { "POLYGON_ID": "NER_GAUL2004_ADM1_2205", "ADM0_ISO3": "NER", "ADM0_NAME": "Niger", "ADM0_CODE": 181, "ADM1_NAME": "Maradi", "ADM1_CODE": 2205, "GEOSET": "GAUL", "GEOSET_YEAR": 2004.0, "GEOSET_VERSION": "GAUL_v1", "GEOSET_UNIT": "ADM1", "CENTROID_LONG": 7.3049689964050506, "CENTROID_LAT": 14.116937426819076 }, "geometry": { "type": "MultiPolygon", "coordinates": [ [ [ [ 7.3544402, 15.3195 ], [ 7.4219999, 15.2873001 ], [ 7.4114399, 15.1444998 ], [ 7.4895501, 15.0116997 ], [ 7.5148802, 14.8164997 ], [ 7.5528698, 14.7722998 ], [ 7.5380998, 14.7098999 ], [ 7.5971999, 14.6977997 ], [ 7.7154198, 14.6374998 ], [ 7.7006402, 14.5307999 ], [ 7.7069702, 14.4685001 ], [ 7.7787499, 14.4202003 ], [ 7.8441801, 14.4242001 ], [ 7.9518399, 14.5167999 ], [ 7.99195, 14.5148001 ], [ 8.0109501, 14.4544001 ], [ 8.0721703, 14.4483995 ], [ 8.15238, 14.4281998 ], [ 8.1882696, 14.3940001 ], [ 8.2621498, 14.3839998 ], [ 8.3170404, 14.3416996 ], [ 8.3888102, 14.2652998 ], [ 8.4246998, 14.1927996 ], [ 8.5154696, 14.1566 ], [ 8.51336, 14.0700998 ], [ 8.5429096, 14.0117998 ], [ 8.51758, 13.8769999 ], [ 8.4711399, 13.8669004 ], [ 8.3128204, 13.7824001 ], [ 8.2241602, 13.7180004 ], [ 8.2241602, 13.6717997 ], [ 8.3508101, 13.5832005 ], [ 8.31915, 13.5389996 ], [ 8.33181, 13.4906998 ], [ 8.34659, 13.3719997 ], [ 8.31915, 13.3519001 ], [ 8.3064804, 13.2895002 ], [ 8.25592, 13.20756 ], [ 8.21173, 13.21899 ], [ 8.19959, 13.22585 ], [ 8.1935701, 13.2311328 ], [ 8.1761431, 13.2464259 ], [ 8.17607, 13.24649 ], [ 8.16451, 13.25865 ], [ 8.1598964, 13.2603729 ], [ 8.15811, 13.26104 ], [ 8.1581046, 13.2610444 ], [ 8.1454403, 13.2713154 ], [ 8.14541, 13.27134 ], [ 8.1066799, 13.28932 ], [ 8.0676, 13.30246 ], [ 8.0463481, 13.30657 ], [ 8.0369823, 13.3063508 ], [ 8.03695, 13.30635 ], [ 8.0336, 13.30881 ], [ 8.0229784, 13.3110903 ], [ 7.9976844, 13.3152808 ], [ 7.9476478, 13.3235705 ], [ 7.94747, 13.3236 ], [ 7.89162, 13.33011 ], [ 7.88176, 13.32965 ], [ 7.8776997, 13.3313143 ], [ 7.87488, 13.33247 ], [ 7.860014, 13.3331583 ], [ 7.8485065, 13.3336958 ], [ 7.8351846, 13.337008 ], [ 7.8041, 13.33424 ], [ 7.8008801, 13.3325027 ], [ 7.7803379, 13.3214051 ], [ 7.75296, 13.3031 ], [ 7.7486866, 13.3005079 ], [ 7.74625, 13.29903 ], [ 7.7461672, 13.2989815 ], [ 7.71963, 13.28343 ], [ 7.7196055, 13.2834143 ], [ 7.6970952, 13.2689696 ], [ 7.6533382, 13.2408909 ], [ 7.6532865, 13.2408582 ], [ 7.64959, 13.23892 ], [ 7.6457547, 13.237849 ], [ 7.63179, 13.22744 ], [ 7.6225099, 13.2231036 ], [ 7.6188061, 13.2213728 ], [ 7.6187618, 13.2213479 ], [ 7.6132941, 13.2181872 ], [ 7.59427, 13.20719 ], [ 7.58459, 13.20005 ], [ 7.579, 13.1983 ], [ 7.5454811, 13.178902 ], [ 7.50589, 13.15599 ], [ 7.50223, 13.15221 ], [ 7.49317, 13.14853 ], [ 7.48441, 13.14233 ], [ 7.47418, 13.13839 ], [ 7.45782, 13.1267 ], [ 7.4569116, 13.1262326 ], [ 7.45306, 13.1242505 ], [ 7.42632, 13.11049 ], [ 7.40072, 13.10179 ], [ 7.4007085, 13.1017887 ], [ 7.37075, 13.0985 ], [ 7.3704864, 13.098518 ], [ 7.3324468, 13.1011134 ], [ 7.3313358, 13.101195 ], [ 7.2445719, 13.1108987 ], [ 7.24456, 13.1109 ], [ 7.22789, 13.11093 ], [ 7.2190302, 13.102446 ], [ 7.2123577, 13.0960565 ], [ 7.21233, 13.09603 ], [ 7.2089069, 13.0922466 ], [ 7.19866, 13.08094 ], [ 7.19311, 13.0778 ], [ 7.17925, 13.06087 ], [ 7.1697276, 13.05102 ], [ 7.1516275, 13.0322985 ], [ 7.13639, 13.02316 ], [ 7.12472, 13.02078 ], [ 7.0671132, 13.0022692 ], [ 7.06307, 13.00097 ], [ 6.936172, 12.9890775 ], [ 6.9340872, 12.9886106 ], [ 6.92801, 12.98985 ], [ 6.91348, 13.00571 ], [ 6.8893676, 13.0355956 ], [ 6.88887, 13.03644 ], [ 6.8493445, 13.0822925 ], [ 6.81859, 13.11797 ], [ 6.8185401, 13.1180463 ], [ 6.7920248, 13.1585569 ], [ 6.79199, 13.15861 ], [ 6.78928, 13.16554 ], [ 6.7891086, 13.1658359 ], [ 6.7846104, 13.1736041 ], [ 6.73697, 13.2558764 ], [ 6.7341206, 13.2598801 ], [ 6.7291, 13.2669 ], [ 6.7177349, 13.2883804 ], [ 6.6978396, 13.3207285 ], [ 6.6851585, 13.3412999 ], [ 6.683278, 13.3449291 ], [ 6.67783, 13.35546 ], [ 6.6609019, 13.3714826 ], [ 6.63614, 13.39492 ], [ 6.57178, 13.45836 ], [ 6.5715408, 13.4585907 ], [ 6.5270298, 13.5015176 ], [ 6.4985947, 13.5549986 ], [ 6.4143762, 13.6393577 ], [ 6.285808, 13.7067799 ], [ 6.2778602, 13.7341003 ], [ 6.2989702, 13.7763996 ], [ 6.3707399, 13.8045998 ], [ 6.3306398, 13.8507996 ], [ 6.3285198, 13.9273005 ], [ 6.41085, 13.9917002 ], [ 6.5248399, 14.0459995 ], [ 6.5206199, 14.1324997 ], [ 6.5417299, 14.1424999 ], [ 6.5353999, 14.2833996 ], [ 6.4973998, 14.3055 ], [ 6.4741802, 14.4363003 ], [ 6.4762902, 14.4905996 ], [ 6.5332899, 14.7159004 ], [ 6.55651, 14.8325996 ], [ 6.55651, 15.0057001 ], [ 6.6303902, 15.2592001 ], [ 6.7253799, 15.4281998 ], [ 6.8625898, 15.4301996 ], [ 7.0230298, 15.4382 ], [ 7.2679, 15.3556995 ], [ 7.3544402, 15.3195 ] ] ] ] } },
{ "type": "Feature", "properties": { "POLYGON_ID": "NER_GAUL2004_ADM1_2206", "ADM0_ISO3": "NER", "ADM0_NAME": "Niger", "ADM0_CODE": 181, "ADM1_NAME": "Niamey", "ADM1_CODE": 2206, "GEOSET": "GAUL", "GEOSET_YEAR": 2004.0, "GEOSET_VERSION": "GAUL_v1", "GEOSET_UNIT": "ADM1", "CENTROID_LONG": 2.1351333141173141, "CENTROID_LAT": 13.511173931441462 }, "geometry": { "type": "MultiPolygon", "coordinates": [ [ [ [ 2.2218509, 13.4457722 ], [ 2.1721351, 13.4252005 ], [ 2.0614393, 13.4860497 ], [ 2.0271654, 13.5457745 ], [ 2.1265628, 13.6041555 ], [ 2.2336922, 13.4943085 ], [ 2.2218509, 13.4457722 ] ] ] ] } },
{ "type": "Feature", "properties": { "POLYGON_ID": "NER_GAUL2004_ADM1_2207", "ADM0_ISO3": "NER", "ADM0_NAME": "Niger", "ADM0_CODE": 181, "ADM1_NAME": "Tahoua", "ADM1_CODE": 2207, "GEOSET": "GAUL", "GEOSET_YEAR": 2004.0, "GEOSET_VERSION": "GAUL_v1", "GEOSET_UNIT": "ADM1", "CENTROID_LONG": 5.2259447127899827, "CENTROID_LAT": 15.777955392165012 }, "geometry": { "type": "MultiPolygon", "coordinates": [ [ [ [ 6.7253799, 15.4281998 ], [ 6.6303902, 15.2592001 ], [ 6.55651, 15.0057001 ], [ 6.55651, 14.8325996 ], [ 6.5332899, 14.7159004 ], [ 6.4762902, 14.4905996 ], [ 6.4741802, 14.4363003 ], [ 6.4973998, 14.3055 ], [ 6.5353999, 14.2833996 ], [ 6.5417299, 14.1424999 ], [ 6.5206199, 14.1324997 ], [ 6.5248399, 14.0459995 ], [ 6.41085, 13.9917002 ], [ 6.3285198, 13.9273005 ], [ 6.3306398, 13.8507996 ], [ 6.3707399, 13.8045998 ], [ 6.2989702, 13.7763996 ], [ 6.2778602, 13.7341003 ], [ 6.285808, 13.7067799 ], [ 6.2165942, 13.7141411 ], [ 6.1406005, 13.6850013 ], [ 6.0768295, 13.717064 ], [ 5.9980015, 13.7406238 ], [ 5.8205942, 13.7970434 ], [ 5.7705517, 13.8051919 ], [ 5.6191843, 13.8609915 ], [ 5.5512505, 13.8958884 ], [ 5.5322133, 13.8995567 ], [ 5.4930558, 13.8862866 ], [ 5.4837719, 13.8808057 ], [ 5.3544157, 13.8381091 ], [ 5.3415914, 13.8100345 ], [ 5.2805898, 13.7403678 ], [ 5.2064173, 13.7365552 ], [ 5.0806013, 13.7472998 ], [ 5.00019, 13.732396 ], [ 4.9870855, 13.7429056 ], [ 4.9667343, 13.7444052 ], [ 4.9095618, 13.7486069 ], [ 4.90952, 13.74861 ], [ 4.89828, 13.75445 ], [ 4.8916986, 13.7606425 ], [ 4.87611, 13.77531 ], [ 4.8714711, 13.781527 ], [ 4.87076, 13.78248 ], [ 4.7764147, 13.7647062 ], [ 4.7507102, 13.7598636 ], [ 4.75016, 13.75976 ], [ 4.74261, 13.75729 ], [ 4.7424746, 13.7572664 ], [ 4.7132298, 13.7521677 ], [ 4.5970093, 13.7307043 ], [ 4.5722198, 13.8448 ], [ 4.5215502, 13.9372997 ], [ 4.46456, 14.0057001 ], [ 4.4117799, 14.2894001 ], [ 4.4328899, 14.4383001 ], [ 4.3421202, 14.6053 ], [ 4.2555699, 14.6355 ], [ 4.12047, 14.7763004 ], [ 4.12047, 14.9090996 ], [ 4.1289201, 15.0116997 ], [ 4.10358, 15.1686001 ], [ 3.9705901, 15.4664001 ], [ 3.87214, 15.69188 ], [ 3.8891195, 15.717179 ], [ 3.8939, 15.73399 ], [ 3.9057, 15.77408 ], [ 3.91586, 15.86807 ], [ 3.92568, 15.88798 ], [ 3.9283144, 15.9025673 ], [ 3.97416, 15.96182 ], [ 3.99843, 15.97799 ], [ 3.9945993, 16.0372233 ], [ 3.99045, 16.04964 ], [ 3.99664, 16.08798 ], [ 4.00995, 16.12488 ], [ 4.07647, 16.32042 ], [ 4.07948, 16.53714 ], [ 4.07676, 16.91231 ], [ 4.16674, 16.95335 ], [ 4.229, 16.98071 ], [ 4.2412, 16.9877 ], [ 4.2414048, 17.0021538 ], [ 4.23891, 17.39255 ], [ 4.24107, 17.98603 ], [ 4.24026, 18.00652 ], [ 4.2418472, 18.3609229 ], [ 4.24234, 18.36928 ], [ 4.24154, 18.38922 ], [ 4.24221, 18.42996 ], [ 4.24253, 18.52565 ], [ 4.2422668, 18.586241 ], [ 4.24206, 18.59099 ], [ 4.24309, 18.62544 ], [ 4.24343, 18.6708298 ], [ 4.3400102, 18.6774006 ], [ 4.6271, 18.6814003 ], [ 4.8698602, 18.6793995 ], [ 4.8445301, 18.5788002 ], [ 4.7811999, 18.4923 ], [ 4.7600899, 18.4279003 ], [ 4.7685299, 18.3775997 ], [ 4.81709, 18.2507992 ], [ 4.81709, 18.1301003 ], [ 4.7284298, 18.0034008 ], [ 4.7326498, 17.9491005 ], [ 4.8761902, 17.9209003 ], [ 4.8888602, 17.8202991 ], [ 4.9120798, 17.8001995 ], [ 5.0514002, 17.7318001 ], [ 5.0915098, 17.7015991 ], [ 5.14217, 17.6352005 ], [ 5.2202802, 17.4722004 ], [ 5.4229298, 17.3757 ], [ 5.6065798, 17.2709999 ], [ 5.7437902, 17.1664009 ], [ 6.04144, 16.9451008 ], [ 6.1047602, 16.8726997 ], [ 6.1406498, 16.8183994 ], [ 6.3432999, 16.3596992 ], [ 6.39819, 16.2992992 ], [ 6.4256301, 16.2831993 ], [ 6.57339, 16.2248993 ], [ 6.6409402, 16.1926994 ], [ 6.58395, 15.8989 ], [ 6.6916099, 15.5529003 ], [ 6.7253799, 15.4281998 ] ] ] ] } },
{ "type": "Feature", "properties": { "POLYGON_ID": "NER_GAUL2004_ADM1_2208", "ADM0_ISO3": "NER", "ADM0_NAME": "Niger", "ADM0_CODE": 181, "ADM1_NAME": "Tillaberi", "ADM1_CODE": 2208, "GEOSET": "GAUL", "GEOSET_YEAR": 2004.0, "GEOSET_VERSION": "GAUL_v1", "GEOSET_UNIT": "ADM1", "CENTROID_LONG": 2.1871558869706265, "CENTROID_LAT": 14.181435890157804 }, "geometry": { "type": "MultiPolygon", "coordinates": [ [ [ [ 4.2555699, 14.6355 ], [ 4.2513499, 14.5288 ], [ 4.1648002, 14.4946003 ], [ 4.1648002, 14.4383001 ], [ 3.9811499, 14.3920002 ], [ 3.9579301, 14.3900003 ], [ 3.8734901, 14.3337002 ], [ 3.84394, 14.2813997 ], [ 3.7827201, 14.217 ], [ 3.75739, 14.1667004 ], [ 3.73839, 14.0319004 ], [ 3.6814001, 13.9756002 ], [ 3.5146301, 13.8306999 ], [ 3.47241, 13.8004999 ], [ 3.3267601, 13.7441998 ], [ 3.1642101, 13.8106003 ], [ 3.13044, 13.7402 ], [ 3.1093299, 13.6073999 ], [ 3.04389, 13.6054001 ], [ 2.96578, 13.6195002 ], [ 2.9235599, 13.5611 ], [ 2.9214499, 13.5269003 ], [ 2.8496799, 13.5489998 ], [ 2.8412399, 13.4545002 ], [ 2.86235, 13.4082003 ], [ 2.8348999, 13.3397999 ], [ 2.8285699, 13.2532997 ], [ 2.76947, 13.2693996 ], [ 2.69136, 13.2653999 ], [ 2.6596999, 13.2493 ], [ 2.6596999, 13.2191 ], [ 2.5836999, 13.1829004 ], [ 2.50771, 13.1969996 ], [ 2.4718201, 13.1708002 ], [ 2.4697101, 13.1164999 ], [ 2.5351501, 12.9756002 ], [ 2.69558, 12.9534998 ], [ 2.69769, 12.9112997 ], [ 2.6217, 12.8790998 ], [ 2.58792, 12.8006001 ], [ 2.61959, 12.7282 ], [ 2.6301401, 12.6658001 ], [ 2.61959, 12.5953999 ], [ 2.6470301, 12.5691996 ], [ 2.6428101, 12.5310001 ], [ 2.68081, 12.5229998 ], [ 2.7230201, 12.5712996 ], [ 2.7441299, 12.5349998 ], [ 2.7462399, 12.4605999 ], [ 2.8430103, 12.4034966 ], [ 2.78642, 12.3857344 ], [ 2.7618091, 12.3514746 ], [ 2.7342058, 12.3634442 ], [ 2.6950604, 12.2832603 ], [ 2.6650144, 12.3064055 ], [ 2.5933191, 12.2990772 ], [ 2.5803724, 12.2783137 ], [ 2.4642188, 12.2530921 ], [ 2.3998518, 12.2577333 ], [ 2.3822929, 12.1679766 ], [ 2.3914161, 12.1125458 ], [ 2.436203, 12.048683 ], [ 2.4655081, 11.9801894 ], [ 2.4372398, 11.9530961 ], [ 2.4067598, 11.953027 ], [ 2.4050759, 11.8997802 ], [ 2.06642, 12.35094 ], [ 2.08212, 12.39354 ], [ 2.17411, 12.42434 ], [ 2.21552, 12.41418 ], [ 2.26688, 12.43616 ], [ 2.27123, 12.4678298 ], [ 2.22826, 12.52179 ], [ 2.22587, 12.58299 ], [ 2.19603, 12.62407 ], [ 2.1515, 12.64908 ], [ 2.16063, 12.68795 ], [ 2.08276, 12.72114 ], [ 1.97751, 12.73717 ], [ 1.94859, 12.69165 ], [ 1.92585, 12.69369 ], [ 1.86544, 12.60539 ], [ 1.57605, 12.63314 ], [ 1.43331, 12.74343 ], [ 1.11808, 12.99984 ], [ 0.9975, 12.99965 ], [ 0.992092, 13.0844732 ], [ 0.99182, 13.37092 ], [ 1.05309, 13.36861 ], [ 1.11968, 13.33302 ], [ 1.16865, 13.32256 ], [ 1.24562, 13.33926 ], [ 1.28097, 13.35862 ], [ 1.22164, 13.3873 ], [ 1.13667, 13.41402 ], [ 1.08789, 13.46078 ], [ 1.01409, 13.48738 ], [ 1.00595, 13.55832 ], [ 0.9071, 13.61865 ], [ 0.82719, 13.61865 ], [ 0.78164, 13.6427 ], [ 0.7726, 13.69205 ], [ 0.63552, 13.69343 ], [ 0.59973, 13.7304096 ], [ 0.61937, 13.77766 ], [ 0.52686, 13.84708 ], [ 0.52077, 13.87393 ], [ 0.47648, 13.91036 ], [ 0.48321, 13.95131 ], [ 0.39879, 14.02787 ], [ 0.35703, 14.1484 ], [ 0.391, 14.19016 ], [ 0.4037599, 14.2496598 ], [ 0.38594, 14.28867 ], [ 0.32293, 14.36201 ], [ 0.2965, 14.36687 ], [ 0.19201, 14.46064 ], [ 0.16625, 14.5334398 ], [ 0.17759, 14.58268 ], [ 0.23124, 14.72168 ], [ 0.2361, 14.7494801 ], [ 0.20165, 14.8403501 ], [ 0.23574, 14.8860702 ], [ 0.22935, 14.98967 ], [ 0.2315, 14.98981 ], [ 0.2613981, 14.9896891 ], [ 0.4017782, 14.9696002 ], [ 0.51387, 15.0 ], [ 0.53776, 14.98095 ], [ 0.57274, 14.97959 ], [ 0.58858, 14.97764 ], [ 0.69417, 14.94737 ], [ 0.7191289, 14.9590189 ], [ 0.93164, 14.97366 ], [ 0.95691, 14.97472 ], [ 0.97319, 14.97895 ], [ 0.983171, 14.987381 ], [ 1.0830314, 15.0706688 ], [ 1.12697, 15.10766 ], [ 1.3240276, 15.265139 ], [ 1.77115, 15.29663 ], [ 1.87331, 15.30402 ], [ 2.30021, 15.33943 ], [ 2.62879, 15.36712 ], [ 3.00659, 15.34594 ], [ 3.0393888, 15.3445665 ], [ 3.0979, 15.34166 ], [ 3.5275056, 15.34149 ], [ 3.52572, 15.37431 ], [ 3.5317, 15.39471 ], [ 3.53149, 15.47342 ], [ 3.5665101, 15.505612 ], [ 3.5927, 15.51383 ], [ 3.70612, 15.63936 ], [ 3.75664, 15.6582 ], [ 3.767731, 15.6590889 ], [ 3.79195, 15.66103 ], [ 3.8154814, 15.662892 ], [ 3.83793, 15.66955 ], [ 3.85076, 15.67844 ], [ 3.8548, 15.6798 ], [ 3.87214, 15.69188 ], [ 3.9705901, 15.4664001 ], [ 4.10358, 15.1686001 ], [ 4.1289201, 15.0116997 ], [ 4.12047, 14.9090996 ], [ 4.12047, 14.7763004 ], [ 4.2555699, 14.6355 ] ], [ [ 2.2218509, 13.4457722 ], [ 2.2336922, 13.4943085 ], [ 2.1265628, 13.6041555 ], [ 2.0271654, 13.5457745 ], [ 2.0614393, 13.4860497 ], [ 2.1721351, 13.4252005 ], [ 2.2218509, 13.4457722 ] ] ] ] } },
{ "type": "Feature", "properties": { "POLYGON_ID": "NER_GAUL2004_ADM1_2209", "ADM0_ISO3": "NER", "ADM0_NAME": "Niger", "ADM0_CODE": 181, "ADM1_NAME": "Zinder", "ADM1_CODE": 2209, "GEOSET": "GAUL", "GEOSET_YEAR": 2004.0, "GEOSET_VERSION": "GAUL_v1", "GEOSET_UNIT": "ADM1", "CENTROID_LONG": 10.0365602713479, "CENTROID_LAT": 14.988408766731155 }, "geometry": { "type": "MultiPolygon", "coordinates": [ [ [ [ 10.6693104, 13.3569034 ], [ 10.6690571, 13.3568695 ], [ 10.6547, 13.35418 ], [ 10.61707, 13.34077 ], [ 10.60049, 13.33364 ], [ 10.5751167, 13.3249092 ], [ 10.56146, 13.32021 ], [ 10.5525495, 13.3159607 ], [ 10.54653, 13.31309 ], [ 10.48438, 13.29081 ], [ 10.46642, 13.2825 ], [ 10.26929, 13.27061 ], [ 10.2664259, 13.270794 ], [ 10.25777, 13.27135 ], [ 10.25051, 13.26986 ], [ 10.220909, 13.2684693 ], [ 10.2070679, 13.2678108 ], [ 10.1898659, 13.2606223 ], [ 10.1617574, 13.2488761 ], [ 10.16136, 13.24871 ], [ 10.1316553, 13.2353183 ], [ 10.1250116, 13.2323232 ], [ 10.0609, 13.20342 ], [ 10.0608777, 13.2034058 ], [ 10.03952, 13.18974 ], [ 10.03329, 13.18342 ], [ 9.99653, 13.16327 ], [ 9.9928415, 13.1583398 ], [ 9.9790298, 13.1434398 ], [ 9.9148739, 13.0729795 ], [ 9.91268, 13.07057 ], [ 9.9125887, 13.0704908 ], [ 9.8956572, 13.0557984 ], [ 9.8726868, 13.0358659 ], [ 9.84677, 13.01495 ], [ 9.8361131, 13.0005757 ], [ 9.8268395, 12.9865253 ], [ 9.81659, 12.97004 ], [ 9.81197, 12.96605 ], [ 9.8118823, 12.9659307 ], [ 9.7943428, 12.9420774 ], [ 9.7943282, 12.9420591 ], [ 9.79037, 12.94015 ], [ 9.7903469, 12.9401244 ], [ 9.7699, 12.91748 ], [ 9.7289551, 12.8772941 ], [ 9.6956308, 12.8445876 ], [ 9.6928973, 12.8410378 ], [ 9.68858, 12.83534 ], [ 9.6687662, 12.8176469 ], [ 9.66597, 12.81515 ], [ 9.659793, 12.8106184 ], [ 9.6502392, 12.80361 ], [ 9.6500618, 12.8036165 ], [ 9.59063, 12.80578 ], [ 9.5831708, 12.8073881 ], [ 9.5807247, 12.8079093 ], [ 9.5539487, 12.8072042 ], [ 9.55379, 12.8072 ], [ 9.53123, 12.80956 ], [ 9.51389, 12.80902 ], [ 9.48924, 12.81065 ], [ 9.43513, 12.81934 ], [ 9.39026, 12.82313 ], [ 9.38188, 12.82021 ], [ 9.3720781, 12.8185331 ], [ 9.36528, 12.81737 ], [ 9.35333, 12.81715 ], [ 9.34611, 12.81449 ], [ 9.3056, 12.81121 ], [ 9.2944813, 12.8126865 ], [ 9.2689286, 12.8175215 ], [ 9.2583, 12.81975 ], [ 9.2570682, 12.8204698 ], [ 9.25142, 12.82377 ], [ 9.24342, 12.825 ], [ 9.22982, 12.82451 ], [ 9.22036, 12.82847 ], [ 9.17886, 12.82791 ], [ 9.1784158, 12.8280479 ], [ 9.1689476, 12.8309866 ], [ 9.16002, 12.8337576 ], [ 9.15998, 12.83377 ], [ 9.14708, 12.83398 ], [ 9.13816, 12.83427 ], [ 9.0936089, 12.8363763 ], [ 9.0867728, 12.8356476 ], [ 9.08115, 12.83501 ], [ 9.056367, 12.8377898 ], [ 9.0147523, 12.8387688 ], [ 9.0147, 12.83877 ], [ 8.99754, 12.84073 ], [ 8.98374, 12.83908 ], [ 8.97541, 12.83339 ], [ 8.96979, 12.83305 ], [ 8.8826283, 12.8629794 ], [ 8.88237, 12.86306 ], [ 8.87072, 12.87042 ], [ 8.86063, 12.87044 ], [ 8.8309265, 12.8809172 ], [ 8.83038, 12.88111 ], [ 8.82452, 12.88076 ], [ 8.80959, 12.88782 ], [ 8.78789, 12.89313 ], [ 8.77257, 12.89673 ], [ 8.7659581, 12.8980794 ], [ 8.76032, 12.89923 ], [ 8.72577, 12.91256 ], [ 8.7236927, 12.9129149 ], [ 8.71494, 12.91441 ], [ 8.7036482, 12.9162387 ], [ 8.70364, 12.91624 ], [ 8.69635, 12.91678 ], [ 8.6755329, 12.9262514 ], [ 8.6615908, 12.9325948 ], [ 8.64848, 12.93856 ], [ 8.6465659, 12.9424663 ], [ 8.64, 12.96117 ], [ 8.63167, 12.9771 ], [ 8.62129, 12.99022 ], [ 8.6133702, 12.9984816 ], [ 8.6018276, 13.0105208 ], [ 8.6003823, 13.0110323 ], [ 8.59875, 13.01161 ], [ 8.5987372, 13.0116222 ], [ 8.58556, 13.02421 ], [ 8.56482, 13.03827 ], [ 8.5310893, 13.0566449 ], [ 8.5310778, 13.0566508 ], [ 8.49937, 13.0677 ], [ 8.4904801, 13.0690936 ], [ 8.48642, 13.06973 ], [ 8.46883, 13.06889 ], [ 8.4687748, 13.068874 ], [ 8.42172, 13.05521 ], [ 8.4161913, 13.0548832 ], [ 8.4156294, 13.0548506 ], [ 8.40073, 13.07018 ], [ 8.3880359, 13.0807051 ], [ 8.38803, 13.08071 ], [ 8.3835501, 13.0827119 ], [ 8.3811458, 13.0837929 ], [ 8.3747214, 13.089623 ], [ 8.3583475, 13.1108535 ], [ 8.35626, 13.11453 ], [ 8.3558978, 13.114763 ], [ 8.3291996, 13.1319342 ], [ 8.3206165, 13.1409716 ], [ 8.31608, 13.14608 ], [ 8.3159865, 13.1462436 ], [ 8.311243, 13.1545461 ], [ 8.30751, 13.16108 ], [ 8.2939894, 13.1669904 ], [ 8.2915713, 13.168746 ], [ 8.28753, 13.17168 ], [ 8.25592, 13.20756 ], [ 8.3064804, 13.2895002 ], [ 8.31915, 13.3519001 ], [ 8.34659, 13.3719997 ], [ 8.33181, 13.4906998 ], [ 8.31915, 13.5389996 ], [ 8.3508101, 13.5832005 ], [ 8.2241602, 13.6717997 ], [ 8.2241602, 13.7180004 ], [ 8.3128204, 13.7824001 ], [ 8.4711399, 13.8669004 ], [ 8.51758, 13.8769999 ], [ 8.5429096, 14.0117998 ], [ 8.51336, 14.0700998 ], [ 8.5154696, 14.1566 ], [ 8.4246998, 14.1927996 ], [ 8.3888102, 14.2652998 ], [ 8.3170404, 14.3416996 ], [ 8.2621498, 14.3839998 ], [ 8.1882696, 14.3940001 ], [ 8.15238, 14.4281998 ], [ 8.0721703, 14.4483995 ], [ 8.0109501, 14.4544001 ], [ 7.99195, 14.5148001 ], [ 7.9518399, 14.5167999 ], [ 7.8441801, 14.4242001 ], [ 7.7787499, 14.4202003 ], [ 7.7069702, 14.4685001 ], [ 7.7006402, 14.5307999 ], [ 7.7154198, 14.6374998 ], [ 7.5971999, 14.6977997 ], [ 7.5380998, 14.7098999 ], [ 7.5528698, 14.7722998 ], [ 7.5148802, 14.8164997 ], [ 7.4895501, 15.0116997 ], [ 7.4114399, 15.1444998 ], [ 7.4219999, 15.2873001 ], [ 7.3544402, 15.3195 ], [ 7.5022101, 15.5690002 ], [ 7.5528698, 15.5529003 ], [ 7.6014299, 15.5608997 ], [ 7.7407498, 15.5327997 ], [ 7.9159598, 15.5086002 ], [ 7.9814, 15.5066004 ], [ 8.1566095, 15.5509005 ], [ 8.3085899, 15.5447998 ], [ 8.4753599, 15.5930996 ], [ 8.6885595, 15.7018003 ], [ 8.7666702, 15.7360001 ], [ 9.0263205, 15.8708 ], [ 9.0875301, 15.8868999 ], [ 9.2965202, 15.9533005 ], [ 9.3577299, 15.9895 ], [ 9.4822798, 16.0779991 ], [ 9.6237097, 16.1685009 ], [ 9.6891499, 16.2168007 ], [ 9.8516998, 16.3213997 ], [ 10.2041998, 16.5527992 ], [ 10.5398998, 16.7721004 ], [ 10.8923998, 17.0014992 ], [ 11.0444002, 17.0979996 ], [ 11.1288004, 17.1443005 ], [ 11.4729004, 17.3073006 ], [ 11.5995998, 17.3696003 ], [ 11.9942999, 17.4944 ], [ 11.9963999, 16.9974003 ], [ 11.9963999, 16.5387001 ], [ 11.9984999, 16.2891998 ], [ 11.9984999, 15.7601004 ], [ 11.9984999, 15.3497 ], [ 12.0005999, 15.1405001 ], [ 12.0005999, 14.8285999 ], [ 12.0028, 14.6092997 ], [ 11.9245996, 14.5711002 ], [ 11.9119997, 14.5288 ], [ 11.9309998, 14.4504004 ], [ 11.9984999, 14.4242001 ], [ 11.8781996, 14.3718996 ], [ 11.8064003, 14.3759003 ], [ 11.7642002, 14.3498001 ], [ 11.6671, 14.2733002 ], [ 11.5488997, 14.1887999 ], [ 11.3378, 14.1526003 ], [ 11.2554998, 14.1868 ], [ 11.0824003, 14.0720997 ], [ 10.9979, 13.9756002 ], [ 10.8353996, 13.8346996 ], [ 10.8247995, 13.8004999 ], [ 10.8226995, 13.7139997 ], [ 10.7045002, 13.5993004 ], [ 10.6136999, 13.5188999 ], [ 10.6693104, 13.3569034 ] ] ] ] } }
]
}
