{
"type": "FeatureCollection",
"name": "NFK_GAUL2001_ADM0",
"crs": { "type": "name", "properties": { "name": "urn:ogc:def:crs:OGC:1.3:CRS84" } },
"features": [
{ "type": "Feature", "properties": { "POLYGON_ID": "NFK_GAUL2001_ADM0_184", "ADM0_ISO3": "NFK", "ADM0_NAME": "Norfolk Island", "ADM0_CODE": 184, "GEOSET": "GAUL", "GEOSET_YEAR": 2001.0, "GEOSET_VERSION": "GAUL_v1", "GEOSET_UNIT": "ADM0", "CENTROID_LONG": 167.95216023311758, "CENTROID_LAT": -29.032718227226137 }, "geometry": { "type": "MultiPolygon", "coordinates": [ [ [ [ 167.925796, -28.9955886 ], [ 167.991421699999989, -29.0268397 ], [ 167.982961499999988, -29.0569869 ], [ 167.9417173, -29.06047 ], [ 167.919410199999987, -29.0432519 ], [ 167.925796, -28.9955886 ] ] ] ] } }
]
}
