{
"type": "FeatureCollection",
"name": "NIC_GAUL1995_ADM0",
"crs": { "type": "name", "properties": { "name": "urn:ogc:def:crs:OGC:1.3:CRS84" } },
"features": [
{ "type": "Feature", "properties": { "POLYGON_ID": "NIC_GAUL1995_ADM0_180", "ADM0_ISO3": "NIC", "ADM0_NAME": "Nicaragua", "ADM0_CODE": 180, "GEOSET": "GAUL", "GEOSET_YEAR": 1995.0, "GEOSET_VERSION": "GAUL_v1", "GEOSET_UNIT": "ADM0", "CENTROID_LONG": -85.037760697544911, "CENTROID_LAT": 12.844495901361972 }, "geometry": { "type": "MultiPolygon", "coordinates": [ [ [ [ -82.7687111, 14.4148728 ], [ -82.7437472, 14.4171083 ], [ -82.7343153, 14.3759548 ], [ -82.7765356, 14.3479297 ], [ -82.8123048, 14.3526493 ], [ -82.7851053, 14.4063031 ], [ -82.7687111, 14.4148728 ] ] ], [ [ [ -83.1578064, 14.9920826 ], [ -83.1559847, 14.9953072 ], [ -83.14499, 14.9981309 ], [ -83.1648298, 14.9765006 ], [ -83.2247613, 14.9467213 ], [ -83.262499, 14.9005999 ], [ -83.2982328, 14.8099662 ], [ -83.3032, 14.7827799 ], [ -83.2989284, 14.7142778 ], [ -83.2753, 14.6058899 ], [ -83.23527, 14.4909101 ], [ -83.2160213, 14.4446408 ], [ -83.2170208, 14.4196093 ], [ -83.20004, 14.3490899 ], [ -83.20723, 14.3006099 ], [ -83.2637383, 14.1853485 ], [ -83.3019428, 14.1222013 ], [ -83.3310401, 14.09008 ], [ -83.35423, 14.04917 ], [ -83.40017, 14.0157601 ], [ -83.4389952, 13.9498469 ], [ -83.4603579, 13.8877676 ], [ -83.4555082, 13.8703083 ], [ -83.4799101, 13.82828 ], [ -83.50621, 13.7234701 ], [ -83.5241599, 13.60356 ], [ -83.5243967, 13.5412106 ], [ -83.5524901, 13.47093 ], [ -83.5671554, 13.3745195 ], [ -83.57211, 13.2997801 ], [ -83.56937, 13.23534 ], [ -83.5544349, 13.1118688 ], [ -83.5392646, 13.0257139 ], [ -83.514432, 12.9095628 ], [ -83.5054213, 12.8974245 ], [ -83.5279499, 12.8099401 ], [ -83.5390357, 12.7237779 ], [ -83.5453701, 12.6359699 ], [ -83.5321921, 12.5417829 ], [ -83.51857, 12.5095401 ], [ -83.48585, 12.4583695 ], [ -83.4935801, 12.39029 ], [ -83.5690601, 12.39332 ], [ -83.6187899, 12.3638801 ], [ -83.6419708, 12.3755761 ], [ -83.6037, 12.42608 ], [ -83.63819, 12.4829 ], [ -83.63864, 12.53929 ], [ -83.61217, 12.5649099 ], [ -83.57935, 12.55943 ], [ -83.56367, 12.5912501 ], [ -83.5594451, 12.63841 ], [ -83.57247, 12.6709899 ], [ -83.5588301, 12.7107799 ], [ -83.5654299, 12.7405799 ], [ -83.5439499, 12.7564899 ], [ -83.5463801, 12.7902 ], [ -83.56135, 12.8047299 ], [ -83.6045499, 12.82092 ], [ -83.6538901, 12.79712 ], [ -83.6460001, 12.77055 ], [ -83.65782, 12.7468801 ], [ -83.62025, 12.7403 ], [ -83.6250099, 12.71914 ], [ -83.6003558, 12.6839628 ], [ -83.5973652, 12.6436932 ], [ -83.6221613, 12.6044008 ], [ -83.6571244, 12.5854106 ], [ -83.7013257, 12.5493445 ], [ -83.74676, 12.55338 ], [ -83.7776847, 12.5300441 ], [ -83.7818501, 12.47682 ], [ -83.7365199, 12.47626 ], [ -83.7330548, 12.4316124 ], [ -83.7201505, 12.4006383 ], [ -83.7337499, 12.38695 ], [ -83.7300799, 12.33549 ], [ -83.7036838, 12.3237089 ], [ -83.64841, 12.3530199 ], [ -83.62172, 12.34248 ], [ -83.6442201, 12.31394 ], [ -83.6664799, 12.26223 ], [ -83.6851301, 12.1773401 ], [ -83.68862, 12.0951701 ], [ -83.6854799, 12.01641 ], [ -83.7188383, 12.0480753 ], [ -83.7630137, 12.0354626 ], [ -83.76669, 11.95125 ], [ -83.79906, 11.9213299 ], [ -83.79917, 11.9063901 ], [ -83.8397801, 11.8766399 ], [ -83.8143499, 11.8570699 ], [ -83.81214, 11.83289 ], [ -83.78345, 11.7994401 ], [ -83.7481899, 11.80185 ], [ -83.7477301, 11.8600401 ], [ -83.7025801, 11.8548101 ], [ -83.6980301, 11.8172599 ], [ -83.67821, 11.7680099 ], [ -83.64809, 11.59681 ], [ -83.6770499, 11.6058099 ], [ -83.7113899, 11.56991 ], [ -83.7513099, 11.5618601 ], [ -83.7818, 11.47635 ], [ -83.7992299, 11.44399 ], [ -83.82797, 11.44707 ], [ -83.86611, 11.3983 ], [ -83.87484, 11.3322999 ], [ -83.8664799, 11.25232 ], [ -83.8464174, 11.1708908 ], [ -83.8048999, 11.05929 ], [ -83.7524901, 10.97378 ], [ -83.7254099, 10.94802 ], [ -83.6928501, 10.9388975 ], [ -83.67745, 10.91126 ], [ -83.67399, 10.84724 ], [ -83.66461, 10.8203 ], [ -83.67791, 10.79375 ], [ -83.73856, 10.78275 ], [ -83.76497, 10.76792 ], [ -83.7926904, 10.7683797 ], [ -83.81538, 10.74518 ], [ -83.83195, 10.74647 ], [ -83.86689, 10.71834 ], [ -83.9013203, 10.7206897 ], [ -83.93599, 10.70843 ], [ -83.96831, 10.72919 ], [ -83.97658, 10.74623 ], [ -84.0080907, 10.7640416 ], [ -84.02514, 10.78928 ], [ -84.06426, 10.76514 ], [ -84.1266508, 10.7697324 ], [ -84.13273, 10.78729 ], [ -84.17506, 10.78358 ], [ -84.22879, 10.80186 ], [ -84.21822, 10.83672 ], [ -84.22674, 10.86906 ], [ -84.28428, 10.88856 ], [ -84.30598, 10.912 ], [ -84.32665, 10.91296 ], [ -84.35219, 10.95231 ], [ -84.34481, 10.97335 ], [ -84.36376, 10.99263 ], [ -84.42613, 10.95481 ], [ -84.45442, 10.96429 ], [ -84.48812, 11.00068 ], [ -84.56209, 11.0316 ], [ -84.57217, 11.0499 ], [ -84.6077, 11.03837 ], [ -84.68098, 11.07932 ], [ -84.79453, 11.01051 ], [ -84.91411, 10.94132 ], [ -84.98882, 10.97214 ], [ -85.20685, 11.04974 ], [ -85.35767, 11.12436 ], [ -85.41471, 11.12413 ], [ -85.52058, 11.16254 ], [ -85.55874, 11.2082 ], [ -85.60976, 11.21682 ], [ -85.6948167, 11.080328 ], [ -85.7090295, 11.0803022 ], [ -85.7864945, 11.1146114 ], [ -85.7950637, 11.1445182 ], [ -85.8212478, 11.1882401 ], [ -85.8770642, 11.2437502 ], [ -85.9045399, 11.2870438 ], [ -85.9528199, 11.3305197 ], [ -86.0257198, 11.3757609 ], [ -86.0346544, 11.3941995 ], [ -86.0713399, 11.42138 ], [ -86.1174408, 11.4656199 ], [ -86.1523073, 11.4815115 ], [ -86.1783448, 11.5266165 ], [ -86.2664167, 11.5890597 ], [ -86.3516228, 11.6353291 ], [ -86.3804444, 11.6747505 ], [ -86.505336, 11.7689855 ], [ -86.5484801, 11.8423601 ], [ -86.6170373, 11.9072046 ], [ -86.6176035, 11.9294947 ], [ -86.6383299, 11.9623301 ], [ -86.6835601, 12.0062 ], [ -86.68721, 12.02167 ], [ -86.72643, 12.0807301 ], [ -86.7649599, 12.1915899 ], [ -86.8197673, 12.2332748 ], [ -86.9521135, 12.3113543 ], [ -87.0227941, 12.3588687 ], [ -87.0527501, 12.3852401 ], [ -87.1742549, 12.4577225 ], [ -87.18961, 12.50451 ], [ -87.2443233, 12.5524086 ], [ -87.3332579, 12.6062816 ], [ -87.3634541, 12.6316115 ], [ -87.3961723, 12.6904255 ], [ -87.4491465, 12.740155 ], [ -87.5260899, 12.8009499 ], [ -87.6507612, 12.8760635 ], [ -87.6913288, 12.9118084 ], [ -87.6762565, 12.9641881 ], [ -87.65054, 12.9963999 ], [ -87.61851, 13.0088399 ], [ -87.5873834, 13.0592036 ], [ -87.5503222, 13.0499396 ], [ -87.4868001, 12.9961761 ], [ -87.4716126, 12.9695163 ], [ -87.4712296, 12.9361611 ], [ -87.4219705, 12.917061 ], [ -87.3650844, 12.9102604 ], [ -87.3837955, 12.940042 ], [ -87.3108146, 12.9827227 ], [ -87.12327, 12.99808 ], [ -87.06349, 12.99689 ], [ -87.04861, 12.98491 ], [ -87.024, 13.00458 ], [ -86.98226, 13.01507 ], [ -86.95899, 13.03222 ], [ -86.94808, 13.06414 ], [ -86.91795, 13.09229 ], [ -86.93331, 13.12109 ], [ -86.91772, 13.14976 ], [ -86.92905, 13.18228 ], [ -86.91647, 13.20298 ], [ -86.90791, 13.25635 ], [ -86.86005, 13.29625 ], [ -86.81923, 13.3063 ], [ -86.76177, 13.26863 ], [ -86.74054, 13.27107 ], [ -86.70654, 13.29538 ], [ -86.70254, 13.32477 ], [ -86.71037, 13.36939 ], [ -86.73629, 13.38005 ], [ -86.73997, 13.40271 ], [ -86.72241, 13.42525 ], [ -86.73735, 13.47832 ], [ -86.74573, 13.55072 ], [ -86.76703, 13.57011 ], [ -86.75146, 13.63592 ], [ -86.78503, 13.6567 ], [ -86.7619, 13.72082 ], [ -86.76284, 13.77312 ], [ -86.71534, 13.78705 ], [ -86.65366, 13.77783 ], [ -86.53448, 13.79787 ], [ -86.49907, 13.76922 ], [ -86.45114, 13.7829 ], [ -86.4386506, 13.7622217 ], [ -86.39401, 13.75903 ], [ -86.37623, 13.76982 ], [ -86.35207, 13.75955 ], [ -86.32136, 13.78116 ], [ -86.3012918, 13.8139579 ], [ -86.30276, 13.84156 ], [ -86.25205, 13.88421 ], [ -86.22219, 13.92743 ], [ -86.18591, 13.9551426 ], [ -86.1861, 13.98212 ], [ -86.15527, 13.98784 ], [ -86.13591, 14.00848 ], [ -86.15047, 14.03248 ], [ -86.0924, 14.06393 ], [ -86.0065, 14.07083 ], [ -86.0233, 14.00757 ], [ -86.01545, 13.9898 ], [ -85.94759, 13.93878 ], [ -85.92004, 13.90787 ], [ -85.88791, 13.92213 ], [ -85.84383, 13.90317 ], [ -85.8445, 13.8772 ], [ -85.81116, 13.84017 ], [ -85.74365, 13.83984 ], [ -85.7397, 13.8621 ], [ -85.76426, 13.87931 ], [ -85.75914, 13.95832 ], [ -85.71253, 13.98804 ], [ -85.6825, 13.97837 ], [ -85.6637, 14.01067 ], [ -85.63215, 14.01123 ], [ -85.60788, 14.02536 ], [ -85.57648, 14.06243 ], [ -85.55642, 14.04821 ], [ -85.52302, 14.04636 ], [ -85.5090401, 14.0816192 ], [ -85.4698633, 14.0918305 ], [ -85.40527, 14.12477 ], [ -85.40003, 14.15597 ], [ -85.3776704, 14.179651 ], [ -85.37524, 14.21134 ], [ -85.35744, 14.21386 ], [ -85.3387104, 14.244609 ], [ -85.27844, 14.25745 ], [ -85.1835705, 14.2505596 ], [ -85.15791, 14.29349 ], [ -85.18112, 14.32796 ], [ -85.22549, 14.36678 ], [ -85.20673, 14.38958 ], [ -85.17828, 14.46098 ], [ -85.15068, 14.48927 ], [ -85.13764, 14.51722 ], [ -85.15105, 14.56656 ], [ -85.12968, 14.57966 ], [ -85.09462, 14.54989 ], [ -85.06886, 14.55421 ], [ -85.02518, 14.60198 ], [ -85.0319, 14.66907 ], [ -85.02814, 14.69801 ], [ -84.9615, 14.75129 ], [ -84.92894, 14.75791 ], [ -84.90341, 14.80771 ], [ -84.86005, 14.80704 ], [ -84.81968, 14.82326 ], [ -84.79287, 14.80947 ], [ -84.78235, 14.78372 ], [ -84.75461, 14.7664 ], [ -84.77132, 14.74708 ], [ -84.74679, 14.71154 ], [ -84.71224, 14.68867 ], [ -84.681, 14.68699 ], [ -84.65955, 14.66781 ], [ -84.63744, 14.67232 ], [ -84.58181, 14.65012 ], [ -84.5245124, 14.65383 ], [ -84.49804, 14.62101 ], [ -84.46906, 14.61453 ], [ -84.43308, 14.63188 ], [ -84.38317, 14.67725 ], [ -84.3646, 14.71173 ], [ -84.34309, 14.70166 ], [ -84.35106, 14.67914 ], [ -84.30931, 14.68167 ], [ -84.27884, 14.65507 ], [ -84.2544809, 14.6746286 ], [ -84.26904, 14.71894 ], [ -84.2388, 14.75441 ], [ -84.22873, 14.73124 ], [ -84.18016, 14.70788 ], [ -84.12411, 14.72617 ], [ -84.10213, 14.72116 ], [ -84.1182, 14.77019 ], [ -84.08712, 14.78181 ], [ -84.07757, 14.7524 ], [ -84.0520924, 14.7648886 ], [ -84.04363, 14.7425101 ], [ -84.0034, 14.74931 ], [ -83.98029, 14.73998 ], [ -83.91797, 14.77217 ], [ -83.89894, 14.759 ], [ -83.85147, 14.76683 ], [ -83.83553, 14.78374 ], [ -83.7634, 14.80209 ], [ -83.75701, 14.82345 ], [ -83.6714929, 14.8712187 ], [ -83.63374, 14.87293 ], [ -83.61939, 14.89025 ], [ -83.56364, 14.90999 ], [ -83.56495, 14.92601 ], [ -83.53776, 14.94233 ], [ -83.54533, 14.96744 ], [ -83.4837112, 15.0 ], [ -83.4681, 14.97508 ], [ -83.42773, 14.98726 ], [ -83.40726, 15.02128 ], [ -83.33072, 15.00756 ], [ -83.29101, 14.98288 ], [ -83.23692, 14.98055 ], [ -83.2092125, 14.9930086 ], [ -83.1578064, 14.9920826 ] ] ], [ [ [ -83.7206299, 12.0003599 ], [ -83.72644, 11.9264201 ], [ -83.7207101, 11.8770401 ], [ -83.73876, 11.8781501 ], [ -83.74299, 11.96127 ], [ -83.7206299, 12.0003599 ] ] ] ] } }
]
}
