{
"type": "FeatureCollection",
"name": "NIU_GAUL1997_ADM0",
"crs": { "type": "name", "properties": { "name": "urn:ogc:def:crs:OGC:1.3:CRS84" } },
"features": [
{ "type": "Feature", "properties": { "POLYGON_ID": "NIU_GAUL1997_ADM0_183", "ADM0_ISO3": "NIU", "ADM0_NAME": "Niue", "ADM0_CODE": 183, "GEOSET": "GAUL", "GEOSET_YEAR": 1997.0, "GEOSET_VERSION": "GAUL_v1", "GEOSET_UNIT": "ADM0", "CENTROID_LONG": -169.85887262093635, "CENTROID_LAT": -19.053643651927882 }, "geometry": { "type": "MultiPolygon", "coordinates": [ [ [ [ -169.8320329, -18.9548969 ], [ -169.8046328, -18.9661692 ], [ -169.794504100000012, -19.0206499 ], [ -169.7744454, -19.0576059 ], [ -169.7958667, -19.0962238 ], [ -169.8439515, -19.1468847 ], [ -169.8780041, -19.1553771 ], [ -169.915067599999986, -19.1384351 ], [ -169.9174131, -19.1050644 ], [ -169.9520032, -19.0746067 ], [ -169.9217985, -19.0553857 ], [ -169.922375, -19.0080021 ], [ -169.8780979, -18.9581198 ], [ -169.8320329, -18.9548969 ] ] ] ] } }
]
}
