{
"type": "FeatureCollection",
"name": "NIU_GAUL1992_ADM2",
"crs": { "type": "name", "properties": { "name": "urn:ogc:def:crs:OGC:1.3:CRS84" } },
"features": [
{ "type": "Feature", "properties": { "POLYGON_ID": "NIU_GAUL1992_ADM2_23126", "ADM0_ISO3": "NIU", "ADM0_NAME": "Niue", "ADM0_CODE": 183, "ADM1_NAME": "Administrative unit not available", "ADM1_CODE": 2241, "ADM2_NAME": "Administrative unit not available", "ADM2_CODE": 23126, "GEOSET": "GAUL", "GEOSET_YEAR": 1992.0, "GEOSET_VERSION": "GAUL_v1", "GEOSET_UNIT": "ADM2", "CENTROID_LONG": -169.85527678371176, "CENTROID_LAT": -19.049211184632249 }, "geometry": { "type": "MultiPolygon", "coordinates": [ [ [ [ -169.8320329, -18.9548969 ], [ -169.8046328, -18.9661692 ], [ -169.7744454, -19.0576059 ], [ -169.8439515, -19.1468847 ], [ -169.915067599999986, -19.1384351 ], [ -169.922375, -19.0080021 ], [ -169.8780979, -18.9581198 ], [ -169.8320329, -18.9548969 ] ] ] ] } }
]
}
