{
"type": "FeatureCollection",
"name": "NPL_GAUL1993_ADM1",
"crs": { "type": "name", "properties": { "name": "urn:ogc:def:crs:OGC:1.3:CRS84" } },
"features": [
{ "type": "Feature", "properties": { "POLYGON_ID": "NPL_GAUL1993_ADM1_2152", "ADM0_ISO3": "NPL", "ADM0_NAME": "Nepal", "ADM0_CODE": 175, "ADM1_NAME": "Central", "ADM1_CODE": 2152, "GEOSET": "GAUL", "GEOSET_YEAR": 1993.0, "GEOSET_VERSION": "GAUL_v1", "GEOSET_UNIT": "ADM1", "CENTROID_LONG": 85.460890497007185, "CENTROID_LAT": 27.502243238517057 }, "geometry": { "type": "MultiPolygon", "coordinates": [ [ [ [ 86.51392, 27.9607371 ], [ 86.5571289, 27.9149132 ], [ 86.5708618, 27.8743134 ], [ 86.5558777, 27.8152981 ], [ 86.5820694, 27.7515659 ], [ 86.5782318, 27.709837 ], [ 86.4957275, 27.6760902 ], [ 86.4749069, 27.6327515 ], [ 86.4217987, 27.5659618 ], [ 86.3870392, 27.5480461 ], [ 86.327713, 27.4711952 ], [ 86.2793579, 27.435051 ], [ 86.2410202, 27.3790245 ], [ 86.2556915, 27.2948151 ], [ 86.2298737, 27.2487392 ], [ 86.2814865, 27.2352638 ], [ 86.3920364, 27.1640949 ], [ 86.3685989, 27.0991573 ], [ 86.3833694, 27.0296135 ], [ 86.3481216, 26.936367 ], [ 86.3018875, 26.9240818 ], [ 86.2536774, 26.8805714 ], [ 86.212738, 26.8778381 ], [ 86.1613998, 26.8995552 ], [ 86.14814, 26.8647957 ], [ 86.1590881, 26.8063374 ], [ 86.1481781, 26.7559299 ], [ 86.162468, 26.7185593 ], [ 86.2036667, 26.67169 ], [ 86.1731977, 26.6163673 ], [ 86.1457758, 26.6060381 ], [ 86.0689668, 26.6591953 ], [ 85.9560358, 26.6448294 ], [ 85.9503726, 26.614515 ], [ 85.8953595, 26.59448 ], [ 85.7543526, 26.6396421 ], [ 85.7283689, 26.6748581 ], [ 85.7385054, 26.7948306 ], [ 85.7074773, 26.8349483 ], [ 85.6103001, 26.8571724 ], [ 85.5456739, 26.8374705 ], [ 85.5264955, 26.8159602 ], [ 85.4517223, 26.7840268 ], [ 85.4050946, 26.7929432 ], [ 85.3334728, 26.7431807 ], [ 85.2369619, 26.7644055 ], [ 85.2102167, 26.7606935 ], [ 85.181806, 26.7963378 ], [ 85.1885161, 26.8712433 ], [ 85.1167515, 26.8730992 ], [ 85.0844384, 26.855396 ], [ 85.0310618, 26.8739455 ], [ 84.9640377, 26.9579826 ], [ 84.8992212, 26.968024 ], [ 84.8574855, 26.9871548 ], [ 84.8290747, 27.0220377 ], [ 84.7909081, 26.9972913 ], [ 84.7597848, 27.0021454 ], [ 84.6545174, 27.0424059 ], [ 84.6490923, 27.0751473 ], [ 84.6773127, 27.1011786 ], [ 84.6892576, 27.1583808 ], [ 84.6896859, 27.2302882 ], [ 84.6239652, 27.3377922 ], [ 84.4473479, 27.3665127 ], [ 84.3322772, 27.3764113 ], [ 84.2771689, 27.3968271 ], [ 84.2579904, 27.4467006 ], [ 84.2132089, 27.4484614 ], [ 84.1552453, 27.4840581 ], [ 84.1197437, 27.5188934 ], [ 84.072678, 27.4830587 ], [ 84.0545465, 27.4432741 ], [ 83.9401402, 27.4512615 ], [ 83.948722, 27.4900874 ], [ 83.9295234, 27.517756 ], [ 83.9464634, 27.54486 ], [ 84.0328572, 27.5420367 ], [ 84.1407084, 27.566882 ], [ 84.210727, 27.6374652 ], [ 84.3165657, 27.6784396 ], [ 84.34114, 27.6969426 ], [ 84.3894211, 27.6882693 ], [ 84.4523544, 27.7252388 ], [ 84.4615784, 27.7482071 ], [ 84.4398117, 27.8032665 ], [ 84.5614624, 27.852066 ], [ 84.5929184, 27.8759537 ], [ 84.6336823, 27.8791809 ], [ 84.7146683, 27.7974548 ], [ 84.7683029, 27.8176174 ], [ 84.7529221, 27.9232178 ], [ 84.8170242, 27.9874229 ], [ 84.8574829, 28.0846863 ], [ 84.9262619, 28.0905323 ], [ 84.9718933, 28.1354198 ], [ 84.9887238, 28.2248898 ], [ 85.0229492, 28.2445393 ], [ 85.0454178, 28.3013954 ], [ 85.0812683, 28.3274517 ], [ 85.1241291, 28.3356974 ], [ 85.17752, 28.32752 ], [ 85.20396, 28.34081 ], [ 85.24671, 28.2848 ], [ 85.33035, 28.29893 ], [ 85.39098, 28.29157 ], [ 85.41607, 28.3295 ], [ 85.49404, 28.339 ], [ 85.64822, 28.28747 ], [ 85.68064, 28.3796 ], [ 85.71827, 28.3759 ], [ 85.75143, 28.23147 ], [ 85.78915, 28.19903 ], [ 85.85219, 28.17623 ], [ 85.87384, 28.12005 ], [ 85.89698, 28.10523 ], [ 85.8990199, 28.0573904 ], [ 85.97476, 27.99205 ], [ 85.9459, 27.945 ], [ 85.988, 27.91497 ], [ 86.0417691, 27.8999208 ], [ 86.12349, 27.92954 ], [ 86.08054, 28.0217 ], [ 86.08421, 28.09341 ], [ 86.1265, 28.09021 ], [ 86.17659, 28.14738 ], [ 86.21174, 28.10003 ], [ 86.19204, 28.0769 ], [ 86.20399, 28.01065 ], [ 86.23856, 27.97801 ], [ 86.28508, 27.97972 ], [ 86.30702, 27.95404 ], [ 86.36875, 27.94196 ], [ 86.4129, 27.908 ], [ 86.45355, 27.91532 ], [ 86.47374, 27.94797 ], [ 86.51392, 27.9607371 ] ] ] ] } },
{ "type": "Feature", "properties": { "POLYGON_ID": "NPL_GAUL1993_ADM1_2153", "ADM0_ISO3": "NPL", "ADM0_NAME": "Nepal", "ADM0_CODE": 175, "ADM1_NAME": "Eastern", "ADM1_CODE": 2153, "GEOSET": "GAUL", "GEOSET_YEAR": 1993.0, "GEOSET_VERSION": "GAUL_v1", "GEOSET_UNIT": "ADM1", "CENTROID_LONG": 87.219216549389216, "CENTROID_LAT": 27.163714215684337 }, "geometry": { "type": "MultiPolygon", "coordinates": [ [ [ [ 88.1350784, 27.8819296 ], [ 88.2019311, 27.8419566 ], [ 88.1743769, 27.8194469 ], [ 88.1948879, 27.7931777 ], [ 88.1592436, 27.7402109 ], [ 88.1532473, 27.692003 ], [ 88.1205535, 27.643224 ], [ 88.1216481, 27.6162885 ], [ 88.0791509, 27.5825002 ], [ 88.044506, 27.487988 ], [ 88.0719173, 27.4467757 ], [ 88.0443424, 27.367266 ], [ 88.0668045, 27.3384924 ], [ 88.0350202, 27.2894669 ], [ 88.0169284, 27.2188688 ], [ 88.0107021, 27.1446529 ], [ 87.9923326, 27.1098176 ], [ 88.0221711, 27.0832152 ], [ 88.0400646, 27.0351025 ], [ 88.0815624, 27.0333893 ], [ 88.0915086, 27.0050262 ], [ 88.1327684, 26.9861808 ], [ 88.1213085, 26.9470875 ], [ 88.1725054, 26.8653042 ], [ 88.1890189, 26.7482347 ], [ 88.1681748, 26.70036 ], [ 88.165605, 26.6459179 ], [ 88.1420959, 26.6225516 ], [ 88.1316263, 26.5757714 ], [ 88.1054398, 26.5387655 ], [ 88.1048335, 26.4669349 ], [ 88.0897954, 26.4248184 ], [ 88.0371617, 26.3898403 ], [ 87.99357, 26.3898403 ], [ 87.9366812, 26.4148763 ], [ 87.9005806, 26.4737877 ], [ 87.8581786, 26.461129 ], [ 87.8497077, 26.4350501 ], [ 87.788508, 26.4655548 ], [ 87.7679971, 26.4097326 ], [ 87.7353509, 26.4082574 ], [ 87.6944241, 26.4330513 ], [ 87.6504993, 26.3917915 ], [ 87.6085732, 26.3810839 ], [ 87.4981186, 26.4359543 ], [ 87.4646158, 26.4396186 ], [ 87.388473, 26.4174897 ], [ 87.3579684, 26.3607633 ], [ 87.2702614, 26.3741835 ], [ 87.2487987, 26.4137777 ], [ 87.1563328, 26.4073056 ], [ 87.0967035, 26.4484702 ], [ 87.0730517, 26.5851465 ], [ 87.0174675, 26.5328459 ], [ 86.9490342, 26.5242323 ], [ 86.8952108, 26.4665541 ], [ 86.8356767, 26.4420933 ], [ 86.7691945, 26.4616525 ], [ 86.7341689, 26.4237238 ], [ 86.6952409, 26.4519918 ], [ 86.6440825, 26.4624615 ], [ 86.6223342, 26.484876 ], [ 86.5679397, 26.5007232 ], [ 86.5439072, 26.5382235 ], [ 86.4998396, 26.5435535 ], [ 86.4580086, 26.5693944 ], [ 86.3989028, 26.586241 ], [ 86.3458884, 26.61903 ], [ 86.254422, 26.6176975 ], [ 86.2354339, 26.5914758 ], [ 86.1731977, 26.6163673 ], [ 86.2036667, 26.67169 ], [ 86.162468, 26.7185593 ], [ 86.1481781, 26.7559299 ], [ 86.1590881, 26.8063374 ], [ 86.14814, 26.8647957 ], [ 86.1613998, 26.8995552 ], [ 86.212738, 26.8778381 ], [ 86.2536774, 26.8805714 ], [ 86.3018875, 26.9240818 ], [ 86.3481216, 26.936367 ], [ 86.3833694, 27.0296135 ], [ 86.3685989, 27.0991573 ], [ 86.3920364, 27.1640949 ], [ 86.2814865, 27.2352638 ], [ 86.2298737, 27.2487392 ], [ 86.2556915, 27.2948151 ], [ 86.2410202, 27.3790245 ], [ 86.2793579, 27.435051 ], [ 86.327713, 27.4711952 ], [ 86.3870392, 27.5480461 ], [ 86.4217987, 27.5659618 ], [ 86.4749069, 27.6327515 ], [ 86.4957275, 27.6760902 ], [ 86.5782318, 27.709837 ], [ 86.5820694, 27.7515659 ], [ 86.5558777, 27.8152981 ], [ 86.5708618, 27.8743134 ], [ 86.5571289, 27.9149132 ], [ 86.51392, 27.9607371 ], [ 86.51156, 28.0 ], [ 86.56359, 28.09964 ], [ 86.6096, 28.07374 ], [ 86.64574, 28.07343 ], [ 86.69822, 28.10521 ], [ 86.7461881, 28.0931509 ], [ 86.7472, 28.04698 ], [ 86.82564, 28.01615 ], [ 86.86242, 28.02626 ], [ 86.88366, 28.0 ], [ 86.9246881, 27.9898101 ], [ 86.93364, 27.9593 ], [ 87.03255, 27.94993 ], [ 87.07836, 27.91414 ], [ 87.11561, 27.84391 ], [ 87.17154, 27.82175 ], [ 87.22573, 27.81676 ], [ 87.24733, 27.843 ], [ 87.29507, 27.84428 ], [ 87.36159, 27.82771 ], [ 87.42014, 27.86225 ], [ 87.4571, 27.82452 ], [ 87.58808, 27.85215 ], [ 87.5959, 27.81823 ], [ 87.63649, 27.83461 ], [ 87.66588, 27.81355 ], [ 87.72528, 27.80654 ], [ 87.77784, 27.86892 ], [ 87.77903, 27.89201 ], [ 87.84445, 27.94925 ], [ 87.87624, 27.91237 ], [ 87.91963, 27.91411 ], [ 87.98014, 27.88784 ], [ 88.03482, 27.90517 ], [ 88.1350784, 27.8819296 ] ] ] ] } },
{ "type": "Feature", "properties": { "POLYGON_ID": "NPL_GAUL1993_ADM1_2154", "ADM0_ISO3": "NPL", "ADM0_NAME": "Nepal", "ADM0_CODE": 175, "ADM1_NAME": "Far Western", "ADM1_CODE": 2154, "GEOSET": "GAUL", "GEOSET_YEAR": 1993.0, "GEOSET_VERSION": "GAUL_v1", "GEOSET_UNIT": "ADM1", "CENTROID_LONG": 80.943583923125075, "CENTROID_LAT": 29.324235126817175 }, "geometry": { "type": "MultiPolygon", "coordinates": [ [ [ [ 81.0369199, 30.2027604 ], [ 81.07961, 30.15427 ], [ 81.09364, 30.05591 ], [ 81.12964, 30.01876 ], [ 81.22328, 30.00851 ], [ 81.25383, 30.01498 ], [ 81.2695459, 30.0490184 ], [ 81.296196, 30.0296803 ], [ 81.3774872, 30.008213 ], [ 81.4068756, 30.028656 ], [ 81.4658813, 29.9942112 ], [ 81.4697113, 29.9033775 ], [ 81.5523682, 29.9374046 ], [ 81.5882339, 29.9349937 ], [ 81.6597519, 29.9553909 ], [ 81.7063141, 29.9283829 ], [ 81.7929459, 29.916893 ], [ 81.793808, 29.8471165 ], [ 81.7674408, 29.8309555 ], [ 81.7470245, 29.7336426 ], [ 81.7103424, 29.7117424 ], [ 81.7182922, 29.6343155 ], [ 81.7728729, 29.6152649 ], [ 81.7767944, 29.5304089 ], [ 81.79245, 29.5137463 ], [ 81.8144302, 29.4379883 ], [ 81.7734756, 29.3655109 ], [ 81.6952057, 29.3193092 ], [ 81.6543884, 29.3193398 ], [ 81.6209564, 29.3718662 ], [ 81.5827637, 29.3710136 ], [ 81.4714737, 29.2775669 ], [ 81.4953537, 29.2487335 ], [ 81.4885406, 29.1801643 ], [ 81.5017929, 29.1565933 ], [ 81.5609894, 29.1157017 ], [ 81.477211, 29.0710831 ], [ 81.4404449, 29.0270653 ], [ 81.4407349, 28.9664631 ], [ 81.4843369, 28.9041195 ], [ 81.5402222, 28.8475533 ], [ 81.5857468, 28.7691536 ], [ 81.5388718, 28.769928 ], [ 81.4930496, 28.8225937 ], [ 81.4356995, 28.9094105 ], [ 81.3595657, 28.8938198 ], [ 81.3428345, 28.912241 ], [ 81.2889557, 28.901741 ], [ 81.2058716, 28.9079342 ], [ 81.0917816, 28.967453 ], [ 81.0040817, 28.9545784 ], [ 80.9938431, 28.9340992 ], [ 81.0166321, 28.8933811 ], [ 81.0721817, 28.8691349 ], [ 81.1372757, 28.8547573 ], [ 81.1376801, 28.8272152 ], [ 81.1711502, 28.8074093 ], [ 81.2186966, 28.8504009 ], [ 81.2437286, 28.7532253 ], [ 81.2836609, 28.6926899 ], [ 81.2876816, 28.6647797 ], [ 81.2136078, 28.5917549 ], [ 81.1675797, 28.5221653 ], [ 81.086441, 28.4640369 ], [ 81.0554434, 28.4040293 ], [ 81.0219259, 28.4163459 ], [ 81.0180553, 28.4527676 ], [ 80.9668493, 28.4403944 ], [ 80.9072676, 28.4662274 ], [ 80.8966076, 28.506821 ], [ 80.848257, 28.4970176 ], [ 80.7922445, 28.5247145 ], [ 80.7686402, 28.5668786 ], [ 80.7141506, 28.5688297 ], [ 80.6525701, 28.6327896 ], [ 80.6113578, 28.6390714 ], [ 80.541592, 28.6888973 ], [ 80.5074706, 28.6677201 ], [ 80.5240316, 28.576444 ], [ 80.4724449, 28.5918153 ], [ 80.4556459, 28.6245567 ], [ 80.4165276, 28.6367395 ], [ 80.3797411, 28.6265555 ], [ 80.3266791, 28.6626757 ], [ 80.3189221, 28.6967496 ], [ 80.2791851, 28.7056487 ], [ 80.2563899, 28.7534283 ], [ 80.2174143, 28.7547608 ], [ 80.1192853, 28.8283813 ], [ 80.0669372, 28.837804 ], [ 80.0587518, 28.9149937 ], [ 80.0978702, 28.9729098 ], [ 80.1203323, 28.9743375 ], [ 80.1463304, 29.1037727 ], [ 80.1847349, 29.1364665 ], [ 80.2378921, 29.1181446 ], [ 80.2722515, 29.1481734 ], [ 80.2607825, 29.1889098 ], [ 80.3031845, 29.243685 ], [ 80.3173185, 29.3192567 ], [ 80.2472196, 29.4070112 ], [ 80.2454588, 29.4449874 ], [ 80.3035176, 29.4559329 ], [ 80.3001864, 29.4903875 ], [ 80.3445395, 29.5097087 ], [ 80.3452058, 29.5513969 ], [ 80.3800411, 29.5609147 ], [ 80.4118783, 29.5954645 ], [ 80.4176842, 29.6517625 ], [ 80.3929378, 29.6635647 ], [ 80.3670492, 29.7286191 ], [ 80.4098795, 29.7901044 ], [ 80.4360536, 29.8046667 ], [ 80.4954925, 29.7954344 ], [ 80.5093886, 29.823512 ], [ 80.5543128, 29.8509234 ], [ 80.5744906, 29.9207368 ], [ 80.6020448, 29.9573329 ], [ 80.6732383, 29.9560004 ], [ 80.7562339, 30.0191513 ], [ 80.7735087, 30.0569847 ], [ 80.8795851, 30.1324612 ], [ 80.8701149, 30.1758626 ], [ 80.9042968, 30.2165713 ], [ 80.9592233, 30.1813967 ], [ 81.0369199, 30.2027604 ] ] ] ] } },
{ "type": "Feature", "properties": { "POLYGON_ID": "NPL_GAUL1993_ADM1_2155", "ADM0_ISO3": "NPL", "ADM0_NAME": "Nepal", "ADM0_CODE": 175, "ADM1_NAME": "Mid Western", "ADM1_CODE": 2155, "GEOSET": "GAUL", "GEOSET_YEAR": 1993.0, "GEOSET_VERSION": "GAUL_v1", "GEOSET_UNIT": "ADM1", "CENTROID_LONG": 82.288739697505974, "CENTROID_LAT": 28.971736408664231 }, "geometry": { "type": "MultiPolygon", "coordinates": [ [ [ [ 83.6583931, 29.1799686 ], [ 83.6880341, 29.1435661 ], [ 83.6429672, 29.10606 ], [ 83.6204758, 29.0572376 ], [ 83.620575, 28.9948158 ], [ 83.505661, 28.8695087 ], [ 83.4873123, 28.7867317 ], [ 83.3924637, 28.7537575 ], [ 83.3516464, 28.7304211 ], [ 83.2770081, 28.7094917 ], [ 83.1962357, 28.7205868 ], [ 83.1563644, 28.7444839 ], [ 83.1285553, 28.6532879 ], [ 83.0900192, 28.6225529 ], [ 83.0439835, 28.6087055 ], [ 82.9789581, 28.6129723 ], [ 82.9738312, 28.5435925 ], [ 82.924881, 28.5521603 ], [ 82.8694916, 28.5105896 ], [ 82.8986816, 28.4728699 ], [ 82.8735428, 28.4550991 ], [ 82.9101639, 28.4059944 ], [ 82.9665451, 28.3507023 ], [ 83.0422897, 28.3130589 ], [ 83.0901566, 28.2649593 ], [ 83.0822906, 28.2364063 ], [ 83.0451813, 28.2254143 ], [ 83.0287094, 28.1517658 ], [ 83.0662994, 28.1297169 ], [ 82.9738235, 28.056982 ], [ 82.9629898, 27.9911976 ], [ 83.0083237, 27.966507 ], [ 83.0265656, 27.9221935 ], [ 82.949173, 27.9189453 ], [ 82.8839188, 27.9002037 ], [ 82.8394775, 27.903286 ], [ 82.8001022, 27.8816338 ], [ 82.7728424, 27.8183537 ], [ 82.8549042, 27.785038 ], [ 82.7865524, 27.7427883 ], [ 82.7069855, 27.7531414 ], [ 82.6871155, 27.7133719 ], [ 82.604384, 27.7061332 ], [ 82.5433747, 27.686574 ], [ 82.4719432, 27.6791977 ], [ 82.4322693, 27.6895322 ], [ 82.3691184, 27.7450212 ], [ 82.2979725, 27.7778102 ], [ 82.2076958, 27.8436737 ], [ 82.1564422, 27.8658978 ], [ 82.1217875, 27.8650672 ], [ 82.0707718, 27.9219363 ], [ 81.9706917, 27.9273615 ], [ 81.9014018, 27.8528367 ], [ 81.8241215, 27.902771 ], [ 81.8058472, 27.9044842 ], [ 81.7003895, 27.9882888 ], [ 81.6463758, 27.9930002 ], [ 81.480337, 28.0843715 ], [ 81.4847628, 28.1197303 ], [ 81.4477384, 28.1607522 ], [ 81.3782581, 28.177218 ], [ 81.3373314, 28.1561836 ], [ 81.3245713, 28.1928072 ], [ 81.2336821, 28.2883389 ], [ 81.2348718, 28.3265054 ], [ 81.2027967, 28.3701923 ], [ 81.0554434, 28.4040293 ], [ 81.086441, 28.4640369 ], [ 81.1675797, 28.5221653 ], [ 81.2136078, 28.5917549 ], [ 81.2876816, 28.6647797 ], [ 81.2836609, 28.6926899 ], [ 81.2437286, 28.7532253 ], [ 81.2186966, 28.8504009 ], [ 81.1711502, 28.8074093 ], [ 81.1376801, 28.8272152 ], [ 81.1372757, 28.8547573 ], [ 81.0721817, 28.8691349 ], [ 81.0166321, 28.8933811 ], [ 80.9938431, 28.9340992 ], [ 81.0040817, 28.9545784 ], [ 81.0917816, 28.967453 ], [ 81.2058716, 28.9079342 ], [ 81.2889557, 28.901741 ], [ 81.3428345, 28.912241 ], [ 81.3595657, 28.8938198 ], [ 81.4356995, 28.9094105 ], [ 81.4930496, 28.8225937 ], [ 81.5388718, 28.769928 ], [ 81.5857468, 28.7691536 ], [ 81.5402222, 28.8475533 ], [ 81.4843369, 28.9041195 ], [ 81.4407349, 28.9664631 ], [ 81.4404449, 29.0270653 ], [ 81.477211, 29.0710831 ], [ 81.5609894, 29.1157017 ], [ 81.5017929, 29.1565933 ], [ 81.4885406, 29.1801643 ], [ 81.4953537, 29.2487335 ], [ 81.4714737, 29.2775669 ], [ 81.5827637, 29.3710136 ], [ 81.6209564, 29.3718662 ], [ 81.6543884, 29.3193398 ], [ 81.6952057, 29.3193092 ], [ 81.7734756, 29.3655109 ], [ 81.8144302, 29.4379883 ], [ 81.79245, 29.5137463 ], [ 81.7767944, 29.5304089 ], [ 81.7728729, 29.6152649 ], [ 81.7182922, 29.6343155 ], [ 81.7103424, 29.7117424 ], [ 81.7470245, 29.7336426 ], [ 81.7674408, 29.8309555 ], [ 81.793808, 29.8471165 ], [ 81.7929459, 29.916893 ], [ 81.7063141, 29.9283829 ], [ 81.6597519, 29.9553909 ], [ 81.5882339, 29.9349937 ], [ 81.5523682, 29.9374046 ], [ 81.4697113, 29.9033775 ], [ 81.4658813, 29.9942112 ], [ 81.4068756, 30.028656 ], [ 81.3774872, 30.008213 ], [ 81.296196, 30.0296803 ], [ 81.2695459, 30.0490184 ], [ 81.29069, 30.09788 ], [ 81.27246, 30.15825 ], [ 81.33276, 30.15504 ], [ 81.39103, 30.20217 ], [ 81.39441, 30.24337 ], [ 81.41641, 30.27322 ], [ 81.39732, 30.32229 ], [ 81.40015, 30.36318 ], [ 81.45151, 30.41521 ], [ 81.49235, 30.38431 ], [ 81.55329, 30.37264 ], [ 81.5639898, 30.4319597 ], [ 81.61071, 30.41583 ], [ 81.62772, 30.44968 ], [ 81.7312, 30.40894 ], [ 81.75614, 30.38859 ], [ 81.86962, 30.37599 ], [ 81.9884, 30.32566 ], [ 82.102, 30.34917 ], [ 82.1300087, 30.3070513 ], [ 82.11151, 30.22948 ], [ 82.18617, 30.18848 ], [ 82.20689, 30.15387 ], [ 82.18051, 30.12464 ], [ 82.18414, 30.06874 ], [ 82.24446, 30.07446 ], [ 82.36522, 30.01664 ], [ 82.40969, 30.01478 ], [ 82.42858, 29.99263 ], [ 82.50758, 29.9508 ], [ 82.55881, 29.95843 ], [ 82.60657, 29.88944 ], [ 82.64037, 29.86354 ], [ 82.72859, 29.82873 ], [ 82.69975, 29.76314 ], [ 82.75466, 29.76504 ], [ 82.76752, 29.73275 ], [ 82.81421, 29.72036 ], [ 82.8281965, 29.690613 ], [ 82.88335, 29.69216 ], [ 82.9443, 29.712 ], [ 82.96459, 29.66187 ], [ 83.00882, 29.67055 ], [ 83.08587, 29.60758 ], [ 83.12613, 29.6264 ], [ 83.19688, 29.60746 ], [ 83.26383, 29.57418 ], [ 83.27323, 29.50898 ], [ 83.32268, 29.50586 ], [ 83.38048, 29.42473 ], [ 83.41283, 29.42317 ], [ 83.42026, 29.36384 ], [ 83.44741, 29.33577 ], [ 83.46103, 29.28906 ], [ 83.51598, 29.2554 ], [ 83.52229, 29.22578 ], [ 83.59386, 29.17747 ], [ 83.6583931, 29.1799686 ] ] ] ] } },
{ "type": "Feature", "properties": { "POLYGON_ID": "NPL_GAUL1993_ADM1_2156", "ADM0_ISO3": "NPL", "ADM0_NAME": "Nepal", "ADM0_CODE": 175, "ADM1_NAME": "Western", "ADM1_CODE": 2156, "GEOSET": "GAUL", "GEOSET_YEAR": 1993.0, "GEOSET_VERSION": "GAUL_v1", "GEOSET_UNIT": "ADM1", "CENTROID_LONG": 83.871747477051045, "CENTROID_LAT": 28.244669244047323 }, "geometry": { "type": "MultiPolygon", "coordinates": [ [ [ [ 85.1241291, 28.3356974 ], [ 85.0812683, 28.3274517 ], [ 85.0454178, 28.3013954 ], [ 85.0229492, 28.2445393 ], [ 84.9887238, 28.2248898 ], [ 84.9718933, 28.1354198 ], [ 84.9262619, 28.0905323 ], [ 84.8574829, 28.0846863 ], [ 84.8170242, 27.9874229 ], [ 84.7529221, 27.9232178 ], [ 84.7683029, 27.8176174 ], [ 84.7146683, 27.7974548 ], [ 84.6336823, 27.8791809 ], [ 84.5929184, 27.8759537 ], [ 84.5614624, 27.852066 ], [ 84.4398117, 27.8032665 ], [ 84.4615784, 27.7482071 ], [ 84.4523544, 27.7252388 ], [ 84.3894211, 27.6882693 ], [ 84.34114, 27.6969426 ], [ 84.3165657, 27.6784396 ], [ 84.210727, 27.6374652 ], [ 84.1407084, 27.566882 ], [ 84.0328572, 27.5420367 ], [ 83.9464634, 27.54486 ], [ 83.9295234, 27.517756 ], [ 83.948722, 27.4900874 ], [ 83.9401402, 27.4512615 ], [ 83.8341132, 27.4292829 ], [ 83.8845578, 27.3808847 ], [ 83.8585441, 27.3547676 ], [ 83.8311151, 27.3744601 ], [ 83.6190575, 27.4689723 ], [ 83.3896837, 27.4793585 ], [ 83.3878691, 27.4358086 ], [ 83.4114496, 27.4131264 ], [ 83.3617664, 27.3437889 ], [ 83.2976162, 27.3336048 ], [ 83.2743926, 27.3842397 ], [ 83.2118604, 27.425214 ], [ 83.1888272, 27.4535296 ], [ 83.0322587, 27.4492942 ], [ 82.9582575, 27.4673781 ], [ 82.930275, 27.5013568 ], [ 82.7606284, 27.5012885 ], [ 82.7204066, 27.6889059 ], [ 82.6871155, 27.7133719 ], [ 82.7069855, 27.7531414 ], [ 82.7865524, 27.7427883 ], [ 82.8549042, 27.785038 ], [ 82.7728424, 27.8183537 ], [ 82.8001022, 27.8816338 ], [ 82.8394775, 27.903286 ], [ 82.8839188, 27.9002037 ], [ 82.949173, 27.9189453 ], [ 83.0265656, 27.9221935 ], [ 83.0083237, 27.966507 ], [ 82.9629898, 27.9911976 ], [ 82.9738235, 28.056982 ], [ 83.0662994, 28.1297169 ], [ 83.0287094, 28.1517658 ], [ 83.0451813, 28.2254143 ], [ 83.0822906, 28.2364063 ], [ 83.0901566, 28.2649593 ], [ 83.0422897, 28.3130589 ], [ 82.9665451, 28.3507023 ], [ 82.9101639, 28.4059944 ], [ 82.8735428, 28.4550991 ], [ 82.8986816, 28.4728699 ], [ 82.8694916, 28.5105896 ], [ 82.924881, 28.5521603 ], [ 82.9738312, 28.5435925 ], [ 82.9789581, 28.6129723 ], [ 83.0439835, 28.6087055 ], [ 83.0900192, 28.6225529 ], [ 83.1285553, 28.6532879 ], [ 83.1563644, 28.7444839 ], [ 83.1962357, 28.7205868 ], [ 83.2770081, 28.7094917 ], [ 83.3516464, 28.7304211 ], [ 83.3924637, 28.7537575 ], [ 83.4873123, 28.7867317 ], [ 83.505661, 28.8695087 ], [ 83.620575, 28.9948158 ], [ 83.6204758, 29.0572376 ], [ 83.6429672, 29.10606 ], [ 83.6880341, 29.1435661 ], [ 83.6583931, 29.1799686 ], [ 83.66474, 29.20344 ], [ 83.7249267, 29.2476884 ], [ 83.79789, 29.25258 ], [ 83.82321, 29.30077 ], [ 83.84904, 29.29811 ], [ 83.91503, 29.32784 ], [ 83.94688, 29.31581 ], [ 83.98462, 29.32807 ], [ 84.0, 29.2945 ], [ 84.0493799, 29.2998 ], [ 84.1139778, 29.2893512 ], [ 84.12753, 29.24303 ], [ 84.20046, 29.24321 ], [ 84.1665, 29.19267 ], [ 84.17404, 29.13693 ], [ 84.20492, 29.12173 ], [ 84.19218, 29.048 ], [ 84.24644, 29.03382 ], [ 84.22144, 28.90934 ], [ 84.28474, 28.88121 ], [ 84.40597, 28.85719 ], [ 84.43164, 28.82735 ], [ 84.42036, 28.76873 ], [ 84.44883, 28.74491 ], [ 84.51395, 28.71779 ], [ 84.5995, 28.73727 ], [ 84.64918, 28.71818 ], [ 84.66762, 28.68418 ], [ 84.69765, 28.67533 ], [ 84.69618, 28.63709 ], [ 84.77107, 28.61381 ], [ 84.8552, 28.57152 ], [ 84.91875, 28.59427 ], [ 84.9794, 28.59003 ], [ 85.05444, 28.67788 ], [ 85.12367, 28.67931 ], [ 85.19391, 28.62074 ], [ 85.18755, 28.54836 ], [ 85.15781, 28.4962 ], [ 85.10612, 28.46468 ], [ 85.1268699, 28.3811701 ], [ 85.1241291, 28.3356974 ] ] ] ] } }
]
}
