{
"type": "FeatureCollection",
"name": "NPL_GAUL1996_ADM2",
"crs": { "type": "name", "properties": { "name": "urn:ogc:def:crs:OGC:1.3:CRS84" } },
"features": [
{ "type": "Feature", "properties": { "POLYGON_ID": "NPL_GAUL1996_ADM2_22351", "ADM0_ISO3": "NPL", "ADM0_NAME": "Nepal", "ADM0_CODE": 175, "ADM1_NAME": "Central", "ADM1_CODE": 2152, "ADM2_NAME": "Bagmati", "ADM2_CODE": 22351, "GEOSET": "GAUL", "GEOSET_YEAR": 1996.0, "GEOSET_VERSION": "GAUL_v1", "GEOSET_UNIT": "ADM2", "CENTROID_LONG": 85.419383142723987, "CENTROID_LAT": 27.874833829499241 }, "geometry": { "type": "MultiPolygon", "coordinates": [ [ [ [ 86.0652091, 27.9094709 ], [ 86.0514603, 27.8558884 ], [ 86.0170975, 27.8314495 ], [ 86.042984, 27.7186985 ], [ 85.9645767, 27.7116795 ], [ 85.8831863, 27.5769997 ], [ 85.8262253, 27.5444489 ], [ 85.8327637, 27.4360294 ], [ 85.7202911, 27.3915081 ], [ 85.6950226, 27.327879 ], [ 85.583725, 27.3410931 ], [ 85.4949493, 27.3709526 ], [ 85.3188171, 27.4303646 ], [ 85.2604446, 27.4682922 ], [ 85.2258682, 27.6401596 ], [ 85.0474472, 27.7078285 ], [ 84.8855743, 27.6609154 ], [ 84.8155518, 27.6674442 ], [ 84.7568817, 27.7225952 ], [ 84.7130814, 27.7143593 ], [ 84.6290894, 27.729517 ], [ 84.64814, 27.7997608 ], [ 84.6771317, 27.8285942 ], [ 84.7146683, 27.7974548 ], [ 84.7683029, 27.8176174 ], [ 84.7529221, 27.9232178 ], [ 84.8170242, 27.9874229 ], [ 84.8574829, 28.0846863 ], [ 84.9262619, 28.0905323 ], [ 84.9718933, 28.1354198 ], [ 84.9887238, 28.2248898 ], [ 85.0229492, 28.2445393 ], [ 85.0454178, 28.3013954 ], [ 85.1241291, 28.3356974 ], [ 85.20396, 28.34081 ], [ 85.24671, 28.2848 ], [ 85.33035, 28.29893 ], [ 85.39098, 28.29157 ], [ 85.41607, 28.3295 ], [ 85.49404, 28.339 ], [ 85.64822, 28.28747 ], [ 85.68064, 28.3796 ], [ 85.71827, 28.3759 ], [ 85.75143, 28.23147 ], [ 85.85219, 28.17623 ], [ 85.89698, 28.10523 ], [ 85.8990199, 28.0573904 ], [ 85.97476, 27.99205 ], [ 85.9459, 27.945 ], [ 85.988, 27.91497 ], [ 86.0652091, 27.9094709 ] ] ] ] } },
{ "type": "Feature", "properties": { "POLYGON_ID": "NPL_GAUL1996_ADM2_22352", "ADM0_ISO3": "NPL", "ADM0_NAME": "Nepal", "ADM0_CODE": 175, "ADM1_NAME": "Central", "ADM1_CODE": 2152, "ADM2_NAME": "Janakpur", "ADM2_CODE": 22352, "GEOSET": "GAUL", "GEOSET_YEAR": 1996.0, "GEOSET_VERSION": "GAUL_v1", "GEOSET_UNIT": "ADM2", "CENTROID_LONG": 86.00012507385793, "CENTROID_LAT": 27.269316525758466 }, "geometry": { "type": "MultiPolygon", "coordinates": [ [ [ [ 86.51392, 27.9607371 ], [ 86.5708618, 27.8743134 ], [ 86.5558777, 27.8152981 ], [ 86.5820694, 27.7515659 ], [ 86.5782318, 27.709837 ], [ 86.4957275, 27.6760902 ], [ 86.4217987, 27.5659618 ], [ 86.3870392, 27.5480461 ], [ 86.327713, 27.4711952 ], [ 86.2793579, 27.435051 ], [ 86.2410202, 27.3790245 ], [ 86.2556915, 27.2948151 ], [ 86.2298737, 27.2487392 ], [ 86.2814865, 27.2352638 ], [ 86.3920364, 27.1640949 ], [ 86.3685989, 27.0991573 ], [ 86.3833694, 27.0296135 ], [ 86.3481216, 26.936367 ], [ 86.3018875, 26.9240818 ], [ 86.2536774, 26.8805714 ], [ 86.1613998, 26.8995552 ], [ 86.1481781, 26.7559299 ], [ 86.2036667, 26.67169 ], [ 86.1731977, 26.6163673 ], [ 86.1457758, 26.6060381 ], [ 86.0689668, 26.6591953 ], [ 85.9560358, 26.6448294 ], [ 85.9503726, 26.614515 ], [ 85.8953595, 26.59448 ], [ 85.8037197, 26.6253744 ], [ 85.7543526, 26.6396421 ], [ 85.7283689, 26.6748581 ], [ 85.7385054, 26.7948306 ], [ 85.7074773, 26.8349483 ], [ 85.6103001, 26.8571724 ], [ 85.4517223, 26.7840268 ], [ 85.4050946, 26.7929432 ], [ 85.330034, 26.7440879 ], [ 85.3529892, 26.82584 ], [ 85.4227295, 26.9338512 ], [ 85.4094009, 27.0041981 ], [ 85.42453, 27.0449829 ], [ 85.4930954, 27.1056538 ], [ 85.5108261, 27.2111645 ], [ 85.4477921, 27.2882385 ], [ 85.4506378, 27.3267937 ], [ 85.4949493, 27.3709526 ], [ 85.583725, 27.3410931 ], [ 85.6950226, 27.327879 ], [ 85.7202911, 27.3915081 ], [ 85.8327637, 27.4360294 ], [ 85.8262253, 27.5444489 ], [ 85.8831863, 27.5769997 ], [ 85.9645767, 27.7116795 ], [ 86.042984, 27.7186985 ], [ 86.0170975, 27.8314495 ], [ 86.0514603, 27.8558884 ], [ 86.0652091, 27.9094709 ], [ 86.12349, 27.92954 ], [ 86.08054, 28.0217 ], [ 86.08421, 28.09341 ], [ 86.1265, 28.09021 ], [ 86.17659, 28.14738 ], [ 86.21174, 28.10003 ], [ 86.19204, 28.0769 ], [ 86.20399, 28.01065 ], [ 86.23856, 27.97801 ], [ 86.36875, 27.94196 ], [ 86.4129, 27.908 ], [ 86.45355, 27.91532 ], [ 86.51392, 27.9607371 ] ] ] ] } },
{ "type": "Feature", "properties": { "POLYGON_ID": "NPL_GAUL1996_ADM2_22353", "ADM0_ISO3": "NPL", "ADM0_NAME": "Nepal", "ADM0_CODE": 175, "ADM1_NAME": "Central", "ADM1_CODE": 2152, "ADM2_NAME": "Narayani", "ADM2_CODE": 22353, "GEOSET": "GAUL", "GEOSET_YEAR": 1996.0, "GEOSET_VERSION": "GAUL_v1", "GEOSET_UNIT": "ADM2", "CENTROID_LONG": 84.890152143765661, "CENTROID_LAT": 27.343434098994276 }, "geometry": { "type": "MultiPolygon", "coordinates": [ [ [ [ 84.6771317, 27.8285942 ], [ 84.64814, 27.7997608 ], [ 84.6290894, 27.729517 ], [ 84.7130814, 27.7143593 ], [ 84.7568817, 27.7225952 ], [ 84.8155518, 27.6674442 ], [ 84.8855743, 27.6609154 ], [ 85.0474472, 27.7078285 ], [ 85.2258682, 27.6401596 ], [ 85.2604446, 27.4682922 ], [ 85.3188171, 27.4303646 ], [ 85.4949493, 27.3709526 ], [ 85.4506378, 27.3267937 ], [ 85.4477921, 27.2882385 ], [ 85.5108261, 27.2111645 ], [ 85.4930954, 27.1056538 ], [ 85.42453, 27.0449829 ], [ 85.4094009, 27.0041981 ], [ 85.4227295, 26.9338512 ], [ 85.3529892, 26.82584 ], [ 85.330034, 26.7440879 ], [ 85.2498492, 26.761462 ], [ 85.181806, 26.7963378 ], [ 85.1885161, 26.8712433 ], [ 85.1167515, 26.8730992 ], [ 85.0844384, 26.855396 ], [ 85.0310618, 26.8739455 ], [ 84.9640377, 26.9579826 ], [ 84.8574855, 26.9871548 ], [ 84.8290747, 27.0220377 ], [ 84.7547039, 27.0039493 ], [ 84.6545174, 27.0424059 ], [ 84.6773127, 27.1011786 ], [ 84.6896859, 27.2302882 ], [ 84.6239652, 27.3377922 ], [ 84.4473479, 27.3665127 ], [ 84.3322772, 27.3764113 ], [ 84.2771689, 27.3968271 ], [ 84.2579904, 27.4467006 ], [ 84.2132089, 27.4484614 ], [ 84.1197437, 27.5188934 ], [ 84.0545465, 27.4432741 ], [ 83.9401402, 27.4512615 ], [ 83.9464634, 27.54486 ], [ 84.0328572, 27.5420367 ], [ 84.1407084, 27.566882 ], [ 84.210727, 27.6374652 ], [ 84.34114, 27.6969426 ], [ 84.4207827, 27.6995784 ], [ 84.4582672, 27.7411098 ], [ 84.4398117, 27.8032665 ], [ 84.6336823, 27.8791809 ], [ 84.6771317, 27.8285942 ] ] ] ] } },
{ "type": "Feature", "properties": { "POLYGON_ID": "NPL_GAUL1996_ADM2_22354", "ADM0_ISO3": "NPL", "ADM0_NAME": "Nepal", "ADM0_CODE": 175, "ADM1_NAME": "Eastern", "ADM1_CODE": 2153, "ADM2_NAME": "Koshi", "ADM2_CODE": 22354, "GEOSET": "GAUL", "GEOSET_YEAR": 1996.0, "GEOSET_VERSION": "GAUL_v1", "GEOSET_UNIT": "ADM2", "CENTROID_LONG": 87.299089625463651, "CENTROID_LAT": 27.131465510065954 }, "geometry": { "type": "MultiPolygon", "coordinates": [ [ [ [ 87.6896559, 27.810137 ], [ 87.6756744, 27.7393246 ], [ 87.6105881, 27.6599407 ], [ 87.5627136, 27.6609821 ], [ 87.5443344, 27.5906525 ], [ 87.4968185, 27.565485 ], [ 87.4706726, 27.4117184 ], [ 87.4747086, 27.35009 ], [ 87.5227432, 27.2829323 ], [ 87.5677948, 27.2594566 ], [ 87.6818314, 27.2449913 ], [ 87.76474, 27.2017555 ], [ 87.680748, 27.1150188 ], [ 87.6028671, 27.0781651 ], [ 87.5511093, 27.0204926 ], [ 87.5108337, 26.9496899 ], [ 87.5294342, 26.8794632 ], [ 87.6865921, 26.7937527 ], [ 87.6819839, 26.7203426 ], [ 87.648468, 26.6347122 ], [ 87.6456375, 26.5690632 ], [ 87.6620178, 26.4790821 ], [ 87.6845651, 26.432706 ], [ 87.6400353, 26.3922383 ], [ 87.6085732, 26.3810839 ], [ 87.4981186, 26.4359543 ], [ 87.388473, 26.4174897 ], [ 87.3579684, 26.3607633 ], [ 87.2702614, 26.3741835 ], [ 87.2487987, 26.4137777 ], [ 87.1563328, 26.4073056 ], [ 87.0967035, 26.4484702 ], [ 87.0730517, 26.5851465 ], [ 87.0358169, 26.5568563 ], [ 87.0174675, 26.5328459 ], [ 86.9381797, 26.5185338 ], [ 86.9471359, 26.5957546 ], [ 87.0755768, 26.7524586 ], [ 87.1784515, 26.849329 ], [ 87.1870499, 26.8891335 ], [ 87.1400604, 26.914362 ], [ 87.0624313, 26.8964882 ], [ 87.0095825, 26.8652706 ], [ 86.9741135, 26.9040184 ], [ 86.9846802, 26.9438 ], [ 86.961525, 26.9855423 ], [ 86.9601059, 27.0627365 ], [ 86.9154511, 27.1075897 ], [ 86.9377518, 27.1687603 ], [ 86.9146652, 27.2417164 ], [ 86.9554214, 27.2520485 ], [ 86.9642792, 27.330431 ], [ 86.9310761, 27.3631458 ], [ 86.9208755, 27.4152126 ], [ 86.9557571, 27.4605446 ], [ 86.9712219, 27.581974 ], [ 86.9985352, 27.6310959 ], [ 87.0169449, 27.7189407 ], [ 86.9836197, 27.750742 ], [ 87.0172882, 27.8047981 ], [ 86.9809875, 27.8908348 ], [ 86.9876136, 27.9522032 ], [ 87.03255, 27.94993 ], [ 87.07836, 27.91414 ], [ 87.11561, 27.84391 ], [ 87.22573, 27.81676 ], [ 87.24733, 27.843 ], [ 87.36159, 27.82771 ], [ 87.42014, 27.86225 ], [ 87.4571, 27.82452 ], [ 87.58808, 27.85215 ], [ 87.5959, 27.81823 ], [ 87.6676, 27.83583 ], [ 87.6896559, 27.810137 ] ] ] ] } },
{ "type": "Feature", "properties": { "POLYGON_ID": "NPL_GAUL1996_ADM2_22355", "ADM0_ISO3": "NPL", "ADM0_NAME": "Nepal", "ADM0_CODE": 175, "ADM1_NAME": "Eastern", "ADM1_CODE": 2153, "ADM2_NAME": "Mechi", "ADM2_CODE": 22355, "GEOSET": "GAUL", "GEOSET_YEAR": 1996.0, "GEOSET_VERSION": "GAUL_v1", "GEOSET_UNIT": "ADM2", "CENTROID_LONG": 87.854036554189989, "CENTROID_LAT": 27.16979738833296 }, "geometry": { "type": "MultiPolygon", "coordinates": [ [ [ [ 88.1350784, 27.8819296 ], [ 88.2019311, 27.8419566 ], [ 88.1948879, 27.7931777 ], [ 88.1592436, 27.7402109 ], [ 88.1532473, 27.692003 ], [ 88.1178371, 27.6135188 ], [ 88.0791509, 27.5825002 ], [ 88.044506, 27.487988 ], [ 88.0719173, 27.4467757 ], [ 88.0443424, 27.367266 ], [ 88.0668045, 27.3384924 ], [ 88.0350202, 27.2894669 ], [ 88.0169284, 27.2188688 ], [ 87.9923326, 27.1098176 ], [ 88.0400646, 27.0351025 ], [ 88.1327684, 26.9861808 ], [ 88.1213085, 26.9470875 ], [ 88.1725054, 26.8653042 ], [ 88.1890189, 26.7482347 ], [ 88.165605, 26.6459179 ], [ 88.1054398, 26.5387655 ], [ 88.0897954, 26.4248184 ], [ 88.0371617, 26.3898403 ], [ 87.9366812, 26.4148763 ], [ 87.9005806, 26.4737877 ], [ 87.8497077, 26.4350501 ], [ 87.788508, 26.4655548 ], [ 87.7679971, 26.4097326 ], [ 87.6845651, 26.432706 ], [ 87.6620178, 26.4790821 ], [ 87.6456375, 26.5690632 ], [ 87.648468, 26.6347122 ], [ 87.6819839, 26.7203426 ], [ 87.6865921, 26.7937527 ], [ 87.5294342, 26.8794632 ], [ 87.5108337, 26.9496899 ], [ 87.5511093, 27.0204926 ], [ 87.6028671, 27.0781651 ], [ 87.680748, 27.1150188 ], [ 87.76474, 27.2017555 ], [ 87.6818314, 27.2449913 ], [ 87.5677948, 27.2594566 ], [ 87.5227432, 27.2829323 ], [ 87.4747086, 27.35009 ], [ 87.4706726, 27.4117184 ], [ 87.4968185, 27.565485 ], [ 87.5443344, 27.5906525 ], [ 87.5627136, 27.6609821 ], [ 87.6105881, 27.6599407 ], [ 87.6756744, 27.7393246 ], [ 87.6896559, 27.810137 ], [ 87.72528, 27.80654 ], [ 87.77903, 27.89201 ], [ 87.84445, 27.94925 ], [ 87.87624, 27.91237 ], [ 87.98014, 27.88784 ], [ 88.03482, 27.90517 ], [ 88.1350784, 27.8819296 ] ] ] ] } },
{ "type": "Feature", "properties": { "POLYGON_ID": "NPL_GAUL1996_ADM2_22356", "ADM0_ISO3": "NPL", "ADM0_NAME": "Nepal", "ADM0_CODE": 175, "ADM1_NAME": "Eastern", "ADM1_CODE": 2153, "ADM2_NAME": "Sagarmatha", "ADM2_CODE": 22356, "GEOSET": "GAUL", "GEOSET_YEAR": 1996.0, "GEOSET_VERSION": "GAUL_v1", "GEOSET_UNIT": "ADM2", "CENTROID_LONG": 86.664817915060084, "CENTROID_LAT": 27.1919053995375 }, "geometry": { "type": "MultiPolygon", "coordinates": [ [ [ [ 86.9876136, 27.9522032 ], [ 86.9809875, 27.8908348 ], [ 87.0172882, 27.8047981 ], [ 86.9836197, 27.750742 ], [ 87.0169449, 27.7189407 ], [ 86.9985352, 27.6310959 ], [ 86.9712219, 27.581974 ], [ 86.9557571, 27.4605446 ], [ 86.9208755, 27.4152126 ], [ 86.9310761, 27.3631458 ], [ 86.9642792, 27.330431 ], [ 86.9554214, 27.2520485 ], [ 86.9146652, 27.2417164 ], [ 86.9377518, 27.1687603 ], [ 86.9154511, 27.1075897 ], [ 86.9601059, 27.0627365 ], [ 86.961525, 26.9855423 ], [ 86.9846802, 26.9438 ], [ 86.9741135, 26.9040184 ], [ 87.0095825, 26.8652706 ], [ 87.0624313, 26.8964882 ], [ 87.1400604, 26.914362 ], [ 87.1870499, 26.8891335 ], [ 87.1784515, 26.849329 ], [ 87.0755768, 26.7524586 ], [ 86.9471359, 26.5957546 ], [ 86.9381797, 26.5185338 ], [ 86.8952108, 26.4665541 ], [ 86.8356767, 26.4420933 ], [ 86.7691945, 26.4616525 ], [ 86.7232353, 26.4338988 ], [ 86.5679397, 26.5007232 ], [ 86.5439072, 26.5382235 ], [ 86.4998396, 26.5435535 ], [ 86.3458884, 26.61903 ], [ 86.254422, 26.6176975 ], [ 86.2354339, 26.5914758 ], [ 86.1731977, 26.6163673 ], [ 86.2036667, 26.67169 ], [ 86.1481781, 26.7559299 ], [ 86.1613998, 26.8995552 ], [ 86.2536774, 26.8805714 ], [ 86.3018875, 26.9240818 ], [ 86.3481216, 26.936367 ], [ 86.3833694, 27.0296135 ], [ 86.3685989, 27.0991573 ], [ 86.3920364, 27.1640949 ], [ 86.2814865, 27.2352638 ], [ 86.2298737, 27.2487392 ], [ 86.2556915, 27.2948151 ], [ 86.2410202, 27.3790245 ], [ 86.2793579, 27.435051 ], [ 86.327713, 27.4711952 ], [ 86.3870392, 27.5480461 ], [ 86.4217987, 27.5659618 ], [ 86.4957275, 27.6760902 ], [ 86.5782318, 27.709837 ], [ 86.5820694, 27.7515659 ], [ 86.5558777, 27.8152981 ], [ 86.5708618, 27.8743134 ], [ 86.51392, 27.9607371 ], [ 86.51156, 28.0 ], [ 86.56359, 28.09964 ], [ 86.64574, 28.07343 ], [ 86.69822, 28.10521 ], [ 86.7461881, 28.0931509 ], [ 86.7472, 28.04698 ], [ 86.82564, 28.01615 ], [ 86.86242, 28.02626 ], [ 86.9876136, 27.9522032 ] ] ] ] } },
{ "type": "Feature", "properties": { "POLYGON_ID": "NPL_GAUL1996_ADM2_22357", "ADM0_ISO3": "NPL", "ADM0_NAME": "Nepal", "ADM0_CODE": 175, "ADM1_NAME": "Far Western", "ADM1_CODE": 2154, "ADM2_NAME": "Mahakali", "ADM2_CODE": 22357, "GEOSET": "GAUL", "GEOSET_YEAR": 1996.0, "GEOSET_VERSION": "GAUL_v1", "GEOSET_UNIT": "ADM2", "CENTROID_LONG": 80.564482719067129, "CENTROID_LAT": 29.417348831047647 }, "geometry": { "type": "MultiPolygon", "coordinates": [ [ [ [ 81.0369199, 30.2027604 ], [ 81.07961, 30.15427 ], [ 81.0959342, 30.06065 ], [ 81.0232697, 30.0149632 ], [ 80.9976578, 29.9490719 ], [ 81.0413666, 29.8882236 ], [ 81.0756912, 29.7926807 ], [ 81.0528183, 29.7548866 ], [ 80.9043274, 29.733469 ], [ 80.7743759, 29.6816463 ], [ 80.7821426, 29.5996571 ], [ 80.7543716, 29.5423851 ], [ 80.839653, 29.4905872 ], [ 80.8808517, 29.4384594 ], [ 80.8295364, 29.3800926 ], [ 80.7498322, 29.354887 ], [ 80.7585068, 29.3046188 ], [ 80.69664, 29.210537 ], [ 80.5751801, 29.1610489 ], [ 80.5129852, 29.0021133 ], [ 80.5029831, 28.8456631 ], [ 80.532959, 28.78549 ], [ 80.5440468, 28.6892709 ], [ 80.5074706, 28.6677201 ], [ 80.5240316, 28.576444 ], [ 80.4724449, 28.5918153 ], [ 80.4556459, 28.6245567 ], [ 80.3797411, 28.6265555 ], [ 80.3231024, 28.6893939 ], [ 80.2574844, 28.7248272 ], [ 80.1192853, 28.8283813 ], [ 80.0664026, 28.8428454 ], [ 80.0587518, 28.9149937 ], [ 80.0978702, 28.9729098 ], [ 80.1567258, 29.1118997 ], [ 80.1847349, 29.1364665 ], [ 80.2378921, 29.1181446 ], [ 80.2722515, 29.1481734 ], [ 80.2607825, 29.1889098 ], [ 80.3031845, 29.243685 ], [ 80.3173185, 29.3192567 ], [ 80.2472196, 29.4070112 ], [ 80.2454588, 29.4449874 ], [ 80.3035176, 29.4559329 ], [ 80.3445395, 29.5097087 ], [ 80.3452058, 29.5513969 ], [ 80.4118783, 29.5954645 ], [ 80.3670492, 29.7286191 ], [ 80.4360536, 29.8046667 ], [ 80.4954925, 29.7954344 ], [ 80.5543128, 29.8509234 ], [ 80.6020448, 29.9573329 ], [ 80.6732383, 29.9560004 ], [ 80.7562339, 30.0191513 ], [ 80.7735087, 30.0569847 ], [ 80.8795851, 30.1324612 ], [ 80.8701149, 30.1758626 ], [ 80.9042968, 30.2165713 ], [ 80.9592233, 30.1813967 ], [ 81.0369199, 30.2027604 ] ] ] ] } },
{ "type": "Feature", "properties": { "POLYGON_ID": "NPL_GAUL1996_ADM2_22358", "ADM0_ISO3": "NPL", "ADM0_NAME": "Nepal", "ADM0_CODE": 175, "ADM1_NAME": "Far Western", "ADM1_CODE": 2154, "ADM2_NAME": "Seti", "ADM2_CODE": 22358, "GEOSET": "GAUL", "GEOSET_YEAR": 1996.0, "GEOSET_VERSION": "GAUL_v1", "GEOSET_UNIT": "ADM2", "CENTROID_LONG": 81.142463161575733, "CENTROID_LAT": 29.274836191075821 }, "geometry": { "type": "MultiPolygon", "coordinates": [ [ [ [ 81.2695459, 30.0490184 ], [ 81.3774872, 30.008213 ], [ 81.4068756, 30.028656 ], [ 81.4658813, 29.9942112 ], [ 81.4697113, 29.9033775 ], [ 81.5523682, 29.9374046 ], [ 81.6597519, 29.9553909 ], [ 81.7063141, 29.9283829 ], [ 81.7929459, 29.916893 ], [ 81.793808, 29.8471165 ], [ 81.7674408, 29.8309555 ], [ 81.7470245, 29.7336426 ], [ 81.7103424, 29.7117424 ], [ 81.7182922, 29.6343155 ], [ 81.7728729, 29.6152649 ], [ 81.7767944, 29.5304089 ], [ 81.8144302, 29.4379883 ], [ 81.7734756, 29.3655109 ], [ 81.6952057, 29.3193092 ], [ 81.6543884, 29.3193398 ], [ 81.6209564, 29.3718662 ], [ 81.5827637, 29.3710136 ], [ 81.4714737, 29.2775669 ], [ 81.4953537, 29.2487335 ], [ 81.4885406, 29.1801643 ], [ 81.5592804, 29.1249218 ], [ 81.477211, 29.0710831 ], [ 81.4404449, 29.0270653 ], [ 81.4407349, 28.9664631 ], [ 81.5402222, 28.8475533 ], [ 81.5857468, 28.7691536 ], [ 81.5388718, 28.769928 ], [ 81.4356995, 28.9094105 ], [ 81.3595657, 28.8938198 ], [ 81.2058716, 28.9079342 ], [ 81.0917816, 28.967453 ], [ 81.0040817, 28.9545784 ], [ 81.0166321, 28.8933811 ], [ 81.1372757, 28.8547573 ], [ 81.1711502, 28.8074093 ], [ 81.2186966, 28.8504009 ], [ 81.2437286, 28.7532253 ], [ 81.2876816, 28.6647797 ], [ 81.2136078, 28.5917549 ], [ 81.1675797, 28.5221653 ], [ 81.086441, 28.4640369 ], [ 81.0554434, 28.4040293 ], [ 81.0477028, 28.4110473 ], [ 81.0180553, 28.4527676 ], [ 80.9668493, 28.4403944 ], [ 80.7922445, 28.5247145 ], [ 80.7686402, 28.5668786 ], [ 80.7141506, 28.5688297 ], [ 80.6525701, 28.6327896 ], [ 80.6113578, 28.6390714 ], [ 80.5440468, 28.6892709 ], [ 80.532959, 28.78549 ], [ 80.5029831, 28.8456631 ], [ 80.5129852, 29.0021133 ], [ 80.5751801, 29.1610489 ], [ 80.69664, 29.210537 ], [ 80.7585068, 29.3046188 ], [ 80.7498322, 29.354887 ], [ 80.8295364, 29.3800926 ], [ 80.8808517, 29.4384594 ], [ 80.839653, 29.4905872 ], [ 80.7543716, 29.5423851 ], [ 80.7821426, 29.5996571 ], [ 80.7743759, 29.6816463 ], [ 80.9043274, 29.733469 ], [ 81.0528183, 29.7548866 ], [ 81.0756912, 29.7926807 ], [ 81.0413666, 29.8882236 ], [ 80.9976578, 29.9490719 ], [ 81.0232697, 30.0149632 ], [ 81.0959342, 30.06065 ], [ 81.12964, 30.01876 ], [ 81.22328, 30.00851 ], [ 81.2695459, 30.0490184 ] ] ] ] } },
{ "type": "Feature", "properties": { "POLYGON_ID": "NPL_GAUL1996_ADM2_22359", "ADM0_ISO3": "NPL", "ADM0_NAME": "Nepal", "ADM0_CODE": 175, "ADM1_NAME": "Mid Western", "ADM1_CODE": 2155, "ADM2_NAME": "Karnali", "ADM2_CODE": 22359, "GEOSET": "GAUL", "GEOSET_YEAR": 1996.0, "GEOSET_VERSION": "GAUL_v1", "GEOSET_UNIT": "ADM2", "CENTROID_LONG": 82.426854629105605, "CENTROID_LAT": 29.491268197224102 }, "geometry": { "type": "MultiPolygon", "coordinates": [ [ [ [ 82.055725, 30.334162 ], [ 82.102, 30.34917 ], [ 82.1300087, 30.3070513 ], [ 82.11151, 30.22948 ], [ 82.18617, 30.18848 ], [ 82.18414, 30.06874 ], [ 82.24446, 30.07446 ], [ 82.50758, 29.9508 ], [ 82.55881, 29.95843 ], [ 82.64037, 29.86354 ], [ 82.72859, 29.82873 ], [ 82.69975, 29.76314 ], [ 82.75466, 29.76504 ], [ 82.76752, 29.73275 ], [ 82.8281965, 29.690613 ], [ 82.9443, 29.712 ], [ 82.96459, 29.66187 ], [ 83.00882, 29.67055 ], [ 83.08587, 29.60758 ], [ 83.12613, 29.6264 ], [ 83.26383, 29.57418 ], [ 83.27323, 29.50898 ], [ 83.32268, 29.50586 ], [ 83.38048, 29.42473 ], [ 83.41283, 29.42317 ], [ 83.42026, 29.36384 ], [ 83.46103, 29.28906 ], [ 83.51598, 29.2554 ], [ 83.52229, 29.22578 ], [ 83.59386, 29.17747 ], [ 83.6583931, 29.1799686 ], [ 83.6880341, 29.1435661 ], [ 83.6429672, 29.10606 ], [ 83.6204758, 29.0572376 ], [ 83.620575, 28.9948158 ], [ 83.505661, 28.8695087 ], [ 83.4873123, 28.7867317 ], [ 83.3516464, 28.7304211 ], [ 83.2770081, 28.7094917 ], [ 83.1472015, 28.7362003 ], [ 82.9517746, 28.815527 ], [ 82.7986755, 28.8167458 ], [ 82.7037277, 28.8549023 ], [ 82.7071533, 28.894886 ], [ 82.6426773, 28.9692364 ], [ 82.5713654, 28.993166 ], [ 82.4962997, 29.0129108 ], [ 82.407196, 29.0082607 ], [ 82.4059067, 29.1165791 ], [ 82.2903366, 29.1242733 ], [ 82.1638947, 29.0609741 ], [ 82.1186981, 28.987606 ], [ 82.0594864, 28.9773159 ], [ 81.9830551, 29.0088978 ], [ 81.8558578, 28.9664116 ], [ 81.8058014, 29.0048618 ], [ 81.7152557, 29.014883 ], [ 81.6651459, 29.0528202 ], [ 81.604538, 29.0367908 ], [ 81.5658035, 29.0584202 ], [ 81.5592804, 29.1249218 ], [ 81.4885406, 29.1801643 ], [ 81.4953537, 29.2487335 ], [ 81.4714737, 29.2775669 ], [ 81.5827637, 29.3710136 ], [ 81.6209564, 29.3718662 ], [ 81.6543884, 29.3193398 ], [ 81.6952057, 29.3193092 ], [ 81.7734756, 29.3655109 ], [ 81.8144302, 29.4379883 ], [ 81.7767944, 29.5304089 ], [ 81.7728729, 29.6152649 ], [ 81.7182922, 29.6343155 ], [ 81.7103424, 29.7117424 ], [ 81.7470245, 29.7336426 ], [ 81.7674408, 29.8309555 ], [ 81.793808, 29.8471165 ], [ 81.7929459, 29.916893 ], [ 81.7063141, 29.9283829 ], [ 81.6597519, 29.9553909 ], [ 81.5523682, 29.9374046 ], [ 81.4697113, 29.9033775 ], [ 81.4658813, 29.9942112 ], [ 81.4068756, 30.028656 ], [ 81.3774872, 30.008213 ], [ 81.2695459, 30.0490184 ], [ 81.29069, 30.09788 ], [ 81.27246, 30.15825 ], [ 81.33276, 30.15504 ], [ 81.39103, 30.20217 ], [ 81.41641, 30.27322 ], [ 81.40015, 30.36318 ], [ 81.45151, 30.41521 ], [ 81.49235, 30.38431 ], [ 81.55329, 30.37264 ], [ 81.5639898, 30.4319597 ], [ 81.62772, 30.44968 ], [ 81.75614, 30.38859 ], [ 81.86962, 30.37599 ], [ 81.9884, 30.32566 ], [ 82.055725, 30.334162 ] ] ] ] } },
{ "type": "Feature", "properties": { "POLYGON_ID": "NPL_GAUL1996_ADM2_22360", "ADM0_ISO3": "NPL", "ADM0_NAME": "Nepal", "ADM0_CODE": 175, "ADM1_NAME": "Mid Western", "ADM1_CODE": 2155, "ADM2_NAME": "Rapti", "ADM2_CODE": 22360, "GEOSET": "GAUL", "GEOSET_YEAR": 1996.0, "GEOSET_VERSION": "GAUL_v1", "GEOSET_UNIT": "ADM2", "CENTROID_LONG": 82.525334734290041, "CENTROID_LAT": 28.313941027967875 }, "geometry": { "type": "MultiPolygon", "coordinates": [ [ [ [ 83.1472015, 28.7362003 ], [ 83.1285553, 28.6532879 ], [ 83.0439835, 28.6087055 ], [ 82.9789581, 28.6129723 ], [ 82.9738312, 28.5435925 ], [ 82.924881, 28.5521603 ], [ 82.8694916, 28.5105896 ], [ 82.8735428, 28.4550991 ], [ 82.9665451, 28.3507023 ], [ 83.0422897, 28.3130589 ], [ 83.0907593, 28.2473755 ], [ 83.0451813, 28.2254143 ], [ 83.0287094, 28.1517658 ], [ 83.0662994, 28.1297169 ], [ 82.9738235, 28.056982 ], [ 82.9629898, 27.9911976 ], [ 83.0083237, 27.966507 ], [ 83.0265656, 27.9221935 ], [ 82.949173, 27.9189453 ], [ 82.8001022, 27.8816338 ], [ 82.7728424, 27.8183537 ], [ 82.8549042, 27.785038 ], [ 82.7865524, 27.7427883 ], [ 82.7069855, 27.7531414 ], [ 82.6871155, 27.7133719 ], [ 82.604384, 27.7061332 ], [ 82.4719432, 27.6791977 ], [ 82.4322693, 27.6895322 ], [ 82.3691184, 27.7450212 ], [ 82.2979725, 27.7778102 ], [ 82.1979301, 27.8473017 ], [ 82.1217875, 27.8650672 ], [ 82.0657263, 27.9222211 ], [ 82.1506805, 27.9529037 ], [ 82.1973572, 27.9445763 ], [ 82.1898651, 28.0224953 ], [ 82.1452103, 28.0749359 ], [ 82.0640183, 28.0963669 ], [ 82.0152588, 28.1643009 ], [ 81.9330368, 28.2017021 ], [ 81.9267807, 28.2236137 ], [ 81.8411026, 28.2714539 ], [ 81.8002701, 28.267849 ], [ 81.7497177, 28.3163643 ], [ 81.7912445, 28.3907089 ], [ 81.9380112, 28.3308201 ], [ 81.9915237, 28.3874321 ], [ 81.9770966, 28.4454575 ], [ 82.032608, 28.5085201 ], [ 82.0082855, 28.5879345 ], [ 82.0423737, 28.638176 ], [ 82.1859436, 28.6119289 ], [ 82.2107697, 28.684454 ], [ 82.2901077, 28.717989 ], [ 82.2840271, 28.7569046 ], [ 82.3495712, 28.7819004 ], [ 82.3819427, 28.8255959 ], [ 82.5156631, 28.9076309 ], [ 82.5196762, 28.9664555 ], [ 82.5713654, 28.993166 ], [ 82.6426773, 28.9692364 ], [ 82.7071533, 28.894886 ], [ 82.7037277, 28.8549023 ], [ 82.7986755, 28.8167458 ], [ 82.9517746, 28.815527 ], [ 83.1472015, 28.7362003 ] ] ] ] } },
{ "type": "Feature", "properties": { "POLYGON_ID": "NPL_GAUL1996_ADM2_22361", "ADM0_ISO3": "NPL", "ADM0_NAME": "Nepal", "ADM0_CODE": 175, "ADM1_NAME": "Mid Western", "ADM1_CODE": 2155, "ADM2_NAME": "Bheri", "ADM2_CODE": 22361, "GEOSET": "GAUL", "GEOSET_YEAR": 1996.0, "GEOSET_VERSION": "GAUL_v1", "GEOSET_UNIT": "ADM2", "CENTROID_LONG": 81.740798557140423, "CENTROID_LAT": 28.568510385501423 }, "geometry": { "type": "MultiPolygon", "coordinates": [ [ [ [ 82.5713654, 28.993166 ], [ 82.5196762, 28.9664555 ], [ 82.5156631, 28.9076309 ], [ 82.3819427, 28.8255959 ], [ 82.3495712, 28.7819004 ], [ 82.2840271, 28.7569046 ], [ 82.2901077, 28.717989 ], [ 82.2107697, 28.684454 ], [ 82.1859436, 28.6119289 ], [ 82.0423737, 28.638176 ], [ 82.0082855, 28.5879345 ], [ 82.032608, 28.5085201 ], [ 81.9770966, 28.4454575 ], [ 81.9915237, 28.3874321 ], [ 81.9380112, 28.3308201 ], [ 81.7912445, 28.3907089 ], [ 81.7497177, 28.3163643 ], [ 81.8002701, 28.267849 ], [ 81.8411026, 28.2714539 ], [ 81.9267807, 28.2236137 ], [ 81.9330368, 28.2017021 ], [ 82.0152588, 28.1643009 ], [ 82.0640183, 28.0963669 ], [ 82.1452103, 28.0749359 ], [ 82.1898651, 28.0224953 ], [ 82.1973572, 27.9445763 ], [ 82.1506805, 27.9529037 ], [ 82.0657263, 27.9222211 ], [ 81.9706917, 27.9273615 ], [ 81.9014018, 27.8528367 ], [ 81.8058472, 27.9044842 ], [ 81.7003895, 27.9882888 ], [ 81.6498697, 27.9926954 ], [ 81.480337, 28.0843715 ], [ 81.4847628, 28.1197303 ], [ 81.4477384, 28.1607522 ], [ 81.3245713, 28.1928072 ], [ 81.2336821, 28.2883389 ], [ 81.2027967, 28.3701923 ], [ 81.0554434, 28.4040293 ], [ 81.086441, 28.4640369 ], [ 81.1675797, 28.5221653 ], [ 81.2136078, 28.5917549 ], [ 81.2876816, 28.6647797 ], [ 81.2437286, 28.7532253 ], [ 81.2186966, 28.8504009 ], [ 81.1711502, 28.8074093 ], [ 81.1372757, 28.8547573 ], [ 81.0166321, 28.8933811 ], [ 81.0040817, 28.9545784 ], [ 81.0917816, 28.967453 ], [ 81.2058716, 28.9079342 ], [ 81.3595657, 28.8938198 ], [ 81.4356995, 28.9094105 ], [ 81.5388718, 28.769928 ], [ 81.5857468, 28.7691536 ], [ 81.5402222, 28.8475533 ], [ 81.4407349, 28.9664631 ], [ 81.4404449, 29.0270653 ], [ 81.477211, 29.0710831 ], [ 81.5592804, 29.1249218 ], [ 81.5658035, 29.0584202 ], [ 81.604538, 29.0367908 ], [ 81.6651459, 29.0528202 ], [ 81.7152557, 29.014883 ], [ 81.8058014, 29.0048618 ], [ 81.8558578, 28.9664116 ], [ 81.9830551, 29.0088978 ], [ 82.0594864, 28.9773159 ], [ 82.1186981, 28.987606 ], [ 82.1638947, 29.0609741 ], [ 82.2903366, 29.1242733 ], [ 82.4059067, 29.1165791 ], [ 82.407196, 29.0082607 ], [ 82.4962997, 29.0129108 ], [ 82.5713654, 28.993166 ] ] ] ] } },
{ "type": "Feature", "properties": { "POLYGON_ID": "NPL_GAUL1996_ADM2_22362", "ADM0_ISO3": "NPL", "ADM0_NAME": "Nepal", "ADM0_CODE": 175, "ADM1_NAME": "Western", "ADM1_CODE": 2156, "ADM2_NAME": "Dhawalagiri", "ADM2_CODE": 22362, "GEOSET": "GAUL", "GEOSET_YEAR": 1996.0, "GEOSET_VERSION": "GAUL_v1", "GEOSET_UNIT": "ADM2", "CENTROID_LONG": 83.603762055320075, "CENTROID_LAT": 28.667422558064715 }, "geometry": { "type": "MultiPolygon", "coordinates": [ [ [ [ 84.2238783, 28.9030343 ], [ 84.1139984, 28.8792324 ], [ 84.0316162, 28.8054447 ], [ 83.9450989, 28.8215466 ], [ 83.9262466, 28.7622375 ], [ 83.8252258, 28.7061214 ], [ 83.8741913, 28.626543 ], [ 83.8147659, 28.5844212 ], [ 83.8303528, 28.5184193 ], [ 83.7417145, 28.4434929 ], [ 83.7239456, 28.3993092 ], [ 83.7670059, 28.3367081 ], [ 83.7820129, 28.277132 ], [ 83.8241577, 28.2530651 ], [ 83.8022079, 28.2148304 ], [ 83.7607193, 28.2232857 ], [ 83.7510147, 28.14748 ], [ 83.721756, 28.1224937 ], [ 83.7203293, 28.0499516 ], [ 83.6809235, 28.0074425 ], [ 83.6055832, 28.0133801 ], [ 83.5654526, 28.0818481 ], [ 83.5140076, 28.1057568 ], [ 83.4337616, 28.1133213 ], [ 83.3996201, 28.1575375 ], [ 83.2836685, 28.2004852 ], [ 83.3056641, 28.2617607 ], [ 83.2438965, 28.2716923 ], [ 83.0907593, 28.2473755 ], [ 83.0422897, 28.3130589 ], [ 82.9665451, 28.3507023 ], [ 82.8735428, 28.4550991 ], [ 82.8694916, 28.5105896 ], [ 82.924881, 28.5521603 ], [ 82.9738312, 28.5435925 ], [ 82.9789581, 28.6129723 ], [ 83.0439835, 28.6087055 ], [ 83.1285553, 28.6532879 ], [ 83.1472015, 28.7362003 ], [ 83.2770081, 28.7094917 ], [ 83.3516464, 28.7304211 ], [ 83.4873123, 28.7867317 ], [ 83.505661, 28.8695087 ], [ 83.620575, 28.9948158 ], [ 83.6204758, 29.0572376 ], [ 83.6429672, 29.10606 ], [ 83.6880341, 29.1435661 ], [ 83.6583931, 29.1799686 ], [ 83.7249267, 29.2476884 ], [ 83.79789, 29.25258 ], [ 83.82321, 29.30077 ], [ 83.91503, 29.32784 ], [ 83.98462, 29.32807 ], [ 84.0, 29.2945 ], [ 84.1139778, 29.2893512 ], [ 84.12753, 29.24303 ], [ 84.20046, 29.24321 ], [ 84.1665, 29.19267 ], [ 84.17404, 29.13693 ], [ 84.20492, 29.12173 ], [ 84.19218, 29.048 ], [ 84.24644, 29.03382 ], [ 84.2238783, 28.9030343 ] ] ] ] } },
{ "type": "Feature", "properties": { "POLYGON_ID": "NPL_GAUL1996_ADM2_22363", "ADM0_ISO3": "NPL", "ADM0_NAME": "Nepal", "ADM0_CODE": 175, "ADM1_NAME": "Western", "ADM1_CODE": 2156, "ADM2_NAME": "Gandaki", "ADM2_CODE": 22363, "GEOSET": "GAUL", "GEOSET_YEAR": 1996.0, "GEOSET_VERSION": "GAUL_v1", "GEOSET_UNIT": "ADM2", "CENTROID_LONG": 84.356334338119311, "CENTROID_LAT": 28.310911353718339 }, "geometry": { "type": "MultiPolygon", "coordinates": [ [ [ [ 85.1241291, 28.3356974 ], [ 85.0454178, 28.3013954 ], [ 85.0229492, 28.2445393 ], [ 84.9887238, 28.2248898 ], [ 84.9718933, 28.1354198 ], [ 84.9262619, 28.0905323 ], [ 84.8574829, 28.0846863 ], [ 84.8170242, 27.9874229 ], [ 84.7529221, 27.9232178 ], [ 84.7683029, 27.8176174 ], [ 84.7146683, 27.7974548 ], [ 84.6771317, 27.8285942 ], [ 84.6336823, 27.8791809 ], [ 84.4398117, 27.8032665 ], [ 84.4582672, 27.7411098 ], [ 84.3239059, 27.7676811 ], [ 84.2829132, 27.8405705 ], [ 84.0997162, 27.8550949 ], [ 84.0419693, 27.848877 ], [ 83.9174957, 27.8689175 ], [ 83.8096619, 27.8678284 ], [ 83.7795563, 27.890131 ], [ 83.6880493, 27.9069538 ], [ 83.6354828, 27.8978443 ], [ 83.5727539, 27.9249039 ], [ 83.463913, 27.916647 ], [ 83.4876938, 27.9600067 ], [ 83.5702133, 27.9712524 ], [ 83.6055832, 28.0133801 ], [ 83.6809235, 28.0074425 ], [ 83.7203293, 28.0499516 ], [ 83.721756, 28.1224937 ], [ 83.7510147, 28.14748 ], [ 83.7607193, 28.2232857 ], [ 83.8022079, 28.2148304 ], [ 83.8241577, 28.2530651 ], [ 83.7820129, 28.277132 ], [ 83.7670059, 28.3367081 ], [ 83.7239456, 28.3993092 ], [ 83.7417145, 28.4434929 ], [ 83.8303528, 28.5184193 ], [ 83.8147659, 28.5844212 ], [ 83.8741913, 28.626543 ], [ 83.8252258, 28.7061214 ], [ 83.9262466, 28.7622375 ], [ 83.9450989, 28.8215466 ], [ 84.0316162, 28.8054447 ], [ 84.1139984, 28.8792324 ], [ 84.2238783, 28.9030343 ], [ 84.40597, 28.85719 ], [ 84.43164, 28.82735 ], [ 84.42036, 28.76873 ], [ 84.51395, 28.71779 ], [ 84.5995, 28.73727 ], [ 84.69765, 28.67533 ], [ 84.69618, 28.63709 ], [ 84.8552, 28.57152 ], [ 84.91875, 28.59427 ], [ 84.9794, 28.59003 ], [ 85.05444, 28.67788 ], [ 85.12367, 28.67931 ], [ 85.19391, 28.62074 ], [ 85.18755, 28.54836 ], [ 85.15781, 28.4962 ], [ 85.10612, 28.46468 ], [ 85.1241291, 28.3356974 ] ] ] ] } },
{ "type": "Feature", "properties": { "POLYGON_ID": "NPL_GAUL1996_ADM2_22364", "ADM0_ISO3": "NPL", "ADM0_NAME": "Nepal", "ADM0_CODE": 175, "ADM1_NAME": "Western", "ADM1_CODE": 2156, "ADM2_NAME": "Lumbini", "ADM2_CODE": 22364, "GEOSET": "GAUL", "GEOSET_YEAR": 1996.0, "GEOSET_VERSION": "GAUL_v1", "GEOSET_UNIT": "ADM2", "CENTROID_LONG": 83.438119799815979, "CENTROID_LAT": 27.751235700177006 }, "geometry": { "type": "MultiPolygon", "coordinates": [ [ [ [ 83.6055832, 28.0133801 ], [ 83.5702133, 27.9712524 ], [ 83.4876938, 27.9600067 ], [ 83.463913, 27.916647 ], [ 83.5727539, 27.9249039 ], [ 83.6354828, 27.8978443 ], [ 83.6880493, 27.9069538 ], [ 83.7795563, 27.890131 ], [ 83.8096619, 27.8678284 ], [ 83.9174957, 27.8689175 ], [ 84.0419693, 27.848877 ], [ 84.0997162, 27.8550949 ], [ 84.2829132, 27.8405705 ], [ 84.3239059, 27.7676811 ], [ 84.4582672, 27.7411098 ], [ 84.4207827, 27.6995784 ], [ 84.34114, 27.6969426 ], [ 84.210727, 27.6374652 ], [ 84.1407084, 27.566882 ], [ 84.0328572, 27.5420367 ], [ 83.9464634, 27.54486 ], [ 83.9401402, 27.4512615 ], [ 83.8341132, 27.4292829 ], [ 83.8845578, 27.3808847 ], [ 83.8585441, 27.3547676 ], [ 83.8311151, 27.3744601 ], [ 83.6190575, 27.4689723 ], [ 83.3896837, 27.4793585 ], [ 83.4114496, 27.4131264 ], [ 83.3617664, 27.3437889 ], [ 83.2852016, 27.3447395 ], [ 83.2743926, 27.3842397 ], [ 83.1888272, 27.4535296 ], [ 83.0322587, 27.4492942 ], [ 82.9582575, 27.4673781 ], [ 82.930275, 27.5013568 ], [ 82.7606284, 27.5012885 ], [ 82.7528684, 27.5409333 ], [ 82.7540045, 27.5924901 ], [ 82.7204066, 27.6889059 ], [ 82.6871155, 27.7133719 ], [ 82.7069855, 27.7531414 ], [ 82.7865524, 27.7427883 ], [ 82.8549042, 27.785038 ], [ 82.7728424, 27.8183537 ], [ 82.8001022, 27.8816338 ], [ 82.949173, 27.9189453 ], [ 83.0265656, 27.9221935 ], [ 83.0083237, 27.966507 ], [ 82.9629898, 27.9911976 ], [ 82.9738235, 28.056982 ], [ 83.0662994, 28.1297169 ], [ 83.0287094, 28.1517658 ], [ 83.0451813, 28.2254143 ], [ 83.0907593, 28.2473755 ], [ 83.2438965, 28.2716923 ], [ 83.3056641, 28.2617607 ], [ 83.2836685, 28.2004852 ], [ 83.3996201, 28.1575375 ], [ 83.4337616, 28.1133213 ], [ 83.5140076, 28.1057568 ], [ 83.5654526, 28.0818481 ], [ 83.6055832, 28.0133801 ] ] ] ] } }
]
}
