{
"type": "FeatureCollection",
"name": "PAN_GAUL1999_ADM1",
"crs": { "type": "name", "properties": { "name": "urn:ogc:def:crs:OGC:1.3:CRS84" } },
"features": [
{ "type": "Feature", "properties": { "POLYGON_ID": "PAN_GAUL1999_ADM1_2282", "ADM0_ISO3": "PAN", "ADM0_NAME": "Panama", "ADM0_CODE": 191, "ADM1_NAME": "Coclé", "ADM1_CODE": 2282, "GEOSET": "GAUL", "GEOSET_YEAR": 1999.0, "GEOSET_VERSION": "GAUL_v1", "GEOSET_UNIT": "ADM1", "CENTROID_LONG": -80.425717540408172, "CENTROID_LAT": 8.5569436345158536 }, "geometry": { "type": "MultiPolygon", "coordinates": [ [ [ [ -80.136208, 8.96585 ], [ -80.136741, 8.932818 ], [ -80.169059, 8.889171 ], [ -80.156501, 8.783501 ], [ -80.126426, 8.74613 ], [ -80.111039, 8.67668 ], [ -80.11702, 8.63749 ], [ -80.100273, 8.588571 ], [ -80.111092, 8.54274 ], [ -80.092323, 8.51297 ], [ -80.097909, 8.470489 ], [ -80.0534605, 8.4031921 ], [ -80.1827301, 8.32669 ], [ -80.271389, 8.2970953 ], [ -80.31398, 8.3043801 ], [ -80.4074963, 8.290737 ], [ -80.4832888, 8.2030896 ], [ -80.4834626, 8.09264 ], [ -80.555076, 8.10786 ], [ -80.570527, 8.124019 ], [ -80.673913, 8.117761 ], [ -80.70954, 8.166149 ], [ -80.686981, 8.225819 ], [ -80.689103, 8.257351 ], [ -80.661241, 8.319569 ], [ -80.696572, 8.33266 ], [ -80.712868, 8.387649 ], [ -80.775658, 8.49689 ], [ -80.822868, 8.546769 ], [ -80.77401, 8.55465 ], [ -80.745507, 8.60759 ], [ -80.743401, 8.639309 ], [ -80.685623, 8.663299 ], [ -80.704879, 8.709679 ], [ -80.68818, 8.776059 ], [ -80.627213, 8.807769 ], [ -80.57367, 8.795701 ], [ -80.552437, 8.82326 ], [ -80.561339, 8.896211 ], [ -80.524376, 8.935059 ], [ -80.465301, 8.923579 ], [ -80.446991, 8.903139 ], [ -80.368331, 8.881478 ], [ -80.356689, 8.908559 ], [ -80.23871, 8.969439 ], [ -80.213509, 8.97232 ], [ -80.208778, 9.016989 ], [ -80.18344, 9.028141 ], [ -80.17176, 8.982649 ], [ -80.136208, 8.96585 ] ] ] ] } },
{ "type": "Feature", "properties": { "POLYGON_ID": "PAN_GAUL1999_ADM1_2283", "ADM0_ISO3": "PAN", "ADM0_NAME": "Panama", "ADM0_CODE": 191, "ADM1_NAME": "Colón", "ADM1_CODE": 2283, "GEOSET": "GAUL", "GEOSET_YEAR": 1999.0, "GEOSET_VERSION": "GAUL_v1", "GEOSET_UNIT": "ADM1", "CENTROID_LONG": -80.016318106486125, "CENTROID_LAT": 9.1887696537366317 }, "geometry": { "type": "MultiPolygon", "coordinates": [ [ [ [ -79.080437, 9.5568017 ], [ -79.088646, 9.48534 ], [ -79.140328, 9.459741 ], [ -79.17134, 9.39301 ], [ -79.211113, 9.37985 ], [ -79.251069, 9.344699 ], [ -79.261489, 9.424451 ], [ -79.308608, 9.45456 ], [ -79.350152, 9.43024 ], [ -79.402748, 9.51841 ], [ -79.452736, 9.52334 ], [ -79.482666, 9.488729 ], [ -79.533889, 9.478929 ], [ -79.541809, 9.423979 ], [ -79.566902, 9.376949 ], [ -79.564582, 9.342361 ], [ -79.620888, 9.202916 ], [ -79.646804, 9.208539 ], [ -79.658439, 9.158681 ], [ -79.684861, 9.115694 ], [ -79.792938, 9.116594 ], [ -79.812698, 9.168189 ], [ -79.844772, 9.184779 ], [ -79.923738, 9.184704 ], [ -79.947807, 9.158865 ], [ -79.949569, 9.119817 ], [ -79.979813, 9.095742 ], [ -79.952507, 9.037608 ], [ -79.964463, 8.983989 ], [ -79.991478, 8.971039 ], [ -80.053199, 8.976309 ], [ -80.092186, 9.003239 ], [ -80.136208, 8.96585 ], [ -80.17176, 8.982649 ], [ -80.18344, 9.028141 ], [ -80.208778, 9.016989 ], [ -80.213509, 8.97232 ], [ -80.23871, 8.969439 ], [ -80.356689, 8.908559 ], [ -80.368331, 8.881478 ], [ -80.446991, 8.903139 ], [ -80.465301, 8.923579 ], [ -80.524376, 8.935059 ], [ -80.561339, 8.896211 ], [ -80.552437, 8.82326 ], [ -80.57367, 8.795701 ], [ -80.627213, 8.807769 ], [ -80.68818, 8.776059 ], [ -80.704879, 8.709679 ], [ -80.685623, 8.663299 ], [ -80.743401, 8.639309 ], [ -80.724152, 8.65996 ], [ -80.751159, 8.735169 ], [ -80.735069, 8.772629 ], [ -80.771027, 8.81403 ], [ -80.799315, 8.808849 ], [ -80.86258, 8.83696 ], [ -80.8809444, 8.8870397 ], [ -80.8235601, 8.89437 ], [ -80.7592199, 8.97528 ], [ -80.63651, 9.0516101 ], [ -80.49198, 9.1157501 ], [ -80.4650101, 9.1161001 ], [ -80.40271, 9.14449 ], [ -80.2955701, 9.1552499 ], [ -80.22469, 9.1859101 ], [ -80.1299499, 9.20877 ], [ -80.08772, 9.23688 ], [ -79.9915772, 9.3401106 ], [ -79.9486052, 9.3715536 ], [ -79.9444995, 9.3127211 ], [ -79.9164721, 9.3113967 ], [ -79.8738269, 9.4046243 ], [ -79.8318553, 9.3861978 ], [ -79.7824942, 9.4403285 ], [ -79.7442908, 9.4473653 ], [ -79.723888, 9.4834419 ], [ -79.6908432, 9.5027772 ], [ -79.6777701, 9.56277 ], [ -79.6204399, 9.6159 ], [ -79.5874947, 9.6038996 ], [ -79.5511453, 9.6306112 ], [ -79.5174899, 9.5857101 ], [ -79.4608146, 9.6045569 ], [ -79.38278, 9.57608 ], [ -79.3259101, 9.5791599 ], [ -79.2287301, 9.5439001 ], [ -79.1718299, 9.5552 ], [ -79.080437, 9.5568017 ] ] ] ] } },
{ "type": "Feature", "properties": { "POLYGON_ID": "PAN_GAUL1999_ADM1_2284", "ADM0_ISO3": "PAN", "ADM0_NAME": "Panama", "ADM0_CODE": 191, "ADM1_NAME": "Kuna Yala", "ADM1_CODE": 2284, "GEOSET": "GAUL", "GEOSET_YEAR": 1999.0, "GEOSET_VERSION": "GAUL_v1", "GEOSET_UNIT": "ADM1", "CENTROID_LONG": -78.294377525718815, "CENTROID_LAT": 9.1615154991946692 }, "geometry": { "type": "MultiPolygon", "coordinates": [ [ [ [ -77.3675129, 8.6728479 ], [ -77.3701542, 8.6602384 ], [ -77.3691022, 8.6494605 ], [ -77.3873802, 8.645656 ], [ -77.3906503, 8.6483687 ], [ -77.4027159, 8.6127859 ], [ -77.4010653, 8.6045328 ], [ -77.4367602, 8.5547588 ], [ -77.4475039, 8.5133272 ], [ -77.4527746, 8.5106306 ], [ -77.45707, 8.51539 ], [ -77.460135, 8.5199 ], [ -77.464172, 8.527219 ], [ -77.480431, 8.541069 ], [ -77.501199, 8.59263 ], [ -77.554161, 8.599939 ], [ -77.58036, 8.637971 ], [ -77.573486, 8.68142 ], [ -77.610062, 8.69329 ], [ -77.625047, 8.727999 ], [ -77.660729, 8.75423 ], [ -77.705888, 8.767909 ], [ -77.699012, 8.81392 ], [ -77.736442, 8.837338 ], [ -77.752457, 8.868749 ], [ -77.847267, 8.91864 ], [ -77.866439, 8.96722 ], [ -77.915573, 9.002339 ], [ -77.986329, 9.072326 ], [ -78.048797, 9.089461 ], [ -78.082572, 9.160629 ], [ -78.12622, 9.17987 ], [ -78.217103, 9.196106 ], [ -78.244201, 9.184875 ], [ -78.291382, 9.210877 ], [ -78.302185, 9.261718 ], [ -78.338195, 9.245484 ], [ -78.39833, 9.272259 ], [ -78.449248, 9.24681 ], [ -78.50222, 9.34647 ], [ -78.544838, 9.327879 ], [ -78.620904, 9.3198 ], [ -78.694101, 9.377539 ], [ -78.741516, 9.36203 ], [ -78.814004, 9.38333 ], [ -78.861022, 9.355019 ], [ -78.889267, 9.36876 ], [ -78.9244, 9.310188 ], [ -78.963576, 9.313789 ], [ -79.026581, 9.294971 ], [ -79.099128, 9.30532 ], [ -79.105927, 9.334689 ], [ -79.171912, 9.33811 ], [ -79.239281, 9.307738 ], [ -79.251069, 9.344699 ], [ -79.211113, 9.37985 ], [ -79.17134, 9.39301 ], [ -79.140328, 9.459741 ], [ -79.088646, 9.48534 ], [ -79.080437, 9.5568017 ], [ -79.0426399, 9.54161 ], [ -79.0734399, 9.51164 ], [ -79.06735, 9.44037 ], [ -79.0145766, 9.4412526 ], [ -78.9614311, 9.4589142 ], [ -78.9131235, 9.4266438 ], [ -78.85549, 9.42124 ], [ -78.76222, 9.4431999 ], [ -78.71863, 9.44279 ], [ -78.6179, 9.41714 ], [ -78.5733699, 9.4419401 ], [ -78.4675399, 9.4063 ], [ -78.3079601, 9.3345601 ], [ -78.2421501, 9.31269 ], [ -78.21355, 9.29058 ], [ -78.1612299, 9.2854001 ], [ -78.1158501, 9.25581 ], [ -78.0513947, 9.2480643 ], [ -77.9468968, 9.1572037 ], [ -77.9291896, 9.1244773 ], [ -77.8800238, 9.0748885 ], [ -77.8430963, 9.0767715 ], [ -77.8129263, 9.0571315 ], [ -77.7823142, 9.0122243 ], [ -77.7179277, 8.8900496 ], [ -77.6800839, 8.8663353 ], [ -77.6461171, 8.8270204 ], [ -77.605948, 8.8195351 ], [ -77.5788448, 8.7758746 ], [ -77.5376988, 8.7518006 ], [ -77.5394224, 8.7074311 ], [ -77.44151, 8.6612999 ], [ -77.3675129, 8.6728479 ] ] ] ] } },
{ "type": "Feature", "properties": { "POLYGON_ID": "PAN_GAUL1999_ADM1_2286", "ADM0_ISO3": "PAN", "ADM0_NAME": "Panama", "ADM0_CODE": 191, "ADM1_NAME": "Herrera", "ADM1_CODE": 2286, "GEOSET": "GAUL", "GEOSET_YEAR": 1999.0, "GEOSET_VERSION": "GAUL_v1", "GEOSET_UNIT": "ADM1", "CENTROID_LONG": -80.701118492176377, "CENTROID_LAT": 7.854616507983101 }, "geometry": { "type": "MultiPolygon", "coordinates": [ [ [ [ -80.4834626, 8.09264 ], [ -80.4440695, 8.0218969 ], [ -80.384483, 7.9969208 ], [ -80.384116, 7.971199 ], [ -80.431397, 7.934409 ], [ -80.475724, 7.93698 ], [ -80.520256, 7.89714 ], [ -80.540971, 7.838858 ], [ -80.600219, 7.802068 ], [ -80.563507, 7.711388 ], [ -80.585792, 7.661188 ], [ -80.628517, 7.651279 ], [ -80.674179, 7.57717 ], [ -80.734649, 7.510129 ], [ -80.759148, 7.53726 ], [ -80.822676, 7.55754 ], [ -80.899513, 7.68663 ], [ -80.925796, 7.76077 ], [ -80.958718, 7.7607 ], [ -80.930427, 7.873579 ], [ -80.903198, 7.926769 ], [ -80.87075, 7.9231 ], [ -80.854942, 7.960019 ], [ -80.814987, 7.999088 ], [ -80.842309, 8.058179 ], [ -80.753662, 8.07443 ], [ -80.719758, 8.12097 ], [ -80.673913, 8.117761 ], [ -80.570527, 8.124019 ], [ -80.555076, 8.10786 ], [ -80.4834626, 8.09264 ] ] ] ] } },
{ "type": "Feature", "properties": { "POLYGON_ID": "PAN_GAUL1999_ADM1_2287", "ADM0_ISO3": "PAN", "ADM0_NAME": "Panama", "ADM0_CODE": 191, "ADM1_NAME": "Los Santos", "ADM1_CODE": 2287, "GEOSET": "GAUL", "GEOSET_YEAR": 1999.0, "GEOSET_VERSION": "GAUL_v1", "GEOSET_UNIT": "ADM1", "CENTROID_LONG": -80.393352521884736, "CENTROID_LAT": 7.5812449864597573 }, "geometry": { "type": "MultiPolygon", "coordinates": [ [ [ [ -80.6144676, 7.2320342 ], [ -80.618897, 7.281559 ], [ -80.67195, 7.319669 ], [ -80.673507, 7.35982 ], [ -80.717551, 7.39158 ], [ -80.708961, 7.414219 ], [ -80.734292, 7.45296 ], [ -80.734649, 7.510129 ], [ -80.674179, 7.57717 ], [ -80.628517, 7.651279 ], [ -80.585792, 7.661188 ], [ -80.563507, 7.711388 ], [ -80.600219, 7.802068 ], [ -80.540971, 7.838858 ], [ -80.520256, 7.89714 ], [ -80.475724, 7.93698 ], [ -80.431397, 7.934409 ], [ -80.384116, 7.971199 ], [ -80.384483, 7.9969208 ], [ -80.3621574, 8.0004593 ], [ -80.3372701, 7.9655201 ], [ -80.3207605, 7.9071425 ], [ -80.2893799, 7.8685701 ], [ -80.22419, 7.8256601 ], [ -80.1875727, 7.779939 ], [ -80.19037, 7.73254 ], [ -80.13235, 7.7339699 ], [ -80.1152601, 7.6888299 ], [ -80.0897081, 7.6797107 ], [ -80.0326849, 7.5963459 ], [ -79.9925612, 7.5132347 ], [ -80.0010757, 7.4657123 ], [ -80.0661246, 7.4491749 ], [ -80.0961599, 7.42882 ], [ -80.1710899, 7.41183 ], [ -80.2632139, 7.4229751 ], [ -80.3136873, 7.4097207 ], [ -80.3627742, 7.3633001 ], [ -80.3437301, 7.3188001 ], [ -80.39151, 7.30597 ], [ -80.43626, 7.2421001 ], [ -80.5074999, 7.25108 ], [ -80.6144676, 7.2320342 ] ] ] ] } },
{ "type": "Feature", "properties": { "POLYGON_ID": "PAN_GAUL1999_ADM1_2288", "ADM0_ISO3": "PAN", "ADM0_NAME": "Panama", "ADM0_CODE": 191, "ADM1_NAME": "Panamá", "ADM1_CODE": 2288, "GEOSET": "GAUL", "GEOSET_YEAR": 1999.0, "GEOSET_VERSION": "GAUL_v1", "GEOSET_UNIT": "ADM1", "CENTROID_LONG": -79.12356755951096, "CENTROID_LAT": 9.0119740755732547 }, "geometry": { "type": "MultiPolygon", "coordinates": [ [ [ [ -79.251069, 9.344699 ], [ -79.239281, 9.307738 ], [ -79.171912, 9.33811 ], [ -79.105927, 9.334689 ], [ -79.099128, 9.30532 ], [ -79.026581, 9.294971 ], [ -78.963576, 9.313789 ], [ -78.9244, 9.310188 ], [ -78.889267, 9.36876 ], [ -78.861022, 9.355019 ], [ -78.814004, 9.38333 ], [ -78.741516, 9.36203 ], [ -78.694101, 9.377539 ], [ -78.620904, 9.3198 ], [ -78.544838, 9.327879 ], [ -78.50222, 9.34647 ], [ -78.449248, 9.24681 ], [ -78.39833, 9.272259 ], [ -78.338195, 9.245484 ], [ -78.302185, 9.261718 ], [ -78.291382, 9.210877 ], [ -78.244201, 9.184875 ], [ -78.217103, 9.196106 ], [ -78.12622, 9.17987 ], [ -78.082572, 9.160629 ], [ -78.048797, 9.089461 ], [ -78.061082, 9.038379 ], [ -78.087401, 9.028599 ], [ -78.110993, 8.982829 ], [ -78.110459, 8.94369 ], [ -78.150871, 8.911269 ], [ -78.183374, 8.860741 ], [ -78.240151, 8.876111 ], [ -78.293426, 8.847809 ], [ -78.30329, 8.81459 ], [ -78.331718, 8.79594 ], [ -78.361777, 8.83214 ], [ -78.402009, 8.83791 ], [ -78.449066, 8.827411 ], [ -78.482841, 8.80495 ], [ -78.481628, 8.749749 ], [ -78.505548, 8.734151 ], [ -78.51172, 8.691528 ], [ -78.472778, 8.642518 ], [ -78.490113, 8.599121 ], [ -78.477104, 8.534323 ], [ -78.44175, 8.471359 ], [ -78.421997, 8.396301 ], [ -78.4205304, 8.3470759 ], [ -78.4510605, 8.3909926 ], [ -78.4595067, 8.4461238 ], [ -78.5081616, 8.4654451 ], [ -78.4958, 8.5194101 ], [ -78.5414497, 8.5846862 ], [ -78.5223548, 8.6014626 ], [ -78.5243159, 8.6427906 ], [ -78.5767531, 8.6596231 ], [ -78.6041314, 8.6868263 ], [ -78.6368596, 8.6927829 ], [ -78.6262302, 8.7281423 ], [ -78.6821076, 8.7217908 ], [ -78.7044735, 8.749896 ], [ -78.754481, 8.7759379 ], [ -78.7552961, 8.8078103 ], [ -78.7900592, 8.8385706 ], [ -78.833914, 8.8122079 ], [ -78.8637817, 8.8333593 ], [ -78.8912137, 8.9016842 ], [ -78.9109977, 8.9246211 ], [ -79.0813057, 8.991069 ], [ -79.1688383, 9.0139029 ], [ -79.2904435, 9.0245868 ], [ -79.349142, 9.0238372 ], [ -79.4913219, 9.0051126 ], [ -79.5085109, 8.9752132 ], [ -79.5485472, 8.9470284 ], [ -79.5716396, 8.8971106 ], [ -79.6806285, 8.8747115 ], [ -79.7055196, 8.8761598 ], [ -79.76387, 8.80731 ], [ -79.7723459, 8.7789196 ], [ -79.74722, 8.7124101 ], [ -79.7645167, 8.677656 ], [ -79.8207978, 8.6555736 ], [ -79.7888403, 8.6138139 ], [ -79.78833, 8.5735 ], [ -79.8648671, 8.5537638 ], [ -79.8754047, 8.529778 ], [ -79.9418499, 8.4934001 ], [ -79.9522801, 8.4671401 ], [ -80.0534605, 8.4031921 ], [ -80.097909, 8.470489 ], [ -80.092323, 8.51297 ], [ -80.111092, 8.54274 ], [ -80.100273, 8.588571 ], [ -80.11702, 8.63749 ], [ -80.111039, 8.67668 ], [ -80.126426, 8.74613 ], [ -80.156501, 8.783501 ], [ -80.169059, 8.889171 ], [ -80.136741, 8.932818 ], [ -80.136208, 8.96585 ], [ -80.092186, 9.003239 ], [ -80.053199, 8.976309 ], [ -79.991478, 8.971039 ], [ -79.964463, 8.983989 ], [ -79.952507, 9.037608 ], [ -79.979813, 9.095742 ], [ -79.949569, 9.119817 ], [ -79.947807, 9.158865 ], [ -79.923738, 9.184704 ], [ -79.844772, 9.184779 ], [ -79.812698, 9.168189 ], [ -79.792938, 9.116594 ], [ -79.684861, 9.115694 ], [ -79.658439, 9.158681 ], [ -79.646804, 9.208539 ], [ -79.620888, 9.202916 ], [ -79.564582, 9.342361 ], [ -79.566902, 9.376949 ], [ -79.541809, 9.423979 ], [ -79.533889, 9.478929 ], [ -79.482666, 9.488729 ], [ -79.452736, 9.52334 ], [ -79.402748, 9.51841 ], [ -79.350152, 9.43024 ], [ -79.308608, 9.45456 ], [ -79.261489, 9.424451 ], [ -79.251069, 9.344699 ] ] ], [ [ [ -78.8881322, 8.4734695 ], [ -78.8381758, 8.4059293 ], [ -78.843483, 8.3202184 ], [ -78.93652, 8.2897101 ], [ -78.9725334, 8.4570014 ], [ -78.8881322, 8.4734695 ] ] ], [ [ [ -79.1030395, 8.3169903 ], [ -79.083822, 8.2871072 ], [ -79.100468, 8.2288903 ], [ -79.1376215, 8.2439113 ], [ -79.1297782, 8.2937423 ], [ -79.1030395, 8.3169903 ] ] ] ] } },
{ "type": "Feature", "properties": { "POLYGON_ID": "PAN_GAUL1999_ADM1_93668", "ADM0_ISO3": "PAN", "ADM0_NAME": "Panama", "ADM0_CODE": 191, "ADM1_NAME": "Bocas del Toro", "ADM1_CODE": 93668, "GEOSET": "GAUL", "GEOSET_YEAR": 1999.0, "GEOSET_VERSION": "GAUL_v1", "GEOSET_UNIT": "ADM1", "CENTROID_LONG": -82.594714672189369, "CENTROID_LAT": 9.2144429252556979 }, "geometry": { "type": "MultiPolygon", "coordinates": [ [ [ [ -82.0030915, 8.9569839 ], [ -82.017762, 8.92163 ], [ -82.053041, 8.89511 ], [ -82.0771726, 8.9229452 ], [ -82.0557487, 8.9426418 ], [ -82.0030915, 8.9569839 ] ] ], [ [ [ -82.8320626, 9.6109252 ], [ -82.8277987, 9.6117131 ], [ -82.8222527, 9.6042142 ], [ -82.8161598, 9.5986682 ], [ -82.7982718, 9.6014021 ], [ -82.7958416, 9.6011783 ], [ -82.7923352, 9.6008553 ], [ -82.7857736, 9.5967934 ], [ -82.7838989, 9.5914817 ], [ -82.7765562, 9.5878885 ], [ -82.7571913, 9.5835351 ], [ -82.7551531, 9.5805458 ], [ -82.7503101, 9.58203 ], [ -82.7486697, 9.5889821 ], [ -82.7349217, 9.564845 ], [ -82.735156, 9.5621891 ], [ -82.7294538, 9.5592208 ], [ -82.7248451, 9.558674 ], [ -82.7224235, 9.5506283 ], [ -82.7125812, 9.5491441 ], [ -82.6997891, 9.5415017 ], [ -82.6992238, 9.5450822 ], [ -82.6869477, 9.508721 ], [ -82.6870771, 9.5078611 ], [ -82.6755944, 9.507783 ], [ -82.6714079, 9.5058595 ], [ -82.6695797, 9.5007528 ], [ -82.6723918, 9.4959879 ], [ -82.662237, 9.5033305 ], [ -82.6563004, 9.5123136 ], [ -82.652629, 9.5000498 ], [ -82.6408339, 9.494035 ], [ -82.6331788, 9.4946599 ], [ -82.6266172, 9.5020026 ], [ -82.6181729, 9.5001383 ], [ -82.6153689, 9.4978626 ], [ -82.6027926, 9.5102045 ], [ -82.6041473, 9.5169135 ], [ -82.6038862, 9.5233276 ], [ -82.5992525, 9.5318325 ], [ -82.6039643, 9.552464 ], [ -82.603105, 9.5566821 ], [ -82.5599354, 9.5388514 ], [ -82.5549585, 9.540375 ], [ -82.5515052, 9.5451487 ], [ -82.5609738, 9.5584326 ], [ -82.5650139, 9.5605873 ], [ -82.5646372, 9.5719529 ], [ -82.3880499, 9.4202601 ], [ -82.3545533, 9.3858844 ], [ -82.3890857, 9.3420431 ], [ -82.3479001, 9.30691 ], [ -82.3733799, 9.25345 ], [ -82.3641402, 9.2209196 ], [ -82.3128131, 9.1879228 ], [ -82.2598558, 9.1796532 ], [ -82.19396, 9.20564 ], [ -82.204071, 9.1699248 ], [ -82.2558122, 9.1694896 ], [ -82.2776401, 9.10149 ], [ -82.2463199, 9.08202 ], [ -82.2479543, 9.0077368 ], [ -82.2101, 8.9902599 ], [ -82.1303599, 8.9813599 ], [ -82.1036401, 8.93118 ], [ -82.0840576, 8.9275636 ], [ -82.185479, 8.873609 ], [ -82.19403, 8.948879 ], [ -82.275803, 9.00049 ], [ -82.320504, 9.00472 ], [ -82.327521, 9.03297 ], [ -82.282142, 9.06357 ], [ -82.31376, 9.125419 ], [ -82.339943, 9.116209 ], [ -82.349618, 9.07668 ], [ -82.384491, 9.0259 ], [ -82.426826, 8.985209 ], [ -82.366059, 8.97005 ], [ -82.346267, 8.951849 ], [ -82.341317, 8.892999 ], [ -82.356346, 8.82909 ], [ -82.373168, 8.831 ], [ -82.444222, 8.857379 ], [ -82.485878, 8.88314 ], [ -82.534683, 8.862949 ], [ -82.570587, 8.90404 ], [ -82.598426, 8.911239 ], [ -82.65194, 8.88616 ], [ -82.694259, 8.90174 ], [ -82.713188, 8.900639 ], [ -82.718598, 8.906091 ], [ -82.724342, 8.91546 ], [ -82.7250424, 8.9169184 ], [ -82.7244437, 8.9174162 ], [ -82.7238015, 8.9179502 ], [ -82.7207989, 8.9204467 ], [ -82.7141441, 8.9305773 ], [ -82.7164862, 8.9420661 ], [ -82.738458, 8.9716144 ], [ -82.7372655, 8.9758394 ], [ -82.8159578, 9.0280956 ], [ -82.8761305, 9.0591029 ], [ -82.8906244, 9.0880906 ], [ -82.9303767, 9.0745342 ], [ -82.9363308, 9.0769061 ], [ -82.9362585, 9.2302619 ], [ -82.9361433, 9.4749865 ], [ -82.9325476, 9.4766896 ], [ -82.8404501, 9.4962551 ], [ -82.8476182, 9.5145735 ], [ -82.8562597, 9.5106311 ], [ -82.8568968, 9.5123833 ], [ -82.873021, 9.5365279 ], [ -82.8742197, 9.5385467 ], [ -82.8713402, 9.5408016 ], [ -82.8715358, 9.5552498 ], [ -82.8758386, 9.5528155 ], [ -82.8789631, 9.5553932 ], [ -82.8822434, 9.5724885 ], [ -82.8761511, 9.5801552 ], [ -82.877246, 9.5910318 ], [ -82.8703706, 9.5938251 ], [ -82.8641997, 9.5905443 ], [ -82.8601378, 9.5921847 ], [ -82.8624812, 9.6005429 ], [ -82.8578725, 9.6069482 ], [ -82.8591411, 9.6121748 ], [ -82.8443122, 9.6162103 ], [ -82.8432652, 9.6128848 ], [ -82.8320626, 9.6109252 ] ] ], [ [ [ -82.1355898, 9.2346912 ], [ -82.1170814, 9.2313782 ], [ -82.0897405, 9.1785589 ], [ -82.1021894, 9.1303812 ], [ -82.1558279, 9.1642929 ], [ -82.1355898, 9.2346912 ] ] ], [ [ [ -82.199535, 9.3615949 ], [ -82.144589, 9.3415975 ], [ -82.1603134, 9.320747 ], [ -82.199535, 9.3615949 ] ] ], [ [ [ -82.2865447, 9.4410796 ], [ -82.2596201, 9.4335001 ], [ -82.2350518, 9.3822949 ], [ -82.2588453, 9.3534844 ], [ -82.3008265, 9.377691 ], [ -82.3321116, 9.4137892 ], [ -82.2865447, 9.4410796 ] ] ], [ [ [ -82.289197, 9.2968647 ], [ -82.2358807, 9.2550003 ], [ -82.2616442, 9.2347701 ], [ -82.2943498, 9.2391921 ], [ -82.289197, 9.2968647 ] ] ] ] } },
{ "type": "Feature", "properties": { "POLYGON_ID": "PAN_GAUL1999_ADM1_93669", "ADM0_ISO3": "PAN", "ADM0_NAME": "Panama", "ADM0_CODE": 191, "ADM1_NAME": "Chiriquí", "ADM1_CODE": 93669, "GEOSET": "GAUL", "GEOSET_YEAR": 1999.0, "GEOSET_VERSION": "GAUL_v1", "GEOSET_UNIT": "ADM1", "CENTROID_LONG": -82.404763448954355, "CENTROID_LAT": 8.4935495928763078 }, "geometry": { "type": "MultiPolygon", "coordinates": [ [ [ [ -81.570937, 8.36525 ], [ -81.536308, 8.38563 ], [ -81.513909, 8.356509 ], [ -81.52845, 8.31383 ], [ -81.570937, 8.36525 ] ] ], [ [ [ -81.570937, 8.36525 ], [ -81.573417, 8.320788 ], [ -81.597022, 8.299339 ], [ -81.529548, 8.26378 ], [ -81.557267, 8.2335 ], [ -81.568428, 8.196341 ], [ -81.580521, 8.18641 ], [ -81.611816, 8.1586 ], [ -81.613648, 8.107751 ], [ -81.641807, 8.049699 ], [ -81.638352, 8.02069 ], [ -81.6728678, 8.0067642 ], [ -81.7181199, 8.06253 ], [ -81.6984199, 8.1111601 ], [ -81.7633942, 8.1830747 ], [ -81.7601015, 8.1376824 ], [ -81.9204, 8.18714 ], [ -81.9510927, 8.1892681 ], [ -82.0370599, 8.217704 ], [ -82.0894201, 8.2188099 ], [ -82.10191, 8.2461 ], [ -82.14671, 8.2586099 ], [ -82.1435899, 8.2073201 ], [ -82.1980401, 8.2051001 ], [ -82.2008481, 8.2479778 ], [ -82.2222702, 8.2879197 ], [ -82.2690866, 8.2905793 ], [ -82.30491, 8.3230762 ], [ -82.3328671, 8.3229278 ], [ -82.3507244, 8.2891183 ], [ -82.4548353, 8.2954543 ], [ -82.4809008, 8.2686009 ], [ -82.6579026, 8.3272478 ], [ -82.72883, 8.3237699 ], [ -82.8420367, 8.2905607 ], [ -82.8717925, 8.2504655 ], [ -82.8776949, 8.2186437 ], [ -82.8735244, 8.1199123 ], [ -82.8521043, 8.0721279 ], [ -82.8752816, 8.0300036 ], [ -82.9003945, 8.0397786 ], [ -82.8961991, 8.04639 ], [ -82.8905499, 8.0505284 ], [ -82.8916258, 8.0526802 ], [ -82.89471, 8.0530388 ], [ -82.891837, 8.0732534 ], [ -82.8880117, 8.0777959 ], [ -82.8907585, 8.0964618 ], [ -82.8929718, 8.1020068 ], [ -82.8909391, 8.1027132 ], [ -82.8870164, 8.1040764 ], [ -82.8934249, 8.1169229 ], [ -82.898716, 8.1229563 ], [ -82.9081824, 8.1621828 ], [ -82.9104083, 8.1667797 ], [ -82.9062064, 8.1709014 ], [ -82.9034085, 8.1736459 ], [ -82.906136, 8.1745713 ], [ -82.9352945, 8.2077639 ], [ -82.9423739, 8.2710377 ], [ -82.9483502, 8.2685277 ], [ -82.9747057, 8.2870542 ], [ -82.976917, 8.2878311 ], [ -83.022947, 8.3097551 ], [ -83.027406, 8.3146075 ], [ -83.0331873, 8.3120515 ], [ -83.034693, 8.3127539 ], [ -83.0342158, 8.3168578 ], [ -83.0424236, 8.3166669 ], [ -83.0468154, 8.3203779 ], [ -83.0513241, 8.334284 ], [ -83.0452358, 8.3353295 ], [ -83.0462743, 8.3407449 ], [ -83.0388071, 8.346612 ], [ -83.0184556, 8.3495727 ], [ -83.0183076, 8.3523394 ], [ -83.0160692, 8.3542421 ], [ -83.0098575, 8.3532348 ], [ -83.0036458, 8.357264 ], [ -83.0031936, 8.3613794 ], [ -82.9838916, 8.3713661 ], [ -82.9772322, 8.3794805 ], [ -82.9284481, 8.4343982 ], [ -82.9147935, 8.4291017 ], [ -82.9021541, 8.4319658 ], [ -82.8887527, 8.4350027 ], [ -82.8678575, 8.4397376 ], [ -82.8336243, 8.5079886 ], [ -82.8335806, 8.5117206 ], [ -82.8341895, 8.5236639 ], [ -82.8371984, 8.5277103 ], [ -82.8383135, 8.5455599 ], [ -82.8360509, 8.5498225 ], [ -82.8241534, 8.5732701 ], [ -82.8268902, 8.5789295 ], [ -82.8297908, 8.6305681 ], [ -82.8308207, 8.6354603 ], [ -82.8327623, 8.6363583 ], [ -82.8345185, 8.6408389 ], [ -82.8356951, 8.6438644 ], [ -82.8446594, 8.6553499 ], [ -82.8486934, 8.6568066 ], [ -82.8549684, 8.6617931 ], [ -82.8743217, 8.6970653 ], [ -82.8792588, 8.6965557 ], [ -82.9085826, 8.734929 ], [ -82.9131996, 8.7395826 ], [ -82.9141313, 8.7523188 ], [ -82.9102207, 8.7539885 ], [ -82.9107808, 8.7595334 ], [ -82.9147265, 8.7601514 ], [ -82.9154295, 8.7602615 ], [ -82.9159136, 8.7630781 ], [ -82.8930849, 8.7797869 ], [ -82.8948182, 8.7817129 ], [ -82.8927171, 8.7828396 ], [ -82.8909536, 8.7837852 ], [ -82.8902839, 8.7860814 ], [ -82.8906176, 8.7903382 ], [ -82.8875371, 8.7934747 ], [ -82.8638454, 8.8131898 ], [ -82.864752, 8.8481184 ], [ -82.8621091, 8.8495395 ], [ -82.8610315, 8.8504776 ], [ -82.8543239, 8.8563166 ], [ -82.8493076, 8.8544153 ], [ -82.8076125, 8.8739034 ], [ -82.7966348, 8.8773759 ], [ -82.7619093, 8.884153 ], [ -82.7257837, 8.916302 ], [ -82.7250424, 8.9169184 ], [ -82.724342, 8.91546 ], [ -82.718598, 8.906091 ], [ -82.713188, 8.900639 ], [ -82.694259, 8.90174 ], [ -82.65194, 8.88616 ], [ -82.598426, 8.911239 ], [ -82.570587, 8.90404 ], [ -82.534683, 8.862949 ], [ -82.485878, 8.88314 ], [ -82.444222, 8.857379 ], [ -82.373168, 8.831 ], [ -82.300149, 8.814399 ], [ -82.271881, 8.776381 ], [ -82.203217, 8.762191 ], [ -82.147506, 8.76093 ], [ -82.145562, 8.55594 ], [ -82.154679, 8.507759 ], [ -82.177566, 8.483359 ], [ -82.171082, 8.44287 ], [ -82.092408, 8.45897 ], [ -82.058036, 8.453739 ], [ -82.025162, 8.42613 ], [ -82.01953, 8.359039 ], [ -81.970887, 8.32688 ], [ -81.827896, 8.33081 ], [ -81.83046, 8.29634 ], [ -81.803993, 8.27227 ], [ -81.731552, 8.27193 ], [ -81.686982, 8.28762 ], [ -81.656327, 8.278 ], [ -81.629067, 8.305099 ], [ -81.612479, 8.35462 ], [ -81.570937, 8.36525 ] ] ], [ [ [ -82.3444164, 8.2682453 ], [ -82.3426489, 8.2323887 ], [ -82.3952815, 8.2228306 ], [ -82.4327737, 8.2536532 ], [ -82.3853169, 8.2758221 ], [ -82.3444164, 8.2682453 ] ] ] ] } },
{ "type": "Feature", "properties": { "POLYGON_ID": "PAN_GAUL1999_ADM1_93670", "ADM0_ISO3": "PAN", "ADM0_NAME": "Panama", "ADM0_CODE": 191, "ADM1_NAME": "Darién", "ADM1_CODE": 93670, "GEOSET": "GAUL", "GEOSET_YEAR": 1999.0, "GEOSET_VERSION": "GAUL_v1", "GEOSET_UNIT": "ADM1", "CENTROID_LONG": -77.915549133179709, "CENTROID_LAT": 8.1681130866347225 }, "geometry": { "type": "MultiPolygon", "coordinates": [ [ [ [ -77.705888, 8.767909 ], [ -77.759452, 8.769568 ], [ -77.784532, 8.741679 ], [ -77.832681, 8.728339 ], [ -77.87017, 8.657499 ], [ -77.908378, 8.626489 ], [ -77.896218, 8.572849 ], [ -77.871681, 8.554919 ], [ -77.880944, 8.518818 ], [ -77.815163, 8.462061 ], [ -77.794822, 8.349469 ], [ -77.732392, 8.28907 ], [ -77.72988, 8.25398 ], [ -77.660446, 8.229279 ], [ -77.621528, 8.198399 ], [ -77.608329, 8.11864 ], [ -77.587792, 8.123199 ], [ -77.540131, 8.07791 ], [ -77.499314, 8.098901 ], [ -77.469466, 8.095049 ], [ -77.418548, 8.134419 ], [ -77.2484227, 8.1745637 ], [ -77.2490769, 8.1716197 ], [ -77.2177583, 8.0879509 ], [ -77.2262166, 8.0287426 ], [ -77.1752381, 7.9798215 ], [ -77.1639431, 7.9684209 ], [ -77.1736379, 7.9471313 ], [ -77.1759488, 7.9396372 ], [ -77.1890665, 7.9234403 ], [ -77.3032559, 7.9114692 ], [ -77.3357176, 7.8956955 ], [ -77.3361748, 7.8662057 ], [ -77.3659446, 7.8245468 ], [ -77.3473763, 7.7649345 ], [ -77.3908093, 7.7595596 ], [ -77.4396656, 7.6804209 ], [ -77.4416688, 7.6629265 ], [ -77.4501454, 7.6572755 ], [ -77.4675371, 7.6572163 ], [ -77.4706484, 7.6517717 ], [ -77.488538, 7.5736019 ], [ -77.5284655, 7.5551937 ], [ -77.5389659, 7.5395079 ], [ -77.5751127, 7.5080614 ], [ -77.5897827, 7.5223961 ], [ -77.6009313, 7.5369152 ], [ -77.6111725, 7.5413228 ], [ -77.6097465, 7.5584346 ], [ -77.6387704, 7.6160322 ], [ -77.6453906, 7.6342378 ], [ -77.6440666, 7.6504573 ], [ -77.6479324, 7.6555802 ], [ -77.6683486, 7.6677077 ], [ -77.7258262, 7.6971298 ], [ -77.7407216, 7.6865375 ], [ -77.7489969, 7.6130531 ], [ -77.7027477, 7.5188246 ], [ -77.7143871, 7.4939747 ], [ -77.7288053, 7.4799869 ], [ -77.7387356, 7.4707186 ], [ -77.7446938, 7.4604573 ], [ -77.7579342, 7.4591332 ], [ -77.7923593, 7.4809799 ], [ -77.7991413, 7.4635117 ], [ -77.8497126, 7.3332561 ], [ -77.8917215, 7.2250548 ], [ -77.8930045, 7.2217507 ], [ -77.9889756, 7.300195 ], [ -78.0200273, 7.3344893 ], [ -78.0431313, 7.3899198 ], [ -78.0815634, 7.4370967 ], [ -78.1249447, 7.4664906 ], [ -78.1335188, 7.4965595 ], [ -78.1845648, 7.5260248 ], [ -78.1714785, 7.5771587 ], [ -78.2406118, 7.6444723 ], [ -78.2420678, 7.6615521 ], [ -78.297919, 7.6983972 ], [ -78.2813645, 7.7401938 ], [ -78.3352643, 7.8380316 ], [ -78.3449626, 7.8713451 ], [ -78.3926019, 7.9063375 ], [ -78.4201789, 8.0069487 ], [ -78.4461379, 8.0485617 ], [ -78.4212514, 8.1049528 ], [ -78.3924139, 8.0652249 ], [ -78.3387003, 8.0600482 ], [ -78.2563572, 8.1175104 ], [ -78.2457671, 8.1865393 ], [ -78.2688146, 8.1973239 ], [ -78.283642, 8.2487674 ], [ -78.2585442, 8.2966542 ], [ -78.2324791, 8.2702381 ], [ -78.1846994, 8.3014089 ], [ -78.1797647, 8.3393059 ], [ -78.1367374, 8.4065601 ], [ -78.1216341, 8.3604808 ], [ -78.0523093, 8.3399633 ], [ -78.0784747, 8.405217 ], [ -78.1080208, 8.4148476 ], [ -78.1538187, 8.4705411 ], [ -78.1926089, 8.4409681 ], [ -78.1884372, 8.4097815 ], [ -78.2484095, 8.3838568 ], [ -78.2664544, 8.4101305 ], [ -78.2108896, 8.4484323 ], [ -78.2084701, 8.49154 ], [ -78.2275674, 8.5435204 ], [ -78.2594341, 8.4799088 ], [ -78.303048, 8.4410804 ], [ -78.3207602, 8.4730213 ], [ -78.3765975, 8.4299818 ], [ -78.3672241, 8.3942388 ], [ -78.386662, 8.3424295 ], [ -78.4205304, 8.3470759 ], [ -78.421997, 8.396301 ], [ -78.44175, 8.471359 ], [ -78.477104, 8.534323 ], [ -78.490113, 8.599121 ], [ -78.472778, 8.642518 ], [ -78.51172, 8.691528 ], [ -78.505548, 8.734151 ], [ -78.481628, 8.749749 ], [ -78.482841, 8.80495 ], [ -78.449066, 8.827411 ], [ -78.402009, 8.83791 ], [ -78.361777, 8.83214 ], [ -78.331718, 8.79594 ], [ -78.30329, 8.81459 ], [ -78.293426, 8.847809 ], [ -78.240151, 8.876111 ], [ -78.183374, 8.860741 ], [ -78.150871, 8.911269 ], [ -78.110459, 8.94369 ], [ -78.110993, 8.982829 ], [ -78.087401, 9.028599 ], [ -78.061082, 9.038379 ], [ -78.048797, 9.089461 ], [ -77.986329, 9.072326 ], [ -77.915573, 9.002339 ], [ -77.866439, 8.96722 ], [ -77.847267, 8.91864 ], [ -77.752457, 8.868749 ], [ -77.736442, 8.837338 ], [ -77.699012, 8.81392 ], [ -77.705888, 8.767909 ] ], [ [ -78.191291, 8.08895 ], [ -78.233742, 8.06573 ], [ -78.209198, 8.039609 ], [ -78.202783, 7.999599 ], [ -78.224168, 7.982879 ], [ -78.257409, 7.99613 ], [ -78.295808, 7.96584 ], [ -78.326898, 7.963199 ], [ -78.335679, 7.90243 ], [ -78.316933, 7.85914 ], [ -78.275918, 7.8062 ], [ -78.269119, 7.77086 ], [ -78.233535, 7.71506 ], [ -78.181749, 7.664561 ], [ -78.14817, 7.678959 ], [ -78.094369, 7.648209 ], [ -78.063179, 7.5812 ], [ -78.041153, 7.60975 ], [ -78.007155, 7.61865 ], [ -77.988136, 7.590829 ], [ -77.944816, 7.623288 ], [ -77.943916, 7.67735 ], [ -77.956224, 7.73384 ], [ -77.955697, 7.787069 ], [ -77.976433, 7.79506 ], [ -78.006287, 7.903469 ], [ -78.030799, 7.95189 ], [ -78.07898, 7.91716 ], [ -78.090827, 7.97165 ], [ -78.118179, 8.016239 ], [ -78.191291, 8.08895 ] ] ] ] } },
{ "type": "Feature", "properties": { "POLYGON_ID": "PAN_GAUL1999_ADM1_93671", "ADM0_ISO3": "PAN", "ADM0_NAME": "Panama", "ADM0_CODE": 191, "ADM1_NAME": "Emberá", "ADM1_CODE": 93671, "GEOSET": "GAUL", "GEOSET_YEAR": 1999.0, "GEOSET_VERSION": "GAUL_v1", "GEOSET_UNIT": "ADM1", "CENTROID_LONG": -77.769518641417633, "CENTROID_LAT": 8.230851173032649 }, "geometry": { "type": "MultiPolygon", "coordinates": [ [ [ [ -77.705888, 8.767909 ], [ -77.660729, 8.75423 ], [ -77.625047, 8.727999 ], [ -77.610062, 8.69329 ], [ -77.573486, 8.68142 ], [ -77.58036, 8.637971 ], [ -77.554161, 8.599939 ], [ -77.501199, 8.59263 ], [ -77.480431, 8.541069 ], [ -77.464172, 8.527219 ], [ -77.460135, 8.5199 ], [ -77.45707, 8.51539 ], [ -77.4527746, 8.5106306 ], [ -77.4565456, 8.5087013 ], [ -77.4496066, 8.499239 ], [ -77.4475039, 8.4819967 ], [ -77.3987208, 8.4636815 ], [ -77.3580332, 8.3930432 ], [ -77.3647502, 8.3567884 ], [ -77.3370892, 8.2747198 ], [ -77.3018843, 8.2742626 ], [ -77.2890825, 8.2468302 ], [ -77.2977694, 8.2318256 ], [ -77.2666794, 8.2171117 ], [ -77.2481625, 8.1757346 ], [ -77.2484227, 8.1745637 ], [ -77.418548, 8.134419 ], [ -77.469466, 8.095049 ], [ -77.499314, 8.098901 ], [ -77.540131, 8.07791 ], [ -77.587792, 8.123199 ], [ -77.608329, 8.11864 ], [ -77.621528, 8.198399 ], [ -77.660446, 8.229279 ], [ -77.72988, 8.25398 ], [ -77.732392, 8.28907 ], [ -77.794822, 8.349469 ], [ -77.815163, 8.462061 ], [ -77.880944, 8.518818 ], [ -77.871681, 8.554919 ], [ -77.896218, 8.572849 ], [ -77.908378, 8.626489 ], [ -77.87017, 8.657499 ], [ -77.832681, 8.728339 ], [ -77.784532, 8.741679 ], [ -77.759452, 8.769568 ], [ -77.705888, 8.767909 ] ] ], [ [ [ -78.191291, 8.08895 ], [ -78.118179, 8.016239 ], [ -78.090827, 7.97165 ], [ -78.07898, 7.91716 ], [ -78.030799, 7.95189 ], [ -78.006287, 7.903469 ], [ -77.976433, 7.79506 ], [ -77.955697, 7.787069 ], [ -77.956224, 7.73384 ], [ -77.943916, 7.67735 ], [ -77.944816, 7.623288 ], [ -77.988136, 7.590829 ], [ -78.007155, 7.61865 ], [ -78.041153, 7.60975 ], [ -78.063179, 7.5812 ], [ -78.094369, 7.648209 ], [ -78.14817, 7.678959 ], [ -78.181749, 7.664561 ], [ -78.233535, 7.71506 ], [ -78.269119, 7.77086 ], [ -78.275918, 7.8062 ], [ -78.316933, 7.85914 ], [ -78.335679, 7.90243 ], [ -78.326898, 7.963199 ], [ -78.295808, 7.96584 ], [ -78.257409, 7.99613 ], [ -78.224168, 7.982879 ], [ -78.202783, 7.999599 ], [ -78.209198, 8.039609 ], [ -78.233742, 8.06573 ], [ -78.191291, 8.08895 ] ] ] ] } },
{ "type": "Feature", "properties": { "POLYGON_ID": "PAN_GAUL1999_ADM1_93672", "ADM0_ISO3": "PAN", "ADM0_NAME": "Panama", "ADM0_CODE": 191, "ADM1_NAME": "Ngöbe Buglé", "ADM1_CODE": 93672, "GEOSET": "GAUL", "GEOSET_YEAR": 1999.0, "GEOSET_VERSION": "GAUL_v1", "GEOSET_UNIT": "ADM1", "CENTROID_LONG": -81.774906183124827, "CENTROID_LAT": 8.6604467677004493 }, "geometry": { "type": "MultiPolygon", "coordinates": [ [ [ [ -81.597022, 8.299339 ], [ -81.573417, 8.320788 ], [ -81.570937, 8.36525 ], [ -81.52845, 8.31383 ], [ -81.529548, 8.26378 ], [ -81.597022, 8.299339 ] ] ], [ [ [ -81.570937, 8.36525 ], [ -81.612479, 8.35462 ], [ -81.629067, 8.305099 ], [ -81.656327, 8.278 ], [ -81.686982, 8.28762 ], [ -81.731552, 8.27193 ], [ -81.803993, 8.27227 ], [ -81.83046, 8.29634 ], [ -81.827896, 8.33081 ], [ -81.970887, 8.32688 ], [ -82.01953, 8.359039 ], [ -82.025162, 8.42613 ], [ -82.058036, 8.453739 ], [ -82.092408, 8.45897 ], [ -82.171082, 8.44287 ], [ -82.177566, 8.483359 ], [ -82.154679, 8.507759 ], [ -82.145562, 8.55594 ], [ -82.147506, 8.76093 ], [ -82.203217, 8.762191 ], [ -82.271881, 8.776381 ], [ -82.300149, 8.814399 ], [ -82.373168, 8.831 ], [ -82.356346, 8.82909 ], [ -82.341317, 8.892999 ], [ -82.346267, 8.951849 ], [ -82.366059, 8.97005 ], [ -82.426826, 8.985209 ], [ -82.384491, 9.0259 ], [ -82.349618, 9.07668 ], [ -82.339943, 9.116209 ], [ -82.31376, 9.125419 ], [ -82.282142, 9.06357 ], [ -82.327521, 9.03297 ], [ -82.320504, 9.00472 ], [ -82.275803, 9.00049 ], [ -82.19403, 8.948879 ], [ -82.185479, 8.873609 ], [ -82.0840576, 8.9275636 ], [ -82.0771726, 8.9229452 ], [ -82.053041, 8.89511 ], [ -82.017762, 8.92163 ], [ -82.0030915, 8.9569839 ], [ -81.9856801, 8.9309999 ], [ -81.94216, 8.9376799 ], [ -81.91247, 8.9823501 ], [ -81.89115, 8.9595899 ], [ -81.8289301, 8.95896 ], [ -81.8041194, 8.9361475 ], [ -81.7692201, 8.97817 ], [ -81.78264, 9.00856 ], [ -81.8257101, 9.0222501 ], [ -81.86468, 9.0578599 ], [ -81.8740899, 9.0872199 ], [ -81.9283101, 9.1437899 ], [ -81.91972, 9.18389 ], [ -81.88003, 9.1828299 ], [ -81.85347, 9.1426899 ], [ -81.82346, 9.06182 ], [ -81.76097, 9.06324 ], [ -81.71173, 9.0112699 ], [ -81.65234, 8.9326401 ], [ -81.5962499, 8.8707399 ], [ -81.5427899, 8.82455 ], [ -81.4976599, 8.7994799 ], [ -81.47825, 8.80865 ], [ -81.4248299, 8.79454 ], [ -81.3826, 8.7987099 ], [ -81.3494101, 8.78263 ], [ -81.29124, 8.78165 ], [ -81.2443442, 8.7959079 ], [ -81.206486, 8.787618 ], [ -81.227729, 8.754241 ], [ -81.21753, 8.704859 ], [ -81.234756, 8.650139 ], [ -81.232392, 8.588249 ], [ -81.200507, 8.53066 ], [ -81.178757, 8.532429 ], [ -81.172073, 8.47218 ], [ -81.193961, 8.455209 ], [ -81.234917, 8.459661 ], [ -81.282882, 8.496799 ], [ -81.304657, 8.53275 ], [ -81.338691, 8.539168 ], [ -81.38173, 8.493089 ], [ -81.399268, 8.494939 ], [ -81.424956, 8.43647 ], [ -81.459358, 8.3977 ], [ -81.522369, 8.416569 ], [ -81.536308, 8.38563 ], [ -81.570937, 8.36525 ] ] ], [ [ [ -81.376388, 8.383779 ], [ -81.319571, 8.365391 ], [ -81.373557, 8.328499 ], [ -81.427712, 8.35529 ], [ -81.376388, 8.383779 ] ] ], [ [ [ -81.437378, 8.273391 ], [ -81.461402, 8.242438 ], [ -81.492401, 8.275249 ], [ -81.471809, 8.32038 ], [ -81.437378, 8.273391 ] ] ], [ [ [ -81.580521, 8.18641 ], [ -81.568428, 8.196341 ], [ -81.495582, 8.175099 ], [ -81.521118, 8.147009 ], [ -81.567177, 8.15499 ], [ -81.580521, 8.18641 ] ] ] ] } },
{ "type": "Feature", "properties": { "POLYGON_ID": "PAN_GAUL1999_ADM1_93673", "ADM0_ISO3": "PAN", "ADM0_NAME": "Panama", "ADM0_CODE": 191, "ADM1_NAME": "Veraguas", "ADM1_CODE": 93673, "GEOSET": "GAUL", "GEOSET_YEAR": 1999.0, "GEOSET_VERSION": "GAUL_v1", "GEOSET_UNIT": "ADM1", "CENTROID_LONG": -81.130153521173867, "CENTROID_LAT": 8.0999015709107027 }, "geometry": { "type": "MultiPolygon", "coordinates": [ [ [ [ -80.743401, 8.639309 ], [ -80.745507, 8.60759 ], [ -80.77401, 8.55465 ], [ -80.822868, 8.546769 ], [ -80.775658, 8.49689 ], [ -80.712868, 8.387649 ], [ -80.696572, 8.33266 ], [ -80.661241, 8.319569 ], [ -80.689103, 8.257351 ], [ -80.686981, 8.225819 ], [ -80.70954, 8.166149 ], [ -80.673913, 8.117761 ], [ -80.719758, 8.12097 ], [ -80.753662, 8.07443 ], [ -80.842309, 8.058179 ], [ -80.814987, 7.999088 ], [ -80.854942, 7.960019 ], [ -80.87075, 7.9231 ], [ -80.903198, 7.926769 ], [ -80.930427, 7.873579 ], [ -80.958718, 7.7607 ], [ -80.925796, 7.76077 ], [ -80.899513, 7.68663 ], [ -80.822676, 7.55754 ], [ -80.759148, 7.53726 ], [ -80.734649, 7.510129 ], [ -80.734292, 7.45296 ], [ -80.708961, 7.414219 ], [ -80.717551, 7.39158 ], [ -80.673507, 7.35982 ], [ -80.67195, 7.319669 ], [ -80.618897, 7.281559 ], [ -80.6144676, 7.2320342 ], [ -80.6145202, 7.2314161 ], [ -80.6145779, 7.23094 ], [ -80.7156101, 7.20846 ], [ -80.7783399, 7.21726 ], [ -80.88986, 7.21124 ], [ -80.92134, 7.27853 ], [ -80.9200501, 7.31488 ], [ -80.88376, 7.33524 ], [ -80.92649, 7.40847 ], [ -80.9045299, 7.42651 ], [ -80.93823, 7.4804 ], [ -80.97181, 7.50335 ], [ -80.9499491, 7.5532867 ], [ -81.0041001, 7.63509 ], [ -81.0490947, 7.6623742 ], [ -81.0416573, 7.7034969 ], [ -81.0623281, 7.7493413 ], [ -81.0898217, 7.7729515 ], [ -81.0617076, 7.8252361 ], [ -81.0654093, 7.8754541 ], [ -81.1098196, 7.8436342 ], [ -81.139172, 7.8449522 ], [ -81.1903275, 7.8781597 ], [ -81.1990044, 7.8509419 ], [ -81.1709228, 7.8104594 ], [ -81.179284, 7.7552078 ], [ -81.2236546, 7.7314378 ], [ -81.1952101, 7.6963999 ], [ -81.20332, 7.6314301 ], [ -81.2404266, 7.6235285 ], [ -81.3188498, 7.6556573 ], [ -81.4003799, 7.67408 ], [ -81.50201, 7.7326299 ], [ -81.5004525, 7.7587658 ], [ -81.565058, 7.7551938 ], [ -81.59295, 7.8037799 ], [ -81.5645799, 7.85564 ], [ -81.6149299, 7.8975901 ], [ -81.6493874, 7.9749678 ], [ -81.6728678, 8.0067642 ], [ -81.638352, 8.02069 ], [ -81.641807, 8.049699 ], [ -81.613648, 8.107751 ], [ -81.611816, 8.1586 ], [ -81.580521, 8.18641 ], [ -81.567177, 8.15499 ], [ -81.521118, 8.147009 ], [ -81.495582, 8.175099 ], [ -81.568428, 8.196341 ], [ -81.557267, 8.2335 ], [ -81.529548, 8.26378 ], [ -81.52845, 8.31383 ], [ -81.513909, 8.356509 ], [ -81.536308, 8.38563 ], [ -81.522369, 8.416569 ], [ -81.459358, 8.3977 ], [ -81.424956, 8.43647 ], [ -81.399268, 8.494939 ], [ -81.38173, 8.493089 ], [ -81.338691, 8.539168 ], [ -81.304657, 8.53275 ], [ -81.282882, 8.496799 ], [ -81.234917, 8.459661 ], [ -81.193961, 8.455209 ], [ -81.172073, 8.47218 ], [ -81.178757, 8.532429 ], [ -81.200507, 8.53066 ], [ -81.232392, 8.588249 ], [ -81.234756, 8.650139 ], [ -81.21753, 8.704859 ], [ -81.227729, 8.754241 ], [ -81.206486, 8.787618 ], [ -81.0698201, 8.81075 ], [ -80.9923201, 8.83435 ], [ -80.9399601, 8.86643 ], [ -80.8809444, 8.8870397 ], [ -80.86258, 8.83696 ], [ -80.799315, 8.808849 ], [ -80.771027, 8.81403 ], [ -80.735069, 8.772629 ], [ -80.751159, 8.735169 ], [ -80.724152, 8.65996 ], [ -80.743401, 8.639309 ] ], [ [ -81.376388, 8.383779 ], [ -81.427712, 8.35529 ], [ -81.373557, 8.328499 ], [ -81.319571, 8.365391 ], [ -81.376388, 8.383779 ] ], [ [ -81.437378, 8.273391 ], [ -81.471809, 8.32038 ], [ -81.492401, 8.275249 ], [ -81.461402, 8.242438 ], [ -81.437378, 8.273391 ] ] ], [ [ [ -81.09543, 7.58223 ], [ -81.04634, 7.5683099 ], [ -81.08198, 7.5293801 ], [ -81.1256499, 7.54767 ], [ -81.2181101, 7.48654 ], [ -81.23233, 7.51721 ], [ -81.1703399, 7.53322 ], [ -81.1504499, 7.56159 ], [ -81.09543, 7.58223 ] ] ], [ [ [ -81.7487999, 7.64861 ], [ -81.7297736, 7.6308703 ], [ -81.72426, 7.57467 ], [ -81.7073959, 7.538657 ], [ -81.7270481, 7.4414227 ], [ -81.6986197, 7.3993416 ], [ -81.6282094, 7.3912361 ], [ -81.6019049, 7.3379638 ], [ -81.64432, 7.31778 ], [ -81.69393, 7.3403901 ], [ -81.7603, 7.35189 ], [ -81.8089399, 7.40362 ], [ -81.863, 7.4465601 ], [ -81.87924, 7.5053 ], [ -81.8584901, 7.52133 ], [ -81.84153, 7.5693099 ], [ -81.7487999, 7.64861 ] ] ], [ [ [ -81.8151624, 7.2894879 ], [ -81.7677646, 7.2845801 ], [ -81.8023169, 7.2408725 ], [ -81.8151624, 7.2894879 ] ] ] ] } }
]
}
