{
"type": "FeatureCollection",
"name": "PER_GAUL1995_ADM0",
"crs": { "type": "name", "properties": { "name": "urn:ogc:def:crs:OGC:1.3:CRS84" } },
"features": [
{ "type": "Feature", "properties": { "POLYGON_ID": "PER_GAUL1995_ADM0_195", "ADM0_ISO3": "PER", "ADM0_NAME": "Peru", "ADM0_CODE": 195, "GEOSET": "GAUL", "GEOSET_YEAR": 1995.0, "GEOSET_VERSION": "GAUL_v1", "GEOSET_UNIT": "ADM0", "CENTROID_LONG": -74.360267345455028, "CENTROID_LAT": -9.1693254755891047 }, "geometry": { "type": "MultiPolygon", "coordinates": [ [ [ [ -74.78545, -0.20273 ], [ -74.78017, -0.21442 ], [ -74.7772175, -0.2378811 ], [ -74.77526, -0.2532 ], [ -74.7754472, -0.2550211 ], [ -74.77637, -0.264 ], [ -74.78681, -0.27551 ], [ -74.79478, -0.27737 ], [ -74.8, -0.28336 ], [ -74.8005244, -0.2863439 ], [ -74.7961137, -0.2934995 ], [ -74.79495, -0.29436 ], [ -74.78766, -0.29526 ], [ -74.7726, -0.30141 ], [ -74.7561844, -0.3070387 ], [ -74.75207, -0.30754 ], [ -74.74866, -0.3057 ], [ -74.74136, -0.30499 ], [ -74.7359792, -0.3057257 ], [ -74.73156, -0.30633 ], [ -74.72539, -0.30953 ], [ -74.7167412, -0.3191073 ], [ -74.7103, -0.32624 ], [ -74.70482, -0.32898 ], [ -74.69912, -0.32988 ], [ -74.6843, -0.33052 ], [ -74.67975, -0.33028 ], [ -74.67701, -0.3305 ], [ -74.67405, -0.33049 ], [ -74.6731983, -0.3304398 ], [ -74.66981, -0.33024 ], [ -74.66562, -0.33 ], [ -74.65946, -0.33159 ], [ -74.6584642, -0.3325887 ], [ -74.641601, -0.354489 ], [ -74.63269, -0.36135 ], [ -74.60505, -0.38009 ], [ -74.60753, -0.38768 ], [ -74.6064599, -0.3899288 ], [ -74.60546, -0.39203 ], [ -74.599523, -0.3956882 ], [ -74.5940906, -0.3959339 ], [ -74.5806, -0.39654 ], [ -74.575525, -0.3995035 ], [ -74.56753, -0.4213 ], [ -74.56295, -0.42611 ], [ -74.5595, -0.42685 ], [ -74.5479401, -0.4363032 ], [ -74.54535, -0.43982 ], [ -74.5410821, -0.4484272 ], [ -74.53341, -0.4639 ], [ -74.51991, -0.47947 ], [ -74.5031924, -0.4740111 ], [ -74.49737, -0.47227 ], [ -74.4942483, -0.4809679 ], [ -74.49413, -0.4826 ], [ -74.4951446, -0.486055 ], [ -74.4957, -0.49224 ], [ -74.4935043, -0.4947747 ], [ -74.4927209, -0.4956789 ], [ -74.4889891, -0.4925348 ], [ -74.48068, -0.48553 ], [ -74.47086, -0.48917 ], [ -74.4558546, -0.4992889 ], [ -74.45373, -0.50014 ], [ -74.43181, -0.50833 ], [ -74.4316047, -0.5083282 ], [ -74.43067, -0.50832 ], [ -74.42542, -0.51083 ], [ -74.4213, -0.51541 ], [ -74.4235, -0.53586 ], [ -74.42162, -0.55216 ], [ -74.4218659, -0.5568665 ], [ -74.42204, -0.5602 ], [ -74.40449, -0.56013 ], [ -74.401321, -0.5541519 ], [ -74.39586, -0.55321 ], [ -74.39311, -0.55504 ], [ -74.39035, -0.56146 ], [ -74.38769, -0.60279 ], [ -74.3689, -0.62638 ], [ -74.36546, -0.6328 ], [ -74.36462, -0.6362531 ], [ -74.3638404, -0.6394585 ], [ -74.36451, -0.64405 ], [ -74.37038, -0.6567 ], [ -74.37263, -0.66452 ], [ -74.3422, -0.69519 ], [ -74.34508, -0.71541 ], [ -74.3541619, -0.7257805 ], [ -74.37262, -0.73044 ], [ -74.37626, -0.73275 ], [ -74.3746, -0.74998 ], [ -74.34326, -0.77559 ], [ -74.3164208, -0.7756123 ], [ -74.31498, -0.77732 ], [ -74.31498, -0.7773245 ], [ -74.31496, -0.78238 ], [ -74.3159084, -0.788483 ], [ -74.31696, -0.79525 ], [ -74.29119, -0.79608 ], [ -74.28663, -0.79629 ], [ -74.2838515, -0.8061541 ], [ -74.28995, -0.82295 ], [ -74.2731425, -0.845296 ], [ -74.26706, -0.84445 ], [ -74.26801, -0.89087 ], [ -74.3151132, -0.8915073 ], [ -74.31612, -0.89357 ], [ -74.31057, -0.91583 ], [ -74.28318, -0.92079 ], [ -74.27119, -0.95313 ], [ -74.26683, -0.96116 ], [ -74.2636, -0.97011 ], [ -74.2693901, -0.9789234 ], [ -74.27541, -0.9821 ], [ -74.26597, -1.00711 ], [ -74.22321, -1.03153 ], [ -74.15705, -1.03634 ], [ -74.12662, -1.05828 ], [ -74.07384, -1.08105 ], [ -74.051651, -1.0529158 ], [ -74.05073, -1.04282 ], [ -74.0376079, -1.0278864 ], [ -74.03664, -1.02783 ], [ -74.02844, -1.08064 ], [ -74.01276, -1.12263 ], [ -73.99722, -1.12969 ], [ -73.96173, -1.10519 ], [ -73.95828, -1.11115 ], [ -73.96005, -1.12311 ], [ -73.962607, -1.1293111 ], [ -73.94283, -1.15061 ], [ -73.90451, -1.14953 ], [ -73.89613, -1.18902 ], [ -73.86644, -1.24589 ], [ -73.79177, -1.25959 ], [ -73.76661, -1.2735 ], [ -73.75716, -1.24428 ], [ -73.75599, -1.23947 ], [ -73.75452, -1.22267 ], [ -73.7507764, -1.220336 ], [ -73.73151, -1.26738 ], [ -73.68135, -1.25774 ], [ -73.64835, -1.28816 ], [ -73.62373, -1.28299 ], [ -73.6157, -1.34316 ], [ -73.5805708, -1.3400189 ], [ -73.57441, -1.33999 ], [ -73.57776, -1.35609 ], [ -73.5784, -1.3646 ], [ -73.58063, -1.37679 ], [ -73.53874, -1.45245 ], [ -73.52689, -1.49376 ], [ -73.4952697, -1.5104788 ], [ -73.49395, -1.51085 ], [ -73.49051, -1.51428 ], [ -73.48888, -1.52025 ], [ -73.48624, -1.5469 ], [ -73.48234, -1.55217 ], [ -73.4817372, -1.5575613 ], [ -73.48635, -1.57104 ], [ -73.49267, -1.58417 ], [ -73.48277, -1.60252 ], [ -73.47981, -1.60319 ], [ -73.4763014, -1.6000766 ], [ -73.4753295, -1.5993885 ], [ -73.47139, -1.59671 ], [ -73.46148, -1.61644 ], [ -73.49785, -1.64833 ], [ -73.52631, -1.71076 ], [ -73.53312, -1.71883 ], [ -73.52663, -1.74041 ], [ -73.4886, -1.76645 ], [ -73.45845, -1.76907 ], [ -73.43209, -1.79101 ], [ -73.4139, -1.82127 ], [ -73.38429, -1.80711 ], [ -73.32777, -1.83397 ], [ -73.30406, -1.8265 ], [ -73.3057, -1.81869 ], [ -73.30526, -1.81432 ], [ -73.3036062, -1.8121847 ], [ -73.26009, -1.80559 ], [ -73.25303, -1.80418 ], [ -73.2489817, -1.8040424 ], [ -73.24548, -1.80713 ], [ -73.2293, -1.79992 ], [ -73.23416, -1.78753 ], [ -73.22964, -1.77877 ], [ -73.21252, -1.77869 ], [ -73.1918007, -1.811689 ], [ -73.14673, -1.82985 ], [ -73.14259, -1.83397 ], [ -73.1398, -1.84476 ], [ -73.13975, -1.85465 ], [ -73.14326, -1.88203 ], [ -73.12076, -1.90444 ], [ -73.11254, -1.90371 ], [ -73.09963, -1.92664 ], [ -73.1119293, -2.0191829 ], [ -73.11282, -2.02396 ], [ -73.1000635, -2.056389 ], [ -73.09392, -2.05652 ], [ -73.09208, -2.05835 ], [ -73.0879944, -2.0608905 ], [ -73.0861221, -2.0641709 ], [ -73.08588, -2.06544 ], [ -73.09407, -2.11354 ], [ -73.08812, -2.11696 ], [ -73.06208, -2.11614 ], [ -73.06354, -2.14213 ], [ -73.09586, -2.16253 ], [ -73.1218, -2.22475 ], [ -73.15598, -2.24125 ], [ -73.15522, -2.25596 ], [ -73.1406, -2.29889 ], [ -73.12637, -2.31147 ], [ -73.12016, -2.31902 ], [ -73.1117337, -2.3291777 ], [ -73.11312, -2.35463 ], [ -73.0957, -2.36582 ], [ -73.0729822, -2.3547653 ], [ -73.06585, -2.3514 ], [ -73.05598, -2.35779 ], [ -73.0561576, -2.368456 ], [ -73.02696, -2.3597101 ], [ -72.9918, -2.39586 ], [ -72.95988, -2.38397 ], [ -72.94086, -2.43584 ], [ -72.93762, -2.44456 ], [ -72.9325617, -2.4500582 ], [ -72.90467, -2.49452 ], [ -72.87917, -2.4776 ], [ -72.8433, -2.47672 ], [ -72.78091, -2.43957 ], [ -72.75058, -2.42837 ], [ -72.74036, -2.45775 ], [ -72.7033533, -2.4163794 ], [ -72.68934, -2.42918 ], [ -72.685432, -2.4328381 ], [ -72.6795481, -2.4428916 ], [ -72.67966, -2.44453 ], [ -72.680571, -2.482947 ], [ -72.65618, -2.47269 ], [ -72.64789, -2.44551 ], [ -72.62651, -2.42882 ], [ -72.6282, -2.4067007 ], [ -72.62847, -2.40607 ], [ -72.62805, -2.39917 ], [ -72.62669, -2.39801 ], [ -72.59701, -2.39485 ], [ -72.58649, -2.39732 ], [ -72.5619, -2.42017 ], [ -72.5582106, -2.4256692 ], [ -72.5540907, -2.4261099 ], [ -72.54631, -2.42928 ], [ -72.53648, -2.43084 ], [ -72.52985, -2.4308 ], [ -72.5245371, -2.4317288 ], [ -72.51841, -2.4328 ], [ -72.5170147, -2.4325828 ], [ -72.51385, -2.43209 ], [ -72.4987717, -2.4308501 ], [ -72.49557, -2.43221 ], [ -72.4876425, -2.4318543 ], [ -72.48575, -2.43146 ], [ -72.4670017, -2.4331898 ], [ -72.45376, -2.4315 ], [ -72.4389, -2.43141 ], [ -72.4316324, -2.4350218 ], [ -72.4295779, -2.4360581 ], [ -72.42355, -2.43914 ], [ -72.4080644, -2.4408904 ], [ -72.40481, -2.43972 ], [ -72.3989306, -2.4354154 ], [ -72.39753, -2.43439 ], [ -72.39099, -2.42009 ], [ -72.35857, -2.45439 ], [ -72.3539793, -2.4812857 ], [ -72.35335, -2.48472 ], [ -72.3525712, -2.4853239 ], [ -72.346, -2.49042 ], [ -72.3420745, -2.4902053 ], [ -72.34143, -2.49017 ], [ -72.3401265, -2.4895025 ], [ -72.33688, -2.48784 ], [ -72.3279022, -2.4846391 ], [ -72.32639, -2.4841 ], [ -72.3170008, -2.4829605 ], [ -72.28461, -2.47763 ], [ -72.2793712, -2.4759904 ], [ -72.2577819, -2.4565404 ], [ -72.2477027, -2.4606189 ], [ -72.24268, -2.46013 ], [ -72.2402264, -2.4485945 ], [ -72.24093, -2.44816 ], [ -72.24145, -2.43827 ], [ -72.2408288, -2.4376396 ], [ -72.24009, -2.43689 ], [ -72.2358857, -2.4356466 ], [ -72.23211, -2.43453 ], [ -72.2247804, -2.433567 ], [ -72.2062511, -2.4398895 ], [ -72.19825, -2.44122 ], [ -72.18406, -2.44435 ], [ -72.17743, -2.44221 ], [ -72.1766948, -2.4419758 ], [ -72.17608, -2.44178 ], [ -72.17131, -2.43669 ], [ -72.162, -2.42835 ], [ -72.1549557, -2.4276231 ], [ -72.15308, -2.42967 ], [ -72.14642, -2.434 ], [ -72.1437928, -2.4407192 ], [ -72.14364, -2.44111 ], [ -72.1438982, -2.4451726 ], [ -72.14536, -2.45653 ], [ -72.1425609, -2.465487 ], [ -72.12088, -2.46259 ], [ -72.1197654, -2.4598481 ], [ -72.1164226, -2.450653 ], [ -72.11664, -2.44623 ], [ -72.11467, -2.43357 ], [ -72.11586, -2.42599 ], [ -72.115801, -2.4257573 ], [ -72.11475, -2.42161 ], [ -72.1103182, -2.4140092 ], [ -72.06548, -2.37324 ], [ -72.04986, -2.35198 ], [ -72.04217, -2.33997 ], [ -72.0397068, -2.3368893 ], [ -72.02029, -2.3327 ], [ -71.978695, -2.3649334 ], [ -71.97712, -2.36531 ], [ -71.9749805, -2.3654269 ], [ -71.97346, -2.36551 ], [ -71.95021, -2.35754 ], [ -71.9406842, -2.3539849 ], [ -71.9322, -2.35259 ], [ -71.9285397, -2.3538664 ], [ -71.9119412, -2.3749999 ], [ -71.90715, -2.37336 ], [ -71.9117, -2.34165 ], [ -71.91911, -2.32721 ], [ -71.92123, -2.31849 ], [ -71.9190819, -2.3118539 ], [ -71.91899, -2.31157 ], [ -71.91618, -2.30978 ], [ -71.88451, -2.30882 ], [ -71.8759763, -2.3094394 ], [ -71.8749242, -2.3091485 ], [ -71.86877, -2.3071 ], [ -71.86104, -2.30038 ], [ -71.85707, -2.2910491 ], [ -71.8405275, -2.2355123 ], [ -71.83034, -2.21233 ], [ -71.82855, -2.20795 ], [ -71.8280466, -2.204027 ], [ -71.82725, -2.19782 ], [ -71.8196174, -2.1859701 ], [ -71.81797, -2.18535 ], [ -71.79803, -2.1951 ], [ -71.7972771, -2.1950959 ], [ -71.79437, -2.19508 ], [ -71.78373, -2.18236 ], [ -71.7798208, -2.1780072 ], [ -71.77624, -2.17402 ], [ -71.77102, -2.17077 ], [ -71.76804, -2.17098 ], [ -71.76212, -2.16887 ], [ -71.75893, -2.16701 ], [ -71.7495251, -2.1626602 ], [ -71.74597, -2.15934 ], [ -71.7419631, -2.154793 ], [ -71.7418551, -2.1544853 ], [ -71.74014, -2.14343 ], [ -71.7378064, -2.1399331 ], [ -71.7180841, -2.1288792 ], [ -71.7171708, -2.1290199 ], [ -71.7129853, -2.1319858 ], [ -71.7056, -2.1501 ], [ -71.70484, -2.1609 ], [ -71.7099033, -2.1774085 ], [ -71.71445, -2.19224 ], [ -71.7156997, -2.1984883 ], [ -71.71643, -2.20214 ], [ -71.715626, -2.2046169 ], [ -71.71457, -2.20787 ], [ -71.6961267, -2.2174582 ], [ -71.69417, -2.21716 ], [ -71.6896909, -2.2161647 ], [ -71.68778, -2.21574 ], [ -71.6703953, -2.2021837 ], [ -71.66234, -2.19648 ], [ -71.64866, -2.19294 ], [ -71.6399647, -2.1916618 ], [ -71.63383, -2.19076 ], [ -71.63193, -2.19074 ], [ -71.6165427, -2.1968876 ], [ -71.60631, -2.2046 ], [ -71.59229, -2.21646 ], [ -71.57305, -2.22529 ], [ -71.5386814, -2.232149 ], [ -71.53712, -2.23263 ], [ -71.52223, -2.23896 ], [ -71.50761, -2.2384 ], [ -71.4986, -2.25283 ], [ -71.4997, -2.25881 ], [ -71.4998268, -2.2701671 ], [ -71.49998, -2.28388 ], [ -71.50056, -2.29768 ], [ -71.497, -2.31583 ], [ -71.4967418, -2.3164363 ], [ -71.49329, -2.32454 ], [ -71.4760668, -2.3382602 ], [ -71.4753635, -2.3382102 ], [ -71.46854, -2.33356 ], [ -71.46697, -2.33161 ], [ -71.4622, -2.3257 ], [ -71.46734, -2.31056 ], [ -71.4721555, -2.3024179 ], [ -71.47452, -2.29842 ], [ -71.4763, -2.27245 ], [ -71.47041, -2.26643 ], [ -71.465706, -2.2643582 ], [ -71.46403, -2.26362 ], [ -71.4553646, -2.2610116 ], [ -71.4492, -2.26053 ], [ -71.42873, -2.27992 ], [ -71.4211628, -2.2896606 ], [ -71.4187552, -2.2941042 ], [ -71.41648, -2.29915 ], [ -71.39596, -2.32384 ], [ -71.39135, -2.33071 ], [ -71.37615, -2.34647 ], [ -71.3761461, -2.3471804 ], [ -71.37655, -2.35498 ], [ -71.37856, -2.36121 ], [ -71.38439, -2.3755 ], [ -71.3843924, -2.3755085 ], [ -71.3845586, -2.3760988 ], [ -71.38595, -2.38104 ], [ -71.3837818, -2.3905305 ], [ -71.3835904, -2.3913684 ], [ -71.3814133, -2.3945065 ], [ -71.3809909, -2.395056 ], [ -71.37486, -2.39775 ], [ -71.3584335, -2.3915475 ], [ -71.34847, -2.38329 ], [ -71.34164, -2.37934 ], [ -71.33935, -2.37886 ], [ -71.30511, -2.37631 ], [ -71.29184, -2.3477 ], [ -71.2867057, -2.3413353 ], [ -71.28437, -2.33844 ], [ -71.27067, -2.33719 ], [ -71.26427, -2.33783 ], [ -71.24935, -2.34669 ], [ -71.24752, -2.3476 ], [ -71.24431, -2.34896 ], [ -71.2437779, -2.3490148 ], [ -71.237429, -2.3497188 ], [ -71.23653, -2.34982 ], [ -71.23312, -2.34796 ], [ -71.22015, -2.34165 ], [ -71.21329, -2.34091 ], [ -71.212613, -2.341203 ], [ -71.20756, -2.34339 ], [ -71.2029707, -2.3470395 ], [ -71.19096, -2.36374 ], [ -71.1887932, -2.3656966 ], [ -71.18591, -2.3683 ], [ -71.17443, -2.37442 ], [ -71.16483, -2.37573 ], [ -71.1598375, -2.3720046 ], [ -71.1530697, -2.3469819 ], [ -71.15183, -2.34183 ], [ -71.1485717, -2.3390509 ], [ -71.1463909, -2.3371908 ], [ -71.11895, -2.3402 ], [ -71.11487, -2.33603 ], [ -71.1135859, -2.3315429 ], [ -71.113331, -2.3291558 ], [ -71.11799, -2.31651 ], [ -71.11368, -2.2829 ], [ -71.10432, -2.28237 ], [ -71.08495, -2.27555 ], [ -71.07811, -2.27366 ], [ -71.07358, -2.26949 ], [ -71.0705895, -2.2690342 ], [ -71.06515, -2.26643 ], [ -71.05694, -2.2643 ], [ -71.05169, -2.26357 ], [ -71.02056, -2.27115 ], [ -71.015898, -2.2761946 ], [ -70.9856329, -2.29756 ], [ -70.9844298, -2.2964417 ], [ -70.9775, -2.28531 ], [ -70.99311, -2.24726 ], [ -70.99727, -2.24131 ], [ -70.99908, -2.21464 ], [ -70.99298, -2.20517 ], [ -70.98705, -2.2042 ], [ -70.9807088, -2.204689 ], [ -70.97914, -2.20481 ], [ -70.95984, -2.20791 ], [ -70.94296, -2.2349 ], [ -70.93765, -2.24016 ], [ -70.92802, -2.24537 ], [ -70.9235838, -2.2455856 ], [ -70.9197925, -2.2457699 ], [ -70.91113, -2.2434 ], [ -70.9001258, -2.2375398 ], [ -70.88869, -2.22207 ], [ -70.88255, -2.21903 ], [ -70.84941, -2.22015 ], [ -70.8261, -2.27884 ], [ -70.78854, -2.29073 ], [ -70.78123, -2.28906 ], [ -70.77212, -2.28623 ], [ -70.7711609, -2.2862987 ], [ -70.7664, -2.28664 ], [ -70.7632014, -2.2885461 ], [ -70.7564236, -2.2960612 ], [ -70.7546613, -2.2980485 ], [ -70.7409906, -2.3216292 ], [ -70.73365, -2.32548 ], [ -70.7277464, -2.3286413 ], [ -70.72562, -2.32978 ], [ -70.72172, -2.33021 ], [ -70.6942603, -2.3364013 ], [ -70.68854, -2.33753 ], [ -70.67435, -2.34041 ], [ -70.66747, -2.34495 ], [ -70.6582402, -2.3511454 ], [ -70.65642, -2.35453 ], [ -70.6553145, -2.3602323 ], [ -70.6552201, -2.3607209 ], [ -70.6563, -2.36809 ], [ -70.65856, -2.37133 ], [ -70.66889, -2.3928 ], [ -70.66724, -2.399 ], [ -70.65986, -2.40745 ], [ -70.6561555, -2.4095656 ], [ -70.61994, -2.39976 ], [ -70.6189153, -2.4039454 ], [ -70.62862, -2.45457 ], [ -70.62789, -2.46054 ], [ -70.62508, -2.46788 ], [ -70.61978, -2.47381 ], [ -70.6106, -2.47834 ], [ -70.6099145, -2.4790225 ], [ -70.5947873, -2.4835876 ], [ -70.58418, -2.48448 ], [ -70.5836097, -2.4845356 ], [ -70.58336, -2.48456 ], [ -70.57789, -2.48267 ], [ -70.57029, -2.4785929 ], [ -70.55991, -2.47448 ], [ -70.5557759, -2.4733438 ], [ -70.5499, -2.46957 ], [ -70.54902, -2.46473 ], [ -70.5500026, -2.4617612 ], [ -70.55183, -2.45624 ], [ -70.5719567, -2.437001 ], [ -70.58105, -2.4321 ], [ -70.58383, -2.42799 ], [ -70.5837675, -2.4271243 ], [ -70.58363, -2.42522 ], [ -70.57866, -2.41874 ], [ -70.5767858, -2.4181883 ], [ -70.57387, -2.41733 ], [ -70.562, -2.41539 ], [ -70.5598623, -2.4157541 ], [ -70.5556, -2.41648 ], [ -70.5538377, -2.4172657 ], [ -70.5422115, -2.4240404 ], [ -70.53745, -2.42737 ], [ -70.5101137, -2.4635115 ], [ -70.50812, -2.46485 ], [ -70.49574, -2.46958 ], [ -70.492554, -2.4693764 ], [ -70.48729, -2.46904 ], [ -70.4745706, -2.4604304 ], [ -70.4742299, -2.4600483 ], [ -70.46982, -2.4551 ], [ -70.4447, -2.47973 ], [ -70.4436815, -2.4820293 ], [ -70.43806, -2.50704 ], [ -70.41232, -2.52431 ], [ -70.40755, -2.52128 ], [ -70.364865, -2.4935492 ], [ -70.35387, -2.49346 ], [ -70.3321, -2.49994 ], [ -70.32088, -2.50168 ], [ -70.30675, -2.49812 ], [ -70.3021058, -2.5025207 ], [ -70.30122, -2.50336 ], [ -70.30119, -2.50612 ], [ -70.30011, -2.52589 ], [ -70.30238, -2.52706 ], [ -70.305768, -2.5298311 ], [ -70.30919, -2.53263 ], [ -70.3265209, -2.5366896 ], [ -70.3280405, -2.5360395 ], [ -70.33019, -2.53512 ], [ -70.33172, -2.53525 ], [ -70.3335192, -2.5354093 ], [ -70.3359, -2.53562 ], [ -70.3385206, -2.5371562 ], [ -70.33909, -2.53749 ], [ -70.34251, -2.53706 ], [ -70.35048, -2.54104 ], [ -70.3567301, -2.548497 ], [ -70.35748, -2.55121 ], [ -70.3554585, -2.5592552 ], [ -70.35049, -2.5668 ], [ -70.3451524, -2.5707516 ], [ -70.3377167, -2.5743258 ], [ -70.33281, -2.57585 ], [ -70.31636, -2.57548 ], [ -70.3006638, -2.5687287 ], [ -70.28679, -2.55935 ], [ -70.2791151, -2.5512151 ], [ -70.26362, -2.54374 ], [ -70.2573331, -2.5438316 ], [ -70.2326, -2.5628 ], [ -70.22999, -2.57382 ], [ -70.22901, -2.58186 ], [ -70.22565, -2.60023 ], [ -70.22625, -2.6094296 ], [ -70.21355, -2.65003 ], [ -70.2081348, -2.652506 ], [ -70.201172, -2.6538397 ], [ -70.1985153, -2.6531004 ], [ -70.18129, -2.62928 ], [ -70.1793432, -2.6291381 ], [ -70.1736718, -2.630133 ], [ -70.17281, -2.63036 ], [ -70.16567, -2.63651 ], [ -70.16382, -2.63971 ], [ -70.16222, -2.67597 ], [ -70.16345, -2.68111 ], [ -70.1631752, -2.6856423 ], [ -70.15021, -2.70492 ], [ -70.146785, -2.7052696 ], [ -70.14198, -2.70576 ], [ -70.13331, -2.70385 ], [ -70.12671, -2.70057 ], [ -70.11967, -2.69522 ], [ -70.10978, -2.67673 ], [ -70.1076749, -2.6674317 ], [ -70.10226, -2.64837 ], [ -70.09976, -2.64628 ], [ -70.09293, -2.64415 ], [ -70.0873926, -2.6492622 ], [ -70.07608, -2.66195 ], [ -70.07534, -2.66341 ], [ -70.07213, -2.66973 ], [ -70.0719223, -2.6709722 ], [ -70.07067, -2.67846 ], [ -70.07082, -2.6872 ], [ -70.07144, -2.6948 ], [ -70.0720838, -2.7047763 ], [ -70.07245, -2.71045 ], [ -70.06214, -2.73819 ], [ -70.0593127, -2.7397353 ], [ -70.0341, -2.76051 ], [ -70.05292, -2.7922 ], [ -70.073608, -2.8242328 ], [ -70.11018, -2.88086 ], [ -70.1598398, -2.9572244 ], [ -70.18263, -2.99227 ], [ -70.22195, -3.05242 ], [ -70.3312225, -3.2186605 ], [ -70.37502, -3.28669 ], [ -70.44005, -3.38615 ], [ -70.475, -3.44164 ], [ -70.4859451, -3.4579219 ], [ -70.48779, -3.46025 ], [ -70.504943, -3.487264 ], [ -70.51061, -3.49563 ], [ -70.54845, -3.55407 ], [ -70.61001, -3.64919 ], [ -70.67709, -3.75236 ], [ -70.69087, -3.77433 ], [ -70.6920016, -3.7757965 ], [ -70.69337, -3.77757 ], [ -70.69765, -3.78543 ], [ -70.6984061, -3.7860075 ], [ -70.7000199, -3.7879515 ], [ -70.7032871, -3.7946741 ], [ -70.7001432, -3.7942456 ], [ -70.69461, -3.79258 ], [ -70.68246, -3.79454 ], [ -70.66355, -3.80979 ], [ -70.65263, -3.8274 ], [ -70.64734, -3.83011 ], [ -70.6400839, -3.8299448 ], [ -70.62511, -3.83244 ], [ -70.61512, -3.84219 ], [ -70.6125734, -3.8431872 ], [ -70.61203, -3.8434 ], [ -70.60723, -3.84175 ], [ -70.59971, -3.83824 ], [ -70.5919713, -3.8331109 ], [ -70.5891845, -3.832552 ], [ -70.58603, -3.83192 ], [ -70.57641, -3.83276 ], [ -70.5517386, -3.852735 ], [ -70.55078, -3.85389 ], [ -70.52844, -3.87561 ], [ -70.5197621, -3.880082 ], [ -70.5011369, -3.8837128 ], [ -70.49655, -3.88386 ], [ -70.4942322, -3.8840335 ], [ -70.46636, -3.88154 ], [ -70.4545, -3.87661 ], [ -70.4364996, -3.8655254 ], [ -70.43356, -3.86292 ], [ -70.4000235, -3.8481321 ], [ -70.39505, -3.8416 ], [ -70.38577, -3.83186 ], [ -70.37875, -3.82283 ], [ -70.3756221, -3.8195386 ], [ -70.37148, -3.81518 ], [ -70.3652915, -3.8106259 ], [ -70.36262, -3.80866 ], [ -70.3615438, -3.8081644 ], [ -70.34915, -3.80441 ], [ -70.3460077, -3.8042918 ], [ -70.3350851, -3.804605 ], [ -70.32626, -3.80537 ], [ -70.29484, -3.81269 ], [ -70.24259, -3.87114 ], [ -70.18634, -3.8909 ], [ -70.15413, -3.98167 ], [ -70.13352, -4.00984 ], [ -70.09161, -4.03045 ], [ -70.05754, -4.08648 ], [ -70.04846, -4.10411 ], [ -70.03196, -4.12996 ], [ -69.95946, -4.21257 ], [ -69.9534221, -4.2304838 ], [ -69.95342, -4.23049 ], [ -69.94945, -4.24588 ], [ -69.95281, -4.262 ], [ -69.99063, -4.32035 ], [ -69.98926, -4.35058 ], [ -70.02498, -4.36501 ], [ -70.03529, -4.36913 ], [ -70.04421, -4.35677 ], [ -70.03666, -4.34578 ], [ -70.03995, -4.32668 ], [ -70.07591, -4.30934 ], [ -70.0732107, -4.3042513 ], [ -70.0483463, -4.2935369 ], [ -70.04288, -4.29064 ], [ -70.09198, -4.28003 ], [ -70.10708, -4.25578 ], [ -70.10935, -4.25833 ], [ -70.1133039, -4.2756575 ], [ -70.11581, -4.2784 ], [ -70.1466, -4.26694 ], [ -70.16197, -4.28916 ], [ -70.1564, -4.29831 ], [ -70.16477, -4.3092 ], [ -70.17165, -4.30811 ], [ -70.17562, -4.32539 ], [ -70.17413, -4.3378 ], [ -70.17543, -4.34679 ], [ -70.1818825, -4.3547038 ], [ -70.1976366, -4.3491031 ], [ -70.20158, -4.34149 ], [ -70.20187, -4.33437 ], [ -70.21068, -4.29763 ], [ -70.21363, -4.29972 ], [ -70.21711, -4.3076 ], [ -70.2205, -4.31223 ], [ -70.2623272, -4.2945864 ], [ -70.26193, -4.29216 ], [ -70.24779, -4.28489 ], [ -70.2432128, -4.2762845 ], [ -70.2579198, -4.2711115 ], [ -70.26209, -4.27467 ], [ -70.2717058, -4.2789211 ], [ -70.2769411, -4.2819708 ], [ -70.28305, -4.28684 ], [ -70.2857937, -4.2868628 ], [ -70.2890775, -4.2856014 ], [ -70.29133, -4.28324 ], [ -70.28976, -4.28023 ], [ -70.27931, -4.27093 ], [ -70.3062383, -4.2465696 ], [ -70.305, -4.24311 ], [ -70.27858, -4.2279 ], [ -70.2774811, -4.2230568 ], [ -70.2853821, -4.1815089 ], [ -70.28599, -4.17252 ], [ -70.28793, -4.1615 ], [ -70.3259, -4.14139 ], [ -70.3266157, -4.1439272 ], [ -70.32746, -4.14692 ], [ -70.32641, -4.16049 ], [ -70.3266778, -4.1618693 ], [ -70.32793, -4.16832 ], [ -70.3287079, -4.1692026 ], [ -70.35272, -4.16419 ], [ -70.37252, -4.12826 ], [ -70.43415, -4.12538 ], [ -70.44184, -4.13604 ], [ -70.43276, -4.1516 ], [ -70.43522, -4.15691 ], [ -70.47604, -4.15269 ], [ -70.5109356, -4.1859005 ], [ -70.51148, -4.18247 ], [ -70.50434, -4.16285 ], [ -70.50327, -4.15433 ], [ -70.5131, -4.13234 ], [ -70.55294, -4.13316 ], [ -70.543, -4.14273 ], [ -70.54228, -4.14618 ], [ -70.54385, -4.14964 ], [ -70.55588, -4.16103 ], [ -70.5535468, -4.170596 ], [ -70.55219, -4.17858 ], [ -70.5530642, -4.1926563 ], [ -70.57243, -4.2042 ], [ -70.57315, -4.2003 ], [ -70.56374, -4.17859 ], [ -70.5630871, -4.1753949 ], [ -70.62046, -4.18623 ], [ -70.63273, -4.17255 ], [ -70.63171, -4.15919 ], [ -70.6151954, -4.1280244 ], [ -70.65048, -4.13521 ], [ -70.64848, -4.15268 ], [ -70.64957, -4.16005 ], [ -70.65324, -4.15893 ], [ -70.66744, -4.13444 ], [ -70.6649704, -4.1532869 ], [ -70.665614, -4.1579118 ], [ -70.66927, -4.18415 ], [ -70.6717682, -4.1906068 ], [ -70.72197, -4.18118 ], [ -70.74789, -4.15197 ], [ -70.78314, -4.17851 ], [ -70.8004423, -4.1779646 ], [ -70.80299, -4.18674 ], [ -70.81554, -4.19306 ], [ -70.82161, -4.20531 ], [ -70.82617, -4.20765 ], [ -70.8392, -4.20961 ], [ -70.84529, -4.22071 ], [ -70.8155486, -4.2243329 ], [ -70.81684, -4.22667 ], [ -70.82455, -4.23478 ], [ -70.82494, -4.24307 ], [ -70.82696, -4.24608 ], [ -70.83338, -4.24706 ], [ -70.86203, -4.24432 ], [ -70.8631, -4.25284 ], [ -70.8439, -4.27384 ], [ -70.85783, -4.27741 ], [ -70.87512, -4.29137 ], [ -70.8755, -4.29943 ], [ -70.87466, -4.31713 ], [ -70.8756626, -4.3182877 ], [ -70.89954, -4.32632 ], [ -70.9037136, -4.3365196 ], [ -70.91031, -4.35264 ], [ -70.93138, -4.35237 ], [ -70.93293, -4.35906 ], [ -70.9311813, -4.3787635 ], [ -70.93479, -4.38116 ], [ -70.96739, -4.37362 ], [ -70.97538, -4.35045 ], [ -70.99674, -4.34443 ], [ -70.99556, -4.34741 ], [ -70.9874133, -4.3762706 ], [ -70.98931, -4.37724 ], [ -71.01867, -4.37752 ], [ -71.02383, -4.39067 ], [ -71.0315505, -4.39718 ], [ -71.03706, -4.39723 ], [ -71.04671, -4.36603 ], [ -71.05127, -4.36952 ], [ -71.05443, -4.3746 ], [ -71.0561703, -4.3796828 ], [ -71.0780702, -4.36952 ], [ -71.1072724, -4.3760203 ], [ -71.10778, -4.3776 ], [ -71.10689, -4.40152 ], [ -71.1088286, -4.4032147 ], [ -71.14879, -4.37772 ], [ -71.1476424, -4.3832094 ], [ -71.1483095, -4.395138 ], [ -71.14885, -4.39681 ], [ -71.18259, -4.38997 ], [ -71.1846, -4.39527 ], [ -71.1846182, -4.4136941 ], [ -71.18875, -4.41969 ], [ -71.215, -4.37713 ], [ -71.2168, -4.38082 ], [ -71.21732, -4.40038 ], [ -71.22098, -4.40087 ], [ -71.23148, -4.37888 ], [ -71.2797, -4.39262 ], [ -71.27761, -4.39491 ], [ -71.26067, -4.39339 ], [ -71.2621703, -4.3986475 ], [ -71.26301, -4.40159 ], [ -71.2604605, -4.4184588 ], [ -71.2642818, -4.4267712 ], [ -71.28344, -4.43706 ], [ -71.3152502, -4.4133906 ], [ -71.3161972, -4.4160633 ], [ -71.29759, -4.44339 ], [ -71.3047767, -4.4583907 ], [ -71.30685, -4.4591 ], [ -71.33568, -4.4368 ], [ -71.34022, -4.44144 ], [ -71.3433319, -4.4344456 ], [ -71.34075, -4.43247 ], [ -71.38001, -4.42267 ], [ -71.3962059, -4.4309845 ], [ -71.39755, -4.43478 ], [ -71.39637, -4.4391399 ], [ -71.40709, -4.4436 ], [ -71.42683, -4.46792 ], [ -71.4318613, -4.4691075 ], [ -71.4300338, -4.4640413 ], [ -71.42664, -4.46309 ], [ -71.4307629, -4.4462105 ], [ -71.43069, -4.44471 ], [ -71.4153977, -4.4374566 ], [ -71.41268, -4.43352 ], [ -71.43678, -4.42797 ], [ -71.43372, -4.43737 ], [ -71.4340716, -4.4386007 ], [ -71.43484, -4.44129 ], [ -71.4495851, -4.4400866 ], [ -71.45044, -4.43866 ], [ -71.45099, -4.42786 ], [ -71.4757299, -4.4278245 ], [ -71.47538, -4.4425401 ], [ -71.47716, -4.44969 ], [ -71.47989, -4.45155 ], [ -71.50863, -4.43844 ], [ -71.50282, -4.44852 ], [ -71.48998, -4.47878 ], [ -71.49407, -4.4818 ], [ -71.51528, -4.46564 ], [ -71.51762, -4.45945 ], [ -71.53481, -4.45959 ], [ -71.53672, -4.46297 ], [ -71.53395, -4.48052 ], [ -71.536209, -4.4801952 ], [ -71.54362, -4.47439 ], [ -71.55254, -4.47607 ], [ -71.5492707, -4.4843202 ], [ -71.55773, -4.48669 ], [ -71.5633242, -4.4978182 ], [ -71.5670459, -4.5040164 ], [ -71.57287, -4.51188 ], [ -71.5830481, -4.5184853 ], [ -71.59728, -4.52451 ], [ -71.63088, -4.50683 ], [ -71.629677, -4.5041477 ], [ -71.6198412, -4.4979598 ], [ -71.61813, -4.496 ], [ -71.61609, -4.4653 ], [ -71.6188952, -4.46771 ], [ -71.62259, -4.48352 ], [ -71.6245776, -4.4863904 ], [ -71.62644, -4.48908 ], [ -71.6303838, -4.4910477 ], [ -71.6358, -4.49375 ], [ -71.6394454, -4.4974756 ], [ -71.64125, -4.49932 ], [ -71.6437321, -4.4987153 ], [ -71.65525, -4.46837 ], [ -71.65613, -4.47228 ], [ -71.6532, -4.49481 ], [ -71.65935, -4.49946 ], [ -71.69963, -4.50506 ], [ -71.7325, -4.49175 ], [ -71.74758, -4.46703 ], [ -71.7461375, -4.4704037 ], [ -71.74468, -4.48633 ], [ -71.7563801, -4.4987131 ], [ -71.7565, -4.49884 ], [ -71.76198, -4.49792 ], [ -71.78184, -4.48109 ], [ -71.7772, -4.48865 ], [ -71.78333, -4.4956 ], [ -71.7863451, -4.4928276 ], [ -71.78843, -4.48758 ], [ -71.78735, -4.48044 ], [ -71.78873, -4.47884 ], [ -71.80102, -4.48929 ], [ -71.80437, -4.50036 ], [ -71.80944, -4.49626 ], [ -71.82826, -4.49341 ], [ -71.8249417, -4.4975041 ], [ -71.82631, -4.50953 ], [ -71.82904, -4.50929 ], [ -71.83551, -4.50267 ], [ -71.84258, -4.5064 ], [ -71.8520255, -4.5096636 ], [ -71.85622, -4.52054 ], [ -71.87783, -4.51128 ], [ -71.88031, -4.51567 ], [ -71.8803168, -4.5156654 ], [ -71.88676, -4.51134 ], [ -71.89826, -4.5131653 ], [ -71.8998, -4.51558 ], [ -71.8918231, -4.5186514 ], [ -71.88395, -4.5203 ], [ -71.88025, -4.52395 ], [ -71.88088, -4.53178 ], [ -71.8857, -4.53135 ], [ -71.89698, -4.52338 ], [ -71.91251, -4.52995 ], [ -71.911696, -4.530672 ], [ -71.91021, -4.53199 ], [ -71.90176, -4.52848 ], [ -71.9007041, -4.5303165 ], [ -71.89873, -4.53375 ], [ -71.9208645, -4.5563226 ], [ -71.92239, -4.55648 ], [ -71.92466, -4.55994 ], [ -71.92187, -4.56475 ], [ -71.92983, -4.57286 ], [ -71.9372661, -4.5742928 ], [ -71.9410387, -4.5751781 ], [ -71.94101, -4.5787 ], [ -71.94537, -4.60772 ], [ -71.9533736, -4.6060982 ], [ -71.95524, -4.60572 ], [ -71.95888, -4.60943 ], [ -71.9634841, -4.6096702 ], [ -71.96761, -4.60628 ], [ -71.98024, -4.60246 ], [ -71.983489, -4.6042185 ], [ -71.97481, -4.62312 ], [ -71.9862112, -4.6250055 ], [ -71.98648, -4.62505 ], [ -71.99045, -4.62672 ], [ -72.0019432, -4.629483 ], [ -72.00249, -4.62954 ], [ -72.03186, -4.6247 ], [ -72.0362, -4.62588 ], [ -72.0366422, -4.625837 ], [ -72.04721, -4.62481 ], [ -72.05322, -4.64786 ], [ -72.0502, -4.65313 ], [ -72.05661, -4.67197 ], [ -72.06015, -4.67183 ], [ -72.06592, -4.66659 ], [ -72.07004, -4.66685 ], [ -72.07505, -4.6708 ], [ -72.09985, -4.69467 ], [ -72.10552, -4.703 ], [ -72.10886, -4.71659 ], [ -72.12026, -4.72381 ], [ -72.1283, -4.7218 ], [ -72.14141, -4.71499 ], [ -72.14554, -4.71456 ], [ -72.14944, -4.71623 ], [ -72.15421, -4.7270268 ], [ -72.15938, -4.73307 ], [ -72.1759066, -4.7386356 ], [ -72.18658, -4.74223 ], [ -72.19205, -4.74664 ], [ -72.2001724, -4.7602239 ], [ -72.21718, -4.75718 ], [ -72.2190874, -4.7749413 ], [ -72.2381935, -4.7778587 ], [ -72.23973, -4.77689 ], [ -72.25106, -4.76317 ], [ -72.25005, -4.77582 ], [ -72.2516, -4.78273 ], [ -72.25524, -4.78713 ], [ -72.2590408, -4.7881813 ], [ -72.26118, -4.78878 ], [ -72.26441, -4.78696 ], [ -72.26633, -4.77501 ], [ -72.27369, -4.77092 ], [ -72.2805326, -4.7727188 ], [ -72.28902, -4.77495 ], [ -72.31538, -4.77513 ], [ -72.31396, -4.7811 ], [ -72.3116418, -4.7831744 ], [ -72.3091119, -4.7854383 ], [ -72.29739, -4.7895 ], [ -72.31588, -4.80021 ], [ -72.32487, -4.79406 ], [ -72.32922, -4.7934 ], [ -72.34887, -4.80205 ], [ -72.35574, -4.80348 ], [ -72.35708, -4.80786 ], [ -72.356064, -4.8208336 ], [ -72.36086, -4.82422 ], [ -72.3616055, -4.8307363 ], [ -72.3685, -4.87672 ], [ -72.4173, -4.9134 ], [ -72.45423, -4.91021 ], [ -72.4528598, -4.9126019 ], [ -72.44727, -4.92236 ], [ -72.45456, -4.96151 ], [ -72.50389, -4.95449 ], [ -72.54646, -4.99802 ], [ -72.582, -4.99665 ], [ -72.58949, -5.04087 ], [ -72.6302317, -5.0508011 ], [ -72.6338235, -5.0532113 ], [ -72.64096, -5.058 ], [ -72.6460311, -5.0529802 ], [ -72.6632401, -5.0599867 ], [ -72.66506, -5.0531 ], [ -72.668523, -5.0494499 ], [ -72.6753867, -5.0493289 ], [ -72.71875, -5.04794 ], [ -72.7380588, -5.058832 ], [ -72.73791, -5.06301 ], [ -72.74016, -5.06901 ], [ -72.76535, -5.07332 ], [ -72.7783207, -5.0934272 ], [ -72.78216, -5.09505 ], [ -72.79135, -5.09442 ], [ -72.8264901, -5.083831 ], [ -72.82719, -5.11788 ], [ -72.86592, -5.11974 ], [ -72.87572, -5.12854 ], [ -72.89562, -5.13626 ], [ -72.88972, -5.16129 ], [ -72.8779036, -5.1671272 ], [ -72.87048, -5.20443 ], [ -72.8712308, -5.2071223 ], [ -72.87336, -5.24445 ], [ -72.8729543, -5.2458105 ], [ -72.8717208, -5.2499531 ], [ -72.898, -5.29912 ], [ -72.90105, -5.32329 ], [ -72.90077, -5.33156 ], [ -72.8968605, -5.3362057 ], [ -72.89568, -5.34004 ], [ -72.9101951, -5.3542558 ], [ -72.93085, -5.39684 ], [ -72.9323461, -5.4111694 ], [ -72.9369068, -5.4226226 ], [ -72.93704, -5.43345 ], [ -72.9474767, -5.4513175 ], [ -72.94837, -5.45444 ], [ -72.9504, -5.49562 ], [ -72.93184, -5.52839 ], [ -72.95503, -5.59638 ], [ -72.95083, -5.64326 ], [ -72.96181, -5.64839 ], [ -72.9656901, -5.6514035 ], [ -72.96588, -5.65692 ], [ -72.9636075, -5.6611859 ], [ -72.97883, -5.71265 ], [ -72.99848, -5.72565 ], [ -73.02885, -5.78424 ], [ -73.0539223, -5.8117601 ], [ -73.07409, -5.81672 ], [ -73.07621, -5.84432 ], [ -73.11465, -5.86295 ], [ -73.1191406, -5.9151709 ], [ -73.13097, -5.93272 ], [ -73.13449, -5.99252 ], [ -73.18403, -6.03626 ], [ -73.1768115, -6.0525483 ], [ -73.1769409, -6.1063417 ], [ -73.18712, -6.13031 ], [ -73.18047, -6.16751 ], [ -73.15518, -6.21081 ], [ -73.15853, -6.22646 ], [ -73.14021, -6.29255 ], [ -73.14413, -6.32498 ], [ -73.14291, -6.33647 ], [ -73.13831, -6.37505 ], [ -73.12486, -6.39612 ], [ -73.16131, -6.48023 ], [ -73.18537, -6.48888 ], [ -73.24344, -6.53312 ], [ -73.29666, -6.54378 ], [ -73.36721, -6.57544 ], [ -73.38654, -6.60773 ], [ -73.42917, -6.62406 ], [ -73.48544, -6.67182 ], [ -73.50935, -6.70103 ], [ -73.5607004, -6.7163217 ], [ -73.56921, -6.71883 ], [ -73.5715362, -6.7210353 ], [ -73.57652, -6.72576 ], [ -73.61736, -6.77608 ], [ -73.67069, -6.8129 ], [ -73.67973, -6.84029 ], [ -73.71369, -6.86131 ], [ -73.7159, -6.86323 ], [ -73.7346, -6.88883 ], [ -73.74553, -6.90612 ], [ -73.74528, -6.9114 ], [ -73.75081, -6.94911 ], [ -73.75378, -6.95372 ], [ -73.76147, -6.97513 ], [ -73.7589106, -7.0399096 ], [ -73.75741, -7.04517 ], [ -73.79396, -7.10509 ], [ -73.79462, -7.1063 ], [ -73.79599, -7.11572 ], [ -73.795048, -7.1164892 ], [ -73.75623, -7.15337 ], [ -73.74041, -7.19648 ], [ -73.7147815, -7.2223287 ], [ -73.70282, -7.27487 ], [ -73.6889333, -7.3023402 ], [ -73.68842, -7.30627 ], [ -73.73103, -7.3386 ], [ -73.76069, -7.3346 ], [ -73.76736, -7.3344 ], [ -73.78573, -7.33769 ], [ -73.8323606, -7.3443389 ], [ -73.83786, -7.34755 ], [ -73.8468373, -7.3580827 ], [ -73.85181, -7.36506 ], [ -73.8775, -7.37688 ], [ -73.95371, -7.34826 ], [ -73.95484, -7.35331 ], [ -73.9162601, -7.4491407 ], [ -73.91736, -7.46109 ], [ -73.92716, -7.48041 ], [ -73.9424, -7.51721 ], [ -73.97914, -7.52769 ], [ -73.9832608, -7.5320717 ], [ -73.97555, -7.56097 ], [ -73.91093, -7.61696 ], [ -73.9003736, -7.6280182 ], [ -73.88898, -7.64189 ], [ -73.87857, -7.65585 ], [ -73.85573, -7.67343 ], [ -73.84556, -7.6851 ], [ -73.82867, -7.70821 ], [ -73.81897, -7.71804 ], [ -73.8132, -7.72192 ], [ -73.71412, -7.76488 ], [ -73.68494, -7.80813 ], [ -73.68492, -7.81272 ], [ -73.68508, -7.82627 ], [ -73.68597, -7.83247 ], [ -73.6894592, -7.8489567 ], [ -73.69047, -7.85383 ], [ -73.6966301, -7.8651001 ], [ -73.70902, -7.87342 ], [ -73.75873, -7.86537 ], [ -73.7660762, -7.863897 ], [ -73.7730347, -7.9007139 ], [ -73.77189, -7.90582 ], [ -73.77118, -7.90949 ], [ -73.76483, -7.93975 ], [ -73.73299, -7.96325 ], [ -73.7180764, -7.9673386 ], [ -73.69174, -7.97707 ], [ -73.67151, -8.0083 ], [ -73.63229, -8.0223 ], [ -73.61861, -8.0732 ], [ -73.59118, -8.11484 ], [ -73.58163, -8.16738 ], [ -73.58348, -8.20138 ], [ -73.56921, -8.23507 ], [ -73.5377, -8.26266 ], [ -73.53041, -8.31843 ], [ -73.52925, -8.35381 ], [ -73.51273, -8.37737 ], [ -73.4917519, -8.3851635 ], [ -73.48662, -8.38707 ], [ -73.4833374, -8.3891436 ], [ -73.4537029, -8.4051301 ], [ -73.44706, -8.40725 ], [ -73.41634, -8.41531 ], [ -73.38692, -8.46819 ], [ -73.37743, -8.47226 ], [ -73.3652627, -8.4700482 ], [ -73.35372, -8.46795 ], [ -73.3354549, -8.479879 ], [ -73.33285, -8.48366 ], [ -73.32823, -8.50332 ], [ -73.33025, -8.52293 ], [ -73.33698, -8.54849 ], [ -73.34386, -8.58531 ], [ -73.32359, -8.61888 ], [ -73.3120073, -8.6234763 ], [ -73.2917399, -8.6486413 ], [ -73.28746, -8.66165 ], [ -73.28281, -8.66713 ], [ -73.257868, -8.6860809 ], [ -73.24917, -8.68987 ], [ -73.23045, -8.69164 ], [ -73.18381, -8.69603 ], [ -73.17572, -8.69781 ], [ -73.16923, -8.70121 ], [ -73.1606913, -8.7115757 ], [ -73.15362, -8.72016 ], [ -73.132, -8.76757 ], [ -73.1252239, -8.779607 ], [ -73.10057, -8.82869 ], [ -73.07165, -8.86362 ], [ -73.06422, -8.89551 ], [ -73.037, -8.91943 ], [ -73.0158888, -8.9220874 ], [ -72.9818, -8.94517 ], [ -72.9720316, -8.9778302 ], [ -72.96368, -8.9841 ], [ -72.94818, -8.98627 ], [ -72.9541, -9.0231 ], [ -72.9530947, -9.027053 ], [ -72.9472653, -9.049962 ], [ -72.94476, -9.0598 ], [ -72.94491, -9.06969 ], [ -72.9481617, -9.087505 ], [ -72.9533421, -9.1237909 ], [ -72.95747, -9.13877 ], [ -72.9652, -9.15424 ], [ -73.01424, -9.17834 ], [ -73.00921, -9.19761 ], [ -73.0116, -9.21602 ], [ -73.01456, -9.22111 ], [ -73.02534, -9.23177 ], [ -73.0382634, -9.2339037 ], [ -73.04133, -9.23441 ], [ -73.0722, -9.24113 ], [ -73.11363, -9.32148 ], [ -73.17455, -9.3675 ], [ -73.19302, -9.40167 ], [ -73.19727, -9.41585 ], [ -73.19613, -9.41825 ], [ -72.72064, -9.41718 ], [ -72.71407, -9.42655 ], [ -72.7139473, -9.4266297 ], [ -72.70779, -9.43063 ], [ -72.696887, -9.4349466 ], [ -72.69655, -9.43508 ], [ -72.69362, -9.43624 ], [ -72.6839709, -9.4366613 ], [ -72.67186, -9.43719 ], [ -72.6636062, -9.4401406 ], [ -72.65944, -9.44163 ], [ -72.6416012, -9.4428299 ], [ -72.61874, -9.43822 ], [ -72.55414, -9.46239 ], [ -72.54061, -9.47329 ], [ -72.5284333, -9.4795128 ], [ -72.52431, -9.48162 ], [ -72.49517, -9.47901 ], [ -72.4864818, -9.4807077 ], [ -72.44654, -9.48078 ], [ -72.4402562, -9.4767242 ], [ -72.42016, -9.48026 ], [ -72.4102737, -9.4811609 ], [ -72.39536, -9.48252 ], [ -72.37999, -9.49063 ], [ -72.3675461, -9.4906603 ], [ -72.36356, -9.49067 ], [ -72.361341, -9.4923104 ], [ -72.35773, -9.49498 ], [ -72.3559546, -9.4970206 ], [ -72.34923, -9.50475 ], [ -72.34239, -9.51617 ], [ -72.3353043, -9.524412 ], [ -72.33044, -9.53007 ], [ -72.2887, -9.5356 ], [ -72.2877411, -9.5386641 ], [ -72.28655, -9.54247 ], [ -72.29292, -9.59268 ], [ -72.28738, -9.61194 ], [ -72.26148, -9.6296 ], [ -72.25787, -9.64175 ], [ -72.24915, -9.65476 ], [ -72.2474602, -9.6616417 ], [ -72.2488535, -9.6734064 ], [ -72.25147, -9.6955 ], [ -72.25253, -9.69971 ], [ -72.2603487, -9.730634 ], [ -72.26278, -9.74025 ], [ -72.26247, -9.74761 ], [ -72.2606652, -9.7536867 ], [ -72.24671, -9.76768 ], [ -72.17803, -9.79635 ], [ -72.16655, -9.80726 ], [ -72.15994, -9.81777 ], [ -72.15703, -9.82832 ], [ -72.1565741, -9.8368096 ], [ -72.1461646, -9.8864965 ], [ -72.14677, -9.88946 ], [ -72.14834, -9.89723 ], [ -72.15424, -9.90857 ], [ -72.16669, -9.93402 ], [ -72.1631295, -9.9462879 ], [ -72.15897, -9.96062 ], [ -72.16454, -9.97909 ], [ -72.1645996, -9.9860109 ], [ -72.16472, -10.0 ], [ -72.1647226, -10.0006076 ], [ -72.16473, -10.00232 ], [ -71.77531, -10.00186 ], [ -71.36288, -10.00078 ], [ -71.34029, -9.97607 ], [ -71.29567, -9.99797 ], [ -71.2722857, -9.9841042 ], [ -71.26147, -9.97447 ], [ -71.254225, -9.971944 ], [ -71.24885, -9.97007 ], [ -71.19527, -9.9514 ], [ -71.1799, -9.94082 ], [ -71.15293, -9.8859 ], [ -71.1239008, -9.8582963 ], [ -71.09336, -9.8502 ], [ -71.04375, -9.82062 ], [ -70.98183, -9.81239 ], [ -70.97233, -9.78393 ], [ -70.95051, -9.75827 ], [ -70.90266, -9.7232 ], [ -70.88981, -9.70228 ], [ -70.88154, -9.68443 ], [ -70.8764456, -9.6793415 ], [ -70.8428951, -9.6569425 ], [ -70.83003, -9.64814 ], [ -70.80578, -9.64383 ], [ -70.7976402, -9.639188 ], [ -70.79454, -9.63742 ], [ -70.78816, -9.63156 ], [ -70.76816, -9.60891 ], [ -70.76136, -9.60051 ], [ -70.74886, -9.57338 ], [ -70.73184, -9.56619 ], [ -70.7268174, -9.5636568 ], [ -70.72381, -9.56214 ], [ -70.7030616, -9.5473858 ], [ -70.66371, -9.52959 ], [ -70.65076, -9.51533 ], [ -70.6440264, -9.5037883 ], [ -70.63908, -9.49531 ], [ -70.63614, -9.48889 ], [ -70.6298, -9.48119 ], [ -70.6268868, -9.4786246 ], [ -70.60609, -9.46031 ], [ -70.6032547, -9.4565114 ], [ -70.60088, -9.45333 ], [ -70.5938645, -9.448718 ], [ -70.5306, -9.43648 ], [ -70.52503, -9.43684 ], [ -70.50108, -9.44333 ], [ -70.5037063, -9.4461106 ], [ -70.50925, -9.45198 ], [ -70.5202, -9.46114 ], [ -70.52365, -9.46235 ], [ -70.52566, -9.4663 ], [ -70.525505, -9.5029935 ], [ -70.52756, -9.50441 ], [ -70.53854, -9.49886 ], [ -70.54782, -9.51052 ], [ -70.54152, -9.5134 ], [ -70.54666, -9.52385 ], [ -70.5665, -9.52788 ], [ -70.5713, -9.53096 ], [ -70.56462, -9.54211 ], [ -70.56636, -9.54858 ], [ -70.56133, -9.5648 ], [ -70.55897, -9.57359 ], [ -70.5603791, -9.5776731 ], [ -70.58468, -9.57266 ], [ -70.59352, -9.57051 ], [ -70.5966654, -9.5771968 ], [ -70.58539, -9.59866 ], [ -70.58524, -9.63339 ], [ -70.5609708, -9.6640148 ], [ -70.55613, -9.66924 ], [ -70.5483088, -9.6731597 ], [ -70.53217, -9.68509 ], [ -70.51981, -9.72789 ], [ -70.53583, -9.75164 ], [ -70.540123, -9.7566189 ], [ -70.55427, -9.78303 ], [ -70.5733, -9.78107 ], [ -70.58024, -9.78211 ], [ -70.58791, -9.78918 ], [ -70.60221, -9.80322 ], [ -70.62185, -9.84681 ], [ -70.6232, -9.943 ], [ -70.62025, -10.12656 ], [ -70.62149, -10.52307 ], [ -70.61998, -10.9845 ], [ -70.61828, -11.00117 ], [ -70.5271863, -10.9397899 ], [ -70.52328, -10.93843 ], [ -70.49763, -10.94612 ], [ -70.45155, -10.99686 ], [ -70.42761, -11.0328 ], [ -70.36209, -11.05002 ], [ -70.33662, -11.06681 ], [ -70.31755, -11.06577 ], [ -70.2658078, -11.0524743 ], [ -70.2589, -11.05248 ], [ -70.24932, -11.05414 ], [ -70.2308026, -11.0535906 ], [ -70.21841, -11.05102 ], [ -70.14363, -11.02911 ], [ -70.1413334, -11.0281739 ], [ -70.1155677, -11.0101057 ], [ -70.10984, -11.00705 ], [ -70.1065281, -11.0029071 ], [ -70.10143, -10.99653 ], [ -70.0994824, -10.995279 ], [ -70.09293, -10.99107 ], [ -70.0873036, -10.9894091 ], [ -70.08043, -10.98738 ], [ -70.05681, -10.9804 ], [ -70.03896, -10.97684 ], [ -70.01867, -10.96692 ], [ -70.0, -10.95939 ], [ -69.98656, -10.95467 ], [ -69.981834, -10.9506352 ], [ -69.97856, -10.94784 ], [ -69.9557331, -10.9368115 ], [ -69.94634, -10.9295 ], [ -69.932913, -10.9260135 ], [ -69.92315, -10.92536 ], [ -69.90188, -10.93024 ], [ -69.86814, -10.93416 ], [ -69.85626, -10.93068 ], [ -69.84231, -10.92994 ], [ -69.8379957, -10.9310507 ], [ -69.83155, -10.93271 ], [ -69.81604, -10.92825 ], [ -69.8126115, -10.9280282 ], [ -69.81094, -10.92792 ], [ -69.7923, -10.92869 ], [ -69.7872687, -10.9299165 ], [ -69.77663, -10.93251 ], [ -69.7746751, -10.9339213 ], [ -69.75275, -10.94975 ], [ -69.74962, -10.95317 ], [ -69.73203, -10.97234 ], [ -69.72806, -10.97295 ], [ -69.71438, -10.97059 ], [ -69.70875, -10.97255 ], [ -69.70247, -10.97219 ], [ -69.69375, -10.96625 ], [ -69.56644, -10.95666 ], [ -69.45367, -11.13454 ], [ -69.3309796, -11.3310681 ], [ -69.32719, -11.33512 ], [ -69.28479, -11.40741 ], [ -69.16532, -11.59633 ], [ -69.02792, -11.81721 ], [ -68.9772799, -11.9085958 ], [ -68.96341, -11.93092 ], [ -68.92421, -11.99399 ], [ -68.86349, -12.11522 ], [ -68.78732, -12.2755 ], [ -68.6846579, -12.486158 ], [ -68.6793, -12.49715 ], [ -68.67799, -12.52054 ], [ -68.70125, -12.53596 ], [ -68.70432, -12.55961 ], [ -68.75347, -12.59246 ], [ -68.77119, -12.64459 ], [ -68.73421, -12.65777 ], [ -68.7277006, -12.6714908 ], [ -68.7372519, -12.7028343 ], [ -68.73824, -12.70512 ], [ -68.7384838, -12.705264 ], [ -68.74464, -12.7089 ], [ -68.75026, -12.72007 ], [ -68.82875, -12.73043 ], [ -68.85105, -12.75391 ], [ -68.87418, -12.75044 ], [ -68.89343, -12.79631 ], [ -68.91566, -12.79469 ], [ -68.93238, -12.84177 ], [ -68.96221, -12.85541 ], [ -68.96993, -12.94158 ], [ -68.95727, -12.95266 ], [ -68.97003, -13.00074 ], [ -68.94909, -13.03042 ], [ -68.94807, -13.03735 ], [ -68.94411, -13.07219 ], [ -68.95807, -13.09906 ], [ -68.9501, -13.13237 ], [ -68.9648107, -13.1942111 ], [ -68.9461705, -13.222688 ], [ -68.9391, -13.25414 ], [ -68.95241, -13.28309 ], [ -68.94202, -13.36778 ], [ -68.95425, -13.40182 ], [ -68.94438, -13.41192 ], [ -68.951, -13.46864 ], [ -68.94173, -13.48586 ], [ -68.97502, -13.57975 ], [ -69.00774, -13.61226 ], [ -68.99897, -13.64345 ], [ -68.99728, -13.65246 ], [ -69.00742, -13.65351 ], [ -69.0128777, -13.6515498 ], [ -69.02182, -13.6524 ], [ -69.02607, -13.65158 ], [ -69.0346, -13.64473 ], [ -69.03638, -13.6433 ], [ -69.0468713, -13.6443477 ], [ -69.04835, -13.6445 ], [ -69.07436, -13.64808 ], [ -69.0685, -13.68411 ], [ -69.06346, -13.69286 ], [ -69.0402748, -13.7246007 ], [ -69.03364, -13.72756 ], [ -69.01456, -13.73659 ], [ -69.0023517, -13.7489576 ], [ -68.98871, -13.77753 ], [ -69.0, -13.78876 ], [ -68.97905, -13.84979 ], [ -68.95971, -13.87512 ], [ -68.959241, -13.8815683 ], [ -68.96809, -13.90804 ], [ -68.95994, -13.93908 ], [ -68.965, -13.97968 ], [ -68.96193, -13.98873 ], [ -68.95257, -13.99977 ], [ -68.91976, -14.02405 ], [ -68.89662, -14.04635 ], [ -68.89404, -14.04884 ], [ -68.8916581, -14.0517522 ], [ -68.88079, -14.06504 ], [ -68.8745484, -14.0823185 ], [ -68.85492, -14.12158 ], [ -68.85486, -14.16115 ], [ -68.8548533, -14.1639413 ], [ -68.85485, -14.16529 ], [ -68.85298, -14.17523 ], [ -68.8489711, -14.1802048 ], [ -68.83804, -14.1986 ], [ -68.839511, -14.2051027 ], [ -68.8497844, -14.2183751 ], [ -68.85814, -14.22042 ], [ -68.94424, -14.22497 ], [ -68.97529, -14.23248 ], [ -68.976283, -14.2331865 ], [ -68.98153, -14.23692 ], [ -68.9886239, -14.2563766 ], [ -68.9919069, -14.2686077 ], [ -68.99495, -14.29028 ], [ -68.97977, -14.38717 ], [ -69.01456, -14.41564 ], [ -69.04023, -14.42679 ], [ -69.0604207, -14.4330323 ], [ -69.07053, -14.44149 ], [ -69.08032, -14.45369 ], [ -69.0828837, -14.4568849 ], [ -69.09551, -14.47262 ], [ -69.1074774, -14.4850772 ], [ -69.10748, -14.48508 ], [ -69.1277, -14.49771 ], [ -69.15376, -14.51299 ], [ -69.1510981, -14.5268645 ], [ -69.14881, -14.54208 ], [ -69.14609, -14.57905 ], [ -69.15444, -14.58544 ], [ -69.20395, -14.5764 ], [ -69.23615, -14.60193 ], [ -69.24337, -14.64715 ], [ -69.2448273, -14.6699076 ], [ -69.23644, -14.71368 ], [ -69.23633, -14.7185 ], [ -69.25169, -14.75884 ], [ -69.282499, -14.7650122 ], [ -69.29916, -14.76835 ], [ -69.32316, -14.77836 ], [ -69.3528813, -14.793631 ], [ -69.3628, -14.80396 ], [ -69.3629855, -14.806567 ], [ -69.35615, -14.8268 ], [ -69.3566106, -14.8347825 ], [ -69.357, -14.84153 ], [ -69.3603591, -14.860225 ], [ -69.34876, -14.90342 ], [ -69.37456, -14.95408 ], [ -69.35984, -14.98893 ], [ -69.33051, -15.02233 ], [ -69.32189, -15.04858 ], [ -69.27955, -15.11249 ], [ -69.1948928, -15.1604974 ], [ -69.19072, -15.16345 ], [ -69.1885516, -15.1690123 ], [ -69.17313, -15.18389 ], [ -69.1674487, -15.1909715 ], [ -69.16534, -15.1936 ], [ -69.1618311, -15.1995625 ], [ -69.15573, -15.20993 ], [ -69.14869, -15.21759 ], [ -69.1417196, -15.2205308 ], [ -69.1296515, -15.2412934 ], [ -69.12879, -15.24886 ], [ -69.12653, -15.25703 ], [ -69.1286022, -15.2604952 ], [ -69.1680689, -15.2654765 ], [ -69.18136, -15.26067 ], [ -69.21521, -15.31057 ], [ -69.26455, -15.33552 ], [ -69.26688, -15.36797 ], [ -69.28158, -15.3854 ], [ -69.27241, -15.41633 ], [ -69.29696, -15.41892 ], [ -69.3203044, -15.4446786 ], [ -69.33465, -15.46843 ], [ -69.33562, -15.48797 ], [ -69.35678, -15.52531 ], [ -69.3600272, -15.5307423 ], [ -69.41386, -15.62077 ], [ -69.298, -15.9387 ], [ -69.2477, -16.11537 ], [ -69.23594, -16.14303 ], [ -69.1994735, -16.1635928 ], [ -69.1907, -16.16854 ], [ -69.11196, -16.2123 ], [ -69.09922, -16.21909 ], [ -69.0876, -16.21991 ], [ -69.07571, -16.21797 ], [ -69.0479901, -16.202772 ], [ -69.04469, -16.20248 ], [ -69.0102, -16.21613 ], [ -69.0069892, -16.2143777 ], [ -68.98694, -16.19366 ], [ -68.97526, -16.18919 ], [ -68.96292, -16.18863 ], [ -68.9516131, -16.1973565 ], [ -68.88654, -16.26094 ], [ -68.81799, -16.31525 ], [ -68.8173, -16.34278 ], [ -68.845, -16.35858 ], [ -68.98237, -16.43272 ], [ -68.98697, -16.44116 ], [ -69.01225, -16.51501 ], [ -69.03162, -16.56086 ], [ -69.01808, -16.61429 ], [ -68.99645, -16.65994 ], [ -68.99864, -16.66382 ], [ -69.00828, -16.66935 ], [ -69.0071146, -16.6716157 ], [ -69.00617, -16.67662 ], [ -69.0094474, -16.6765433 ], [ -69.0177, -16.67635 ], [ -69.03557, -16.68524 ], [ -69.0413206, -16.69371 ], [ -69.04298, -16.6937 ], [ -69.05107, -16.6923 ], [ -69.0527248, -16.6919488 ], [ -69.11564, -16.7195 ], [ -69.169338, -16.7339808 ], [ -69.1735, -16.74066 ], [ -69.18199, -16.79358 ], [ -69.1928, -16.80172 ], [ -69.20245, -16.81124 ], [ -69.21149, -16.82996 ], [ -69.21922, -16.83905 ], [ -69.2480616, -16.8632746 ], [ -69.25703, -16.87235 ], [ -69.31872, -16.94438 ], [ -69.31193, -16.9541 ], [ -69.3117645, -16.9564167 ], [ -69.33134, -16.98118 ], [ -69.36002, -16.98565 ], [ -69.39189, -17.021 ], [ -69.36894, -17.05061 ], [ -69.37483, -17.0782 ], [ -69.4181324, -17.1089191 ], [ -69.42083, -17.11091 ], [ -69.4232315, -17.1117987 ], [ -69.4369115, -17.1001501 ], [ -69.44957, -17.10068 ], [ -69.50746, -17.14538 ], [ -69.55138, -17.16156 ], [ -69.56082, -17.17061 ], [ -69.56544, -17.19374 ], [ -69.60406, -17.22283 ], [ -69.61098, -17.25442 ], [ -69.640221, -17.2829588 ], [ -69.63797, -17.28688 ], [ -69.63152, -17.2872 ], [ -69.61379, -17.28308 ], [ -69.59493, -17.28379 ], [ -69.57279, -17.28914 ], [ -69.46287, -17.37553 ], [ -69.4661929, -17.4412539 ], [ -69.4713497, -17.4875541 ], [ -69.47262, -17.49896 ], [ -69.49662, -17.53307 ], [ -69.50413, -17.53986 ], [ -69.5491116, -17.5772344 ], [ -69.55643, -17.58349 ], [ -69.61399, -17.62381 ], [ -69.62295, -17.63035 ], [ -69.6278105, -17.6337448 ], [ -69.6528988, -17.651544 ], [ -69.6619, -17.65783 ], [ -69.67103, -17.65977 ], [ -69.79488, -17.64789 ], [ -69.82134, -17.70118 ], [ -69.81979, -17.72127 ], [ -69.81888, -17.74747 ], [ -69.81564, -17.75761 ], [ -69.8064, -17.76735 ], [ -69.78514, -17.77515 ], [ -69.79656, -17.79943 ], [ -69.7924, -17.86977 ], [ -69.77478, -17.90838 ], [ -69.74696, -17.9391 ], [ -69.75546, -17.99181 ], [ -69.77647, -18.03124 ], [ -69.81891, -18.11859 ], [ -69.8269382, -18.1285308 ], [ -69.84439, -18.15014 ], [ -69.87414, -18.17726 ], [ -69.91502, -18.2088 ], [ -69.94788, -18.24803 ], [ -69.96779, -18.25989 ], [ -69.98473, -18.26652 ], [ -69.99389, -18.26799 ], [ -70.0, -18.26799 ], [ -70.04864, -18.26482 ], [ -70.09716, -18.29022 ], [ -70.11439, -18.29889 ], [ -70.1251889, -18.3028389 ], [ -70.13665, -18.30703 ], [ -70.15941, -18.31584 ], [ -70.17463, -18.31949 ], [ -70.19074, -18.31922 ], [ -70.27133, -18.30888 ], [ -70.28595, -18.30633 ], [ -70.30469, -18.30554 ], [ -70.3249078, -18.3099911 ], [ -70.32787, -18.31065 ], [ -70.3392471, -18.3158288 ], [ -70.3404826, -18.316392 ], [ -70.3430237, -18.3183399 ], [ -70.3761704, -18.3535778 ], [ -70.4056757, -18.3261114 ], [ -70.4812891, -18.2734121 ], [ -70.5978945, -18.2039101 ], [ -70.6785742, -18.1618476 ], [ -70.726752, -18.1193456 ], [ -70.759457, -18.080418 ], [ -70.8131562, -18.0404882 ], [ -70.8791895, -18.0147539 ], [ -70.8956289, -17.963459 ], [ -70.9751797, -17.8967851 ], [ -71.0110059, -17.876748 ], [ -71.0412129, -17.8789882 ], [ -71.0968437, -17.8677246 ], [ -71.1057871, -17.8431367 ], [ -71.1612422, -17.8149434 ], [ -71.177457, -17.7891992 ], [ -71.2056485, -17.7686485 ], [ -71.3722187, -17.6817127 ], [ -71.343671, -17.6424767 ], [ -71.3582089, -17.5888262 ], [ -71.3725664, -17.4753906 ], [ -71.3945899, -17.3891309 ], [ -71.4179414, -17.3765566 ], [ -71.4371132, -17.3385645 ], [ -71.4684024, -17.3235704 ], [ -71.4725371, -17.2971582 ], [ -71.5341262, -17.2555314 ], [ -71.576088, -17.2535591 ], [ -71.6903686, -17.2119885 ], [ -71.804306, -17.1872635 ], [ -71.8400722, -17.1713613 ], [ -71.8860625, -17.1312294 ], [ -71.9226456, -17.0875054 ], [ -71.9597397, -17.0604057 ], [ -72.0389939, -17.0173397 ], [ -72.0761566, -17.0211601 ], [ -72.1234817, -16.9761791 ], [ -72.1924514, -16.9267655 ], [ -72.211525, -16.9024467 ], [ -72.2882767, -16.8752537 ], [ -72.2954177, -16.8274155 ], [ -72.325821, -16.8031406 ], [ -72.3592835, -16.7641525 ], [ -72.4039382, -16.7409286 ], [ -72.4472199, -16.7039566 ], [ -72.54319, -16.6780586 ], [ -72.6257095, -16.661993 ], [ -72.7090454, -16.6526927 ], [ -72.771904, -16.6288032 ], [ -72.8453064, -16.5671596 ], [ -72.9162902, -16.5203722 ], [ -72.986847, -16.5174351 ], [ -73.0533447, -16.4894027 ], [ -73.1102295, -16.4519062 ], [ -73.1334686, -16.4488506 ], [ -73.1591569, -16.4199257 ], [ -73.2152329, -16.400158 ], [ -73.2249985, -16.4127712 ], [ -73.2722091, -16.398201 ], [ -73.3048096, -16.3797397 ], [ -73.3142014, -16.3387031 ], [ -73.4512559, -16.2813071 ], [ -73.4971314, -16.2732982 ], [ -73.5309296, -16.2570591 ], [ -73.6025849, -16.2399292 ], [ -73.6199265, -16.2300854 ], [ -73.6993712, -16.2207031 ], [ -73.7278824, -16.1952476 ], [ -73.8008041, -16.1686745 ], [ -73.8693542, -16.1355439 ], [ -73.889389, -16.1093521 ], [ -73.9512329, -16.0740356 ], [ -73.9899445, -16.0390149 ], [ -74.0330811, -16.0180587 ], [ -74.0248337, -15.9944477 ], [ -74.054451, -15.9545231 ], [ -74.1671907, -15.9008531 ], [ -74.2416, -15.8786994 ], [ -74.2564545, -15.8514529 ], [ -74.2855225, -15.8371019 ], [ -74.3279037, -15.8487167 ], [ -74.3631669, -15.831955 ], [ -74.3933029, -15.8293085 ], [ -74.4392929, -15.7945605 ], [ -74.462738, -15.7554292 ], [ -74.4628296, -15.7265215 ], [ -74.50235, -15.70677 ], [ -74.5537796, -15.6932659 ], [ -74.6612777, -15.6528359 ], [ -74.7496796, -15.6003809 ], [ -74.8307495, -15.567195 ], [ -74.8684845, -15.5356799 ], [ -74.9099731, -15.5121136 ], [ -74.9672317, -15.4905176 ], [ -75.0068436, -15.4600411 ], [ -75.056366, -15.4546251 ], [ -75.0825684, -15.4236914 ], [ -75.1404042, -15.407166 ], [ -75.1781235, -15.3569325 ], [ -75.1566811, -15.3559469 ], [ -75.153377, -15.3287794 ], [ -75.1688184, -15.3073906 ], [ -75.2306231, -15.2772011 ], [ -75.216625, -15.231416 ], [ -75.2322051, -15.2027695 ], [ -75.2746799, -15.1683204 ], [ -75.3168691, -15.1499316 ], [ -75.3686504, -15.1407949 ], [ -75.3947851, -15.08067 ], [ -75.4426934, -15.0005919 ], [ -75.5, -14.9669746 ], [ -75.5024454, -14.9187169 ], [ -75.5745215, -14.867797 ], [ -75.6799414, -14.8178224 ], [ -75.7843555, -14.7482891 ], [ -75.8555664, -14.7162812 ], [ -75.8567213, -14.6933899 ], [ -75.9164649, -14.6591757 ], [ -75.9322656, -14.6096621 ], [ -75.9320469, -14.5682812 ], [ -75.9741972, -14.5252539 ], [ -75.9648496, -14.505545 ], [ -75.9722792, -14.4704981 ], [ -76.0392402, -14.4243086 ], [ -76.0661952, -14.3869434 ], [ -76.1318594, -14.3542637 ], [ -76.1109551, -14.3292207 ], [ -76.1099492, -14.2926856 ], [ -76.1435704, -14.227621 ], [ -76.19075, -14.1975021 ], [ -76.198043, -14.1727656 ], [ -76.2305254, -14.1491191 ], [ -76.2525664, -14.1500215 ], [ -76.2613066, -14.1850801 ], [ -76.2901955, -14.1615117 ], [ -76.2856544, -14.0895489 ], [ -76.2664511, -14.0146914 ], [ -76.2825156, -13.9180487 ], [ -76.2983965, -13.8932851 ], [ -76.3300117, -13.9250254 ], [ -76.3963281, -13.9088985 ], [ -76.3859472, -13.8438535 ], [ -76.371291, -13.8088807 ], [ -76.3279355, -13.7941836 ], [ -76.2962246, -13.7934687 ], [ -76.3007715, -13.8377226 ], [ -76.2609629, -13.8656016 ], [ -76.2203985, -13.7176465 ], [ -76.217041, -13.6811992 ], [ -76.1976601, -13.640877 ], [ -76.1866445, -13.5504707 ], [ -76.1914687, -13.4239336 ], [ -76.2084316, -13.3809902 ], [ -76.2544512, -13.3087851 ], [ -76.3546719, -13.192248 ], [ -76.3613066, -13.1773965 ], [ -76.434211, -13.090332 ], [ -76.4897832, -13.0318457 ], [ -76.4834122, -13.0148222 ], [ -76.5045274, -12.9829902 ], [ -76.5138066, -12.9520919 ], [ -76.5057871, -12.9258145 ], [ -76.5298614, -12.839668 ], [ -76.559916, -12.8208516 ], [ -76.5676094, -12.8031465 ], [ -76.5994375, -12.7816172 ], [ -76.6356836, -12.7433377 ], [ -76.6321699, -12.7168555 ], [ -76.6565311, -12.6965351 ], [ -76.6692832, -12.6655157 ], [ -76.6724336, -12.6277754 ], [ -76.705916, -12.593711 ], [ -76.7055312, -12.5801367 ], [ -76.7467579, -12.5391211 ], [ -76.7993086, -12.5090801 ], [ -76.7992149, -12.4855549 ], [ -76.775041, -12.4378711 ], [ -76.7773614, -12.3940625 ], [ -76.8284024, -12.3382051 ], [ -76.8360274, -12.3174121 ], [ -76.9354687, -12.2502207 ], [ -77.037709, -12.204084 ], [ -77.0390235, -12.1811816 ], [ -77.0247207, -12.150916 ], [ -77.0310274, -12.1340272 ], [ -77.0651035, -12.102877 ], [ -77.1302891, -12.0713867 ], [ -77.1561562, -12.067416 ], [ -77.1336184, -11.9799571 ], [ -77.1407832, -11.925543 ], [ -77.1568301, -11.8743027 ], [ -77.1880507, -11.8285684 ], [ -77.1842754, -11.7900156 ], [ -77.168166, -11.7391094 ], [ -77.1983399, -11.695877 ], [ -77.1922989, -11.6804062 ], [ -77.2160371, -11.6389687 ], [ -77.2722832, -11.594918 ], [ -77.2712901, -11.5718913 ], [ -77.304752, -11.5122344 ], [ -77.3423125, -11.4869569 ], [ -77.372168, -11.452586 ], [ -77.4981426, -11.3771544 ], [ -77.6429239, -11.3044766 ], [ -77.6493457, -11.2399649 ], [ -77.6416542, -11.2145097 ], [ -77.5965371, -11.206332 ], [ -77.5953614, -11.165584 ], [ -77.6183399, -11.1291075 ], [ -77.6124524, -11.1169177 ], [ -77.6373809, -11.0712969 ], [ -77.633416, -11.0545079 ], [ -77.66175, -11.0126544 ], [ -77.6484902, -10.9872559 ], [ -77.6578281, -10.9465059 ], [ -77.7084277, -10.8710312 ], [ -77.7036641, -10.8577285 ], [ -77.7501836, -10.8177402 ], [ -77.7440351, -10.7945371 ], [ -77.7720097, -10.7511757 ], [ -77.8040274, -10.7259454 ], [ -77.8106562, -10.6998945 ], [ -77.8419687, -10.6703047 ], [ -77.8862774, -10.6125489 ], [ -77.9084726, -10.5699844 ], [ -77.9081601, -10.5442871 ], [ -77.960623, -10.4925195 ], [ -77.9803417, -10.4395489 ], [ -78.0147597, -10.4096309 ], [ -78.0106035, -10.3746991 ], [ -78.0545469, -10.3459551 ], [ -78.0578985, -10.3014336 ], [ -78.0850899, -10.26775 ], [ -78.1022597, -10.2001504 ], [ -78.1635704, -10.1471914 ], [ -78.182209, -10.1010996 ], [ -78.1666465, -10.0949297 ], [ -78.1753417, -10.0458496 ], [ -78.1967011, -10.0128125 ], [ -78.2080761, -9.9667695 ], [ -78.226832, -9.9536992 ], [ -78.2245097, -9.9072226 ], [ -78.2426485, -9.8736465 ], [ -78.2260274, -9.7954785 ], [ -78.2458535, -9.7704961 ], [ -78.2720097, -9.7560704 ], [ -78.2921836, -9.7292422 ], [ -78.2943417, -9.7054257 ], [ -78.3218164, -9.6617481 ], [ -78.3648535, -9.6204707 ], [ -78.3679882, -9.5553105 ], [ -78.3877031, -9.5353632 ], [ -78.3977382, -9.4721152 ], [ -78.3801114, -9.4454902 ], [ -78.4279414, -9.4112891 ], [ -78.4329864, -9.3885547 ], [ -78.4253965, -9.3412989 ], [ -78.4429375, -9.3270274 ], [ -78.4750645, -9.3315391 ], [ -78.5089824, -9.2788145 ], [ -78.4917969, -9.2508692 ], [ -78.4868105, -9.2033476 ], [ -78.5083007, -9.1803829 ], [ -78.5722422, -9.1715704 ], [ -78.5584239, -9.145457 ], [ -78.5612695, -9.1161525 ], [ -78.5826504, -9.0844121 ], [ -78.624791, -9.0780742 ], [ -78.6377324, -9.0483945 ], [ -78.629873, -9.0072871 ], [ -78.6440645, -8.9832656 ], [ -78.6436641, -8.9369454 ], [ -78.6516621, -8.9143555 ], [ -78.7611582, -8.773957 ], [ -78.7373829, -8.7120841 ], [ -78.7467246, -8.6842735 ], [ -78.737998, -8.6669395 ], [ -78.7438261, -8.6338301 ], [ -78.7780079, -8.5694121 ], [ -78.8622735, -8.4940762 ], [ -78.9150917, -8.460084 ], [ -78.9348847, -8.4363242 ], [ -78.9008399, -8.4142305 ], [ -78.8963652, -8.3789257 ], [ -78.9591259, -8.2899252 ], [ -78.961184, -8.2660217 ], [ -78.9902931, -8.2327945 ], [ -78.9840756, -8.2132277 ], [ -79.0154125, -8.1800856 ], [ -79.1173253, -8.0960299 ], [ -79.1279418, -8.062252 ], [ -79.1768535, -8.0227031 ], [ -79.307291, -7.9259707 ], [ -79.3098672, -7.9140547 ], [ -79.3757461, -7.8420976 ], [ -79.3924257, -7.7878086 ], [ -79.4477246, -7.7362832 ], [ -79.465707, -7.7119336 ], [ -79.4352891, -7.6933594 ], [ -79.4490934, -7.6470752 ], [ -79.4959907, -7.5753335 ], [ -79.5408765, -7.5212561 ], [ -79.5500722, -7.4945294 ], [ -79.5766114, -7.4615097 ], [ -79.5884766, -7.4140976 ], [ -79.569539, -7.3899882 ], [ -79.5885409, -7.3509316 ], [ -79.5876211, -7.3183829 ], [ -79.6213437, -7.2502735 ], [ -79.6909316, -7.1769004 ], [ -79.6834667, -7.1248965 ], [ -79.7398379, -7.057541 ], [ -79.8345566, -6.9710722 ], [ -79.8661191, -6.9486016 ], [ -79.8671386, -6.93067 ], [ -79.9318457, -6.8733065 ], [ -79.9397129, -6.8270332 ], [ -79.9860292, -6.7470527 ], [ -80.0748867, -6.6755235 ], [ -80.1773204, -6.6060372 ], [ -80.2886426, -6.543082 ], [ -80.500002, -6.433418 ], [ -80.7099492, -6.3301035 ], [ -80.7569101, -6.3121525 ], [ -80.7979199, -6.2889843 ], [ -80.861086, -6.2288476 ], [ -80.9131347, -6.1905841 ], [ -81.0915664, -6.0820273 ], [ -81.1492597, -5.9812402 ], [ -81.1449726, -5.9312148 ], [ -81.1492891, -5.8892305 ], [ -81.1223652, -5.8422402 ], [ -81.097461, -5.8381737 ], [ -81.0684472, -5.7857461 ], [ -81.0216972, -5.8305566 ], [ -80.9431445, -5.8456797 ], [ -80.8914882, -5.8098203 ], [ -80.8612441, -5.749666 ], [ -80.8538906, -5.7165526 ], [ -80.8525469, -5.6354882 ], [ -80.897584, -5.5114531 ], [ -80.9302187, -5.4575235 ], [ -80.9584766, -5.423086 ], [ -81.0529805, -5.3309902 ], [ -81.0918399, -5.3083711 ], [ -81.1081504, -5.3147461 ], [ -81.1381211, -5.2636172 ], [ -81.1945526, -5.2121191 ], [ -81.1735741, -5.1841347 ], [ -81.1604667, -5.1234082 ], [ -81.1713556, -5.0883242 ], [ -81.1278751, -5.069834 ], [ -81.1131579, -5.0845267 ], [ -81.075377, -5.0697246 ], [ -81.0602187, -5.0392831 ], [ -81.0667364, -5.0053476 ], [ -81.086416, -4.967334 ], [ -81.142166, -4.9076347 ], [ -81.176625, -4.8553632 ], [ -81.3281035, -4.6818847 ], [ -81.3096485, -4.6618183 ], [ -81.2861894, -4.575416 ], [ -81.2745773, -4.5702311 ], [ -81.2824472, -4.5251895 ], [ -81.3036134, -4.48325 ], [ -81.2647871, -4.4282362 ], [ -81.2522735, -4.3926875 ], [ -81.2492792, -4.3548163 ], [ -81.2606562, -4.3108907 ], [ -81.2535178, -4.2745232 ], [ -81.2385336, -4.250552 ], [ -81.1768282, -4.2164514 ], [ -81.1485643, -4.1812633 ], [ -81.1261164, -4.170934 ], [ -81.1006152, -4.1289356 ], [ -81.0544441, -4.1032538 ], [ -81.0111399, -4.0417972 ], [ -80.9868466, -3.9847322 ], [ -80.9538924, -3.9547711 ], [ -80.8572807, -3.8954084 ], [ -80.8342156, -3.8744706 ], [ -80.8292434, -3.837208 ], [ -80.7941655, -3.7590659 ], [ -80.7544903, -3.7182597 ], [ -80.732025, -3.7117388 ], [ -80.6827363, -3.6784448 ], [ -80.6359758, -3.6663417 ], [ -80.6026593, -3.6352881 ], [ -80.5758353, -3.629524 ], [ -80.550608, -3.5964012 ], [ -80.5035838, -3.5050807 ], [ -80.4741208, -3.4966289 ], [ -80.378758, -3.4943052 ], [ -80.3470566, -3.4624564 ], [ -80.3191171, -3.4231029 ], [ -80.2734086, -3.4435932 ], [ -80.2199947, -3.4406619 ], [ -80.2217806, -3.4437823 ], [ -80.2241927, -3.4472327 ], [ -80.2256914, -3.4487305 ], [ -80.2266565, -3.4491043 ], [ -80.23279, -3.45148 ], [ -80.2343284, -3.4546584 ], [ -80.23946, -3.46526 ], [ -80.2258772, -3.4970276 ], [ -80.2242115, -3.5004969 ], [ -80.220903, -3.5000468 ], [ -80.2203893, -3.4999764 ], [ -80.21757, -3.49959 ], [ -80.2154568, -3.5024464 ], [ -80.21484, -3.50328 ], [ -80.21373, -3.5164 ], [ -80.2149, -3.52698 ], [ -80.21101, -3.53205 ], [ -80.2069401, -3.5490803 ], [ -80.2076498, -3.552119 ], [ -80.20925, -3.55897 ], [ -80.2100715, -3.5609799 ], [ -80.21084, -3.56286 ], [ -80.21593, -3.57528 ], [ -80.2126, -3.58594 ], [ -80.21161, -3.5891 ], [ -80.20864, -3.5921 ], [ -80.1974301, -3.5942 ], [ -80.1916161, -3.6023947 ], [ -80.19128, -3.60457 ], [ -80.1942548, -3.6141457 ], [ -80.19635, -3.62089 ], [ -80.19544, -3.62434 ], [ -80.19019, -3.62872 ], [ -80.187217, -3.6366982 ], [ -80.18564, -3.64093 ], [ -80.1863082, -3.6432842 ], [ -80.18864, -3.6515 ], [ -80.1868588, -3.6607528 ], [ -80.18638, -3.66324 ], [ -80.18731, -3.6683 ], [ -80.1949, -3.68438 ], [ -80.1939723, -3.6978927 ], [ -80.1926504, -3.7016424 ], [ -80.19335, -3.70624 ], [ -80.19222, -3.71131 ], [ -80.1846869, -3.7174335 ], [ -80.18399, -3.718 ], [ -80.1825671, -3.7219153 ], [ -80.18081, -3.72675 ], [ -80.18089, -3.7293419 ], [ -80.1813, -3.74263 ], [ -80.18405, -3.74515 ], [ -80.1831513, -3.74883 ], [ -80.1831914, -3.7488317 ], [ -80.18864, -3.74905 ], [ -80.18933, -3.75089 ], [ -80.1888228, -3.7546396 ], [ -80.1883778, -3.7606862 ], [ -80.18961, -3.77182 ], [ -80.18802, -3.7755 ], [ -80.1840283, -3.7770564 ], [ -80.17765, -3.78855 ], [ -80.1753359, -3.7941673 ], [ -80.1678169, -3.7971557 ], [ -80.16655, -3.79741 ], [ -80.16336, -3.80386 ], [ -80.16241, -3.807 ], [ -80.1621399, -3.812185 ], [ -80.1618, -3.81871 ], [ -80.16251, -3.85744 ], [ -80.16109, -3.88106 ], [ -80.1556702, -3.8954897 ], [ -80.15606, -3.91151 ], [ -80.16199, -3.91949 ], [ -80.1636625, -3.9217598 ], [ -80.164093, -3.9223411 ], [ -80.18357, -3.92942 ], [ -80.1929078, -3.9392418 ], [ -80.2070554, -3.9486191 ], [ -80.21293, -3.95281 ], [ -80.2218761, -3.9514419 ], [ -80.23124, -3.95001 ], [ -80.23491, -3.95184 ], [ -80.23769, -3.96287 ], [ -80.24825, -3.97458 ], [ -80.2495093, -3.9809657 ], [ -80.26871, -4.00949 ], [ -80.2922289, -4.0166734 ], [ -80.30604, -4.01376 ], [ -80.31702, -4.0112 ], [ -80.3228449, -4.0019274 ], [ -80.32752, -3.99806 ], [ -80.33851, -3.99734 ], [ -80.3430022, -3.9947839 ], [ -80.3602542, -3.9849675 ], [ -80.36206, -3.98394 ], [ -80.39366, -3.98615 ], [ -80.39755, -3.98407 ], [ -80.40626, -3.98772 ], [ -80.410237, -3.9878977 ], [ -80.41611, -3.98816 ], [ -80.42001, -3.99114 ], [ -80.42314, -3.99135 ], [ -80.42986, -3.9918 ], [ -80.4492, -4.03177 ], [ -80.47651, -4.05723 ], [ -80.47427, -4.06052 ], [ -80.4701524, -4.0770305 ], [ -80.48, -4.07907 ], [ -80.4803431, -4.0802623 ], [ -80.48139, -4.0839 ], [ -80.46132, -4.11157 ], [ -80.46226, -4.12008 ], [ -80.4606307, -4.1255718 ], [ -80.4602117, -4.1269843 ], [ -80.45747, -4.12746 ], [ -80.44463, -4.12082 ], [ -80.44397, -4.1945 ], [ -80.4170919, -4.1991501 ], [ -80.40671, -4.21213 ], [ -80.38721, -4.20139 ], [ -80.37668, -4.20281 ], [ -80.3752482, -4.201933 ], [ -80.36659, -4.19663 ], [ -80.34074, -4.20616 ], [ -80.33661, -4.20273 ], [ -80.3070397, -4.2035145 ], [ -80.31111, -4.2093 ], [ -80.36348, -4.26966 ], [ -80.36649, -4.28115 ], [ -80.37315, -4.28758 ], [ -80.38186, -4.29193 ], [ -80.40313, -4.31123 ], [ -80.40689, -4.31463 ], [ -80.41539, -4.32404 ], [ -80.42022, -4.33369 ], [ -80.4258121, -4.3524534 ], [ -80.43748, -4.36331 ], [ -80.4389995, -4.3652336 ], [ -80.44312, -4.37045 ], [ -80.4448188, -4.3921377 ], [ -80.44673, -4.39596 ], [ -80.44491, -4.40102 ], [ -80.4434, -4.43691 ], [ -80.4194329, -4.4589535 ], [ -80.4191814, -4.4597554 ], [ -80.41918, -4.45976 ], [ -80.41622, -4.46321 ], [ -80.4123, -4.45678 ], [ -80.4016581, -4.4647709 ], [ -80.40041, -4.46625 ], [ -80.38831, -4.48285 ], [ -80.3856283, -4.48307 ], [ -80.3792552, -4.4798368 ], [ -80.37776, -4.47828 ], [ -80.3719086, -4.4768124 ], [ -80.37158, -4.47673 ], [ -80.3576033, -4.4799392 ], [ -80.33467, -4.47011 ], [ -80.32915, -4.46115 ], [ -80.3238491, -4.4576289 ], [ -80.32364, -4.45749 ], [ -80.31721, -4.44853 ], [ -80.31331, -4.44648 ], [ -80.308126, -4.4470889 ], [ -80.30482, -4.44558 ], [ -80.3000677, -4.4391918 ], [ -80.29747, -4.4357 ], [ -80.292134, -4.4360169 ], [ -80.28922, -4.43619 ], [ -80.28348, -4.42907 ], [ -80.2848509, -4.4263076 ], [ -80.27747, -4.40585 ], [ -80.2731, -4.40195 ], [ -80.26738, -4.40174 ], [ -80.26074, -4.40682 ], [ -80.25593, -4.40591 ], [ -80.25156, -4.3981 ], [ -80.24924, -4.39839 ], [ -80.2473447, -4.3986179 ], [ -80.24306, -4.39007 ], [ -80.23159, -4.38113 ], [ -80.2298333, -4.3773909 ], [ -80.2263, -4.36987 ], [ -80.2262955, -4.3698679 ], [ -80.22286, -4.36827 ], [ -80.22172, -4.3731 ], [ -80.2199552, -4.3733783 ], [ -80.21713, -4.36966 ], [ -80.2178, -4.36391 ], [ -80.21528, -4.3607 ], [ -80.2148, -4.35034 ], [ -80.20815, -4.35105 ], [ -80.20472, -4.35083 ], [ -80.20035, -4.34509 ], [ -80.1977399, -4.3448049 ], [ -80.19623, -4.34464 ], [ -80.19026, -4.34189 ], [ -80.1943767, -4.338203 ], [ -80.19438, -4.3382 ], [ -80.1897577, -4.3382147 ], [ -80.16908, -4.2941 ], [ -80.16473, -4.29319 ], [ -80.15513, -4.30356 ], [ -80.136447, -4.2853435 ], [ -80.1363066, -4.2852128 ], [ -80.13242, -4.28844 ], [ -80.13336, -4.29649 ], [ -80.13107, -4.29742 ], [ -80.1268202, -4.2960034 ], [ -80.12213, -4.29444 ], [ -80.11686, -4.29469 ], [ -80.10839, -4.29862 ], [ -80.10426, -4.29449 ], [ -80.1031391, -4.2942652 ], [ -80.10082, -4.2938 ], [ -80.097296, -4.2953241 ], [ -80.09608, -4.29585 ], [ -80.06031, -4.30587 ], [ -80.04799, -4.32821 ], [ -80.0146, -4.35382 ], [ -80.01072, -4.36188 ], [ -80.0085, -4.36394 ], [ -79.97455, -4.376 ], [ -79.95833, -4.39237 ], [ -79.94573, -4.39125 ], [ -79.91478, -4.38166 ], [ -79.86674, -4.41167 ], [ -79.85191, -4.44506 ], [ -79.847571, -4.4526582 ], [ -79.80526, -4.48725 ], [ -79.7951432, -4.4872739 ], [ -79.75255, -4.47954 ], [ -79.7498325, -4.4795939 ], [ -79.7494431, -4.4796016 ], [ -79.73995, -4.47979 ], [ -79.72023, -4.46902 ], [ -79.71542, -4.46765 ], [ -79.7141279, -4.4677768 ], [ -79.7035, -4.46882 ], [ -79.6971703, -4.465563 ], [ -79.67918, -4.44955 ], [ -79.6746473, -4.448124 ], [ -79.67117, -4.44703 ], [ -79.6670461, -4.4442102 ], [ -79.65305, -4.43464 ], [ -79.6449, -4.4342393 ], [ -79.6441, -4.4342 ], [ -79.6430109, -4.4332722 ], [ -79.63678, -4.43399 ], [ -79.63059, -4.43492 ], [ -79.5949089, -4.4621139 ], [ -79.59445, -4.46558 ], [ -79.5574, -4.51166 ], [ -79.54093, -4.51881 ], [ -79.5411438, -4.5271502 ], [ -79.54116, -4.52778 ], [ -79.53314, -4.5232 ], [ -79.530676, -4.5231641 ], [ -79.5214495, -4.5230299 ], [ -79.51871, -4.52299 ], [ -79.508038, -4.5134317 ], [ -79.48183, -4.52881 ], [ -79.47616, -4.56999 ], [ -79.4823721, -4.5740411 ], [ -79.47922, -4.62129 ], [ -79.4584, -4.64709 ], [ -79.45092, -4.70484 ], [ -79.4277936, -4.7363491 ], [ -79.42508, -4.74214 ], [ -79.417243, -4.791971 ], [ -79.41685, -4.79447 ], [ -79.4162202, -4.7985184 ], [ -79.38739, -4.83307 ], [ -79.3853387, -4.8338434 ], [ -79.38373, -4.83445 ], [ -79.36997, -4.83217 ], [ -79.3576, -4.83932 ], [ -79.35441, -4.84669 ], [ -79.35054, -4.86924 ], [ -79.3500267, -4.8705135 ], [ -79.34711, -4.87775 ], [ -79.33841, -4.88651 ], [ -79.3299691, -4.8864011 ], [ -79.32214, -4.8863 ], [ -79.31111, -4.89288 ], [ -79.3089784, -4.8944605 ], [ -79.3065365, -4.8956429 ], [ -79.30038, -4.89784 ], [ -79.29444, -4.90705 ], [ -79.2949, -4.91578 ], [ -79.2597652, -4.9673534 ], [ -79.2567263, -4.967319 ], [ -79.24178, -4.96715 ], [ -79.2351091, -4.9651266 ], [ -79.23123, -4.96395 ], [ -79.2265464, -4.963781 ], [ -79.21266, -4.96328 ], [ -79.20373, -4.96467 ], [ -79.1984847, -4.962693 ], [ -79.18877, -4.96128 ], [ -79.17255, -4.96081 ], [ -79.1593365, -4.9627182 ], [ -79.1533, -4.96359 ], [ -79.13977, -4.96246 ], [ -79.11525, -4.97261 ], [ -79.1149659, -4.972675 ], [ -79.10516, -4.97492 ], [ -79.0954956, -4.9747748 ], [ -79.09118, -4.97471 ], [ -79.0871344, -4.9731924 ], [ -79.08201, -4.97127 ], [ -79.07261, -4.9699 ], [ -79.0709417, -4.9702618 ], [ -79.06598, -4.9844 ], [ -79.06136, -4.9854 ], [ -79.05743, -4.98659 ], [ -79.04552, -4.98639 ], [ -79.01503, -4.98392 ], [ -79.00517, -4.9821 ], [ -78.9999, -4.97936 ], [ -78.98633, -4.9596 ], [ -78.97065, -4.90006 ], [ -78.9640965, -4.8873468 ], [ -78.91299, -4.81874 ], [ -78.91915, -4.80355 ], [ -78.9147568, -4.7837749 ], [ -78.90258, -4.76448 ], [ -78.8991155, -4.7567283 ], [ -78.88902, -4.73414 ], [ -78.85641, -4.69303 ], [ -78.81559, -4.67148 ], [ -78.73102, -4.64909 ], [ -78.71909, -4.636 ], [ -78.7122, -4.62727 ], [ -78.69729, -4.60959 ], [ -78.657561, -4.5590854 ], [ -78.65529, -4.55583 ], [ -78.6273668, -4.5091853 ], [ -78.62084, -4.49654 ], [ -78.60909, -4.44732 ], [ -78.6107413, -4.4344163 ], [ -78.61227, -4.42247 ], [ -78.61524, -4.41465 ], [ -78.61729, -4.40567 ], [ -78.630896, -4.3486956 ], [ -78.63071, -4.34031 ], [ -78.62149, -4.30053 ], [ -78.61484, -4.29042 ], [ -78.60773, -4.28399 ], [ -78.57702, -4.26288 ], [ -78.56828, -4.23735 ], [ -78.5744905, -4.175422 ], [ -78.57506, -4.16787 ], [ -78.5751768, -4.1613396 ], [ -78.57527, -4.15613 ], [ -78.5652749, -4.1134852 ], [ -78.56261, -4.10623 ], [ -78.55985, -4.09565 ], [ -78.55939, -4.09289 ], [ -78.5547762, -4.0794045 ], [ -78.55006, -4.06562 ], [ -78.5331629, -4.0318555 ], [ -78.53299, -4.03151 ], [ -78.52266, -4.00852 ], [ -78.49419, -3.93932 ], [ -78.48364, -3.92024 ], [ -78.47218, -3.90484 ], [ -78.44261, -3.87244 ], [ -78.4337568, -3.8633621 ], [ -78.3993, -3.82373 ], [ -78.3766013, -3.7871824 ], [ -78.3590615, -3.7216389 ], [ -78.35684, -3.71245 ], [ -78.34715, -3.64344 ], [ -78.3472045, -3.5334421 ], [ -78.34589, -3.52036 ], [ -78.33369, -3.4509 ], [ -78.31948, -3.4293 ], [ -78.31078, -3.42126 ], [ -78.28629, -3.41048 ], [ -78.24857, -3.42869 ], [ -78.24332, -3.43836 ], [ -78.24036, -3.45309 ], [ -78.24451, -3.49956 ], [ -78.22442, -3.53616 ], [ -78.21595, -3.53548 ], [ -78.19832, -3.51548 ], [ -78.14479, -3.52681 ], [ -78.12441, -3.5082 ], [ -78.12279, -3.47922 ], [ -78.13993, -3.45574 ], [ -78.1637, -3.42741 ], [ -78.1725326, -3.4155358 ], [ -78.1765, -3.41176 ], [ -78.1805187, -3.4053625 ], [ -78.1854, -3.3961 ], [ -78.19089, -3.38896 ], [ -78.19521, -3.36411 ], [ -78.14165, -3.31955 ], [ -78.1294326, -3.3074041 ], [ -78.1070862, -3.281394 ], [ -78.0993, -3.26921 ], [ -78.0967571, -3.2621916 ], [ -78.09655, -3.26162 ], [ -78.0954, -3.2538 ], [ -78.09401, -3.22988 ], [ -78.09057, -3.21953 ], [ -78.0884015, -3.2184386 ], [ -78.086, -3.21723 ], [ -78.0636961, -3.2246982 ], [ -78.06222, -3.22485 ], [ -78.05581, -3.22141 ], [ -78.04734, -3.20922 ], [ -78.03841, -3.19428 ], [ -78.02605, -3.17611 ], [ -77.98348, -3.12347 ], [ -77.9734417, -3.1155656 ], [ -77.95168, -3.09843 ], [ -77.8446371, -3.0121389 ], [ -77.83366, -3.00282 ], [ -77.82405, -2.99754 ], [ -77.8049406, -2.9897982 ], [ -77.62604, -2.92887 ], [ -77.5625521, -2.9084404 ], [ -77.50134, -2.88801 ], [ -77.4109726, -2.8577309 ], [ -77.22348, -2.79462 ], [ -77.17868, -2.7799 ], [ -77.02511, -2.72834 ], [ -77.0183979, -2.7260643 ], [ -76.69128, -2.61386 ], [ -76.6474, -2.59869 ], [ -76.62732, -2.59059 ], [ -76.6136702, -2.5796531 ], [ -76.540517, -2.5213912 ], [ -76.47208, -2.4674 ], [ -76.3168272, -2.3441406 ], [ -76.30409, -2.3343 ], [ -76.21031, -2.26013 ], [ -76.20119, -2.25299 ], [ -76.0447, -2.12814 ], [ -76.00546, -2.07785 ], [ -75.96632, -2.02868 ], [ -75.92873, -1.98057 ], [ -75.89341, -1.93506 ], [ -75.862425, -1.8958321 ], [ -75.64773, -1.62303 ], [ -75.61907, -1.58611 ], [ -75.599692, -1.5668417 ], [ -75.59628, -1.56339 ], [ -75.58672, -1.55509 ], [ -75.5792753, -1.5496196 ], [ -75.57669, -1.54772 ], [ -75.5740373, -1.5464535 ], [ -75.56164, -1.54309 ], [ -75.5576616, -1.5438807 ], [ -75.55364, -1.54468 ], [ -75.5490317, -1.5444693 ], [ -75.5460107, -1.5430494 ], [ -75.54247, -1.54098 ], [ -75.53519, -1.52901 ], [ -75.43449, -1.18635 ], [ -75.4256, -1.15564 ], [ -75.40234, -1.08024 ], [ -75.39489, -1.05644 ], [ -75.36436, -0.95573 ], [ -75.3604154, -0.9495115 ], [ -75.3535908, -0.94431 ], [ -75.35298, -0.94422 ], [ -75.3518642, -0.9445643 ], [ -75.32167, -0.96965 ], [ -75.2880312, -0.9805947 ], [ -75.28332, -0.98058 ], [ -75.2579581, -0.9720369 ], [ -75.25712, -0.97179 ], [ -75.2339987, -0.9732134 ], [ -75.22814, -0.97516 ], [ -75.21719, -0.97628 ], [ -75.2127069, -0.9759317 ], [ -75.208578, -0.9756074 ], [ -75.2051, -0.97533 ], [ -75.20236, -0.97602 ], [ -75.18936, -0.97576 ], [ -75.22782, -0.92462 ], [ -75.21626, -0.90024 ], [ -75.21889, -0.85545 ], [ -75.24224, -0.8228801 ], [ -75.24051, -0.78888 ], [ -75.2614517, -0.7757661 ], [ -75.26108, -0.77286 ], [ -75.25063, -0.7556 ], [ -75.27144, -0.73406 ], [ -75.27533, -0.72879 ], [ -75.2774, -0.72305 ], [ -75.28017, -0.71088 ], [ -75.26312, -0.68833 ], [ -75.2576703, -0.6828078 ], [ -75.27366, -0.66791 ], [ -75.2785367, -0.66104 ], [ -75.2787004, -0.660809 ], [ -75.28146, -0.65347 ], [ -75.26878, -0.62923 ], [ -75.2433, -0.61421 ], [ -75.2351, -0.61005 ], [ -75.23489, -0.60614 ], [ -75.2375851, -0.6041233 ], [ -75.2422, -0.60067 ], [ -75.2432817, -0.5985714 ], [ -75.24587, -0.59355 ], [ -75.24316, -0.58596 ], [ -75.25069, -0.58576 ], [ -75.24418, -0.55519 ], [ -75.24356, -0.54095 ], [ -75.2444707, -0.5370453 ], [ -75.24495, -0.53499 ], [ -75.26162, -0.52816 ], [ -75.2612759, -0.5268232 ], [ -75.2593701, -0.5194202 ], [ -75.26878, -0.50292 ], [ -75.27197, -0.50408 ], [ -75.27671, -0.50968 ], [ -75.29021, -0.503 ], [ -75.29435, -0.4913 ], [ -75.30738, -0.48193 ], [ -75.3137331, -0.4913608 ], [ -75.3164483, -0.4920186 ], [ -75.33549, -0.4648 ], [ -75.3376002, -0.4605848 ], [ -75.33962, -0.45655 ], [ -75.35859, -0.44307 ], [ -75.3608228, -0.4461164 ], [ -75.36449, -0.45112 ], [ -75.3791701, -0.4396762 ], [ -75.3818718, -0.4351098 ], [ -75.38735, -0.43444 ], [ -75.41451, -0.42373 ], [ -75.43408, -0.36685 ], [ -75.4362249, -0.3580209 ], [ -75.43709, -0.35446 ], [ -75.43787, -0.35244 ], [ -75.44915, -0.32869 ], [ -75.46397, -0.32482 ], [ -75.49859, -0.33408 ], [ -75.54626, -0.31994 ], [ -75.62205, -0.26339 ], [ -75.62618, -0.25192 ], [ -75.62278, -0.13874 ], [ -75.62216, -0.11395 ], [ -75.61443, -0.10727 ], [ -75.6074597, -0.1137563 ], [ -75.60507, -0.11598 ], [ -75.59414, -0.11756 ], [ -75.59179, -0.11773 ], [ -75.55798, -0.12435 ], [ -75.54636, -0.12294 ], [ -75.54341, -0.11696 ], [ -75.53658, -0.1174 ], [ -75.5356316, -0.1132645 ], [ -75.47846, -0.1186 ], [ -75.45242, -0.13687 ], [ -75.4435572, -0.1367286 ], [ -75.38765, -0.14905 ], [ -75.34918, -0.13538 ], [ -75.3018, -0.13063 ], [ -75.2937381, -0.1123017 ], [ -75.29162, -0.10902 ], [ -75.2882002, -0.093691 ], [ -75.24842, -0.06031 ], [ -75.23417, -0.0208 ], [ -75.20739, -0.01298 ], [ -75.16875, -0.03234 ], [ -75.11498, -0.03862 ], [ -75.00608, -0.1127 ], [ -74.95898, -0.16628 ], [ -74.93915, -0.16737 ], [ -74.90352, -0.19504 ], [ -74.87279, -0.18577 ], [ -74.83282, -0.14135 ], [ -74.80474, -0.16147 ], [ -74.78545, -0.20273 ] ] ], [ [ [ -77.2451339, -12.0591577 ], [ -77.221348, -12.0701846 ], [ -77.18851, -12.10548 ], [ -77.2016601, -12.11336 ], [ -77.2488997, -12.0779063 ], [ -77.2451339, -12.0591577 ] ] ] ] } }
]
}
