{
"type": "FeatureCollection",
"name": "PHL_GAUL1997_ADM1",
"crs": { "type": "name", "properties": { "name": "urn:ogc:def:crs:OGC:1.3:CRS84" } },
"features": [
{ "type": "Feature", "properties": { "POLYGON_ID": "PHL_GAUL1997_ADM1_2353", "ADM0_ISO3": "PHL", "ADM0_NAME": "Philippines", "ADM0_CODE": 196, "ADM1_NAME": "Autonomous region in Muslim Mindanao (ARMM)", "ADM1_CODE": 2353, "GEOSET": "GAUL", "GEOSET_YEAR": 1997.0, "GEOSET_VERSION": "GAUL_v1", "GEOSET_UNIT": "ADM1", "CENTROID_LONG": 123.66512989582992, "CENTROID_LAT": 7.0736356359666317 }, "geometry": { "type": "MultiPolygon", "coordinates": [ [ [ [ 124.8124237, 7.6114774 ], [ 124.7137756, 7.6072531 ], [ 124.6652756, 7.6214652 ], [ 124.5849228, 7.6231599 ], [ 124.5205536, 7.7083445 ], [ 124.4906998, 7.7003512 ], [ 124.4469452, 7.6647663 ], [ 124.4176102, 7.6256137 ], [ 124.4207001, 7.5022163 ], [ 124.4821091, 7.4573293 ], [ 124.4448395, 7.2984114 ], [ 124.4161072, 7.2972436 ], [ 124.3358841, 7.1672144 ], [ 124.3765106, 7.170681 ], [ 124.4151688, 7.2277694 ], [ 124.4501343, 7.2405658 ], [ 124.4976196, 7.2335572 ], [ 124.4301224, 7.0879722 ], [ 124.5050507, 7.0263815 ], [ 124.5312576, 7.0370908 ], [ 124.5852051, 6.9687538 ], [ 124.6169739, 6.9720268 ], [ 124.6590576, 6.9469442 ], [ 124.7062454, 6.9937105 ], [ 124.6893387, 7.0687723 ], [ 124.7354584, 7.090055 ], [ 124.7279968, 7.1278458 ], [ 124.6940537, 7.1438026 ], [ 124.7156754, 7.1878939 ], [ 124.836792, 7.0583811 ], [ 124.8181076, 7.0424633 ], [ 124.8240891, 6.8194056 ], [ 124.9152222, 6.7933354 ], [ 124.9271698, 6.768683 ], [ 124.9087753, 6.7364602 ], [ 124.9232101, 6.7078495 ], [ 124.8782272, 6.6923752 ], [ 124.9017639, 6.6479502 ], [ 124.8060989, 6.6533732 ], [ 124.7706146, 6.6993814 ], [ 124.7587814, 6.7488937 ], [ 124.7259521, 6.7688413 ], [ 124.667923, 6.7710805 ], [ 124.7075882, 6.8594513 ], [ 124.6851578, 6.8811107 ], [ 124.558548, 6.856647 ], [ 124.5799637, 6.8120842 ], [ 124.5786209, 6.7772164 ], [ 124.5298843, 6.7513113 ], [ 124.0339284, 6.7480803 ], [ 124.0309601, 6.7763042 ], [ 123.9617081, 6.8010159 ], [ 123.9549637, 6.8465199 ], [ 123.9708023, 6.8644781 ], [ 123.9564667, 6.9111161 ], [ 123.9930801, 7.021965 ], [ 124.0350266, 7.1079888 ], [ 124.0639572, 7.1436572 ], [ 124.1504135, 7.175961 ], [ 124.2135162, 7.2920952 ], [ 124.2109222, 7.338275 ], [ 124.254158, 7.351891 ], [ 124.2444229, 7.4074779 ], [ 124.2207336, 7.4046888 ], [ 124.1389771, 7.4360452 ], [ 124.1417236, 7.4587941 ], [ 124.100647, 7.530406 ], [ 124.0123062, 7.6469531 ], [ 123.9180832, 7.6918087 ], [ 123.8556446, 7.6977347 ], [ 123.8712387, 7.7454844 ], [ 123.9923477, 7.6948576 ], [ 124.0014954, 7.7593913 ], [ 124.0597992, 7.8408356 ], [ 124.0521088, 7.9063678 ], [ 124.1135483, 7.9090848 ], [ 124.1604309, 8.0009451 ], [ 124.1622086, 8.0499811 ], [ 124.2639771, 8.0590677 ], [ 124.3070602, 8.1068525 ], [ 124.2889786, 8.1498795 ], [ 124.2969818, 8.2117882 ], [ 124.3153534, 8.2261477 ], [ 124.4011536, 8.241107 ], [ 124.4155273, 8.1919756 ], [ 124.5324173, 8.119957 ], [ 124.6149368, 7.9768782 ], [ 124.6201401, 7.9463229 ], [ 124.6039505, 7.904192 ], [ 124.6348038, 7.8517666 ], [ 124.6691589, 7.83111 ], [ 124.716362, 7.753552 ], [ 124.7437973, 7.7272563 ], [ 124.7397461, 7.6976137 ], [ 124.7664261, 7.6484427 ], [ 124.8124237, 7.6114774 ] ] ], [ [ [ 121.796463, 6.0596671 ], [ 121.8598633, 6.0218439 ], [ 121.8463669, 6.0038447 ], [ 121.796463, 6.0596671 ] ] ], [ [ [ 121.1251677, 6.089588 ], [ 121.1540604, 6.0783291 ], [ 121.1846619, 6.0239711 ], [ 121.2213364, 5.9933329 ], [ 121.2490234, 6.0169358 ], [ 121.3235168, 6.0048847 ], [ 121.3839035, 6.0125408 ], [ 121.414978, 5.9977388 ], [ 121.4293671, 5.9672151 ], [ 121.2713776, 5.8643031 ], [ 121.2298813, 5.9404688 ], [ 121.1914673, 5.9497061 ], [ 121.1342392, 5.9112263 ], [ 121.08078, 5.9005971 ], [ 121.0615768, 5.8827829 ], [ 121.0307999, 5.9260993 ], [ 120.9365768, 5.8906288 ], [ 120.8769302, 5.9204397 ], [ 120.8687286, 5.9496098 ], [ 120.8916321, 6.0049419 ], [ 120.9245605, 6.033185 ], [ 121.0087128, 6.064919 ], [ 121.0157166, 6.0854268 ], [ 121.1251677, 6.089588 ] ] ], [ [ [ 121.1513072, 5.8494647 ], [ 121.1975479, 5.8379359 ], [ 121.2229767, 5.8056269 ], [ 121.1654511, 5.7816391 ], [ 121.1303864, 5.8097548 ], [ 121.1513072, 5.8494647 ] ] ], [ [ [ 120.9092663, 5.7586618 ], [ 120.9235535, 5.7081242 ], [ 120.8741608, 5.7106161 ], [ 120.9092663, 5.7586618 ] ] ], [ [ [ 120.8864975, 5.5535402 ], [ 120.8867722, 5.5020013 ], [ 120.8485031, 5.488677 ], [ 120.8110428, 5.5377078 ], [ 120.82164, 5.573431 ], [ 120.8479538, 5.5894518 ], [ 120.8864975, 5.5535402 ] ] ], [ [ [ 120.860817, 5.673501 ], [ 120.7945099, 5.66255 ], [ 120.8037109, 5.702404 ], [ 120.8509979, 5.705657 ], [ 120.860817, 5.673501 ] ] ], [ [ [ 120.7885971, 5.5681849 ], [ 120.801178, 5.536273 ], [ 120.7699585, 5.4946818 ], [ 120.7372437, 5.5158958 ], [ 120.7596436, 5.5592942 ], [ 120.7885971, 5.5681849 ] ] ], [ [ [ 120.5804672, 6.3008132 ], [ 120.5708923, 6.2497001 ], [ 120.5339584, 6.2391338 ], [ 120.5101471, 6.261302 ], [ 120.5361023, 6.304462 ], [ 120.5406876, 6.3451958 ], [ 120.562767, 6.382349 ], [ 120.5969772, 6.388298 ], [ 120.5804672, 6.3008132 ] ] ], [ [ [ 120.2709503, 5.2526498 ], [ 120.3083878, 5.2112288 ], [ 120.2989273, 5.1821761 ], [ 120.2434082, 5.1795287 ], [ 120.2709503, 5.2526498 ] ] ], [ [ [ 120.208168, 5.3468337 ], [ 120.2111588, 5.3081942 ], [ 120.255249, 5.2679701 ], [ 120.2495804, 5.2196093 ], [ 120.2295227, 5.1978521 ], [ 120.213501, 5.1167459 ], [ 120.1676865, 5.139699 ], [ 120.184433, 5.1791577 ], [ 120.1214828, 5.1904941 ], [ 120.0932922, 5.147048 ], [ 120.0510788, 5.180604 ], [ 120.0, 5.1570172 ], [ 119.9716721, 5.086915 ], [ 119.9219208, 5.088995 ], [ 119.8600388, 5.049962 ], [ 119.8222275, 5.056808 ], [ 119.815918, 5.1278992 ], [ 119.8359909, 5.1540222 ], [ 119.889473, 5.1609001 ], [ 119.9421463, 5.1930738 ], [ 119.980217, 5.2398028 ], [ 120.0291672, 5.2315493 ], [ 120.0756989, 5.2785659 ], [ 120.1730728, 5.3436208 ], [ 120.208168, 5.3468337 ] ] ], [ [ [ 119.816656, 4.9034476 ], [ 119.8487473, 4.8954659 ], [ 119.85112, 4.8637161 ], [ 119.8104935, 4.8540158 ], [ 119.816656, 4.9034476 ] ] ], [ [ [ 119.8172379, 5.0681 ], [ 119.7932968, 5.0500431 ], [ 119.7391586, 5.0452309 ], [ 119.7694702, 5.1030469 ], [ 119.798912, 5.121769 ], [ 119.8172379, 5.0681 ] ] ], [ [ [ 119.4860556, 4.6891027 ], [ 119.4548264, 4.6824021 ], [ 119.4660568, 4.785624 ], [ 119.4445419, 4.9016299 ], [ 119.4740677, 4.890007 ], [ 119.4928818, 4.8400187 ], [ 119.5061035, 4.7693539 ], [ 119.4860556, 4.6891027 ] ] ], [ [ [ 118.5256119, 7.0272579 ], [ 118.5139389, 6.970562 ], [ 118.4835815, 6.9653711 ], [ 118.42733, 6.988277 ], [ 118.421463, 7.0195308 ], [ 118.5256119, 7.0272579 ] ] ] ] } },
{ "type": "Feature", "properties": { "POLYGON_ID": "PHL_GAUL1997_ADM1_2360", "ADM0_ISO3": "PHL", "ADM0_NAME": "Philippines", "ADM0_CODE": 196, "ADM1_NAME": "Region IX (Western Mindanao)", "ADM1_CODE": 2360, "GEOSET": "GAUL", "GEOSET_YEAR": 1997.0, "GEOSET_VERSION": "GAUL_v1", "GEOSET_UNIT": "ADM1", "CENTROID_LONG": 122.79443530108331, "CENTROID_LAT": 7.7432383518078804 }, "geometry": { "type": "MultiPolygon", "coordinates": [ [ [ [ 123.5469024, 8.6245247 ], [ 123.5573349, 8.0606613 ], [ 123.5923843, 8.0349607 ], [ 123.6609328, 8.0140071 ], [ 123.7035664, 8.0 ], [ 123.6517334, 7.9085321 ], [ 123.5951076, 7.838372 ], [ 123.5427399, 7.8536568 ], [ 123.4631729, 7.8128319 ], [ 123.4227371, 7.7753048 ], [ 123.481781, 7.7302003 ], [ 123.4818878, 7.6817398 ], [ 123.45784, 7.629776 ], [ 123.3812408, 7.6057072 ], [ 123.3381119, 7.5484061 ], [ 123.3818893, 7.5292158 ], [ 123.381752, 7.488555 ], [ 123.4373093, 7.4496331 ], [ 123.4531326, 7.372015 ], [ 123.4096832, 7.3585882 ], [ 123.3674622, 7.4028292 ], [ 123.3241425, 7.4252381 ], [ 123.2883835, 7.463284 ], [ 123.3008728, 7.5292468 ], [ 123.224678, 7.5366321 ], [ 123.1585007, 7.4951081 ], [ 123.1174927, 7.5133748 ], [ 123.1038437, 7.5531158 ], [ 123.1916428, 7.5843248 ], [ 123.1904068, 7.6146431 ], [ 123.1271973, 7.6663818 ], [ 123.1455534, 7.6900882 ], [ 123.1199112, 7.722403 ], [ 123.0818329, 7.6761332 ], [ 123.0427704, 7.6498413 ], [ 123.0290527, 7.616497 ], [ 123.0253525, 7.5411429 ], [ 122.9846191, 7.4603939 ], [ 122.9560394, 7.473176 ], [ 122.9197235, 7.5357828 ], [ 122.8902588, 7.5384507 ], [ 122.8764267, 7.467885 ], [ 122.8410873, 7.4363031 ], [ 122.7801285, 7.5020471 ], [ 122.8065796, 7.58184 ], [ 122.7844162, 7.6770921 ], [ 122.8127365, 7.7463098 ], [ 122.7827377, 7.7719378 ], [ 122.7473526, 7.7513881 ], [ 122.723999, 7.7832351 ], [ 122.6915207, 7.7879519 ], [ 122.6261826, 7.7737288 ], [ 122.5668869, 7.744823 ], [ 122.4822617, 7.652431 ], [ 122.4694824, 7.6200008 ], [ 122.4298019, 7.5817308 ], [ 122.494072, 7.56427 ], [ 122.4480362, 7.5000172 ], [ 122.3611374, 7.474894 ], [ 122.3440628, 7.4254379 ], [ 122.3886108, 7.387002 ], [ 122.3643723, 7.3441792 ], [ 122.2876663, 7.3055248 ], [ 122.2757492, 7.2310309 ], [ 122.2462235, 7.1902461 ], [ 122.2566834, 7.1627088 ], [ 122.2502213, 7.1052318 ], [ 122.201828, 7.067585 ], [ 122.208847, 7.0352058 ], [ 122.1887436, 7.002491 ], [ 122.180191, 6.9535012 ], [ 122.1406021, 6.9011679 ], [ 122.1087036, 6.8856421 ], [ 122.0068893, 6.9256868 ], [ 121.9282837, 6.9711032 ], [ 121.8944931, 7.076457 ], [ 121.8983383, 7.1447291 ], [ 121.9218369, 7.1923981 ], [ 121.9621429, 7.2382951 ], [ 122.0100708, 7.2743378 ], [ 122.0583267, 7.2896991 ], [ 122.0337982, 7.324985 ], [ 122.0688934, 7.4684911 ], [ 122.0719223, 7.5167451 ], [ 122.1015701, 7.5262818 ], [ 122.1407394, 7.573987 ], [ 122.1061401, 7.5926862 ], [ 122.1326523, 7.6401081 ], [ 122.1304016, 7.6874142 ], [ 122.0994873, 7.759407 ], [ 122.1368485, 7.8041072 ], [ 122.1610336, 7.8625278 ], [ 122.1915894, 7.8773432 ], [ 122.2296371, 7.9220338 ], [ 122.2210083, 7.9513907 ], [ 122.2510529, 7.9873219 ], [ 122.3470306, 8.0385399 ], [ 122.4612579, 8.073266 ], [ 122.513298, 8.0674391 ], [ 122.5721207, 8.0787897 ], [ 122.6218185, 8.1042032 ], [ 122.6534119, 8.144434 ], [ 122.7101364, 8.1155605 ], [ 122.8205566, 8.1203003 ], [ 122.9175568, 8.1489916 ], [ 122.9891663, 8.2008295 ], [ 122.9978333, 8.2487869 ], [ 122.9494171, 8.2824841 ], [ 122.9466934, 8.3169775 ], [ 122.9902725, 8.3478937 ], [ 122.9810715, 8.4127769 ], [ 123.0100479, 8.430706 ], [ 123.0214615, 8.4752054 ], [ 123.0626373, 8.5180883 ], [ 123.2070007, 8.5327435 ], [ 123.2659302, 8.5147591 ], [ 123.29599, 8.5206976 ], [ 123.3292618, 8.5516605 ], [ 123.3549271, 8.6344128 ], [ 123.4128265, 8.6297388 ], [ 123.4246063, 8.6546869 ], [ 123.3844223, 8.7054091 ], [ 123.4319, 8.7199097 ], [ 123.4770584, 8.6833858 ], [ 123.506073, 8.626092 ], [ 123.5469024, 8.6245247 ] ] ], [ [ [ 122.9557884, 7.3878593 ], [ 122.923439, 7.3696952 ], [ 122.8994217, 7.320684 ], [ 122.8028793, 7.2891397 ], [ 122.8029633, 7.3373919 ], [ 122.7835617, 7.3614559 ], [ 122.8077469, 7.4272399 ], [ 122.8595886, 7.4058042 ], [ 122.899292, 7.440845 ], [ 122.9557884, 7.3878593 ] ] ], [ [ [ 122.0738373, 6.7450447 ], [ 122.0948868, 6.7154722 ], [ 122.1381531, 6.704607 ], [ 122.1378098, 6.6751781 ], [ 122.1723328, 6.6640472 ], [ 122.2337189, 6.6649728 ], [ 122.2574768, 6.6448312 ], [ 122.3018494, 6.6443081 ], [ 122.3251495, 6.6209431 ], [ 122.300209, 6.589581 ], [ 122.2332993, 6.593236 ], [ 122.2140427, 6.5807471 ], [ 122.1981583, 6.5257311 ], [ 122.1935577, 6.4663882 ], [ 122.0429993, 6.4094529 ], [ 121.9531403, 6.406786 ], [ 121.8644333, 6.5135689 ], [ 121.8766708, 6.5559301 ], [ 121.8498764, 6.5843267 ], [ 121.7951126, 6.5976563 ], [ 121.8081665, 6.6620898 ], [ 121.848793, 6.6801991 ], [ 121.885437, 6.6562142 ], [ 121.9794617, 6.715004 ], [ 122.0087738, 6.7436309 ], [ 122.0738373, 6.7450447 ] ] ] ] } },
{ "type": "Feature", "properties": { "POLYGON_ID": "PHL_GAUL1997_ADM1_2367", "ADM0_ISO3": "PHL", "ADM0_NAME": "Philippines", "ADM0_CODE": 196, "ADM1_NAME": "Region XII (Central Mindanao)", "ADM1_CODE": 2367, "GEOSET": "GAUL", "GEOSET_YEAR": 1997.0, "GEOSET_VERSION": "GAUL_v1", "GEOSET_UNIT": "ADM1", "CENTROID_LONG": 124.56943483854971, "CENTROID_LAT": 7.1684618452384781 }, "geometry": { "type": "MultiPolygon", "coordinates": [ [ [ [ 124.8124237, 7.6114774 ], [ 124.8272247, 7.5580335 ], [ 124.8560104, 7.5496206 ], [ 124.8968506, 7.5090513 ], [ 124.9078522, 7.473681 ], [ 124.887825, 7.4445796 ], [ 124.9072037, 7.4111018 ], [ 125.069519, 7.4257197 ], [ 125.1357193, 7.4741573 ], [ 125.175827, 7.5188122 ], [ 125.1919556, 7.5638552 ], [ 125.2152252, 7.5842586 ], [ 125.262291, 7.592803 ], [ 125.2714157, 7.4998889 ], [ 125.2873306, 7.4617019 ], [ 125.2799454, 7.4095168 ], [ 125.2312012, 7.4005303 ], [ 125.214119, 7.3661423 ], [ 125.2660599, 7.305366 ], [ 125.2865524, 7.245883 ], [ 125.2891006, 7.0698013 ], [ 125.3115845, 7.0460567 ], [ 125.2664185, 7.0141172 ], [ 125.2597275, 6.9553165 ], [ 125.2040482, 6.9111633 ], [ 125.1284866, 6.8227315 ], [ 125.1004791, 6.8450327 ], [ 125.0967941, 6.7652102 ], [ 125.1373901, 6.7445889 ], [ 125.1790314, 6.6907382 ], [ 125.1701202, 6.6607728 ], [ 125.1860886, 6.6224089 ], [ 125.1689377, 6.5357904 ], [ 124.8166504, 6.5369091 ], [ 124.745842, 6.6611948 ], [ 124.6422043, 6.5893388 ], [ 124.6078415, 6.5124092 ], [ 124.6239243, 6.4544773 ], [ 124.7008057, 6.4048285 ], [ 124.7195282, 6.3486309 ], [ 124.2448502, 6.3453941 ], [ 124.333931, 6.2480826 ], [ 124.3980408, 6.1997585 ], [ 124.3616888, 6.1154379 ], [ 124.3180466, 6.1204419 ], [ 124.2842331, 6.153749 ], [ 124.2582703, 6.1571641 ], [ 124.1761475, 6.2209878 ], [ 124.1669006, 6.262372 ], [ 124.1015472, 6.3239093 ], [ 124.0667267, 6.3935351 ], [ 124.0333633, 6.422226 ], [ 124.0367126, 6.4845481 ], [ 124.0226135, 6.5353417 ], [ 124.0496368, 6.5997663 ], [ 124.0465927, 6.6388469 ], [ 124.0218887, 6.6965151 ], [ 124.0339284, 6.7480803 ], [ 124.5298843, 6.7513113 ], [ 124.5786209, 6.7772164 ], [ 124.5799637, 6.8120842 ], [ 124.558548, 6.856647 ], [ 124.6851578, 6.8811107 ], [ 124.7075882, 6.8594513 ], [ 124.667923, 6.7710805 ], [ 124.7259521, 6.7688413 ], [ 124.7587814, 6.7488937 ], [ 124.7706146, 6.6993814 ], [ 124.8060989, 6.6533732 ], [ 124.9017639, 6.6479502 ], [ 124.8782272, 6.6923752 ], [ 124.9232101, 6.7078495 ], [ 124.9087753, 6.7364602 ], [ 124.9271698, 6.768683 ], [ 124.9152222, 6.7933354 ], [ 124.8240891, 6.8194056 ], [ 124.8181076, 7.0424633 ], [ 124.836792, 7.0583811 ], [ 124.7156754, 7.1878939 ], [ 124.6940537, 7.1438026 ], [ 124.7279968, 7.1278458 ], [ 124.7354584, 7.090055 ], [ 124.6893387, 7.0687723 ], [ 124.7062454, 6.9937105 ], [ 124.6590576, 6.9469442 ], [ 124.6169739, 6.9720268 ], [ 124.5852051, 6.9687538 ], [ 124.5312576, 7.0370908 ], [ 124.5050507, 7.0263815 ], [ 124.4301224, 7.0879722 ], [ 124.4976196, 7.2335572 ], [ 124.4501343, 7.2405658 ], [ 124.4151688, 7.2277694 ], [ 124.3765106, 7.170681 ], [ 124.3358841, 7.1672144 ], [ 124.4161072, 7.2972436 ], [ 124.4448395, 7.2984114 ], [ 124.4821091, 7.4573293 ], [ 124.4207001, 7.5022163 ], [ 124.4176102, 7.6256137 ], [ 124.4469452, 7.6647663 ], [ 124.4906998, 7.7003512 ], [ 124.5205536, 7.7083445 ], [ 124.5849228, 7.6231599 ], [ 124.6652756, 7.6214652 ], [ 124.7137756, 7.6072531 ], [ 124.8124237, 7.6114774 ] ] ], [ [ [ 124.6149368, 7.9768782 ], [ 124.5324173, 8.119957 ], [ 124.4155273, 8.1919756 ], [ 124.4011536, 8.241107 ], [ 124.3153534, 8.2261477 ], [ 124.2969818, 8.2117882 ], [ 124.2889786, 8.1498795 ], [ 124.3070602, 8.1068525 ], [ 124.2639771, 8.0590677 ], [ 124.1622086, 8.0499811 ], [ 124.1604309, 8.0009451 ], [ 124.1135483, 7.9090848 ], [ 124.0521088, 7.9063678 ], [ 124.0597992, 7.8408356 ], [ 124.0014954, 7.7593913 ], [ 123.9923477, 7.6948576 ], [ 123.8712387, 7.7454844 ], [ 123.8556446, 7.6977347 ], [ 123.7810974, 7.7048779 ], [ 123.7226868, 7.7888179 ], [ 123.692482, 7.8108029 ], [ 123.5951076, 7.838372 ], [ 123.6517334, 7.9085321 ], [ 123.7035664, 8.0 ], [ 123.7489777, 8.0 ], [ 123.788208, 8.052104 ], [ 123.8472672, 8.1024694 ], [ 123.906662, 8.1183567 ], [ 123.9339981, 8.1525164 ], [ 124.0292664, 8.199913 ], [ 124.0964508, 8.1890144 ], [ 124.1621628, 8.1896067 ], [ 124.230278, 8.2186489 ], [ 124.2651672, 8.281414 ], [ 124.2499083, 8.3290297 ], [ 124.457222, 8.3327808 ], [ 124.5071411, 8.3279734 ], [ 124.5849762, 8.2648973 ], [ 124.5680313, 8.2271328 ], [ 124.5911942, 8.1571207 ], [ 124.5737915, 8.0920658 ], [ 124.6106491, 8.0491123 ], [ 124.6149368, 7.9768782 ] ] ] ] } },
{ "type": "Feature", "properties": { "POLYGON_ID": "PHL_GAUL1997_ADM1_2365", "ADM0_ISO3": "PHL", "ADM0_NAME": "Philippines", "ADM0_CODE": 196, "ADM1_NAME": "Region X (Northern Mindanao)", "ADM1_CODE": 2365, "GEOSET": "GAUL", "GEOSET_YEAR": 1997.0, "GEOSET_VERSION": "GAUL_v1", "GEOSET_UNIT": "ADM1", "CENTROID_LONG": 124.78417993732587, "CENTROID_LAT": 8.2288602987667971 }, "geometry": { "type": "MultiPolygon", "coordinates": [ [ [ [ 125.39814, 7.9990788 ], [ 125.4009323, 7.9752064 ], [ 125.4372025, 7.9121728 ], [ 125.4544296, 7.7761202 ], [ 125.4466553, 7.696959 ], [ 125.4193649, 7.6553879 ], [ 125.3896027, 7.6706085 ], [ 125.3270111, 7.6713142 ], [ 125.3266525, 7.639905 ], [ 125.300621, 7.594502 ], [ 125.262291, 7.592803 ], [ 125.2152252, 7.5842586 ], [ 125.1919556, 7.5638552 ], [ 125.175827, 7.5188122 ], [ 125.1357193, 7.4741573 ], [ 125.069519, 7.4257197 ], [ 124.9072037, 7.4111018 ], [ 124.887825, 7.4445796 ], [ 124.9078522, 7.473681 ], [ 124.8968506, 7.5090513 ], [ 124.8560104, 7.5496206 ], [ 124.8272247, 7.5580335 ], [ 124.8124237, 7.6114774 ], [ 124.7664261, 7.6484427 ], [ 124.7397461, 7.6976137 ], [ 124.7437973, 7.7272563 ], [ 124.716362, 7.753552 ], [ 124.6691589, 7.83111 ], [ 124.6348038, 7.8517666 ], [ 124.6039505, 7.904192 ], [ 124.6201401, 7.9463229 ], [ 124.6149368, 7.9768782 ], [ 124.6106491, 8.0491123 ], [ 124.5737915, 8.0920658 ], [ 124.5911942, 8.1571207 ], [ 124.5680313, 8.2271328 ], [ 124.5849762, 8.2648973 ], [ 124.5071411, 8.3279734 ], [ 124.457222, 8.3327808 ], [ 124.2499083, 8.3290297 ], [ 124.2649765, 8.3802414 ], [ 124.2833786, 8.3940325 ], [ 124.2867203, 8.4597273 ], [ 124.3104477, 8.531147 ], [ 124.3832397, 8.5932074 ], [ 124.4483414, 8.6220846 ], [ 124.5168991, 8.5744438 ], [ 124.5734634, 8.5228796 ], [ 124.6555405, 8.5169268 ], [ 124.6667328, 8.4907961 ], [ 124.7068863, 8.4743748 ], [ 124.751091, 8.5004148 ], [ 124.7414474, 8.5371027 ], [ 124.7720032, 8.5925303 ], [ 124.7440567, 8.6577597 ], [ 124.7432022, 8.6959372 ], [ 124.7817764, 8.7289562 ], [ 124.7659225, 8.7680407 ], [ 124.7882767, 8.814168 ], [ 124.791687, 8.8748245 ], [ 124.7744598, 8.9642973 ], [ 124.8196869, 9.0078039 ], [ 124.8763504, 9.0085907 ], [ 124.9315186, 8.9707518 ], [ 125.0287628, 8.9189281 ], [ 125.0840073, 8.82794 ], [ 125.1673737, 8.8537798 ], [ 125.1857986, 8.8948822 ], [ 125.1882629, 8.9488859 ], [ 125.1734772, 9.0096035 ], [ 125.1850891, 9.0722084 ], [ 125.2005296, 9.0894807 ], [ 125.2127457, 8.9954109 ], [ 125.2308731, 8.9526968 ], [ 125.2202072, 8.9258871 ], [ 125.252243, 8.8701639 ], [ 125.2239227, 8.848649 ], [ 125.2471313, 8.678215 ], [ 125.2545547, 8.4436388 ], [ 125.279686, 8.3858652 ], [ 125.3068695, 8.3669691 ], [ 125.3162384, 8.3316469 ], [ 125.3441086, 8.3135328 ], [ 125.3378677, 8.2839079 ], [ 125.3626785, 8.2375822 ], [ 125.3702011, 8.1667995 ], [ 125.39814, 7.9990788 ] ] ], [ [ [ 124.7196426, 9.2572155 ], [ 124.7842636, 9.2001324 ], [ 124.8025818, 9.1057959 ], [ 124.7702866, 9.0788879 ], [ 124.7470169, 9.1022186 ], [ 124.6948624, 9.1100817 ], [ 124.6454315, 9.1494083 ], [ 124.6359787, 9.2194624 ], [ 124.6788406, 9.257513 ], [ 124.7196426, 9.2572155 ] ] ], [ [ [ 123.6609328, 8.0140071 ], [ 123.5923843, 8.0349607 ], [ 123.5573349, 8.0606613 ], [ 123.5469024, 8.6245247 ], [ 123.5662079, 8.6130886 ], [ 123.6192017, 8.6491108 ], [ 123.694809, 8.6363821 ], [ 123.7761612, 8.5557575 ], [ 123.8428879, 8.4270039 ], [ 123.8507996, 8.282815 ], [ 123.872673, 8.1720419 ], [ 123.7587738, 8.0570126 ], [ 123.7043381, 8.051383 ], [ 123.6609328, 8.0140071 ] ] ] ] } },
{ "type": "Feature", "properties": { "POLYGON_ID": "PHL_GAUL1997_ADM1_2366", "ADM0_ISO3": "PHL", "ADM0_NAME": "Philippines", "ADM0_CODE": 196, "ADM1_NAME": "Region XI (Southern Mindanao)", "ADM1_CODE": 2366, "GEOSET": "GAUL", "GEOSET_YEAR": 1997.0, "GEOSET_VERSION": "GAUL_v1", "GEOSET_UNIT": "ADM1", "CENTROID_LONG": 125.58716197499457, "CENTROID_LAT": 6.9121987174034487 }, "geometry": { "type": "MultiPolygon", "coordinates": [ [ [ [ 126.3743819, 7.9464351 ], [ 126.3595734, 7.907886 ], [ 126.3813629, 7.8313937 ], [ 126.4427872, 7.8099599 ], [ 126.4954224, 7.741683 ], [ 126.5598679, 7.7298789 ], [ 126.550148, 7.6968222 ], [ 126.5537415, 7.635952 ], [ 126.5977478, 7.512536 ], [ 126.5882111, 7.448915 ], [ 126.5564499, 7.4441381 ], [ 126.5514221, 7.3145638 ], [ 126.5989914, 7.274972 ], [ 126.5356216, 7.210495 ], [ 126.5111237, 7.1255031 ], [ 126.4837265, 7.1186461 ], [ 126.4505234, 7.05549 ], [ 126.4431229, 7.0189562 ], [ 126.3979874, 6.9928122 ], [ 126.3478699, 7.0018377 ], [ 126.320488, 6.9908371 ], [ 126.2902527, 6.9030681 ], [ 126.3424072, 6.8602519 ], [ 126.3487778, 6.8066831 ], [ 126.2972717, 6.8085828 ], [ 126.2970963, 6.8632941 ], [ 126.2624588, 6.9286141 ], [ 126.2185516, 6.9484267 ], [ 126.1902618, 6.9450088 ], [ 126.176651, 6.906177 ], [ 126.1839523, 6.848012 ], [ 126.2555923, 6.7525358 ], [ 126.2179871, 6.637393 ], [ 126.225708, 6.5484052 ], [ 126.2074966, 6.5058861 ], [ 126.2189331, 6.4396491 ], [ 126.1942825, 6.3918428 ], [ 126.1942368, 6.3456202 ], [ 126.1409531, 6.3769479 ], [ 126.1467438, 6.417645 ], [ 126.1212463, 6.4459529 ], [ 126.0820236, 6.5310669 ], [ 126.0868912, 6.5809588 ], [ 126.0692673, 6.6667328 ], [ 126.0886002, 6.6855688 ], [ 126.0773926, 6.75455 ], [ 126.082283, 6.8166142 ], [ 126.0726471, 6.8545518 ], [ 125.997963, 6.8962188 ], [ 125.9706268, 6.9525552 ], [ 125.9844666, 7.013453 ], [ 125.9288635, 7.0861201 ], [ 125.8821869, 7.124301 ], [ 125.8886566, 7.1670399 ], [ 125.8383331, 7.249567 ], [ 125.8448486, 7.363071 ], [ 125.8163071, 7.366992 ], [ 125.6947937, 7.291687 ], [ 125.6452866, 7.2220812 ], [ 125.6602173, 7.1276279 ], [ 125.610733, 7.056169 ], [ 125.5569077, 7.0490589 ], [ 125.5203171, 7.0235548 ], [ 125.4860535, 6.9785118 ], [ 125.4878769, 6.91921 ], [ 125.390358, 6.8029041 ], [ 125.3880615, 6.754168 ], [ 125.371727, 6.7279601 ], [ 125.3864365, 6.6320891 ], [ 125.38414, 6.6017389 ], [ 125.4793091, 6.5716109 ], [ 125.5163193, 6.5493021 ], [ 125.518837, 6.522398 ], [ 125.5627365, 6.5288281 ], [ 125.5930786, 6.493639 ], [ 125.5822601, 6.4384551 ], [ 125.6135101, 6.4120011 ], [ 125.6348572, 6.3683009 ], [ 125.6663132, 6.264112 ], [ 125.6998367, 6.2171822 ], [ 125.7117386, 6.1132169 ], [ 125.6873322, 5.9848771 ], [ 125.6585922, 5.9220901 ], [ 125.564621, 5.8165278 ], [ 125.4839935, 5.697834 ], [ 125.4114075, 5.572681 ], [ 125.33564, 5.562098 ], [ 125.2924728, 5.5830331 ], [ 125.3044128, 5.6460748 ], [ 125.2731781, 5.7111812 ], [ 125.2403564, 5.7172251 ], [ 125.216217, 5.7661572 ], [ 125.1714172, 5.8008862 ], [ 125.2166595, 5.8593278 ], [ 125.2148209, 5.8922229 ], [ 125.2641983, 5.930418 ], [ 125.2878571, 5.9830971 ], [ 125.2717667, 6.0820041 ], [ 125.2492523, 6.0985608 ], [ 125.2081299, 6.0909653 ], [ 125.1784897, 6.109128 ], [ 125.1539078, 6.0939431 ], [ 125.1318665, 6.0150409 ], [ 125.0783768, 5.9020791 ], [ 125.0836716, 5.873785 ], [ 125.0414124, 5.856287 ], [ 124.9238205, 5.8589931 ], [ 124.829628, 5.889071 ], [ 124.7993011, 5.9090652 ], [ 124.6680985, 5.9602609 ], [ 124.5685806, 6.0179081 ], [ 124.5304413, 6.0197101 ], [ 124.4154968, 6.0936499 ], [ 124.3616888, 6.1154379 ], [ 124.3980408, 6.1997585 ], [ 124.333931, 6.2480826 ], [ 124.2448502, 6.3453941 ], [ 124.7195282, 6.3486309 ], [ 124.7008057, 6.4048285 ], [ 124.6239243, 6.4544773 ], [ 124.6078415, 6.5124092 ], [ 124.6422043, 6.5893388 ], [ 124.745842, 6.6611948 ], [ 124.8166504, 6.5369091 ], [ 125.1689377, 6.5357904 ], [ 125.1860886, 6.6224089 ], [ 125.1701202, 6.6607728 ], [ 125.1790314, 6.6907382 ], [ 125.1373901, 6.7445889 ], [ 125.0967941, 6.7652102 ], [ 125.1004791, 6.8450327 ], [ 125.1284866, 6.8227315 ], [ 125.2040482, 6.9111633 ], [ 125.2597275, 6.9553165 ], [ 125.2664185, 7.0141172 ], [ 125.3115845, 7.0460567 ], [ 125.2891006, 7.0698013 ], [ 125.2865524, 7.245883 ], [ 125.2660599, 7.305366 ], [ 125.214119, 7.3661423 ], [ 125.2312012, 7.4005303 ], [ 125.2799454, 7.4095168 ], [ 125.2873306, 7.4617019 ], [ 125.2714157, 7.4998889 ], [ 125.262291, 7.592803 ], [ 125.300621, 7.594502 ], [ 125.3266525, 7.639905 ], [ 125.3270111, 7.6713142 ], [ 125.3896027, 7.6706085 ], [ 125.4193649, 7.6553879 ], [ 125.4466553, 7.696959 ], [ 125.4544296, 7.7761202 ], [ 125.4372025, 7.9121728 ], [ 125.4009323, 7.9752064 ], [ 125.39814, 7.9990788 ], [ 125.9849396, 7.9989085 ], [ 125.9969635, 7.9538522 ], [ 126.0408936, 7.9255271 ], [ 126.0748138, 7.9523387 ], [ 126.1957016, 7.998868 ], [ 126.3714752, 7.9988422 ], [ 126.3743819, 7.9464351 ] ] ], [ [ [ 125.7827988, 7.0827599 ], [ 125.7744904, 7.0253072 ], [ 125.7893906, 6.9400258 ], [ 125.7654495, 6.894526 ], [ 125.7236328, 6.9609752 ], [ 125.7252579, 7.0094709 ], [ 125.7089462, 7.0722218 ], [ 125.6728363, 7.0706282 ], [ 125.6629562, 7.109931 ], [ 125.6926727, 7.1862159 ], [ 125.7614517, 7.164125 ], [ 125.7966232, 7.1169958 ], [ 125.7827988, 7.0827599 ] ] ], [ [ [ 125.7135696, 6.9039979 ], [ 125.6909409, 6.9044433 ], [ 125.6697998, 6.9428382 ], [ 125.701767, 6.962822 ], [ 125.7203903, 6.9343128 ], [ 125.7135696, 6.9039979 ] ] ], [ [ [ 125.4968033, 5.4744239 ], [ 125.490593, 5.4247251 ], [ 125.4529495, 5.4337029 ], [ 125.4713211, 5.4939861 ], [ 125.4968033, 5.4744239 ] ] ], [ [ [ 125.4267731, 5.393209 ], [ 125.4205704, 5.3683581 ], [ 125.3735123, 5.3676701 ], [ 125.3393097, 5.3851571 ], [ 125.3618088, 5.4226642 ], [ 125.400383, 5.4343982 ], [ 125.4267731, 5.393209 ] ] ] ] } },
{ "type": "Feature", "properties": { "POLYGON_ID": "PHL_GAUL1997_ADM1_2358", "ADM0_ISO3": "PHL", "ADM0_NAME": "Philippines", "ADM0_CODE": 196, "ADM1_NAME": "Region III (Central Luzon)", "ADM1_CODE": 2358, "GEOSET": "GAUL", "GEOSET_YEAR": 1997.0, "GEOSET_VERSION": "GAUL_v1", "GEOSET_UNIT": "ADM1", "CENTROID_LONG": 120.66934712663323, "CENTROID_LAT": 15.301646858558998 }, "geometry": { "type": "MultiPolygon", "coordinates": [ [ [ [ 121.2674866, 15.756568 ], [ 121.363533, 15.4723091 ], [ 121.3428345, 15.4043226 ], [ 121.2980728, 15.1926489 ], [ 121.313858, 15.120121 ], [ 121.3006592, 15.0667324 ], [ 121.3347549, 15.0327759 ], [ 121.3401871, 14.8902073 ], [ 121.2915421, 14.8933029 ], [ 121.24823, 14.846777 ], [ 121.1273727, 14.8117914 ], [ 121.0925751, 14.7869568 ], [ 121.0763168, 14.7681599 ], [ 121.0160217, 14.7854671 ], [ 120.9966965, 14.7643824 ], [ 120.9311752, 14.7350636 ], [ 120.89939, 14.739121 ], [ 120.8681183, 14.7240744 ], [ 120.8449707, 14.7523565 ], [ 120.7590103, 14.7530403 ], [ 120.6950073, 14.7700319 ], [ 120.6548615, 14.765873 ], [ 120.5716324, 14.8488045 ], [ 120.536972, 14.8037119 ], [ 120.5523987, 14.7480907 ], [ 120.5351868, 14.728301 ], [ 120.54776, 14.6843987 ], [ 120.5791931, 14.6577568 ], [ 120.5840073, 14.5887794 ], [ 120.6100464, 14.5071669 ], [ 120.6018524, 14.4627771 ], [ 120.540123, 14.4174175 ], [ 120.5018768, 14.435545 ], [ 120.4651031, 14.4265318 ], [ 120.3874435, 14.4606886 ], [ 120.3738709, 14.522068 ], [ 120.3909836, 14.5802727 ], [ 120.3602066, 14.6246023 ], [ 120.3200607, 14.6318922 ], [ 120.2533798, 14.6809702 ], [ 120.2578964, 14.7639799 ], [ 120.2944183, 14.7973871 ], [ 120.2657166, 14.8502073 ], [ 120.23423, 14.8763514 ], [ 120.2102127, 14.8473349 ], [ 120.1964722, 14.7721272 ], [ 120.1717682, 14.7414942 ], [ 120.1284485, 14.777256 ], [ 120.0882797, 14.782443 ], [ 120.078598, 14.8585138 ], [ 120.0494308, 14.8933783 ], [ 120.0621567, 15.0488005 ], [ 120.021431, 15.2088766 ], [ 120.0105667, 15.2722702 ], [ 119.9661331, 15.3284359 ], [ 119.962738, 15.3507147 ], [ 119.9019165, 15.4088831 ], [ 119.9196777, 15.4734993 ], [ 119.9502029, 15.4797983 ], [ 119.96521, 15.5193577 ], [ 119.9210129, 15.5608006 ], [ 119.9020767, 15.6172476 ], [ 119.932869, 15.6825781 ], [ 119.9001083, 15.698781 ], [ 119.8679504, 15.7418547 ], [ 119.9103088, 15.7585287 ], [ 119.8880284, 15.7997304 ], [ 119.9614487, 15.7960873 ], [ 120.0184708, 15.8557281 ], [ 120.1041031, 15.8153534 ], [ 120.1366501, 15.8189507 ], [ 120.1550598, 15.7525749 ], [ 120.2348633, 15.6278219 ], [ 120.2799683, 15.6248465 ], [ 120.314209, 15.6541662 ], [ 120.3450699, 15.7183533 ], [ 120.3855209, 15.7563791 ], [ 120.477066, 15.7113237 ], [ 120.5531006, 15.7581949 ], [ 120.5891418, 15.8724442 ], [ 120.6133347, 15.8138103 ], [ 120.7158279, 15.8395557 ], [ 120.7562027, 15.8403578 ], [ 120.8046951, 15.7864895 ], [ 120.8564377, 15.8525982 ], [ 120.8607101, 15.8865805 ], [ 120.896019, 15.9110556 ], [ 120.913475, 15.9645195 ], [ 120.9100342, 15.9959431 ], [ 120.8772888, 16.0861702 ], [ 120.9332657, 16.1237965 ], [ 121.0279617, 16.1311359 ], [ 121.1439896, 16.0918407 ], [ 121.1738968, 16.0554218 ], [ 121.1848679, 15.9220581 ], [ 121.2447662, 15.8196802 ], [ 121.2674866, 15.756568 ] ] ] ] } },
{ "type": "Feature", "properties": { "POLYGON_ID": "PHL_GAUL1997_ADM1_2359", "ADM0_ISO3": "PHL", "ADM0_NAME": "Philippines", "ADM0_CODE": 196, "ADM1_NAME": "Region IV (Southern Tagalog", "ADM1_CODE": 2359, "GEOSET": "GAUL", "GEOSET_YEAR": 1997.0, "GEOSET_VERSION": "GAUL_v1", "GEOSET_UNIT": "ADM1", "CENTROID_LONG": 118.78115662964284, "CENTROID_LAT": 10.080909440959456 }, "geometry": { "type": "MultiPolygon", "coordinates": [ [ [ [ 118.7833862, 10.076807 ], [ 118.7778168, 10.0765362 ], [ 118.7800598, 10.0862188 ], [ 118.783783, 10.0850954 ], [ 118.7833862, 10.076807 ] ] ] ] } },
{ "type": "Feature", "properties": { "POLYGON_ID": "PHL_GAUL1997_ADM1_2359", "ADM0_ISO3": "PHL", "ADM0_NAME": "Philippines", "ADM0_CODE": 196, "ADM1_NAME": "Region IV (Southern Tagalog)", "ADM1_CODE": 2359, "GEOSET": "GAUL", "GEOSET_YEAR": 1997.0, "GEOSET_VERSION": "GAUL_v1", "GEOSET_UNIT": "ADM1", "CENTROID_LONG": 120.62342614582505, "CENTROID_LAT": 12.688572965231234 }, "geometry": { "type": "MultiPolygon", "coordinates": [ [ [ [ 122.3075817, 14.13873 ], [ 122.2991257, 14.0905466 ], [ 122.3344879, 14.0700626 ], [ 122.4474106, 14.1574936 ], [ 122.7998505, 13.997489 ], [ 122.6072845, 13.9599085 ], [ 122.5598968, 13.9413927 ], [ 122.4480362, 13.9079762 ], [ 122.4968567, 13.8434992 ], [ 122.5133133, 13.7994556 ], [ 122.5223312, 13.7338257 ], [ 122.4818268, 13.7264748 ], [ 122.4975967, 13.647687 ], [ 122.5513763, 13.5971975 ], [ 122.553627, 13.5808458 ], [ 122.6320877, 13.5315676 ], [ 122.6103134, 13.5162725 ], [ 122.6674728, 13.4059172 ], [ 122.6816025, 13.2670479 ], [ 122.6989136, 13.2199812 ], [ 122.6593704, 13.2059727 ], [ 122.5963898, 13.1596537 ], [ 122.5634079, 13.1782732 ], [ 122.5150375, 13.256362 ], [ 122.5190506, 13.3387308 ], [ 122.4853973, 13.4107342 ], [ 122.4043427, 13.4972706 ], [ 122.3995438, 13.5212307 ], [ 122.3310928, 13.5568132 ], [ 122.3188019, 13.5895557 ], [ 122.2561111, 13.6069098 ], [ 122.208107, 13.6000166 ], [ 122.20121, 13.6341066 ], [ 122.1559067, 13.7028952 ], [ 122.1383133, 13.7124119 ], [ 122.0986023, 13.7760992 ], [ 122.0543518, 13.7728443 ], [ 122.0142365, 13.8024683 ], [ 121.9782486, 13.8056087 ], [ 121.9734421, 13.8403702 ], [ 121.9026566, 13.8574467 ], [ 121.8724365, 13.8955221 ], [ 121.8197327, 13.8996248 ], [ 121.8156281, 13.9405899 ], [ 121.7807922, 13.9430103 ], [ 121.7556763, 13.9681711 ], [ 121.7196732, 13.9724293 ], [ 121.6913605, 13.9531937 ], [ 121.7011566, 13.9250975 ], [ 121.6253204, 13.910368 ], [ 121.4757004, 13.8398924 ], [ 121.4403229, 13.7985582 ], [ 121.4343567, 13.7617579 ], [ 121.4490814, 13.706274 ], [ 121.4695129, 13.6866694 ], [ 121.4228668, 13.6545591 ], [ 121.3939667, 13.670496 ], [ 121.3348923, 13.6416168 ], [ 121.2875671, 13.5965986 ], [ 121.1785126, 13.6448498 ], [ 121.1020737, 13.6235361 ], [ 121.035759, 13.6334887 ], [ 121.0623779, 13.7186031 ], [ 121.0478134, 13.7627935 ], [ 120.9887695, 13.7863016 ], [ 120.9631195, 13.7729712 ], [ 120.9156036, 13.6995926 ], [ 120.8758392, 13.708806 ], [ 120.9299469, 13.7752867 ], [ 120.9134827, 13.8019819 ], [ 120.9120636, 13.8769875 ], [ 120.8760529, 13.9055243 ], [ 120.7427902, 13.9370375 ], [ 120.7199631, 13.9326572 ], [ 120.6997528, 13.8903179 ], [ 120.7218933, 13.8620281 ], [ 120.651062, 13.8495703 ], [ 120.6765289, 13.7922955 ], [ 120.6487808, 13.7777843 ], [ 120.6162491, 13.831831 ], [ 120.6239471, 13.8971767 ], [ 120.6155777, 14.0110493 ], [ 120.6272964, 14.055686 ], [ 120.6180496, 14.1180191 ], [ 120.5961304, 14.1237526 ], [ 120.6007767, 14.1743622 ], [ 120.5863571, 14.2166739 ], [ 120.6266403, 14.2295856 ], [ 120.6244812, 14.2666149 ], [ 120.6510925, 14.2859526 ], [ 120.6956482, 14.2813768 ], [ 120.7668228, 14.3276291 ], [ 120.7927322, 14.3639717 ], [ 120.8389435, 14.3980103 ], [ 120.8839722, 14.4534283 ], [ 120.9120407, 14.4483614 ], [ 120.9691747, 14.4743464 ], [ 120.9713058, 14.4431305 ], [ 121.0271835, 14.3656244 ], [ 121.0558243, 14.3783932 ], [ 121.1200943, 14.4426384 ], [ 121.1164703, 14.5423336 ], [ 121.1057205, 14.5975857 ], [ 121.1323318, 14.6672916 ], [ 121.1168442, 14.6848135 ], [ 121.1349564, 14.7256756 ], [ 121.0925751, 14.7869568 ], [ 121.1273727, 14.8117914 ], [ 121.24823, 14.846777 ], [ 121.2915421, 14.8933029 ], [ 121.3401871, 14.8902073 ], [ 121.3347549, 15.0327759 ], [ 121.3006592, 15.0667324 ], [ 121.313858, 15.120121 ], [ 121.2980728, 15.1926489 ], [ 121.3428345, 15.4043226 ], [ 121.363533, 15.4723091 ], [ 121.2674866, 15.756568 ], [ 121.4169083, 15.881464 ], [ 121.5646286, 15.9970446 ], [ 121.5842514, 16.0066738 ], [ 121.8879166, 16.2523193 ], [ 122.0851746, 16.512743 ], [ 122.2526961, 16.5124229 ], [ 122.2055588, 16.4394283 ], [ 122.2348709, 16.3800316 ], [ 122.1952133, 16.3335228 ], [ 122.194313, 16.2890072 ], [ 122.2204971, 16.2762547 ], [ 122.20401, 16.237236 ], [ 122.1754837, 16.2188053 ], [ 122.0731964, 16.1210213 ], [ 122.0718079, 16.0893726 ], [ 122.0088577, 16.0312042 ], [ 122.031662, 16.1036549 ], [ 122.0871887, 16.1545715 ], [ 122.0966187, 16.2005768 ], [ 122.1347733, 16.2280712 ], [ 122.1434937, 16.2566433 ], [ 122.0955734, 16.2616367 ], [ 122.0668488, 16.2285023 ], [ 122.0531006, 16.178421 ], [ 122.0193863, 16.1781616 ], [ 121.9687424, 16.1363392 ], [ 121.8874512, 16.1272278 ], [ 121.7794113, 16.0633087 ], [ 121.7455826, 16.0714874 ], [ 121.7205734, 16.0423927 ], [ 121.6536026, 15.9952927 ], [ 121.6521225, 15.9741735 ], [ 121.5841827, 15.9339533 ], [ 121.5523071, 15.8979874 ], [ 121.5490036, 15.8056831 ], [ 121.5728302, 15.7553272 ], [ 121.6323166, 15.7530975 ], [ 121.6333923, 15.7110643 ], [ 121.5942078, 15.6803961 ], [ 121.6187897, 15.6573601 ], [ 121.5603714, 15.6019306 ], [ 121.558197, 15.5870056 ], [ 121.4948196, 15.5223818 ], [ 121.4732895, 15.4172115 ], [ 121.4305801, 15.36584 ], [ 121.3886871, 15.369832 ], [ 121.3715668, 15.319087 ], [ 121.4113922, 15.2264013 ], [ 121.4817886, 15.1807442 ], [ 121.5, 15.0724525 ], [ 121.5454712, 15.0036163 ], [ 121.5715637, 14.9449339 ], [ 121.5991669, 14.8349772 ], [ 121.6271667, 14.790988 ], [ 121.6500473, 14.7812662 ], [ 121.7263412, 14.7074604 ], [ 121.6278305, 14.6854553 ], [ 121.6041565, 14.6622992 ], [ 121.6073227, 14.602047 ], [ 121.6266708, 14.5136919 ], [ 121.6486969, 14.459816 ], [ 121.6549225, 14.4055243 ], [ 121.7287064, 14.3183613 ], [ 121.7278595, 14.270524 ], [ 121.7551422, 14.2504234 ], [ 121.7421265, 14.1563892 ], [ 121.8041534, 14.099823 ], [ 121.845047, 14.0766745 ], [ 121.9217987, 14.0023108 ], [ 122.0393066, 13.9470749 ], [ 122.1385269, 13.9160309 ], [ 122.1693878, 13.922328 ], [ 122.2053299, 13.9048986 ], [ 122.3031311, 13.9734211 ], [ 122.2934418, 14.0125809 ], [ 122.2632523, 14.0506945 ], [ 122.1974716, 14.0855293 ], [ 122.1633072, 14.1340008 ], [ 122.2144699, 14.1901093 ], [ 122.2605972, 14.1802168 ], [ 122.2643738, 14.1312017 ], [ 122.3075817, 14.13873 ] ] ], [ [ [ 122.567482, 12.4987297 ], [ 122.6332626, 12.4948597 ], [ 122.6698074, 12.4612398 ], [ 122.697731, 12.3988962 ], [ 122.6858597, 12.3370466 ], [ 122.6342697, 12.2846642 ], [ 122.5570068, 12.3157721 ], [ 122.5485382, 12.3478251 ], [ 122.4302597, 12.4157515 ], [ 122.431221, 12.4627104 ], [ 122.4829636, 12.5008535 ], [ 122.567482, 12.4987297 ] ] ], [ [ [ 122.3901291, 14.6834087 ], [ 122.3365173, 14.6809416 ], [ 122.3329086, 14.7115412 ], [ 122.3972473, 14.734642 ], [ 122.4393463, 14.7040548 ], [ 122.3901291, 14.6834087 ] ] ], [ [ [ 122.2821884, 12.6260538 ], [ 122.3234634, 12.5429611 ], [ 122.3131027, 12.4859247 ], [ 122.2786636, 12.4812717 ], [ 122.25103, 12.5299873 ], [ 122.246788, 12.5735188 ], [ 122.2821884, 12.6260538 ] ] ], [ [ [ 122.1834182, 14.8451028 ], [ 122.1879272, 14.8111391 ], [ 122.2282181, 14.7891016 ], [ 122.2299194, 14.7504673 ], [ 122.1429901, 14.7954884 ], [ 122.1396027, 14.8299904 ], [ 122.1834182, 14.8451028 ] ] ], [ [ [ 121.9696732, 14.1992607 ], [ 122.0434036, 14.1366148 ], [ 122.1228104, 14.0877237 ], [ 122.1828384, 14.0283194 ], [ 122.1641083, 14.000803 ], [ 121.9926224, 14.106926 ], [ 121.9239273, 14.1957626 ], [ 121.9696732, 14.1992607 ] ] ], [ [ [ 122.1619663, 12.6360773 ], [ 122.1301804, 12.6350908 ], [ 122.1391373, 12.5438871 ], [ 122.116539, 12.5165977 ], [ 122.0968933, 12.361064 ], [ 122.057579, 12.2507353 ], [ 122.0427322, 12.2263966 ], [ 122.0479202, 12.1791792 ], [ 122.0028, 12.1259604 ], [ 121.9697037, 12.153265 ], [ 121.9602509, 12.1901388 ], [ 121.9961166, 12.2100201 ], [ 122.0133133, 12.239646 ], [ 121.9463806, 12.2954054 ], [ 121.9413528, 12.3875122 ], [ 121.9769821, 12.4021025 ], [ 122.0040665, 12.4438877 ], [ 122.0138474, 12.4885073 ], [ 121.9988174, 12.5942354 ], [ 122.0342865, 12.6198673 ], [ 122.0734406, 12.6249905 ], [ 122.115509, 12.6554155 ], [ 122.1619663, 12.6360773 ] ] ], [ [ [ 121.8820496, 13.5531092 ], [ 121.9024277, 13.532321 ], [ 121.9982986, 13.5231924 ], [ 122.0305328, 13.5304194 ], [ 122.0549927, 13.4762344 ], [ 122.0926285, 13.4852724 ], [ 122.1221237, 13.4586725 ], [ 122.1019669, 13.4191837 ], [ 122.1506119, 13.3676376 ], [ 122.0744705, 13.3060789 ], [ 122.036232, 13.2033691 ], [ 121.9803696, 13.2088985 ], [ 121.9471893, 13.2506905 ], [ 121.8684006, 13.2827559 ], [ 121.8223267, 13.3402281 ], [ 121.8258438, 13.4051142 ], [ 121.8130875, 13.4576292 ], [ 121.8820496, 13.5531092 ] ] ], [ [ [ 122.0605927, 12.9654999 ], [ 122.0926971, 12.9623642 ], [ 122.085701, 12.9154396 ], [ 122.0600967, 12.9079571 ], [ 122.0605927, 12.9654999 ] ] ], [ [ [ 121.9694214, 15.0422115 ], [ 121.992363, 15.0446463 ], [ 122.0470428, 15.0060301 ], [ 121.998497, 14.9846296 ], [ 122.0168915, 14.9167414 ], [ 121.9643478, 14.8925915 ], [ 121.9818573, 14.8412552 ], [ 122.0178986, 14.8162766 ], [ 122.0272064, 14.7256536 ], [ 122.0123672, 14.6758223 ], [ 121.9751663, 14.6419458 ], [ 121.9378204, 14.6273794 ], [ 121.9100571, 14.6500216 ], [ 121.9023972, 14.6870699 ], [ 121.9372007, 14.7124552 ], [ 121.9152908, 14.788413 ], [ 121.8781433, 14.8343039 ], [ 121.8723831, 14.8752451 ], [ 121.8336029, 14.9342365 ], [ 121.8009872, 14.9336615 ], [ 121.8391495, 15.0374231 ], [ 121.8847427, 15.027832 ], [ 121.9571762, 15.0567417 ], [ 121.9694214, 15.0422115 ] ] ], [ [ [ 121.9650421, 12.0367899 ], [ 121.9201965, 12.0480204 ], [ 121.9186935, 12.0839415 ], [ 121.9512329, 12.0948629 ], [ 121.9650421, 12.0367899 ] ] ], [ [ [ 121.7602997, 13.9400892 ], [ 121.7873688, 13.9379272 ], [ 121.799263, 13.9008455 ], [ 121.7436676, 13.8909101 ], [ 121.7602997, 13.9400892 ] ] ], [ [ [ 120.4473572, 13.5230961 ], [ 120.4628906, 13.5095396 ], [ 120.5672607, 13.5055113 ], [ 120.6149979, 13.4873695 ], [ 120.6678696, 13.4926977 ], [ 120.7461472, 13.4669571 ], [ 120.8570786, 13.4865255 ], [ 120.9207687, 13.5145845 ], [ 121.0577469, 13.4056549 ], [ 121.1143875, 13.4189491 ], [ 121.2034531, 13.4245958 ], [ 121.2499237, 13.3778124 ], [ 121.2992172, 13.3514977 ], [ 121.3535614, 13.2880411 ], [ 121.3805389, 13.2413387 ], [ 121.4401627, 13.2248735 ], [ 121.4374466, 13.1606665 ], [ 121.471199, 13.1357336 ], [ 121.5083237, 13.1512957 ], [ 121.5577927, 13.1253929 ], [ 121.5574875, 13.0954723 ], [ 121.5048294, 13.0562468 ], [ 121.484787, 13.0139437 ], [ 121.4984894, 12.9437075 ], [ 121.4829025, 12.8958673 ], [ 121.4917068, 12.8447447 ], [ 121.4763336, 12.7784872 ], [ 121.5473633, 12.6786385 ], [ 121.5584717, 12.617837 ], [ 121.5185699, 12.583869 ], [ 121.4898911, 12.5369768 ], [ 121.4357529, 12.5184536 ], [ 121.4335709, 12.4793234 ], [ 121.4093933, 12.4453039 ], [ 121.4156418, 12.4040823 ], [ 121.4466934, 12.3584328 ], [ 121.3884201, 12.3684559 ], [ 121.3799667, 12.353508 ], [ 121.3934326, 12.2885599 ], [ 121.3424835, 12.3229618 ], [ 121.3290863, 12.2948999 ], [ 121.2752609, 12.285553 ], [ 121.2491989, 12.2116938 ], [ 121.2072372, 12.2392426 ], [ 121.1177597, 12.2422524 ], [ 121.0932083, 12.2694426 ], [ 121.0820236, 12.3304625 ], [ 121.0232925, 12.377243 ], [ 121.002243, 12.4150124 ], [ 120.9771881, 12.4223938 ], [ 120.9167862, 12.5292377 ], [ 120.935997, 12.5812569 ], [ 120.899437, 12.6586161 ], [ 120.8640594, 12.6899309 ], [ 120.8586731, 12.7180157 ], [ 120.7942123, 12.725152 ], [ 120.7796173, 12.8331099 ], [ 120.7833405, 12.9026251 ], [ 120.7621689, 13.0080423 ], [ 120.6759262, 13.1520948 ], [ 120.6404495, 13.1932716 ], [ 120.6050034, 13.1962395 ], [ 120.5882874, 13.2233839 ], [ 120.5441437, 13.2297869 ], [ 120.4785233, 13.2943869 ], [ 120.4599991, 13.415185 ], [ 120.4244995, 13.4236517 ], [ 120.3904572, 13.4086437 ], [ 120.3820572, 13.3750315 ], [ 120.3454132, 13.3811846 ], [ 120.3070221, 13.4216204 ], [ 120.3118362, 13.4738674 ], [ 120.3498306, 13.5098333 ], [ 120.4233627, 13.5304279 ], [ 120.4473572, 13.5230961 ] ] ], [ [ [ 121.1006622, 12.2213202 ], [ 121.1331406, 12.1664934 ], [ 121.0884705, 12.1736755 ], [ 121.0821762, 12.2019997 ], [ 121.0358734, 12.2259817 ], [ 121.0323792, 12.2706461 ], [ 121.0747375, 12.2943239 ], [ 121.1006622, 12.2213202 ] ] ], [ [ [ 121.0860519, 10.8948078 ], [ 121.0860367, 10.8595877 ], [ 121.0427094, 10.798624 ], [ 121.0038605, 10.83249 ], [ 121.0129471, 10.8603382 ], [ 121.0860519, 10.8948078 ] ] ], [ [ [ 120.8699722, 13.6664696 ], [ 120.9292374, 13.6609316 ], [ 120.9325333, 13.6312485 ], [ 120.8826828, 13.6305714 ], [ 120.8699722, 13.6664696 ] ] ], [ [ [ 119.9279327, 12.2934694 ], [ 120.0392685, 12.2355576 ], [ 120.0653763, 12.1914272 ], [ 120.0918121, 12.188735 ], [ 120.1279678, 12.1437035 ], [ 120.1876831, 12.1155272 ], [ 120.2190628, 12.1899586 ], [ 120.2368164, 12.195982 ], [ 120.2552338, 12.1239595 ], [ 120.3008575, 12.1157608 ], [ 120.3367462, 12.0644875 ], [ 120.3417664, 12.00809 ], [ 120.2922668, 11.9856682 ], [ 120.2681503, 12.0045004 ], [ 120.2258911, 11.9855356 ], [ 120.1304016, 12.0304394 ], [ 120.1325836, 12.0032787 ], [ 120.1032333, 11.9723539 ], [ 120.0776596, 12.000144 ], [ 120.0218277, 11.9919319 ], [ 119.9799423, 12.0051622 ], [ 119.9650192, 12.0610619 ], [ 119.9362183, 12.0720224 ], [ 119.9273529, 12.1323128 ], [ 119.8765717, 12.200983 ], [ 119.8583527, 12.256403 ], [ 119.8856277, 12.2790585 ], [ 119.8613968, 12.3105154 ], [ 119.8917465, 12.3313379 ], [ 119.9279327, 12.2934694 ] ] ], [ [ [ 120.2707413, 11.951606 ], [ 120.2519531, 11.8453817 ], [ 120.1993866, 11.934597 ], [ 120.2527771, 11.9800653 ], [ 120.2707413, 11.951606 ] ] ], [ [ [ 120.1703033, 13.831152 ], [ 120.2173767, 13.8241253 ], [ 120.2485199, 13.793129 ], [ 120.2632065, 13.7554255 ], [ 120.2365036, 13.712574 ], [ 120.1580582, 13.7485247 ], [ 120.1014862, 13.7847385 ], [ 120.0894699, 13.867075 ], [ 120.123848, 13.8623314 ], [ 120.1703033, 13.831152 ] ] ], [ [ [ 119.9100593, 11.9729148 ], [ 119.946228, 11.9555597 ], [ 119.953392, 11.9125299 ], [ 119.9863586, 11.9057236 ], [ 120.0715332, 11.8670578 ], [ 120.030777, 11.8255043 ], [ 120.0664215, 11.7917738 ], [ 120.0581436, 11.7452307 ], [ 120.0253525, 11.7027769 ], [ 119.9559174, 11.662281 ], [ 119.9387512, 11.69561 ], [ 119.9268265, 11.7627983 ], [ 119.9059219, 11.796114 ], [ 119.900383, 11.8419104 ], [ 119.866272, 11.9032669 ], [ 119.879303, 11.9776735 ], [ 119.9100593, 11.9729148 ] ] ], [ [ [ 119.8345768, 10.6518229 ], [ 119.9038467, 10.6045294 ], [ 119.9882889, 10.5969696 ], [ 120.005127, 10.5659456 ], [ 119.9615784, 10.5223112 ], [ 119.9053192, 10.5232821 ], [ 119.8954697, 10.4836607 ], [ 119.8154297, 10.4458647 ], [ 119.775177, 10.4546928 ], [ 119.7598267, 10.5678797 ], [ 119.7828827, 10.5594502 ], [ 119.8368073, 10.6224852 ], [ 119.8345768, 10.6518229 ] ] ], [ [ [ 119.8224067, 11.5151623 ], [ 119.8680267, 11.5079727 ], [ 119.8675385, 11.4552498 ], [ 119.8532333, 11.4158335 ], [ 119.7288513, 11.4312582 ], [ 119.7553406, 11.4548445 ], [ 119.8212891, 11.4705133 ], [ 119.8224067, 11.5151623 ] ] ], [ [ [ 119.4762573, 11.4269314 ], [ 119.5024338, 11.4169264 ], [ 119.5082321, 11.3333826 ], [ 119.5664902, 11.2938232 ], [ 119.5298691, 11.1594381 ], [ 119.5004272, 11.1312141 ], [ 119.5543976, 11.0548038 ], [ 119.5642166, 11.0016699 ], [ 119.5098877, 11.0133905 ], [ 119.4922867, 10.9932795 ], [ 119.4901962, 10.9057913 ], [ 119.5117569, 10.831768 ], [ 119.5374527, 10.8162346 ], [ 119.5708389, 10.8400974 ], [ 119.5986633, 10.8146687 ], [ 119.5874176, 10.6870928 ], [ 119.6285629, 10.6916456 ], [ 119.656868, 10.6720715 ], [ 119.641037, 10.6104441 ], [ 119.6785431, 10.5491428 ], [ 119.7163391, 10.5175314 ], [ 119.6718216, 10.4911118 ], [ 119.6512833, 10.4611044 ], [ 119.5783081, 10.4113016 ], [ 119.5719604, 10.3785906 ], [ 119.5283432, 10.365962 ], [ 119.4564896, 10.3764362 ], [ 119.4247818, 10.3537226 ], [ 119.3669891, 10.3439903 ], [ 119.2918472, 10.2830563 ], [ 119.2302475, 10.1775341 ], [ 119.2150879, 10.0771065 ], [ 119.2013168, 10.0512533 ], [ 119.1539001, 10.0279608 ], [ 119.0064926, 10.0024128 ], [ 118.9743805, 9.9826412 ], [ 118.8579636, 9.9760895 ], [ 118.8201675, 9.9417629 ], [ 118.7696304, 9.937252 ], [ 118.7409363, 9.8979197 ], [ 118.7406693, 9.8452234 ], [ 118.7709885, 9.7936764 ], [ 118.7714691, 9.7327061 ], [ 118.7306671, 9.732172 ], [ 118.7305832, 9.7733574 ], [ 118.6890869, 9.771431 ], [ 118.700943, 9.7119284 ], [ 118.7222595, 9.7116308 ], [ 118.7513733, 9.6658335 ], [ 118.6574478, 9.5613556 ], [ 118.5991974, 9.4638128 ], [ 118.5690537, 9.4428654 ], [ 118.5164413, 9.3416786 ], [ 118.3687592, 9.2173519 ], [ 118.3466568, 9.180356 ], [ 118.3021927, 9.185935 ], [ 118.2214966, 9.1571293 ], [ 118.2109528, 9.1710606 ], [ 118.1522598, 9.1417513 ], [ 118.1210327, 9.1416788 ], [ 118.103157, 9.05756 ], [ 118.057373, 8.9922543 ], [ 118.0464172, 8.9558115 ], [ 118.0028229, 8.8817863 ], [ 117.9445724, 8.8618727 ], [ 117.8803635, 8.8172798 ], [ 117.8388901, 8.7660227 ], [ 117.8047714, 8.7603655 ], [ 117.7947083, 8.7312851 ], [ 117.7395782, 8.6846952 ], [ 117.6895065, 8.6816034 ], [ 117.6270065, 8.6555996 ], [ 117.5637665, 8.671875 ], [ 117.53965, 8.6426229 ], [ 117.5470963, 8.6004095 ], [ 117.5007172, 8.5053787 ], [ 117.4764404, 8.5094538 ], [ 117.395668, 8.4909954 ], [ 117.3702469, 8.4941273 ], [ 117.2769165, 8.4138765 ], [ 117.2617188, 8.4120722 ], [ 117.2148132, 8.3494072 ], [ 117.1724472, 8.360343 ], [ 117.2083588, 8.4341354 ], [ 117.2168198, 8.5252714 ], [ 117.2912827, 8.6545086 ], [ 117.3282394, 8.6708412 ], [ 117.3239594, 8.697917 ], [ 117.3607864, 8.7420635 ], [ 117.3990631, 8.7480574 ], [ 117.4514236, 8.8094006 ], [ 117.5484772, 8.956583 ], [ 117.5817337, 8.9604225 ], [ 117.6187363, 8.9962683 ], [ 117.6331329, 9.0493288 ], [ 117.6918564, 9.0888653 ], [ 117.7027893, 9.0650702 ], [ 117.7466736, 9.0692406 ], [ 117.7531586, 9.1088715 ], [ 117.7820129, 9.1749668 ], [ 117.8209305, 9.1896505 ], [ 117.8843994, 9.2457638 ], [ 117.9228134, 9.2668705 ], [ 117.9768066, 9.2589188 ], [ 117.9901962, 9.2415743 ], [ 118.1258774, 9.3464365 ], [ 118.1185989, 9.3794909 ], [ 118.1849136, 9.4162445 ], [ 118.2121811, 9.491498 ], [ 118.2709122, 9.5251722 ], [ 118.3072586, 9.5758877 ], [ 118.3296509, 9.5846024 ], [ 118.3525772, 9.6593504 ], [ 118.3740234, 9.6471167 ], [ 118.4333801, 9.718729 ], [ 118.5060501, 9.7582293 ], [ 118.5992584, 9.8666773 ], [ 118.6011734, 9.9145556 ], [ 118.6413727, 9.9337435 ], [ 118.6604919, 9.978075 ], [ 118.6438904, 9.9929037 ], [ 118.6987686, 10.0356712 ], [ 118.7690125, 10.1036272 ], [ 118.7726669, 10.0226488 ], [ 118.7884521, 10.0223045 ], [ 118.8224564, 10.0968828 ], [ 118.8013687, 10.1222754 ], [ 118.8073196, 10.1628227 ], [ 118.8626938, 10.2101679 ], [ 118.9275284, 10.2021017 ], [ 118.9488907, 10.267148 ], [ 119.0145416, 10.3444548 ], [ 118.9777985, 10.3492765 ], [ 118.993042, 10.3949499 ], [ 119.0348206, 10.4025869 ], [ 119.0572205, 10.3884592 ], [ 119.0927963, 10.4204435 ], [ 119.1264725, 10.3881998 ], [ 119.1831436, 10.429739 ], [ 119.2215576, 10.4918795 ], [ 119.2518311, 10.4830742 ], [ 119.2603302, 10.5385933 ], [ 119.2943573, 10.5627213 ], [ 119.3207169, 10.6268549 ], [ 119.3412399, 10.7386045 ], [ 119.3056564, 10.7757063 ], [ 119.2750015, 10.7651777 ], [ 119.2620468, 10.8295612 ], [ 119.2349472, 10.8443708 ], [ 119.2434235, 10.9047318 ], [ 119.227623, 10.9389429 ], [ 119.2652969, 10.9458313 ], [ 119.2829132, 10.9196863 ], [ 119.2896271, 10.8469791 ], [ 119.329628, 10.8142776 ], [ 119.3855972, 10.7933941 ], [ 119.4197693, 10.7581186 ], [ 119.429039, 10.7227154 ], [ 119.4599686, 10.7254 ], [ 119.4356079, 10.7982512 ], [ 119.4505615, 10.8303232 ], [ 119.3998184, 10.8733454 ], [ 119.3735886, 10.8603201 ], [ 119.3382111, 10.899498 ], [ 119.3586884, 10.9415035 ], [ 119.3068771, 10.9624052 ], [ 119.3093719, 11.0119133 ], [ 119.3290405, 11.034811 ], [ 119.3221207, 11.1024561 ], [ 119.370903, 11.0447006 ], [ 119.4116516, 11.0472116 ], [ 119.4218979, 11.090313 ], [ 119.3981323, 11.1323223 ], [ 119.3904037, 11.1810865 ], [ 119.4208527, 11.2378759 ], [ 119.415329, 11.3094473 ], [ 119.4254227, 11.339427 ], [ 119.4765167, 11.3762836 ], [ 119.4762573, 11.4269314 ] ] ], [ [ [ 119.5951543, 11.0870821 ], [ 119.6259613, 11.0438395 ], [ 119.6156693, 11.0039692 ], [ 119.5585632, 11.0605783 ], [ 119.5951543, 11.0870821 ] ] ], [ [ [ 119.6031113, 11.1931496 ], [ 119.6214371, 11.161459 ], [ 119.5670319, 11.1370468 ], [ 119.5598373, 11.1766119 ], [ 119.6031113, 11.1931496 ] ] ], [ [ [ 117.3217112, 8.3218191 ], [ 117.3506393, 8.2805901 ], [ 117.3471832, 8.2102261 ], [ 117.2924728, 8.1801205 ], [ 117.2661591, 8.2000036 ], [ 117.2631073, 8.2905083 ], [ 117.2737732, 8.3216705 ], [ 117.3217112, 8.3218191 ] ] ], [ [ [ 117.2219772, 8.3136473 ], [ 117.2518387, 8.2882948 ], [ 117.2254028, 8.2658892 ], [ 117.1803207, 8.2570267 ], [ 117.1657562, 8.276598 ], [ 117.2219772, 8.3136473 ] ] ], [ [ [ 117.0752411, 8.0217047 ], [ 117.0882416, 7.9007039 ], [ 117.0570831, 7.8344269 ], [ 117.0252914, 7.8085361 ], [ 116.9954071, 7.834733 ], [ 116.9481277, 7.9284091 ], [ 116.9684067, 7.9488058 ], [ 116.9576569, 8.0 ], [ 116.9946365, 8.0357637 ], [ 116.9997711, 8.0638647 ], [ 117.0724411, 8.0740509 ], [ 117.0752411, 8.0217047 ] ] ], [ [ [ 117.0503769, 8.1027021 ], [ 117.0210876, 8.0715113 ], [ 116.9904099, 8.1057825 ], [ 117.0292435, 8.1306753 ], [ 117.0503769, 8.1027021 ] ] ] ] } },
{ "type": "Feature", "properties": { "POLYGON_ID": "PHL_GAUL1997_ADM1_2354", "ADM0_ISO3": "PHL", "ADM0_NAME": "Philippines", "ADM0_CODE": 196, "ADM1_NAME": "Cordillera Administrative region (CAR)", "ADM1_CODE": 2354, "GEOSET": "GAUL", "GEOSET_YEAR": 1997.0, "GEOSET_VERSION": "GAUL_v1", "GEOSET_UNIT": "ADM1", "CENTROID_LONG": 121.05207529317704, "CENTROID_LAT": 17.351721299694248 }, "geometry": { "type": "MultiPolygon", "coordinates": [ [ [ [ 120.7464218, 16.194891 ], [ 120.6640091, 16.1783524 ], [ 120.5142517, 16.2377033 ], [ 120.4754486, 16.3880939 ], [ 120.4637909, 16.4944725 ], [ 120.6034851, 16.6659012 ], [ 120.6250153, 16.7476254 ], [ 120.6216736, 16.8045254 ], [ 120.6433182, 16.889513 ], [ 120.6911697, 16.9065895 ], [ 120.7514114, 16.9079857 ], [ 120.7818146, 16.939682 ], [ 120.7891312, 17.0970669 ], [ 120.8030167, 17.127203 ], [ 120.8639984, 17.1871338 ], [ 120.8074188, 17.214653 ], [ 120.7685165, 17.1590366 ], [ 120.7310028, 17.1477089 ], [ 120.6732712, 17.1932869 ], [ 120.6868515, 17.2286034 ], [ 120.6753922, 17.2588863 ], [ 120.6329193, 17.2711468 ], [ 120.5990448, 17.3079376 ], [ 120.5511398, 17.3041134 ], [ 120.5286713, 17.3448792 ], [ 120.5432892, 17.3955727 ], [ 120.5712814, 17.4236355 ], [ 120.5859146, 17.475399 ], [ 120.5337677, 17.497673 ], [ 120.4623642, 17.497858 ], [ 120.4758682, 17.5597649 ], [ 120.5126266, 17.6586781 ], [ 120.5490723, 17.7220135 ], [ 120.6158142, 17.810091 ], [ 120.706398, 17.8427982 ], [ 120.7333298, 17.8801365 ], [ 120.8237915, 17.9344482 ], [ 120.8775177, 17.9401207 ], [ 120.9160843, 17.9308109 ], [ 120.9480209, 18.0003128 ], [ 120.9357758, 18.0957661 ], [ 120.9801636, 18.159483 ], [ 120.9667053, 18.1951294 ], [ 120.9297714, 18.206068 ], [ 120.9064026, 18.240593 ], [ 120.9341583, 18.255579 ], [ 120.9573746, 18.3258495 ], [ 120.9458008, 18.3618546 ], [ 120.9613647, 18.4425678 ], [ 121.0039139, 18.458046 ], [ 121.046196, 18.5181332 ], [ 121.0871201, 18.5281792 ], [ 121.090744, 18.4850159 ], [ 121.2609329, 18.419136 ], [ 121.4080887, 18.3255997 ], [ 121.4528656, 18.3077374 ], [ 121.4809875, 18.2519112 ], [ 121.4733505, 18.1607647 ], [ 121.4420929, 18.062212 ], [ 121.4055939, 18.0251102 ], [ 121.3592911, 17.9216671 ], [ 121.3517075, 17.8804226 ], [ 121.3157578, 17.8507614 ], [ 121.3171692, 17.8048286 ], [ 121.3880234, 17.8095818 ], [ 121.4401855, 17.6874142 ], [ 121.485527, 17.6585884 ], [ 121.5531693, 17.5688419 ], [ 121.6247635, 17.533865 ], [ 121.6632919, 17.5040112 ], [ 121.6664658, 17.4642754 ], [ 121.5832062, 17.2686596 ], [ 121.5887833, 17.1305504 ], [ 121.5740509, 17.0839729 ], [ 121.5881805, 17.0315056 ], [ 121.5895157, 16.9090405 ], [ 121.5592499, 16.8883743 ], [ 121.5426407, 16.843174 ], [ 121.3621979, 16.7881889 ], [ 121.3499908, 16.7395535 ], [ 121.2903061, 16.6683121 ], [ 121.2111359, 16.6419258 ], [ 121.1931305, 16.6466846 ], [ 120.899971, 16.5947533 ], [ 120.8865891, 16.4972973 ], [ 120.8907318, 16.4357796 ], [ 120.8277359, 16.3125362 ], [ 120.7891159, 16.3092289 ], [ 120.7467651, 16.2468662 ], [ 120.7464218, 16.194891 ] ] ] ] } },
{ "type": "Feature", "properties": { "POLYGON_ID": "PHL_GAUL1997_ADM1_2355", "ADM0_ISO3": "PHL", "ADM0_NAME": "Philippines", "ADM0_CODE": 196, "ADM1_NAME": "National Capital region (NCR)", "ADM1_CODE": 2355, "GEOSET": "GAUL", "GEOSET_YEAR": 1997.0, "GEOSET_VERSION": "GAUL_v1", "GEOSET_UNIT": "ADM1", "CENTROID_LONG": 121.0366718895518, "CENTROID_LAT": 14.598453803103252 }, "geometry": { "type": "MultiPolygon", "coordinates": [ [ [ [ 120.9691747, 14.4743464 ], [ 120.9953232, 14.5272007 ], [ 120.9608917, 14.5895357 ], [ 120.9611282, 14.6348333 ], [ 120.9028168, 14.7061338 ], [ 120.89939, 14.739121 ], [ 120.9311752, 14.7350636 ], [ 120.9966965, 14.7643824 ], [ 121.0160217, 14.7854671 ], [ 121.0763168, 14.7681599 ], [ 121.0925751, 14.7869568 ], [ 121.1349564, 14.7256756 ], [ 121.1168442, 14.6848135 ], [ 121.1323318, 14.6672916 ], [ 121.1057205, 14.5975857 ], [ 121.1164703, 14.5423336 ], [ 121.1200943, 14.4426384 ], [ 121.0558243, 14.3783932 ], [ 121.0271835, 14.3656244 ], [ 120.9713058, 14.4431305 ], [ 120.9691747, 14.4743464 ] ] ] ] } },
{ "type": "Feature", "properties": { "POLYGON_ID": "PHL_GAUL1997_ADM1_2356", "ADM0_ISO3": "PHL", "ADM0_NAME": "Philippines", "ADM0_CODE": 196, "ADM1_NAME": "Region I (Ilocos region)", "ADM1_CODE": 2356, "GEOSET": "GAUL", "GEOSET_YEAR": 1997.0, "GEOSET_VERSION": "GAUL_v1", "GEOSET_UNIT": "ADM1", "CENTROID_LONG": 120.49039377550942, "CENTROID_LAT": 16.912383776506541 }, "geometry": { "type": "MultiPolygon", "coordinates": [ [ [ [ 120.9674855, 18.5749053 ], [ 120.9613647, 18.4425678 ], [ 120.9458008, 18.3618546 ], [ 120.9573746, 18.3258495 ], [ 120.9341583, 18.255579 ], [ 120.9064026, 18.240593 ], [ 120.9297714, 18.206068 ], [ 120.9667053, 18.1951294 ], [ 120.9801636, 18.159483 ], [ 120.9357758, 18.0957661 ], [ 120.9480209, 18.0003128 ], [ 120.9160843, 17.9308109 ], [ 120.8775177, 17.9401207 ], [ 120.8237915, 17.9344482 ], [ 120.7333298, 17.8801365 ], [ 120.706398, 17.8427982 ], [ 120.6158142, 17.810091 ], [ 120.5490723, 17.7220135 ], [ 120.5126266, 17.6586781 ], [ 120.4758682, 17.5597649 ], [ 120.4623642, 17.497858 ], [ 120.5337677, 17.497673 ], [ 120.5859146, 17.475399 ], [ 120.5712814, 17.4236355 ], [ 120.5432892, 17.3955727 ], [ 120.5286713, 17.3448792 ], [ 120.5511398, 17.3041134 ], [ 120.5990448, 17.3079376 ], [ 120.6329193, 17.2711468 ], [ 120.6753922, 17.2588863 ], [ 120.6868515, 17.2286034 ], [ 120.6732712, 17.1932869 ], [ 120.7310028, 17.1477089 ], [ 120.7685165, 17.1590366 ], [ 120.8074188, 17.214653 ], [ 120.8639984, 17.1871338 ], [ 120.8030167, 17.127203 ], [ 120.7891312, 17.0970669 ], [ 120.7818146, 16.939682 ], [ 120.7514114, 16.9079857 ], [ 120.6911697, 16.9065895 ], [ 120.6433182, 16.889513 ], [ 120.6216736, 16.8045254 ], [ 120.6250153, 16.7476254 ], [ 120.6034851, 16.6659012 ], [ 120.4637909, 16.4944725 ], [ 120.4754486, 16.3880939 ], [ 120.5142517, 16.2377033 ], [ 120.6640091, 16.1783524 ], [ 120.7464218, 16.194891 ], [ 120.8486633, 16.1650448 ], [ 120.8772888, 16.0861702 ], [ 120.9100342, 15.9959431 ], [ 120.913475, 15.9645195 ], [ 120.896019, 15.9110556 ], [ 120.8607101, 15.8865805 ], [ 120.8564377, 15.8525982 ], [ 120.8046951, 15.7864895 ], [ 120.7562027, 15.8403578 ], [ 120.7158279, 15.8395557 ], [ 120.6133347, 15.8138103 ], [ 120.5891418, 15.8724442 ], [ 120.5531006, 15.7581949 ], [ 120.477066, 15.7113237 ], [ 120.3855209, 15.7563791 ], [ 120.3450699, 15.7183533 ], [ 120.314209, 15.6541662 ], [ 120.2799683, 15.6248465 ], [ 120.2348633, 15.6278219 ], [ 120.1550598, 15.7525749 ], [ 120.1366501, 15.8189507 ], [ 120.1041031, 15.8153534 ], [ 120.0184708, 15.8557281 ], [ 119.9614487, 15.7960873 ], [ 119.8880284, 15.7997304 ], [ 119.911438, 15.8366137 ], [ 119.8480835, 15.9656801 ], [ 119.8074265, 15.9306374 ], [ 119.7666779, 15.9203863 ], [ 119.7477112, 15.9735842 ], [ 119.7621231, 16.0088749 ], [ 119.7677689, 16.1137295 ], [ 119.7568283, 16.1674194 ], [ 119.7822037, 16.2376461 ], [ 119.773407, 16.2626572 ], [ 119.7859879, 16.3223286 ], [ 119.8152084, 16.3588257 ], [ 119.8518066, 16.3581371 ], [ 119.8988724, 16.3904858 ], [ 119.9314194, 16.3606339 ], [ 119.8980865, 16.2438354 ], [ 119.952713, 16.2334785 ], [ 120.0191193, 16.166872 ], [ 120.0319672, 16.1893463 ], [ 120.1033325, 16.1387672 ], [ 120.0892868, 16.1098766 ], [ 120.1015396, 16.0586929 ], [ 120.1724014, 16.0291996 ], [ 120.2324066, 16.0334301 ], [ 120.3228836, 16.0662346 ], [ 120.3642426, 16.0929565 ], [ 120.4257507, 16.1728363 ], [ 120.3975372, 16.2516422 ], [ 120.3430634, 16.2933483 ], [ 120.3446274, 16.3406219 ], [ 120.3250732, 16.3946133 ], [ 120.3370285, 16.4154663 ], [ 120.3279419, 16.4756279 ], [ 120.3071289, 16.515398 ], [ 120.3196716, 16.5702248 ], [ 120.2978668, 16.6010456 ], [ 120.3335571, 16.6739502 ], [ 120.3408737, 16.7271919 ], [ 120.3253708, 16.7972641 ], [ 120.3359833, 16.8364964 ], [ 120.3689117, 16.850174 ], [ 120.4403915, 16.9647522 ], [ 120.4482269, 17.0198383 ], [ 120.4293671, 17.1436901 ], [ 120.406189, 17.20578 ], [ 120.4267273, 17.3343372 ], [ 120.44133, 17.3370419 ], [ 120.4571762, 17.4160061 ], [ 120.4300613, 17.4549236 ], [ 120.4200134, 17.5181313 ], [ 120.3738327, 17.5267811 ], [ 120.3344727, 17.56917 ], [ 120.3683777, 17.6825638 ], [ 120.4140015, 17.7086086 ], [ 120.4361572, 17.7372532 ], [ 120.4010925, 17.7842426 ], [ 120.4556732, 17.8226585 ], [ 120.4380722, 17.9263496 ], [ 120.4715271, 17.9489784 ], [ 120.4981308, 17.9978256 ], [ 120.4780502, 18.0192719 ], [ 120.4706268, 18.0852509 ], [ 120.5111771, 18.1310596 ], [ 120.5179367, 18.1933117 ], [ 120.5481567, 18.2318001 ], [ 120.593071, 18.3210106 ], [ 120.5940018, 18.4147778 ], [ 120.5628128, 18.4877701 ], [ 120.5807571, 18.5150452 ], [ 120.6307831, 18.5472317 ], [ 120.6670685, 18.5314331 ], [ 120.7270279, 18.5272293 ], [ 120.7717133, 18.5479126 ], [ 120.7887268, 18.5747128 ], [ 120.7910004, 18.6310139 ], [ 120.8520889, 18.6476784 ], [ 120.9069977, 18.5675907 ], [ 120.9674855, 18.5749053 ] ] ], [ [ [ 119.9903412, 16.3472767 ], [ 120.0202408, 16.3089199 ], [ 119.9786072, 16.2502117 ], [ 119.9223404, 16.2862797 ], [ 119.943512, 16.328495 ], [ 119.9903412, 16.3472767 ] ] ] ] } },
{ "type": "Feature", "properties": { "POLYGON_ID": "PHL_GAUL1997_ADM1_2357", "ADM0_ISO3": "PHL", "ADM0_NAME": "Philippines", "ADM0_CODE": 196, "ADM1_NAME": "Region II (Cagayan Valley)", "ADM1_CODE": 2357, "GEOSET": "GAUL", "GEOSET_YEAR": 1997.0, "GEOSET_VERSION": "GAUL_v1", "GEOSET_UNIT": "ADM1", "CENTROID_LONG": 121.7293660750628, "CENTROID_LAT": 17.192711682643825 }, "geometry": { "type": "MultiPolygon", "coordinates": [ [ [ [ 122.2526961, 16.5124229 ], [ 122.0851746, 16.512743 ], [ 121.8879166, 16.2523193 ], [ 121.5842514, 16.0066738 ], [ 121.5646286, 15.9970446 ], [ 121.4169083, 15.881464 ], [ 121.2674866, 15.756568 ], [ 121.2447662, 15.8196802 ], [ 121.1848679, 15.9220581 ], [ 121.1738968, 16.0554218 ], [ 121.1439896, 16.0918407 ], [ 121.0279617, 16.1311359 ], [ 120.9332657, 16.1237965 ], [ 120.8772888, 16.0861702 ], [ 120.8486633, 16.1650448 ], [ 120.7464218, 16.194891 ], [ 120.7467651, 16.2468662 ], [ 120.7891159, 16.3092289 ], [ 120.8277359, 16.3125362 ], [ 120.8907318, 16.4357796 ], [ 120.8865891, 16.4972973 ], [ 120.899971, 16.5947533 ], [ 121.1931305, 16.6466846 ], [ 121.2111359, 16.6419258 ], [ 121.2903061, 16.6683121 ], [ 121.3499908, 16.7395535 ], [ 121.3621979, 16.7881889 ], [ 121.5426407, 16.843174 ], [ 121.5592499, 16.8883743 ], [ 121.5895157, 16.9090405 ], [ 121.5881805, 17.0315056 ], [ 121.5740509, 17.0839729 ], [ 121.5887833, 17.1305504 ], [ 121.5832062, 17.2686596 ], [ 121.6664658, 17.4642754 ], [ 121.6632919, 17.5040112 ], [ 121.6247635, 17.533865 ], [ 121.5531693, 17.5688419 ], [ 121.485527, 17.6585884 ], [ 121.4401855, 17.6874142 ], [ 121.3880234, 17.8095818 ], [ 121.3171692, 17.8048286 ], [ 121.3157578, 17.8507614 ], [ 121.3517075, 17.8804226 ], [ 121.3592911, 17.9216671 ], [ 121.4055939, 18.0251102 ], [ 121.4420929, 18.062212 ], [ 121.4733505, 18.1607647 ], [ 121.4809875, 18.2519112 ], [ 121.4528656, 18.3077374 ], [ 121.4080887, 18.3255997 ], [ 121.2609329, 18.419136 ], [ 121.090744, 18.4850159 ], [ 121.0871201, 18.5281792 ], [ 121.046196, 18.5181332 ], [ 121.0039139, 18.458046 ], [ 120.9613647, 18.4425678 ], [ 120.9674855, 18.5749053 ], [ 120.9913101, 18.5990028 ], [ 121.0844498, 18.6139927 ], [ 121.1376114, 18.6303844 ], [ 121.1921768, 18.6125011 ], [ 121.2646866, 18.5558395 ], [ 121.3485336, 18.504797 ], [ 121.4308167, 18.4725761 ], [ 121.5209551, 18.4122028 ], [ 121.6284866, 18.363554 ], [ 121.8989487, 18.2684059 ], [ 121.9402924, 18.266304 ], [ 121.9967728, 18.2812443 ], [ 122.0644684, 18.3406124 ], [ 122.1322632, 18.3861656 ], [ 122.1248322, 18.4223499 ], [ 122.162117, 18.5188599 ], [ 122.2395935, 18.5127563 ], [ 122.2407227, 18.475502 ], [ 122.2650375, 18.4282761 ], [ 122.3217392, 18.3746128 ], [ 122.3380203, 18.3081837 ], [ 122.302948, 18.2178917 ], [ 122.2619781, 18.1644554 ], [ 122.2359238, 18.1581497 ], [ 122.1828613, 18.1129036 ], [ 122.1687012, 18.0811481 ], [ 122.1812134, 17.9837685 ], [ 122.1738892, 17.8942413 ], [ 122.138588, 17.792223 ], [ 122.1461868, 17.7378922 ], [ 122.1667404, 17.7001648 ], [ 122.1636429, 17.618639 ], [ 122.1917801, 17.5454254 ], [ 122.1959305, 17.5024071 ], [ 122.2380371, 17.4211903 ], [ 122.2491531, 17.3652115 ], [ 122.3151169, 17.331892 ], [ 122.3721466, 17.3547325 ], [ 122.4124527, 17.3320866 ], [ 122.4343338, 17.2954636 ], [ 122.4217072, 17.2690048 ], [ 122.4274292, 17.1940346 ], [ 122.418663, 17.1385784 ], [ 122.4559021, 17.1088505 ], [ 122.5151062, 17.1364288 ], [ 122.5218964, 17.1002617 ], [ 122.5118332, 17.0404701 ], [ 122.4683914, 16.9676399 ], [ 122.4794769, 16.9458828 ], [ 122.4610138, 16.866703 ], [ 122.4243622, 16.7820587 ], [ 122.3695374, 16.6901035 ], [ 122.3016815, 16.5517197 ], [ 122.2526961, 16.5124229 ] ] ], [ [ [ 122.1583862, 18.5770645 ], [ 122.1511002, 18.5236034 ], [ 122.1234436, 18.5099449 ], [ 122.1160736, 18.5663586 ], [ 122.1583862, 18.5770645 ] ] ], [ [ [ 122.0315933, 20.47579 ], [ 121.9661102, 20.4129105 ], [ 121.9805908, 20.3840008 ], [ 121.9496231, 20.3466721 ], [ 121.9155197, 20.3475361 ], [ 121.9289474, 20.4046192 ], [ 122.0034714, 20.4880886 ], [ 122.0315933, 20.47579 ] ] ], [ [ [ 121.9698715, 19.5769577 ], [ 121.9941025, 19.5578098 ], [ 121.9952469, 19.5171032 ], [ 121.968277, 19.4767399 ], [ 121.9019775, 19.5212116 ], [ 121.8967972, 19.5518494 ], [ 121.9698715, 19.5769577 ] ] ], [ [ [ 121.9148026, 19.0037899 ], [ 121.9437714, 19.0020657 ], [ 121.9869537, 18.9426899 ], [ 121.9550934, 18.9081364 ], [ 121.893013, 18.8695641 ], [ 121.8785019, 18.8306541 ], [ 121.8361664, 18.8226357 ], [ 121.8265305, 18.8625145 ], [ 121.8715973, 18.8951015 ], [ 121.8523865, 18.921299 ], [ 121.8670425, 18.9719353 ], [ 121.9148026, 19.0037899 ] ] ], [ [ [ 121.8649063, 20.2584667 ], [ 121.8388977, 20.3199139 ], [ 121.8870773, 20.3159122 ], [ 121.8649063, 20.2584667 ] ] ], [ [ [ 121.822937, 20.6959381 ], [ 121.7839813, 20.7246437 ], [ 121.8142624, 20.7629242 ], [ 121.8380508, 20.8270168 ], [ 121.8790436, 20.8221817 ], [ 121.8510666, 20.7179184 ], [ 121.822937, 20.6959381 ] ] ], [ [ [ 121.4878237, 19.3701923 ], [ 121.5173721, 19.3926544 ], [ 121.5331726, 19.3525009 ], [ 121.5224533, 19.3234062 ], [ 121.5400238, 19.2694416 ], [ 121.5078735, 19.2492905 ], [ 121.4405594, 19.2701492 ], [ 121.3919983, 19.3029995 ], [ 121.3870926, 19.3706322 ], [ 121.4115524, 19.3950119 ], [ 121.4878237, 19.3701923 ] ] ], [ [ [ 121.4367828, 18.8961601 ], [ 121.446022, 18.8560772 ], [ 121.2952805, 18.8431454 ], [ 121.2828674, 18.8841667 ], [ 121.3246231, 18.8824368 ], [ 121.4069366, 18.907465 ], [ 121.4367828, 18.8961601 ] ] ], [ [ [ 121.2516708, 19.0136108 ], [ 121.1980133, 19.0671387 ], [ 121.2103119, 19.1477318 ], [ 121.2333374, 19.1535282 ], [ 121.2481232, 19.1032944 ], [ 121.2516708, 19.0136108 ] ] ] ] } },
{ "type": "Feature", "properties": { "POLYGON_ID": "PHL_GAUL1997_ADM1_2361", "ADM0_ISO3": "PHL", "ADM0_NAME": "Philippines", "ADM0_CODE": 196, "ADM1_NAME": "Region V (Bicol region)", "ADM1_CODE": 2361, "GEOSET": "GAUL", "GEOSET_YEAR": 1997.0, "GEOSET_VERSION": "GAUL_v1", "GEOSET_UNIT": "ADM1", "CENTROID_LONG": 123.47117546862049, "CENTROID_LAT": 13.271777944319714 }, "geometry": { "type": "MultiPolygon", "coordinates": [ [ [ [ 124.2289963, 14.0694675 ], [ 124.2797089, 13.9991417 ], [ 124.2884598, 13.9456577 ], [ 124.3380814, 13.9409018 ], [ 124.3576889, 13.9095945 ], [ 124.4178925, 13.8501635 ], [ 124.4144516, 13.784399 ], [ 124.3895569, 13.7336321 ], [ 124.4101028, 13.6666374 ], [ 124.3425293, 13.642868 ], [ 124.3435364, 13.5738173 ], [ 124.2647934, 13.5950422 ], [ 124.2157669, 13.5668716 ], [ 124.215271, 13.5254536 ], [ 124.1867905, 13.5223436 ], [ 124.1412506, 13.5670691 ], [ 124.0604172, 13.6119642 ], [ 124.0336075, 13.6520824 ], [ 124.0644836, 13.697751 ], [ 124.0913467, 13.7031927 ], [ 124.1279221, 13.7711077 ], [ 124.1467438, 13.9282665 ], [ 124.1266327, 13.9791203 ], [ 124.1382599, 14.0059013 ], [ 124.1227875, 14.0518656 ], [ 124.2289963, 14.0694675 ] ] ], [ [ [ 124.1379623, 13.2238836 ], [ 124.1527405, 13.2316055 ], [ 124.2122879, 13.2044258 ], [ 124.1862793, 13.169982 ], [ 124.1430588, 13.1872988 ], [ 124.1379623, 13.2238836 ] ] ], [ [ [ 122.5598968, 13.9413927 ], [ 122.6072845, 13.9599085 ], [ 122.7998505, 13.997489 ], [ 122.4474106, 14.1574936 ], [ 122.3344879, 14.0700626 ], [ 122.2991257, 14.0905466 ], [ 122.3075817, 14.13873 ], [ 122.3328094, 14.154767 ], [ 122.3304596, 14.2010155 ], [ 122.3552933, 14.2179022 ], [ 122.3758621, 14.2723026 ], [ 122.4303284, 14.3145351 ], [ 122.5075912, 14.346529 ], [ 122.5953293, 14.3124113 ], [ 122.630249, 14.2799892 ], [ 122.7098312, 14.3365097 ], [ 122.7893372, 14.3099775 ], [ 122.8074875, 14.2755795 ], [ 122.8644867, 14.268733 ], [ 122.913063, 14.1916943 ], [ 122.9378967, 14.1883755 ], [ 122.9850464, 14.1305113 ], [ 123.030777, 14.1025524 ], [ 123.0328064, 14.0319119 ], [ 123.0769882, 13.9899225 ], [ 123.0928726, 13.8862648 ], [ 123.068779, 13.8758755 ], [ 123.0438995, 13.795083 ], [ 123.0521317, 13.7651062 ], [ 123.1285324, 13.7288275 ], [ 123.2061462, 13.7274904 ], [ 123.2677231, 13.7458305 ], [ 123.3127975, 13.7891541 ], [ 123.3212738, 13.8153095 ], [ 123.2836227, 13.8961678 ], [ 123.2937469, 13.9236879 ], [ 123.2493668, 13.9645662 ], [ 123.2325287, 14.0045109 ], [ 123.2755432, 14.0478506 ], [ 123.2757416, 14.0720043 ], [ 123.3409882, 14.0714293 ], [ 123.3863525, 14.0355921 ], [ 123.4113464, 13.9872828 ], [ 123.4145966, 13.9318066 ], [ 123.467598, 13.9596128 ], [ 123.4992828, 13.9238834 ], [ 123.551857, 13.9325819 ], [ 123.610321, 13.8933582 ], [ 123.6973038, 13.8821306 ], [ 123.7324829, 13.9137506 ], [ 123.7534637, 13.8716583 ], [ 123.8123169, 13.8303156 ], [ 123.9466934, 13.7869825 ], [ 123.9765701, 13.7242908 ], [ 123.8694534, 13.737895 ], [ 123.83535, 13.6963835 ], [ 123.8056183, 13.6877251 ], [ 123.7482071, 13.7081165 ], [ 123.6775284, 13.7208071 ], [ 123.6531677, 13.7079363 ], [ 123.5943222, 13.72785 ], [ 123.567543, 13.707633 ], [ 123.5354538, 13.6248751 ], [ 123.5476227, 13.594842 ], [ 123.5320435, 13.5643864 ], [ 123.5824966, 13.5556116 ], [ 123.6237183, 13.4923792 ], [ 123.6778564, 13.4780273 ], [ 123.731102, 13.3762197 ], [ 123.7416229, 13.3257074 ], [ 123.8159027, 13.2869511 ], [ 123.8649368, 13.2392416 ], [ 123.8530273, 13.2246399 ], [ 123.7862396, 13.2366285 ], [ 123.7553024, 13.1757298 ], [ 123.7639694, 13.128684 ], [ 123.7868576, 13.117856 ], [ 123.7555466, 13.0643225 ], [ 123.7875137, 13.0469542 ], [ 123.8386307, 13.0871515 ], [ 123.8652267, 13.137044 ], [ 123.9030838, 13.1426163 ], [ 123.947998, 13.1080542 ], [ 123.9919662, 13.0949011 ], [ 124.0215836, 13.0563555 ], [ 124.0935669, 13.0122519 ], [ 124.1217422, 13.0731516 ], [ 124.1904221, 13.0661221 ], [ 124.1916733, 13.0143156 ], [ 124.1571579, 12.9928589 ], [ 124.1444931, 12.8949461 ], [ 124.1574097, 12.8372431 ], [ 124.1503372, 12.7760925 ], [ 124.1325226, 12.7357845 ], [ 124.1365891, 12.6639118 ], [ 124.1000137, 12.641551 ], [ 124.1043472, 12.5728951 ], [ 124.0817032, 12.5386257 ], [ 123.9964828, 12.5428267 ], [ 123.9186935, 12.6240435 ], [ 123.8610992, 12.6930456 ], [ 123.8470612, 12.7385483 ], [ 123.8449631, 12.804409 ], [ 123.8319778, 12.8397694 ], [ 123.8771515, 12.8754215 ], [ 123.9108124, 12.8442078 ], [ 123.9475479, 12.8792505 ], [ 124.0162735, 12.8800898 ], [ 124.0412216, 12.928607 ], [ 124.0290298, 12.9699507 ], [ 123.942543, 12.956193 ], [ 123.9245071, 12.9794111 ], [ 123.883667, 12.977788 ], [ 123.8825073, 12.9365959 ], [ 123.7956772, 12.866169 ], [ 123.7305527, 12.8493557 ], [ 123.6797485, 12.9267635 ], [ 123.6348267, 12.8917665 ], [ 123.6002121, 12.9008579 ], [ 123.5568237, 12.9484739 ], [ 123.5318604, 12.938817 ], [ 123.4501266, 13.0277548 ], [ 123.4014969, 13.0466185 ], [ 123.3181, 13.0096235 ], [ 123.2895203, 13.0688009 ], [ 123.2895203, 13.1491318 ], [ 123.3270111, 13.1939135 ], [ 123.2915878, 13.2503853 ], [ 123.2386017, 13.2879 ], [ 123.2018814, 13.3616304 ], [ 123.1909409, 13.4291544 ], [ 123.1542664, 13.4556961 ], [ 122.9989471, 13.5211458 ], [ 122.9735565, 13.5192699 ], [ 122.9237518, 13.5543947 ], [ 122.8171768, 13.6458349 ], [ 122.8607636, 13.6878624 ], [ 122.8342896, 13.7359123 ], [ 122.7456436, 13.7761078 ], [ 122.7350769, 13.8152943 ], [ 122.6513367, 13.8202219 ], [ 122.6485291, 13.8602734 ], [ 122.6204529, 13.8864527 ], [ 122.5650024, 13.9031353 ], [ 122.5598968, 13.9413927 ] ] ], [ [ [ 123.9765372, 13.2805392 ], [ 124.0033417, 13.2883463 ], [ 124.0904694, 13.2677832 ], [ 124.0436325, 13.2183781 ], [ 123.9492035, 13.2362461 ], [ 123.9127274, 13.2725544 ], [ 123.947937, 13.2910395 ], [ 123.9765372, 13.2805392 ] ] ], [ [ [ 123.2718517, 12.5838261 ], [ 123.3156662, 12.5777931 ], [ 123.3665314, 12.5027466 ], [ 123.4028091, 12.525897 ], [ 123.4453812, 12.5199766 ], [ 123.5257874, 12.4554415 ], [ 123.5574722, 12.4625015 ], [ 123.5678635, 12.4230328 ], [ 123.6429901, 12.3513765 ], [ 123.6996613, 12.3314619 ], [ 123.7290268, 12.2747526 ], [ 123.7676163, 12.2276115 ], [ 123.8029175, 12.2477303 ], [ 123.8571014, 12.1951151 ], [ 123.901329, 12.1969347 ], [ 123.9257889, 12.1457825 ], [ 123.9805298, 12.0841579 ], [ 124.0099869, 12.0221205 ], [ 124.0399628, 11.9052744 ], [ 124.0700378, 11.8588781 ], [ 124.0582199, 11.7862597 ], [ 124.0743713, 11.7492332 ], [ 124.0542831, 11.7282829 ], [ 124.0115585, 11.7914 ], [ 123.929451, 11.8643904 ], [ 123.8991165, 11.8679485 ], [ 123.8516617, 11.908989 ], [ 123.7691727, 11.9303617 ], [ 123.7252579, 11.9331226 ], [ 123.7288666, 11.9876518 ], [ 123.7058029, 12.0171309 ], [ 123.6516495, 12.0492258 ], [ 123.6144028, 12.0892 ], [ 123.5941467, 12.1451187 ], [ 123.5353775, 12.2113075 ], [ 123.4577332, 12.2129726 ], [ 123.4225082, 12.199028 ], [ 123.3558578, 12.0971861 ], [ 123.335701, 12.0918417 ], [ 123.2981567, 12.0240269 ], [ 123.2655182, 12.0061235 ], [ 123.1669922, 11.9077377 ], [ 123.1448212, 11.9399252 ], [ 123.1922073, 12.0182676 ], [ 123.2170334, 12.1320219 ], [ 123.2799377, 12.1591043 ], [ 123.2638474, 12.1917067 ], [ 123.293663, 12.2043381 ], [ 123.2519226, 12.2466049 ], [ 123.2158127, 12.2363253 ], [ 123.2682114, 12.3450003 ], [ 123.2601089, 12.3821363 ], [ 123.2840881, 12.4210644 ], [ 123.2484665, 12.4722538 ], [ 123.2470779, 12.5272865 ], [ 123.2332611, 12.582427 ], [ 123.2718517, 12.5838261 ] ] ], [ [ [ 123.8728176, 13.3457079 ], [ 123.9041595, 13.3041801 ], [ 123.8737183, 13.2269478 ], [ 123.8511734, 13.2693119 ], [ 123.8555069, 13.3235817 ], [ 123.8728176, 13.3457079 ] ] ], [ [ [ 123.616951, 12.6956158 ], [ 123.6593781, 12.6527987 ], [ 123.7248535, 12.6169062 ], [ 123.7688217, 12.498807 ], [ 123.7743835, 12.4481001 ], [ 123.7929382, 12.4096861 ], [ 123.7877426, 12.3388319 ], [ 123.682518, 12.4863482 ], [ 123.6364136, 12.5419807 ], [ 123.6099014, 12.6014977 ], [ 123.5811691, 12.6344719 ], [ 123.6097565, 12.6588211 ], [ 123.616951, 12.6956158 ] ] ], [ [ [ 123.6593781, 13.971323 ], [ 123.6781464, 13.942605 ], [ 123.6255264, 13.9077005 ], [ 123.5945892, 13.944129 ], [ 123.6593781, 13.971323 ] ] ], [ [ [ 123.0078017, 13.1408021 ], [ 123.034523, 13.1404362 ], [ 123.0914307, 13.0656366 ], [ 123.0998764, 13.0356464 ], [ 123.1327362, 13.0089073 ], [ 123.1423035, 12.9733801 ], [ 123.1802902, 12.9157476 ], [ 123.230217, 12.9121008 ], [ 123.2764816, 12.8921347 ], [ 123.2846832, 12.8096533 ], [ 123.242981, 12.8415527 ], [ 123.196579, 12.8447113 ], [ 123.074173, 12.9598932 ], [ 123.0646362, 13.0014019 ], [ 123.0249405, 12.9955025 ], [ 122.9858704, 13.0096159 ], [ 122.9465637, 13.0538797 ], [ 122.9307709, 13.1092405 ], [ 122.948349, 13.137188 ], [ 122.9935837, 13.1584778 ], [ 123.0078017, 13.1408021 ] ] ] ] } },
{ "type": "Feature", "properties": { "POLYGON_ID": "PHL_GAUL1997_ADM1_2362", "ADM0_ISO3": "PHL", "ADM0_NAME": "Philippines", "ADM0_CODE": 196, "ADM1_NAME": "Region VI (Western Visayas)", "ADM1_CODE": 2362, "GEOSET": "GAUL", "GEOSET_YEAR": 1997.0, "GEOSET_VERSION": "GAUL_v1", "GEOSET_UNIT": "ADM1", "CENTROID_LONG": 122.65338434349492, "CENTROID_LAT": 10.836280478820992 }, "geometry": { "type": "MultiPolygon", "coordinates": [ [ [ [ 123.340255, 10.3853332 ], [ 123.198349, 10.4205284 ], [ 123.1401596, 10.4137516 ], [ 123.1683884, 10.3185167 ], [ 123.1979294, 10.276638 ], [ 123.1221161, 10.1827822 ], [ 123.0213699, 10.0082684 ], [ 123.0031128, 9.983654 ], [ 122.9786835, 9.9082613 ], [ 122.6549988, 9.5109301 ], [ 122.6134755, 9.4234476 ], [ 122.5406036, 9.4940863 ], [ 122.5205231, 9.5464325 ], [ 122.4872665, 9.5643473 ], [ 122.4466476, 9.6322269 ], [ 122.462738, 9.6503077 ], [ 122.4108963, 9.7058277 ], [ 122.3826675, 9.7140398 ], [ 122.402153, 9.7604055 ], [ 122.3932877, 9.7924395 ], [ 122.3991699, 9.852231 ], [ 122.4434204, 9.9265308 ], [ 122.4515762, 9.9757271 ], [ 122.5080185, 9.9862061 ], [ 122.6130524, 9.9745045 ], [ 122.6966934, 9.9907503 ], [ 122.7485504, 10.0442448 ], [ 122.7867737, 10.0660696 ], [ 122.8285065, 10.0611687 ], [ 122.8635406, 10.0919809 ], [ 122.8655167, 10.1432867 ], [ 122.8477478, 10.1899061 ], [ 122.8424683, 10.2971935 ], [ 122.8680267, 10.3637533 ], [ 122.8617401, 10.394412 ], [ 122.8272018, 10.4402361 ], [ 122.8121109, 10.5091658 ], [ 122.8217011, 10.5507593 ], [ 122.8481827, 10.5473452 ], [ 122.8850937, 10.5712433 ], [ 122.9198074, 10.6124172 ], [ 122.9647064, 10.7393713 ], [ 122.965683, 10.8054304 ], [ 122.944809, 10.848177 ], [ 122.9972382, 10.9168348 ], [ 123.0707932, 10.9141788 ], [ 123.1289902, 10.9712563 ], [ 123.1893234, 11.002059 ], [ 123.2588501, 10.9885683 ], [ 123.3181534, 10.9532824 ], [ 123.3910904, 10.9592953 ], [ 123.4613571, 10.9294014 ], [ 123.5094376, 10.9404535 ], [ 123.5218201, 10.871501 ], [ 123.5604782, 10.8257723 ], [ 123.561882, 10.7783365 ], [ 123.5176392, 10.7260523 ], [ 123.4861832, 10.5972157 ], [ 123.4572678, 10.5392542 ], [ 123.4641037, 10.5235367 ], [ 123.359169, 10.4370461 ], [ 123.340255, 10.3853332 ] ] ], [ [ [ 121.9870071, 11.91537 ], [ 122.0517273, 11.8577662 ], [ 122.107193, 11.826436 ], [ 122.1697998, 11.8272924 ], [ 122.2602005, 11.7803364 ], [ 122.3113785, 11.740469 ], [ 122.3744431, 11.7412767 ], [ 122.4130783, 11.6768255 ], [ 122.4978409, 11.5987415 ], [ 122.5716629, 11.5715837 ], [ 122.5832138, 11.5148745 ], [ 122.6345825, 11.5205317 ], [ 122.6581573, 11.5576754 ], [ 122.726181, 11.6101732 ], [ 122.8334198, 11.5983496 ], [ 122.9092865, 11.5010586 ], [ 122.8596191, 11.4590931 ], [ 122.9184265, 11.4567099 ], [ 122.940033, 11.4800777 ], [ 123.0079422, 11.4925346 ], [ 123.0686264, 11.5249767 ], [ 123.1280365, 11.5721502 ], [ 123.1620178, 11.5603561 ], [ 123.1349869, 11.5087786 ], [ 123.1671371, 11.474206 ], [ 123.1291122, 11.4165049 ], [ 123.1506424, 11.3967562 ], [ 123.1327133, 11.3430319 ], [ 123.0981064, 11.3315744 ], [ 123.0921402, 11.2264099 ], [ 123.1276703, 11.1816835 ], [ 123.0948486, 11.1568613 ], [ 123.029213, 11.1677465 ], [ 123.0116501, 11.0953674 ], [ 122.9783173, 11.0620155 ], [ 122.9193726, 11.0610828 ], [ 122.9069595, 11.0197382 ], [ 122.8751297, 11.0307941 ], [ 122.8388138, 11.0006714 ], [ 122.7818909, 10.9858828 ], [ 122.7597504, 10.9492025 ], [ 122.7875595, 10.8953714 ], [ 122.7826004, 10.8516665 ], [ 122.7323532, 10.7852583 ], [ 122.678688, 10.7994337 ], [ 122.6271133, 10.784482 ], [ 122.5880737, 10.7475376 ], [ 122.5826111, 10.6909447 ], [ 122.5029907, 10.679697 ], [ 122.4763031, 10.6895247 ], [ 122.4043274, 10.6731386 ], [ 122.2763138, 10.657033 ], [ 122.2408524, 10.6353483 ], [ 122.2101593, 10.6371145 ], [ 122.1422501, 10.5849628 ], [ 122.0964127, 10.5766602 ], [ 122.0656433, 10.5045242 ], [ 122.0100708, 10.4433117 ], [ 121.9634933, 10.4172678 ], [ 121.9159622, 10.4489918 ], [ 121.9215088, 10.5039797 ], [ 121.9652328, 10.5668716 ], [ 121.9796677, 10.6337938 ], [ 121.9796371, 10.6871967 ], [ 121.9667587, 10.725462 ], [ 121.9273529, 10.7622213 ], [ 121.9906235, 10.9350719 ], [ 122.0353165, 10.991972 ], [ 122.0524902, 11.0337954 ], [ 122.0367889, 11.1222649 ], [ 122.0354767, 11.2026157 ], [ 122.0536728, 11.2600908 ], [ 122.028862, 11.2926598 ], [ 122.0575027, 11.3392696 ], [ 122.0627823, 11.3758516 ], [ 122.0510864, 11.4254017 ], [ 122.0848312, 11.5148087 ], [ 122.1013031, 11.6533308 ], [ 122.0980377, 11.7095213 ], [ 122.0701675, 11.7444124 ], [ 122.0133972, 11.7402849 ], [ 121.9215088, 11.7705917 ], [ 121.8486328, 11.7667246 ], [ 121.8800888, 11.812192 ], [ 121.8890533, 11.9033279 ], [ 121.9456635, 11.9206038 ], [ 121.9870071, 11.91537 ] ] ], [ [ [ 122.7202043, 10.6893118 ], [ 122.7277603, 10.6200123 ], [ 122.6837769, 10.507061 ], [ 122.6455536, 10.4539137 ], [ 122.5225677, 10.4088898 ], [ 122.4766083, 10.4998531 ], [ 122.516449, 10.5154953 ], [ 122.511261, 10.582509 ], [ 122.5268173, 10.6178627 ], [ 122.6097717, 10.6815643 ], [ 122.6179504, 10.7250195 ], [ 122.6598129, 10.7578926 ], [ 122.7089233, 10.7246485 ], [ 122.7202043, 10.6893118 ] ] ], [ [ [ 121.561794, 11.8948556 ], [ 121.5404434, 11.9069729 ], [ 121.5604401, 11.9663191 ], [ 121.5825806, 11.938633 ], [ 121.561794, 11.8948556 ] ] ], [ [ [ 121.4349976, 11.8722305 ], [ 121.5120773, 11.8667545 ], [ 121.5166779, 11.8308277 ], [ 121.4393768, 11.8448229 ], [ 121.4349976, 11.8722305 ] ] ], [ [ [ 121.3953476, 12.0889502 ], [ 121.4233475, 12.0177574 ], [ 121.3793564, 11.9964371 ], [ 121.366127, 12.0461922 ], [ 121.3953476, 12.0889502 ] ] ] ] } },
{ "type": "Feature", "properties": { "POLYGON_ID": "PHL_GAUL1997_ADM1_2363", "ADM0_ISO3": "PHL", "ADM0_NAME": "Philippines", "ADM0_CODE": 196, "ADM1_NAME": "Region VII (Central Visayas)", "ADM1_CODE": 2363, "GEOSET": "GAUL", "GEOSET_YEAR": 1997.0, "GEOSET_VERSION": "GAUL_v1", "GEOSET_UNIT": "ADM1", "CENTROID_LONG": 123.61412243432353, "CENTROID_LAT": 9.9188309491937812 }, "geometry": { "type": "MultiPolygon", "coordinates": [ [ [ [ 124.5980911, 10.1200914 ], [ 124.6087418, 10.1006145 ], [ 124.5263138, 10.0810118 ], [ 124.5487823, 10.1304235 ], [ 124.5980911, 10.1200914 ] ] ], [ [ [ 124.3062328, 10.1652722 ], [ 124.3897629, 10.112257 ], [ 124.4916382, 10.0573063 ], [ 124.5712433, 10.0217228 ], [ 124.5542374, 9.9296684 ], [ 124.5781479, 9.9136972 ], [ 124.5657501, 9.8712921 ], [ 124.5247116, 9.8548126 ], [ 124.6042099, 9.7994347 ], [ 124.5796814, 9.7337275 ], [ 124.5208664, 9.7223225 ], [ 124.4861374, 9.7600584 ], [ 124.4018784, 9.6978807 ], [ 124.4011765, 9.6617651 ], [ 124.3549271, 9.6331367 ], [ 124.2774124, 9.6042023 ], [ 124.2146988, 9.6109581 ], [ 124.0960693, 9.5916758 ], [ 123.9882126, 9.6014385 ], [ 123.8588715, 9.6403875 ], [ 123.8462372, 9.672967 ], [ 123.8645172, 9.7128019 ], [ 123.844223, 9.743166 ], [ 123.7949905, 9.7358742 ], [ 123.7874603, 9.7918682 ], [ 123.8040771, 9.8291979 ], [ 123.8697128, 9.9147778 ], [ 123.9344177, 9.9343109 ], [ 123.9785767, 9.9628077 ], [ 124.0205917, 9.9643993 ], [ 124.0517731, 9.9923439 ], [ 124.0618668, 10.0633383 ], [ 124.1373901, 10.1103172 ], [ 124.1485367, 10.1504602 ], [ 124.199852, 10.1505318 ], [ 124.3062328, 10.1652722 ] ] ], [ [ [ 124.519371, 10.7350454 ], [ 124.4954224, 10.7537794 ], [ 124.545723, 10.8092833 ], [ 124.5671768, 10.7951832 ], [ 124.519371, 10.7350454 ] ] ], [ [ [ 124.44248, 10.7185085 ], [ 124.4886703, 10.7004604 ], [ 124.5199127, 10.6696606 ], [ 124.4962387, 10.6386662 ], [ 124.4093323, 10.627368 ], [ 124.3879929, 10.6495113 ], [ 124.4134293, 10.7108784 ], [ 124.44248, 10.7185085 ] ] ], [ [ [ 124.321991, 10.7104311 ], [ 124.3789063, 10.6864595 ], [ 124.3837128, 10.6242437 ], [ 124.2809601, 10.5907793 ], [ 124.321991, 10.7104311 ] ] ], [ [ [ 124.0633469, 11.2810535 ], [ 124.0463791, 11.224843 ], [ 124.0366516, 11.1487494 ], [ 123.994133, 11.0976658 ], [ 124.0010986, 11.054534 ], [ 124.0430069, 11.0526724 ], [ 124.0472031, 10.9711246 ], [ 124.0312881, 10.9448338 ], [ 124.0552902, 10.8853903 ], [ 124.0340576, 10.8405142 ], [ 124.0335236, 10.793788 ], [ 124.0054169, 10.7577381 ], [ 124.0377579, 10.594615 ], [ 124.0357285, 10.4984198 ], [ 124.0003662, 10.4138889 ], [ 124.0202866, 10.3871908 ], [ 123.9037628, 10.2922955 ], [ 123.8689575, 10.2747259 ], [ 123.8376312, 10.2345591 ], [ 123.7995911, 10.2386513 ], [ 123.7239075, 10.1736279 ], [ 123.6897812, 10.1288729 ], [ 123.6840515, 10.0902681 ], [ 123.6517792, 10.0892181 ], [ 123.6181412, 9.9972754 ], [ 123.6261902, 9.9428854 ], [ 123.6090393, 9.8740234 ], [ 123.5717087, 9.8509235 ], [ 123.539238, 9.8024616 ], [ 123.538559, 9.7555285 ], [ 123.5154495, 9.7391863 ], [ 123.5019913, 9.6640787 ], [ 123.4712296, 9.5711946 ], [ 123.444397, 9.5256672 ], [ 123.4038315, 9.4972897 ], [ 123.3486862, 9.416131 ], [ 123.3044968, 9.4209003 ], [ 123.301857, 9.5173149 ], [ 123.3281631, 9.6355619 ], [ 123.3261032, 9.6661806 ], [ 123.3492279, 9.7642183 ], [ 123.3719406, 9.8153219 ], [ 123.3700333, 9.8609009 ], [ 123.4042664, 9.9022341 ], [ 123.398941, 9.928977 ], [ 123.4104233, 10.0432425 ], [ 123.5172729, 10.1501617 ], [ 123.5231934, 10.1873875 ], [ 123.5837097, 10.2737913 ], [ 123.588089, 10.3411856 ], [ 123.6688232, 10.4211607 ], [ 123.6803665, 10.4604015 ], [ 123.7156525, 10.5012407 ], [ 123.7121582, 10.5691814 ], [ 123.7330093, 10.5836964 ], [ 123.7421112, 10.6321707 ], [ 123.7918472, 10.6949492 ], [ 123.8664093, 10.8136196 ], [ 123.8961563, 10.9168892 ], [ 123.9237976, 10.9520359 ], [ 123.9354172, 10.9928865 ], [ 123.9041977, 11.0339813 ], [ 123.950943, 11.0889444 ], [ 123.9643631, 11.1233273 ], [ 123.9468994, 11.1451635 ], [ 123.9537888, 11.1987305 ], [ 123.9900284, 11.2296333 ], [ 123.9996109, 11.2732687 ], [ 124.0633469, 11.2810535 ] ] ], [ [ [ 124.042099, 10.3236418 ], [ 123.9760513, 10.2551193 ], [ 123.9450531, 10.2451124 ], [ 123.9259186, 10.27985 ], [ 123.9385376, 10.3077888 ], [ 123.9806213, 10.3314819 ], [ 124.042099, 10.3236418 ] ] ], [ [ [ 123.864702, 9.5982839 ], [ 123.8065033, 9.5526075 ], [ 123.7559433, 9.5471649 ], [ 123.7483978, 9.6015406 ], [ 123.8457031, 9.6442127 ], [ 123.864702, 9.5982839 ] ] ], [ [ [ 123.755661, 11.2670785 ], [ 123.769989, 11.2078695 ], [ 123.8076019, 11.1499138 ], [ 123.7202072, 11.1489925 ], [ 123.6878586, 11.2220793 ], [ 123.7245331, 11.2969847 ], [ 123.755661, 11.2670785 ] ] ], [ [ [ 123.6304932, 9.3011656 ], [ 123.6659393, 9.2352495 ], [ 123.6597977, 9.2001209 ], [ 123.6893387, 9.1239176 ], [ 123.6491165, 9.1261711 ], [ 123.627327, 9.098793 ], [ 123.5625992, 9.1008215 ], [ 123.5300598, 9.1326494 ], [ 123.4608688, 9.1793156 ], [ 123.4637527, 9.2160883 ], [ 123.5601196, 9.2275743 ], [ 123.5955505, 9.2545938 ], [ 123.6064301, 9.3016386 ], [ 123.6304932, 9.3011656 ] ] ], [ [ [ 122.6134755, 9.4234476 ], [ 122.6549988, 9.5109301 ], [ 122.9786835, 9.9082613 ], [ 123.0031128, 9.983654 ], [ 123.0213699, 10.0082684 ], [ 123.1221161, 10.1827822 ], [ 123.1979294, 10.276638 ], [ 123.1683884, 10.3185167 ], [ 123.1401596, 10.4137516 ], [ 123.198349, 10.4205284 ], [ 123.340255, 10.3853332 ], [ 123.3274231, 10.3418131 ], [ 123.3301468, 10.2575512 ], [ 123.2886429, 10.1842737 ], [ 123.2842407, 10.1316099 ], [ 123.2305298, 10.0117207 ], [ 123.2059479, 9.9854679 ], [ 123.1831436, 9.9207697 ], [ 123.1525803, 9.9000874 ], [ 123.1519623, 9.8533802 ], [ 123.1362534, 9.8309622 ], [ 123.1635437, 9.7097044 ], [ 123.1505203, 9.6479225 ], [ 123.1157913, 9.6523523 ], [ 123.1278915, 9.543891 ], [ 123.1727371, 9.5324717 ], [ 123.1866913, 9.4824314 ], [ 123.2328568, 9.4650106 ], [ 123.2383499, 9.4295359 ], [ 123.2725983, 9.3733368 ], [ 123.2970428, 9.3609285 ], [ 123.3163376, 9.3182001 ], [ 123.2878418, 9.2080488 ], [ 123.2473373, 9.1532059 ], [ 123.1813736, 9.0912189 ], [ 123.1211929, 9.0567684 ], [ 123.070137, 9.0629368 ], [ 123.018837, 9.0366707 ], [ 122.9402771, 9.0772982 ], [ 122.9076996, 9.1437798 ], [ 122.8746567, 9.2454557 ], [ 122.8733368, 9.3213701 ], [ 122.8095016, 9.3607092 ], [ 122.6744614, 9.383956 ], [ 122.6134755, 9.4234476 ] ] ] ] } },
{ "type": "Feature", "properties": { "POLYGON_ID": "PHL_GAUL1997_ADM1_2364", "ADM0_ISO3": "PHL", "ADM0_NAME": "Philippines", "ADM0_CODE": 196, "ADM1_NAME": "Region VIII (Eastern Visayas)", "ADM1_CODE": 2364, "GEOSET": "GAUL", "GEOSET_YEAR": 1997.0, "GEOSET_VERSION": "GAUL_v1", "GEOSET_UNIT": "ADM1", "CENTROID_LONG": 124.95777285774037, "CENTROID_LAT": 11.533041266136486 }, "geometry": { "type": "MultiPolygon", "coordinates": [ [ [ [ 125.7376328, 10.7438383 ], [ 125.8174515, 10.7313671 ], [ 125.8082428, 10.6981487 ], [ 125.75, 10.6934299 ], [ 125.7244873, 10.7245007 ], [ 125.6727829, 10.7484283 ], [ 125.6615906, 10.7873011 ], [ 125.6994781, 10.824398 ], [ 125.7265472, 10.8018198 ], [ 125.7151108, 10.7734728 ], [ 125.7376328, 10.7438383 ] ] ], [ [ [ 124.9664001, 12.5718403 ], [ 125.0239334, 12.5343781 ], [ 125.1575928, 12.5737848 ], [ 125.2206573, 12.5332022 ], [ 125.2939835, 12.4608984 ], [ 125.3093872, 12.414835 ], [ 125.2889709, 12.3536854 ], [ 125.2921982, 12.3071241 ], [ 125.3435135, 12.2964001 ], [ 125.3842621, 12.2699518 ], [ 125.4170837, 12.2876043 ], [ 125.4414215, 12.2733898 ], [ 125.5209427, 12.1877947 ], [ 125.4402008, 12.1304235 ], [ 125.4493332, 12.1024122 ], [ 125.505249, 12.0627995 ], [ 125.4503937, 11.9840422 ], [ 125.425499, 11.9351778 ], [ 125.4387131, 11.8306532 ], [ 125.4647675, 11.8237743 ], [ 125.4653473, 11.7609043 ], [ 125.4911804, 11.6720543 ], [ 125.4632874, 11.6517954 ], [ 125.4449081, 11.5993719 ], [ 125.4751968, 11.5965662 ], [ 125.4754486, 11.5415306 ], [ 125.5102921, 11.5041075 ], [ 125.5253601, 11.4568806 ], [ 125.5588531, 11.4095726 ], [ 125.631073, 11.3643589 ], [ 125.6094894, 11.3025608 ], [ 125.5484467, 11.2649193 ], [ 125.5367279, 11.2059431 ], [ 125.5705872, 11.1823444 ], [ 125.6338272, 11.2139559 ], [ 125.658432, 11.2075443 ], [ 125.6994705, 11.1290054 ], [ 125.7600403, 11.0491953 ], [ 125.7415009, 11.0152159 ], [ 125.684227, 11.0832224 ], [ 125.6612778, 11.1434851 ], [ 125.5765762, 11.1106348 ], [ 125.5428772, 11.1563358 ], [ 125.518013, 11.1192265 ], [ 125.4097672, 11.0837278 ], [ 125.3654022, 11.1203718 ], [ 125.3190308, 11.1202021 ], [ 125.2718277, 11.1409903 ], [ 125.2110367, 11.0986681 ], [ 125.1939087, 11.1799822 ], [ 125.1711578, 11.2452669 ], [ 125.1430588, 11.2823124 ], [ 125.0868683, 11.2972221 ], [ 125.0287018, 11.2750797 ], [ 124.9989166, 11.2785206 ], [ 124.9721527, 11.3129959 ], [ 124.9977493, 11.3561306 ], [ 124.9854507, 11.4230862 ], [ 124.8879395, 11.4862299 ], [ 124.8451767, 11.4665871 ], [ 124.8226929, 11.5188446 ], [ 124.8843994, 11.5797625 ], [ 124.9520416, 11.5764685 ], [ 124.9905396, 11.6226377 ], [ 124.9771729, 11.6803999 ], [ 125.0099335, 11.7013245 ], [ 125.0429688, 11.7547064 ], [ 125.0128326, 11.7848635 ], [ 124.9126968, 11.742137 ], [ 124.8341904, 11.8372173 ], [ 124.8049011, 11.847537 ], [ 124.7783203, 11.8838329 ], [ 124.7485962, 11.8971462 ], [ 124.7220993, 11.9737291 ], [ 124.644783, 12.0457125 ], [ 124.5765533, 12.0652857 ], [ 124.5346298, 12.0610094 ], [ 124.4848404, 12.097353 ], [ 124.4432907, 12.1570654 ], [ 124.3999023, 12.1845617 ], [ 124.3388977, 12.3179512 ], [ 124.3206406, 12.429842 ], [ 124.2839127, 12.4692068 ], [ 124.2816925, 12.5175819 ], [ 124.2642517, 12.5656824 ], [ 124.300087, 12.5654707 ], [ 124.3538895, 12.5408545 ], [ 124.4061737, 12.5627537 ], [ 124.4278336, 12.535079 ], [ 124.4981766, 12.5410728 ], [ 124.511322, 12.5252447 ], [ 124.5643616, 12.5332899 ], [ 124.6135483, 12.516283 ], [ 124.7438126, 12.5193262 ], [ 124.8015289, 12.5426874 ], [ 124.8550415, 12.5340948 ], [ 124.9614563, 12.586648 ], [ 124.9664001, 12.5718403 ] ] ], [ [ [ 125.1299667, 10.1652679 ], [ 125.0861969, 10.2186785 ], [ 125.0610199, 10.2892656 ], [ 125.0404663, 10.313056 ], [ 125.0223236, 10.3727179 ], [ 124.9778595, 10.3830528 ], [ 124.9736633, 10.3354673 ], [ 124.9886398, 10.2489281 ], [ 124.9816818, 10.2029991 ], [ 125.0079727, 10.1597939 ], [ 125.0319672, 10.0415926 ], [ 124.9822311, 10.0368176 ], [ 124.8874664, 10.1275187 ], [ 124.7826691, 10.1375465 ], [ 124.7557602, 10.1722221 ], [ 124.7707138, 10.2447424 ], [ 124.7942429, 10.298727 ], [ 124.7917023, 10.3325996 ], [ 124.7271194, 10.3993454 ], [ 124.7250671, 10.4854641 ], [ 124.7703171, 10.5455971 ], [ 124.7713318, 10.6176348 ], [ 124.8066635, 10.6652441 ], [ 124.7915268, 10.7628393 ], [ 124.7671433, 10.8145247 ], [ 124.7086868, 10.8793468 ], [ 124.6863937, 10.9332991 ], [ 124.5854263, 11.0104246 ], [ 124.53936, 10.9785805 ], [ 124.553978, 10.956974 ], [ 124.5353928, 10.8904581 ], [ 124.4882507, 10.8636856 ], [ 124.4529877, 10.8910828 ], [ 124.4014282, 10.9737091 ], [ 124.4029007, 11.0337782 ], [ 124.3751068, 11.0649843 ], [ 124.4051819, 11.1212358 ], [ 124.3874588, 11.1748772 ], [ 124.38974, 11.2441492 ], [ 124.3780518, 11.2786026 ], [ 124.3419571, 11.3186617 ], [ 124.3365936, 11.3744469 ], [ 124.2893677, 11.4970646 ], [ 124.2898865, 11.5391932 ], [ 124.3149567, 11.565589 ], [ 124.4081726, 11.4817495 ], [ 124.4528198, 11.4167051 ], [ 124.4900665, 11.4468403 ], [ 124.5272369, 11.4352989 ], [ 124.5512238, 11.3442631 ], [ 124.5854874, 11.3083467 ], [ 124.6389694, 11.2974901 ], [ 124.7013168, 11.3046885 ], [ 124.7530365, 11.3352776 ], [ 124.8092804, 11.3865156 ], [ 124.815773, 11.4320116 ], [ 124.8658676, 11.4287577 ], [ 124.9180985, 11.4111881 ], [ 124.9502869, 11.427062 ], [ 124.97155, 11.3666515 ], [ 124.9659729, 11.2734861 ], [ 124.9987335, 11.2508936 ], [ 125.0285416, 11.2023258 ], [ 125.0151825, 11.1509523 ], [ 125.0396729, 11.0750656 ], [ 125.0378418, 10.9392557 ], [ 125.0145264, 10.8912592 ], [ 125.0041428, 10.8188953 ], [ 125.016571, 10.7480316 ], [ 125.0406036, 10.7211943 ], [ 125.0900726, 10.7156057 ], [ 125.1105118, 10.6678677 ], [ 125.1949768, 10.5804567 ], [ 125.1665497, 10.5320978 ], [ 125.1942596, 10.4754963 ], [ 125.1824875, 10.4363155 ], [ 125.2209473, 10.3846102 ], [ 125.2630463, 10.3719711 ], [ 125.2694473, 10.3074179 ], [ 125.2589874, 10.2627001 ], [ 125.2123032, 10.2480192 ], [ 125.1352081, 10.2793789 ], [ 125.1256332, 10.2606525 ], [ 125.1417084, 10.1743202 ], [ 125.1299667, 10.1652679 ] ] ], [ [ [ 125.1299667, 10.1652679 ], [ 125.1661987, 10.1364212 ], [ 125.2148666, 10.1310539 ], [ 125.2571106, 10.027504 ], [ 125.2832565, 9.9934845 ], [ 125.2792969, 9.9636288 ], [ 125.3013763, 9.9368076 ], [ 125.2876968, 9.9084911 ], [ 125.2524338, 9.9226341 ], [ 125.1856232, 10.0422144 ], [ 125.1374969, 10.067131 ], [ 125.1179962, 10.1125431 ], [ 125.1299667, 10.1652679 ] ] ], [ [ [ 125.0670319, 12.687521 ], [ 125.0746307, 12.6333027 ], [ 125.030632, 12.6519241 ], [ 125.0670319, 12.687521 ] ] ], [ [ [ 125.0052795, 12.6647348 ], [ 125.0149384, 12.6058836 ], [ 125.0624466, 12.5874414 ], [ 125.0341263, 12.5581684 ], [ 125.0053482, 12.5758667 ], [ 124.9887772, 12.6585341 ], [ 125.0052795, 12.6647348 ] ] ], [ [ [ 124.8514316, 11.6878754 ], [ 124.888031, 11.6685858 ], [ 124.8856125, 11.6306295 ], [ 124.8433228, 11.6439056 ], [ 124.8514316, 11.6878754 ] ] ], [ [ [ 124.7451566, 11.714918 ], [ 124.8019714, 11.6426554 ], [ 124.7932434, 11.6190643 ], [ 124.8458633, 11.6097927 ], [ 124.8410034, 11.5483856 ], [ 124.8015137, 11.5445757 ], [ 124.7722931, 11.5737715 ], [ 124.7529907, 11.6456518 ], [ 124.7197723, 11.7078238 ], [ 124.7451566, 11.714918 ] ] ], [ [ [ 124.4682788, 11.7074304 ], [ 124.5353699, 11.6778688 ], [ 124.5833969, 11.5690107 ], [ 124.612793, 11.5508842 ], [ 124.6073074, 11.490634 ], [ 124.5643463, 11.470952 ], [ 124.523613, 11.4779425 ], [ 124.4786224, 11.4631081 ], [ 124.4471588, 11.4837799 ], [ 124.3921433, 11.5602388 ], [ 124.3951263, 11.5928946 ], [ 124.3613434, 11.6531887 ], [ 124.3733215, 11.695632 ], [ 124.4682788, 11.7074304 ] ] ], [ [ [ 124.3514862, 11.7787962 ], [ 124.3174667, 11.7658701 ], [ 124.2932892, 11.7940302 ], [ 124.3146133, 11.8184013 ], [ 124.3500137, 11.8092079 ], [ 124.3514862, 11.7787962 ] ] ], [ [ [ 124.3318329, 11.9607077 ], [ 124.3401871, 11.9389591 ], [ 124.3112564, 11.9052458 ], [ 124.2758713, 11.9158154 ], [ 124.3048935, 11.9562082 ], [ 124.3318329, 11.9607077 ] ] ], [ [ [ 124.2379684, 12.083437 ], [ 124.2403488, 12.0679817 ], [ 124.1766129, 12.0362892 ], [ 124.1672668, 12.0766926 ], [ 124.2379684, 12.083437 ] ] ], [ [ [ 124.1911163, 12.3872252 ], [ 124.1406326, 12.4320316 ], [ 124.1694565, 12.4551716 ], [ 124.1965103, 12.4071903 ], [ 124.1911163, 12.3872252 ] ] ] ] } },
{ "type": "Feature", "properties": { "POLYGON_ID": "PHL_GAUL1997_ADM1_2368", "ADM0_ISO3": "PHL", "ADM0_NAME": "Philippines", "ADM0_CODE": 196, "ADM1_NAME": "Region XIII (Caraga)", "ADM1_CODE": 2368, "GEOSET": "GAUL", "GEOSET_YEAR": 1997.0, "GEOSET_VERSION": "GAUL_v1", "GEOSET_UNIT": "ADM1", "CENTROID_LONG": 125.79251752620229, "CENTROID_LAT": 8.8024293276518453 }, "geometry": { "type": "MultiPolygon", "coordinates": [ [ [ [ 126.3743819, 7.9464351 ], [ 126.3714752, 7.9988422 ], [ 126.1957016, 7.998868 ], [ 126.0748138, 7.9523387 ], [ 126.0408936, 7.9255271 ], [ 125.9969635, 7.9538522 ], [ 125.9849396, 7.9989085 ], [ 125.39814, 7.9990788 ], [ 125.3702011, 8.1667995 ], [ 125.3626785, 8.2375822 ], [ 125.3378677, 8.2839079 ], [ 125.3441086, 8.3135328 ], [ 125.3162384, 8.3316469 ], [ 125.3068695, 8.3669691 ], [ 125.279686, 8.3858652 ], [ 125.2545547, 8.4436388 ], [ 125.2471313, 8.678215 ], [ 125.2239227, 8.848649 ], [ 125.252243, 8.8701639 ], [ 125.2202072, 8.9258871 ], [ 125.2308731, 8.9526968 ], [ 125.2127457, 8.9954109 ], [ 125.2005296, 9.0894807 ], [ 125.2203064, 9.0912018 ], [ 125.2416, 9.0331335 ], [ 125.2855606, 8.9910316 ], [ 125.4254227, 8.9760942 ], [ 125.5227432, 9.0165472 ], [ 125.5365982, 9.0703611 ], [ 125.5248489, 9.1280632 ], [ 125.5328674, 9.1923323 ], [ 125.5058136, 9.2477674 ], [ 125.5073471, 9.29881 ], [ 125.471199, 9.3659029 ], [ 125.4556122, 9.4453049 ], [ 125.3916931, 9.6571217 ], [ 125.4004593, 9.7683496 ], [ 125.4613037, 9.8016281 ], [ 125.4975662, 9.7938862 ], [ 125.5170822, 9.7677832 ], [ 125.5557709, 9.7662058 ], [ 125.5922394, 9.7018404 ], [ 125.6103592, 9.6368685 ], [ 125.6384811, 9.6145229 ], [ 125.7389069, 9.5934334 ], [ 125.7412872, 9.5708427 ], [ 125.8619308, 9.5406055 ], [ 125.8753662, 9.5021677 ], [ 125.920639, 9.4951277 ], [ 125.9312134, 9.4394846 ], [ 125.8948517, 9.4272671 ], [ 125.9862366, 9.3478184 ], [ 125.9834976, 9.3117514 ], [ 126.0497971, 9.2360191 ], [ 126.1312408, 9.2661724 ], [ 126.1688766, 9.3093891 ], [ 126.1987076, 9.2717733 ], [ 126.1726532, 9.1802616 ], [ 126.1817932, 9.1623726 ], [ 126.1606903, 9.1119442 ], [ 126.2648621, 8.9961767 ], [ 126.3105087, 8.9549131 ], [ 126.3022232, 8.9217291 ], [ 126.3369827, 8.843996 ], [ 126.2923508, 8.7717543 ], [ 126.2550964, 8.7688084 ], [ 126.2160263, 8.7323198 ], [ 126.2140732, 8.6905088 ], [ 126.1456528, 8.6750488 ], [ 126.0984879, 8.6361742 ], [ 126.0912628, 8.6080322 ], [ 126.1417618, 8.5318861 ], [ 126.2120285, 8.5604143 ], [ 126.2636414, 8.5554953 ], [ 126.388237, 8.5180712 ], [ 126.3538666, 8.4369202 ], [ 126.3822784, 8.4152021 ], [ 126.3516922, 8.3739786 ], [ 126.3178864, 8.3562632 ], [ 126.381897, 8.2920036 ], [ 126.3224564, 8.2368822 ], [ 126.3409119, 8.1900902 ], [ 126.3827972, 8.1984434 ], [ 126.4109726, 8.2236156 ], [ 126.4467697, 8.2148457 ], [ 126.4439392, 8.1314793 ], [ 126.4101334, 8.0087681 ], [ 126.4229965, 7.98174 ], [ 126.3743819, 7.9464351 ] ] ], [ [ [ 126.0960907, 9.8547071 ], [ 126.1671906, 9.8133326 ], [ 126.1619873, 9.7839756 ], [ 126.112648, 9.7499409 ], [ 126.0127335, 9.7628727 ], [ 125.9829865, 9.8096828 ], [ 125.9505463, 9.8367491 ], [ 125.9760437, 9.9228096 ], [ 126.0223389, 9.9797144 ], [ 126.0440826, 10.0499649 ], [ 126.0846787, 10.0121441 ], [ 126.1218109, 9.8781815 ], [ 126.0960907, 9.8547071 ] ] ], [ [ [ 125.9413834, 9.7540722 ], [ 125.9878387, 9.6462078 ], [ 125.9686432, 9.6233234 ], [ 125.9647217, 9.5741549 ], [ 125.9366302, 9.5838776 ], [ 125.8953171, 9.6311169 ], [ 125.927063, 9.6556158 ], [ 125.9093094, 9.7247458 ], [ 125.9413834, 9.7540722 ] ] ], [ [ [ 125.6473084, 10.4739952 ], [ 125.6686935, 10.433569 ], [ 125.6774063, 10.3740263 ], [ 125.6475525, 10.2999649 ], [ 125.6477585, 10.2449474 ], [ 125.6639786, 10.2025433 ], [ 125.6636429, 10.1160049 ], [ 125.6918716, 10.0844393 ], [ 125.6929092, 10.0374689 ], [ 125.6733627, 9.9943123 ], [ 125.6729965, 9.9209013 ], [ 125.7073364, 9.8947535 ], [ 125.6872864, 9.8486185 ], [ 125.6586304, 9.8277178 ], [ 125.6200867, 9.8253946 ], [ 125.5943222, 9.8511515 ], [ 125.6486664, 9.8957796 ], [ 125.5983124, 9.9891682 ], [ 125.5738907, 10.0678387 ], [ 125.5514221, 10.0841026 ], [ 125.5031433, 10.0706501 ], [ 125.4838104, 10.1082611 ], [ 125.5050278, 10.1967487 ], [ 125.5437775, 10.2085228 ], [ 125.5155334, 10.2412252 ], [ 125.5273972, 10.2836084 ], [ 125.5185928, 10.3263416 ], [ 125.5610962, 10.3260803 ], [ 125.5491333, 10.3732424 ], [ 125.5999069, 10.3670807 ], [ 125.609169, 10.4322968 ], [ 125.6473084, 10.4739952 ] ] ] ] } }
]
}
