{
"type": "FeatureCollection",
"name": "PLW_GAUL2001_ADM2",
"crs": { "type": "name", "properties": { "name": "urn:ogc:def:crs:OGC:1.3:CRS84" } },
"features": [
{ "type": "Feature", "properties": { "POLYGON_ID": "PLW_GAUL2001_ADM2_23694", "ADM0_ISO3": "PLW", "ADM0_NAME": "Palau", "ADM0_CODE": 189, "ADM1_NAME": "Administrative unit not available", "ADM1_CODE": 2278, "ADM2_NAME": "Administrative unit not available", "ADM2_CODE": 23694, "GEOSET": "GAUL", "GEOSET_YEAR": 2001.0, "GEOSET_VERSION": "GAUL_v1", "GEOSET_UNIT": "ADM2", "CENTROID_LONG": 134.57408174272422, "CENTROID_LAT": 7.4987957270493251 }, "geometry": { "type": "MultiPolygon", "coordinates": [ [ [ [ 134.621164599999986, 7.7316698 ], [ 134.6446822, 7.7006683 ], [ 134.6377493, 7.4990735 ], [ 134.579726099999988, 7.3974494 ], [ 134.5867426, 7.3504071 ], [ 134.5084268, 7.360523 ], [ 134.477813, 7.4434264 ], [ 134.5189666, 7.4626105 ], [ 134.538890400000014, 7.5616404 ], [ 134.5825954, 7.6204212 ], [ 134.6355637, 7.6580548 ], [ 134.621164599999986, 7.7316698 ] ] ] ] } }
]
}
