{
"type": "FeatureCollection",
"name": "PNG_GAUL1992_ADM0",
"crs": { "type": "name", "properties": { "name": "urn:ogc:def:crs:OGC:1.3:CRS84" } },
"features": [
{ "type": "Feature", "properties": { "POLYGON_ID": "PNG_GAUL1992_ADM0_192", "ADM0_ISO3": "PNG", "ADM0_NAME": "Papua New Guinea", "ADM0_CODE": 192, "GEOSET": "GAUL", "GEOSET_YEAR": 1992.0, "GEOSET_VERSION": "GAUL_v1", "GEOSET_UNIT": "ADM0", "CENTROID_LONG": 145.24214002735908, "CENTROID_LAT": -6.478015274794835 }, "geometry": { "type": "MultiPolygon", "coordinates": [ [ [ [ 154.8069763, -5.4948659 ], [ 154.8376007, -5.5019531 ], [ 154.871429400000011, -5.53018 ], [ 155.0293732, -5.536552 ], [ 155.0558777, -5.545279 ], [ 155.0464783, -5.570909 ], [ 155.072403, -5.5902262 ], [ 155.076873799999987, -5.6244678 ], [ 155.1073151, -5.6593881 ], [ 155.1270752, -5.70614 ], [ 155.1723175, -5.7487392 ], [ 155.1642761, -5.7962108 ], [ 155.1787262, -5.839098 ], [ 155.2003937, -5.8692622 ], [ 155.237670900000012, -5.8723578 ], [ 155.2702789, -5.8906822 ], [ 155.2977295, -5.9228568 ], [ 155.3104401, -5.9533319 ], [ 155.349716199999989, -5.949502 ], [ 155.379776, -5.9892402 ], [ 155.3991394, -5.9929628 ], [ 155.3996735, -6.0463281 ], [ 155.41745, -6.098372 ], [ 155.4584961, -6.155478 ], [ 155.5098114, -6.1805058 ], [ 155.5401154, -6.1749163 ], [ 155.5408783, -6.203661 ], [ 155.559677099999988, -6.2204962 ], [ 155.5968933, -6.217135 ], [ 155.6208954, -6.2014852 ], [ 155.6528625, -6.2246261 ], [ 155.670257600000014, -6.2598729 ], [ 155.697464, -6.2667289 ], [ 155.746704099999988, -6.3338509 ], [ 155.8044739, -6.3576422 ], [ 155.848266599999988, -6.4312477 ], [ 155.8587952, -6.4688559 ], [ 155.9204712, -6.5132928 ], [ 155.9181824, -6.6002402 ], [ 155.9328918, -6.6419368 ], [ 155.960159299999987, -6.686626 ], [ 155.9452057, -6.7599921 ], [ 155.9277191, -6.781785 ], [ 155.9103394, -6.7702389 ], [ 155.917923, -6.726017 ], [ 155.8706512, -6.7828341 ], [ 155.850799599999988, -6.7549891 ], [ 155.8140564, -6.7636418 ], [ 155.7536011, -6.8146081 ], [ 155.71243290000001, -6.861464 ], [ 155.7061768, -6.8794589 ], [ 155.6538696, -6.8528571 ], [ 155.629150399999986, -6.866209 ], [ 155.5913544, -6.8612981 ], [ 155.5329132, -6.8416471 ], [ 155.5131073, -6.8416119 ], [ 155.4361877, -6.7922478 ], [ 155.379379300000011, -6.7498069 ], [ 155.3247223, -6.716537 ], [ 155.2892761, -6.6702018 ], [ 155.2466125, -6.637269 ], [ 155.2144165, -6.592277 ], [ 155.16651920000001, -6.542141 ], [ 155.198761, -6.5215998 ], [ 155.224212599999987, -6.4429388 ], [ 155.2243805, -6.412581 ], [ 155.210144, -6.3699388 ], [ 155.2205353, -6.350522 ], [ 155.208953900000012, -6.3179731 ], [ 155.1849823, -6.2894497 ], [ 155.1413269, -6.2712321 ], [ 155.0960083, -6.2714272 ], [ 155.0731049, -6.2571511 ], [ 155.0353241, -6.2515221 ], [ 155.019668599999989, -6.2265959 ], [ 154.962081899999987, -6.1937761 ], [ 154.96037290000001, -6.1344461 ], [ 154.9388428, -6.0948491 ], [ 154.8601837, -6.0449591 ], [ 154.8140259, -6.0272031 ], [ 154.8094482, -6.0051599 ], [ 154.741745, -5.9445748 ], [ 154.7289429, -5.903738 ], [ 154.7456512, -5.870461 ], [ 154.722229, -5.7988892 ], [ 154.6940765, -5.763247 ], [ 154.6933899, -5.7384038 ], [ 154.7174377, -5.703218 ], [ 154.7076874, -5.6681008 ], [ 154.7360535, -5.6038818 ], [ 154.7156982, -5.5649471 ], [ 154.7575836, -5.5700951 ], [ 154.7433624, -5.5000401 ], [ 154.724945100000014, -5.4962921 ], [ 154.699569700000012, -5.4601598 ], [ 154.6681213, -5.4397292 ], [ 154.7062225, -5.408555 ], [ 154.7411194, -5.430335 ], [ 154.7720795, -5.47401 ], [ 154.8069763, -5.4948659 ] ] ], [ [ [ 154.6750336, -5.0903239 ], [ 154.666534399999989, -5.1147952 ], [ 154.669693, -5.1584949 ], [ 154.7076111, -5.1853151 ], [ 154.7032471, -5.260149 ], [ 154.6882172, -5.3010159 ], [ 154.6820526, -5.3537698 ], [ 154.6872864, -5.373744 ], [ 154.6733093, -5.4277172 ], [ 154.635498, -5.414474 ], [ 154.612793, -5.4199662 ], [ 154.5745392, -5.3567882 ], [ 154.545623799999987, -5.2320781 ], [ 154.566070599999989, -5.2068148 ], [ 154.5539551, -5.1383381 ], [ 154.564971899999989, -5.1120052 ], [ 154.5308075, -5.0920501 ], [ 154.6072388, -5.010138 ], [ 154.6461639, -5.0222239 ], [ 154.6526642, -5.0559988 ], [ 154.6750336, -5.0903239 ] ] ], [ [ [ 154.6632538, -5.5605803 ], [ 154.63862610000001, -5.5301929 ], [ 154.6348572, -5.4947901 ], [ 154.653930699999989, -5.4957719 ], [ 154.6750031, -5.5379248 ], [ 154.6632538, -5.5605803 ] ] ], [ [ [ 154.19967650000001, -11.293211 ], [ 154.2666779, -11.3387814 ], [ 154.281662, -11.3803043 ], [ 154.2731934, -11.4049606 ], [ 154.246719399999989, -11.4198427 ], [ 154.193588299999988, -11.3944168 ], [ 154.0858002, -11.4260893 ], [ 154.023239100000012, -11.4165497 ], [ 153.984542800000014, -11.3829575 ], [ 153.976272599999987, -11.3636885 ], [ 154.0209961, -11.3556309 ], [ 154.0406494, -11.36656 ], [ 154.1193695, -11.3504801 ], [ 154.057785, -11.3099022 ], [ 154.115066500000012, -11.2976208 ], [ 154.1407623, -11.3055191 ], [ 154.19967650000001, -11.293211 ] ] ], [ [ [ 153.26712040000001, -11.3695173 ], [ 153.310287499999987, -11.3760643 ], [ 153.3474731, -11.4056149 ], [ 153.3974304, -11.4162645 ], [ 153.474090600000011, -11.4537191 ], [ 153.5381165, -11.4794712 ], [ 153.564254799999986, -11.4800615 ], [ 153.6275635, -11.5000486 ], [ 153.638519300000013, -11.4960957 ], [ 153.6878357, -11.5140562 ], [ 153.739486699999986, -11.5770655 ], [ 153.772781400000014, -11.606576 ], [ 153.7574921, -11.6284885 ], [ 153.715194700000012, -11.6206274 ], [ 153.6641846, -11.642458 ], [ 153.6323242, -11.6195955 ], [ 153.6008453, -11.6266184 ], [ 153.530090300000012, -11.6190691 ], [ 153.4776917, -11.5941944 ], [ 153.4542236, -11.5574322 ], [ 153.4031219, -11.5629444 ], [ 153.3510437, -11.5550594 ], [ 153.3345184, -11.500845 ], [ 153.2681427, -11.4642458 ], [ 153.237457299999988, -11.427309 ], [ 153.2207031, -11.4413786 ], [ 153.1719666, -11.3656235 ], [ 153.1932983, -11.3260241 ], [ 153.2133484, -11.328043 ], [ 153.26712040000001, -11.3695173 ] ] ], [ [ [ 153.725662199999988, -4.021872 ], [ 153.6980896, -4.0441833 ], [ 153.683944700000012, -4.0267959 ], [ 153.6967926, -3.997463 ], [ 153.725662199999988, -4.021872 ] ] ], [ [ [ 153.6579437, -4.1027288 ], [ 153.6339111, -4.138133 ], [ 153.5957794, -4.1338167 ], [ 153.5640869, -4.0988359 ], [ 153.567367600000011, -4.0794749 ], [ 153.611984299999989, -4.0340199 ], [ 153.639358499999986, -4.0441709 ], [ 153.6579437, -4.1027288 ] ] ], [ [ [ 153.402587899999986, -11.3130426 ], [ 153.4387817, -11.3156519 ], [ 153.4498596, -11.3459654 ], [ 153.4057312, -11.3293266 ], [ 153.402587899999986, -11.3130426 ] ] ], [ [ [ 153.288757299999986, -3.3575671 ], [ 153.3310242, -3.3696921 ], [ 153.32420350000001, -3.4081829 ], [ 153.288757299999986, -3.3575671 ] ] ], [ [ [ 153.2280426, -3.4535282 ], [ 153.24617, -3.488158 ], [ 153.224456800000013, -3.4972889 ], [ 153.1950684, -3.489902 ], [ 153.18357850000001, -3.455915 ], [ 153.212738, -3.4310789 ], [ 153.2280426, -3.4535282 ] ] ], [ [ [ 153.0949707, -11.1827774 ], [ 153.153533900000014, -11.2021904 ], [ 153.177368199999989, -11.2235165 ], [ 153.2415619, -11.2537041 ], [ 153.196228, -11.2949762 ], [ 153.171951299999989, -11.28193 ], [ 153.169296300000013, -11.2554951 ], [ 153.1440277, -11.2467899 ], [ 153.1027527, -11.2149496 ], [ 153.0949707, -11.1827774 ] ] ], [ [ [ 150.8434753, -2.61218 ], [ 150.872345, -2.615741 ], [ 150.8916931, -2.6425841 ], [ 150.9208221, -2.6530461 ], [ 150.9489288, -2.689517 ], [ 150.9881287, -2.6967111 ], [ 151.0164948, -2.690372 ], [ 151.0372772, -2.7044079 ], [ 151.058456400000011, -2.7500229 ], [ 151.1144409, -2.7686431 ], [ 151.127578699999987, -2.786305 ], [ 151.156173700000011, -2.7799609 ], [ 151.1874695, -2.809046 ], [ 151.1807861, -2.8484321 ], [ 151.215072600000013, -2.8784239 ], [ 151.2526703, -2.885612 ], [ 151.299560500000013, -2.8718121 ], [ 151.3312378, -2.883399 ], [ 151.3428192, -2.9086599 ], [ 151.4156494, -2.9046249 ], [ 151.4540558, -2.935277 ], [ 151.4847565, -2.9779339 ], [ 151.5094757, -2.9736679 ], [ 151.5402985, -2.998831 ], [ 151.5634308, -2.997333 ], [ 151.5880737, -3.019763 ], [ 151.619049100000012, -3.0285809 ], [ 151.6402283, -3.0466549 ], [ 151.672546399999987, -3.0483282 ], [ 151.701141400000012, -3.0820141 ], [ 151.7134857, -3.118546 ], [ 151.7436218, -3.140713 ], [ 151.7664795, -3.1306939 ], [ 151.7735291, -3.160809 ], [ 151.8062592, -3.1942401 ], [ 151.8536377, -3.1845469 ], [ 151.882843, -3.2014201 ], [ 151.938293499999986, -3.2020361 ], [ 151.9600677, -3.240355 ], [ 151.991165200000012, -3.228673 ], [ 152.0497437, -3.2527411 ], [ 152.0452881, -3.2739432 ], [ 152.0741119, -3.3043931 ], [ 152.098480200000012, -3.3153021 ], [ 152.1204071, -3.342798 ], [ 152.1634827, -3.414597 ], [ 152.1770325, -3.4177401 ], [ 152.2003937, -3.452132 ], [ 152.2820587, -3.5002189 ], [ 152.295135499999986, -3.501292 ], [ 152.3501434, -3.53457 ], [ 152.3525543, -3.5891101 ], [ 152.3814545, -3.5923879 ], [ 152.3987885, -3.614841 ], [ 152.4146576, -3.657099 ], [ 152.4488373, -3.6608031 ], [ 152.479858400000012, -3.6345999 ], [ 152.4980774, -3.651751 ], [ 152.5126343, -3.7036839 ], [ 152.544158900000014, -3.7541289 ], [ 152.5303345, -3.780458 ], [ 152.5500336, -3.8114099 ], [ 152.5948639, -3.828392 ], [ 152.6365662, -3.8228331 ], [ 152.6699982, -3.850472 ], [ 152.6830139, -3.874789 ], [ 152.70112610000001, -3.8730609 ], [ 152.7416077, -3.8912139 ], [ 152.7645264, -3.888762 ], [ 152.781082199999986, -3.862642 ], [ 152.816650399999986, -3.8654001 ], [ 152.823822, -3.9390149 ], [ 152.865448, -3.98754 ], [ 152.9017639, -3.998807 ], [ 152.9323578, -3.9797251 ], [ 152.9421539, -4.0008368 ], [ 152.9350586, -4.0372562 ], [ 152.942977899999988, -4.0526261 ], [ 153.0002289, -4.10357 ], [ 153.015930200000014, -4.1504221 ], [ 153.032043499999986, -4.157218 ], [ 153.026992799999988, -4.1901698 ], [ 153.045730600000013, -4.2107577 ], [ 153.0873718, -4.2263541 ], [ 153.1102295, -4.2768369 ], [ 153.1071014, -4.3212862 ], [ 153.0962372, -4.341157 ], [ 153.1121216, -4.3808699 ], [ 153.0493622, -4.4294128 ], [ 153.021453900000012, -4.4728799 ], [ 153.0183868, -4.494998 ], [ 153.0514374, -4.5267668 ], [ 153.0529175, -4.604558 ], [ 153.011383099999989, -4.6389079 ], [ 153.0064697, -4.6900411 ], [ 152.990387, -4.6871591 ], [ 152.9662476, -4.7163239 ], [ 152.9582672, -4.7564282 ], [ 152.9162292, -4.7857127 ], [ 152.8876038, -4.7967229 ], [ 152.8717346, -4.825139 ], [ 152.848938, -4.7834001 ], [ 152.786117600000011, -4.729495 ], [ 152.766296399999987, -4.6845102 ], [ 152.7202911, -4.6696181 ], [ 152.7017212, -4.5721431 ], [ 152.673614500000014, -4.557363 ], [ 152.6641846, -4.520133 ], [ 152.67048650000001, -4.5025992 ], [ 152.645401, -4.4585652 ], [ 152.6699982, -4.4282532 ], [ 152.6802979, -4.3575201 ], [ 152.6739655, -4.3370743 ], [ 152.6847382, -4.3001742 ], [ 152.6769562, -4.2355409 ], [ 152.667602499999987, -4.210741 ], [ 152.6812286, -4.1887851 ], [ 152.6377258, -4.1345081 ], [ 152.63417050000001, -4.1154251 ], [ 152.607147200000014, -4.0884328 ], [ 152.605224600000014, -4.0414872 ], [ 152.5832062, -4.0084782 ], [ 152.562667800000014, -3.9542811 ], [ 152.5303802, -3.92663 ], [ 152.5302887, -3.9121289 ], [ 152.4998779, -3.8561509 ], [ 152.4460144, -3.826329 ], [ 152.4239655, -3.7857199 ], [ 152.3549347, -3.7122471 ], [ 152.340332, -3.6879351 ], [ 152.3437195, -3.644639 ], [ 152.295623799999987, -3.6166141 ], [ 152.2680664, -3.57074 ], [ 152.2299194, -3.5562329 ], [ 152.2240601, -3.53509 ], [ 152.141418499999986, -3.4803269 ], [ 152.1222229, -3.4891851 ], [ 152.047348, -3.4663639 ], [ 152.0354462, -3.4703441 ], [ 152.000900300000012, -3.4422262 ], [ 151.9803619, -3.4582238 ], [ 151.930481, -3.4334099 ], [ 151.908004799999986, -3.431232 ], [ 151.85592650000001, -3.383178 ], [ 151.797226, -3.3390701 ], [ 151.7186279, -3.3026581 ], [ 151.692504899999989, -3.261133 ], [ 151.622406, -3.1823161 ], [ 151.603775, -3.168602 ], [ 151.5622406, -3.1575351 ], [ 151.5431366, -3.1426711 ], [ 151.4662476, -3.1177368 ], [ 151.4439087, -3.095751 ], [ 151.423980699999987, -3.0555689 ], [ 151.4109192, -3.053792 ], [ 151.342865, -3.0064781 ], [ 151.3123627, -3.001791 ], [ 151.2298889, -2.9568369 ], [ 151.1700745, -2.9048688 ], [ 151.1432953, -2.910285 ], [ 151.1033783, -2.8501658 ], [ 151.0384369, -2.826751 ], [ 151.0284119, -2.835541 ], [ 150.9957123, -2.798631 ], [ 150.910156300000011, -2.7741449 ], [ 150.8565979, -2.7796662 ], [ 150.812210099999987, -2.7932 ], [ 150.7578583, -2.776854 ], [ 150.7176971, -2.7581451 ], [ 150.709793100000013, -2.73125 ], [ 150.7312469, -2.7127521 ], [ 150.785141, -2.7297921 ], [ 150.8147736, -2.6990609 ], [ 150.845260599999989, -2.7065279 ], [ 150.8423309, -2.664886 ], [ 150.774337800000012, -2.6193709 ], [ 150.7935333, -2.5589991 ], [ 150.812576299999989, -2.566514 ], [ 150.8434753, -2.61218 ] ] ], [ [ [ 153.0410156, -11.1545467 ], [ 153.022064199999988, -11.1932688 ], [ 152.9710083, -11.1896801 ], [ 152.9949341, -11.1530819 ], [ 153.0410156, -11.1545467 ] ] ], [ [ [ 152.4227905, -8.9734716 ], [ 152.4443359, -8.947526 ], [ 152.4725494, -8.9541903 ], [ 152.5086212, -8.9941521 ], [ 152.4848175, -8.9936924 ], [ 152.4660797, -8.9709539 ], [ 152.4227905, -8.9734716 ] ] ], [ [ [ 152.4227905, -8.9734716 ], [ 152.4085236, -9.0283566 ], [ 152.3902588, -8.9902248 ], [ 152.4227905, -8.9734716 ] ] ], [ [ [ 152.5086212, -8.9941521 ], [ 152.6105652, -8.9860945 ], [ 152.6431732, -8.9936581 ], [ 152.740325899999988, -9.0280418 ], [ 152.7798309, -9.0061855 ], [ 152.831192, -9.0350695 ], [ 152.8363647, -9.0768623 ], [ 152.878906300000011, -9.078186 ], [ 152.8937378, -9.0878124 ], [ 152.9170532, -9.0712423 ], [ 152.9499817, -9.0925608 ], [ 152.9562531, -9.1276817 ], [ 153.0011749, -9.1485071 ], [ 152.977706899999987, -9.2041349 ], [ 152.952224699999988, -9.1903934 ], [ 152.9347229, -9.2285528 ], [ 152.8952026, -9.2525005 ], [ 152.804031400000014, -9.2546825 ], [ 152.781311, -9.2257624 ], [ 152.7489166, -9.2251043 ], [ 152.7417908, -9.2604856 ], [ 152.71722410000001, -9.2322512 ], [ 152.6616821, -9.2136831 ], [ 152.6706848, -9.1957607 ], [ 152.6991272, -9.1886215 ], [ 152.6916809, -9.1493483 ], [ 152.6345062, -9.112402 ], [ 152.599090600000011, -9.0818691 ], [ 152.5801239, -9.0782003 ], [ 152.540802, -9.0501881 ], [ 152.4730377, -9.0387058 ], [ 152.5086212, -8.9941521 ] ] ], [ [ [ 152.793212899999986, -10.6169977 ], [ 152.8342438, -10.6382055 ], [ 152.8775177, -10.6766682 ], [ 152.843826299999989, -10.6969414 ], [ 152.7661285, -10.7020836 ], [ 152.7615051, -10.7216291 ], [ 152.7207947, -10.7175245 ], [ 152.6814575, -10.7023802 ], [ 152.6449127, -10.6775732 ], [ 152.6216583, -10.68678 ], [ 152.583618199999989, -10.6644459 ], [ 152.548584, -10.6571465 ], [ 152.515075700000011, -10.6295614 ], [ 152.5388031, -10.6155367 ], [ 152.671875, -10.6619253 ], [ 152.7627716, -10.6342688 ], [ 152.793212899999986, -10.6169977 ] ] ], [ [ [ 152.6278687, -3.0342779 ], [ 152.641525300000012, -3.0896621 ], [ 152.63272090000001, -3.109282 ], [ 152.660522500000013, -3.1217639 ], [ 152.6419373, -3.2199368 ], [ 152.6206665, -3.226058 ], [ 152.5648041, -3.1649539 ], [ 152.557312, -3.1399128 ], [ 152.5257111, -3.110188 ], [ 152.520736699999986, -3.08444 ], [ 152.5658417, -3.0441079 ], [ 152.6278687, -3.0342779 ] ] ], [ [ [ 152.450058, -4.127553 ], [ 152.489242600000011, -4.161684 ], [ 152.4909973, -4.1846919 ], [ 152.4508209, -4.2167072 ], [ 152.4241638, -4.2095041 ], [ 152.4354706, -4.1836538 ], [ 152.4082947, -4.1679358 ], [ 152.4389343, -4.151175 ], [ 152.450058, -4.127553 ] ] ], [ [ [ 152.379364, -10.6685438 ], [ 152.411727899999988, -10.6959419 ], [ 152.3448334, -10.7171059 ], [ 152.335754400000013, -10.6987085 ], [ 152.350677499999989, -10.6695843 ], [ 152.379364, -10.6685438 ] ] ], [ [ [ 152.2043152, -4.2025328 ], [ 152.2190704, -4.2123451 ], [ 152.2277832, -4.249815 ], [ 152.20256040000001, -4.2513437 ], [ 152.1920929, -4.229537 ], [ 152.147934, -4.2502799 ], [ 152.1670837, -4.267664 ], [ 152.151855500000011, -4.291461 ], [ 152.1877747, -4.3112788 ], [ 152.2051239, -4.296906 ], [ 152.2613983, -4.3419218 ], [ 152.323608400000012, -4.3440838 ], [ 152.389114400000011, -4.3245831 ], [ 152.3780975, -4.3962369 ], [ 152.351379400000013, -4.4184971 ], [ 152.3556519, -4.4401088 ], [ 152.3264465, -4.504045 ], [ 152.3300323, -4.5268121 ], [ 152.363418599999989, -4.57794 ], [ 152.3771973, -4.6165271 ], [ 152.3695984, -4.649488 ], [ 152.3760529, -4.6890388 ], [ 152.3567047, -4.7501512 ], [ 152.3584595, -4.774539 ], [ 152.3225098, -4.8249311 ], [ 152.314239500000014, -4.8606563 ], [ 152.2845001, -4.8799357 ], [ 152.2680054, -4.9219241 ], [ 152.2391663, -4.9388952 ], [ 152.2180328, -4.9742331 ], [ 152.1519318, -4.9806018 ], [ 152.139389, -4.993793 ], [ 152.0556488, -4.969645 ], [ 152.0218964, -4.9705262 ], [ 152.0112, -4.9892282 ], [ 151.97805790000001, -4.9758348 ], [ 151.9494934, -4.9990091 ], [ 151.9480438, -5.0277848 ], [ 151.964019799999988, -5.0493312 ], [ 151.9395294, -5.1033211 ], [ 151.9464417, -5.144248 ], [ 152.0021515, -5.2042341 ], [ 152.0641632, -5.2411661 ], [ 152.0783539, -5.270772 ], [ 152.1174011, -5.3080602 ], [ 152.1288452, -5.3369899 ], [ 152.1256104, -5.3735981 ], [ 152.0782776, -5.4498057 ], [ 152.0532074, -5.4448857 ], [ 151.9814758, -5.486526 ], [ 151.9550476, -5.5156169 ], [ 151.9139557, -5.5243568 ], [ 151.877334600000012, -5.548028 ], [ 151.8488159, -5.5456519 ], [ 151.84318540000001, -5.565701 ], [ 151.8053894, -5.5870719 ], [ 151.7535248, -5.5592771 ], [ 151.72456360000001, -5.5166311 ], [ 151.656051600000012, -5.5110049 ], [ 151.6193542, -5.5664182 ], [ 151.606689499999987, -5.5634909 ], [ 151.5763092, -5.5238252 ], [ 151.521926900000011, -5.5273352 ], [ 151.4850922, -5.5144029 ], [ 151.4528046, -5.536191 ], [ 151.443084700000014, -5.5677619 ], [ 151.4537354, -5.6261539 ], [ 151.5070953, -5.6344028 ], [ 151.51091, -5.6592331 ], [ 151.484191900000013, -5.6931882 ], [ 151.448989899999987, -5.6853089 ], [ 151.4194946, -5.7142138 ], [ 151.3990631, -5.720295 ], [ 151.3924408, -5.7732439 ], [ 151.379028299999987, -5.801147 ], [ 151.3455811, -5.8236251 ], [ 151.318695100000014, -5.8267441 ], [ 151.2860107, -5.865088 ], [ 151.256424, -5.8765011 ], [ 151.2147675, -5.9146528 ], [ 151.2077332, -5.9351602 ], [ 151.168090799999987, -5.9615669 ], [ 151.1542358, -5.950129 ], [ 151.054855300000014, -5.9864621 ], [ 151.0407562, -6.01758 ], [ 151.0084076, -6.033824 ], [ 150.9924316, -6.0113502 ], [ 150.946945199999988, -6.0214391 ], [ 150.9020691, -6.010129 ], [ 150.8469543, -6.027844 ], [ 150.8293304, -6.0470099 ], [ 150.8122253, -6.026608 ], [ 150.7747498, -6.0283723 ], [ 150.77383420000001, -6.080133 ], [ 150.7454529, -6.1096921 ], [ 150.6999664, -6.119535 ], [ 150.6722107, -6.1378169 ], [ 150.629028299999987, -6.1497183 ], [ 150.6206512, -6.128129 ], [ 150.5883331, -6.151947 ], [ 150.556366, -6.1511488 ], [ 150.5241241, -6.1956639 ], [ 150.503677399999987, -6.201952 ], [ 150.4676819, -6.2308369 ], [ 150.4567261, -6.251348 ], [ 150.418792700000012, -6.2547069 ], [ 150.40136720000001, -6.2681098 ], [ 150.3569641, -6.26827 ], [ 150.3229675, -6.279891 ], [ 150.3031311, -6.2636309 ], [ 150.2489014, -6.2764702 ], [ 150.2160034, -6.2758932 ], [ 150.2193604, -6.2510419 ], [ 150.1898651, -6.237802 ], [ 150.157196, -6.2363009 ], [ 150.1370392, -6.2589078 ], [ 150.076416, -6.2862458 ], [ 150.0629578, -6.2508712 ], [ 150.0332642, -6.247746 ], [ 150.0334015, -6.2861538 ], [ 149.983718900000014, -6.2842412 ], [ 149.9677582, -6.2594509 ], [ 149.9103088, -6.2757282 ], [ 149.8951874, -6.2941728 ], [ 149.8688812, -6.2675719 ], [ 149.8459473, -6.2865 ], [ 149.7511292, -6.2697558 ], [ 149.719406099999986, -6.277895 ], [ 149.70173650000001, -6.270442 ], [ 149.6538849, -6.2852058 ], [ 149.5986786, -6.2878842 ], [ 149.5523224, -6.2468371 ], [ 149.5398102, -6.211679 ], [ 149.5049744, -6.1763473 ], [ 149.4885406, -6.1416569 ], [ 149.463653599999986, -6.124928 ], [ 149.469574, -6.1021419 ], [ 149.398605300000014, -6.0772882 ], [ 149.3581848, -6.0699792 ], [ 149.3408966, -6.055758 ], [ 149.2781219, -6.0554428 ], [ 149.2521515, -6.064702 ], [ 149.233078, -6.0989599 ], [ 149.194274900000011, -6.087832 ], [ 149.1501312, -6.0909171 ], [ 149.1087799, -6.1193662 ], [ 149.1002808, -6.1463327 ], [ 149.06193540000001, -6.1400919 ], [ 149.044632, -6.1180449 ], [ 149.0489502, -6.091814 ], [ 149.0059357, -6.0886779 ], [ 148.998703, -6.0244098 ], [ 148.9611816, -6.0257349 ], [ 148.9123993, -6.0090332 ], [ 148.8617401, -5.9782991 ], [ 148.8644562, -5.958971 ], [ 148.8375397, -5.9454451 ], [ 148.8085022, -5.9123678 ], [ 148.7650299, -5.9082999 ], [ 148.746322600000013, -5.8632402 ], [ 148.709320100000014, -5.8711209 ], [ 148.6918182, -5.8495231 ], [ 148.6497498, -5.8532681 ], [ 148.6264801, -5.822475 ], [ 148.591049199999986, -5.8089519 ], [ 148.5648956, -5.8375168 ], [ 148.5163422, -5.8171082 ], [ 148.5080414, -5.7977939 ], [ 148.4489441, -5.7886672 ], [ 148.397659299999987, -5.7694039 ], [ 148.3564606, -5.742074 ], [ 148.3200836, -5.6928792 ], [ 148.3075867, -5.6353722 ], [ 148.3249969, -5.6019902 ], [ 148.3283539, -5.5391722 ], [ 148.3430023, -5.492445 ], [ 148.3599548, -5.4675751 ], [ 148.421051, -5.4421911 ], [ 148.4633636, -5.4690599 ], [ 148.4950867, -5.4750009 ], [ 148.5151215, -5.495914 ], [ 148.518158, -5.5262828 ], [ 148.572174100000012, -5.5358729 ], [ 148.5870667, -5.5082402 ], [ 148.6146393, -5.5049801 ], [ 148.6465302, -5.47893 ], [ 148.6844635, -5.4885373 ], [ 148.721435500000013, -5.479506 ], [ 148.7442169, -5.4905138 ], [ 148.7909393, -5.5288639 ], [ 148.8444672, -5.5200291 ], [ 148.8758545, -5.480166 ], [ 148.898849500000011, -5.4844971 ], [ 148.9438477, -5.4637051 ], [ 148.9785156, -5.4565058 ], [ 149.0355682, -5.4826269 ], [ 149.0675201, -5.4860148 ], [ 149.0861816, -5.5089879 ], [ 149.113754300000011, -5.5057101 ], [ 149.127349900000013, -5.519948 ], [ 149.196579, -5.5444212 ], [ 149.2058563, -5.5793748 ], [ 149.241027800000012, -5.5804491 ], [ 149.2910614, -5.5589371 ], [ 149.3488922, -5.5589638 ], [ 149.3754425, -5.5688639 ], [ 149.404998799999987, -5.5384212 ], [ 149.4369965, -5.5567498 ], [ 149.4857178, -5.5570879 ], [ 149.504241900000011, -5.5280499 ], [ 149.542358400000012, -5.5169067 ], [ 149.5636749, -5.5000539 ], [ 149.615387, -5.5010681 ], [ 149.6273041, -5.4888401 ], [ 149.6622467, -5.4949579 ], [ 149.6681213, -5.5368199 ], [ 149.720993, -5.5417361 ], [ 149.769195599999989, -5.5218101 ], [ 149.8001099, -5.4881258 ], [ 149.8300018, -5.4940209 ], [ 149.857193, -5.5199423 ], [ 149.886581400000011, -5.5104198 ], [ 149.9424744, -5.4610081 ], [ 149.9677887, -5.4034019 ], [ 149.9279785, -5.3841958 ], [ 149.9020844, -5.33641 ], [ 149.9132538, -5.3110628 ], [ 149.9338989, -5.301105 ], [ 149.966156, -5.2625742 ], [ 149.9989929, -5.2587891 ], [ 149.999115, -5.2263403 ], [ 150.023605300000014, -5.2032499 ], [ 149.9988861, -5.161674 ], [ 149.9987793, -5.1324468 ], [ 150.0264587, -5.0999088 ], [ 150.0168457, -5.0421739 ], [ 150.033721899999989, -5.0124311 ], [ 150.1186676, -5.0036397 ], [ 150.1858978, -5.0501361 ], [ 150.16445920000001, -5.0904832 ], [ 150.1163177, -5.1154981 ], [ 150.086486799999989, -5.1208892 ], [ 150.0638123, -5.1419048 ], [ 150.0536041, -5.176229 ], [ 150.076492300000012, -5.218729 ], [ 150.0523224, -5.269896 ], [ 150.0220795, -5.2925439 ], [ 150.051147500000013, -5.3237481 ], [ 150.0542297, -5.350893 ], [ 150.098114, -5.4789219 ], [ 150.0885925, -5.5153098 ], [ 150.148468, -5.5503173 ], [ 150.1902618, -5.541203 ], [ 150.2834015, -5.5581412 ], [ 150.33647160000001, -5.4953661 ], [ 150.392868, -5.4629488 ], [ 150.4086151, -5.4361992 ], [ 150.46626280000001, -5.4272423 ], [ 150.4936523, -5.4400258 ], [ 150.5152283, -5.434422 ], [ 150.5348663, -5.459199 ], [ 150.5735474, -5.479991 ], [ 150.5863953, -5.5291829 ], [ 150.617965700000013, -5.5481601 ], [ 150.6519165, -5.5356011 ], [ 150.672653200000013, -5.5463328 ], [ 150.7167358, -5.5188532 ], [ 150.7470093, -5.4730921 ], [ 150.767608599999988, -5.4545999 ], [ 150.813751200000013, -5.4452062 ], [ 150.830703699999987, -5.4833331 ], [ 150.870269799999988, -5.4914508 ], [ 150.8994141, -5.4837341 ], [ 150.910781899999989, -5.4560728 ], [ 150.9502563, -5.4478498 ], [ 150.9877472, -5.406498 ], [ 151.0084991, -5.3709688 ], [ 151.001266500000014, -5.35006 ], [ 151.0079498, -5.3056169 ], [ 151.034423800000013, -5.2670703 ], [ 151.0534058, -5.2002482 ], [ 151.0848541, -5.148098 ], [ 151.1631317, -5.092279 ], [ 151.206314099999986, -5.046052 ], [ 151.2302551, -5.0098081 ], [ 151.2657166, -4.984324 ], [ 151.3409119, -4.9591112 ], [ 151.3432465, -4.9206638 ], [ 151.3553772, -4.9123201 ], [ 151.3999939, -4.9254541 ], [ 151.423263600000013, -4.9419112 ], [ 151.4844208, -4.9544988 ], [ 151.5207825, -4.9271593 ], [ 151.580734299999989, -4.9715071 ], [ 151.6375275, -4.942677 ], [ 151.680572500000011, -4.877089 ], [ 151.6797791, -4.8177109 ], [ 151.654022200000014, -4.7676692 ], [ 151.6521301, -4.7216792 ], [ 151.663177499999989, -4.680387 ], [ 151.6490173, -4.6095672 ], [ 151.618042, -4.568295 ], [ 151.623016400000012, -4.513947 ], [ 151.616165200000012, -4.4764619 ], [ 151.553772, -4.3987479 ], [ 151.5310059, -4.3912659 ], [ 151.5316925, -4.345686 ], [ 151.505340600000011, -4.3112912 ], [ 151.517868, -4.2941937 ], [ 151.503768900000011, -4.2746987 ], [ 151.4880829, -4.2153878 ], [ 151.518234299999989, -4.1889958 ], [ 151.565567, -4.2037201 ], [ 151.6265564, -4.1958122 ], [ 151.6702118, -4.2061748 ], [ 151.6894531, -4.1998591 ], [ 151.7148132, -4.2215939 ], [ 151.762680100000011, -4.2079911 ], [ 151.8467865, -4.229177 ], [ 151.8421936, -4.269485 ], [ 151.8641815, -4.3025141 ], [ 151.9212646, -4.3339672 ], [ 151.949081400000011, -4.3425598 ], [ 151.9920502, -4.3133183 ], [ 152.0284729, -4.263392 ], [ 151.9818573, -4.2180772 ], [ 152.000061, -4.192884 ], [ 152.0492554, -4.2075691 ], [ 152.1217651, -4.2089972 ], [ 152.1347656, -4.1958008 ], [ 152.1470947, -4.1490021 ], [ 152.170974699999988, -4.1516252 ], [ 152.1972504, -4.1719589 ], [ 152.2043152, -4.2025328 ] ] ], [ [ [ 152.009613, -2.901732 ], [ 152.040100099999989, -2.9043221 ], [ 152.073257399999989, -2.9317529 ], [ 152.0689697, -2.980341 ], [ 152.041381800000011, -3.0028231 ], [ 152.017013600000013, -2.9909921 ], [ 152.0006104, -2.967608 ], [ 151.993454, -2.917243 ], [ 151.962692299999986, -2.9084389 ], [ 151.9431, -2.887603 ], [ 151.951385499999986, -2.853265 ], [ 151.97167970000001, -2.8393421 ], [ 152.009613, -2.901732 ] ] ], [ [ [ 152.0216675, -2.654717 ], [ 151.9990692, -2.6672709 ], [ 151.94776920000001, -2.665256 ], [ 151.953674299999989, -2.617816 ], [ 151.979187, -2.59512 ], [ 152.018920900000012, -2.615839 ], [ 152.0216675, -2.654717 ] ] ], [ [ [ 151.9554138, -2.7211368 ], [ 151.9891663, -2.735678 ], [ 152.007751500000012, -2.779762 ], [ 151.9936523, -2.8359981 ], [ 151.9695587, -2.8280768 ], [ 151.944061299999987, -2.8544559 ], [ 151.92384340000001, -2.84375 ], [ 151.9043579, -2.803581 ], [ 151.924209600000012, -2.750078 ], [ 151.9086609, -2.7154121 ], [ 151.9269257, -2.7061059 ], [ 151.9554138, -2.7211368 ] ] ], [ [ [ 151.9949493, -8.9870253 ], [ 151.9764404, -8.9899769 ], [ 151.9570618, -8.9695005 ], [ 151.9714203, -8.9511557 ], [ 151.997055100000011, -8.9663601 ], [ 151.9949493, -8.9870253 ] ] ], [ [ [ 151.337783800000011, -8.654377 ], [ 151.3126526, -8.6453161 ], [ 151.3088074, -8.625555 ], [ 151.3446808, -8.6004534 ], [ 151.3554382, -8.6273594 ], [ 151.337783800000011, -8.654377 ] ] ], [ [ [ 150.807968100000011, -9.7374268 ], [ 150.82852170000001, -9.7497311 ], [ 150.8334045, -9.7897453 ], [ 150.851867700000014, -9.8054819 ], [ 150.8970184, -9.8176956 ], [ 150.9390259, -9.8544741 ], [ 150.9654846, -9.896678 ], [ 150.9913483, -9.9191122 ], [ 151.0381317, -9.9340696 ], [ 151.0288696, -9.9783764 ], [ 151.0461426, -10.006506 ], [ 151.1250916, -10.0434523 ], [ 151.144393900000011, -10.0348139 ], [ 151.1466675, -9.9932261 ], [ 151.178909299999987, -9.9444866 ], [ 151.2225647, -9.9345217 ], [ 151.2388611, -9.9180508 ], [ 151.270401, -9.9193411 ], [ 151.288864100000012, -9.9453917 ], [ 151.2921906, -9.983326 ], [ 151.2697296, -10.0308018 ], [ 151.2635651, -10.0640984 ], [ 151.246521, -10.0895338 ], [ 151.2216492, -10.1507874 ], [ 151.2039337, -10.1686335 ], [ 151.1330414, -10.1347351 ], [ 151.1125793, -10.1406097 ], [ 151.092483499999986, -10.1209726 ], [ 151.063262900000012, -10.1125479 ], [ 151.0075378, -10.1145515 ], [ 150.9636993, -10.1076479 ], [ 150.9533844, -10.0397892 ], [ 150.9846497, -10.0061769 ], [ 150.903671300000013, -10.0052633 ], [ 150.87677, -9.960062 ], [ 150.8828583, -9.9414549 ], [ 150.8715973, -9.8869505 ], [ 150.8380127, -9.8371115 ], [ 150.8041077, -9.820796 ], [ 150.7895203, -9.8000488 ], [ 150.760147100000012, -9.786767 ], [ 150.7474518, -9.7379704 ], [ 150.755233800000013, -9.7159605 ], [ 150.807968100000011, -9.7374268 ] ] ], [ [ [ 151.1721344, -4.9619741 ], [ 151.150070199999988, -4.9570112 ], [ 151.11087040000001, -4.924047 ], [ 151.1479187, -4.8911972 ], [ 151.1800385, -4.888288 ], [ 151.2305145, -4.9241891 ], [ 151.2035522, -4.9533129 ], [ 151.1721344, -4.9619741 ] ] ], [ [ [ 151.198135400000012, -8.8610964 ], [ 151.1807404, -8.8786955 ], [ 151.1553192, -8.8758173 ], [ 151.1804352, -8.8396559 ], [ 151.198135400000012, -8.8610964 ] ] ], [ [ [ 151.123703, -8.407299 ], [ 151.131927499999989, -8.4273109 ], [ 151.12792970000001, -8.4929409 ], [ 151.108245899999986, -8.5093708 ], [ 151.1466217, -8.5476694 ], [ 151.1477509, -8.6034613 ], [ 151.1205902, -8.6386833 ], [ 151.1205444, -8.6970015 ], [ 151.106552099999988, -8.728157 ], [ 151.0987244, -8.7708254 ], [ 151.0503387, -8.746007 ], [ 151.0430298, -8.7287474 ], [ 151.09571840000001, -8.6732264 ], [ 151.112075800000014, -8.6303759 ], [ 151.1356049, -8.5956211 ], [ 151.1134949, -8.5855312 ], [ 151.0934906, -8.5542908 ], [ 151.0500946, -8.5563622 ], [ 151.0039673, -8.5483103 ], [ 150.9967804, -8.5085564 ], [ 151.0370483, -8.4380713 ], [ 151.0819397, -8.4100714 ], [ 151.123703, -8.407299 ] ] ], [ [ [ 151.026123, -10.585413 ], [ 151.0658264, -10.6001034 ], [ 151.0720215, -10.6185265 ], [ 151.04422, -10.6443596 ], [ 151.0625, -10.6621571 ], [ 151.0354462, -10.6764984 ], [ 150.988891599999988, -10.6367083 ], [ 150.9658203, -10.6460075 ], [ 150.90425110000001, -10.6332455 ], [ 150.9204407, -10.6066713 ], [ 150.9591217, -10.5917158 ], [ 151.0023651, -10.5935621 ], [ 151.026123, -10.585413 ] ] ], [ [ [ 150.988647500000013, -9.5796947 ], [ 151.0322113, -9.6000557 ], [ 151.0240326, -9.6356859 ], [ 151.0440826, -9.6579733 ], [ 151.027587899999986, -9.671814 ], [ 150.9969482, -9.6337357 ], [ 150.950515700000011, -9.6075163 ], [ 150.9631348, -9.5862179 ], [ 150.988647500000013, -9.5796947 ] ] ], [ [ [ 150.9278564, -8.5816355 ], [ 150.934967, -8.547699 ], [ 150.921707199999986, -8.52283 ], [ 150.9507599, -8.4828205 ], [ 150.9728394, -8.4969473 ], [ 150.971832299999988, -8.5596132 ], [ 150.9278564, -8.5816355 ] ] ], [ [ [ 150.885131800000011, -2.9102712 ], [ 150.9365387, -2.931685 ], [ 150.9618988, -2.9647191 ], [ 150.927841199999989, -2.9812069 ], [ 150.871231099999989, -2.978456 ], [ 150.8546906, -2.9660981 ], [ 150.812088, -2.9699578 ], [ 150.7930145, -2.956228 ], [ 150.8366852, -2.9362519 ], [ 150.8530884, -2.9177711 ], [ 150.885131800000011, -2.9102712 ] ] ], [ [ [ 150.486908, -9.3309011 ], [ 150.5393066, -9.3528719 ], [ 150.545242300000012, -9.3650894 ], [ 150.6025543, -9.3797312 ], [ 150.6279144, -9.3978243 ], [ 150.63862610000001, -9.4254646 ], [ 150.67720030000001, -9.4392767 ], [ 150.6946869, -9.4299173 ], [ 150.7358551, -9.4295483 ], [ 150.770965600000011, -9.4035788 ], [ 150.7947388, -9.4165916 ], [ 150.831314099999986, -9.4604654 ], [ 150.8417816, -9.4929237 ], [ 150.886383099999989, -9.5111084 ], [ 150.884674100000012, -9.5708361 ], [ 150.906601, -9.6293249 ], [ 150.9370117, -9.6616669 ], [ 150.9250793, -9.6852665 ], [ 150.8751526, -9.7015228 ], [ 150.842132600000014, -9.72017 ], [ 150.852584799999988, -9.6765728 ], [ 150.842239400000011, -9.6604271 ], [ 150.8132477, -9.6636982 ], [ 150.789245599999987, -9.6881371 ], [ 150.7441864, -9.6641884 ], [ 150.69104, -9.6762543 ], [ 150.6301727, -9.6627531 ], [ 150.6115265, -9.6437855 ], [ 150.5567017, -9.6284695 ], [ 150.4936371, -9.632616 ], [ 150.4752502, -9.6451206 ], [ 150.4405365, -9.6388903 ], [ 150.4368591, -9.601409 ], [ 150.464111300000013, -9.5795536 ], [ 150.518447900000012, -9.5617952 ], [ 150.5216675, -9.5324078 ], [ 150.509079, -9.5079641 ], [ 150.4586334, -9.4694567 ], [ 150.431076100000013, -9.4347906 ], [ 150.422668499999986, -9.3805084 ], [ 150.4446259, -9.3524151 ], [ 150.486908, -9.3309011 ] ] ], [ [ [ 150.8673248, -10.5396976 ], [ 150.896087599999987, -10.5520487 ], [ 150.8864136, -10.5777407 ], [ 150.8927765, -10.6058245 ], [ 150.8831329, -10.6259975 ], [ 150.8288116, -10.6084347 ], [ 150.7903595, -10.542223 ], [ 150.805343599999986, -10.5347023 ], [ 150.83633420000001, -10.5526171 ], [ 150.8673248, -10.5396976 ] ] ], [ [ [ 141.0194391, -9.1296155 ], [ 141.0194444, -8.3951826 ], [ 141.0194444, -8.1755379 ], [ 141.0194444, -7.6667371 ], [ 141.0194444, -6.8917428 ], [ 140.940322900000012, -6.8927808 ], [ 140.9367538, -6.8727682 ], [ 140.900297599999988, -6.8490589 ], [ 140.9190356, -6.8247123 ], [ 140.8704698, -6.7938648 ], [ 140.8935418, -6.7653117 ], [ 140.88003, -6.7334444 ], [ 140.846250700000013, -6.7200602 ], [ 140.8632041, -6.6830941 ], [ 140.8606547, -6.64855 ], [ 140.9116424, -6.5757651 ], [ 140.9301254, -6.5338278 ], [ 140.9210751, -6.5154722 ], [ 140.9330572, -6.4698383 ], [ 140.9191631, -6.4370787 ], [ 140.9261739, -6.4183407 ], [ 140.9624918, -6.3982454 ], [ 140.9446629, -6.373253 ], [ 140.964879599999989, -6.3568568 ], [ 140.9767391, -6.3261337 ], [ 141.0, -6.3224005 ], [ 141.0, -5.8776221 ], [ 141.0, -5.3328734 ], [ 141.0, -4.9557413 ], [ 141.0, -4.2122688 ], [ 141.0, -3.8143676 ], [ 141.0, -3.3490867 ], [ 141.0, -2.8299686 ], [ 141.0, -2.6086976 ], [ 141.061599699999988, -2.609139 ], [ 141.1043549, -2.631016 ], [ 141.1532745, -2.642308 ], [ 141.206543, -2.6358809 ], [ 141.2358093, -2.6605079 ], [ 141.257522599999987, -2.6609731 ], [ 141.2721558, -2.6846759 ], [ 141.299819899999989, -2.688592 ], [ 141.3359528, -2.7166691 ], [ 141.4203186, -2.736232 ], [ 141.459198, -2.7576301 ], [ 141.5044861, -2.7698231 ], [ 141.5623474, -2.7981181 ], [ 141.6110687, -2.8291728 ], [ 141.6577301, -2.84849 ], [ 141.740081800000013, -2.8914931 ], [ 141.827224699999988, -2.921829 ], [ 141.8796539, -2.9774911 ], [ 141.9866638, -2.967068 ], [ 142.0699768, -3.0107291 ], [ 142.0583191, -3.024775 ], [ 142.071167, -3.0604351 ], [ 142.1034393, -3.069844 ], [ 142.1282043, -3.0600119 ], [ 142.208236699999986, -3.1084111 ], [ 142.2423096, -3.1000931 ], [ 142.2949524, -3.1223609 ], [ 142.345962500000013, -3.123915 ], [ 142.3569794, -3.1489871 ], [ 142.384903, -3.1530969 ], [ 142.4082489, -3.1703291 ], [ 142.456558199999989, -3.1900599 ], [ 142.536468500000012, -3.235292 ], [ 142.627319300000011, -3.2494311 ], [ 142.6520538, -3.2636631 ], [ 142.737670900000012, -3.2916059 ], [ 142.80953980000001, -3.304605 ], [ 142.874115, -3.331188 ], [ 142.919647200000014, -3.333868 ], [ 142.9574432, -3.3482959 ], [ 143.00914, -3.347507 ], [ 143.030456500000014, -3.3624239 ], [ 143.0641022, -3.3653491 ], [ 143.097030600000011, -3.3542349 ], [ 143.1590424, -3.3573279 ], [ 143.2009277, -3.366673 ], [ 143.23188780000001, -3.3912301 ], [ 143.2847443, -3.3943331 ], [ 143.3433685, -3.409847 ], [ 143.418212899999986, -3.41381 ], [ 143.46290590000001, -3.4399359 ], [ 143.5134735, -3.4411891 ], [ 143.5318604, -3.4664581 ], [ 143.5550385, -3.474339 ], [ 143.5598602, -3.4946928 ], [ 143.611084, -3.556237 ], [ 143.6488953, -3.5754669 ], [ 143.6873474, -3.574441 ], [ 143.706420900000012, -3.601315 ], [ 143.750885, -3.6184511 ], [ 143.7806549, -3.621357 ], [ 143.838531499999988, -3.68448 ], [ 143.8955841, -3.6988091 ], [ 143.9293365, -3.729316 ], [ 143.9415741, -3.761039 ], [ 143.973053, -3.7924728 ], [ 143.995285, -3.7974091 ], [ 144.116806, -3.7922409 ], [ 144.0830078, -3.8172729 ], [ 144.094909699999988, -3.8298969 ], [ 144.1753998, -3.8370321 ], [ 144.1983185, -3.8184371 ], [ 144.207870500000013, -3.8591759 ], [ 144.227233899999987, -3.8663831 ], [ 144.245742799999988, -3.8315029 ], [ 144.2423096, -3.805259 ], [ 144.2882233, -3.801394 ], [ 144.3047943, -3.785851 ], [ 144.3822937, -3.788934 ], [ 144.5289917, -3.8183949 ], [ 144.5383148, -3.856565 ], [ 144.5588074, -3.886867 ], [ 144.5095825, -3.9444411 ], [ 144.4716644, -3.9356401 ], [ 144.4804382, -3.981988 ], [ 144.5021362, -3.9936781 ], [ 144.5156708, -3.9764299 ], [ 144.5180511, -3.945477 ], [ 144.563156099999986, -3.9957139 ], [ 144.601272599999987, -4.017662 ], [ 144.660034200000013, -4.012198 ], [ 144.667572, -4.0265841 ], [ 144.7268982, -4.0491538 ], [ 144.8538361, -4.1174469 ], [ 144.8406982, -4.149724 ], [ 144.8421936, -4.1745739 ], [ 144.8592529, -4.197978 ], [ 144.9064026, -4.1936359 ], [ 144.932251, -4.2326508 ], [ 144.9715271, -4.258718 ], [ 144.9801788, -4.296196 ], [ 145.015335099999987, -4.3372979 ], [ 145.1001282, -4.380127 ], [ 145.170120200000014, -4.3835449 ], [ 145.1826935, -4.4031448 ], [ 145.224945100000014, -4.3885279 ], [ 145.2844086, -4.3778667 ], [ 145.322036700000012, -4.382338 ], [ 145.343566900000013, -4.4005771 ], [ 145.358429, -4.4305382 ], [ 145.4134369, -4.4601378 ], [ 145.4296722, -4.4891801 ], [ 145.448501599999986, -4.4876142 ], [ 145.506424, -4.5609479 ], [ 145.5644073, -4.609879 ], [ 145.569168100000013, -4.6345181 ], [ 145.5973358, -4.6757817 ], [ 145.6509705, -4.7203231 ], [ 145.671798700000011, -4.7569642 ], [ 145.7552795, -4.8119159 ], [ 145.7756958, -4.8195529 ], [ 145.807998700000013, -4.864728 ], [ 145.784057600000011, -4.9061098 ], [ 145.77986150000001, -4.9410849 ], [ 145.7967377, -5.0193691 ], [ 145.8157196, -5.066586 ], [ 145.8069763, -5.0766959 ], [ 145.801147500000013, -5.133069 ], [ 145.8066254, -5.1471181 ], [ 145.801254300000011, -5.2021089 ], [ 145.816635100000013, -5.2150269 ], [ 145.786254899999989, -5.2458038 ], [ 145.7528381, -5.3163848 ], [ 145.7592316, -5.3621259 ], [ 145.7403107, -5.3805618 ], [ 145.7328949, -5.4228878 ], [ 145.756485, -5.4678068 ], [ 145.796203600000013, -5.4936581 ], [ 145.849090600000011, -5.4696012 ], [ 145.8676758, -5.4887352 ], [ 145.9147644, -5.4941139 ], [ 145.9331818, -5.4727488 ], [ 145.9878845, -5.4693952 ], [ 145.9959412, -5.4903011 ], [ 146.040222199999988, -5.50492 ], [ 146.0779114, -5.5040622 ], [ 146.106369, -5.5271182 ], [ 146.1452026, -5.5414462 ], [ 146.171402, -5.535964 ], [ 146.190444899999989, -5.5580821 ], [ 146.2655792, -5.571537 ], [ 146.2871552, -5.595036 ], [ 146.3434906, -5.5707221 ], [ 146.3974609, -5.614738 ], [ 146.445968599999986, -5.6028333 ], [ 146.471923800000013, -5.6120672 ], [ 146.47901920000001, -5.6440568 ], [ 146.538772599999987, -5.6645999 ], [ 146.5860748, -5.7224002 ], [ 146.629501299999987, -5.7604051 ], [ 146.7035065, -5.773356 ], [ 146.7267151, -5.798914 ], [ 146.7536011, -5.8030772 ], [ 146.7715149, -5.8403621 ], [ 146.7988739, -5.8583269 ], [ 146.830841099999986, -5.8371859 ], [ 146.865081800000013, -5.8344488 ], [ 146.9013977, -5.8540277 ], [ 146.9294434, -5.9009762 ], [ 146.9634705, -5.9120378 ], [ 146.9974823, -5.9369011 ], [ 147.0193329, -5.9378319 ], [ 147.0529022, -5.9102421 ], [ 147.0961151, -5.9611001 ], [ 147.1352081, -5.9493833 ], [ 147.2021179, -5.959065 ], [ 147.231308, -5.9498711 ], [ 147.2584381, -5.9176698 ], [ 147.3113251, -5.9374619 ], [ 147.345123300000012, -5.921823 ], [ 147.3699646, -5.9485111 ], [ 147.4502106, -5.9694448 ], [ 147.49368290000001, -5.9988871 ], [ 147.4973602, -6.0193601 ], [ 147.549346899999989, -6.047647 ], [ 147.571197500000011, -6.0520139 ], [ 147.5988159, -6.089962 ], [ 147.6255035, -6.1113482 ], [ 147.6335602, -6.144238 ], [ 147.673141500000014, -6.1830988 ], [ 147.670639, -6.210011 ], [ 147.6888123, -6.2244949 ], [ 147.6950531, -6.2541628 ], [ 147.730484, -6.2828989 ], [ 147.7624664, -6.284266 ], [ 147.8110352, -6.3293219 ], [ 147.804611200000011, -6.3514037 ], [ 147.82901, -6.3734698 ], [ 147.850906400000014, -6.425662 ], [ 147.8371429, -6.472352 ], [ 147.8321381, -6.5360513 ], [ 147.8572845, -6.5972023 ], [ 147.8566284, -6.6452579 ], [ 147.8338623, -6.6572261 ], [ 147.802352899999988, -6.6905789 ], [ 147.7473755, -6.7062383 ], [ 147.6615295, -6.6959209 ], [ 147.5865021, -6.7053671 ], [ 147.552459700000014, -6.7382503 ], [ 147.5207062, -6.742393 ], [ 147.4574127, -6.723546 ], [ 147.382843, -6.7198672 ], [ 147.339126599999986, -6.7458439 ], [ 147.2560425, -6.7295079 ], [ 147.200119, -6.7359319 ], [ 147.147415200000012, -6.7000499 ], [ 147.0795288, -6.703474 ], [ 147.0346527, -6.7326531 ], [ 146.9605408, -6.7493982 ], [ 146.9453278, -6.8351412 ], [ 146.951995899999986, -6.8818111 ], [ 146.944397, -6.9116898 ], [ 146.9533539, -6.9815741 ], [ 146.9779816, -6.9822769 ], [ 146.9837341, -7.0123911 ], [ 147.035766599999988, -7.0439062 ], [ 147.0718994, -7.1114941 ], [ 147.0537109, -7.142282 ], [ 147.0921631, -7.1680379 ], [ 147.1186523, -7.1956263 ], [ 147.1379852, -7.2455001 ], [ 147.123245200000014, -7.289844 ], [ 147.145126299999987, -7.309154 ], [ 147.1326904, -7.334425 ], [ 147.145828200000011, -7.380383 ], [ 147.175537100000014, -7.4212899 ], [ 147.1988068, -7.440136 ], [ 147.1799164, -7.463336 ], [ 147.2262115, -7.4670229 ], [ 147.230819700000012, -7.4849439 ], [ 147.2741241, -7.4780612 ], [ 147.296936, -7.5028758 ], [ 147.330108599999988, -7.5104609 ], [ 147.380111699999986, -7.5520463 ], [ 147.4628296, -7.5927052 ], [ 147.5103149, -7.6487489 ], [ 147.508255, -7.6678143 ], [ 147.526016199999987, -7.6988192 ], [ 147.564712500000013, -7.7006512 ], [ 147.5886993, -7.731883 ], [ 147.5728149, -7.7452068 ], [ 147.5808868, -7.775291 ], [ 147.6069336, -7.781487 ], [ 147.6055603, -7.8120308 ], [ 147.638290399999988, -7.8074298 ], [ 147.66362, -7.7895098 ], [ 147.687149, -7.8255582 ], [ 147.6964417, -7.9220009 ], [ 147.721344, -7.9428883 ], [ 147.7660675, -7.9522839 ], [ 147.7909393, -7.9316082 ], [ 147.8211517, -7.9513412 ], [ 147.8607788, -7.9380031 ], [ 147.9062195, -7.9726491 ], [ 147.958252, -8.0 ], [ 147.9740448, -8.0527906 ], [ 148.0008698, -8.0757179 ], [ 148.011123700000013, -8.0594406 ], [ 148.094101, -8.0668945 ], [ 148.1269379, -8.0596142 ], [ 148.141296399999987, -8.1146879 ], [ 148.141647299999988, -8.1521006 ], [ 148.165679899999986, -8.179491 ], [ 148.1741791, -8.2405148 ], [ 148.1994934, -8.2746506 ], [ 148.207275399999986, -8.3087435 ], [ 148.2066345, -8.3966494 ], [ 148.2379608, -8.4616423 ], [ 148.2243042, -8.4791088 ], [ 148.2345123, -8.5063572 ], [ 148.217987099999988, -8.5304384 ], [ 148.2255707, -8.5636168 ], [ 148.251159699999988, -8.5970736 ], [ 148.2872925, -8.6198988 ], [ 148.3206329, -8.6295881 ], [ 148.3472595, -8.6247091 ], [ 148.3877563, -8.6498823 ], [ 148.3990479, -8.6677303 ], [ 148.4389648, -8.6860008 ], [ 148.4437714, -8.7051296 ], [ 148.476150499999989, -8.7508402 ], [ 148.476272599999987, -8.8245573 ], [ 148.5062103, -8.9134092 ], [ 148.528930699999989, -8.9585228 ], [ 148.5269623, -8.999608 ], [ 148.590454099999988, -9.0733242 ], [ 148.6300354, -9.0878925 ], [ 148.6763306, -9.0957479 ], [ 148.715087899999986, -9.1099701 ], [ 148.761962899999986, -9.1156607 ], [ 148.7939606, -9.1094294 ], [ 148.8282166, -9.0905905 ], [ 148.8749542, -9.0882206 ], [ 148.9020386, -9.0502148 ], [ 148.9368744, -9.0573263 ], [ 148.9714203, -9.0499601 ], [ 149.011962899999986, -9.0682049 ], [ 149.030304, -9.0559874 ], [ 149.0775299, -9.0517511 ], [ 149.0826874, -9.0267792 ], [ 149.116745, -9.0017033 ], [ 149.1411133, -9.0252523 ], [ 149.2040863, -9.0073509 ], [ 149.227829, -9.0133743 ], [ 149.250885, -8.9989462 ], [ 149.305603, -9.0264559 ], [ 149.321334799999988, -9.0672913 ], [ 149.3162384, -9.1099558 ], [ 149.3246002, -9.1481819 ], [ 149.291168199999987, -9.179038 ], [ 149.2639771, -9.1716146 ], [ 149.2403107, -9.2165756 ], [ 149.2401428, -9.2514915 ], [ 149.2248535, -9.3133383 ], [ 149.1878204, -9.3335752 ], [ 149.1790924, -9.3667831 ], [ 149.1860046, -9.4095984 ], [ 149.2010651, -9.4524851 ], [ 149.2306366, -9.495369 ], [ 149.270721400000014, -9.5146799 ], [ 149.2969055, -9.5062695 ], [ 149.333129899999989, -9.5264301 ], [ 149.355835, -9.5195684 ], [ 149.3794403, -9.5501623 ], [ 149.4127045, -9.5583467 ], [ 149.438873300000012, -9.5811548 ], [ 149.4477539, -9.6173286 ], [ 149.476867700000014, -9.603631 ], [ 149.551239, -9.6039705 ], [ 149.6156464, -9.6278582 ], [ 149.6427155, -9.6092949 ], [ 149.6873474, -9.6180239 ], [ 149.7638092, -9.5951223 ], [ 149.799209600000012, -9.6248808 ], [ 149.8404999, -9.6197653 ], [ 149.882644699999986, -9.6484299 ], [ 149.9577789, -9.6443033 ], [ 149.9868622, -9.6300926 ], [ 150.0076752, -9.6348763 ], [ 150.0263367, -9.6745663 ], [ 150.0552063, -9.6865416 ], [ 150.0444794, -9.7225237 ], [ 150.002121, -9.7363415 ], [ 149.9950409, -9.7499943 ], [ 149.95173650000001, -9.7501812 ], [ 149.9227905, -9.7735834 ], [ 149.8980713, -9.7637014 ], [ 149.8775482, -9.7763767 ], [ 149.7601013, -9.790638 ], [ 149.713272100000012, -9.8129215 ], [ 149.71521, -9.8522396 ], [ 149.730011, -9.8565235 ], [ 149.756958, -9.900918 ], [ 149.804870599999987, -9.9112692 ], [ 149.8273926, -9.95998 ], [ 149.8621368, -9.9915695 ], [ 149.8593445, -10.0179739 ], [ 149.893219, -10.0178347 ], [ 149.935287499999987, -10.0630436 ], [ 149.9961243, -10.0856638 ], [ 150.0177917, -10.0764351 ], [ 150.0936127, -10.086297 ], [ 150.1284027, -10.1192341 ], [ 150.1585388, -10.0955858 ], [ 150.181778, -10.092104 ], [ 150.205841099999986, -10.1313772 ], [ 150.2478333, -10.1349382 ], [ 150.2961884, -10.1868134 ], [ 150.3284607, -10.1877565 ], [ 150.361099200000012, -10.2018013 ], [ 150.426498400000014, -10.2133303 ], [ 150.4625854, -10.2007256 ], [ 150.518341099999986, -10.2316999 ], [ 150.5466156, -10.2052374 ], [ 150.576965300000012, -10.2151031 ], [ 150.586959799999988, -10.2498798 ], [ 150.6062622, -10.2808142 ], [ 150.652938799999987, -10.2843466 ], [ 150.7021179, -10.2557068 ], [ 150.7164612, -10.264534 ], [ 150.777298, -10.2690554 ], [ 150.760849, -10.3004436 ], [ 150.732055699999989, -10.2984228 ], [ 150.716156, -10.3157902 ], [ 150.6493835, -10.3328238 ], [ 150.6227112, -10.353301 ], [ 150.5487061, -10.3438578 ], [ 150.526947, -10.3326702 ], [ 150.4570923, -10.3206711 ], [ 150.4499817, -10.3079767 ], [ 150.3888397, -10.3153334 ], [ 150.3552704, -10.3316269 ], [ 150.342025799999988, -10.3630161 ], [ 150.3431549, -10.3984251 ], [ 150.4455261, -10.4134541 ], [ 150.59318540000001, -10.4712858 ], [ 150.651245100000011, -10.4790344 ], [ 150.6932678, -10.5632181 ], [ 150.6531219, -10.5877819 ], [ 150.6045532, -10.583087 ], [ 150.5616913, -10.6292286 ], [ 150.5391846, -10.6226339 ], [ 150.473373400000014, -10.6210127 ], [ 150.4631348, -10.6542721 ], [ 150.4190979, -10.6649818 ], [ 150.3907776, -10.6902866 ], [ 150.3561554, -10.6849642 ], [ 150.3437347, -10.6563969 ], [ 150.321945199999988, -10.6550417 ], [ 150.2562714, -10.6947508 ], [ 150.2346344, -10.6954956 ], [ 150.17240910000001, -10.680728 ], [ 150.170517, -10.6547337 ], [ 150.136581400000011, -10.6532974 ], [ 150.1184845, -10.6752129 ], [ 150.091095, -10.6402636 ], [ 150.0565948, -10.6227198 ], [ 150.036727899999988, -10.6333494 ], [ 150.019455, -10.5867577 ], [ 150.0014038, -10.6029177 ], [ 149.9647522, -10.5908899 ], [ 149.951965300000012, -10.5661469 ], [ 149.904037499999987, -10.5431738 ], [ 149.8729095, -10.5405827 ], [ 149.8747864, -10.5132437 ], [ 149.8981171, -10.5040379 ], [ 149.9151459, -10.5223579 ], [ 149.9570923, -10.5123987 ], [ 149.98045350000001, -10.525486 ], [ 150.0205536, -10.5125132 ], [ 150.067627, -10.4722385 ], [ 150.0484772, -10.4543695 ], [ 150.0246735, -10.4651937 ], [ 149.9550171, -10.431921 ], [ 149.945007299999986, -10.4334383 ], [ 149.928665200000012, -10.4935169 ], [ 149.914917, -10.4963779 ], [ 149.8710632, -10.4114618 ], [ 149.7904053, -10.3632412 ], [ 149.7515259, -10.3481474 ], [ 149.7130127, -10.3424768 ], [ 149.5252075, -10.3490343 ], [ 149.4703217, -10.3314314 ], [ 149.4565125, -10.3418541 ], [ 149.39547730000001, -10.2922163 ], [ 149.3527985, -10.2869091 ], [ 149.3271637, -10.3151207 ], [ 149.284561200000013, -10.3026781 ], [ 149.243927, -10.2803669 ], [ 149.1860504, -10.2633619 ], [ 149.144043, -10.2407904 ], [ 149.08815, -10.2338495 ], [ 149.0155029, -10.2484026 ], [ 148.967392, -10.2882528 ], [ 148.935318, -10.252902 ], [ 148.874237099999988, -10.2348719 ], [ 148.8128662, -10.2391195 ], [ 148.7990265, -10.2488222 ], [ 148.7131042, -10.1787033 ], [ 148.7422943, -10.1659985 ], [ 148.7286224, -10.1469631 ], [ 148.7000275, -10.149332 ], [ 148.650665299999986, -10.1932459 ], [ 148.623703, -10.1786194 ], [ 148.5859528, -10.1882038 ], [ 148.5708771, -10.1746922 ], [ 148.5121002, -10.1992807 ], [ 148.4733276, -10.2038345 ], [ 148.4358063, -10.1970816 ], [ 148.4040833, -10.2071915 ], [ 148.3936615, -10.1888762 ], [ 148.3425446, -10.1754732 ], [ 148.3347015, -10.1404152 ], [ 148.3048401, -10.1263046 ], [ 148.272781400000014, -10.1348829 ], [ 148.2128296, -10.0928183 ], [ 148.175445599999989, -10.0933886 ], [ 148.1977997, -10.0583372 ], [ 148.2168732, -10.0554142 ], [ 148.2080841, -10.0229321 ], [ 148.1734314, -10.0880699 ], [ 148.132034299999987, -10.1237411 ], [ 148.1076965, -10.1362305 ], [ 148.056778, -10.1400166 ], [ 148.0321045, -10.1297369 ], [ 148.0074615, -10.1603718 ], [ 147.97612, -10.1607819 ], [ 147.940185500000013, -10.0995102 ], [ 147.8942719, -10.0964537 ], [ 147.9018402, -10.0591106 ], [ 147.872665399999988, -10.0409269 ], [ 147.854248, -10.0739498 ], [ 147.8289795, -10.0581245 ], [ 147.782608, -10.0543528 ], [ 147.7410736, -10.0812273 ], [ 147.7201691, -10.0548925 ], [ 147.707870500000013, -10.0133076 ], [ 147.663162199999988, -9.9950628 ], [ 147.63974, -9.9946537 ], [ 147.609024, -9.9725084 ], [ 147.5839844, -9.9318409 ], [ 147.5218506, -9.8762608 ], [ 147.511489899999987, -9.859066 ], [ 147.5177002, -9.8095331 ], [ 147.500885, -9.7903843 ], [ 147.4815826, -9.741312 ], [ 147.4403534, -9.7134438 ], [ 147.417617799999988, -9.6886683 ], [ 147.399231, -9.6416779 ], [ 147.358215300000012, -9.6036911 ], [ 147.365509, -9.5849819 ], [ 147.3332977, -9.5719738 ], [ 147.3284912, -9.5440788 ], [ 147.297287, -9.5269499 ], [ 147.2612, -9.4874353 ], [ 147.262802099999988, -9.5253811 ], [ 147.2411041, -9.533474 ], [ 147.2007294, -9.4998446 ], [ 147.159805299999988, -9.4834328 ], [ 147.159683199999989, -9.4661961 ], [ 147.1322021, -9.4252234 ], [ 147.109848, -9.4319115 ], [ 147.121917700000012, -9.4663849 ], [ 147.0789795, -9.4712934 ], [ 147.0338898, -9.3957291 ], [ 147.0167999, -9.3933229 ], [ 146.99263, -9.2917442 ], [ 146.9534454, -9.2714338 ], [ 146.9164734, -9.2679338 ], [ 146.9068756, -9.2273035 ], [ 146.914962800000012, -9.1580839 ], [ 146.88574220000001, -9.1162405 ], [ 146.8309021, -9.0929689 ], [ 146.7959595, -9.0598602 ], [ 146.751617399999986, -9.0566454 ], [ 146.6789703, -9.0351429 ], [ 146.6408844, -9.0320415 ], [ 146.5931396, -8.9926653 ], [ 146.5696716, -8.9432354 ], [ 146.5785675, -8.9271173 ], [ 146.5511932, -8.8881702 ], [ 146.5678711, -8.8538465 ], [ 146.5903778, -8.860528 ], [ 146.606308, -8.8395071 ], [ 146.598526, -8.8153124 ], [ 146.571228, -8.8088417 ], [ 146.571823099999989, -8.7801647 ], [ 146.5342407, -8.7550678 ], [ 146.5310059, -8.7217245 ], [ 146.4285736, -8.6086426 ], [ 146.384552, -8.5910273 ], [ 146.345459, -8.5417089 ], [ 146.3084106, -8.4837074 ], [ 146.2838745, -8.4243784 ], [ 146.2726135, -8.4119568 ], [ 146.27636720000001, -8.3677301 ], [ 146.2490082, -8.311326 ], [ 146.2487946, -8.2800751 ], [ 146.2002716, -8.2427273 ], [ 146.1270142, -8.1985807 ], [ 146.0967407, -8.1611547 ], [ 146.0970917, -8.1369772 ], [ 146.0756683, -8.0950212 ], [ 146.0, -8.054904 ], [ 145.8461914, -8.0376902 ], [ 145.7935486, -8.0 ], [ 145.779037499999987, -7.974144 ], [ 145.7767944, -7.9369421 ], [ 145.7062225, -7.9593 ], [ 145.6557465, -7.958735 ], [ 145.623764, -7.9363933 ], [ 145.5914917, -7.935863 ], [ 145.4351959, -7.948359 ], [ 145.405944799999986, -7.9425483 ], [ 145.383224500000011, -7.892664 ], [ 145.3471069, -7.865706 ], [ 145.3173981, -7.8536901 ], [ 145.231201199999987, -7.858058 ], [ 145.216766400000012, -7.8238029 ], [ 145.1836243, -7.8037338 ], [ 145.1761627, -7.8445911 ], [ 145.1476288, -7.8256822 ], [ 145.1066284, -7.8179889 ], [ 145.0992889, -7.8025818 ], [ 145.0619049, -7.8240628 ], [ 145.0198059, -7.7936268 ], [ 145.0, -7.8196692 ], [ 144.981903100000011, -7.8145337 ], [ 144.9668121, -7.7872739 ], [ 144.9502716, -7.791708 ], [ 144.8547211, -7.772594 ], [ 144.8283539, -7.743082 ], [ 144.8649902, -7.7050381 ], [ 144.8472748, -7.652751 ], [ 144.851059, -7.6283908 ], [ 144.8362122, -7.598825 ], [ 144.8227386, -7.6700768 ], [ 144.78508, -7.6842408 ], [ 144.7454071, -7.6616659 ], [ 144.757049599999988, -7.6393418 ], [ 144.7217712, -7.6190438 ], [ 144.6901703, -7.5770249 ], [ 144.6591644, -7.5554428 ], [ 144.6576843, -7.6329951 ], [ 144.623016400000012, -7.6527362 ], [ 144.5778809, -7.640738 ], [ 144.5488129, -7.564827 ], [ 144.532867399999986, -7.5460539 ], [ 144.5354767, -7.5131979 ], [ 144.5057983, -7.508945 ], [ 144.51828, -7.577806 ], [ 144.502609299999989, -7.6254072 ], [ 144.536590600000011, -7.6573381 ], [ 144.526031499999988, -7.689209 ], [ 144.465927099999988, -7.5995903 ], [ 144.4363861, -7.5730572 ], [ 144.4288635, -7.526135 ], [ 144.4064941, -7.5531821 ], [ 144.4234314, -7.610312 ], [ 144.453048700000011, -7.656136 ], [ 144.446945199999988, -7.68188 ], [ 144.4628448, -7.7447438 ], [ 144.517608599999988, -7.8017168 ], [ 144.4773865, -7.804656 ], [ 144.469894399999987, -7.7810001 ], [ 144.430450400000012, -7.732851 ], [ 144.389724699999988, -7.75213 ], [ 144.356903100000011, -7.7122898 ], [ 144.3528595, -7.679235 ], [ 144.2980957, -7.6375532 ], [ 144.2497559, -7.6494989 ], [ 144.247406, -7.7117562 ], [ 144.222427399999987, -7.7368722 ], [ 144.182403599999986, -7.7266812 ], [ 144.1629944, -7.7745018 ], [ 144.14534, -7.7910938 ], [ 144.1158905, -7.7865992 ], [ 144.0789795, -7.7600822 ], [ 144.0668182, -7.7704539 ], [ 144.0290527, -7.7554193 ], [ 143.9711761, -7.7195482 ], [ 143.905365, -7.7126298 ], [ 143.820282, -7.6494989 ], [ 143.772308399999986, -7.5396228 ], [ 143.7483063, -7.5139661 ], [ 143.6938171, -7.515038 ], [ 143.6963959, -7.5320282 ], [ 143.7345886, -7.5362849 ], [ 143.741897599999987, -7.5916181 ], [ 143.7932281, -7.6773658 ], [ 143.8126373, -7.7028012 ], [ 143.8370056, -7.7681761 ], [ 143.8318176, -7.7975841 ], [ 143.8480835, -7.843688 ], [ 143.8832397, -7.8996062 ], [ 143.922180200000014, -7.9842038 ], [ 143.907608, -8.0068989 ], [ 143.8764648, -8.0167751 ], [ 143.868209799999988, -8.0499582 ], [ 143.743225099999989, -8.0499449 ], [ 143.7007141, -8.022542 ], [ 143.61662290000001, -7.9885192 ], [ 143.583709700000014, -7.9879179 ], [ 143.5550537, -8.0078125 ], [ 143.4788208, -7.997828 ], [ 143.4605865, -7.977901 ], [ 143.4530945, -7.935678 ], [ 143.4286346, -7.906352 ], [ 143.3922882, -7.909883 ], [ 143.3430023, -7.8953061 ], [ 143.356689499999987, -7.9306302 ], [ 143.3769226, -7.9301229 ], [ 143.3899994, -7.9966679 ], [ 143.4199524, -8.0260582 ], [ 143.45063780000001, -8.0298843 ], [ 143.4636688, -8.0747099 ], [ 143.4875946, -8.0913801 ], [ 143.530578600000013, -8.1027384 ], [ 143.5540466, -8.118721 ], [ 143.6140289, -8.176446 ], [ 143.6195526, -8.2043047 ], [ 143.6114197, -8.2364149 ], [ 143.545852700000012, -8.2425985 ], [ 143.456192, -8.2382975 ], [ 143.346221899999989, -8.2475462 ], [ 143.2919312, -8.2709761 ], [ 143.176010100000013, -8.2848263 ], [ 143.095596300000011, -8.303257 ], [ 142.9953461, -8.338891 ], [ 142.9668121, -8.3415184 ], [ 142.9187622, -8.3112946 ], [ 142.8625031, -8.327775 ], [ 142.825805699999989, -8.3015423 ], [ 142.7428284, -8.2755785 ], [ 142.663269, -8.2679234 ], [ 142.6266022, -8.2864447 ], [ 142.5960083, -8.2902031 ], [ 142.5554199, -8.3082972 ], [ 142.523635899999988, -8.3327274 ], [ 142.4467773, -8.3174047 ], [ 142.4258575, -8.2987757 ], [ 142.4148102, -8.2529535 ], [ 142.408721899999989, -8.1935406 ], [ 142.352813700000013, -8.150671 ], [ 142.298034699999988, -8.1641512 ], [ 142.25039670000001, -8.1559696 ], [ 142.1979828, -8.1906452 ], [ 142.1970215, -8.2124681 ], [ 142.2472534, -8.1899815 ], [ 142.276733400000012, -8.190403 ], [ 142.338562, -8.178586 ], [ 142.3725739, -8.1954899 ], [ 142.3719025, -8.2207546 ], [ 142.3889618, -8.2472296 ], [ 142.406555200000014, -8.328125 ], [ 142.4562683, -8.3698196 ], [ 142.4867401, -8.3748894 ], [ 142.524459799999988, -8.367857 ], [ 142.554657, -8.346426 ], [ 142.641387900000012, -8.3124714 ], [ 142.6747437, -8.3073025 ], [ 142.7219086, -8.3228788 ], [ 142.7545776, -8.3177061 ], [ 142.778183, -8.3280134 ], [ 142.8061371, -8.3552675 ], [ 142.839218100000011, -8.367075 ], [ 142.9107056, -8.4128962 ], [ 143.0006866, -8.4405718 ], [ 143.1089783, -8.4553652 ], [ 143.1916656, -8.5241833 ], [ 143.2580261, -8.5745811 ], [ 143.3271942, -8.6626043 ], [ 143.3467407, -8.6935978 ], [ 143.3947144, -8.7442083 ], [ 143.4092407, -8.7787104 ], [ 143.4080505, -8.8278961 ], [ 143.4172058, -8.9263525 ], [ 143.4248505, -8.9625587 ], [ 143.3776245, -9.0061493 ], [ 143.3388367, -9.0250359 ], [ 143.2897491, -9.0157814 ], [ 143.2195587, -9.0368853 ], [ 143.1743774, -9.0438786 ], [ 143.139358499999986, -9.070734 ], [ 143.025558499999988, -9.0973721 ], [ 142.9539948, -9.1420984 ], [ 142.934906, -9.1703558 ], [ 142.8046875, -9.2442083 ], [ 142.781311, -9.2633095 ], [ 142.7581787, -9.2633362 ], [ 142.7061768, -9.3054876 ], [ 142.6405792, -9.3337545 ], [ 142.562973, -9.3205261 ], [ 142.4974365, -9.2646341 ], [ 142.4585571, -9.2372026 ], [ 142.4190979, -9.2201128 ], [ 142.327346799999987, -9.1977596 ], [ 142.2987061, -9.1991711 ], [ 142.2742462, -9.1775589 ], [ 142.2180481, -9.1486425 ], [ 142.207016, -9.1296644 ], [ 142.179275499999989, -9.1542673 ], [ 142.124115, -9.1611757 ], [ 142.08105470000001, -9.1796932 ], [ 142.053436299999987, -9.1652126 ], [ 141.9869995, -9.1811495 ], [ 141.9562378, -9.1767969 ], [ 141.9272766, -9.1981668 ], [ 141.8524017, -9.1996565 ], [ 141.7767029, -9.1832066 ], [ 141.628768900000011, -9.2131939 ], [ 141.6027985, -9.2009554 ], [ 141.5216675, -9.1982613 ], [ 141.4725952, -9.1507626 ], [ 141.4105682, -9.1343594 ], [ 141.353073099999989, -9.1418171 ], [ 141.328796399999987, -9.1387367 ], [ 141.3109131, -9.1625071 ], [ 141.261947600000013, -9.2029676 ], [ 141.184890700000011, -9.2385597 ], [ 141.1222076, -9.2303667 ], [ 141.05761720000001, -9.1589689 ], [ 141.0194391, -9.1296155 ] ] ], [ [ [ 150.7045593, -10.5807619 ], [ 150.720123300000012, -10.582242 ], [ 150.7293396, -10.6367846 ], [ 150.6811676, -10.6019897 ], [ 150.7045593, -10.5807619 ] ] ], [ [ [ 150.7206421, -2.698066 ], [ 150.693985, -2.7308531 ], [ 150.6853638, -2.693836 ], [ 150.7206421, -2.698066 ] ] ], [ [ [ 150.6805115, -2.7371211 ], [ 150.6498566, -2.7466788 ], [ 150.624343900000014, -2.7251461 ], [ 150.6442108, -2.7119501 ], [ 150.6805115, -2.7371211 ] ] ], [ [ [ 150.5740356, -2.6892102 ], [ 150.604263300000014, -2.6881731 ], [ 150.5797272, -2.7349861 ], [ 150.5589752, -2.7016959 ], [ 150.5208893, -2.686192 ], [ 150.5235748, -2.6716831 ], [ 150.56207280000001, -2.675909 ], [ 150.5740356, -2.6892102 ] ] ], [ [ [ 150.2167816, -2.3874409 ], [ 150.2398987, -2.3866711 ], [ 150.2645111, -2.4151189 ], [ 150.3318787, -2.430989 ], [ 150.3587646, -2.456435 ], [ 150.403671300000013, -2.4659369 ], [ 150.4351044, -2.4807789 ], [ 150.4361725, -2.5203559 ], [ 150.4575806, -2.5469711 ], [ 150.439239500000014, -2.598587 ], [ 150.441757200000012, -2.6570311 ], [ 150.3923187, -2.6625061 ], [ 150.3406525, -2.6840949 ], [ 150.3291016, -2.6597419 ], [ 150.290451100000013, -2.6741469 ], [ 150.270263699999987, -2.6627111 ], [ 150.2409515, -2.6648839 ], [ 150.2224579, -2.679677 ], [ 150.2038727, -2.667773 ], [ 150.1711731, -2.684454 ], [ 150.1559906, -2.6647129 ], [ 150.1202087, -2.648263 ], [ 150.0940094, -2.6209629 ], [ 150.0729523, -2.56304 ], [ 150.0288239, -2.5150859 ], [ 149.9557495, -2.506341 ], [ 149.9384766, -2.4744091 ], [ 149.9785614, -2.4779661 ], [ 150.0472565, -2.419529 ], [ 150.0699615, -2.406553 ], [ 150.0889282, -2.4173222 ], [ 150.1898956, -2.3594589 ], [ 150.2167816, -2.3874409 ] ] ], [ [ [ 150.23284910000001, -9.1984577 ], [ 150.238998400000014, -9.2118311 ], [ 150.2780304, -9.2201862 ], [ 150.2951965, -9.2444439 ], [ 150.3143921, -9.2473526 ], [ 150.334808399999986, -9.2716331 ], [ 150.3619995, -9.3508701 ], [ 150.3613739, -9.3722305 ], [ 150.3855438, -9.3907957 ], [ 150.3472595, -9.4343815 ], [ 150.3390808, -9.4756727 ], [ 150.36409, -9.4770145 ], [ 150.340805100000011, -9.524395 ], [ 150.311142, -9.5253105 ], [ 150.279632600000014, -9.4970293 ], [ 150.2509613, -9.4901352 ], [ 150.240814199999988, -9.4555893 ], [ 150.1954193, -9.4556751 ], [ 150.1670685, -9.4384365 ], [ 150.1074371, -9.3687754 ], [ 150.0951691, -9.3121538 ], [ 150.1168671, -9.2636404 ], [ 150.156555200000014, -9.2212524 ], [ 150.209259, -9.198493 ], [ 150.23284910000001, -9.1984577 ] ] ], [ [ [ 149.8388367, -10.4786482 ], [ 149.8651276, -10.5021172 ], [ 149.824829099999988, -10.509779 ], [ 149.8388367, -10.4786482 ] ] ], [ [ [ 149.7008209, -1.4483899 ], [ 149.7179108, -1.500317 ], [ 149.7449646, -1.523008 ], [ 149.6826019, -1.5431919 ], [ 149.647766100000013, -1.52052 ], [ 149.6260529, -1.5265591 ], [ 149.577941900000013, -1.4940301 ], [ 149.538024900000011, -1.452279 ], [ 149.516296399999987, -1.450035 ], [ 149.5040894, -1.4197099 ], [ 149.526123, -1.3734301 ], [ 149.541412400000013, -1.362123 ], [ 149.54039, -1.323263 ], [ 149.575592, -1.322481 ], [ 149.6120453, -1.355038 ], [ 149.6317291, -1.358663 ], [ 149.6780243, -1.394641 ], [ 149.7008209, -1.4483899 ] ] ], [ [ [ 149.5322418, -4.6518359 ], [ 149.5466156, -4.696682 ], [ 149.5315094, -4.7149048 ], [ 149.5046082, -4.6997819 ], [ 149.5042877, -4.661149 ], [ 149.4729614, -4.6591659 ], [ 149.4623871, -4.7061038 ], [ 149.4306641, -4.6926022 ], [ 149.4434357, -4.6617279 ], [ 149.4920349, -4.6411209 ], [ 149.5322418, -4.6518359 ] ] ], [ [ [ 149.1578979, -4.8656201 ], [ 149.173584, -4.8909039 ], [ 149.1369171, -4.9215918 ], [ 149.1155243, -4.9073672 ], [ 149.1099548, -4.8834419 ], [ 149.1298981, -4.86729 ], [ 149.1578979, -4.8656201 ] ] ], [ [ [ 148.0881042, -5.4436798 ], [ 148.0510864, -5.4232302 ], [ 148.0558624, -5.3808861 ], [ 148.071472199999988, -5.369597 ], [ 148.1043396, -5.383378 ], [ 148.1117401, -5.4273229 ], [ 148.0881042, -5.4436798 ] ] ], [ [ [ 147.79216, -5.460896 ], [ 147.8112183, -5.456975 ], [ 147.850296, -5.468461 ], [ 147.89355470000001, -5.5227408 ], [ 147.9703064, -5.5323572 ], [ 148.0197449, -5.5583229 ], [ 148.047348, -5.5813122 ], [ 148.0883331, -5.6424828 ], [ 148.0684052, -5.703011 ], [ 148.0567474, -5.7642193 ], [ 148.0436707, -5.7787228 ], [ 148.034057600000011, -5.8183022 ], [ 147.9963684, -5.8286819 ], [ 147.9742584, -5.7884359 ], [ 147.9369965, -5.7693648 ], [ 147.903427099999988, -5.7677751 ], [ 147.86203, -5.74226 ], [ 147.8583069, -5.6955571 ], [ 147.8109436, -5.6663609 ], [ 147.8001404, -5.6679769 ], [ 147.7711334, -5.6146102 ], [ 147.7594147, -5.6063318 ], [ 147.7487793, -5.5223522 ], [ 147.7512817, -5.4924378 ], [ 147.7723846, -5.4581428 ], [ 147.79216, -5.460896 ] ] ], [ [ [ 147.8701782, -2.308352 ], [ 147.8569183, -2.327688 ], [ 147.814132699999988, -2.350719 ], [ 147.7836914, -2.3447511 ], [ 147.7502747, -2.353739 ], [ 147.7168274, -2.332813 ], [ 147.7355957, -2.318769 ], [ 147.7690277, -2.32796 ], [ 147.7852631, -2.3088551 ], [ 147.7877502, -2.269048 ], [ 147.818161, -2.241652 ], [ 147.8378754, -2.269484 ], [ 147.8687897, -2.290175 ], [ 147.8701782, -2.308352 ] ] ], [ [ [ 147.7919159, -2.056221 ], [ 147.742736799999989, -2.067976 ], [ 147.7411194, -2.051182 ], [ 147.78274540000001, -2.0339091 ], [ 147.7919159, -2.056221 ] ] ], [ [ [ 147.5863953, -5.279633 ], [ 147.6141968, -5.2853799 ], [ 147.625473, -5.315063 ], [ 147.6098633, -5.3353181 ], [ 147.580230699999987, -5.3424578 ], [ 147.556793199999987, -5.3293447 ], [ 147.5567627, -5.2957478 ], [ 147.5863953, -5.279633 ] ] ], [ [ [ 147.4360657, -2.0284679 ], [ 147.4177704, -2.0489449 ], [ 147.427841199999989, -2.073792 ], [ 147.3866577, -2.0827639 ], [ 147.3456879, -2.0753989 ], [ 147.351181, -2.0411201 ], [ 147.3770447, -2.0528541 ], [ 147.404266400000012, -2.031229 ], [ 147.4360657, -2.0284679 ] ] ], [ [ [ 147.3476105, -2.3694501 ], [ 147.3885803, -2.3772771 ], [ 147.3771515, -2.401897 ], [ 147.3091583, -2.4078729 ], [ 147.3476105, -2.3694501 ] ] ], [ [ [ 146.895813, -1.969406 ], [ 146.9477539, -1.967828 ], [ 147.0580444, -1.984447 ], [ 147.0774994, -1.9738729 ], [ 147.115936299999987, -1.976419 ], [ 147.12600710000001, -1.997818 ], [ 147.152771, -1.9858639 ], [ 147.1945953, -2.0027189 ], [ 147.2667389, -2.019942 ], [ 147.318450899999988, -2.0447969 ], [ 147.30336, -2.078155 ], [ 147.2655945, -2.088501 ], [ 147.2553101, -2.153841 ], [ 147.194900499999989, -2.204905 ], [ 147.1573639, -2.1973009 ], [ 147.10495, -2.174504 ], [ 147.0644379, -2.2060089 ], [ 147.0067596, -2.193557 ], [ 146.9738007, -2.2153981 ], [ 146.934433, -2.2043309 ], [ 146.8783569, -2.204066 ], [ 146.7403717, -2.1549549 ], [ 146.7133636, -2.141818 ], [ 146.711975099999989, -2.1926649 ], [ 146.651992799999988, -2.2068748 ], [ 146.6352997, -2.186152 ], [ 146.5993652, -2.183816 ], [ 146.574173, -2.2180729 ], [ 146.577362099999988, -2.2397039 ], [ 146.5521698, -2.2537141 ], [ 146.506195100000014, -2.204885 ], [ 146.507843, -2.155189 ], [ 146.5305176, -2.1349668 ], [ 146.608337400000011, -2.117563 ], [ 146.6005707, -2.0869551 ], [ 146.56604, -2.0459681 ], [ 146.5779724, -2.0064089 ], [ 146.6038208, -2.0271409 ], [ 146.6228333, -1.9832189 ], [ 146.6399994, -1.972193 ], [ 146.707489, -2.002851 ], [ 146.754623400000014, -1.9987509 ], [ 146.799942, -1.970029 ], [ 146.8422852, -1.9560261 ], [ 146.895813, -1.969406 ] ] ], [ [ [ 147.2943115, -2.571945 ], [ 147.270492600000011, -2.5790751 ], [ 147.2670593, -2.550308 ], [ 147.2988739, -2.5417991 ], [ 147.2943115, -2.571945 ] ] ], [ [ [ 147.154495200000014, -5.2466989 ], [ 147.1758575, -5.2577519 ], [ 147.1747131, -5.2839861 ], [ 147.2073364, -5.332551 ], [ 147.203674299999989, -5.3852458 ], [ 147.216766400000012, -5.4022779 ], [ 147.164611799999989, -5.412158 ], [ 147.1404877, -5.4353909 ], [ 147.1163635, -5.4374542 ], [ 147.0639801, -5.3881888 ], [ 146.998489400000011, -5.3598542 ], [ 147.0049286, -5.3200469 ], [ 146.98909, -5.2788472 ], [ 146.9996643, -5.2480149 ], [ 147.0515747, -5.2356138 ], [ 147.0961456, -5.2047949 ], [ 147.1326752, -5.241169 ], [ 147.154495200000014, -5.2466989 ] ] ], [ [ [ 146.9718933, -5.1331649 ], [ 146.9468536, -5.1343012 ], [ 146.942031899999989, -5.109674 ], [ 146.9578857, -5.0977149 ], [ 146.9718933, -5.1331649 ] ] ], [ [ [ 146.258575400000012, -4.8017368 ], [ 146.250289900000013, -4.8203688 ], [ 146.2146912, -4.8279119 ], [ 146.2004852, -4.8127012 ], [ 146.2016602, -4.7804799 ], [ 146.235885599999989, -4.7625771 ], [ 146.2546997, -4.7766442 ], [ 146.258575400000012, -4.8017368 ] ] ], [ [ [ 146.0639343, -4.5857701 ], [ 146.0606689, -4.6255851 ], [ 146.0688934, -4.6463141 ], [ 146.0552826, -4.7022219 ], [ 146.0419464, -4.7219939 ], [ 145.965454099999988, -4.7517838 ], [ 145.929626500000012, -4.7551718 ], [ 145.889267, -4.7300091 ], [ 145.8803711, -4.6853399 ], [ 145.8808899, -4.6466722 ], [ 145.8979645, -4.5882411 ], [ 145.9671478, -4.52806 ], [ 145.992858899999987, -4.5191288 ], [ 146.0417175, -4.5484452 ], [ 146.0639343, -4.5857701 ] ] ], [ [ [ 145.064727799999986, -4.04142 ], [ 145.0816193, -4.0723152 ], [ 145.076965300000012, -4.1006141 ], [ 145.0514374, -4.1237898 ], [ 145.0239105, -4.1250911 ], [ 144.994903599999986, -4.1131601 ], [ 144.9853058, -4.0701632 ], [ 144.9907074, -4.0503459 ], [ 145.0243683, -4.033937 ], [ 145.064727799999986, -4.04142 ] ] ], [ [ [ 144.408905, -7.7715793 ], [ 144.355697600000013, -7.7554669 ], [ 144.364364599999988, -7.736835 ], [ 144.408905, -7.7715793 ] ] ], [ [ [ 144.3279114, -7.710556 ], [ 144.29295350000001, -7.70999 ], [ 144.2771301, -7.6652632 ], [ 144.2964935, -7.6439319 ], [ 144.3279114, -7.710556 ] ] ], [ [ [ 144.193939199999988, -7.745924 ], [ 144.242263799999989, -7.7510409 ], [ 144.263275099999987, -7.7697992 ], [ 144.244049100000012, -7.796731 ], [ 144.210495, -7.8051119 ], [ 144.1833344, -7.7994628 ], [ 144.177887, -7.7579188 ], [ 144.193939199999988, -7.745924 ] ] ], [ [ [ 144.222702, -3.7857771 ], [ 144.2237854, -3.8109 ], [ 144.184845, -3.814034 ], [ 144.1853485, -3.781276 ], [ 144.222702, -3.7857771 ] ] ], [ [ [ 144.1289368, -3.228569 ], [ 144.0995178, -3.25283 ], [ 144.0743103, -3.2453179 ], [ 144.057037400000013, -3.2110829 ], [ 144.0853271, -3.19189 ], [ 144.1289368, -3.228569 ] ] ], [ [ [ 143.985397299999988, -7.8359241 ], [ 143.9681244, -7.8332219 ], [ 143.9005737, -7.7895718 ], [ 143.8608246, -7.7366462 ], [ 143.9423218, -7.7545409 ], [ 143.973022500000013, -7.786366 ], [ 143.9904022, -7.8228211 ], [ 143.985397299999988, -7.8359241 ] ] ], [ [ [ 143.8805237, -7.8451991 ], [ 143.8637085, -7.841116 ], [ 143.840072600000013, -7.789752 ], [ 143.859848, -7.7860203 ], [ 143.8805237, -7.8451991 ] ] ], [ [ [ 143.8195648, -8.4973412 ], [ 143.833725, -8.5184975 ], [ 143.8052826, -8.5444098 ], [ 143.7809143, -8.5181179 ], [ 143.8195648, -8.4973412 ] ] ], [ [ [ 143.7866516, -8.5010366 ], [ 143.7503815, -8.4953575 ], [ 143.7199554, -8.4636345 ], [ 143.7329254, -8.4368067 ], [ 143.7560272, -8.4403801 ], [ 143.785141, -8.4608612 ], [ 143.7866516, -8.5010366 ] ] ], [ [ [ 143.710083, -8.1789989 ], [ 143.72167970000001, -8.2158031 ], [ 143.6943054, -8.2345638 ], [ 143.6533813, -8.2399635 ], [ 143.6174469, -8.2335167 ], [ 143.6241913, -8.2087965 ], [ 143.618515, -8.1883821 ], [ 143.661438, -8.1909389 ], [ 143.710083, -8.1789989 ] ] ], [ [ [ 143.6538696, -8.0955248 ], [ 143.6986542, -8.1364517 ], [ 143.6859131, -8.1634979 ], [ 143.652694700000012, -8.1752167 ], [ 143.6290894, -8.1663628 ], [ 143.5883026, -8.1311083 ], [ 143.5954132, -8.0970278 ], [ 143.6538696, -8.0955248 ] ] ], [ [ [ 143.697464, -8.0694246 ], [ 143.695388799999989, -8.1011391 ], [ 143.6420898, -8.0768633 ], [ 143.5728455, -8.0796595 ], [ 143.544769300000013, -8.0295343 ], [ 143.5958405, -8.0120735 ], [ 143.6566772, -8.0334959 ], [ 143.697464, -8.0694246 ] ] ], [ [ [ 143.5783386, -8.3315897 ], [ 143.626159699999988, -8.3351889 ], [ 143.6673126, -8.3612547 ], [ 143.688873300000012, -8.418828 ], [ 143.649826100000013, -8.4276466 ], [ 143.5709229, -8.3566227 ], [ 143.5783386, -8.3315897 ] ] ], [ [ [ 143.6477203, -8.5399981 ], [ 143.618866, -8.5371847 ], [ 143.60353090000001, -8.5123587 ], [ 143.6280975, -8.4729691 ], [ 143.670013399999988, -8.4863939 ], [ 143.680847199999988, -8.5186291 ], [ 143.6477203, -8.5399981 ] ] ], [ [ [ 143.6234131, -8.7187891 ], [ 143.589325, -8.6680756 ], [ 143.5004425, -8.6295433 ], [ 143.46530150000001, -8.606122 ], [ 143.4194336, -8.5913382 ], [ 143.394989, -8.5742006 ], [ 143.35305790000001, -8.5232916 ], [ 143.3007202, -8.5062771 ], [ 143.2270813, -8.4626446 ], [ 143.1879272, -8.4284477 ], [ 143.2227325, -8.4094133 ], [ 143.2720184, -8.4616213 ], [ 143.302581800000013, -8.4711103 ], [ 143.3882599, -8.4835558 ], [ 143.440216099999986, -8.5067606 ], [ 143.4876251, -8.5350714 ], [ 143.5527802, -8.5946045 ], [ 143.64643860000001, -8.6606216 ], [ 143.6461639, -8.6904917 ], [ 143.6234131, -8.7187891 ] ] ], [ [ [ 143.5483093, -3.3821819 ], [ 143.57852170000001, -3.3860149 ], [ 143.629425, -3.41994 ], [ 143.566803, -3.4461138 ], [ 143.5483093, -3.3821819 ] ] ], [ [ [ 143.379394499999989, -8.3706684 ], [ 143.451873799999987, -8.3623648 ], [ 143.475433399999986, -8.3659554 ], [ 143.5590057, -8.36092 ], [ 143.614578200000011, -8.4125195 ], [ 143.6089935, -8.4587641 ], [ 143.59365840000001, -8.4824047 ], [ 143.5644226, -8.4855633 ], [ 143.549453699999987, -8.5039139 ], [ 143.528183, -8.482152 ], [ 143.4432678, -8.4417171 ], [ 143.3751526, -8.4155092 ], [ 143.3231049, -8.3828802 ], [ 143.3359375, -8.3514757 ], [ 143.379394499999989, -8.3706684 ] ] ], [ [ [ 143.579971300000011, -3.33584 ], [ 143.6114197, -3.3684359 ], [ 143.568206800000013, -3.3777571 ], [ 143.5068054, -3.3526001 ], [ 143.533905, -3.310184 ], [ 143.579971300000011, -3.33584 ] ] ], [ [ [ 143.466507, -8.0117645 ], [ 143.5301361, -8.0368509 ], [ 143.5680084, -8.113019 ], [ 143.529739400000011, -8.0924177 ], [ 143.4770508, -8.0772867 ], [ 143.4491425, -8.0220995 ], [ 143.4257202, -8.0201616 ], [ 143.3955078, -7.9934421 ], [ 143.4038696, -7.972681 ], [ 143.380233800000013, -7.9439592 ], [ 143.3884277, -7.9282589 ], [ 143.4287109, -7.9339008 ], [ 143.4371338, -7.98278 ], [ 143.466507, -8.0117645 ] ] ], [ [ [ 143.3935242, -8.3066387 ], [ 143.4924164, -8.3106089 ], [ 143.494308499999988, -8.3312521 ], [ 143.4272614, -8.3309975 ], [ 143.3935242, -8.3066387 ] ] ], [ [ [ 143.4531555, -8.7838745 ], [ 143.429748499999988, -8.7065287 ], [ 143.453064, -8.7085171 ], [ 143.4644623, -8.7494898 ], [ 143.4531555, -8.7838745 ] ] ], [ [ [ 143.441879300000011, -9.019454 ], [ 143.3824921, -9.0228453 ], [ 143.384933499999988, -9.0061474 ], [ 143.438888600000013, -8.9683218 ], [ 143.454971300000011, -8.9839039 ], [ 143.441879300000011, -9.019454 ] ] ], [ [ [ 143.3232269, -8.5875654 ], [ 143.3095703, -8.5842638 ], [ 143.2797546, -8.5437546 ], [ 143.3276367, -8.5543995 ], [ 143.3232269, -8.5875654 ] ] ], [ [ [ 143.296707199999986, -8.4452295 ], [ 143.274093599999986, -8.443449 ], [ 143.2480927, -8.4100142 ], [ 143.2780304, -8.4087181 ], [ 143.296707199999986, -8.4452295 ] ] ], [ [ [ 143.2338867, -8.3621922 ], [ 143.2140961, -8.3638163 ], [ 143.141098, -8.3490973 ], [ 143.1565704, -8.3332911 ], [ 143.2896423, -8.3261204 ], [ 143.293579099999988, -8.3455925 ], [ 143.2702789, -8.3612747 ], [ 143.2338867, -8.3621922 ] ] ], [ [ [ 143.2668457, -9.1367264 ], [ 143.2529602, -9.1469698 ], [ 143.2115021, -9.1388569 ], [ 143.2038422, -9.1229115 ], [ 143.251388600000013, -9.0942364 ], [ 143.2722168, -9.0959702 ], [ 143.2668457, -9.1367264 ] ] ], [ [ [ 143.2133789, -9.1035976 ], [ 143.1866455, -9.0828648 ], [ 143.214111300000013, -9.0670357 ], [ 143.2358246, -9.0857801 ], [ 143.2133789, -9.1035976 ] ] ], [ [ [ 143.087783800000011, -9.1989088 ], [ 143.0375824, -9.2139845 ], [ 143.0088959, -9.1934052 ], [ 143.065918, -9.1876774 ], [ 143.087783800000011, -9.1989088 ] ] ], [ [ [ 143.079071, -8.3838358 ], [ 143.070343, -8.4055281 ], [ 143.015335099999987, -8.4123793 ], [ 143.0162354, -8.3907785 ], [ 143.079071, -8.3838358 ] ] ] ] } }
]
}
