{
"type": "FeatureCollection",
"name": "POL_GAUL2003_ADM0",
"crs": { "type": "name", "properties": { "name": "urn:ogc:def:crs:OGC:1.3:CRS84" } },
"features": [
{ "type": "Feature", "properties": { "POLYGON_ID": "POL_GAUL2003_ADM0_198", "ADM0_ISO3": "POL", "ADM0_NAME": "Poland", "ADM0_CODE": 198, "GEOSET": "GAUL", "GEOSET_YEAR": 2003.0, "GEOSET_VERSION": "GAUL_v1", "GEOSET_UNIT": "ADM0", "CENTROID_LONG": 19.401003103139647, "CENTROID_LAT": 52.1239525663973 }, "geometry": { "type": "MultiPolygon", "coordinates": [ [ [ [ 19.638155, 54.4602509 ], [ 19.6621646, 54.4548339 ], [ 19.6096096, 54.4238396 ], [ 19.5190773, 54.3936005 ], [ 19.4168167, 54.3709946 ], [ 19.3805428, 54.3559303 ], [ 19.2775364, 54.3504982 ], [ 19.2318039, 54.3393898 ], [ 19.291912, 54.2847023 ], [ 19.3930435, 54.2664604 ], [ 19.4596977, 54.2955818 ], [ 19.5072556, 54.326107 ], [ 19.5645866, 54.3432465 ], [ 19.6592007, 54.3532181 ], [ 19.7141266, 54.3874855 ], [ 19.7564869, 54.4353104 ], [ 19.7860567, 54.4367217 ], [ 19.89367, 54.42816 ], [ 20.21949, 54.40796 ], [ 20.5405, 54.3718 ], [ 20.72408, 54.35904 ], [ 21.04787, 54.34595 ], [ 21.20535, 54.3352 ], [ 21.47147, 54.3207 ], [ 21.70965, 54.32891 ], [ 22.10413, 54.33593 ], [ 22.28497, 54.34501 ], [ 22.57127, 54.35108 ], [ 22.74909, 54.3594 ], [ 22.78779, 54.36525 ], [ 22.81734, 54.38374 ], [ 22.79814, 54.40238 ], [ 22.85455, 54.42547 ], [ 22.90787, 54.39766 ], [ 22.99574, 54.38583 ], [ 23.01065, 54.3523 ], [ 23.0603283, 54.3430108 ], [ 23.04899, 54.31236 ], [ 23.09972, 54.29744 ], [ 23.14784, 54.3111 ], [ 23.21277, 54.28212 ], [ 23.25643, 54.24787 ], [ 23.35607, 54.23039 ], [ 23.38738, 54.21452 ], [ 23.44355, 54.16484 ], [ 23.48867, 54.15182 ], [ 23.51198, 54.09148 ], [ 23.51642, 54.03772 ], [ 23.49112, 53.9886 ], [ 23.50595, 53.96659 ], [ 23.52728, 53.9337 ], [ 23.55925, 53.84571 ], [ 23.56593, 53.77592 ], [ 23.61095, 53.74245 ], [ 23.60757, 53.65334 ], [ 23.61397, 53.60091 ], [ 23.63823, 53.58355 ], [ 23.6618, 53.50796 ], [ 23.68826, 53.47456 ], [ 23.77864, 53.3063 ], [ 23.81979, 53.24879 ], [ 23.86333, 53.23128 ], [ 23.87795, 53.18708 ], [ 23.92022, 53.15824 ], [ 23.8765, 53.08388 ], [ 23.93862, 53.01877 ], [ 23.95613, 52.9478 ], [ 23.93271, 52.89181 ], [ 23.92461, 52.71789 ], [ 23.9153985, 52.6673297 ], [ 23.78371, 52.64076 ], [ 23.64467, 52.62174 ], [ 23.52313, 52.59767 ], [ 23.4545, 52.5737 ], [ 23.4074, 52.54839 ], [ 23.29069, 52.44682 ], [ 23.24315, 52.36058 ], [ 23.17687, 52.28258 ], [ 23.20851, 52.27478 ], [ 23.19957, 52.2376 ], [ 23.2138394, 52.2215003 ], [ 23.30584, 52.20647 ], [ 23.3533492, 52.2115298 ], [ 23.40103, 52.1811 ], [ 23.4534, 52.18411 ], [ 23.519809, 52.1432634 ], [ 23.65414, 52.07934 ], [ 23.66576, 52.01693 ], [ 23.69612, 51.99907 ], [ 23.64374, 51.95153 ], [ 23.64187, 51.8974911 ], [ 23.61243, 51.87369 ], [ 23.64338, 51.80411 ], [ 23.62106, 51.77807 ], [ 23.53738, 51.74511 ], [ 23.55677, 51.7178 ], [ 23.5597, 51.66816 ], [ 23.54026, 51.64945 ], [ 23.54564, 51.606 ], [ 23.57933, 51.55912 ], [ 23.5728, 51.5387 ], [ 23.61586, 51.5308 ], [ 23.63085, 51.49686 ], [ 23.67928, 51.47406 ], [ 23.7062, 51.40444 ], [ 23.68298, 51.39231 ], [ 23.64095, 51.322 ], [ 23.65505, 51.29144 ], [ 23.72, 51.26971 ], [ 23.74613, 51.21403 ], [ 23.78751, 51.19943 ], [ 23.87651, 51.13679 ], [ 23.86466, 51.10308 ], [ 23.91919, 51.07225 ], [ 23.93563, 51.03777 ], [ 23.92731, 51.0098 ], [ 23.96819, 50.98666 ], [ 23.9765498, 50.9558016 ], [ 24.0633489, 50.8950804 ], [ 24.08723, 50.89312 ], [ 24.1486075, 50.8603786 ], [ 24.10545, 50.84031 ], [ 23.9931196, 50.8432694 ], [ 23.96477, 50.80078 ], [ 23.9835, 50.77364 ], [ 24.02614, 50.76537 ], [ 24.02011, 50.72598 ], [ 24.0713, 50.72207 ], [ 24.05537, 50.69614 ], [ 24.1088598, 50.6359292 ], [ 24.07629, 50.52959 ], [ 24.07194, 50.49552 ], [ 24.04214, 50.44585 ], [ 23.93705, 50.41228 ], [ 23.82122, 50.42037 ], [ 23.76617, 50.41068 ], [ 23.72086, 50.38668 ], [ 23.69035, 50.33762 ], [ 23.62727, 50.30962 ], [ 23.6018374, 50.2751089 ], [ 23.45537, 50.20406 ], [ 23.40044, 50.15585 ], [ 23.29228, 50.09554 ], [ 23.27671, 50.07203 ], [ 23.22425, 50.04548 ], [ 23.1807, 50.00176 ], [ 23.0227574, 49.8668982 ], [ 22.97014, 49.83081 ], [ 22.91608, 49.78309 ], [ 22.8968987, 49.7507494 ], [ 22.84993, 49.71693 ], [ 22.80335, 49.6954 ], [ 22.7626696, 49.6356597 ], [ 22.68042, 49.56676 ], [ 22.6711, 49.5238 ], [ 22.70014, 49.48845 ], [ 22.69707, 49.45147 ], [ 22.72914, 49.40545 ], [ 22.74294, 49.31878 ], [ 22.75892, 49.2858 ], [ 22.7338199, 49.2318384 ], [ 22.7344, 49.19981 ], [ 22.75764, 49.18463 ], [ 22.74745, 49.15907 ], [ 22.79666, 49.15688 ], [ 22.83618, 49.11425 ], [ 22.89602, 49.09502 ], [ 22.8732798, 49.0786668 ], [ 22.88797, 49.00637 ], [ 22.82752, 49.02757 ], [ 22.78403, 49.05384 ], [ 22.69677, 49.04197 ], [ 22.65871, 49.05172 ], [ 22.63712, 49.07785 ], [ 22.59073, 49.09602 ], [ 22.57044, 49.08673 ], [ 22.49414, 49.09093 ], [ 22.4159494, 49.1058806 ], [ 22.3765986, 49.14661 ], [ 22.32118, 49.13544 ], [ 22.23615, 49.15149 ], [ 22.1991, 49.17415 ], [ 22.04516, 49.22177 ], [ 22.03226, 49.28574 ], [ 22.00083, 49.30492 ], [ 21.96171, 49.34987 ], [ 21.90587, 49.35513 ], [ 21.84173, 49.39264 ], [ 21.7734, 49.36191 ], [ 21.76724, 49.38195 ], [ 21.72792, 49.41307 ], [ 21.66983, 49.4174 ], [ 21.63843, 49.4459 ], [ 21.5928, 49.43474 ], [ 21.56539, 49.4431 ], [ 21.51531, 49.42015 ], [ 21.4437593, 49.4137003 ], [ 21.40634, 49.43393 ], [ 21.282, 49.4564 ], [ 21.22597, 49.42726 ], [ 21.19639, 49.40067 ], [ 21.132, 49.43417 ], [ 21.06645, 49.42339 ], [ 21.05546, 49.41132 ], [ 21.10331, 49.37716 ], [ 21.05132, 49.36477 ], [ 20.97717, 49.30937 ], [ 20.9375698, 49.2960215 ], [ 20.8964691, 49.3499696 ], [ 20.82684, 49.3301 ], [ 20.79896, 49.35963 ], [ 20.76377, 49.366 ], [ 20.72704, 49.42179 ], [ 20.65782, 49.40207 ], [ 20.63722, 49.40762 ], [ 20.57503, 49.37786 ], [ 20.51787, 49.39251 ], [ 20.48236, 49.41182 ], [ 20.44034, 49.41482 ], [ 20.41688, 49.39195 ], [ 20.33884, 49.40404 ], [ 20.31461, 49.34555 ], [ 20.21863, 49.35013 ], [ 20.1932, 49.34013 ], [ 20.15868, 49.30428 ], [ 20.14045, 49.30842 ], [ 20.10505, 49.25292 ], [ 20.10737, 49.22477 ], [ 20.08117, 49.17627 ], [ 20.01737, 49.20046 ], [ 19.98742, 49.22788 ], [ 19.93043, 49.23209 ], [ 19.89189, 49.2039 ], [ 19.8438, 49.19041 ], [ 19.76502, 49.2093 ], [ 19.79192, 49.25865 ], [ 19.82301, 49.27559 ], [ 19.79776, 49.29959 ], [ 19.80859, 49.31904 ], [ 19.79356, 49.40164 ], [ 19.74867, 49.40498 ], [ 19.73076, 49.38876 ], [ 19.63433, 49.40369 ], [ 19.64915, 49.42629 ], [ 19.61221, 49.44489 ], [ 19.56205, 49.4914 ], [ 19.528, 49.57074 ], [ 19.45284, 49.60236 ], [ 19.38198, 49.57358 ], [ 19.37217, 49.54361 ], [ 19.33112, 49.53395 ], [ 19.27064, 49.53582 ], [ 19.23883, 49.51215 ], [ 19.22599, 49.45294 ], [ 19.19138, 49.4378 ], [ 19.1999, 49.4169 ], [ 19.12837, 49.40351 ], [ 19.09357, 49.41736 ], [ 19.02999, 49.3953 ], [ 18.98109, 49.39882 ], [ 18.99008, 49.42878 ], [ 18.97316, 49.45315 ], [ 18.96822, 49.50985 ], [ 18.94272, 49.52024 ], [ 18.8864, 49.51636 ], [ 18.847068, 49.5258593 ], [ 18.8601, 49.54702 ], [ 18.83849, 49.57217 ], [ 18.80825, 49.67703 ], [ 18.74131, 49.67931 ], [ 18.71258, 49.70254 ], [ 18.63246, 49.71726 ], [ 18.61519, 49.77557 ], [ 18.57419, 49.83433 ], [ 18.6026475, 49.8598377 ], [ 18.56843, 49.8737 ], [ 18.5816892, 49.9096814 ], [ 18.49824, 49.90252 ], [ 18.41595, 49.93317 ], [ 18.36398, 49.93678 ], [ 18.31844, 49.91717 ], [ 18.28199, 49.93362 ], [ 18.2750896, 49.9622301 ], [ 18.21883, 49.96859 ], [ 18.20941, 49.99848 ], [ 18.16124, 49.98282 ], [ 18.10342, 50.00502 ], [ 18.10341, 50.02538 ], [ 18.04433, 50.06128 ], [ 18.05042, 50.01152 ], [ 18.002, 50.01759 ], [ 17.92695, 49.98103 ], [ 17.87964, 49.97403 ], [ 17.83394, 49.9845 ], [ 17.78249, 50.01773 ], [ 17.73466, 50.10041 ], [ 17.6939064, 50.1134597 ], [ 17.65965, 50.10878 ], [ 17.5942482, 50.152023 ], [ 17.59306, 50.16504 ], [ 17.7044, 50.18263 ], [ 17.7133097, 50.2029196 ], [ 17.7561, 50.20456 ], [ 17.7593, 50.23171 ], [ 17.72799, 50.26147 ], [ 17.752719, 50.2952713 ], [ 17.68593, 50.32612 ], [ 17.68713, 50.3 ], [ 17.6529492, 50.2749599 ], [ 17.458, 50.26641 ], [ 17.40338, 50.28562 ], [ 17.36059, 50.27731 ], [ 17.32674, 50.31917 ], [ 17.27409, 50.321 ], [ 17.1841, 50.3702 ], [ 17.1075, 50.38979 ], [ 17.09889, 50.40514 ], [ 17.04079, 50.40499 ], [ 17.01993, 50.41866 ], [ 16.96029, 50.42636 ], [ 16.912159, 50.4451599 ], [ 16.88265, 50.43845 ], [ 16.85988, 50.40894 ], [ 16.90673, 50.38497 ], [ 16.94219, 50.31345 ], [ 16.99845, 50.29895 ], [ 17.01144, 50.2191 ], [ 16.95751, 50.22796 ], [ 16.84314, 50.20865 ], [ 16.80527, 50.18739 ], [ 16.78728, 50.15751 ], [ 16.74098, 50.13336 ], [ 16.7126, 50.09897 ], [ 16.6358795, 50.1087303 ], [ 16.58468, 50.13805 ], [ 16.56434, 50.16212 ], [ 16.55535, 50.22479 ], [ 16.52092, 50.24146 ], [ 16.43252, 50.32243 ], [ 16.38797, 50.32365 ], [ 16.36266, 50.34705 ], [ 16.35646, 50.37716 ], [ 16.30633, 50.38241 ], [ 16.27941, 50.36919 ], [ 16.24101, 50.41116 ], [ 16.21394, 50.40957 ], [ 16.20232, 50.44871 ], [ 16.2682, 50.48351 ], [ 16.3498792, 50.4977001 ], [ 16.39238, 50.5246 ], [ 16.4028, 50.56851 ], [ 16.44623, 50.58015 ], [ 16.3498996, 50.6581801 ], [ 16.28494, 50.66148 ], [ 16.23667, 50.67272 ], [ 16.22074, 50.63926 ], [ 16.18791, 50.62625 ], [ 16.1524, 50.65314 ], [ 16.09765, 50.66231 ], [ 16.05821, 50.61584 ], [ 16.02917, 50.60676 ], [ 15.98792, 50.61539 ], [ 16.00131, 50.65106 ], [ 15.98576, 50.68839 ], [ 15.95782, 50.69362 ], [ 15.8607, 50.67486 ], [ 15.8490389, 50.7114904 ], [ 15.81521, 50.75356 ], [ 15.78113, 50.74426 ], [ 15.69908, 50.73983 ], [ 15.6843393, 50.753647 ], [ 15.60567, 50.77838 ], [ 15.52326, 50.77984 ], [ 15.42147, 50.80756 ], [ 15.37282, 50.78588 ], [ 15.37095, 50.8247 ], [ 15.35379, 50.85153 ], [ 15.30955, 50.86564 ], [ 15.26722, 50.92194 ], [ 15.2942395, 50.9560803 ], [ 15.23785, 50.99982 ], [ 15.17456, 50.98625 ], [ 15.17237, 51.02025 ], [ 15.10236, 50.99769 ], [ 15.09972, 51.01537 ], [ 14.98701, 51.01237 ], [ 15.00857, 50.9883 ], [ 15.0170276, 50.9464079 ], [ 14.98328, 50.9259 ], [ 15.00282, 50.90909 ], [ 14.995, 50.87122 ], [ 14.953, 50.86569 ], [ 14.86938, 50.87941 ], [ 14.82523, 50.87399 ], [ 14.818, 50.88462 ], [ 14.89293, 50.9454 ], [ 14.94718, 51.03015 ], [ 14.9487, 51.0634 ], [ 14.97269, 51.07735 ], [ 14.99104, 51.12092 ], [ 15.00117, 51.18785 ], [ 15.01632, 51.22751 ], [ 15.0398786, 51.244279 ], [ 15.02816, 51.2934 ], [ 14.96228, 51.35948 ], [ 14.9621, 51.45291 ], [ 14.9392, 51.47292 ], [ 14.84091, 51.49124 ], [ 14.79203, 51.51875 ], [ 14.73579, 51.52558 ], [ 14.71043, 51.5618 ], [ 14.76159, 51.60364 ], [ 14.75348, 51.66054 ], [ 14.65788, 51.73323 ], [ 14.65066, 51.78546 ], [ 14.59914, 51.8066 ], [ 14.58771, 51.83702 ], [ 14.65124, 51.8827 ], [ 14.68969, 51.90106 ], [ 14.7192, 51.95289 ], [ 14.70118, 51.96882 ], [ 14.71311, 52.00712 ], [ 14.74623, 52.03456 ], [ 14.75716, 52.06901 ], [ 14.7338, 52.0929 ], [ 14.69016, 52.10548 ], [ 14.68001, 52.14755 ], [ 14.69998, 52.16347 ], [ 14.68529, 52.1925 ], [ 14.70825, 52.21466 ], [ 14.69086, 52.25813 ], [ 14.59865, 52.27434 ], [ 14.54973, 52.35159 ], [ 14.5338899, 52.3912329 ], [ 14.54657, 52.42972 ], [ 14.6089, 52.46612 ], [ 14.6285794, 52.5011608 ], [ 14.60281, 52.53228 ], [ 14.638219, 52.5773285 ], [ 14.59858, 52.60912 ], [ 14.46244, 52.66366 ], [ 14.35097, 52.75392 ], [ 14.27829, 52.77594 ], [ 14.21384, 52.81807 ], [ 14.13801, 52.82663 ], [ 14.12299, 52.8411 ], [ 14.15946, 52.87586 ], [ 14.14345, 52.95748 ], [ 14.17789, 52.9772 ], [ 14.24681, 52.99824 ], [ 14.34235, 53.05206 ], [ 14.36543, 53.08003 ], [ 14.38631, 53.14582 ], [ 14.36691, 53.17277 ], [ 14.3784, 53.20169 ], [ 14.45072, 53.26357 ], [ 14.41511, 53.28327 ], [ 14.41283, 53.32692 ], [ 14.36812, 53.42543 ], [ 14.34663, 53.4966 ], [ 14.32813, 53.50303 ], [ 14.30422, 53.55182 ], [ 14.31558, 53.60419 ], [ 14.28449, 53.63411 ], [ 14.2686586, 53.6965179 ], [ 14.2973309, 53.6958389 ], [ 14.3042765, 53.739975 ], [ 14.3919582, 53.682373 ], [ 14.4730597, 53.671299 ], [ 14.5405998, 53.6451759 ], [ 14.5556803, 53.6196175 ], [ 14.5896215, 53.6195107 ], [ 14.6179256, 53.6477966 ], [ 14.54527, 53.6710739 ], [ 14.5435047, 53.7084198 ], [ 14.5569372, 53.7549019 ], [ 14.6142521, 53.7698479 ], [ 14.6046429, 53.8212509 ], [ 14.6173506, 53.8343086 ], [ 14.6370926, 53.8798409 ], [ 14.6949444, 53.923912 ], [ 14.7576208, 53.9327126 ], [ 14.7608719, 53.9917984 ], [ 14.796936, 54.0117416 ], [ 14.8015471, 54.0321236 ], [ 15.0640526, 54.0969887 ], [ 15.3043518, 54.1500053 ], [ 15.4221697, 54.1657028 ], [ 15.4853125, 54.1663132 ], [ 15.580452, 54.1871529 ], [ 15.7088842, 54.2073593 ], [ 15.8545895, 54.2434349 ], [ 16.0, 54.2522621 ], [ 16.1563149, 54.2865105 ], [ 16.2314224, 54.3221779 ], [ 16.3281746, 54.3442764 ], [ 16.3156109, 54.3724327 ], [ 16.361412, 54.4265289 ], [ 16.4610329, 54.5071068 ], [ 16.5604706, 54.5468674 ], [ 16.663065, 54.5664978 ], [ 16.7538815, 54.5669174 ], [ 16.8784809, 54.5900307 ], [ 16.9884949, 54.6289063 ], [ 17.0488625, 54.6674652 ], [ 17.1197014, 54.6877708 ], [ 17.1860752, 54.7158089 ], [ 17.278883, 54.7405167 ], [ 17.3633404, 54.7520409 ], [ 17.4750786, 54.7572441 ], [ 17.6169796, 54.7743416 ], [ 17.8873959, 54.8220139 ], [ 17.9808788, 54.8333511 ], [ 18.3135605, 54.8383484 ], [ 18.3827534, 54.8078156 ], [ 18.4192581, 54.8022614 ], [ 18.5049725, 54.7688026 ], [ 18.6285686, 54.7295189 ], [ 18.7314796, 54.6836624 ], [ 18.8259697, 54.6167107 ], [ 18.8081398, 54.5941162 ], [ 18.703989, 54.6823845 ], [ 18.6303272, 54.714241 ], [ 18.436533, 54.7762718 ], [ 18.3945541, 54.743721 ], [ 18.4039669, 54.7281303 ], [ 18.4700699, 54.6925926 ], [ 18.4679184, 54.6555634 ], [ 18.518795, 54.639679 ], [ 18.5206184, 54.6021538 ], [ 18.5584183, 54.5528297 ], [ 18.5521374, 54.5332642 ], [ 18.5740185, 54.4428024 ], [ 18.6461029, 54.4079361 ], [ 18.6708813, 54.4104843 ], [ 18.7240677, 54.3778915 ], [ 18.868988, 54.3476677 ], [ 18.9385033, 54.3556366 ], [ 19.0125561, 54.3440514 ], [ 19.2291412, 54.354641 ], [ 19.3861313, 54.3786621 ], [ 19.5149899, 54.4095993 ], [ 19.638155, 54.4602509 ] ] ], [ [ [ 14.2128792, 53.8647842 ], [ 14.19649, 53.91019 ], [ 14.2243643, 53.9265369 ], [ 14.3435965, 53.9084587 ], [ 14.3988972, 53.9158211 ], [ 14.4612579, 53.9385719 ], [ 14.5037127, 53.9648514 ], [ 14.6842642, 54.0091743 ], [ 14.6990366, 53.9712219 ], [ 14.692296, 53.9390221 ], [ 14.6361284, 53.8957596 ], [ 14.6147957, 53.861969 ], [ 14.6131496, 53.8317375 ], [ 14.5324116, 53.8571129 ], [ 14.3867159, 53.8669586 ], [ 14.3598604, 53.8555336 ], [ 14.3400278, 53.8112755 ], [ 14.2751455, 53.8258438 ], [ 14.2128792, 53.8647842 ] ] ] ] } }
]
}
