{
"type": "FeatureCollection",
"name": "POL_GAUL2011_ADM1",
"crs": { "type": "name", "properties": { "name": "urn:ogc:def:crs:OGC:1.3:CRS84" } },
"features": [
{ "type": "Feature", "properties": { "POLYGON_ID": "POL_GAUL2011_ADM1_2370", "ADM0_ISO3": "POL", "ADM0_NAME": "Poland", "ADM0_CODE": 198, "ADM1_NAME": "Dolnoslaskie", "ADM1_CODE": 2370, "GEOSET": "GAUL", "GEOSET_YEAR": 2011.0, "GEOSET_VERSION": "GAUL_v1", "GEOSET_UNIT": "ADM1", "CENTROID_LONG": 16.412550094814289, "CENTROID_LAT": 51.088672598494824 }, "geometry": { "type": "MultiPolygon", "coordinates": [ [ [ [ 16.4207001, 51.7831001 ], [ 16.5524998, 51.7812004 ], [ 16.6310005, 51.7456017 ], [ 16.6622009, 51.7084999 ], [ 16.6375008, 51.6776009 ], [ 16.6713009, 51.649601 ], [ 16.7693996, 51.6441994 ], [ 16.8332996, 51.5820999 ], [ 16.8896999, 51.5796013 ], [ 16.9279995, 51.5513 ], [ 16.9787998, 51.5443001 ], [ 17.2136993, 51.5723 ], [ 17.2073994, 51.6096992 ], [ 17.2446995, 51.6389008 ], [ 17.3288002, 51.6459999 ], [ 17.4689007, 51.6245995 ], [ 17.5566998, 51.5821991 ], [ 17.5799007, 51.5362015 ], [ 17.5146008, 51.5008011 ], [ 17.5482006, 51.402401 ], [ 17.6523991, 51.4165993 ], [ 17.75, 51.3914986 ], [ 17.7175007, 51.3652992 ], [ 17.7630997, 51.3012009 ], [ 17.7474995, 51.2448998 ], [ 17.8006992, 51.1907005 ], [ 17.6697006, 51.1596985 ], [ 17.6061001, 51.1875992 ], [ 17.5463009, 51.1422005 ], [ 17.5757999, 51.1287003 ], [ 17.5813007, 51.0808983 ], [ 17.5200996, 51.0588989 ], [ 17.5011005, 50.9734993 ], [ 17.4307003, 50.9658012 ], [ 17.4270992, 50.9085007 ], [ 17.3841991, 50.8600998 ], [ 17.3285007, 50.8483009 ], [ 17.3474998, 50.7835999 ], [ 17.2241001, 50.7136993 ], [ 17.2359009, 50.6114998 ], [ 17.1205997, 50.6064987 ], [ 17.0638008, 50.542099 ], [ 17.0734997, 50.5161018 ], [ 17.0387993, 50.4640999 ], [ 16.9647999, 50.4875984 ], [ 16.9073462, 50.4447771 ], [ 16.85988, 50.40894 ], [ 16.90673, 50.38497 ], [ 16.94219, 50.31345 ], [ 16.99845, 50.29895 ], [ 17.01144, 50.2191 ], [ 16.95751, 50.22796 ], [ 16.88885, 50.21886 ], [ 16.8665657, 50.1967513 ], [ 16.80527, 50.18739 ], [ 16.78728, 50.15751 ], [ 16.7126, 50.09897 ], [ 16.6358795, 50.1087303 ], [ 16.56434, 50.16212 ], [ 16.55535, 50.22479 ], [ 16.52092, 50.24146 ], [ 16.43252, 50.32243 ], [ 16.38797, 50.32365 ], [ 16.35646, 50.37716 ], [ 16.27941, 50.36919 ], [ 16.20232, 50.44871 ], [ 16.2682, 50.48351 ], [ 16.3498792, 50.4977001 ], [ 16.39238, 50.5246 ], [ 16.4028, 50.56851 ], [ 16.44623, 50.58015 ], [ 16.3498996, 50.6581801 ], [ 16.23667, 50.67272 ], [ 16.18791, 50.62625 ], [ 16.1524, 50.65314 ], [ 16.09765, 50.66231 ], [ 16.05821, 50.61584 ], [ 15.98792, 50.61539 ], [ 16.00131, 50.65106 ], [ 15.95782, 50.69362 ], [ 15.8607, 50.67486 ], [ 15.81521, 50.75356 ], [ 15.69908, 50.73983 ], [ 15.60567, 50.77838 ], [ 15.52326, 50.77984 ], [ 15.42147, 50.80756 ], [ 15.3940001, 50.777471 ], [ 15.37282, 50.78588 ], [ 15.35379, 50.85153 ], [ 15.30955, 50.86564 ], [ 15.26722, 50.92194 ], [ 15.2942395, 50.9560803 ], [ 15.23785, 50.99982 ], [ 15.17237, 51.02025 ], [ 14.98701, 51.01237 ], [ 15.0170276, 50.9464079 ], [ 14.995, 50.87122 ], [ 14.82523, 50.87399 ], [ 14.89293, 50.9454 ], [ 14.94718, 51.03015 ], [ 14.99104, 51.12092 ], [ 15.01632, 51.22751 ], [ 15.0398786, 51.244279 ], [ 15.02816, 51.2934 ], [ 14.97806, 51.33697 ], [ 14.9723971, 51.3647589 ], [ 15.0179005, 51.3930016 ], [ 15.0757999, 51.3959007 ], [ 15.0951996, 51.4250984 ], [ 15.1865997, 51.4628983 ], [ 15.3155003, 51.4157982 ], [ 15.3441, 51.4688988 ], [ 15.4060001, 51.5189018 ], [ 15.4914999, 51.5248985 ], [ 15.5949001, 51.4673996 ], [ 15.6654997, 51.4813004 ], [ 15.7131996, 51.516201 ], [ 15.7145004, 51.547699 ], [ 15.8225002, 51.5719986 ], [ 15.8297997, 51.6362 ], [ 15.8563004, 51.6575012 ], [ 15.8708, 51.7202988 ], [ 15.9738998, 51.7458 ], [ 15.9650002, 51.7919998 ], [ 16.1613998, 51.7587013 ], [ 16.1637993, 51.7084999 ], [ 16.2837009, 51.6790009 ], [ 16.3687, 51.716301 ], [ 16.3787994, 51.7563019 ], [ 16.4207001, 51.7831001 ] ] ] ] } },
{ "type": "Feature", "properties": { "POLYGON_ID": "POL_GAUL2011_ADM1_2371", "ADM0_ISO3": "POL", "ADM0_NAME": "Poland", "ADM0_CODE": 198, "ADM1_NAME": "Kujawsko-Pomorskie", "ADM1_CODE": 2371, "GEOSET": "GAUL", "GEOSET_YEAR": 2011.0, "GEOSET_VERSION": "GAUL_v1", "GEOSET_UNIT": "ADM1", "CENTROID_LONG": 18.491153413805279, "CENTROID_LAT": 53.074135690091637 }, "geometry": { "type": "MultiPolygon", "coordinates": [ [ [ [ 19.1438007, 53.5833015 ], [ 19.1998005, 53.5676994 ], [ 19.2677002, 53.4319992 ], [ 19.3176994, 53.4124985 ], [ 19.3880997, 53.4163017 ], [ 19.4269009, 53.3877983 ], [ 19.5128002, 53.3740997 ], [ 19.5361996, 53.3377991 ], [ 19.6375999, 53.3507996 ], [ 19.6893997, 53.3429985 ], [ 19.7241001, 53.2826996 ], [ 19.6895008, 53.2328987 ], [ 19.7411003, 53.2257996 ], [ 19.7616997, 53.1507988 ], [ 19.6480007, 53.0852013 ], [ 19.6543007, 53.036499 ], [ 19.6844006, 53.020401 ], [ 19.6441002, 52.9704018 ], [ 19.5300999, 52.9356003 ], [ 19.4435005, 52.9376984 ], [ 19.4780998, 52.8641014 ], [ 19.4239006, 52.825901 ], [ 19.5023003, 52.7653008 ], [ 19.5077991, 52.7109985 ], [ 19.4549999, 52.7238007 ], [ 19.3913002, 52.6220016 ], [ 19.3904991, 52.5724983 ], [ 19.3411999, 52.5653992 ], [ 19.3602009, 52.5195999 ], [ 19.2959003, 52.4236984 ], [ 19.2901993, 52.3964996 ], [ 19.2094994, 52.3526993 ], [ 19.1023006, 52.3471985 ], [ 19.0466003, 52.3319016 ], [ 19.0049992, 52.3406982 ], [ 18.9398994, 52.3911018 ], [ 18.9134007, 52.3664017 ], [ 18.8362007, 52.3420982 ], [ 18.7516994, 52.3401985 ], [ 18.7105999, 52.3993988 ], [ 18.6805992, 52.3986015 ], [ 18.6490002, 52.4491997 ], [ 18.5688992, 52.4627991 ], [ 18.4985008, 52.5001984 ], [ 18.3824997, 52.4735985 ], [ 18.3827, 52.5348015 ], [ 18.2607002, 52.4799995 ], [ 18.1956005, 52.5037994 ], [ 18.0925999, 52.5183983 ], [ 18.0953999, 52.551899 ], [ 18.0032997, 52.5545006 ], [ 17.8796997, 52.6400986 ], [ 17.7632008, 52.6575012 ], [ 17.7488003, 52.6334 ], [ 17.6783009, 52.6016998 ], [ 17.6439991, 52.6441002 ], [ 17.6315994, 52.709301 ], [ 17.4715004, 52.6811981 ], [ 17.4866009, 52.728199 ], [ 17.4095001, 52.7570992 ], [ 17.4162998, 52.7840004 ], [ 17.4979992, 52.7848015 ], [ 17.5202007, 52.825901 ], [ 17.5184002, 52.8959007 ], [ 17.4678001, 52.9478989 ], [ 17.3960991, 52.9827003 ], [ 17.3173008, 52.9737015 ], [ 17.3318005, 53.0172005 ], [ 17.3248005, 53.0732994 ], [ 17.3631001, 53.089901 ], [ 17.3311005, 53.2168999 ], [ 17.4044991, 53.2247009 ], [ 17.3969994, 53.2854996 ], [ 17.3379993, 53.3460999 ], [ 17.2649994, 53.3521996 ], [ 17.2493992, 53.3801994 ], [ 17.3827991, 53.4687996 ], [ 17.3913002, 53.4892006 ], [ 17.4216003, 53.536499 ], [ 17.4213009, 53.5825996 ], [ 17.5107994, 53.6220016 ], [ 17.5247993, 53.5866013 ], [ 17.6054993, 53.5976982 ], [ 17.6793995, 53.587101 ], [ 17.7425995, 53.6901016 ], [ 17.8157997, 53.6857986 ], [ 17.8908005, 53.7125015 ], [ 17.8929005, 53.7542992 ], [ 18.0111008, 53.722599 ], [ 18.0636005, 53.7569008 ], [ 18.1508007, 53.7657013 ], [ 18.2728996, 53.7304001 ], [ 18.2633991, 53.7005005 ], [ 18.3820992, 53.6871986 ], [ 18.5093002, 53.6987991 ], [ 18.5555992, 53.6540985 ], [ 18.6949005, 53.6978989 ], [ 18.7303009, 53.6829987 ], [ 18.7577991, 53.6085014 ], [ 18.9428997, 53.5876999 ], [ 19.0949993, 53.5959015 ], [ 19.1438007, 53.5833015 ] ] ] ] } },
{ "type": "Feature", "properties": { "POLYGON_ID": "POL_GAUL2011_ADM1_2372", "ADM0_ISO3": "POL", "ADM0_NAME": "Poland", "ADM0_CODE": 198, "ADM1_NAME": "Lodzkie", "ADM1_CODE": 2372, "GEOSET": "GAUL", "GEOSET_YEAR": 2011.0, "GEOSET_VERSION": "GAUL_v1", "GEOSET_UNIT": "ADM1", "CENTROID_LONG": 19.423110787565609, "CENTROID_LAT": 51.611307394228213 }, "geometry": { "type": "MultiPolygon", "coordinates": [ [ [ [ 20.4284992, 51.3501015 ], [ 20.3686008, 51.3017998 ], [ 20.3927002, 51.2682991 ], [ 20.2555008, 51.2332001 ], [ 20.2514992, 51.2055016 ], [ 20.1947994, 51.1953011 ], [ 20.0063, 51.2008018 ], [ 20.0263004, 51.1674004 ], [ 19.9887009, 51.1473007 ], [ 19.9979992, 51.0764999 ], [ 20.0447998, 51.0746994 ], [ 20.0473995, 51.0102997 ], [ 20.0233002, 50.9682007 ], [ 19.9608002, 51.0126991 ], [ 19.8677998, 51.0484009 ], [ 19.8330994, 50.9855003 ], [ 19.8383007, 50.9159012 ], [ 19.7516003, 50.8623009 ], [ 19.7071991, 50.8471985 ], [ 19.6685009, 50.8834 ], [ 19.5825005, 50.9084015 ], [ 19.4906998, 50.8945007 ], [ 19.4817009, 50.9416008 ], [ 19.4237003, 50.9818001 ], [ 19.2598, 51.0321999 ], [ 19.2275009, 50.9872017 ], [ 19.1282997, 51.0140991 ], [ 18.9501991, 51.1007004 ], [ 18.8609009, 51.0723991 ], [ 18.6655998, 51.0536003 ], [ 18.5835991, 51.0830002 ], [ 18.5522995, 51.1376991 ], [ 18.5146999, 51.1036987 ], [ 18.4230003, 51.1153984 ], [ 18.3673, 51.1351013 ], [ 18.3057995, 51.1335983 ], [ 18.2607002, 51.1562996 ], [ 18.2077007, 51.1539993 ], [ 18.1601009, 51.174099 ], [ 18.1868992, 51.2286987 ], [ 18.1846008, 51.2667007 ], [ 18.1142006, 51.2653008 ], [ 18.1130009, 51.3144989 ], [ 18.1508007, 51.3897018 ], [ 18.1984005, 51.3905983 ], [ 18.2376995, 51.450901 ], [ 18.3262997, 51.4185982 ], [ 18.3827991, 51.4814987 ], [ 18.3652, 51.6809006 ], [ 18.4118996, 51.7052994 ], [ 18.4403, 51.8247986 ], [ 18.5942993, 51.8455009 ], [ 18.6884003, 51.8237991 ], [ 18.6975002, 51.8642006 ], [ 18.7579994, 51.9177017 ], [ 18.7094002, 52.0460014 ], [ 18.8710995, 52.0923996 ], [ 18.9284992, 52.092701 ], [ 18.9438, 52.1193008 ], [ 18.9090996, 52.1576004 ], [ 18.9193001, 52.198101 ], [ 18.9934006, 52.2224007 ], [ 19.0478992, 52.2193985 ], [ 19.1000996, 52.2655983 ], [ 19.0527992, 52.273201 ], [ 19.0466003, 52.3319016 ], [ 19.1023006, 52.3471985 ], [ 19.2094994, 52.3526993 ], [ 19.2901993, 52.3964996 ], [ 19.3346996, 52.3566017 ], [ 19.3784008, 52.3457985 ], [ 19.4636993, 52.357399 ], [ 19.507, 52.3240013 ], [ 19.6266994, 52.2946014 ], [ 19.6541996, 52.2622986 ], [ 19.7187996, 52.2801018 ], [ 19.7570992, 52.2664986 ], [ 19.8110008, 52.2857018 ], [ 19.8749008, 52.2867012 ], [ 19.9143009, 52.3142014 ], [ 20.0174007, 52.2616005 ], [ 20.0909996, 52.2356987 ], [ 20.0792999, 52.1931992 ], [ 20.1278992, 52.1500015 ], [ 20.1753006, 52.1529999 ], [ 20.2019997, 52.1246986 ], [ 20.2656002, 52.1228981 ], [ 20.2796001, 52.0821991 ], [ 20.2122002, 52.0273018 ], [ 20.2663002, 52.0163994 ], [ 20.2998009, 51.9450989 ], [ 20.3553009, 51.9249992 ], [ 20.4305, 51.9492989 ], [ 20.5666008, 51.8941994 ], [ 20.6047993, 51.8506012 ], [ 20.5807991, 51.8092995 ], [ 20.5828991, 51.7468987 ], [ 20.6567993, 51.7249985 ], [ 20.6529999, 51.6764984 ], [ 20.6203995, 51.6562004 ], [ 20.5359993, 51.667099 ], [ 20.4624996, 51.6935997 ], [ 20.3976994, 51.6697006 ], [ 20.4333, 51.5736008 ], [ 20.4617004, 51.5716019 ], [ 20.4507999, 51.5042 ], [ 20.5415001, 51.4910011 ], [ 20.5011005, 51.4291 ], [ 20.4615994, 51.4157982 ], [ 20.4284992, 51.3501015 ] ] ] ] } },
{ "type": "Feature", "properties": { "POLYGON_ID": "POL_GAUL2011_ADM1_2373", "ADM0_ISO3": "POL", "ADM0_NAME": "Poland", "ADM0_CODE": 198, "ADM1_NAME": "Lubeiskie", "ADM1_CODE": 2373, "GEOSET": "GAUL", "GEOSET_YEAR": 2011.0, "GEOSET_VERSION": "GAUL_v1", "GEOSET_UNIT": "ADM1", "CENTROID_LONG": 22.903242186412601, "CENTROID_LAT": 51.225758911873051 }, "geometry": { "type": "MultiPolygon", "coordinates": [ [ [ [ 23.1777992, 52.2839012 ], [ 23.20851, 52.27478 ], [ 23.2138394, 52.2215003 ], [ 23.30584, 52.20647 ], [ 23.3533492, 52.2115298 ], [ 23.40103, 52.1811 ], [ 23.4534, 52.18411 ], [ 23.519809, 52.1432634 ], [ 23.65414, 52.07934 ], [ 23.66576, 52.01693 ], [ 23.69612, 51.99907 ], [ 23.64374, 51.95153 ], [ 23.64187, 51.8974911 ], [ 23.61243, 51.87369 ], [ 23.64338, 51.80411 ], [ 23.62106, 51.77807 ], [ 23.53738, 51.74511 ], [ 23.5597, 51.66816 ], [ 23.54564, 51.606 ], [ 23.61586, 51.5308 ], [ 23.63085, 51.49686 ], [ 23.67928, 51.47406 ], [ 23.7062, 51.40444 ], [ 23.68298, 51.39231 ], [ 23.64095, 51.322 ], [ 23.65505, 51.29144 ], [ 23.72, 51.26971 ], [ 23.74613, 51.21403 ], [ 23.78751, 51.19943 ], [ 23.87651, 51.13679 ], [ 23.86466, 51.10308 ], [ 23.91919, 51.07225 ], [ 23.92731, 51.0098 ], [ 23.9765498, 50.9558016 ], [ 24.0633489, 50.8950804 ], [ 24.1486075, 50.8603786 ], [ 24.10545, 50.84031 ], [ 23.9931196, 50.8432694 ], [ 23.96477, 50.80078 ], [ 24.02614, 50.76537 ], [ 24.02011, 50.72598 ], [ 24.08952, 50.6647 ], [ 24.1050792, 50.6235859 ], [ 24.07194, 50.49552 ], [ 24.04214, 50.44585 ], [ 23.93705, 50.41228 ], [ 23.82122, 50.42037 ], [ 23.72086, 50.38668 ], [ 23.69035, 50.33762 ], [ 23.62727, 50.30962 ], [ 23.6018374, 50.2751089 ], [ 23.5432366, 50.2493059 ], [ 23.5186996, 50.2956009 ], [ 23.4314003, 50.3023987 ], [ 23.4360008, 50.3455009 ], [ 23.3542004, 50.4030991 ], [ 23.3024998, 50.3793983 ], [ 23.2322998, 50.3732986 ], [ 23.1821995, 50.3959999 ], [ 23.0186996, 50.2872009 ], [ 22.8866997, 50.3005981 ], [ 22.7516994, 50.3012009 ], [ 22.7131996, 50.2929001 ], [ 22.6063004, 50.3091011 ], [ 22.6394005, 50.3563004 ], [ 22.5175991, 50.348999 ], [ 22.4505997, 50.3706017 ], [ 22.4379005, 50.3989983 ], [ 22.4582005, 50.4496994 ], [ 22.5452003, 50.4522018 ], [ 22.5818005, 50.4821014 ], [ 22.5207996, 50.5323982 ], [ 22.5354004, 50.5704002 ], [ 22.4724998, 50.5904999 ], [ 22.4274998, 50.5808983 ], [ 22.3444996, 50.6231995 ], [ 22.2679996, 50.6246986 ], [ 22.2178993, 50.6683006 ], [ 22.1532002, 50.6679993 ], [ 22.2173996, 50.7593994 ], [ 22.1800995, 50.8027992 ], [ 22.0750999, 50.8223991 ], [ 22.0209007, 50.7872009 ], [ 21.8950996, 50.7803993 ], [ 21.8684998, 50.8089981 ], [ 21.8274002, 50.9364014 ], [ 21.8288994, 50.9762993 ], [ 21.802, 51.0271988 ], [ 21.8071003, 51.0662994 ], [ 21.7942009, 51.1274986 ], [ 21.8197002, 51.1557007 ], [ 21.7873993, 51.1787987 ], [ 21.8174992, 51.2322998 ], [ 21.8243999, 51.3117981 ], [ 21.8514996, 51.3557014 ], [ 21.7879009, 51.3955994 ], [ 21.8484001, 51.4267998 ], [ 21.8722, 51.4738998 ], [ 21.8187008, 51.5634995 ], [ 21.7176991, 51.5607986 ], [ 21.6418991, 51.605999 ], [ 21.6487999, 51.6581001 ], [ 21.7241993, 51.6283989 ], [ 21.8404007, 51.6657982 ], [ 21.8978996, 51.6982002 ], [ 21.8514004, 51.7538986 ], [ 21.9619007, 51.7969017 ], [ 21.9298992, 51.8400002 ], [ 21.8729992, 51.8278008 ], [ 21.9122009, 51.9026985 ], [ 21.8792, 51.9418983 ], [ 21.8925991, 51.9818993 ], [ 21.9887009, 52.0063019 ], [ 22.0426998, 52.0357018 ], [ 22.1299, 52.0144005 ], [ 22.1548996, 52.0395012 ], [ 22.2544003, 52.0220985 ], [ 22.3059006, 52.0489998 ], [ 22.3363991, 52.0259018 ], [ 22.4228001, 52.0237007 ], [ 22.4811001, 52.0665016 ], [ 22.5956001, 52.0373001 ], [ 22.6597996, 52.0355988 ], [ 22.6643009, 52.0805016 ], [ 22.6931, 52.1193008 ], [ 22.8337002, 52.0900993 ], [ 22.9083004, 52.1057014 ], [ 23.0007992, 52.1825981 ], [ 23.0552998, 52.1804008 ], [ 23.0421009, 52.2221985 ], [ 23.1334, 52.2857018 ], [ 23.1777992, 52.2839012 ] ] ] ] } },
{ "type": "Feature", "properties": { "POLYGON_ID": "POL_GAUL2011_ADM1_2374", "ADM0_ISO3": "POL", "ADM0_NAME": "Poland", "ADM0_CODE": 198, "ADM1_NAME": "Lubuskie", "ADM1_CODE": 2374, "GEOSET": "GAUL", "GEOSET_YEAR": 2011.0, "GEOSET_VERSION": "GAUL_v1", "GEOSET_UNIT": "ADM1", "CENTROID_LONG": 15.345565048315116, "CENTROID_LAT": 52.196012227630753 }, "geometry": { "type": "MultiPolygon", "coordinates": [ [ [ [ 15.9617004, 53.0396996 ], [ 15.9510002, 52.9914017 ], [ 15.9785995, 52.9325981 ], [ 15.9745998, 52.8569984 ], [ 15.8935003, 52.8103981 ], [ 15.9489002, 52.7419014 ], [ 15.9024, 52.7182999 ], [ 15.8065004, 52.7103996 ], [ 15.8214998, 52.6833992 ], [ 15.7854996, 52.6063004 ], [ 15.8528004, 52.5494003 ], [ 15.9015999, 52.4425011 ], [ 15.8563995, 52.4296989 ], [ 15.9042997, 52.3916016 ], [ 15.8982, 52.3279991 ], [ 15.8571997, 52.2598991 ], [ 15.8803997, 52.1390991 ], [ 15.8511, 52.1218987 ], [ 15.8704996, 52.0844002 ], [ 15.9428997, 52.0814018 ], [ 15.9904003, 52.0560989 ], [ 15.9605999, 52.0166016 ], [ 16.0529995, 51.9707985 ], [ 16.1221008, 51.9902 ], [ 16.1371002, 51.9258995 ], [ 16.1103001, 51.9034004 ], [ 16.2192993, 51.8751984 ], [ 16.2460003, 51.9043007 ], [ 16.3421993, 51.8744011 ], [ 16.3845005, 51.8496017 ], [ 16.4207001, 51.7831001 ], [ 16.3787994, 51.7563019 ], [ 16.3687, 51.716301 ], [ 16.2837009, 51.6790009 ], [ 16.1637993, 51.7084999 ], [ 16.1613998, 51.7587013 ], [ 15.9650002, 51.7919998 ], [ 15.9738998, 51.7458 ], [ 15.8708, 51.7202988 ], [ 15.8563004, 51.6575012 ], [ 15.8297997, 51.6362 ], [ 15.8225002, 51.5719986 ], [ 15.7145004, 51.547699 ], [ 15.7131996, 51.516201 ], [ 15.6654997, 51.4813004 ], [ 15.5949001, 51.4673996 ], [ 15.4914999, 51.5248985 ], [ 15.4060001, 51.5189018 ], [ 15.3441, 51.4688988 ], [ 15.3155003, 51.4157982 ], [ 15.1865997, 51.4628983 ], [ 15.0951996, 51.4250984 ], [ 15.0757999, 51.3959007 ], [ 15.0179005, 51.3930016 ], [ 14.9723971, 51.3647589 ], [ 14.9621, 51.45291 ], [ 14.9392, 51.47292 ], [ 14.84091, 51.49124 ], [ 14.79203, 51.51875 ], [ 14.73579, 51.52558 ], [ 14.7227517, 51.5757107 ], [ 14.76159, 51.60364 ], [ 14.75348, 51.66054 ], [ 14.65788, 51.73323 ], [ 14.65066, 51.78546 ], [ 14.59914, 51.8066 ], [ 14.58771, 51.83702 ], [ 14.68969, 51.90106 ], [ 14.7192, 51.95289 ], [ 14.71311, 52.00712 ], [ 14.75716, 52.06901 ], [ 14.69016, 52.10548 ], [ 14.68529, 52.1925 ], [ 14.70825, 52.21466 ], [ 14.69086, 52.25813 ], [ 14.59865, 52.27434 ], [ 14.5338899, 52.3912329 ], [ 14.54657, 52.42972 ], [ 14.6089, 52.46612 ], [ 14.6285794, 52.5011608 ], [ 14.60281, 52.53228 ], [ 14.638219, 52.5773285 ], [ 14.6006797, 52.6064722 ], [ 14.6036997, 52.6461983 ], [ 14.6529999, 52.6617012 ], [ 14.7272997, 52.6363983 ], [ 14.7896996, 52.700901 ], [ 14.7940998, 52.7514992 ], [ 14.8605003, 52.785099 ], [ 14.8534002, 52.8241005 ], [ 14.9097996, 52.8795013 ], [ 14.9982996, 52.8410988 ], [ 15.0746002, 52.8312988 ], [ 15.3261995, 52.8950005 ], [ 15.2851, 52.9502983 ], [ 15.3733997, 52.9524002 ], [ 15.4069996, 52.9816017 ], [ 15.5539999, 53.0144997 ], [ 15.6472998, 52.9830017 ], [ 15.8038998, 53.0433006 ], [ 15.8094997, 53.0847015 ], [ 15.9043999, 53.1245995 ], [ 15.9947004, 53.0901985 ], [ 15.9617004, 53.0396996 ] ] ] ] } },
{ "type": "Feature", "properties": { "POLYGON_ID": "POL_GAUL2011_ADM1_2375", "ADM0_ISO3": "POL", "ADM0_NAME": "Poland", "ADM0_CODE": 198, "ADM1_NAME": "Malopolske", "ADM1_CODE": 2375, "GEOSET": "GAUL", "GEOSET_YEAR": 2011.0, "GEOSET_VERSION": "GAUL_v1", "GEOSET_UNIT": "ADM1", "CENTROID_LONG": 20.276443186563696, "CENTROID_LAT": 49.870845113257531 }, "geometry": { "type": "MultiPolygon", "coordinates": [ [ [ [ 21.2091007, 50.3540993 ], [ 21.2189999, 50.3137016 ], [ 21.1460991, 50.2589989 ], [ 21.1763992, 50.2164993 ], [ 21.1523991, 50.1473007 ], [ 21.2066002, 50.0996017 ], [ 21.1569996, 50.0503006 ], [ 21.1599998, 49.9720993 ], [ 21.1872997, 49.9300995 ], [ 21.2817993, 49.925499 ], [ 21.2847996, 49.8875999 ], [ 21.2320004, 49.8562012 ], [ 21.1431007, 49.8488998 ], [ 21.1671009, 49.8230019 ], [ 21.1578999, 49.7806015 ], [ 21.2329006, 49.7761002 ], [ 21.3195992, 49.7494011 ], [ 21.3652, 49.6385994 ], [ 21.3246994, 49.5906982 ], [ 21.4027004, 49.5001984 ], [ 21.3980365, 49.4323757 ], [ 21.282, 49.4564 ], [ 21.19639, 49.40067 ], [ 21.132, 49.43417 ], [ 21.05546, 49.41132 ], [ 21.10331, 49.37716 ], [ 21.05132, 49.36477 ], [ 20.97717, 49.30937 ], [ 20.9375698, 49.2960215 ], [ 20.8964691, 49.3499696 ], [ 20.82684, 49.3301 ], [ 20.76377, 49.366 ], [ 20.72704, 49.42179 ], [ 20.63722, 49.40762 ], [ 20.57503, 49.37786 ], [ 20.48236, 49.41182 ], [ 20.41688, 49.39195 ], [ 20.33884, 49.40404 ], [ 20.31461, 49.34555 ], [ 20.21863, 49.35013 ], [ 20.10505, 49.25292 ], [ 20.08117, 49.17627 ], [ 19.98742, 49.22788 ], [ 19.93043, 49.23209 ], [ 19.8683968, 49.1939633 ], [ 19.76502, 49.2093 ], [ 19.79192, 49.25865 ], [ 19.82301, 49.27559 ], [ 19.79356, 49.40164 ], [ 19.73076, 49.38876 ], [ 19.63433, 49.40369 ], [ 19.6122074, 49.4448929 ], [ 19.56205, 49.4914 ], [ 19.528, 49.57074 ], [ 19.4622618, 49.6028965 ], [ 19.4839001, 49.6673012 ], [ 19.3890991, 49.6996002 ], [ 19.4617004, 49.7392006 ], [ 19.4587994, 49.7613983 ], [ 19.3316994, 49.7858009 ], [ 19.3015003, 49.8166008 ], [ 19.2868004, 49.8698998 ], [ 19.1968002, 49.8661995 ], [ 19.2143993, 49.9435997 ], [ 19.1047993, 49.9416008 ], [ 19.1184006, 50.0088005 ], [ 19.1686993, 50.0592003 ], [ 19.2063999, 50.0612984 ], [ 19.25, 50.1307983 ], [ 19.3444004, 50.1461983 ], [ 19.3479004, 50.1860008 ], [ 19.4204006, 50.2038994 ], [ 19.4316006, 50.2262993 ], [ 19.3299999, 50.2588997 ], [ 19.3623009, 50.3167992 ], [ 19.4927998, 50.3230019 ], [ 19.5013008, 50.4001007 ], [ 19.6602993, 50.4133987 ], [ 19.7161007, 50.4441986 ], [ 19.8257008, 50.4387016 ], [ 19.9668007, 50.4746017 ], [ 19.9500999, 50.5036011 ], [ 19.9880009, 50.5181007 ], [ 20.0417004, 50.4992981 ], [ 20.1627007, 50.4841003 ], [ 20.2033005, 50.4911995 ], [ 20.2740994, 50.4646988 ], [ 20.2733002, 50.4325981 ], [ 20.3712997, 50.3395004 ], [ 20.5048008, 50.3886986 ], [ 20.5487995, 50.346199 ], [ 20.7047997, 50.3103981 ], [ 20.7241993, 50.2886009 ], [ 20.8103008, 50.2868996 ], [ 20.9608002, 50.3154984 ], [ 21.0690994, 50.3199005 ], [ 21.1303005, 50.3532982 ], [ 21.2091007, 50.3540993 ] ] ] ] } },
{ "type": "Feature", "properties": { "POLYGON_ID": "POL_GAUL2011_ADM1_2376", "ADM0_ISO3": "POL", "ADM0_NAME": "Poland", "ADM0_CODE": 198, "ADM1_NAME": "Mazowieckie", "ADM1_CODE": 2376, "GEOSET": "GAUL", "GEOSET_YEAR": 2011.0, "GEOSET_VERSION": "GAUL_v1", "GEOSET_UNIT": "ADM1", "CENTROID_LONG": 21.098132809269092, "CENTROID_LAT": 52.343449210265931 }, "geometry": { "type": "MultiPolygon", "coordinates": [ [ [ [ 21.5983009, 53.4791985 ], [ 21.6254005, 53.4073982 ], [ 21.6826, 53.3665009 ], [ 21.6551991, 53.3479996 ], [ 21.6581993, 53.2616005 ], [ 21.7010994, 53.1310005 ], [ 21.7336006, 53.1082001 ], [ 21.8066998, 53.1137009 ], [ 21.8717995, 53.0587006 ], [ 21.8754997, 53.0209999 ], [ 21.9176006, 52.9883995 ], [ 21.9981003, 52.9714012 ], [ 22.0200996, 52.9306984 ], [ 22.0044003, 52.8768997 ], [ 22.0379009, 52.8591995 ], [ 22.1280994, 52.8539009 ], [ 22.2133007, 52.8630981 ], [ 22.2672005, 52.8902016 ], [ 22.3036995, 52.8602982 ], [ 22.2448998, 52.8356018 ], [ 22.2821999, 52.7811012 ], [ 22.4557991, 52.7877007 ], [ 22.4442997, 52.7028008 ], [ 22.4624996, 52.6598015 ], [ 22.3936005, 52.6124001 ], [ 22.4568005, 52.5848007 ], [ 22.5256004, 52.5175018 ], [ 22.5107002, 52.4817009 ], [ 22.5531006, 52.4599991 ], [ 22.5657005, 52.4021988 ], [ 22.6410999, 52.3867989 ], [ 22.7040997, 52.3914986 ], [ 22.8512993, 52.3581009 ], [ 22.9183006, 52.3739014 ], [ 23.0457993, 52.3247986 ], [ 23.0767002, 52.2831001 ], [ 23.1334, 52.2857018 ], [ 23.0421009, 52.2221985 ], [ 23.0552998, 52.1804008 ], [ 23.0007992, 52.1825981 ], [ 22.9083004, 52.1057014 ], [ 22.8337002, 52.0900993 ], [ 22.6931, 52.1193008 ], [ 22.6643009, 52.0805016 ], [ 22.6597996, 52.0355988 ], [ 22.5956001, 52.0373001 ], [ 22.4811001, 52.0665016 ], [ 22.4228001, 52.0237007 ], [ 22.3363991, 52.0259018 ], [ 22.3059006, 52.0489998 ], [ 22.2544003, 52.0220985 ], [ 22.1548996, 52.0395012 ], [ 22.1299, 52.0144005 ], [ 22.0426998, 52.0357018 ], [ 21.9887009, 52.0063019 ], [ 21.8925991, 51.9818993 ], [ 21.8792, 51.9418983 ], [ 21.9122009, 51.9026985 ], [ 21.8729992, 51.8278008 ], [ 21.9298992, 51.8400002 ], [ 21.9619007, 51.7969017 ], [ 21.8514004, 51.7538986 ], [ 21.8978996, 51.6982002 ], [ 21.8404007, 51.6657982 ], [ 21.7241993, 51.6283989 ], [ 21.6487999, 51.6581001 ], [ 21.6418991, 51.605999 ], [ 21.7176991, 51.5607986 ], [ 21.8187008, 51.5634995 ], [ 21.8722, 51.4738998 ], [ 21.8484001, 51.4267998 ], [ 21.7879009, 51.3955994 ], [ 21.8514996, 51.3557014 ], [ 21.8243999, 51.3117981 ], [ 21.8174992, 51.2322998 ], [ 21.7873993, 51.1787987 ], [ 21.8197002, 51.1557007 ], [ 21.7942009, 51.1274986 ], [ 21.8071003, 51.0662994 ], [ 21.7525005, 51.0371017 ], [ 21.7085991, 51.0393982 ], [ 21.6767006, 51.0751991 ], [ 21.6390991, 51.0750999 ], [ 21.4626999, 51.0121002 ], [ 21.3829994, 51.0397987 ], [ 21.3518009, 51.0844002 ], [ 21.1527004, 51.0797997 ], [ 21.1534004, 51.1231003 ], [ 21.0907002, 51.1533012 ], [ 20.9983006, 51.144001 ], [ 20.8785992, 51.1520004 ], [ 20.8250999, 51.1409988 ], [ 20.7189007, 51.1711006 ], [ 20.6215, 51.2284012 ], [ 20.5547009, 51.2341995 ], [ 20.5132008, 51.3428001 ], [ 20.4284992, 51.3501015 ], [ 20.4615994, 51.4157982 ], [ 20.5011005, 51.4291 ], [ 20.5415001, 51.4910011 ], [ 20.4507999, 51.5042 ], [ 20.4617004, 51.5716019 ], [ 20.4333, 51.5736008 ], [ 20.3976994, 51.6697006 ], [ 20.4624996, 51.6935997 ], [ 20.5359993, 51.667099 ], [ 20.6203995, 51.6562004 ], [ 20.6529999, 51.6764984 ], [ 20.6567993, 51.7249985 ], [ 20.5828991, 51.7468987 ], [ 20.5807991, 51.8092995 ], [ 20.6047993, 51.8506012 ], [ 20.5666008, 51.8941994 ], [ 20.4305, 51.9492989 ], [ 20.3553009, 51.9249992 ], [ 20.2998009, 51.9450989 ], [ 20.2663002, 52.0163994 ], [ 20.2122002, 52.0273018 ], [ 20.2796001, 52.0821991 ], [ 20.2656002, 52.1228981 ], [ 20.2019997, 52.1246986 ], [ 20.1753006, 52.1529999 ], [ 20.1278992, 52.1500015 ], [ 20.0792999, 52.1931992 ], [ 20.0909996, 52.2356987 ], [ 20.0174007, 52.2616005 ], [ 19.9143009, 52.3142014 ], [ 19.8749008, 52.2867012 ], [ 19.8110008, 52.2857018 ], [ 19.7570992, 52.2664986 ], [ 19.7187996, 52.2801018 ], [ 19.6541996, 52.2622986 ], [ 19.6266994, 52.2946014 ], [ 19.507, 52.3240013 ], [ 19.4636993, 52.357399 ], [ 19.3784008, 52.3457985 ], [ 19.3346996, 52.3566017 ], [ 19.2901993, 52.3964996 ], [ 19.2959003, 52.4236984 ], [ 19.3602009, 52.5195999 ], [ 19.3411999, 52.5653992 ], [ 19.3904991, 52.5724983 ], [ 19.3913002, 52.6220016 ], [ 19.4549999, 52.7238007 ], [ 19.5077991, 52.7109985 ], [ 19.5023003, 52.7653008 ], [ 19.4239006, 52.825901 ], [ 19.4780998, 52.8641014 ], [ 19.4435005, 52.9376984 ], [ 19.5300999, 52.9356003 ], [ 19.6441002, 52.9704018 ], [ 19.6844006, 53.020401 ], [ 19.6543007, 53.036499 ], [ 19.6480007, 53.0852013 ], [ 19.7616997, 53.1507988 ], [ 19.8281002, 53.1422005 ], [ 19.8348999, 53.1801987 ], [ 19.9032993, 53.2146988 ], [ 19.9188004, 53.1694984 ], [ 19.9794006, 53.1467018 ], [ 20.1161003, 53.1626015 ], [ 20.2532005, 53.1390991 ], [ 20.3243008, 53.1374016 ], [ 20.3878994, 53.1610985 ], [ 20.3771, 53.2072983 ], [ 20.4748001, 53.2327995 ], [ 20.5317993, 53.2304993 ], [ 20.6567993, 53.2494011 ], [ 20.6928005, 53.3003998 ], [ 20.7467995, 53.3135986 ], [ 20.8474998, 53.2914009 ], [ 20.9057007, 53.3111992 ], [ 20.9377995, 53.3588982 ], [ 20.9974995, 53.3620987 ], [ 21.0538998, 53.3338013 ], [ 21.2451992, 53.421299 ], [ 21.3006001, 53.4327011 ], [ 21.3619995, 53.4201012 ], [ 21.4431, 53.4397011 ], [ 21.4508991, 53.4640999 ], [ 21.5983009, 53.4791985 ] ] ] ] } },
{ "type": "Feature", "properties": { "POLYGON_ID": "POL_GAUL2011_ADM1_2377", "ADM0_ISO3": "POL", "ADM0_NAME": "Poland", "ADM0_CODE": 198, "ADM1_NAME": "Opolskie", "ADM1_CODE": 2377, "GEOSET": "GAUL", "GEOSET_YEAR": 2011.0, "GEOSET_VERSION": "GAUL_v1", "GEOSET_UNIT": "ADM1", "CENTROID_LONG": 17.898823232935197, "CENTROID_LAT": 50.645370486512803 }, "geometry": { "type": "MultiPolygon", "coordinates": [ [ [ [ 18.1601009, 51.174099 ], [ 18.2077007, 51.1539993 ], [ 18.2607002, 51.1562996 ], [ 18.3057995, 51.1335983 ], [ 18.3673, 51.1351013 ], [ 18.4230003, 51.1153984 ], [ 18.5146999, 51.1036987 ], [ 18.5522995, 51.1376991 ], [ 18.5835991, 51.0830002 ], [ 18.6655998, 51.0536003 ], [ 18.6569004, 50.9765015 ], [ 18.6208992, 50.9628983 ], [ 18.6457005, 50.9263 ], [ 18.6257992, 50.8638992 ], [ 18.5746002, 50.8389015 ], [ 18.5284996, 50.7905998 ], [ 18.5811005, 50.7491989 ], [ 18.4909, 50.7025986 ], [ 18.5340004, 50.6218987 ], [ 18.6012993, 50.6032982 ], [ 18.6068993, 50.5516014 ], [ 18.5580006, 50.5395012 ], [ 18.4367008, 50.5444984 ], [ 18.4475002, 50.4978981 ], [ 18.3798008, 50.4828987 ], [ 18.3941002, 50.3866005 ], [ 18.3581009, 50.3546982 ], [ 18.3955994, 50.3361015 ], [ 18.3997993, 50.2751999 ], [ 18.4207993, 50.2588997 ], [ 18.2520008, 50.221199 ], [ 18.2492008, 50.1911011 ], [ 18.0622997, 50.1693001 ], [ 18.0557003, 50.0848007 ], [ 18.0241207, 50.05886 ], [ 18.002, 50.01759 ], [ 17.92695, 49.98103 ], [ 17.83394, 49.9845 ], [ 17.78249, 50.01773 ], [ 17.73466, 50.10041 ], [ 17.65965, 50.10878 ], [ 17.59306, 50.16504 ], [ 17.7044, 50.18263 ], [ 17.7561, 50.20456 ], [ 17.72799, 50.26147 ], [ 17.752719, 50.2952713 ], [ 17.68713, 50.3 ], [ 17.6529492, 50.2749599 ], [ 17.458, 50.26641 ], [ 17.40338, 50.28562 ], [ 17.36059, 50.27731 ], [ 17.32674, 50.31917 ], [ 17.27409, 50.321 ], [ 17.1841, 50.3702 ], [ 17.04079, 50.40499 ], [ 16.9073462, 50.4447771 ], [ 16.9647999, 50.4875984 ], [ 17.0387993, 50.4640999 ], [ 17.0734997, 50.5161018 ], [ 17.0638008, 50.542099 ], [ 17.1205997, 50.6064987 ], [ 17.2359009, 50.6114998 ], [ 17.2241001, 50.7136993 ], [ 17.3474998, 50.7835999 ], [ 17.3285007, 50.8483009 ], [ 17.3841991, 50.8600998 ], [ 17.4270992, 50.9085007 ], [ 17.4307003, 50.9658012 ], [ 17.5011005, 50.9734993 ], [ 17.5200996, 51.0588989 ], [ 17.5813007, 51.0808983 ], [ 17.5757999, 51.1287003 ], [ 17.5463009, 51.1422005 ], [ 17.6061001, 51.1875992 ], [ 17.6697006, 51.1596985 ], [ 17.8006992, 51.1907005 ], [ 17.8518009, 51.1710014 ], [ 17.8290005, 51.1185989 ], [ 17.9410992, 51.1081009 ], [ 18.0046997, 51.1221008 ], [ 18.1601009, 51.174099 ] ] ] ] } },
{ "type": "Feature", "properties": { "POLYGON_ID": "POL_GAUL2011_ADM1_2378", "ADM0_ISO3": "POL", "ADM0_NAME": "Poland", "ADM0_CODE": 198, "ADM1_NAME": "Podkarpackie", "ADM1_CODE": 2378, "GEOSET": "GAUL", "GEOSET_YEAR": 2011.0, "GEOSET_VERSION": "GAUL_v1", "GEOSET_UNIT": "ADM1", "CENTROID_LONG": 22.168689817805117, "CENTROID_LAT": 49.955001568753566 }, "geometry": { "type": "MultiPolygon", "coordinates": [ [ [ [ 23.5432366, 50.2493059 ], [ 23.45537, 50.20406 ], [ 23.40044, 50.15585 ], [ 23.29228, 50.09554 ], [ 23.0227574, 49.8668982 ], [ 22.91608, 49.78309 ], [ 22.8968987, 49.7507494 ], [ 22.8033469, 49.6953965 ], [ 22.7626696, 49.6356597 ], [ 22.68042, 49.56676 ], [ 22.6711, 49.5238 ], [ 22.70014, 49.48845 ], [ 22.69707, 49.45147 ], [ 22.72914, 49.40545 ], [ 22.75892, 49.2858 ], [ 22.7338199, 49.2318384 ], [ 22.74745, 49.15907 ], [ 22.79666, 49.15688 ], [ 22.8732798, 49.0786668 ], [ 22.885895, 49.0071307 ], [ 22.78403, 49.05384 ], [ 22.69677, 49.04197 ], [ 22.63712, 49.07785 ], [ 22.57044, 49.08673 ], [ 22.4159494, 49.1058806 ], [ 22.3765986, 49.14661 ], [ 22.32118, 49.13544 ], [ 22.23615, 49.15149 ], [ 22.1991, 49.17415 ], [ 22.04516, 49.22177 ], [ 22.03226, 49.28574 ], [ 21.96171, 49.34987 ], [ 21.90587, 49.35513 ], [ 21.84173, 49.39264 ], [ 21.7734, 49.36191 ], [ 21.72792, 49.41307 ], [ 21.66983, 49.4174 ], [ 21.63843, 49.4459 ], [ 21.56539, 49.4431 ], [ 21.51531, 49.42015 ], [ 21.4437593, 49.4137003 ], [ 21.3980365, 49.4323757 ], [ 21.4027004, 49.5001984 ], [ 21.3246994, 49.5906982 ], [ 21.3652, 49.6385994 ], [ 21.3195992, 49.7494011 ], [ 21.2329006, 49.7761002 ], [ 21.1578999, 49.7806015 ], [ 21.1671009, 49.8230019 ], [ 21.1431007, 49.8488998 ], [ 21.2320004, 49.8562012 ], [ 21.2847996, 49.8875999 ], [ 21.2817993, 49.925499 ], [ 21.1872997, 49.9300995 ], [ 21.1599998, 49.9720993 ], [ 21.1569996, 50.0503006 ], [ 21.2066002, 50.0996017 ], [ 21.1523991, 50.1473007 ], [ 21.1763992, 50.2164993 ], [ 21.1460991, 50.2589989 ], [ 21.2189999, 50.3137016 ], [ 21.2091007, 50.3540993 ], [ 21.2817993, 50.4070015 ], [ 21.3446007, 50.4347 ], [ 21.4470005, 50.4562988 ], [ 21.4438, 50.4860001 ], [ 21.5597992, 50.5199013 ], [ 21.6035004, 50.5186996 ], [ 21.6735992, 50.6072006 ], [ 21.7350006, 50.6405983 ], [ 21.7882004, 50.6399994 ], [ 21.8435993, 50.7360992 ], [ 21.8684998, 50.8089981 ], [ 21.8950996, 50.7803993 ], [ 22.0209007, 50.7872009 ], [ 22.0750999, 50.8223991 ], [ 22.1800995, 50.8027992 ], [ 22.2173996, 50.7593994 ], [ 22.1532002, 50.6679993 ], [ 22.2178993, 50.6683006 ], [ 22.2679996, 50.6246986 ], [ 22.3444996, 50.6231995 ], [ 22.4274998, 50.5808983 ], [ 22.4724998, 50.5904999 ], [ 22.5354004, 50.5704002 ], [ 22.5207996, 50.5323982 ], [ 22.5818005, 50.4821014 ], [ 22.5452003, 50.4522018 ], [ 22.4582005, 50.4496994 ], [ 22.4379005, 50.3989983 ], [ 22.4505997, 50.3706017 ], [ 22.5175991, 50.348999 ], [ 22.6394005, 50.3563004 ], [ 22.6063004, 50.3091011 ], [ 22.7131996, 50.2929001 ], [ 22.7516994, 50.3012009 ], [ 22.8866997, 50.3005981 ], [ 23.0186996, 50.2872009 ], [ 23.1821995, 50.3959999 ], [ 23.2322998, 50.3732986 ], [ 23.3024998, 50.3793983 ], [ 23.3542004, 50.4030991 ], [ 23.4360008, 50.3455009 ], [ 23.4314003, 50.3023987 ], [ 23.5186996, 50.2956009 ], [ 23.5432366, 50.2493059 ] ] ] ] } },
{ "type": "Feature", "properties": { "POLYGON_ID": "POL_GAUL2011_ADM1_2379", "ADM0_ISO3": "POL", "ADM0_NAME": "Poland", "ADM0_CODE": 198, "ADM1_NAME": "Podlaskie", "ADM1_CODE": 2379, "GEOSET": "GAUL", "GEOSET_YEAR": 2011.0, "GEOSET_VERSION": "GAUL_v1", "GEOSET_UNIT": "ADM1", "CENTROID_LONG": 22.928355915166456, "CENTROID_LAT": 53.266115458987898 }, "geometry": { "type": "MultiPolygon", "coordinates": [ [ [ [ 23.3112503, 54.2397602 ], [ 23.38738, 54.21452 ], [ 23.44355, 54.16484 ], [ 23.48867, 54.15182 ], [ 23.51642, 54.03772 ], [ 23.49112, 53.9886 ], [ 23.50595, 53.96659 ], [ 23.55925, 53.84571 ], [ 23.56593, 53.77592 ], [ 23.61095, 53.74245 ], [ 23.61397, 53.60091 ], [ 23.63823, 53.58355 ], [ 23.6618, 53.50796 ], [ 23.68826, 53.47456 ], [ 23.77864, 53.3063 ], [ 23.81979, 53.24879 ], [ 23.86333, 53.23128 ], [ 23.87795, 53.18708 ], [ 23.92022, 53.15824 ], [ 23.8765, 53.08388 ], [ 23.93862, 53.01877 ], [ 23.95613, 52.9478 ], [ 23.93271, 52.89181 ], [ 23.9266037, 52.7749106 ], [ 23.9153985, 52.6673297 ], [ 23.78371, 52.64076 ], [ 23.52313, 52.59767 ], [ 23.4074, 52.54839 ], [ 23.29069, 52.44682 ], [ 23.24315, 52.36058 ], [ 23.1777992, 52.2839012 ], [ 23.1334, 52.2857018 ], [ 23.0767002, 52.2831001 ], [ 23.0457993, 52.3247986 ], [ 22.9183006, 52.3739014 ], [ 22.8512993, 52.3581009 ], [ 22.7040997, 52.3914986 ], [ 22.6410999, 52.3867989 ], [ 22.5657005, 52.4021988 ], [ 22.5531006, 52.4599991 ], [ 22.5107002, 52.4817009 ], [ 22.5256004, 52.5175018 ], [ 22.4568005, 52.5848007 ], [ 22.3936005, 52.6124001 ], [ 22.4624996, 52.6598015 ], [ 22.4442997, 52.7028008 ], [ 22.4557991, 52.7877007 ], [ 22.2821999, 52.7811012 ], [ 22.2448998, 52.8356018 ], [ 22.3036995, 52.8602982 ], [ 22.2672005, 52.8902016 ], [ 22.2133007, 52.8630981 ], [ 22.1280994, 52.8539009 ], [ 22.0379009, 52.8591995 ], [ 22.0044003, 52.8768997 ], [ 22.0200996, 52.9306984 ], [ 21.9981003, 52.9714012 ], [ 21.9176006, 52.9883995 ], [ 21.8754997, 53.0209999 ], [ 21.8717995, 53.0587006 ], [ 21.8066998, 53.1137009 ], [ 21.7336006, 53.1082001 ], [ 21.7010994, 53.1310005 ], [ 21.6581993, 53.2616005 ], [ 21.6551991, 53.3479996 ], [ 21.6826, 53.3665009 ], [ 21.6254005, 53.4073982 ], [ 21.5983009, 53.4791985 ], [ 21.6882, 53.4914017 ], [ 21.8621998, 53.4566002 ], [ 21.9326, 53.5091019 ], [ 22.0559006, 53.5217018 ], [ 22.1945, 53.5647011 ], [ 22.281601, 53.6202011 ], [ 22.469101, 53.6976013 ], [ 22.5146008, 53.6977005 ], [ 22.6375008, 53.7462006 ], [ 22.6977005, 53.7601013 ], [ 22.7317009, 53.8265991 ], [ 22.7982006, 53.8788986 ], [ 22.7800999, 53.9319 ], [ 22.7087002, 53.9894981 ], [ 22.6716995, 54.0373001 ], [ 22.6159992, 54.0578995 ], [ 22.6345005, 54.1085014 ], [ 22.5974998, 54.148201 ], [ 22.5506992, 54.1447983 ], [ 22.507, 54.1910019 ], [ 22.5228996, 54.2439995 ], [ 22.7015991, 54.2742996 ], [ 22.7863007, 54.296299 ], [ 22.8080006, 54.3414001 ], [ 22.7875411, 54.3651911 ], [ 22.7877863, 54.365252 ], [ 22.79814, 54.40238 ], [ 22.85455, 54.42547 ], [ 22.90787, 54.39766 ], [ 22.99574, 54.38583 ], [ 23.04899, 54.31236 ], [ 23.09972, 54.29744 ], [ 23.14784, 54.3111 ], [ 23.24045, 54.25448 ], [ 23.3112503, 54.2397602 ] ] ] ] } },
{ "type": "Feature", "properties": { "POLYGON_ID": "POL_GAUL2011_ADM1_2380", "ADM0_ISO3": "POL", "ADM0_NAME": "Poland", "ADM0_CODE": 198, "ADM1_NAME": "Pomorskie", "ADM1_CODE": 2380, "GEOSET": "GAUL", "GEOSET_YEAR": 2011.0, "GEOSET_VERSION": "GAUL_v1", "GEOSET_UNIT": "ADM1", "CENTROID_LONG": 17.981746154848384, "CENTROID_LAT": 54.153824422514042 }, "geometry": { "type": "MultiPolygon", "coordinates": [ [ [ [ 19.638155, 54.4602509 ], [ 19.6621646, 54.4548339 ], [ 19.6096096, 54.4238396 ], [ 19.3805428, 54.3559303 ], [ 19.2775364, 54.3504982 ], [ 19.2644257, 54.2753877 ], [ 19.3169994, 54.2280998 ], [ 19.3178005, 54.1987 ], [ 19.2514, 54.1741982 ], [ 19.2703991, 54.1446991 ], [ 19.2227001, 54.0685005 ], [ 19.2956009, 54.0489998 ], [ 19.3276005, 54.0234985 ], [ 19.4144993, 53.9970016 ], [ 19.3880005, 53.9499016 ], [ 19.4122009, 53.9365997 ], [ 19.4960003, 53.9547997 ], [ 19.5681992, 53.9556007 ], [ 19.5799999, 53.9258003 ], [ 19.5170002, 53.8445015 ], [ 19.4466991, 53.8072014 ], [ 19.3540001, 53.8213997 ], [ 19.3148003, 53.8056984 ], [ 19.3052998, 53.7503014 ], [ 19.2245007, 53.6966019 ], [ 19.2231007, 53.6501007 ], [ 19.1364994, 53.6118011 ], [ 19.1438007, 53.5833015 ], [ 19.0949993, 53.5959015 ], [ 18.9428997, 53.5876999 ], [ 18.7577991, 53.6085014 ], [ 18.7303009, 53.6829987 ], [ 18.6949005, 53.6978989 ], [ 18.5555992, 53.6540985 ], [ 18.5093002, 53.6987991 ], [ 18.3820992, 53.6871986 ], [ 18.2633991, 53.7005005 ], [ 18.2728996, 53.7304001 ], [ 18.1508007, 53.7657013 ], [ 18.0636005, 53.7569008 ], [ 18.0111008, 53.722599 ], [ 17.8929005, 53.7542992 ], [ 17.8908005, 53.7125015 ], [ 17.8157997, 53.6857986 ], [ 17.7425995, 53.6901016 ], [ 17.6793995, 53.587101 ], [ 17.6054993, 53.5976982 ], [ 17.5247993, 53.5866013 ], [ 17.5107994, 53.6220016 ], [ 17.4213009, 53.5825996 ], [ 17.4216003, 53.536499 ], [ 17.3913002, 53.4892006 ], [ 17.3509007, 53.4915009 ], [ 17.2672005, 53.5359993 ], [ 17.1623993, 53.5257988 ], [ 17.0890999, 53.5407982 ], [ 17.0053005, 53.5161018 ], [ 16.9571991, 53.5471001 ], [ 16.8985004, 53.6200981 ], [ 16.8932991, 53.6562004 ], [ 16.8579998, 53.7457008 ], [ 16.9330997, 53.7783012 ], [ 16.8724003, 53.8665009 ], [ 16.9608994, 53.8736 ], [ 16.9799995, 53.8969002 ], [ 16.8761997, 53.9436989 ], [ 16.8750992, 53.9751015 ], [ 16.8034, 53.9939995 ], [ 16.7842007, 54.0236015 ], [ 16.8146992, 54.0567017 ], [ 16.7891998, 54.1203003 ], [ 16.7150993, 54.2126999 ], [ 16.7308998, 54.2330017 ], [ 16.8542004, 54.2602997 ], [ 16.8651009, 54.2826996 ], [ 16.8069, 54.3647995 ], [ 16.8442993, 54.4449005 ], [ 16.7791004, 54.4846001 ], [ 16.7277345, 54.5661499 ], [ 16.8784809, 54.5900307 ], [ 16.9884949, 54.6289063 ], [ 17.0488625, 54.6674652 ], [ 17.278883, 54.7405167 ], [ 17.6169796, 54.7743416 ], [ 17.8873959, 54.8220139 ], [ 17.9808788, 54.8333511 ], [ 18.3135605, 54.8383484 ], [ 18.6285686, 54.7295189 ], [ 18.7314796, 54.6836624 ], [ 18.8259697, 54.6167107 ], [ 18.8081398, 54.5941162 ], [ 18.703989, 54.6823845 ], [ 18.6303272, 54.714241 ], [ 18.436533, 54.7762718 ], [ 18.3945541, 54.743721 ], [ 18.4700699, 54.6925926 ], [ 18.4679184, 54.6555634 ], [ 18.518795, 54.639679 ], [ 18.5740185, 54.4428024 ], [ 18.7240677, 54.3778915 ], [ 18.868988, 54.3476677 ], [ 18.9385033, 54.3556366 ], [ 19.0125561, 54.3440514 ], [ 19.2291412, 54.354641 ], [ 19.3861313, 54.3786621 ], [ 19.5149899, 54.4095993 ], [ 19.638155, 54.4602509 ] ] ] ] } },
{ "type": "Feature", "properties": { "POLYGON_ID": "POL_GAUL2011_ADM1_2381", "ADM0_ISO3": "POL", "ADM0_NAME": "Poland", "ADM0_CODE": 198, "ADM1_NAME": "Slaskie", "ADM1_CODE": 2381, "GEOSET": "GAUL", "GEOSET_YEAR": 2011.0, "GEOSET_VERSION": "GAUL_v1", "GEOSET_UNIT": "ADM1", "CENTROID_LONG": 18.99937871583807, "CENTROID_LAT": 50.332210086844405 }, "geometry": { "type": "MultiPolygon", "coordinates": [ [ [ [ 19.7516003, 50.8623009 ], [ 19.8115005, 50.8455009 ], [ 19.8064995, 50.8148994 ], [ 19.7332001, 50.7419014 ], [ 19.8808994, 50.6903992 ], [ 19.9127007, 50.6207008 ], [ 19.8638, 50.6206017 ], [ 19.7879009, 50.553299 ], [ 19.9011993, 50.5382004 ], [ 19.9500999, 50.5036011 ], [ 19.9668007, 50.4746017 ], [ 19.8257008, 50.4387016 ], [ 19.7161007, 50.4441986 ], [ 19.6602993, 50.4133987 ], [ 19.5013008, 50.4001007 ], [ 19.4927998, 50.3230019 ], [ 19.3623009, 50.3167992 ], [ 19.3299999, 50.2588997 ], [ 19.4316006, 50.2262993 ], [ 19.4204006, 50.2038994 ], [ 19.3479004, 50.1860008 ], [ 19.3444004, 50.1461983 ], [ 19.25, 50.1307983 ], [ 19.2063999, 50.0612984 ], [ 19.1686993, 50.0592003 ], [ 19.1184006, 50.0088005 ], [ 19.1047993, 49.9416008 ], [ 19.2143993, 49.9435997 ], [ 19.1968002, 49.8661995 ], [ 19.2868004, 49.8698998 ], [ 19.3015003, 49.8166008 ], [ 19.3316994, 49.7858009 ], [ 19.4587994, 49.7613983 ], [ 19.4617004, 49.7392006 ], [ 19.3890991, 49.6996002 ], [ 19.4839001, 49.6673012 ], [ 19.4622618, 49.6028965 ], [ 19.38198, 49.57358 ], [ 19.37217, 49.54361 ], [ 19.27064, 49.53582 ], [ 19.23883, 49.51215 ], [ 19.22599, 49.45294 ], [ 19.1999, 49.4169 ], [ 19.12837, 49.40351 ], [ 19.09357, 49.41736 ], [ 19.02999, 49.3953 ], [ 18.98109, 49.39882 ], [ 18.96822, 49.50985 ], [ 18.847068, 49.5258593 ], [ 18.80825, 49.67703 ], [ 18.74131, 49.67931 ], [ 18.71258, 49.70254 ], [ 18.63246, 49.71726 ], [ 18.61519, 49.77557 ], [ 18.57419, 49.83433 ], [ 18.5816892, 49.9096814 ], [ 18.49824, 49.90252 ], [ 18.41595, 49.93317 ], [ 18.36398, 49.93678 ], [ 18.31844, 49.91717 ], [ 18.2750896, 49.9622301 ], [ 18.16124, 49.98282 ], [ 18.10341, 50.02538 ], [ 18.0241207, 50.05886 ], [ 18.0557003, 50.0848007 ], [ 18.0622997, 50.1693001 ], [ 18.2492008, 50.1911011 ], [ 18.2520008, 50.221199 ], [ 18.4207993, 50.2588997 ], [ 18.3997993, 50.2751999 ], [ 18.3955994, 50.3361015 ], [ 18.3581009, 50.3546982 ], [ 18.3941002, 50.3866005 ], [ 18.3798008, 50.4828987 ], [ 18.4475002, 50.4978981 ], [ 18.4367008, 50.5444984 ], [ 18.5580006, 50.5395012 ], [ 18.6068993, 50.5516014 ], [ 18.6012993, 50.6032982 ], [ 18.5340004, 50.6218987 ], [ 18.4909, 50.7025986 ], [ 18.5811005, 50.7491989 ], [ 18.5284996, 50.7905998 ], [ 18.5746002, 50.8389015 ], [ 18.6257992, 50.8638992 ], [ 18.6457005, 50.9263 ], [ 18.6208992, 50.9628983 ], [ 18.6569004, 50.9765015 ], [ 18.6655998, 51.0536003 ], [ 18.8609009, 51.0723991 ], [ 18.9501991, 51.1007004 ], [ 19.1282997, 51.0140991 ], [ 19.2275009, 50.9872017 ], [ 19.2598, 51.0321999 ], [ 19.4237003, 50.9818001 ], [ 19.4817009, 50.9416008 ], [ 19.4906998, 50.8945007 ], [ 19.5825005, 50.9084015 ], [ 19.6685009, 50.8834 ], [ 19.7071991, 50.8471985 ], [ 19.7516003, 50.8623009 ] ] ] ] } },
{ "type": "Feature", "properties": { "POLYGON_ID": "POL_GAUL2011_ADM1_2382", "ADM0_ISO3": "POL", "ADM0_NAME": "Poland", "ADM0_CODE": 198, "ADM1_NAME": "Swietokrzyskie", "ADM1_CODE": 2382, "GEOSET": "GAUL", "GEOSET_YEAR": 2011.0, "GEOSET_VERSION": "GAUL_v1", "GEOSET_UNIT": "ADM1", "CENTROID_LONG": 20.778768822921514, "CENTROID_LAT": 50.781758020522545 }, "geometry": { "type": "MultiPolygon", "coordinates": [ [ [ [ 21.8071003, 51.0662994 ], [ 21.802, 51.0271988 ], [ 21.8288994, 50.9762993 ], [ 21.8274002, 50.9364014 ], [ 21.8684998, 50.8089981 ], [ 21.8435993, 50.7360992 ], [ 21.7882004, 50.6399994 ], [ 21.7350006, 50.6405983 ], [ 21.6735992, 50.6072006 ], [ 21.6035004, 50.5186996 ], [ 21.5597992, 50.5199013 ], [ 21.4438, 50.4860001 ], [ 21.4470005, 50.4562988 ], [ 21.3446007, 50.4347 ], [ 21.2817993, 50.4070015 ], [ 21.2091007, 50.3540993 ], [ 21.1303005, 50.3532982 ], [ 21.0690994, 50.3199005 ], [ 20.9608002, 50.3154984 ], [ 20.8103008, 50.2868996 ], [ 20.7241993, 50.2886009 ], [ 20.7047997, 50.3103981 ], [ 20.5487995, 50.346199 ], [ 20.5048008, 50.3886986 ], [ 20.3712997, 50.3395004 ], [ 20.2733002, 50.4325981 ], [ 20.2740994, 50.4646988 ], [ 20.2033005, 50.4911995 ], [ 20.1627007, 50.4841003 ], [ 20.0417004, 50.4992981 ], [ 19.9880009, 50.5181007 ], [ 19.9500999, 50.5036011 ], [ 19.9011993, 50.5382004 ], [ 19.7879009, 50.553299 ], [ 19.8638, 50.6206017 ], [ 19.9127007, 50.6207008 ], [ 19.8808994, 50.6903992 ], [ 19.7332001, 50.7419014 ], [ 19.8064995, 50.8148994 ], [ 19.8115005, 50.8455009 ], [ 19.7516003, 50.8623009 ], [ 19.8383007, 50.9159012 ], [ 19.8330994, 50.9855003 ], [ 19.8677998, 51.0484009 ], [ 19.9608002, 51.0126991 ], [ 20.0233002, 50.9682007 ], [ 20.0473995, 51.0102997 ], [ 20.0447998, 51.0746994 ], [ 19.9979992, 51.0764999 ], [ 19.9887009, 51.1473007 ], [ 20.0263004, 51.1674004 ], [ 20.0063, 51.2008018 ], [ 20.1947994, 51.1953011 ], [ 20.2514992, 51.2055016 ], [ 20.2555008, 51.2332001 ], [ 20.3927002, 51.2682991 ], [ 20.3686008, 51.3017998 ], [ 20.4284992, 51.3501015 ], [ 20.5132008, 51.3428001 ], [ 20.5547009, 51.2341995 ], [ 20.6215, 51.2284012 ], [ 20.7189007, 51.1711006 ], [ 20.8250999, 51.1409988 ], [ 20.8785992, 51.1520004 ], [ 20.9983006, 51.144001 ], [ 21.0907002, 51.1533012 ], [ 21.1534004, 51.1231003 ], [ 21.1527004, 51.0797997 ], [ 21.3518009, 51.0844002 ], [ 21.3829994, 51.0397987 ], [ 21.4626999, 51.0121002 ], [ 21.6390991, 51.0750999 ], [ 21.6767006, 51.0751991 ], [ 21.7085991, 51.0393982 ], [ 21.7525005, 51.0371017 ], [ 21.8071003, 51.0662994 ] ] ] ] } },
{ "type": "Feature", "properties": { "POLYGON_ID": "POL_GAUL2011_ADM1_2383", "ADM0_ISO3": "POL", "ADM0_NAME": "Poland", "ADM0_CODE": 198, "ADM1_NAME": "Warminsko-Mazurskie", "ADM1_CODE": 2383, "GEOSET": "GAUL", "GEOSET_YEAR": 2011.0, "GEOSET_VERSION": "GAUL_v1", "GEOSET_UNIT": "ADM1", "CENTROID_LONG": 20.843610369128971, "CENTROID_LAT": 53.85403500881533 }, "geometry": { "type": "MultiPolygon", "coordinates": [ [ [ [ 22.7875411, 54.3651911 ], [ 22.8080006, 54.3414001 ], [ 22.7863007, 54.296299 ], [ 22.7015991, 54.2742996 ], [ 22.5228996, 54.2439995 ], [ 22.507, 54.1910019 ], [ 22.5506992, 54.1447983 ], [ 22.5974998, 54.148201 ], [ 22.6345005, 54.1085014 ], [ 22.6159992, 54.0578995 ], [ 22.6716995, 54.0373001 ], [ 22.7087002, 53.9894981 ], [ 22.7800999, 53.9319 ], [ 22.7982006, 53.8788986 ], [ 22.7317009, 53.8265991 ], [ 22.6977005, 53.7601013 ], [ 22.6375008, 53.7462006 ], [ 22.5146008, 53.6977005 ], [ 22.469101, 53.6976013 ], [ 22.281601, 53.6202011 ], [ 22.1945, 53.5647011 ], [ 22.0559006, 53.5217018 ], [ 21.9326, 53.5091019 ], [ 21.8621998, 53.4566002 ], [ 21.6882, 53.4914017 ], [ 21.5983009, 53.4791985 ], [ 21.4508991, 53.4640999 ], [ 21.4431, 53.4397011 ], [ 21.3619995, 53.4201012 ], [ 21.3006001, 53.4327011 ], [ 21.2451992, 53.421299 ], [ 21.0538998, 53.3338013 ], [ 20.9974995, 53.3620987 ], [ 20.9377995, 53.3588982 ], [ 20.9057007, 53.3111992 ], [ 20.8474998, 53.2914009 ], [ 20.7467995, 53.3135986 ], [ 20.6928005, 53.3003998 ], [ 20.6567993, 53.2494011 ], [ 20.5317993, 53.2304993 ], [ 20.4748001, 53.2327995 ], [ 20.3771, 53.2072983 ], [ 20.3878994, 53.1610985 ], [ 20.3243008, 53.1374016 ], [ 20.2532005, 53.1390991 ], [ 20.1161003, 53.1626015 ], [ 19.9794006, 53.1467018 ], [ 19.9188004, 53.1694984 ], [ 19.9032993, 53.2146988 ], [ 19.8348999, 53.1801987 ], [ 19.8281002, 53.1422005 ], [ 19.7616997, 53.1507988 ], [ 19.7411003, 53.2257996 ], [ 19.6895008, 53.2328987 ], [ 19.7241001, 53.2826996 ], [ 19.6893997, 53.3429985 ], [ 19.6375999, 53.3507996 ], [ 19.5361996, 53.3377991 ], [ 19.5128002, 53.3740997 ], [ 19.4269009, 53.3877983 ], [ 19.3880997, 53.4163017 ], [ 19.3176994, 53.4124985 ], [ 19.2677002, 53.4319992 ], [ 19.1998005, 53.5676994 ], [ 19.1438007, 53.5833015 ], [ 19.1364994, 53.6118011 ], [ 19.2231007, 53.6501007 ], [ 19.2245007, 53.6966019 ], [ 19.3052998, 53.7503014 ], [ 19.3148003, 53.8056984 ], [ 19.3540001, 53.8213997 ], [ 19.4466991, 53.8072014 ], [ 19.5170002, 53.8445015 ], [ 19.5799999, 53.9258003 ], [ 19.5681992, 53.9556007 ], [ 19.4960003, 53.9547997 ], [ 19.4122009, 53.9365997 ], [ 19.3880005, 53.9499016 ], [ 19.4144993, 53.9970016 ], [ 19.3276005, 54.0234985 ], [ 19.2956009, 54.0489998 ], [ 19.2227001, 54.0685005 ], [ 19.2703991, 54.1446991 ], [ 19.2514, 54.1741982 ], [ 19.3178005, 54.1987 ], [ 19.3169994, 54.2280998 ], [ 19.2644257, 54.2753877 ], [ 19.291912, 54.2847023 ], [ 19.3930435, 54.2664604 ], [ 19.5072556, 54.326107 ], [ 19.6592007, 54.3532181 ], [ 19.7860567, 54.4367217 ], [ 20.21949, 54.40796 ], [ 20.5405, 54.3718 ], [ 20.72408, 54.35904 ], [ 21.04787, 54.34595 ], [ 21.47147, 54.3207 ], [ 21.70965, 54.32891 ], [ 22.10413, 54.33593 ], [ 22.28497, 54.34501 ], [ 22.57127, 54.35108 ], [ 22.7875411, 54.3651911 ] ] ] ] } },
{ "type": "Feature", "properties": { "POLYGON_ID": "POL_GAUL2011_ADM1_2384", "ADM0_ISO3": "POL", "ADM0_NAME": "Poland", "ADM0_CODE": 198, "ADM1_NAME": "Wielkopolskie", "ADM1_CODE": 2384, "GEOSET": "GAUL", "GEOSET_YEAR": 2011.0, "GEOSET_VERSION": "GAUL_v1", "GEOSET_UNIT": "ADM1", "CENTROID_LONG": 17.245091285449174, "CENTROID_LAT": 52.328215709713746 }, "geometry": { "type": "MultiPolygon", "coordinates": [ [ [ [ 17.3913002, 53.4892006 ], [ 17.3827991, 53.4687996 ], [ 17.2493992, 53.3801994 ], [ 17.2649994, 53.3521996 ], [ 17.3379993, 53.3460999 ], [ 17.3969994, 53.2854996 ], [ 17.4044991, 53.2247009 ], [ 17.3311005, 53.2168999 ], [ 17.3631001, 53.089901 ], [ 17.3248005, 53.0732994 ], [ 17.3318005, 53.0172005 ], [ 17.3173008, 52.9737015 ], [ 17.3960991, 52.9827003 ], [ 17.4678001, 52.9478989 ], [ 17.5184002, 52.8959007 ], [ 17.5202007, 52.825901 ], [ 17.4979992, 52.7848015 ], [ 17.4162998, 52.7840004 ], [ 17.4095001, 52.7570992 ], [ 17.4866009, 52.728199 ], [ 17.4715004, 52.6811981 ], [ 17.6315994, 52.709301 ], [ 17.6439991, 52.6441002 ], [ 17.6783009, 52.6016998 ], [ 17.7488003, 52.6334 ], [ 17.7632008, 52.6575012 ], [ 17.8796997, 52.6400986 ], [ 18.0032997, 52.5545006 ], [ 18.0953999, 52.551899 ], [ 18.0925999, 52.5183983 ], [ 18.1956005, 52.5037994 ], [ 18.2607002, 52.4799995 ], [ 18.3827, 52.5348015 ], [ 18.3824997, 52.4735985 ], [ 18.4985008, 52.5001984 ], [ 18.5688992, 52.4627991 ], [ 18.6490002, 52.4491997 ], [ 18.6805992, 52.3986015 ], [ 18.7105999, 52.3993988 ], [ 18.7516994, 52.3401985 ], [ 18.8362007, 52.3420982 ], [ 18.9134007, 52.3664017 ], [ 18.9398994, 52.3911018 ], [ 19.0049992, 52.3406982 ], [ 19.0466003, 52.3319016 ], [ 19.0527992, 52.273201 ], [ 19.1000996, 52.2655983 ], [ 19.0478992, 52.2193985 ], [ 18.9934006, 52.2224007 ], [ 18.9193001, 52.198101 ], [ 18.9090996, 52.1576004 ], [ 18.9438, 52.1193008 ], [ 18.9284992, 52.092701 ], [ 18.8710995, 52.0923996 ], [ 18.7094002, 52.0460014 ], [ 18.7579994, 51.9177017 ], [ 18.6975002, 51.8642006 ], [ 18.6884003, 51.8237991 ], [ 18.5942993, 51.8455009 ], [ 18.4403, 51.8247986 ], [ 18.4118996, 51.7052994 ], [ 18.3652, 51.6809006 ], [ 18.3827991, 51.4814987 ], [ 18.3262997, 51.4185982 ], [ 18.2376995, 51.450901 ], [ 18.1984005, 51.3905983 ], [ 18.1508007, 51.3897018 ], [ 18.1130009, 51.3144989 ], [ 18.1142006, 51.2653008 ], [ 18.1846008, 51.2667007 ], [ 18.1868992, 51.2286987 ], [ 18.1601009, 51.174099 ], [ 18.0046997, 51.1221008 ], [ 17.9410992, 51.1081009 ], [ 17.8290005, 51.1185989 ], [ 17.8518009, 51.1710014 ], [ 17.8006992, 51.1907005 ], [ 17.7474995, 51.2448998 ], [ 17.7630997, 51.3012009 ], [ 17.7175007, 51.3652992 ], [ 17.75, 51.3914986 ], [ 17.6523991, 51.4165993 ], [ 17.5482006, 51.402401 ], [ 17.5146008, 51.5008011 ], [ 17.5799007, 51.5362015 ], [ 17.5566998, 51.5821991 ], [ 17.4689007, 51.6245995 ], [ 17.3288002, 51.6459999 ], [ 17.2446995, 51.6389008 ], [ 17.2073994, 51.6096992 ], [ 17.2136993, 51.5723 ], [ 16.9787998, 51.5443001 ], [ 16.9279995, 51.5513 ], [ 16.8896999, 51.5796013 ], [ 16.8332996, 51.5820999 ], [ 16.7693996, 51.6441994 ], [ 16.6713009, 51.649601 ], [ 16.6375008, 51.6776009 ], [ 16.6622009, 51.7084999 ], [ 16.6310005, 51.7456017 ], [ 16.5524998, 51.7812004 ], [ 16.4207001, 51.7831001 ], [ 16.3845005, 51.8496017 ], [ 16.3421993, 51.8744011 ], [ 16.2460003, 51.9043007 ], [ 16.2192993, 51.8751984 ], [ 16.1103001, 51.9034004 ], [ 16.1371002, 51.9258995 ], [ 16.1221008, 51.9902 ], [ 16.0529995, 51.9707985 ], [ 15.9605999, 52.0166016 ], [ 15.9904003, 52.0560989 ], [ 15.9428997, 52.0814018 ], [ 15.8704996, 52.0844002 ], [ 15.8511, 52.1218987 ], [ 15.8803997, 52.1390991 ], [ 15.8571997, 52.2598991 ], [ 15.8982, 52.3279991 ], [ 15.9042997, 52.3916016 ], [ 15.8563995, 52.4296989 ], [ 15.9015999, 52.4425011 ], [ 15.8528004, 52.5494003 ], [ 15.7854996, 52.6063004 ], [ 15.8214998, 52.6833992 ], [ 15.8065004, 52.7103996 ], [ 15.9024, 52.7182999 ], [ 15.9489002, 52.7419014 ], [ 15.8935003, 52.8103981 ], [ 15.9745998, 52.8569984 ], [ 15.9785995, 52.9325981 ], [ 15.9510002, 52.9914017 ], [ 15.9617004, 53.0396996 ], [ 16.1305008, 53.0078011 ], [ 16.1865997, 53.0313988 ], [ 16.3024006, 53.0513992 ], [ 16.3624992, 53.0900993 ], [ 16.3430004, 53.1245003 ], [ 16.3820992, 53.1609001 ], [ 16.5111008, 53.1828995 ], [ 16.5508995, 53.223999 ], [ 16.7059994, 53.3087997 ], [ 16.6341, 53.3553009 ], [ 16.5580997, 53.3678017 ], [ 16.4598999, 53.4356003 ], [ 16.4911003, 53.4693985 ], [ 16.6459007, 53.4836998 ], [ 16.7458992, 53.5749016 ], [ 16.7546997, 53.6218987 ], [ 16.8428993, 53.6244011 ], [ 16.8932991, 53.6562004 ], [ 16.8985004, 53.6200981 ], [ 16.9571991, 53.5471001 ], [ 17.0053005, 53.5161018 ], [ 17.0890999, 53.5407982 ], [ 17.1623993, 53.5257988 ], [ 17.2672005, 53.5359993 ], [ 17.3509007, 53.4915009 ], [ 17.3913002, 53.4892006 ] ] ] ] } },
{ "type": "Feature", "properties": { "POLYGON_ID": "POL_GAUL2011_ADM1_2385", "ADM0_ISO3": "POL", "ADM0_NAME": "Poland", "ADM0_CODE": 198, "ADM1_NAME": "Zachodnio-Pomorskie", "ADM1_CODE": 2385, "GEOSET": "GAUL", "GEOSET_YEAR": 2011.0, "GEOSET_VERSION": "GAUL_v1", "GEOSET_UNIT": "ADM1", "CENTROID_LONG": 15.563826720354454, "CENTROID_LAT": 53.580192092153453 }, "geometry": { "type": "MultiPolygon", "coordinates": [ [ [ [ 16.8932991, 53.6562004 ], [ 16.8428993, 53.6244011 ], [ 16.7546997, 53.6218987 ], [ 16.7458992, 53.5749016 ], [ 16.6459007, 53.4836998 ], [ 16.4911003, 53.4693985 ], [ 16.4598999, 53.4356003 ], [ 16.5580997, 53.3678017 ], [ 16.6341, 53.3553009 ], [ 16.7059994, 53.3087997 ], [ 16.5508995, 53.223999 ], [ 16.5111008, 53.1828995 ], [ 16.3820992, 53.1609001 ], [ 16.3430004, 53.1245003 ], [ 16.3624992, 53.0900993 ], [ 16.3024006, 53.0513992 ], [ 16.1865997, 53.0313988 ], [ 16.1305008, 53.0078011 ], [ 15.9617004, 53.0396996 ], [ 15.9947004, 53.0901985 ], [ 15.9043999, 53.1245995 ], [ 15.8094997, 53.0847015 ], [ 15.8038998, 53.0433006 ], [ 15.6472998, 52.9830017 ], [ 15.5539999, 53.0144997 ], [ 15.4069996, 52.9816017 ], [ 15.3733997, 52.9524002 ], [ 15.2851, 52.9502983 ], [ 15.3261995, 52.8950005 ], [ 15.0746002, 52.8312988 ], [ 14.9982996, 52.8410988 ], [ 14.9097996, 52.8795013 ], [ 14.8534002, 52.8241005 ], [ 14.8605003, 52.785099 ], [ 14.7940998, 52.7514992 ], [ 14.7896996, 52.700901 ], [ 14.7272997, 52.6363983 ], [ 14.6529999, 52.6617012 ], [ 14.6036997, 52.6461983 ], [ 14.6006797, 52.6064722 ], [ 14.46244, 52.66366 ], [ 14.35097, 52.75392 ], [ 14.27829, 52.77594 ], [ 14.21384, 52.81807 ], [ 14.13801, 52.82663 ], [ 14.15946, 52.87586 ], [ 14.14345, 52.95748 ], [ 14.24681, 52.99824 ], [ 14.34235, 53.05206 ], [ 14.38631, 53.14582 ], [ 14.3784, 53.20169 ], [ 14.45072, 53.26357 ], [ 14.41511, 53.28327 ], [ 14.40731, 53.33523 ], [ 14.34663, 53.4966 ], [ 14.30422, 53.55182 ], [ 14.31558, 53.60419 ], [ 14.28449, 53.63411 ], [ 14.2686586, 53.6965179 ], [ 14.3042765, 53.739975 ], [ 14.3919582, 53.682373 ], [ 14.4730597, 53.671299 ], [ 14.5896215, 53.6195107 ], [ 14.6179256, 53.6477966 ], [ 14.54527, 53.6710739 ], [ 14.5569372, 53.7549019 ], [ 14.6142521, 53.7698479 ], [ 14.6046429, 53.8212509 ], [ 14.6173506, 53.8343086 ], [ 14.6370926, 53.8798409 ], [ 14.6949444, 53.923912 ], [ 14.7576208, 53.9327126 ], [ 14.7608719, 53.9917984 ], [ 14.8015471, 54.0321236 ], [ 15.0640526, 54.0969887 ], [ 15.3043518, 54.1500053 ], [ 15.4853125, 54.1663132 ], [ 15.7088842, 54.2073593 ], [ 15.8545895, 54.2434349 ], [ 16.0, 54.2522621 ], [ 16.1563149, 54.2865105 ], [ 16.2314224, 54.3221779 ], [ 16.3281746, 54.3442764 ], [ 16.3156109, 54.3724327 ], [ 16.361412, 54.4265289 ], [ 16.4610329, 54.5071068 ], [ 16.6243496, 54.5622063 ], [ 16.7277345, 54.5661499 ], [ 16.7791004, 54.4846001 ], [ 16.8442993, 54.4449005 ], [ 16.8069, 54.3647995 ], [ 16.8651009, 54.2826996 ], [ 16.8542004, 54.2602997 ], [ 16.7308998, 54.2330017 ], [ 16.7150993, 54.2126999 ], [ 16.7891998, 54.1203003 ], [ 16.8146992, 54.0567017 ], [ 16.7842007, 54.0236015 ], [ 16.8034, 53.9939995 ], [ 16.8750992, 53.9751015 ], [ 16.8761997, 53.9436989 ], [ 16.9799995, 53.8969002 ], [ 16.9608994, 53.8736 ], [ 16.8724003, 53.8665009 ], [ 16.9330997, 53.7783012 ], [ 16.8579998, 53.7457008 ], [ 16.8932991, 53.6562004 ] ] ], [ [ [ 14.2128792, 53.8647842 ], [ 14.19649, 53.91019 ], [ 14.2243643, 53.9265369 ], [ 14.3435965, 53.9084587 ], [ 14.3988972, 53.9158211 ], [ 14.5037127, 53.9648514 ], [ 14.6842642, 54.0091743 ], [ 14.692296, 53.9390221 ], [ 14.6361284, 53.8957596 ], [ 14.6147957, 53.861969 ], [ 14.6131496, 53.8317375 ], [ 14.5324116, 53.8571129 ], [ 14.3867159, 53.8669586 ], [ 14.3400278, 53.8112755 ], [ 14.2751455, 53.8258438 ], [ 14.2128792, 53.8647842 ] ] ] ] } }
]
}
