{
"type": "FeatureCollection",
"name": "PRI_GAUL2009_ADM0",
"crs": { "type": "name", "properties": { "name": "urn:ogc:def:crs:OGC:1.3:CRS84" } },
"features": [
{ "type": "Feature", "properties": { "POLYGON_ID": "PRI_GAUL2009_ADM0_200", "ADM0_ISO3": "PRI", "ADM0_NAME": "Puerto Rico", "ADM0_CODE": 200, "GEOSET": "GAUL", "GEOSET_YEAR": 2009.0, "GEOSET_VERSION": "GAUL_v1", "GEOSET_UNIT": "ADM0", "CENTROID_LONG": -66.467510113476692, "CENTROID_LAT": 18.22290461971517 }, "geometry": { "type": "MultiPolygon", "coordinates": [ [ [ [ -65.3378232, 18.3493806 ], [ -65.3182219, 18.3287126 ], [ -65.2779094, 18.33232 ], [ -65.2523158, 18.3184737 ], [ -65.2565542, 18.2953178 ], [ -65.2895529, 18.2826527 ], [ -65.3378232, 18.3493806 ] ] ], [ [ [ -65.3985128, 18.1628368 ], [ -65.2750196, 18.1345026 ], [ -65.3298826, 18.1220958 ], [ -65.3605912, 18.1277045 ], [ -65.3820661, 18.112801 ], [ -65.4108622, 18.1122054 ], [ -65.4473231, 18.0890195 ], [ -65.4924357, 18.095677 ], [ -65.5243218, 18.0824189 ], [ -65.5695289, 18.0918832 ], [ -65.5764758, 18.1200944 ], [ -65.5455821, 18.1195391 ], [ -65.5016025, 18.1366118 ], [ -65.3985128, 18.1628368 ] ] ], [ [ [ -67.0798852, 18.5135676 ], [ -67.0144487, 18.5097646 ], [ -66.9851047, 18.4947126 ], [ -66.9018267, 18.4837836 ], [ -66.8505083, 18.4911805 ], [ -66.789897, 18.4927214 ], [ -66.7419833, 18.4743694 ], [ -66.6228944, 18.4942527 ], [ -66.5885389, 18.4848778 ], [ -66.5597472, 18.4898804 ], [ -66.481414, 18.4706945 ], [ -66.4502972, 18.4710694 ], [ -66.4371916, 18.4870194 ], [ -66.3787751, 18.4886251 ], [ -66.2864582, 18.4713944 ], [ -66.2689917, 18.4801028 ], [ -66.2403112, 18.4685362 ], [ -66.1860861, 18.4672833 ], [ -66.1643723, 18.45055 ], [ -66.1314266, 18.4443548 ], [ -66.0662055, 18.4575383 ], [ -66.0080628, 18.4443873 ], [ -65.9926532, 18.4600907 ], [ -65.9399667, 18.4467251 ], [ -65.9004611, 18.4528861 ], [ -65.8731028, 18.4372111 ], [ -65.8365674, 18.4325319 ], [ -65.8182888, 18.4120381 ], [ -65.7722229, 18.4023356 ], [ -65.7463807, 18.3822407 ], [ -65.7211637, 18.3896418 ], [ -65.7095181, 18.3727012 ], [ -65.6752398, 18.3633629 ], [ -65.6147588, 18.3839197 ], [ -65.6364171, 18.3459093 ], [ -65.6268286, 18.3310536 ], [ -65.634699, 18.2924855 ], [ -65.6115471, 18.2193874 ], [ -65.6347319, 18.2053471 ], [ -65.6623049, 18.2078366 ], [ -65.6943078, 18.184129 ], [ -65.7244983, 18.1881814 ], [ -65.7779174, 18.1287003 ], [ -65.7978321, 18.0650579 ], [ -65.8312893, 18.0505572 ], [ -65.830193, 18.0304553 ], [ -65.9143625, 17.9771078 ], [ -65.9767609, 17.9677905 ], [ -66.0176522, 17.9795172 ], [ -66.0431773, 17.9557254 ], [ -66.0817659, 17.966685 ], [ -66.1554417, 17.9295728 ], [ -66.2058641, 17.9629285 ], [ -66.2577743, 17.9356673 ], [ -66.2891862, 17.942483 ], [ -66.3236187, 17.9787693 ], [ -66.3691373, 17.9612672 ], [ -66.380789, 17.9416753 ], [ -66.4282035, 17.9593449 ], [ -66.4586275, 17.989516 ], [ -66.4923268, 17.9905577 ], [ -66.580363, 17.9615781 ], [ -66.6162581, 17.966851 ], [ -66.6237623, 17.982471 ], [ -66.6627069, 17.9689435 ], [ -66.7250972, 17.9920892 ], [ -66.7481411, 17.9894593 ], [ -66.7702447, 18.006142 ], [ -66.8055457, 17.9848558 ], [ -66.8072172, 17.9661609 ], [ -66.8393327, 17.9496912 ], [ -66.8537014, 17.9561227 ], [ -66.9307971, 17.9434297 ], [ -66.9548716, 17.9317316 ], [ -66.9829431, 17.9694941 ], [ -67.0157216, 17.9758826 ], [ -67.0744341, 17.9728496 ], [ -67.1002966, 17.9464656 ], [ -67.1830942, 17.9629671 ], [ -67.2068197, 17.9601177 ], [ -67.208426, 17.9973127 ], [ -67.1737659, 18.0122175 ], [ -67.2014174, 18.0334346 ], [ -67.1817256, 18.1110931 ], [ -67.1846376, 18.1658856 ], [ -67.154795, 18.1958809 ], [ -67.1591607, 18.2177303 ], [ -67.1973931, 18.29131 ], [ -67.2340428, 18.2991944 ], [ -67.2700393, 18.3660688 ], [ -67.2173131, 18.3818839 ], [ -67.1637636, 18.4121896 ], [ -67.1563916, 18.4384106 ], [ -67.1687102, 18.4781931 ], [ -67.1420796, 18.5055036 ], [ -67.0798852, 18.5135676 ] ] ], [ [ [ -67.8600398, 18.1208397 ], [ -67.8437006, 18.0946743 ], [ -67.8723372, 18.0581171 ], [ -67.8969223, 18.0530551 ], [ -67.9366759, 18.0791776 ], [ -67.9318763, 18.1136366 ], [ -67.8872986, 18.1128718 ], [ -67.8600398, 18.1208397 ] ] ] ] } }
]
}
