{
"type": "FeatureCollection",
"name": "PRI_GAUL2007_ADM2",
"crs": { "type": "name", "properties": { "name": "urn:ogc:def:crs:OGC:1.3:CRS84" } },
"features": [
{ "type": "Feature", "properties": { "POLYGON_ID": "PRI_GAUL2007_ADM2_40016", "ADM0_ISO3": "PRI", "ADM0_NAME": "Puerto Rico", "ADM0_CODE": 200, "ADM1_NAME": "Aguadilla", "ADM1_CODE": 2414, "ADM2_NAME": "Aguada Municipio", "ADM2_CODE": 40016, "GEOSET": "GAUL", "GEOSET_YEAR": 2007.0, "GEOSET_VERSION": "GAUL_v1", "GEOSET_UNIT": "ADM2", "CENTROID_LONG": -67.168796562622603, "CENTROID_LAT": 18.365437857318145 }, "geometry": { "type": "MultiPolygon", "coordinates": [ [ [ [ -67.1276321, 18.3930836 ], [ -67.1259003, 18.3214417 ], [ -67.1785736, 18.316412 ], [ -67.2334819, 18.3774919 ], [ -67.1564227, 18.4203515 ], [ -67.1276321, 18.3930836 ] ] ] ] } },
{ "type": "Feature", "properties": { "POLYGON_ID": "PRI_GAUL2007_ADM2_40017", "ADM0_ISO3": "PRI", "ADM0_NAME": "Puerto Rico", "ADM0_CODE": 200, "ADM1_NAME": "Aguadilla", "ADM1_CODE": 2414, "ADM2_NAME": "Aguadilla Municipio", "ADM2_CODE": 40017, "GEOSET": "GAUL", "GEOSET_YEAR": 2007.0, "GEOSET_VERSION": "GAUL_v1", "GEOSET_UNIT": "ADM2", "CENTROID_LONG": -67.116682837185138, "CENTROID_LAT": 18.460011431910509 }, "geometry": { "type": "MultiPolygon", "coordinates": [ [ [ [ -67.0511322, 18.4647751 ], [ -67.0936279, 18.4413013 ], [ -67.1276321, 18.3930836 ], [ -67.1564227, 18.4203515 ], [ -67.1687102, 18.4781931 ], [ -67.0919629, 18.5160111 ], [ -67.0511322, 18.4647751 ] ] ] ] } },
{ "type": "Feature", "properties": { "POLYGON_ID": "PRI_GAUL2007_ADM2_40018", "ADM0_ISO3": "PRI", "ADM0_NAME": "Puerto Rico", "ADM0_CODE": 200, "ADM1_NAME": "Aguadilla", "ADM1_CODE": 2414, "ADM2_NAME": "Anasco Municipio", "ADM2_CODE": 40018, "GEOSET": "GAUL", "GEOSET_YEAR": 2007.0, "GEOSET_VERSION": "GAUL_v1", "GEOSET_UNIT": "ADM2", "CENTROID_LONG": -67.125744317920976, "CENTROID_LAT": 18.287631063738953 }, "geometry": { "type": "MultiPolygon", "coordinates": [ [ [ [ -67.048645, 18.3100376 ], [ -67.033783, 18.2930202 ], [ -67.0780029, 18.2580433 ], [ -67.1195221, 18.2460194 ], [ -67.1891037, 18.2685924 ], [ -67.2232424, 18.2965431 ], [ -67.1785736, 18.316412 ], [ -67.1259003, 18.3214417 ], [ -67.048645, 18.3100376 ] ] ] ] } },
{ "type": "Feature", "properties": { "POLYGON_ID": "PRI_GAUL2007_ADM2_40019", "ADM0_ISO3": "PRI", "ADM0_NAME": "Puerto Rico", "ADM0_CODE": 200, "ADM1_NAME": "Aguadilla", "ADM1_CODE": 2414, "ADM2_NAME": "Camuy Municipio", "ADM2_CODE": 40019, "GEOSET": "GAUL", "GEOSET_YEAR": 2007.0, "GEOSET_VERSION": "GAUL_v1", "GEOSET_UNIT": "ADM2", "CENTROID_LONG": -66.854682499832251, "CENTROID_LAT": 18.41974438202444 }, "geometry": { "type": "MultiPolygon", "coordinates": [ [ [ [ -66.8333822, 18.4871662 ], [ -66.8060913, 18.3911552 ], [ -66.8198853, 18.347065 ], [ -66.8888474, 18.3711758 ], [ -66.8944015, 18.3701591 ], [ -66.8965473, 18.4852447 ], [ -66.8333822, 18.4871662 ] ] ] ] } },
{ "type": "Feature", "properties": { "POLYGON_ID": "PRI_GAUL2007_ADM2_40020", "ADM0_ISO3": "PRI", "ADM0_NAME": "Puerto Rico", "ADM0_CODE": 200, "ADM1_NAME": "Aguadilla", "ADM1_CODE": 2414, "ADM2_NAME": "Hatillo Municipio", "ADM2_CODE": 40020, "GEOSET": "GAUL", "GEOSET_YEAR": 2007.0, "GEOSET_VERSION": "GAUL_v1", "GEOSET_UNIT": "ADM2", "CENTROID_LONG": -66.791522692173487, "CENTROID_LAT": 18.410319668794241 }, "geometry": { "type": "MultiPolygon", "coordinates": [ [ [ [ -66.7613262, 18.4814526 ], [ -66.7662277, 18.3289642 ], [ -66.8221588, 18.326973 ], [ -66.8198853, 18.347065 ], [ -66.8060913, 18.3911552 ], [ -66.8333822, 18.4871662 ], [ -66.7613262, 18.4814526 ] ] ] ] } },
{ "type": "Feature", "properties": { "POLYGON_ID": "PRI_GAUL2007_ADM2_40021", "ADM0_ISO3": "PRI", "ADM0_NAME": "Puerto Rico", "ADM0_CODE": 200, "ADM1_NAME": "Aguadilla", "ADM1_CODE": 2414, "ADM2_NAME": "Isabela Municipio", "ADM2_CODE": 40021, "GEOSET": "GAUL", "GEOSET_YEAR": 2007.0, "GEOSET_VERSION": "GAUL_v1", "GEOSET_UNIT": "ADM2", "CENTROID_LONG": -66.997934068283797, "CENTROID_LAT": 18.447500818005192 }, "geometry": { "type": "MultiPolygon", "coordinates": [ [ [ [ -66.951301, 18.4910611 ], [ -66.9617462, 18.4539318 ], [ -66.9176025, 18.3971291 ], [ -66.9411469, 18.3791847 ], [ -67.0226288, 18.3973141 ], [ -67.0511322, 18.4647751 ], [ -67.0919629, 18.5160111 ], [ -66.951301, 18.4910611 ] ] ] ] } },
{ "type": "Feature", "properties": { "POLYGON_ID": "PRI_GAUL2007_ADM2_40022", "ADM0_ISO3": "PRI", "ADM0_NAME": "Puerto Rico", "ADM0_CODE": 200, "ADM1_NAME": "Aguadilla", "ADM1_CODE": 2414, "ADM2_NAME": "Lares Municipio", "ADM2_CODE": 40022, "GEOSET": "GAUL", "GEOSET_YEAR": 2007.0, "GEOSET_VERSION": "GAUL_v1", "GEOSET_UNIT": "ADM2", "CENTROID_LONG": -66.858356629037502, "CENTROID_LAT": 18.268724763430171 }, "geometry": { "type": "MultiPolygon", "coordinates": [ [ [ [ -66.8198853, 18.347065 ], [ -66.8221588, 18.326973 ], [ -66.8136826, 18.2338657 ], [ -66.8242035, 18.1744766 ], [ -66.8338928, 18.1738987 ], [ -66.8948669, 18.1909351 ], [ -66.9038162, 18.2568054 ], [ -66.8888474, 18.3711758 ], [ -66.8198853, 18.347065 ] ] ] ] } },
{ "type": "Feature", "properties": { "POLYGON_ID": "PRI_GAUL2007_ADM2_40023", "ADM0_ISO3": "PRI", "ADM0_NAME": "Puerto Rico", "ADM0_CODE": 200, "ADM1_NAME": "Aguadilla", "ADM1_CODE": 2414, "ADM2_NAME": "Las Marias Municipio", "ADM2_CODE": 40023, "GEOSET": "GAUL", "GEOSET_YEAR": 2007.0, "GEOSET_VERSION": "GAUL_v1", "GEOSET_UNIT": "ADM2", "CENTROID_LONG": -66.981992547308593, "CENTROID_LAT": 18.240911253945914 }, "geometry": { "type": "MultiPolygon", "coordinates": [ [ [ [ -66.9038162, 18.2568054 ], [ -66.8948669, 18.1909351 ], [ -66.9858932, 18.2085285 ], [ -67.0167847, 18.1985893 ], [ -67.0780029, 18.2580433 ], [ -67.033783, 18.2930202 ], [ -66.9038162, 18.2568054 ] ] ] ] } },
{ "type": "Feature", "properties": { "POLYGON_ID": "PRI_GAUL2007_ADM2_40024", "ADM0_ISO3": "PRI", "ADM0_NAME": "Puerto Rico", "ADM0_CODE": 200, "ADM1_NAME": "Aguadilla", "ADM1_CODE": 2414, "ADM2_NAME": "Maricao Municipio", "ADM2_CODE": 40024, "GEOSET": "GAUL", "GEOSET_YEAR": 2007.0, "GEOSET_VERSION": "GAUL_v1", "GEOSET_UNIT": "ADM2", "CENTROID_LONG": -66.941200474156858, "CENTROID_LAT": 18.174327273552823 }, "geometry": { "type": "MultiPolygon", "coordinates": [ [ [ [ -66.8948669, 18.1909351 ], [ -66.8338928, 18.1738987 ], [ -66.8532104, 18.1426144 ], [ -66.9233856, 18.154274 ], [ -66.9750595, 18.1469784 ], [ -67.0485611, 18.1771526 ], [ -67.0167847, 18.1985893 ], [ -66.9858932, 18.2085285 ], [ -66.8948669, 18.1909351 ] ] ] ] } },
{ "type": "Feature", "properties": { "POLYGON_ID": "PRI_GAUL2007_ADM2_40025", "ADM0_ISO3": "PRI", "ADM0_NAME": "Puerto Rico", "ADM0_CODE": 200, "ADM1_NAME": "Aguadilla", "ADM1_CODE": 2414, "ADM2_NAME": "Moca Municipio", "ADM2_CODE": 40025, "GEOSET": "GAUL", "GEOSET_YEAR": 2007.0, "GEOSET_VERSION": "GAUL_v1", "GEOSET_UNIT": "ADM2", "CENTROID_LONG": -67.076137623877841, "CENTROID_LAT": 18.380491533379448 }, "geometry": { "type": "MultiPolygon", "coordinates": [ [ [ [ -67.0226288, 18.3973141 ], [ -67.048645, 18.3100376 ], [ -67.1259003, 18.3214417 ], [ -67.1276321, 18.3930836 ], [ -67.0936279, 18.4413013 ], [ -67.0511322, 18.4647751 ], [ -67.0226288, 18.3973141 ] ] ] ] } },
{ "type": "Feature", "properties": { "POLYGON_ID": "PRI_GAUL2007_ADM2_40026", "ADM0_ISO3": "PRI", "ADM0_NAME": "Puerto Rico", "ADM0_CODE": 200, "ADM1_NAME": "Aguadilla", "ADM1_CODE": 2414, "ADM2_NAME": "Quebradillas Municipio", "ADM2_CODE": 40026, "GEOSET": "GAUL", "GEOSET_YEAR": 2007.0, "GEOSET_VERSION": "GAUL_v1", "GEOSET_UNIT": "ADM2", "CENTROID_LONG": -66.921711797129973, "CENTROID_LAT": 18.444680609446294 }, "geometry": { "type": "MultiPolygon", "coordinates": [ [ [ [ -66.8965473, 18.4852447 ], [ -66.8944015, 18.3701591 ], [ -66.9176025, 18.3971291 ], [ -66.9617462, 18.4539318 ], [ -66.951301, 18.4910611 ], [ -66.8965473, 18.4852447 ] ] ] ] } },
{ "type": "Feature", "properties": { "POLYGON_ID": "PRI_GAUL2007_ADM2_40028", "ADM0_ISO3": "PRI", "ADM0_NAME": "Puerto Rico", "ADM0_CODE": 200, "ADM1_NAME": "Aguadilla", "ADM1_CODE": 2414, "ADM2_NAME": "San Sebastian Municipio", "ADM2_CODE": 40028, "GEOSET": "GAUL", "GEOSET_YEAR": 2007.0, "GEOSET_VERSION": "GAUL_v1", "GEOSET_UNIT": "ADM2", "CENTROID_LONG": -66.96401456820665, "CENTROID_LAT": 18.33081931803649 }, "geometry": { "type": "MultiPolygon", "coordinates": [ [ [ [ -66.9176025, 18.3971291 ], [ -66.8944015, 18.3701591 ], [ -66.8888474, 18.3711758 ], [ -66.9038162, 18.2568054 ], [ -67.033783, 18.2930202 ], [ -67.048645, 18.3100376 ], [ -67.0226288, 18.3973141 ], [ -66.9411469, 18.3791847 ], [ -66.9176025, 18.3971291 ] ] ] ] } },
{ "type": "Feature", "properties": { "POLYGON_ID": "PRI_GAUL2007_ADM2_40029", "ADM0_ISO3": "PRI", "ADM0_NAME": "Puerto Rico", "ADM0_CODE": 200, "ADM1_NAME": "Arecibo", "ADM1_CODE": 2415, "ADM2_NAME": "Arecibo Municipio", "ADM2_CODE": 40029, "GEOSET": "GAUL", "GEOSET_YEAR": 2007.0, "GEOSET_VERSION": "GAUL_v1", "GEOSET_UNIT": "ADM2", "CENTROID_LONG": -66.674279818937947, "CENTROID_LAT": 18.407302273676322 }, "geometry": { "type": "MultiPolygon", "coordinates": [ [ [ [ -66.5828868, 18.4843724 ], [ -66.5838318, 18.3939686 ], [ -66.5868301, 18.3419876 ], [ -66.6030273, 18.332304 ], [ -66.7135162, 18.3199024 ], [ -66.7662277, 18.3289642 ], [ -66.7613262, 18.4814526 ], [ -66.6228944, 18.4942527 ], [ -66.5828868, 18.4843724 ] ] ] ] } },
{ "type": "Feature", "properties": { "POLYGON_ID": "PRI_GAUL2007_ADM2_40030", "ADM0_ISO3": "PRI", "ADM0_NAME": "Puerto Rico", "ADM0_CODE": 200, "ADM1_NAME": "Arecibo", "ADM1_CODE": 2415, "ADM2_NAME": "Barceloneta Municipio", "ADM2_CODE": 40030, "GEOSET": "GAUL", "GEOSET_YEAR": 2007.0, "GEOSET_VERSION": "GAUL_v1", "GEOSET_UNIT": "ADM2", "CENTROID_LONG": -66.5613518285666, "CENTROID_LAT": 18.438500068675832 }, "geometry": { "type": "MultiPolygon", "coordinates": [ [ [ [ -66.5313437, 18.4623702 ], [ -66.532837, 18.4603631 ], [ -66.5328833, 18.4601699 ], [ -66.538353, 18.4089088 ], [ -66.5838318, 18.3939686 ], [ -66.5828868, 18.4843724 ], [ -66.5313437, 18.4623702 ] ] ] ] } },
{ "type": "Feature", "properties": { "POLYGON_ID": "PRI_GAUL2007_ADM2_40031", "ADM0_ISO3": "PRI", "ADM0_NAME": "Puerto Rico", "ADM0_CODE": 200, "ADM1_NAME": "Arecibo", "ADM1_CODE": 2415, "ADM2_NAME": "Ciales Municipio", "ADM2_CODE": 40031, "GEOSET": "GAUL", "GEOSET_YEAR": 2007.0, "GEOSET_VERSION": "GAUL_v1", "GEOSET_UNIT": "ADM2", "CENTROID_LONG": -66.512917440580793, "CENTROID_LAT": 18.294748776959668 }, "geometry": { "type": "MultiPolygon", "coordinates": [ [ [ [ -66.4591599, 18.3758469 ], [ -66.452446, 18.2616863 ], [ -66.5148468, 18.2340279 ], [ -66.5103226, 18.1695194 ], [ -66.540329, 18.1669178 ], [ -66.5301285, 18.2009354 ], [ -66.5632935, 18.3025055 ], [ -66.6030273, 18.332304 ], [ -66.5868301, 18.3419876 ], [ -66.529953, 18.3557835 ], [ -66.4591599, 18.3758469 ] ] ] ] } },
{ "type": "Feature", "properties": { "POLYGON_ID": "PRI_GAUL2007_ADM2_40032", "ADM0_ISO3": "PRI", "ADM0_NAME": "Puerto Rico", "ADM0_CODE": 200, "ADM1_NAME": "Arecibo", "ADM1_CODE": 2415, "ADM2_NAME": "Dorado Municipio", "ADM2_CODE": 40032, "GEOSET": "GAUL", "GEOSET_YEAR": 2007.0, "GEOSET_VERSION": "GAUL_v1", "GEOSET_UNIT": "ADM2", "CENTROID_LONG": -66.277864640258045, "CENTROID_LAT": 18.435206815950409 }, "geometry": { "type": "MultiPolygon", "coordinates": [ [ [ [ -66.21594, 18.4661386 ], [ -66.2539062, 18.4600143 ], [ -66.2486038, 18.3989048 ], [ -66.2999878, 18.3886509 ], [ -66.3109082, 18.47616 ], [ -66.21594, 18.4661386 ] ] ] ] } },
{ "type": "Feature", "properties": { "POLYGON_ID": "PRI_GAUL2007_ADM2_40033", "ADM0_ISO3": "PRI", "ADM0_NAME": "Puerto Rico", "ADM0_CODE": 200, "ADM1_NAME": "Arecibo", "ADM1_CODE": 2415, "ADM2_NAME": "Florida Municipio", "ADM2_CODE": 40033, "GEOSET": "GAUL", "GEOSET_YEAR": 2007.0, "GEOSET_VERSION": "GAUL_v1", "GEOSET_UNIT": "ADM2", "CENTROID_LONG": -66.559345275186161, "CENTROID_LAT": 18.374303147722564 }, "geometry": { "type": "MultiPolygon", "coordinates": [ [ [ [ -66.538353, 18.4089088 ], [ -66.529953, 18.3557835 ], [ -66.5868301, 18.3419876 ], [ -66.5838318, 18.3939686 ], [ -66.538353, 18.4089088 ] ] ] ] } },
{ "type": "Feature", "properties": { "POLYGON_ID": "PRI_GAUL2007_ADM2_40034", "ADM0_ISO3": "PRI", "ADM0_NAME": "Puerto Rico", "ADM0_CODE": 200, "ADM1_NAME": "Arecibo", "ADM1_CODE": 2415, "ADM2_NAME": "Manati Municipio", "ADM2_CODE": 40034, "GEOSET": "GAUL", "GEOSET_YEAR": 2007.0, "GEOSET_VERSION": "GAUL_v1", "GEOSET_UNIT": "ADM2", "CENTROID_LONG": -66.488039495940853, "CENTROID_LAT": 18.422711591696444 }, "geometry": { "type": "MultiPolygon", "coordinates": [ [ [ [ -66.4340652, 18.487325 ], [ -66.4401932, 18.3754845 ], [ -66.4591599, 18.3758469 ], [ -66.529953, 18.3557835 ], [ -66.538353, 18.4089088 ], [ -66.5328833, 18.4601699 ], [ -66.5310885, 18.4625823 ], [ -66.5293755, 18.4831298 ], [ -66.4502972, 18.4710694 ], [ -66.4340652, 18.487325 ] ] ] ] } },
{ "type": "Feature", "properties": { "POLYGON_ID": "PRI_GAUL2007_ADM2_40035", "ADM0_ISO3": "PRI", "ADM0_NAME": "Puerto Rico", "ADM0_CODE": 200, "ADM1_NAME": "Arecibo", "ADM1_CODE": 2415, "ADM2_NAME": "Morovis Municipio", "ADM2_CODE": 40035, "GEOSET": "GAUL", "GEOSET_YEAR": 2007.0, "GEOSET_VERSION": "GAUL_v1", "GEOSET_UNIT": "ADM2", "CENTROID_LONG": -66.418345873521986, "CENTROID_LAT": 18.323118230179261 }, "geometry": { "type": "MultiPolygon", "coordinates": [ [ [ [ -66.3736572, 18.3486366 ], [ -66.3616714, 18.3377094 ], [ -66.3747177, 18.2984581 ], [ -66.452446, 18.2616863 ], [ -66.4591599, 18.3758469 ], [ -66.4401932, 18.3754845 ], [ -66.3736572, 18.3486366 ] ] ] ] } },
{ "type": "Feature", "properties": { "POLYGON_ID": "PRI_GAUL2007_ADM2_40036", "ADM0_ISO3": "PRI", "ADM0_NAME": "Puerto Rico", "ADM0_CODE": 200, "ADM1_NAME": "Arecibo", "ADM1_CODE": 2415, "ADM2_NAME": "Utuado Municipio", "ADM2_CODE": 40036, "GEOSET": "GAUL", "GEOSET_YEAR": 2007.0, "GEOSET_VERSION": "GAUL_v1", "GEOSET_UNIT": "ADM2", "CENTROID_LONG": -66.699968290424522, "CENTROID_LAT": 18.270190897217102 }, "geometry": { "type": "MultiPolygon", "coordinates": [ [ [ [ -66.6030273, 18.332304 ], [ -66.5632935, 18.3025055 ], [ -66.6220016, 18.2509117 ], [ -66.6469421, 18.162262 ], [ -66.667717, 18.1563473 ], [ -66.6898956, 18.2207012 ], [ -66.8136826, 18.2338657 ], [ -66.8221588, 18.326973 ], [ -66.7662277, 18.3289642 ], [ -66.7135162, 18.3199024 ], [ -66.6030273, 18.332304 ] ] ] ] } },
{ "type": "Feature", "properties": { "POLYGON_ID": "PRI_GAUL2007_ADM2_40037", "ADM0_ISO3": "PRI", "ADM0_NAME": "Puerto Rico", "ADM0_CODE": 200, "ADM1_NAME": "Arecibo", "ADM1_CODE": 2415, "ADM2_NAME": "Vega Alta Municipio", "ADM2_CODE": 40037, "GEOSET": "GAUL", "GEOSET_YEAR": 2007.0, "GEOSET_VERSION": "GAUL_v1", "GEOSET_UNIT": "ADM2", "CENTROID_LONG": -66.335160148655689, "CENTROID_LAT": 18.410312624521335 }, "geometry": { "type": "MultiPolygon", "coordinates": [ [ [ [ -66.3109082, 18.47616 ], [ -66.2999878, 18.3886509 ], [ -66.3148499, 18.3718643 ], [ -66.3616714, 18.3377094 ], [ -66.3736572, 18.3486366 ], [ -66.3450397, 18.4819667 ], [ -66.3109082, 18.47616 ] ] ] ] } },
{ "type": "Feature", "properties": { "POLYGON_ID": "PRI_GAUL2007_ADM2_40038", "ADM0_ISO3": "PRI", "ADM0_NAME": "Puerto Rico", "ADM0_CODE": 200, "ADM1_NAME": "Arecibo", "ADM1_CODE": 2415, "ADM2_NAME": "Vega Baja Municipio", "ADM2_CODE": 40038, "GEOSET": "GAUL", "GEOSET_YEAR": 2007.0, "GEOSET_VERSION": "GAUL_v1", "GEOSET_UNIT": "ADM2", "CENTROID_LONG": -66.396544178886657, "CENTROID_LAT": 18.425556058661488 }, "geometry": { "type": "MultiPolygon", "coordinates": [ [ [ [ -66.3450397, 18.4819667 ], [ -66.3736572, 18.3486366 ], [ -66.4401932, 18.3754845 ], [ -66.4340652, 18.487325 ], [ -66.3450397, 18.4819667 ] ] ] ] } },
{ "type": "Feature", "properties": { "POLYGON_ID": "PRI_GAUL2007_ADM2_40039", "ADM0_ISO3": "PRI", "ADM0_NAME": "Puerto Rico", "ADM0_CODE": 200, "ADM1_NAME": "Bayamon", "ADM1_CODE": 2416, "ADM2_NAME": "Bayamon Municipio", "ADM2_CODE": 40039, "GEOSET": "GAUL", "GEOSET_YEAR": 2007.0, "GEOSET_VERSION": "GAUL_v1", "GEOSET_UNIT": "ADM2", "CENTROID_LONG": -66.1659336970326, "CENTROID_LAT": 18.349530724542202 }, "geometry": { "type": "MultiPolygon", "coordinates": [ [ [ [ -66.1277008, 18.4294014 ], [ -66.1409378, 18.2841263 ], [ -66.187706, 18.2629547 ], [ -66.203331, 18.2810593 ], [ -66.2022324, 18.3212051 ], [ -66.1931152, 18.393858 ], [ -66.1651459, 18.4359779 ], [ -66.1277008, 18.4294014 ] ] ] ] } },
{ "type": "Feature", "properties": { "POLYGON_ID": "PRI_GAUL2007_ADM2_40040", "ADM0_ISO3": "PRI", "ADM0_NAME": "Puerto Rico", "ADM0_CODE": 200, "ADM1_NAME": "Bayamon", "ADM1_CODE": 2416, "ADM2_NAME": "Canovanas Municipio", "ADM2_CODE": 40040, "GEOSET": "GAUL", "GEOSET_YEAR": 2007.0, "GEOSET_VERSION": "GAUL_v1", "GEOSET_UNIT": "ADM2", "CENTROID_LONG": -65.882755759069411, "CENTROID_LAT": 18.324885056329666 }, "geometry": { "type": "MultiPolygon", "coordinates": [ [ [ [ -65.8635941, 18.3837433 ], [ -65.8607941, 18.29883 ], [ -65.8336792, 18.2801838 ], [ -65.8500137, 18.2596378 ], [ -65.9136658, 18.2734966 ], [ -65.9047852, 18.3485241 ], [ -65.9155197, 18.4061031 ], [ -65.8635941, 18.3837433 ] ] ] ] } },
{ "type": "Feature", "properties": { "POLYGON_ID": "PRI_GAUL2007_ADM2_40041", "ADM0_ISO3": "PRI", "ADM0_NAME": "Puerto Rico", "ADM0_CODE": 200, "ADM1_NAME": "Bayamon", "ADM1_CODE": 2416, "ADM2_NAME": "Carolina Municipio", "ADM2_CODE": 40041, "GEOSET": "GAUL", "GEOSET_YEAR": 2007.0, "GEOSET_VERSION": "GAUL_v1", "GEOSET_UNIT": "ADM2", "CENTROID_LONG": -65.956566758792746, "CENTROID_LAT": 18.384016168681974 }, "geometry": { "type": "MultiPolygon", "coordinates": [ [ [ [ -65.9155197, 18.4061031 ], [ -65.9047852, 18.3485241 ], [ -65.9136658, 18.2734966 ], [ -65.9159622, 18.2749329 ], [ -65.9393616, 18.298336 ], [ -65.9956284, 18.3852425 ], [ -66.0372512, 18.4510202 ], [ -65.9898425, 18.4596691 ], [ -65.9332886, 18.4354496 ], [ -65.9155197, 18.4061031 ] ] ] ] } },
{ "type": "Feature", "properties": { "POLYGON_ID": "PRI_GAUL2007_ADM2_40042", "ADM0_ISO3": "PRI", "ADM0_NAME": "Puerto Rico", "ADM0_CODE": 200, "ADM1_NAME": "Bayamon", "ADM1_CODE": 2416, "ADM2_NAME": "Catano Municipio", "ADM2_CODE": 40042, "GEOSET": "GAUL", "GEOSET_YEAR": 2007.0, "GEOSET_VERSION": "GAUL_v1", "GEOSET_UNIT": "ADM2", "CENTROID_LONG": -66.137361821456139, "CENTROID_LAT": 18.443560384303225 }, "geometry": { "type": "MultiPolygon", "coordinates": [ [ [ [ -66.1118998, 18.4447834 ], [ -66.1143111, 18.4426963 ], [ -66.1156232, 18.4413455 ], [ -66.1277008, 18.4294014 ], [ -66.1651459, 18.4359779 ], [ -66.1391836, 18.4619602 ], [ -66.1118998, 18.4447834 ] ] ] ] } },
{ "type": "Feature", "properties": { "POLYGON_ID": "PRI_GAUL2007_ADM2_40043", "ADM0_ISO3": "PRI", "ADM0_NAME": "Puerto Rico", "ADM0_CODE": 200, "ADM1_NAME": "Bayamon", "ADM1_CODE": 2416, "ADM2_NAME": "Corozal Municipio", "ADM2_CODE": 40043, "GEOSET": "GAUL", "GEOSET_YEAR": 2007.0, "GEOSET_VERSION": "GAUL_v1", "GEOSET_UNIT": "ADM2", "CENTROID_LONG": -66.323852846882062, "CENTROID_LAT": 18.306485317043183 }, "geometry": { "type": "MultiPolygon", "coordinates": [ [ [ [ -66.3148499, 18.3718643 ], [ -66.2747574, 18.334301 ], [ -66.2842102, 18.2773933 ], [ -66.3101654, 18.2533798 ], [ -66.3480682, 18.2455463 ], [ -66.3747177, 18.2984581 ], [ -66.3616714, 18.3377094 ], [ -66.3148499, 18.3718643 ] ] ] ] } },
{ "type": "Feature", "properties": { "POLYGON_ID": "PRI_GAUL2007_ADM2_40044", "ADM0_ISO3": "PRI", "ADM0_NAME": "Puerto Rico", "ADM0_CODE": 200, "ADM1_NAME": "Bayamon", "ADM1_CODE": 2416, "ADM2_NAME": "Guaynabo Municipio", "ADM2_CODE": 40044, "GEOSET": "GAUL", "GEOSET_YEAR": 2007.0, "GEOSET_VERSION": "GAUL_v1", "GEOSET_UNIT": "ADM2", "CENTROID_LONG": -66.111918909564736, "CENTROID_LAT": 18.353725181824704 }, "geometry": { "type": "MultiPolygon", "coordinates": [ [ [ [ -66.1019506, 18.4310852 ], [ -66.0775299, 18.3019657 ], [ -66.1409378, 18.2841263 ], [ -66.1277008, 18.4294014 ], [ -66.1156232, 18.4413455 ], [ -66.1019506, 18.4310852 ] ] ] ] } },
{ "type": "Feature", "properties": { "POLYGON_ID": "PRI_GAUL2007_ADM2_40045", "ADM0_ISO3": "PRI", "ADM0_NAME": "Puerto Rico", "ADM0_CODE": 200, "ADM1_NAME": "Bayamon", "ADM1_CODE": 2416, "ADM2_NAME": "Naranjito Municipio", "ADM2_CODE": 40045, "GEOSET": "GAUL", "GEOSET_YEAR": 2007.0, "GEOSET_VERSION": "GAUL_v1", "GEOSET_UNIT": "ADM2", "CENTROID_LONG": -66.249568856074987, "CENTROID_LAT": 18.291432191300906 }, "geometry": { "type": "MultiPolygon", "coordinates": [ [ [ [ -66.2022324, 18.3212051 ], [ -66.203331, 18.2810593 ], [ -66.2635269, 18.2497616 ], [ -66.3101654, 18.2533798 ], [ -66.2842102, 18.2773933 ], [ -66.2747574, 18.334301 ], [ -66.2022324, 18.3212051 ] ] ] ] } },
{ "type": "Feature", "properties": { "POLYGON_ID": "PRI_GAUL2007_ADM2_40046", "ADM0_ISO3": "PRI", "ADM0_NAME": "Puerto Rico", "ADM0_CODE": 200, "ADM1_NAME": "Bayamon", "ADM1_CODE": 2416, "ADM2_NAME": "Toa Alta Municipio", "ADM2_CODE": 40046, "GEOSET": "GAUL", "GEOSET_YEAR": 2007.0, "GEOSET_VERSION": "GAUL_v1", "GEOSET_UNIT": "ADM2", "CENTROID_LONG": -66.246030855901708, "CENTROID_LAT": 18.363879278524919 }, "geometry": { "type": "MultiPolygon", "coordinates": [ [ [ [ -66.1931152, 18.393858 ], [ -66.2022324, 18.3212051 ], [ -66.2747574, 18.334301 ], [ -66.3148499, 18.3718643 ], [ -66.2999878, 18.3886509 ], [ -66.2486038, 18.3989048 ], [ -66.1931152, 18.393858 ] ] ] ] } },
{ "type": "Feature", "properties": { "POLYGON_ID": "PRI_GAUL2007_ADM2_40047", "ADM0_ISO3": "PRI", "ADM0_NAME": "Puerto Rico", "ADM0_CODE": 200, "ADM1_NAME": "Bayamon", "ADM1_CODE": 2416, "ADM2_NAME": "Toa Baja Municipio", "ADM2_CODE": 40047, "GEOSET": "GAUL", "GEOSET_YEAR": 2007.0, "GEOSET_VERSION": "GAUL_v1", "GEOSET_UNIT": "ADM2", "CENTROID_LONG": -66.207607269413614, "CENTROID_LAT": 18.433967995561648 }, "geometry": { "type": "MultiPolygon", "coordinates": [ [ [ [ -66.1391836, 18.4619602 ], [ -66.1651459, 18.4359779 ], [ -66.1931152, 18.393858 ], [ -66.2486038, 18.3989048 ], [ -66.2539062, 18.4600143 ], [ -66.21594, 18.4661386 ], [ -66.1391836, 18.4619602 ] ] ] ] } },
{ "type": "Feature", "properties": { "POLYGON_ID": "PRI_GAUL2007_ADM2_40048", "ADM0_ISO3": "PRI", "ADM0_NAME": "Puerto Rico", "ADM0_CODE": 200, "ADM1_NAME": "Bayamon", "ADM1_CODE": 2416, "ADM2_NAME": "Trujillo Alto Municipio", "ADM2_CODE": 40048, "GEOSET": "GAUL", "GEOSET_YEAR": 2007.0, "GEOSET_VERSION": "GAUL_v1", "GEOSET_UNIT": "ADM2", "CENTROID_LONG": -65.99756353542314, "CENTROID_LAT": 18.337633139622788 }, "geometry": { "type": "MultiPolygon", "coordinates": [ [ [ [ -65.9393616, 18.298336 ], [ -66.0187836, 18.3097172 ], [ -66.038147, 18.3168545 ], [ -66.0322495, 18.3732433 ], [ -65.9956284, 18.3852425 ], [ -65.9393616, 18.298336 ] ] ] ] } },
{ "type": "Feature", "properties": { "POLYGON_ID": "PRI_GAUL2007_ADM2_40049", "ADM0_ISO3": "PRI", "ADM0_NAME": "Puerto Rico", "ADM0_CODE": 200, "ADM1_NAME": "Guayama", "ADM1_CODE": 2417, "ADM2_NAME": "Aguas Buenas Municipio", "ADM2_CODE": 40049, "GEOSET": "GAUL", "GEOSET_YEAR": 2007.0, "GEOSET_VERSION": "GAUL_v1", "GEOSET_UNIT": "ADM2", "CENTROID_LONG": -66.121846454090402, "CENTROID_LAT": 18.258417511984042 }, "geometry": { "type": "MultiPolygon", "coordinates": [ [ [ [ -66.1154404, 18.214407 ], [ -66.1661606, 18.2286053 ], [ -66.187706, 18.2629547 ], [ -66.1409378, 18.2841263 ], [ -66.0775299, 18.3019657 ], [ -66.0631638, 18.3077278 ], [ -66.0825043, 18.240303 ], [ -66.1154404, 18.214407 ] ] ] ] } },
{ "type": "Feature", "properties": { "POLYGON_ID": "PRI_GAUL2007_ADM2_40050", "ADM0_ISO3": "PRI", "ADM0_NAME": "Puerto Rico", "ADM0_CODE": 200, "ADM1_NAME": "Guayama", "ADM1_CODE": 2417, "ADM2_NAME": "Aibonito Municipio", "ADM2_CODE": 40050, "GEOSET": "GAUL", "GEOSET_YEAR": 2007.0, "GEOSET_VERSION": "GAUL_v1", "GEOSET_UNIT": "ADM2", "CENTROID_LONG": -66.261345533054893, "CENTROID_LAT": 18.133568426573945 }, "geometry": { "type": "MultiPolygon", "coordinates": [ [ [ [ -66.2145462, 18.1471596 ], [ -66.2226028, 18.0993042 ], [ -66.2558899, 18.08004 ], [ -66.3184433, 18.1299877 ], [ -66.3123474, 18.155838 ], [ -66.240242, 18.1843605 ], [ -66.2145462, 18.1471596 ] ] ] ] } },
{ "type": "Feature", "properties": { "POLYGON_ID": "PRI_GAUL2007_ADM2_40051", "ADM0_ISO3": "PRI", "ADM0_NAME": "Puerto Rico", "ADM0_CODE": 200, "ADM1_NAME": "Guayama", "ADM1_CODE": 2417, "ADM2_NAME": "Arroyo Municipio", "ADM2_CODE": 40051, "GEOSET": "GAUL", "GEOSET_YEAR": 2007.0, "GEOSET_VERSION": "GAUL_v1", "GEOSET_UNIT": "ADM2", "CENTROID_LONG": -66.055620633333334, "CENTROID_LAT": 17.99417223333333 }, "geometry": { "type": "MultiPolygon", "coordinates": [ [ [ [ -66.0171725, 17.9794776 ], [ -66.0687797, 17.9664657 ], [ -66.0809097, 18.0365734 ], [ -66.0171725, 17.9794776 ] ] ] ] } },
{ "type": "Feature", "properties": { "POLYGON_ID": "PRI_GAUL2007_ADM2_40052", "ADM0_ISO3": "PRI", "ADM0_NAME": "Puerto Rico", "ADM0_CODE": 200, "ADM1_NAME": "Guayama", "ADM1_CODE": 2417, "ADM2_NAME": "Barranquitas Municipio", "ADM2_CODE": 40052, "GEOSET": "GAUL", "GEOSET_YEAR": 2007.0, "GEOSET_VERSION": "GAUL_v1", "GEOSET_UNIT": "ADM2", "CENTROID_LONG": -66.305148009552852, "CENTROID_LAT": 18.206182393782587 }, "geometry": { "type": "MultiPolygon", "coordinates": [ [ [ [ -66.2635269, 18.2497616 ], [ -66.2383728, 18.1886711 ], [ -66.240242, 18.1843605 ], [ -66.3123474, 18.155838 ], [ -66.3704376, 18.1794567 ], [ -66.3480682, 18.2455463 ], [ -66.3101654, 18.2533798 ], [ -66.2635269, 18.2497616 ] ] ] ] } },
{ "type": "Feature", "properties": { "POLYGON_ID": "PRI_GAUL2007_ADM2_40053", "ADM0_ISO3": "PRI", "ADM0_NAME": "Puerto Rico", "ADM0_CODE": 200, "ADM1_NAME": "Guayama", "ADM1_CODE": 2417, "ADM2_NAME": "Caguas Municipio", "ADM2_CODE": 40053, "GEOSET": "GAUL", "GEOSET_YEAR": 2007.0, "GEOSET_VERSION": "GAUL_v1", "GEOSET_UNIT": "ADM2", "CENTROID_LONG": -66.047852747190319, "CENTROID_LAT": 18.21826089315292 }, "geometry": { "type": "MultiPolygon", "coordinates": [ [ [ [ -66.038147, 18.3168545 ], [ -66.0187836, 18.3097172 ], [ -65.9953995, 18.2117672 ], [ -66.0184326, 18.1481438 ], [ -66.0509109, 18.1179581 ], [ -66.0930405, 18.1733437 ], [ -66.1154404, 18.214407 ], [ -66.0825043, 18.240303 ], [ -66.0631638, 18.3077278 ], [ -66.038147, 18.3168545 ] ] ] ] } },
{ "type": "Feature", "properties": { "POLYGON_ID": "PRI_GAUL2007_ADM2_40054", "ADM0_ISO3": "PRI", "ADM0_NAME": "Puerto Rico", "ADM0_CODE": 200, "ADM1_NAME": "Guayama", "ADM1_CODE": 2417, "ADM2_NAME": "Cayey Municipio", "ADM2_CODE": 40054, "GEOSET": "GAUL", "GEOSET_YEAR": 2007.0, "GEOSET_VERSION": "GAUL_v1", "GEOSET_UNIT": "ADM2", "CENTROID_LONG": -66.143498459632923, "CENTROID_LAT": 18.109510795180043 }, "geometry": { "type": "MultiPolygon", "coordinates": [ [ [ [ -66.0509109, 18.1179581 ], [ -66.0495453, 18.1146126 ], [ -66.0514069, 18.1117382 ], [ -66.0961609, 18.1111679 ], [ -66.1274261, 18.0431614 ], [ -66.1647186, 18.0540562 ], [ -66.2226028, 18.0993042 ], [ -66.2145462, 18.1471596 ], [ -66.1333694, 18.1397686 ], [ -66.0930405, 18.1733437 ], [ -66.0509109, 18.1179581 ] ] ] ] } },
{ "type": "Feature", "properties": { "POLYGON_ID": "PRI_GAUL2007_ADM2_40055", "ADM0_ISO3": "PRI", "ADM0_NAME": "Puerto Rico", "ADM0_CODE": 200, "ADM1_NAME": "Guayama", "ADM1_CODE": 2417, "ADM2_NAME": "Cidra Municipio", "ADM2_CODE": 40055, "GEOSET": "GAUL", "GEOSET_YEAR": 2007.0, "GEOSET_VERSION": "GAUL_v1", "GEOSET_UNIT": "ADM2", "CENTROID_LONG": -66.164364348058129, "CENTROID_LAT": 18.181238764936335 }, "geometry": { "type": "MultiPolygon", "coordinates": [ [ [ [ -66.1154404, 18.214407 ], [ -66.0930405, 18.1733437 ], [ -66.1333694, 18.1397686 ], [ -66.2145462, 18.1471596 ], [ -66.240242, 18.1843605 ], [ -66.2383728, 18.1886711 ], [ -66.1661606, 18.2286053 ], [ -66.1154404, 18.214407 ] ] ] ] } },
{ "type": "Feature", "properties": { "POLYGON_ID": "PRI_GAUL2007_ADM2_40056", "ADM0_ISO3": "PRI", "ADM0_NAME": "Puerto Rico", "ADM0_CODE": 200, "ADM1_NAME": "Guayama", "ADM1_CODE": 2417, "ADM2_NAME": "Comerio Municipio", "ADM2_CODE": 40056, "GEOSET": "GAUL", "GEOSET_YEAR": 2007.0, "GEOSET_VERSION": "GAUL_v1", "GEOSET_UNIT": "ADM2", "CENTROID_LONG": -66.217031963305331, "CENTROID_LAT": 18.236331582309294 }, "geometry": { "type": "MultiPolygon", "coordinates": [ [ [ [ -66.187706, 18.2629547 ], [ -66.1661606, 18.2286053 ], [ -66.2383728, 18.1886711 ], [ -66.2635269, 18.2497616 ], [ -66.203331, 18.2810593 ], [ -66.187706, 18.2629547 ] ] ] ] } },
{ "type": "Feature", "properties": { "POLYGON_ID": "PRI_GAUL2007_ADM2_40057", "ADM0_ISO3": "PRI", "ADM0_NAME": "Puerto Rico", "ADM0_CODE": 200, "ADM1_NAME": "Guayama", "ADM1_CODE": 2417, "ADM2_NAME": "Guayama Municipio", "ADM2_CODE": 40057, "GEOSET": "GAUL", "GEOSET_YEAR": 2007.0, "GEOSET_VERSION": "GAUL_v1", "GEOSET_UNIT": "ADM2", "CENTROID_LONG": -66.129153165320702, "CENTROID_LAT": 18.010557250250073 }, "geometry": { "type": "MultiPolygon", "coordinates": [ [ [ [ -66.0514069, 18.1117382 ], [ -66.0809097, 18.0365734 ], [ -66.0687797, 17.9664657 ], [ -66.1554417, 17.9295728 ], [ -66.2053457, 17.9621367 ], [ -66.2045364, 18.0151691 ], [ -66.1647186, 18.0540562 ], [ -66.1274261, 18.0431614 ], [ -66.0961609, 18.1111679 ], [ -66.0514069, 18.1117382 ] ] ] ] } },
{ "type": "Feature", "properties": { "POLYGON_ID": "PRI_GAUL2007_ADM2_40058", "ADM0_ISO3": "PRI", "ADM0_NAME": "Puerto Rico", "ADM0_CODE": 200, "ADM1_NAME": "Guayama", "ADM1_CODE": 2417, "ADM2_NAME": "Maunabo Municipio", "ADM2_CODE": 40058, "GEOSET": "GAUL", "GEOSET_YEAR": 2007.0, "GEOSET_VERSION": "GAUL_v1", "GEOSET_UNIT": "ADM2", "CENTROID_LONG": -65.920069494457664, "CENTROID_LAT": 18.018729536763949 }, "geometry": { "type": "MultiPolygon", "coordinates": [ [ [ [ -65.8474438, 18.0134064 ], [ -65.9070731, 17.9830189 ], [ -65.9424591, 17.9965782 ], [ -65.9871597, 18.0630455 ], [ -65.8474438, 18.0134064 ] ] ] ] } },
{ "type": "Feature", "properties": { "POLYGON_ID": "PRI_GAUL2007_ADM2_40059", "ADM0_ISO3": "PRI", "ADM0_NAME": "Puerto Rico", "ADM0_CODE": 200, "ADM1_NAME": "Guayama", "ADM1_CODE": 2417, "ADM2_NAME": "Patillas Municipio", "ADM2_CODE": 40059, "GEOSET": "GAUL", "GEOSET_YEAR": 2007.0, "GEOSET_VERSION": "GAUL_v1", "GEOSET_UNIT": "ADM2", "CENTROID_LONG": -66.010582614807248, "CENTROID_LAT": 18.029925402636646 }, "geometry": { "type": "MultiPolygon", "coordinates": [ [ [ [ -66.008728, 18.0797615 ], [ -65.9871597, 18.0630455 ], [ -65.9424591, 17.9965782 ], [ -65.9070731, 17.9830189 ], [ -65.9767609, 17.9677905 ], [ -66.0171725, 17.9794776 ], [ -66.0809097, 18.0365734 ], [ -66.0514069, 18.1117382 ], [ -66.0495453, 18.1146126 ], [ -66.008728, 18.0797615 ] ] ] ] } },
{ "type": "Feature", "properties": { "POLYGON_ID": "PRI_GAUL2007_ADM2_40060", "ADM0_ISO3": "PRI", "ADM0_NAME": "Puerto Rico", "ADM0_CODE": 200, "ADM1_NAME": "Guayama", "ADM1_CODE": 2417, "ADM2_NAME": "Salinas Municipio", "ADM2_CODE": 40060, "GEOSET": "GAUL", "GEOSET_YEAR": 2007.0, "GEOSET_VERSION": "GAUL_v1", "GEOSET_UNIT": "ADM2", "CENTROID_LONG": -66.251825437367899, "CENTROID_LAT": 18.016413914433087 }, "geometry": { "type": "MultiPolygon", "coordinates": [ [ [ [ -66.1647186, 18.0540562 ], [ -66.2045364, 18.0151691 ], [ -66.2053457, 17.9621367 ], [ -66.2380382, 17.9392428 ], [ -66.3357802, 17.9769085 ], [ -66.3298721, 18.0184708 ], [ -66.2558899, 18.08004 ], [ -66.2226028, 18.0993042 ], [ -66.1647186, 18.0540562 ] ] ] ] } },
{ "type": "Feature", "properties": { "POLYGON_ID": "PRI_GAUL2007_ADM2_40061", "ADM0_ISO3": "PRI", "ADM0_NAME": "Puerto Rico", "ADM0_CODE": 200, "ADM1_NAME": "Guayama", "ADM1_CODE": 2417, "ADM2_NAME": "Yabucoa Municipio", "ADM2_CODE": 40061, "GEOSET": "GAUL", "GEOSET_YEAR": 2007.0, "GEOSET_VERSION": "GAUL_v1", "GEOSET_UNIT": "ADM2", "CENTROID_LONG": -65.895064435330141, "CENTROID_LAT": 18.073614749753087 }, "geometry": { "type": "MultiPolygon", "coordinates": [ [ [ [ -65.7956703, 18.0740625 ], [ -65.8474438, 18.0134064 ], [ -65.9871597, 18.0630455 ], [ -66.008728, 18.0797615 ], [ -65.924469, 18.1243267 ], [ -65.8760376, 18.1224194 ], [ -65.7956703, 18.0740625 ] ] ] ] } },
{ "type": "Feature", "properties": { "POLYGON_ID": "PRI_GAUL2007_ADM2_40062", "ADM0_ISO3": "PRI", "ADM0_NAME": "Puerto Rico", "ADM0_CODE": 200, "ADM1_NAME": "Humacao", "ADM1_CODE": 2418, "ADM2_NAME": "Ceiba Municipio", "ADM2_CODE": 40062, "GEOSET": "GAUL", "GEOSET_YEAR": 2007.0, "GEOSET_VERSION": "GAUL_v1", "GEOSET_UNIT": "ADM2", "CENTROID_LONG": -65.673735908637212, "CENTROID_LAT": 18.258858798075362 }, "geometry": { "type": "MultiPolygon", "coordinates": [ [ [ [ -65.6332317, 18.2902615 ], [ -65.6349888, 18.2236212 ], [ -65.6552547, 18.2046253 ], [ -65.6610405, 18.2169212 ], [ -65.6611016, 18.217004 ], [ -65.697998, 18.2618523 ], [ -65.764328, 18.2849026 ], [ -65.7563629, 18.2958832 ], [ -65.7507629, 18.3020878 ], [ -65.7136002, 18.2723942 ], [ -65.6332317, 18.2902615 ] ] ] ] } },
{ "type": "Feature", "properties": { "POLYGON_ID": "PRI_GAUL2007_ADM2_40063", "ADM0_ISO3": "PRI", "ADM0_NAME": "Puerto Rico", "ADM0_CODE": 200, "ADM1_NAME": "Humacao", "ADM1_CODE": 2418, "ADM2_NAME": "Culebra Municipio", "ADM2_CODE": 40063, "GEOSET": "GAUL", "GEOSET_YEAR": 2007.0, "GEOSET_VERSION": "GAUL_v1", "GEOSET_UNIT": "ADM2", "CENTROID_LONG": -65.30176183333333, "CENTROID_LAT": 18.3214511 }, "geometry": { "type": "MultiPolygon", "coordinates": [ [ [ [ -65.3378232, 18.3493806 ], [ -65.2779094, 18.33232 ], [ -65.2895529, 18.2826527 ], [ -65.3378232, 18.3493806 ] ] ] ] } },
{ "type": "Feature", "properties": { "POLYGON_ID": "PRI_GAUL2007_ADM2_40064", "ADM0_ISO3": "PRI", "ADM0_NAME": "Puerto Rico", "ADM0_CODE": 200, "ADM1_NAME": "Humacao", "ADM1_CODE": 2418, "ADM2_NAME": "Fajardo Municipio", "ADM2_CODE": 40064, "GEOSET": "GAUL", "GEOSET_YEAR": 2007.0, "GEOSET_VERSION": "GAUL_v1", "GEOSET_UNIT": "ADM2", "CENTROID_LONG": -65.676025953760998, "CENTROID_LAT": 18.31091029992923 }, "geometry": { "type": "MultiPolygon", "coordinates": [ [ [ [ -65.6332317, 18.2902615 ], [ -65.7136002, 18.2723942 ], [ -65.7507629, 18.3020878 ], [ -65.7179565, 18.3010807 ], [ -65.6698542, 18.3622132 ], [ -65.6268286, 18.3310536 ], [ -65.6332317, 18.2902615 ] ] ] ] } },
{ "type": "Feature", "properties": { "POLYGON_ID": "PRI_GAUL2007_ADM2_40065", "ADM0_ISO3": "PRI", "ADM0_NAME": "Puerto Rico", "ADM0_CODE": 200, "ADM1_NAME": "Humacao", "ADM1_CODE": 2418, "ADM2_NAME": "Gurabo Municipio", "ADM2_CODE": 40065, "GEOSET": "GAUL", "GEOSET_YEAR": 2007.0, "GEOSET_VERSION": "GAUL_v1", "GEOSET_UNIT": "ADM2", "CENTROID_LONG": -65.971908613306056, "CENTROID_LAT": 18.266753758625157 }, "geometry": { "type": "MultiPolygon", "coordinates": [ [ [ [ -65.9393616, 18.298336 ], [ -65.9159622, 18.2749329 ], [ -65.9486008, 18.2338047 ], [ -65.9953995, 18.2117672 ], [ -66.0187836, 18.3097172 ], [ -65.9393616, 18.298336 ] ] ] ] } },
{ "type": "Feature", "properties": { "POLYGON_ID": "PRI_GAUL2007_ADM2_40067", "ADM0_ISO3": "PRI", "ADM0_NAME": "Puerto Rico", "ADM0_CODE": 200, "ADM1_NAME": "Humacao", "ADM1_CODE": 2418, "ADM2_NAME": "Juncos Municipio", "ADM2_CODE": 40067, "GEOSET": "GAUL", "GEOSET_YEAR": 2007.0, "GEOSET_VERSION": "GAUL_v1", "GEOSET_UNIT": "ADM2", "CENTROID_LONG": -65.907550440289413, "CENTROID_LAT": 18.224457184242532 }, "geometry": { "type": "MultiPolygon", "coordinates": [ [ [ [ -65.9136658, 18.2734966 ], [ -65.8500137, 18.2596378 ], [ -65.9266052, 18.1472778 ], [ -65.9486008, 18.2338047 ], [ -65.9159622, 18.2749329 ], [ -65.9136658, 18.2734966 ] ] ] ] } },
{ "type": "Feature", "properties": { "POLYGON_ID": "PRI_GAUL2007_ADM2_40068", "ADM0_ISO3": "PRI", "ADM0_NAME": "Puerto Rico", "ADM0_CODE": 200, "ADM1_NAME": "Humacao", "ADM1_CODE": 2418, "ADM2_NAME": "Las Piedras Municipio", "ADM2_CODE": 40068, "GEOSET": "GAUL", "GEOSET_YEAR": 2007.0, "GEOSET_VERSION": "GAUL_v1", "GEOSET_UNIT": "ADM2", "CENTROID_LONG": -65.867676217405361, "CENTROID_LAT": 18.190059606831646 }, "geometry": { "type": "MultiPolygon", "coordinates": [ [ [ [ -65.8216782, 18.2777882 ], [ -65.8236771, 18.2051277 ], [ -65.8760376, 18.1224194 ], [ -65.924469, 18.1243267 ], [ -65.9266052, 18.1472778 ], [ -65.8500137, 18.2596378 ], [ -65.8336792, 18.2801838 ], [ -65.8216782, 18.2777882 ] ] ] ] } },
{ "type": "Feature", "properties": { "POLYGON_ID": "PRI_GAUL2007_ADM2_40069", "ADM0_ISO3": "PRI", "ADM0_NAME": "Puerto Rico", "ADM0_CODE": 200, "ADM1_NAME": "Humacao", "ADM1_CODE": 2418, "ADM2_NAME": "Loiza Municipio", "ADM2_CODE": 40069, "GEOSET": "GAUL", "GEOSET_YEAR": 2007.0, "GEOSET_VERSION": "GAUL_v1", "GEOSET_UNIT": "ADM2", "CENTROID_LONG": -65.893860023832772, "CENTROID_LAT": 18.425378360533184 }, "geometry": { "type": "MultiPolygon", "coordinates": [ [ [ [ -65.8299744, 18.4240401 ], [ -65.8635941, 18.3837433 ], [ -65.9155197, 18.4061031 ], [ -65.9332886, 18.4354496 ], [ -65.9898425, 18.4596691 ], [ -65.9004611, 18.4528861 ], [ -65.8299744, 18.4240401 ] ] ] ] } },
{ "type": "Feature", "properties": { "POLYGON_ID": "PRI_GAUL2007_ADM2_40070", "ADM0_ISO3": "PRI", "ADM0_NAME": "Puerto Rico", "ADM0_CODE": 200, "ADM1_NAME": "Humacao", "ADM1_CODE": 2418, "ADM2_NAME": "Luquillo Municipio", "ADM2_CODE": 40070, "GEOSET": "GAUL", "GEOSET_YEAR": 2007.0, "GEOSET_VERSION": "GAUL_v1", "GEOSET_UNIT": "ADM2", "CENTROID_LONG": -65.722697992120828, "CENTROID_LAT": 18.342702629823716 }, "geometry": { "type": "MultiPolygon", "coordinates": [ [ [ [ -65.6698542, 18.3622132 ], [ -65.7179565, 18.3010807 ], [ -65.7507629, 18.3020878 ], [ -65.7563629, 18.2958832 ], [ -65.7502841, 18.385933 ], [ -65.6698542, 18.3622132 ] ] ] ] } },
{ "type": "Feature", "properties": { "POLYGON_ID": "PRI_GAUL2007_ADM2_40071", "ADM0_ISO3": "PRI", "ADM0_NAME": "Puerto Rico", "ADM0_CODE": 200, "ADM1_NAME": "Humacao", "ADM1_CODE": 2418, "ADM2_NAME": "Naguabo Municipio", "ADM2_CODE": 40071, "GEOSET": "GAUL", "GEOSET_YEAR": 2007.0, "GEOSET_VERSION": "GAUL_v1", "GEOSET_UNIT": "ADM2", "CENTROID_LONG": -65.751096238412117, "CENTROID_LAT": 18.234867278274844 }, "geometry": { "type": "MultiPolygon", "coordinates": [ [ [ [ -65.764328, 18.2849026 ], [ -65.697998, 18.2618523 ], [ -65.6611016, 18.217004 ], [ -65.7369568, 18.1772981 ], [ -65.7903748, 18.2117958 ], [ -65.8236771, 18.2051277 ], [ -65.8216782, 18.2777882 ], [ -65.764328, 18.2849026 ] ] ] ] } },
{ "type": "Feature", "properties": { "POLYGON_ID": "PRI_GAUL2007_ADM2_40072", "ADM0_ISO3": "PRI", "ADM0_NAME": "Puerto Rico", "ADM0_CODE": 200, "ADM1_NAME": "Humacao", "ADM1_CODE": 2418, "ADM2_NAME": "Rio Grande Municipio", "ADM2_CODE": 40072, "GEOSET": "GAUL", "GEOSET_YEAR": 2007.0, "GEOSET_VERSION": "GAUL_v1", "GEOSET_UNIT": "ADM2", "CENTROID_LONG": -65.808542469119104, "CENTROID_LAT": 18.345704921593295 }, "geometry": { "type": "MultiPolygon", "coordinates": [ [ [ [ -65.7502841, 18.385933 ], [ -65.7563629, 18.2958832 ], [ -65.764328, 18.2849026 ], [ -65.8216782, 18.2777882 ], [ -65.8336792, 18.2801838 ], [ -65.8607941, 18.29883 ], [ -65.8635941, 18.3837433 ], [ -65.8299744, 18.4240401 ], [ -65.7502841, 18.385933 ] ] ] ] } },
{ "type": "Feature", "properties": { "POLYGON_ID": "PRI_GAUL2007_ADM2_40073", "ADM0_ISO3": "PRI", "ADM0_NAME": "Puerto Rico", "ADM0_CODE": 200, "ADM1_NAME": "Humacao", "ADM1_CODE": 2418, "ADM2_NAME": "San Lorenzo Municipio", "ADM2_CODE": 40073, "GEOSET": "GAUL", "GEOSET_YEAR": 2007.0, "GEOSET_VERSION": "GAUL_v1", "GEOSET_UNIT": "ADM2", "CENTROID_LONG": -65.979587943434055, "CENTROID_LAT": 18.150619893616806 }, "geometry": { "type": "MultiPolygon", "coordinates": [ [ [ [ -65.9486008, 18.2338047 ], [ -65.9266052, 18.1472778 ], [ -65.924469, 18.1243267 ], [ -66.008728, 18.0797615 ], [ -66.0495453, 18.1146126 ], [ -66.0509109, 18.1179581 ], [ -66.0184326, 18.1481438 ], [ -65.9953995, 18.2117672 ], [ -65.9486008, 18.2338047 ] ] ] ] } },
{ "type": "Feature", "properties": { "POLYGON_ID": "PRI_GAUL2007_ADM2_40074", "ADM0_ISO3": "PRI", "ADM0_NAME": "Puerto Rico", "ADM0_CODE": 200, "ADM1_NAME": "Humacao", "ADM1_CODE": 2418, "ADM2_NAME": "Vieques Municipio", "ADM2_CODE": 40074, "GEOSET": "GAUL", "GEOSET_YEAR": 2007.0, "GEOSET_VERSION": "GAUL_v1", "GEOSET_UNIT": "ADM2", "CENTROID_LONG": -65.454417959414684, "CENTROID_LAT": 18.119609594287063 }, "geometry": { "type": "MultiPolygon", "coordinates": [ [ [ [ -65.3985128, 18.1628368 ], [ -65.3605912, 18.1277045 ], [ -65.4473231, 18.0890195 ], [ -65.5243218, 18.0824189 ], [ -65.5455821, 18.1195391 ], [ -65.3985128, 18.1628368 ] ] ] ] } },
{ "type": "Feature", "properties": { "POLYGON_ID": "PRI_GAUL2007_ADM2_40075", "ADM0_ISO3": "PRI", "ADM0_NAME": "Puerto Rico", "ADM0_CODE": 200, "ADM1_NAME": "Mayaguez", "ADM1_CODE": 2419, "ADM2_NAME": "Cabo Rojo Municipio", "ADM2_CODE": 40075, "GEOSET": "GAUL", "GEOSET_YEAR": 2007.0, "GEOSET_VERSION": "GAUL_v1", "GEOSET_UNIT": "ADM2", "CENTROID_LONG": -67.150635171858099, "CENTROID_LAT": 18.047901183203734 }, "geometry": { "type": "MultiPolygon", "coordinates": [ [ [ [ -67.1775562, 18.171348 ], [ -67.1564789, 18.1561089 ], [ -67.0976486, 18.1090851 ], [ -67.1066437, 18.0592155 ], [ -67.1108908, 17.9451865 ], [ -67.1830942, 17.9629671 ], [ -67.208426, 17.9973127 ], [ -67.1817256, 18.1110931 ], [ -67.1775562, 18.171348 ] ] ] ] } },
{ "type": "Feature", "properties": { "POLYGON_ID": "PRI_GAUL2007_ADM2_40076", "ADM0_ISO3": "PRI", "ADM0_NAME": "Puerto Rico", "ADM0_CODE": 200, "ADM1_NAME": "Mayaguez", "ADM1_CODE": 2419, "ADM2_NAME": "Guanica Municipio", "ADM2_CODE": 40076, "GEOSET": "GAUL", "GEOSET_YEAR": 2007.0, "GEOSET_VERSION": "GAUL_v1", "GEOSET_UNIT": "ADM2", "CENTROID_LONG": -66.922272526422773, "CENTROID_LAT": 17.983294098371374 }, "geometry": { "type": "MultiPolygon", "coordinates": [ [ [ [ -66.8829422, 18.0279694 ], [ -66.857348, 17.955898 ], [ -66.9548716, 17.9317316 ], [ -66.9810823, 17.9524065 ], [ -66.9567108, 18.035265 ], [ -66.8829422, 18.0279694 ] ] ] ] } },
{ "type": "Feature", "properties": { "POLYGON_ID": "PRI_GAUL2007_ADM2_40078", "ADM0_ISO3": "PRI", "ADM0_NAME": "Puerto Rico", "ADM0_CODE": 200, "ADM1_NAME": "Mayaguez", "ADM1_CODE": 2419, "ADM2_NAME": "Hormigueros Municipio", "ADM2_CODE": 40078, "GEOSET": "GAUL", "GEOSET_YEAR": 2007.0, "GEOSET_VERSION": "GAUL_v1", "GEOSET_UNIT": "ADM2", "CENTROID_LONG": -67.112403866666668, "CENTROID_LAT": 18.139330566666668 }, "geometry": { "type": "MultiPolygon", "coordinates": [ [ [ [ -67.0830841, 18.1527977 ], [ -67.0976486, 18.1090851 ], [ -67.1564789, 18.1561089 ], [ -67.0830841, 18.1527977 ] ] ] ] } },
{ "type": "Feature", "properties": { "POLYGON_ID": "PRI_GAUL2007_ADM2_40079", "ADM0_ISO3": "PRI", "ADM0_NAME": "Puerto Rico", "ADM0_CODE": 200, "ADM1_NAME": "Mayaguez", "ADM1_CODE": 2419, "ADM2_NAME": "Lajas Municipio", "ADM2_CODE": 40079, "GEOSET": "GAUL", "GEOSET_YEAR": 2007.0, "GEOSET_VERSION": "GAUL_v1", "GEOSET_UNIT": "ADM2", "CENTROID_LONG": -67.039459882791974, "CENTROID_LAT": 18.014398832326332 }, "geometry": { "type": "MultiPolygon", "coordinates": [ [ [ [ -66.9812088, 18.0555477 ], [ -66.9567108, 18.035265 ], [ -66.9810823, 17.9524065 ], [ -67.0157216, 17.9758826 ], [ -67.0744341, 17.9728496 ], [ -67.1108908, 17.9451865 ], [ -67.1066437, 18.0592155 ], [ -67.0674896, 18.0683422 ], [ -66.9812088, 18.0555477 ] ] ] ] } },
{ "type": "Feature", "properties": { "POLYGON_ID": "PRI_GAUL2007_ADM2_40080", "ADM0_ISO3": "PRI", "ADM0_NAME": "Puerto Rico", "ADM0_CODE": 200, "ADM1_NAME": "Mayaguez", "ADM1_CODE": 2419, "ADM2_NAME": "Mayaguez Municipio", "ADM2_CODE": 40080, "GEOSET": "GAUL", "GEOSET_YEAR": 2007.0, "GEOSET_VERSION": "GAUL_v1", "GEOSET_UNIT": "ADM2", "CENTROID_LONG": -67.305715209080063, "CENTROID_LAT": 18.176916835159627 }, "geometry": { "type": "MultiPolygon", "coordinates": [ [ [ [ -67.0780029, 18.2580433 ], [ -67.0167847, 18.1985893 ], [ -67.0485611, 18.1771526 ], [ -67.0830841, 18.1527977 ], [ -67.1564789, 18.1561089 ], [ -67.1775562, 18.171348 ], [ -67.154795, 18.1958809 ], [ -67.1891037, 18.2685924 ], [ -67.1195221, 18.2460194 ], [ -67.0780029, 18.2580433 ] ] ], [ [ [ -67.8600398, 18.1208397 ], [ -67.8437006, 18.0946743 ], [ -67.8969223, 18.0530551 ], [ -67.9366759, 18.0791776 ], [ -67.9318763, 18.1136366 ], [ -67.8600398, 18.1208397 ] ] ] ] } },
{ "type": "Feature", "properties": { "POLYGON_ID": "PRI_GAUL2007_ADM2_40081", "ADM0_ISO3": "PRI", "ADM0_NAME": "Puerto Rico", "ADM0_CODE": 200, "ADM1_NAME": "Mayaguez", "ADM1_CODE": 2419, "ADM2_NAME": "Penuelas Municipio", "ADM2_CODE": 40081, "GEOSET": "GAUL", "GEOSET_YEAR": 2007.0, "GEOSET_VERSION": "GAUL_v1", "GEOSET_UNIT": "ADM2", "CENTROID_LONG": -66.721813631597627, "CENTROID_LAT": 18.061227401845155 }, "geometry": { "type": "MultiPolygon", "coordinates": [ [ [ [ -66.6917038, 18.13414 ], [ -66.6764755, 18.1070118 ], [ -66.697497, 17.976931 ], [ -66.7534386, 17.9973762 ], [ -66.7541858, 17.999052 ], [ -66.7664642, 18.1382332 ], [ -66.7299881, 18.1156235 ], [ -66.6917038, 18.13414 ] ] ] ] } },
{ "type": "Feature", "properties": { "POLYGON_ID": "PRI_GAUL2007_ADM2_40082", "ADM0_ISO3": "PRI", "ADM0_NAME": "Puerto Rico", "ADM0_CODE": 200, "ADM1_NAME": "Mayaguez", "ADM1_CODE": 2419, "ADM2_NAME": "Sabana Grande Municipio", "ADM2_CODE": 40082, "GEOSET": "GAUL", "GEOSET_YEAR": 2007.0, "GEOSET_VERSION": "GAUL_v1", "GEOSET_UNIT": "ADM2", "CENTROID_LONG": -66.941367365697616, "CENTROID_LAT": 18.087257049252884 }, "geometry": { "type": "MultiPolygon", "coordinates": [ [ [ [ -66.8829422, 18.0279694 ], [ -66.9567108, 18.035265 ], [ -66.9812088, 18.0555477 ], [ -66.9750595, 18.1469784 ], [ -66.9233856, 18.154274 ], [ -66.9074783, 18.0693207 ], [ -66.8829422, 18.0279694 ] ] ] ] } },
{ "type": "Feature", "properties": { "POLYGON_ID": "PRI_GAUL2007_ADM2_40083", "ADM0_ISO3": "PRI", "ADM0_NAME": "Puerto Rico", "ADM0_CODE": 200, "ADM1_NAME": "Mayaguez", "ADM1_CODE": 2419, "ADM2_NAME": "San German Municipio", "ADM2_CODE": 40083, "GEOSET": "GAUL", "GEOSET_YEAR": 2007.0, "GEOSET_VERSION": "GAUL_v1", "GEOSET_UNIT": "ADM2", "CENTROID_LONG": -67.036830525697496, "CENTROID_LAT": 18.111624193367337 }, "geometry": { "type": "MultiPolygon", "coordinates": [ [ [ [ -66.9750595, 18.1469784 ], [ -66.9812088, 18.0555477 ], [ -67.0674896, 18.0683422 ], [ -67.1066437, 18.0592155 ], [ -67.0976486, 18.1090851 ], [ -67.0830841, 18.1527977 ], [ -67.0485611, 18.1771526 ], [ -66.9750595, 18.1469784 ] ] ] ] } },
{ "type": "Feature", "properties": { "POLYGON_ID": "PRI_GAUL2007_ADM2_40084", "ADM0_ISO3": "PRI", "ADM0_NAME": "Puerto Rico", "ADM0_CODE": 200, "ADM1_NAME": "Mayaguez", "ADM1_CODE": 2419, "ADM2_NAME": "Yauco Municipio", "ADM2_CODE": 40084, "GEOSET": "GAUL", "GEOSET_YEAR": 2007.0, "GEOSET_VERSION": "GAUL_v1", "GEOSET_UNIT": "ADM2", "CENTROID_LONG": -66.855499167692059, "CENTROID_LAT": 18.080057021757121 }, "geometry": { "type": "MultiPolygon", "coordinates": [ [ [ [ -66.7950668, 18.1369934 ], [ -66.8348923, 17.9686661 ], [ -66.853641, 17.9556486 ], [ -66.857348, 17.955898 ], [ -66.8829422, 18.0279694 ], [ -66.9074783, 18.0693207 ], [ -66.9233856, 18.154274 ], [ -66.8532104, 18.1426144 ], [ -66.8338928, 18.1738987 ], [ -66.8242035, 18.1744766 ], [ -66.7950668, 18.1369934 ] ] ] ] } },
{ "type": "Feature", "properties": { "POLYGON_ID": "PRI_GAUL2007_ADM2_40085", "ADM0_ISO3": "PRI", "ADM0_NAME": "Puerto Rico", "ADM0_CODE": 200, "ADM1_NAME": "Ponce", "ADM1_CODE": 2420, "ADM2_NAME": "Adjuntas Municipio", "ADM2_CODE": 40085, "GEOSET": "GAUL", "GEOSET_YEAR": 2007.0, "GEOSET_VERSION": "GAUL_v1", "GEOSET_UNIT": "ADM2", "CENTROID_LONG": -66.747442109671312, "CENTROID_LAT": 18.178985556911616 }, "geometry": { "type": "MultiPolygon", "coordinates": [ [ [ [ -66.667717, 18.1563473 ], [ -66.6917038, 18.13414 ], [ -66.7299881, 18.1156235 ], [ -66.7664642, 18.1382332 ], [ -66.7950668, 18.1369934 ], [ -66.8242035, 18.1744766 ], [ -66.8136826, 18.2338657 ], [ -66.6898956, 18.2207012 ], [ -66.667717, 18.1563473 ] ] ] ] } },
{ "type": "Feature", "properties": { "POLYGON_ID": "PRI_GAUL2007_ADM2_40086", "ADM0_ISO3": "PRI", "ADM0_NAME": "Puerto Rico", "ADM0_CODE": 200, "ADM1_NAME": "Ponce", "ADM1_CODE": 2420, "ADM2_NAME": "Coamo Municipio", "ADM2_CODE": 40086, "GEOSET": "GAUL", "GEOSET_YEAR": 2007.0, "GEOSET_VERSION": "GAUL_v1", "GEOSET_UNIT": "ADM2", "CENTROID_LONG": -66.358785872504498, "CENTROID_LAT": 18.09916132766854 }, "geometry": { "type": "MultiPolygon", "coordinates": [ [ [ [ -66.3704376, 18.1794567 ], [ -66.3123474, 18.155838 ], [ -66.3184433, 18.1299877 ], [ -66.2558899, 18.08004 ], [ -66.3298721, 18.0184708 ], [ -66.425209, 18.0461826 ], [ -66.4283447, 18.0858727 ], [ -66.4175873, 18.1509781 ], [ -66.4419937, 18.1804848 ], [ -66.3704376, 18.1794567 ] ] ] ] } },
{ "type": "Feature", "properties": { "POLYGON_ID": "PRI_GAUL2007_ADM2_40087", "ADM0_ISO3": "PRI", "ADM0_NAME": "Puerto Rico", "ADM0_CODE": 200, "ADM1_NAME": "Ponce", "ADM1_CODE": 2420, "ADM2_NAME": "Jayuya Municipio", "ADM2_CODE": 40087, "GEOSET": "GAUL", "GEOSET_YEAR": 2007.0, "GEOSET_VERSION": "GAUL_v1", "GEOSET_UNIT": "ADM2", "CENTROID_LONG": -66.583323401841099, "CENTROID_LAT": 18.218320722486208 }, "geometry": { "type": "MultiPolygon", "coordinates": [ [ [ [ -66.540329, 18.1669178 ], [ -66.5444946, 18.1568451 ], [ -66.5500336, 18.1558495 ], [ -66.5883255, 18.1756458 ], [ -66.6469421, 18.162262 ], [ -66.6220016, 18.2509117 ], [ -66.5632935, 18.3025055 ], [ -66.5301285, 18.2009354 ], [ -66.540329, 18.1669178 ] ] ] ] } },
{ "type": "Feature", "properties": { "POLYGON_ID": "PRI_GAUL2007_ADM2_40088", "ADM0_ISO3": "PRI", "ADM0_NAME": "Puerto Rico", "ADM0_CODE": 200, "ADM1_NAME": "Ponce", "ADM1_CODE": 2420, "ADM2_NAME": "Juana Diaz Municipio", "ADM2_CODE": 40088, "GEOSET": "GAUL", "GEOSET_YEAR": 2007.0, "GEOSET_VERSION": "GAUL_v1", "GEOSET_UNIT": "ADM2", "CENTROID_LONG": -66.495616020417486, "CENTROID_LAT": 18.054588188882192 }, "geometry": { "type": "MultiPolygon", "coordinates": [ [ [ [ -66.5195694, 18.1555882 ], [ -66.5279312, 18.1105747 ], [ -66.4283447, 18.0858727 ], [ -66.425209, 18.0461826 ], [ -66.4530243, 17.9820004 ], [ -66.536944, 17.9747604 ], [ -66.5289841, 18.0043583 ], [ -66.562973, 18.1337566 ], [ -66.5500336, 18.1558495 ], [ -66.5444946, 18.1568451 ], [ -66.5195694, 18.1555882 ] ] ] ] } },
{ "type": "Feature", "properties": { "POLYGON_ID": "PRI_GAUL2007_ADM2_40089", "ADM0_ISO3": "PRI", "ADM0_NAME": "Puerto Rico", "ADM0_CODE": 200, "ADM1_NAME": "Ponce", "ADM1_CODE": 2420, "ADM2_NAME": "Orocovis Municipio", "ADM2_CODE": 40089, "GEOSET": "GAUL", "GEOSET_YEAR": 2007.0, "GEOSET_VERSION": "GAUL_v1", "GEOSET_UNIT": "ADM2", "CENTROID_LONG": -66.432034894824156, "CENTROID_LAT": 18.22246044753512 }, "geometry": { "type": "MultiPolygon", "coordinates": [ [ [ [ -66.3480682, 18.2455463 ], [ -66.3704376, 18.1794567 ], [ -66.4419937, 18.1804848 ], [ -66.5195694, 18.1555882 ], [ -66.5444946, 18.1568451 ], [ -66.540329, 18.1669178 ], [ -66.5103226, 18.1695194 ], [ -66.5148468, 18.2340279 ], [ -66.452446, 18.2616863 ], [ -66.3747177, 18.2984581 ], [ -66.3480682, 18.2455463 ] ] ] ] } },
{ "type": "Feature", "properties": { "POLYGON_ID": "PRI_GAUL2007_ADM2_40090", "ADM0_ISO3": "PRI", "ADM0_NAME": "Puerto Rico", "ADM0_CODE": 200, "ADM1_NAME": "Ponce", "ADM1_CODE": 2420, "ADM2_NAME": "Ponce Municipio", "ADM2_CODE": 40090, "GEOSET": "GAUL", "GEOSET_YEAR": 2007.0, "GEOSET_VERSION": "GAUL_v1", "GEOSET_UNIT": "ADM2", "CENTROID_LONG": -66.613473183141267, "CENTROID_LAT": 18.064164615634645 }, "geometry": { "type": "MultiPolygon", "coordinates": [ [ [ [ -66.5500336, 18.1558495 ], [ -66.562973, 18.1337566 ], [ -66.5289841, 18.0043583 ], [ -66.536944, 17.9747604 ], [ -66.580363, 17.9615781 ], [ -66.6237623, 17.982471 ], [ -66.697497, 17.976931 ], [ -66.6764755, 18.1070118 ], [ -66.6917038, 18.13414 ], [ -66.667717, 18.1563473 ], [ -66.6469421, 18.162262 ], [ -66.5883255, 18.1756458 ], [ -66.5500336, 18.1558495 ] ] ] ] } },
{ "type": "Feature", "properties": { "POLYGON_ID": "PRI_GAUL2007_ADM2_40091", "ADM0_ISO3": "PRI", "ADM0_NAME": "Puerto Rico", "ADM0_CODE": 200, "ADM1_NAME": "Ponce", "ADM1_CODE": 2420, "ADM2_NAME": "Santa Isabel Municipio", "ADM2_CODE": 40091, "GEOSET": "GAUL", "GEOSET_YEAR": 2007.0, "GEOSET_VERSION": "GAUL_v1", "GEOSET_UNIT": "ADM2", "CENTROID_LONG": -66.390188295946274, "CENTROID_LAT": 17.995399476941284 }, "geometry": { "type": "MultiPolygon", "coordinates": [ [ [ [ -66.425209, 18.0461826 ], [ -66.3298721, 18.0184708 ], [ -66.3357802, 17.9769085 ], [ -66.380789, 17.9416753 ], [ -66.4530243, 17.9820004 ], [ -66.425209, 18.0461826 ] ] ] ] } },
{ "type": "Feature", "properties": { "POLYGON_ID": "PRI_GAUL2007_ADM2_40092", "ADM0_ISO3": "PRI", "ADM0_NAME": "Puerto Rico", "ADM0_CODE": 200, "ADM1_NAME": "Ponce", "ADM1_CODE": 2420, "ADM2_NAME": "Villalba Municipio", "ADM2_CODE": 40092, "GEOSET": "GAUL", "GEOSET_YEAR": 2007.0, "GEOSET_VERSION": "GAUL_v1", "GEOSET_UNIT": "ADM2", "CENTROID_LONG": -66.46817277475067, "CENTROID_LAT": 18.132788323410963 }, "geometry": { "type": "MultiPolygon", "coordinates": [ [ [ [ -66.4419937, 18.1804848 ], [ -66.4175873, 18.1509781 ], [ -66.4283447, 18.0858727 ], [ -66.5279312, 18.1105747 ], [ -66.5195694, 18.1555882 ], [ -66.4419937, 18.1804848 ] ] ] ] } },
{ "type": "Feature", "properties": { "POLYGON_ID": "PRI_GAUL2007_ADM2_40093", "ADM0_ISO3": "PRI", "ADM0_NAME": "Puerto Rico", "ADM0_CODE": 200, "ADM1_NAME": "San Juan", "ADM1_CODE": 2421, "ADM2_NAME": "San Juan Municipio", "ADM2_CODE": 40093, "GEOSET": "GAUL", "GEOSET_YEAR": 2007.0, "GEOSET_VERSION": "GAUL_v1", "GEOSET_UNIT": "ADM2", "CENTROID_LONG": -66.05613833588697, "CENTROID_LAT": 18.384237292190118 }, "geometry": { "type": "MultiPolygon", "coordinates": [ [ [ [ -66.0372512, 18.4510202 ], [ -65.9956284, 18.3852425 ], [ -66.0322495, 18.3732433 ], [ -66.038147, 18.3168545 ], [ -66.0631638, 18.3077278 ], [ -66.0775299, 18.3019657 ], [ -66.1019506, 18.4310852 ], [ -66.0372512, 18.4510202 ] ] ] ] } },
{ "type": "Feature", "properties": { "POLYGON_ID": "PRI_GAUL2007_ADM2_40027", "ADM0_ISO3": "PRI", "ADM0_NAME": "Puerto Rico", "ADM0_CODE": 200, "ADM1_NAME": "Aguadilla", "ADM1_CODE": 2414, "ADM2_NAME": "Rincon Municipio", "ADM2_CODE": 40027, "GEOSET": "GAUL", "GEOSET_YEAR": 2007.0, "GEOSET_VERSION": "GAUL_v1", "GEOSET_UNIT": "ADM2", "CENTROID_LONG": -67.22536747872708, "CENTROID_LAT": 18.337533271525633 }, "geometry": { "type": "MultiPolygon", "coordinates": [ [ [ [ -67.2334819, 18.3774919 ], [ -67.1785736, 18.316412 ], [ -67.2232424, 18.2965431 ], [ -67.2700393, 18.3660688 ], [ -67.2334819, 18.3774919 ] ] ] ] } },
{ "type": "Feature", "properties": { "POLYGON_ID": "PRI_GAUL2007_ADM2_40077", "ADM0_ISO3": "PRI", "ADM0_NAME": "Puerto Rico", "ADM0_CODE": 200, "ADM1_NAME": "Mayaguez", "ADM1_CODE": 2419, "ADM2_NAME": "Guayanilla Municipio", "ADM2_CODE": 40077, "GEOSET": "GAUL", "GEOSET_YEAR": 2007.0, "GEOSET_VERSION": "GAUL_v1", "GEOSET_UNIT": "ADM2", "CENTROID_LONG": -66.789863294561457, "CENTROID_LAT": 18.046582133567323 }, "geometry": { "type": "MultiPolygon", "coordinates": [ [ [ [ -66.7664642, 18.1382332 ], [ -66.7541858, 17.999052 ], [ -66.853641, 17.9556486 ], [ -66.8348923, 17.9686661 ], [ -66.7950668, 18.1369934 ], [ -66.7664642, 18.1382332 ] ] ] ] } },
{ "type": "Feature", "properties": { "POLYGON_ID": "PRI_GAUL2007_ADM2_40066", "ADM0_ISO3": "PRI", "ADM0_NAME": "Puerto Rico", "ADM0_CODE": 200, "ADM1_NAME": "Humacao", "ADM1_CODE": 2418, "ADM2_NAME": "Humacao Municipio", "ADM2_CODE": 40066, "GEOSET": "GAUL", "GEOSET_YEAR": 2007.0, "GEOSET_VERSION": "GAUL_v1", "GEOSET_UNIT": "ADM2", "CENTROID_LONG": -65.807744513157516, "CENTROID_LAT": 18.148957145988962 }, "geometry": { "type": "MultiPolygon", "coordinates": [ [ [ [ -65.7369568, 18.1772981 ], [ -65.7779174, 18.1287003 ], [ -65.7956703, 18.0740625 ], [ -65.8760376, 18.1224194 ], [ -65.8236771, 18.2051277 ], [ -65.7903748, 18.2117958 ], [ -65.7369568, 18.1772981 ] ] ] ] } }
]
}
