{
"type": "FeatureCollection",
"name": "PRK_GAUL2000_ADM1",
"crs": { "type": "name", "properties": { "name": "urn:ogc:def:crs:OGC:1.3:CRS84" } },
"features": [
{ "type": "Feature", "properties": { "POLYGON_ID": "PRK_GAUL2000_ADM1_1054", "ADM0_ISO3": "PRK", "ADM0_NAME": "Dem People's Rep of Korea", "ADM0_CODE": 67, "ADM1_NAME": "Chagang-do", "ADM1_CODE": 1054, "GEOSET": "GAUL", "GEOSET_YEAR": 2000.0, "GEOSET_VERSION": "GAUL_v1", "GEOSET_UNIT": "ADM1", "CENTROID_LONG": 126.51642870902386, "CENTROID_LAT": 40.78938366562533 }, "geometry": { "type": "MultiPolygon", "coordinates": [ [ [ [ 127.0605988, 41.6587441 ], [ 127.0641479, 41.586937 ], [ 127.0116577, 41.5655441 ], [ 126.9972076, 41.531105 ], [ 126.9297028, 41.5352707 ], [ 126.9111023, 41.5183258 ], [ 126.9277573, 41.4677658 ], [ 126.9719162, 41.433876 ], [ 127.0333328, 41.4241638 ], [ 127.0163879, 41.3841629 ], [ 127.0730362, 41.288887 ], [ 127.137207, 41.2613831 ], [ 127.1230316, 41.2369385 ], [ 127.14888, 41.1513824 ], [ 127.234993, 41.1097183 ], [ 127.3249969, 41.0999985 ], [ 127.3810883, 41.1466599 ], [ 127.4485931, 41.1697159 ], [ 127.500267, 41.1422195 ], [ 127.5056305, 41.0707779 ], [ 127.4949799, 41.02388 ], [ 127.4074936, 40.9641571 ], [ 127.3963776, 40.9236069 ], [ 127.4177628, 40.820549 ], [ 127.4052582, 40.7941589 ], [ 127.2683334, 40.7361069 ], [ 127.2322083, 40.7033234 ], [ 127.2058334, 40.6286011 ], [ 127.1235962, 40.6152725 ], [ 127.0061035, 40.5480499 ], [ 127.0077667, 40.4816589 ], [ 126.9483185, 40.4363785 ], [ 126.9111862, 40.3346939 ], [ 126.8899765, 40.2944412 ], [ 126.8266602, 40.2519379 ], [ 126.8141479, 40.2127686 ], [ 126.7291565, 40.1808243 ], [ 126.707489, 40.1536026 ], [ 126.6635971, 40.1441574 ], [ 126.5697174, 40.0888824 ], [ 126.5597076, 40.0413818 ], [ 126.4871979, 40.027771 ], [ 126.44664, 39.9974899 ], [ 126.4035873, 39.9938812 ], [ 126.3602066, 40.0176163 ], [ 126.3174896, 40.0338821 ], [ 126.2191467, 40.0422211 ], [ 126.1413727, 40.0747147 ], [ 126.082489, 40.1316605 ], [ 126.0158234, 40.1788788 ], [ 125.9816589, 40.2161026 ], [ 125.8819275, 40.2386017 ], [ 125.8177567, 40.219986 ], [ 125.6891479, 40.2805481 ], [ 125.6194305, 40.3280487 ], [ 125.6305389, 40.3699875 ], [ 125.5816727, 40.4085999 ], [ 125.5930481, 40.4830475 ], [ 125.6138763, 40.519989 ], [ 125.5927582, 40.5733261 ], [ 125.5385895, 40.5733261 ], [ 125.4985962, 40.6155472 ], [ 125.4112588, 40.6543929 ], [ 125.44263, 40.66623 ], [ 125.48147, 40.72091 ], [ 125.53037, 40.71835 ], [ 125.5491, 40.76136 ], [ 125.67545, 40.7614 ], [ 125.63524, 40.81055 ], [ 125.72035, 40.87072 ], [ 125.7929558, 40.8827819 ], [ 125.80956, 40.86205 ], [ 125.87768, 40.90464 ], [ 125.93216, 40.87648 ], [ 126.04725, 40.94457 ], [ 126.1043, 41.0071 ], [ 126.13094, 41.05747 ], [ 126.23035, 41.14047 ], [ 126.27174, 41.15386 ], [ 126.31415, 41.22409 ], [ 126.34929, 41.24076 ], [ 126.36076, 41.27811 ], [ 126.43034, 41.35014 ], [ 126.48643, 41.37123 ], [ 126.50332, 41.43584 ], [ 126.58569, 41.56802 ], [ 126.58621, 41.6147 ], [ 126.61949, 41.67088 ], [ 126.64427, 41.6543 ], [ 126.72523, 41.70684 ], [ 126.84078, 41.72198 ], [ 126.88641, 41.79097 ], [ 126.94688, 41.79058 ], [ 127.04857, 41.73972 ], [ 127.0605988, 41.6587441 ] ] ] ] } },
{ "type": "Feature", "properties": { "POLYGON_ID": "PRK_GAUL2000_ADM1_1055", "ADM0_ISO3": "PRK", "ADM0_NAME": "Dem People's Rep of Korea", "ADM0_CODE": 67, "ADM1_NAME": "Kaesong-si", "ADM1_CODE": 1055, "GEOSET": "GAUL", "GEOSET_YEAR": 2000.0, "GEOSET_VERSION": "GAUL_v1", "GEOSET_UNIT": "ADM1", "CENTROID_LONG": 126.64896525979685, "CENTROID_LAT": 38.018029959965183 }, "geometry": { "type": "MultiPolygon", "coordinates": [ [ [ [ 126.959309, 38.1622955 ], [ 126.9705288, 38.1442288 ], [ 126.8856315, 38.1010695 ], [ 126.8578492, 38.0374934 ], [ 126.825932, 38.0050592 ], [ 126.7295341, 37.9566018 ], [ 126.6729358, 37.9542759 ], [ 126.6915932, 37.8436851 ], [ 126.6658328, 37.8330199 ], [ 126.6497206, 37.80091 ], [ 126.5958407, 37.7700574 ], [ 126.4230196, 37.8516762 ], [ 126.4130402, 37.9080757 ], [ 126.3902664, 37.9252701 ], [ 126.4038696, 37.9961014 ], [ 126.3901978, 38.0226746 ], [ 126.4488678, 38.0211029 ], [ 126.4819336, 38.0394363 ], [ 126.5305481, 38.1216583 ], [ 126.6347198, 38.1244354 ], [ 126.6361084, 38.1599884 ], [ 126.610527, 38.1941528 ], [ 126.6333313, 38.2185974 ], [ 126.7263794, 38.215271 ], [ 126.7566528, 38.2016602 ], [ 126.8371964, 38.2044373 ], [ 126.8735504, 38.2264862 ], [ 126.959309, 38.1622955 ] ] ] ] } },
{ "type": "Feature", "properties": { "POLYGON_ID": "PRK_GAUL2000_ADM1_1056", "ADM0_ISO3": "PRK", "ADM0_NAME": "Dem People's Rep of Korea", "ADM0_CODE": 67, "ADM1_NAME": "Kangwon-do", "ADM1_CODE": 1056, "GEOSET": "GAUL", "GEOSET_YEAR": 2000.0, "GEOSET_VERSION": "GAUL_v1", "GEOSET_UNIT": "ADM1", "CENTROID_LONG": 127.45976158221892, "CENTROID_LAT": 38.714512066988085 }, "geometry": { "type": "MultiPolygon", "coordinates": [ [ [ [ 127.334149, 39.4051476 ], [ 127.4119401, 39.4075277 ], [ 127.37966, 39.3506552 ], [ 127.4662326, 39.3539621 ], [ 127.3679875, 39.2759154 ], [ 127.3744737, 39.204702 ], [ 127.4442988, 39.1524428 ], [ 127.4715269, 39.1719176 ], [ 127.5209212, 39.1395458 ], [ 127.5505231, 39.1483828 ], [ 127.6213371, 39.131953 ], [ 127.6583091, 39.1049966 ], [ 127.71749, 39.1067909 ], [ 127.744849, 39.1273495 ], [ 127.8522716, 38.9770187 ], [ 127.9555655, 38.9002883 ], [ 128.0102378, 38.8503079 ], [ 128.0910183, 38.8350502 ], [ 128.139495899999986, 38.8003734 ], [ 128.1850594, 38.7483696 ], [ 128.2831113, 38.7217439 ], [ 128.3560338, 38.6788751 ], [ 128.361315600000012, 38.6149497 ], [ 128.3155767, 38.5909414 ], [ 128.303947, 38.474256 ], [ 128.2848224, 38.4349732 ], [ 128.208841299999989, 38.3728185 ], [ 128.1395795, 38.3309513 ], [ 128.0886669, 38.3136359 ], [ 127.9549245, 38.3126021 ], [ 127.8806232, 38.3264286 ], [ 127.8242834, 38.3008431 ], [ 127.7976642, 38.3229397 ], [ 127.7393861, 38.3372831 ], [ 127.692867, 38.3217767 ], [ 127.6205039, 38.3211306 ], [ 127.5804458, 38.3330188 ], [ 127.4990374, 38.297225 ], [ 127.4091005, 38.3295299 ], [ 127.332344, 38.3162203 ], [ 127.2443454, 38.3304344 ], [ 127.0449594, 38.2565208 ], [ 126.9852746, 38.2058803 ], [ 126.959309, 38.1622955 ], [ 126.8735504, 38.2264862 ], [ 126.8846664, 38.2703705 ], [ 126.8433228, 38.3230515 ], [ 126.7949829, 38.3480453 ], [ 126.7324829, 38.430275 ], [ 126.6999969, 38.5133286 ], [ 126.7130432, 38.5736084 ], [ 126.6822128, 38.6077728 ], [ 126.7008209, 38.6436081 ], [ 126.7597198, 38.6569366 ], [ 126.8008118, 38.6855469 ], [ 126.8699799, 38.7824936 ], [ 126.8735962, 38.879158 ], [ 126.9183197, 38.9063797 ], [ 126.9655533, 38.9083252 ], [ 127.0111084, 38.9474869 ], [ 127.0191498, 38.9824905 ], [ 126.9777679, 39.0380478 ], [ 126.9820099, 39.0692062 ], [ 126.9949799, 39.1236038 ], [ 127.0655365, 39.1669388 ], [ 127.0255127, 39.2043381 ], [ 127.0424805, 39.2208252 ], [ 127.0297089, 39.2694397 ], [ 127.086113, 39.2838821 ], [ 127.1022034, 39.3691559 ], [ 127.1524811, 39.4127655 ], [ 127.2810974, 39.4130478 ], [ 127.334149, 39.4051476 ] ] ] ] } },
{ "type": "Feature", "properties": { "POLYGON_ID": "PRK_GAUL2000_ADM1_1058", "ADM0_ISO3": "PRK", "ADM0_NAME": "Dem People's Rep of Korea", "ADM0_CODE": 67, "ADM1_NAME": "Hamgyong-bukto", "ADM1_CODE": 1058, "GEOSET": "GAUL", "GEOSET_YEAR": 2000.0, "GEOSET_VERSION": "GAUL_v1", "GEOSET_UNIT": "ADM1", "CENTROID_LONG": 129.58776571411269, "CENTROID_LAT": 41.832980544530074 }, "geometry": { "type": "MultiPolygon", "coordinates": [ [ [ [ 130.63393, 42.41417 ], [ 130.66002, 42.36755 ], [ 130.64503, 42.3483 ], [ 130.674864500000012, 42.2836141 ], [ 130.6214757, 42.2720497 ], [ 130.5763411, 42.3130163 ], [ 130.4867104, 42.3371339 ], [ 130.453978400000011, 42.3041269 ], [ 130.4020401, 42.3305168 ], [ 130.3690953, 42.234986 ], [ 130.2817532, 42.214673 ], [ 130.232362200000011, 42.1773964 ], [ 130.1930851, 42.1068313 ], [ 130.0757745, 42.075409 ], [ 130.080718499999989, 42.0454633 ], [ 129.9791272, 41.9791939 ], [ 129.9671012, 41.9206744 ], [ 129.8968667, 41.9022506 ], [ 129.8685745, 41.7921268 ], [ 129.7594919, 41.7555575 ], [ 129.740233100000012, 41.6841476 ], [ 129.707108299999987, 41.6661527 ], [ 129.6501768, 41.5494543 ], [ 129.6603857, 41.4664277 ], [ 129.799653, 41.3687425 ], [ 129.7817236, 41.3119747 ], [ 129.7345885, 41.2431973 ], [ 129.7179262, 41.1227696 ], [ 129.72786, 41.0730479 ], [ 129.720719, 41.0167811 ], [ 129.735109099999988, 40.966565 ], [ 129.7651071, 40.9383481 ], [ 129.7339173, 40.8546338 ], [ 129.630842800000011, 40.8332993 ], [ 129.5614007, 40.83031 ], [ 129.5150284, 40.7896741 ], [ 129.412599, 40.7697147 ], [ 129.3458253, 40.737762 ], [ 129.3033461, 40.6764103 ], [ 129.273298899999986, 40.7047222 ], [ 129.2206435, 40.6989695 ], [ 129.1680307, 40.5677403 ], [ 129.0635986, 40.5974884 ], [ 129.0580139, 40.6566544 ], [ 128.9785767, 40.7222137 ], [ 128.975524900000011, 40.7736053 ], [ 128.9380188, 40.8258286 ], [ 128.959137, 40.8783264 ], [ 128.9391479, 40.9227676 ], [ 129.000549299999989, 41.0122147 ], [ 128.988769499999989, 41.0989304 ], [ 129.006927499999989, 41.1247101 ], [ 128.9907837, 41.2008286 ], [ 129.0305481, 41.2602768 ], [ 129.028595, 41.2880478 ], [ 128.9688416, 41.3808212 ], [ 128.962188700000013, 41.4286041 ], [ 128.981903100000011, 41.4736023 ], [ 129.0510864, 41.5294342 ], [ 129.0497131, 41.5719376 ], [ 128.9919128, 41.6272125 ], [ 128.9271851, 41.640274 ], [ 128.953308099999987, 41.6777725 ], [ 128.934967, 41.71138 ], [ 128.9260864, 41.8219376 ], [ 128.874115, 41.8255539 ], [ 128.838287400000013, 41.8963852 ], [ 128.8833313, 41.9252701 ], [ 128.90136720000001, 41.9744339 ], [ 128.966064499999987, 41.9886017 ], [ 129.016662599999989, 42.0541611 ], [ 129.012472300000013, 42.0994831 ], [ 129.03497, 42.12766 ], [ 129.1656499, 42.1651976 ], [ 129.20792, 42.21232 ], [ 129.17485, 42.23806 ], [ 129.2171199, 42.2655899 ], [ 129.226, 42.34958 ], [ 129.24133, 42.37808 ], [ 129.31926, 42.38941 ], [ 129.35388, 42.41726 ], [ 129.4517, 42.43737 ], [ 129.5497, 42.37421 ], [ 129.59239, 42.40956 ], [ 129.69835, 42.4259 ], [ 129.74321, 42.46596 ], [ 129.73614, 42.57283 ], [ 129.77109, 42.61558 ], [ 129.7602387, 42.7083537 ], [ 129.78491, 42.77164 ], [ 129.80923, 42.79085 ], [ 129.81346, 42.84971 ], [ 129.83672, 42.8639 ], [ 129.84938, 42.95326 ], [ 129.9061, 43.00653 ], [ 129.95532, 42.97857 ], [ 130.11697, 42.95628 ], [ 130.13954, 42.90236 ], [ 130.17291, 42.91407 ], [ 130.25989, 42.90498 ], [ 130.2681, 42.87933 ], [ 130.22739, 42.78776 ], [ 130.25438, 42.70605 ], [ 130.39429, 42.60073 ], [ 130.4411, 42.54815 ], [ 130.51135, 42.58123 ], [ 130.54864, 42.49689 ], [ 130.58038, 42.48347 ], [ 130.57214, 42.43348 ], [ 130.63393, 42.41417 ] ] ] ] } },
{ "type": "Feature", "properties": { "POLYGON_ID": "PRK_GAUL2000_ADM1_1059", "ADM0_ISO3": "PRK", "ADM0_NAME": "Dem People's Rep of Korea", "ADM0_CODE": 67, "ADM1_NAME": "Hwanghae-bukto", "ADM1_CODE": 1059, "GEOSET": "GAUL", "GEOSET_YEAR": 2000.0, "GEOSET_VERSION": "GAUL_v1", "GEOSET_UNIT": "ADM1", "CENTROID_LONG": 126.32762875422431, "CENTROID_LAT": 38.588444623453967 }, "geometry": { "type": "MultiPolygon", "coordinates": [ [ [ [ 126.9820099, 39.0692062 ], [ 126.9777679, 39.0380478 ], [ 127.0191498, 38.9824905 ], [ 127.0111084, 38.9474869 ], [ 126.9655533, 38.9083252 ], [ 126.9183197, 38.9063797 ], [ 126.8735962, 38.879158 ], [ 126.8699799, 38.7824936 ], [ 126.8008118, 38.6855469 ], [ 126.7597198, 38.6569366 ], [ 126.7008209, 38.6436081 ], [ 126.6822128, 38.6077728 ], [ 126.7130432, 38.5736084 ], [ 126.6999969, 38.5133286 ], [ 126.7324829, 38.430275 ], [ 126.7949829, 38.3480453 ], [ 126.8433228, 38.3230515 ], [ 126.8846664, 38.2703705 ], [ 126.8735504, 38.2264862 ], [ 126.8371964, 38.2044373 ], [ 126.7566528, 38.2016602 ], [ 126.7263794, 38.215271 ], [ 126.6333313, 38.2185974 ], [ 126.610527, 38.1941528 ], [ 126.6361084, 38.1599884 ], [ 126.6347198, 38.1244354 ], [ 126.5305481, 38.1216583 ], [ 126.4819336, 38.0394363 ], [ 126.4488678, 38.0211029 ], [ 126.3901978, 38.0226746 ], [ 126.3952637, 38.0938797 ], [ 126.3783112, 38.1274872 ], [ 126.4177628, 38.1486053 ], [ 126.4063721, 38.1902695 ], [ 126.2722168, 38.2413788 ], [ 126.2016602, 38.2319336 ], [ 126.1580429, 38.2030487 ], [ 126.1263733, 38.208046 ], [ 126.0752716, 38.1749954 ], [ 126.0452576, 38.1919327 ], [ 125.9366531, 38.1694412 ], [ 125.9016571, 38.2449951 ], [ 125.8610992, 38.2683258 ], [ 125.8377686, 38.3147125 ], [ 125.8044281, 38.3016586 ], [ 125.7452469, 38.3430481 ], [ 125.6994171, 38.4155426 ], [ 125.69664, 38.4919357 ], [ 125.6624908, 38.5319366 ], [ 125.6533203, 38.6272125 ], [ 125.6144333, 38.6897125 ], [ 125.618042, 38.7197266 ], [ 125.5799866, 38.7472153 ], [ 125.5751495, 38.7804489 ], [ 125.6835938, 38.8333282 ], [ 125.7360992, 38.8416595 ], [ 125.8169403, 38.8361053 ], [ 125.9238663, 38.7913818 ], [ 125.9360962, 38.7461014 ], [ 126.0188828, 38.7111053 ], [ 126.1155396, 38.715271 ], [ 126.1483307, 38.7505493 ], [ 126.2130432, 38.7683258 ], [ 126.2149963, 38.8308258 ], [ 126.1669312, 38.883606 ], [ 126.1244202, 38.9036026 ], [ 126.1235962, 38.9702683 ], [ 126.2383118, 38.984993 ], [ 126.2691498, 38.9586029 ], [ 126.3294373, 38.9538803 ], [ 126.3873901, 38.930481 ], [ 126.4683228, 38.9077683 ], [ 126.5005493, 38.9308243 ], [ 126.4788666, 38.9852676 ], [ 126.5155487, 39.0027771 ], [ 126.5716629, 38.9749908 ], [ 126.6241531, 38.9666595 ], [ 126.6611023, 38.9858246 ], [ 126.6169281, 39.0544357 ], [ 126.5627594, 39.1149979 ], [ 126.5619202, 39.1594315 ], [ 126.6599884, 39.1355515 ], [ 126.7302704, 39.1469421 ], [ 126.7711029, 39.1236038 ], [ 126.8394318, 39.1069412 ], [ 126.9319305, 39.0583267 ], [ 126.9820099, 39.0692062 ] ] ] ] } },
{ "type": "Feature", "properties": { "POLYGON_ID": "PRK_GAUL2000_ADM1_1060", "ADM0_ISO3": "PRK", "ADM0_NAME": "Dem People's Rep of Korea", "ADM0_CODE": 67, "ADM1_NAME": "P'yongan-bukto", "ADM1_CODE": 1060, "GEOSET": "GAUL", "GEOSET_YEAR": 2000.0, "GEOSET_VERSION": "GAUL_v1", "GEOSET_UNIT": "ADM1", "CENTROID_LONG": 125.27159719226461, "CENTROID_LAT": 40.040687933445533 }, "geometry": { "type": "MultiPolygon", "coordinates": [ [ [ [ 125.4112588, 40.6543929 ], [ 125.4985962, 40.6155472 ], [ 125.5385895, 40.5733261 ], [ 125.5927582, 40.5733261 ], [ 125.6138763, 40.519989 ], [ 125.5930481, 40.4830475 ], [ 125.5816727, 40.4085999 ], [ 125.6305389, 40.3699875 ], [ 125.6194305, 40.3280487 ], [ 125.6891479, 40.2805481 ], [ 125.8177567, 40.219986 ], [ 125.8819275, 40.2386017 ], [ 125.9816589, 40.2161026 ], [ 126.0158234, 40.1788788 ], [ 126.082489, 40.1316605 ], [ 126.1413727, 40.0747147 ], [ 126.2191467, 40.0422211 ], [ 126.3174896, 40.0338821 ], [ 126.3602066, 40.0176163 ], [ 126.3433228, 39.9572144 ], [ 126.3672028, 39.8938828 ], [ 126.2711029, 39.8541641 ], [ 126.1074829, 39.820549 ], [ 126.0713806, 39.8249969 ], [ 126.016098, 39.8636093 ], [ 125.9994202, 39.8294373 ], [ 125.898613, 39.7505493 ], [ 125.8549805, 39.7458267 ], [ 125.8236084, 39.6905441 ], [ 125.7822113, 39.6649933 ], [ 125.6941376, 39.6313782 ], [ 125.6347198, 39.6363831 ], [ 125.5788727, 39.6019363 ], [ 125.5038834, 39.5755539 ], [ 125.434461, 39.5709999 ], [ 125.3935483, 39.5750544 ], [ 125.3130558, 39.5265147 ], [ 125.2735823, 39.5189186 ], [ 125.2492289, 39.5593482 ], [ 125.1824258, 39.5935634 ], [ 125.124129, 39.5663025 ], [ 125.1036851, 39.6132772 ], [ 125.0590973, 39.6159817 ], [ 124.9277109, 39.6516539 ], [ 124.8920518, 39.6859771 ], [ 124.8029024, 39.711578 ], [ 124.770118, 39.7307319 ], [ 124.7403328, 39.7052424 ], [ 124.7566972, 39.6643283 ], [ 124.6394193, 39.589726 ], [ 124.6137464, 39.6094497 ], [ 124.6388463, 39.6910718 ], [ 124.5721447, 39.7187779 ], [ 124.5835421, 39.7627992 ], [ 124.5571358, 39.7960093 ], [ 124.4584815, 39.8327423 ], [ 124.4255825, 39.7973222 ], [ 124.3916096, 39.8694066 ], [ 124.3158811, 39.9034581 ], [ 124.3800419, 39.9493195 ], [ 124.3582948, 40.0000006 ], [ 124.33964, 40.04613 ], [ 124.3483586, 40.0791384 ], [ 124.45634, 40.17386 ], [ 124.48385, 40.17535 ], [ 124.50916, 40.21839 ], [ 124.61438, 40.28598 ], [ 124.71275, 40.31616 ], [ 124.73632, 40.36735 ], [ 124.85622, 40.42693 ], [ 124.89172, 40.47691 ], [ 124.93722, 40.4527 ], [ 125.03573, 40.48737 ], [ 125.02279, 40.53347 ], [ 125.10192, 40.56031 ], [ 125.19946, 40.60714 ], [ 125.2508, 40.6119 ], [ 125.26826, 40.64633 ], [ 125.31999, 40.63848 ], [ 125.4112588, 40.6543929 ] ] ], [ [ [ 124.8932862, 39.6067125 ], [ 124.9225312, 39.5478591 ], [ 124.8584358, 39.4910357 ], [ 124.8466553, 39.5497581 ], [ 124.8932862, 39.6067125 ] ] ] ] } },
{ "type": "Feature", "properties": { "POLYGON_ID": "PRK_GAUL2000_ADM1_1061", "ADM0_ISO3": "PRK", "ADM0_NAME": "Dem People's Rep of Korea", "ADM0_CODE": 67, "ADM1_NAME": "P'yongyang-si", "ADM1_CODE": 1061, "GEOSET": "GAUL", "GEOSET_YEAR": 2000.0, "GEOSET_VERSION": "GAUL_v1", "GEOSET_UNIT": "ADM1", "CENTROID_LONG": 125.92318862785592, "CENTROID_LAT": 38.997798626385006 }, "geometry": { "type": "MultiPolygon", "coordinates": [ [ [ [ 126.3873901, 38.930481 ], [ 126.3294373, 38.9538803 ], [ 126.2691498, 38.9586029 ], [ 126.2383118, 38.984993 ], [ 126.1235962, 38.9702683 ], [ 126.1244202, 38.9036026 ], [ 126.1669312, 38.883606 ], [ 126.2149963, 38.8308258 ], [ 126.2130432, 38.7683258 ], [ 126.1483307, 38.7505493 ], [ 126.1155396, 38.715271 ], [ 126.0188828, 38.7111053 ], [ 125.9360962, 38.7461014 ], [ 125.9238663, 38.7913818 ], [ 125.8169403, 38.8361053 ], [ 125.7360992, 38.8416595 ], [ 125.6835938, 38.8333282 ], [ 125.5751495, 38.7804489 ], [ 125.527771, 38.821106 ], [ 125.5269318, 38.8583298 ], [ 125.5877686, 38.8844376 ], [ 125.6074829, 38.9413757 ], [ 125.5788651, 39.010273 ], [ 125.5822067, 39.0694427 ], [ 125.6608124, 39.1177673 ], [ 125.6336136, 39.14888 ], [ 125.6308136, 39.2474899 ], [ 125.7130432, 39.2813797 ], [ 125.7433167, 39.2794342 ], [ 125.781662, 39.2363815 ], [ 125.8270493, 39.2200813 ], [ 125.9249878, 39.2347183 ], [ 125.9723129, 39.203392 ], [ 126.0736084, 39.2236023 ], [ 126.0933228, 39.1824951 ], [ 126.1408234, 39.1833267 ], [ 126.1660919, 39.1591568 ], [ 126.235527, 39.1555481 ], [ 126.2480316, 39.0899887 ], [ 126.2874908, 39.0602722 ], [ 126.3371964, 39.0530472 ], [ 126.3888931, 38.9658279 ], [ 126.3873901, 38.930481 ] ] ] ] } },
{ "type": "Feature", "properties": { "POLYGON_ID": "PRK_GAUL2000_ADM1_1062", "ADM0_ISO3": "PRK", "ADM0_NAME": "Dem People's Rep of Korea", "ADM0_CODE": 67, "ADM1_NAME": "Hamgyong-namdo", "ADM1_CODE": 1062, "GEOSET": "GAUL", "GEOSET_YEAR": 2000.0, "GEOSET_VERSION": "GAUL_v1", "GEOSET_UNIT": "ADM1", "CENTROID_LONG": 127.80476590648189, "CENTROID_LAT": 40.265721323421403 }, "geometry": { "type": "MultiPolygon", "coordinates": [ [ [ [ 128.988769499999989, 41.0989304 ], [ 129.000549299999989, 41.0122147 ], [ 128.9391479, 40.9227676 ], [ 128.959137, 40.8783264 ], [ 128.9380188, 40.8258286 ], [ 128.975524900000011, 40.7736053 ], [ 128.9785767, 40.7222137 ], [ 129.0580139, 40.6566544 ], [ 129.0635986, 40.5974884 ], [ 129.1680307, 40.5677403 ], [ 129.1021738, 40.4941072 ], [ 128.9598681, 40.451186 ], [ 128.9041154, 40.3986943 ], [ 128.8091281, 40.3516836 ], [ 128.6969612, 40.3323005 ], [ 128.629441, 40.305737 ], [ 128.618531499999989, 40.2764953 ], [ 128.6583095, 40.2389503 ], [ 128.66242840000001, 40.1935931 ], [ 128.556397299999986, 40.1684997 ], [ 128.5200343, 40.1338916 ], [ 128.472169, 40.1321498 ], [ 128.443389, 40.1017261 ], [ 128.3605195, 40.0908853 ], [ 128.327224300000012, 40.0407248 ], [ 128.3223883, 40.0000006 ], [ 128.2622973, 40.0060087 ], [ 128.1738126, 39.9785972 ], [ 128.1608272, 40.0074199 ], [ 128.0611873, 40.0144888 ], [ 127.9587938, 40.0052982 ], [ 127.885223, 39.9668266 ], [ 127.871108, 39.9009631 ], [ 127.8037253, 39.8722748 ], [ 127.776124, 39.8474008 ], [ 127.6358352, 39.8232734 ], [ 127.541398, 39.7745568 ], [ 127.4903502, 39.6991361 ], [ 127.4880288, 39.6628123 ], [ 127.5335759, 39.6368939 ], [ 127.5754396, 39.5856628 ], [ 127.5145038, 39.5059954 ], [ 127.5187308, 39.4442509 ], [ 127.5664684, 39.3065781 ], [ 127.5165862, 39.2998071 ], [ 127.5324922, 39.3895066 ], [ 127.5018458, 39.4271891 ], [ 127.4419643, 39.406074 ], [ 127.4131941, 39.4196258 ], [ 127.334149, 39.4051476 ], [ 127.2810974, 39.4130478 ], [ 127.1524811, 39.4127655 ], [ 127.1022034, 39.3691559 ], [ 127.086113, 39.2838821 ], [ 127.0297089, 39.2694397 ], [ 127.0424805, 39.2208252 ], [ 127.0255127, 39.2043381 ], [ 126.9208221, 39.2244339 ], [ 126.9324799, 39.2577744 ], [ 126.9097137, 39.285553 ], [ 126.8449936, 39.2733231 ], [ 126.8252716, 39.3097153 ], [ 126.7380371, 39.2972183 ], [ 126.6955338, 39.3308258 ], [ 126.6955338, 39.3558273 ], [ 126.7394333, 39.4558258 ], [ 126.7341537, 39.4783249 ], [ 126.6788635, 39.5183258 ], [ 126.6749878, 39.5636063 ], [ 126.71138, 39.5905457 ], [ 126.7002716, 39.6524887 ], [ 126.7538834, 39.7005463 ], [ 126.7188721, 39.7377701 ], [ 126.7577667, 39.7863846 ], [ 126.7760925, 39.8355484 ], [ 126.8708191, 39.8661041 ], [ 126.9699936, 39.8577728 ], [ 127.0077667, 39.8247147 ], [ 127.0341492, 39.8452683 ], [ 127.0836029, 39.8472137 ], [ 127.114151, 39.8963852 ], [ 127.0691528, 39.9630508 ], [ 127.0563736, 40.0202713 ], [ 127.0813828, 40.0611038 ], [ 127.1785889, 40.1355515 ], [ 127.1594162, 40.1744385 ], [ 127.11026, 40.1880417 ], [ 127.1019287, 40.2894363 ], [ 127.0527573, 40.3252716 ], [ 126.9919281, 40.3374939 ], [ 126.9111862, 40.3346939 ], [ 126.9483185, 40.4363785 ], [ 127.0077667, 40.4816589 ], [ 127.0061035, 40.5480499 ], [ 127.1235962, 40.6152725 ], [ 127.2058334, 40.6286011 ], [ 127.2322083, 40.7033234 ], [ 127.2683334, 40.7361069 ], [ 127.4052582, 40.7941589 ], [ 127.4177628, 40.820549 ], [ 127.3963776, 40.9236069 ], [ 127.4074936, 40.9641571 ], [ 127.4949799, 41.02388 ], [ 127.5056305, 41.0707779 ], [ 127.5816727, 41.0613785 ], [ 127.6249771, 41.0838776 ], [ 127.6380463, 41.1277695 ], [ 127.6835938, 41.1452713 ], [ 127.781662, 41.1260986 ], [ 127.7947083, 41.0897141 ], [ 127.7755432, 41.0308228 ], [ 127.6902618, 40.988884 ], [ 127.7169266, 40.9449921 ], [ 127.6860962, 40.9088821 ], [ 127.5955429, 40.8502731 ], [ 127.6188736, 40.7758255 ], [ 127.6733093, 40.6999969 ], [ 127.711647, 40.6808243 ], [ 127.723877, 40.6088867 ], [ 127.7869263, 40.6002731 ], [ 127.7697067, 40.5202713 ], [ 127.7285919, 40.4777679 ], [ 127.727478, 40.4244385 ], [ 127.7824936, 40.4266586 ], [ 127.9119263, 40.4977722 ], [ 127.9863663, 40.5819397 ], [ 128.0896912, 40.6030502 ], [ 128.1491394, 40.5636063 ], [ 128.1880188, 40.5688858 ], [ 128.2457886, 40.625824 ], [ 128.33551030000001, 40.6902695 ], [ 128.361084, 40.7558289 ], [ 128.390808099999987, 40.7961044 ], [ 128.416656499999988, 40.8822098 ], [ 128.4385681, 40.9099884 ], [ 128.443573, 41.0019379 ], [ 128.575531, 41.0133286 ], [ 128.6169128, 41.0655441 ], [ 128.6616516, 41.0858231 ], [ 128.6713562, 41.1205444 ], [ 128.7432861, 41.1747131 ], [ 128.8424683, 41.1780472 ], [ 128.9674683, 41.121933 ], [ 128.988769499999989, 41.0989304 ] ] ] ] } },
{ "type": "Feature", "properties": { "POLYGON_ID": "PRK_GAUL2000_ADM1_1063", "ADM0_ISO3": "PRK", "ADM0_NAME": "Dem People's Rep of Korea", "ADM0_CODE": 67, "ADM1_NAME": "Hwanghae-namdo", "ADM1_CODE": 1063, "GEOSET": "GAUL", "GEOSET_YEAR": 2000.0, "GEOSET_VERSION": "GAUL_v1", "GEOSET_UNIT": "ADM1", "CENTROID_LONG": 125.53604511254346, "CENTROID_LAT": 38.245038993639739 }, "geometry": { "type": "MultiPolygon", "coordinates": [ [ [ [ 125.5788651, 39.010273 ], [ 125.6074829, 38.9413757 ], [ 125.5877686, 38.8844376 ], [ 125.5269318, 38.8583298 ], [ 125.527771, 38.821106 ], [ 125.5751495, 38.7804489 ], [ 125.5799866, 38.7472153 ], [ 125.618042, 38.7197266 ], [ 125.6144333, 38.6897125 ], [ 125.6533203, 38.6272125 ], [ 125.6624908, 38.5319366 ], [ 125.69664, 38.4919357 ], [ 125.6994171, 38.4155426 ], [ 125.7452469, 38.3430481 ], [ 125.8044281, 38.3016586 ], [ 125.8377686, 38.3147125 ], [ 125.8610992, 38.2683258 ], [ 125.9016571, 38.2449951 ], [ 125.9366531, 38.1694412 ], [ 126.0452576, 38.1919327 ], [ 126.0752716, 38.1749954 ], [ 126.1263733, 38.208046 ], [ 126.1580429, 38.2030487 ], [ 126.2016602, 38.2319336 ], [ 126.2722168, 38.2413788 ], [ 126.4063721, 38.1902695 ], [ 126.4177628, 38.1486053 ], [ 126.3783112, 38.1274872 ], [ 126.3952637, 38.0938797 ], [ 126.3901978, 38.0226746 ], [ 126.4038696, 37.9961014 ], [ 126.3902664, 37.9252701 ], [ 126.4130402, 37.9080757 ], [ 126.3934112, 37.8845358 ], [ 126.3407983, 37.877385 ], [ 126.267401, 37.8404654 ], [ 126.2342368, 37.8573176 ], [ 126.1529226, 37.8337402 ], [ 126.1702495, 37.7792447 ], [ 126.1633312, 37.7409434 ], [ 126.0977166, 37.7571309 ], [ 126.0620509, 37.8162397 ], [ 125.9761954, 37.8898989 ], [ 125.9555451, 37.8289239 ], [ 125.9018387, 37.8383404 ], [ 125.8600471, 37.8940211 ], [ 125.7924189, 37.9573209 ], [ 125.8056334, 37.989827 ], [ 125.7430573, 38.0160892 ], [ 125.6984859, 37.9885598 ], [ 125.6750034, 38.025008 ], [ 125.6432406, 38.0185251 ], [ 125.5859588, 38.039791 ], [ 125.5606068, 38.0246806 ], [ 125.6000149, 37.986579 ], [ 125.6826159, 37.9340971 ], [ 125.699622, 37.8943355 ], [ 125.6420128, 37.8920337 ], [ 125.6176824, 37.8514732 ], [ 125.6266471, 37.8134796 ], [ 125.6056301, 37.7574943 ], [ 125.4930736, 37.7774799 ], [ 125.4669718, 37.7213376 ], [ 125.4114221, 37.7253059 ], [ 125.3599487, 37.7101562 ], [ 125.3335588, 37.7371944 ], [ 125.3905328, 37.763951 ], [ 125.3933715, 37.7943878 ], [ 125.4300227, 37.8251455 ], [ 125.4828123, 37.82305 ], [ 125.4821476, 37.8611091 ], [ 125.4528437, 37.8877675 ], [ 125.4085768, 37.8544003 ], [ 125.3567203, 37.8601104 ], [ 125.3460989, 37.8190391 ], [ 125.2406244, 37.8159745 ], [ 125.3015209, 37.8848633 ], [ 125.2430571, 37.9021116 ], [ 125.1933911, 37.8687576 ], [ 125.1317055, 37.8632962 ], [ 125.0319216, 37.8973281 ], [ 124.9850091, 37.9468075 ], [ 125.0756908, 37.9782724 ], [ 125.1325371, 37.9595408 ], [ 125.1027061, 38.0202605 ], [ 125.1116708, 38.0444174 ], [ 125.1809066, 38.0568724 ], [ 125.2341775, 38.0326532 ], [ 125.2587961, 38.0670878 ], [ 125.1710808, 38.093923 ], [ 125.1258087, 38.0911792 ], [ 125.0444027, 38.066266 ], [ 125.0120407, 38.070398 ], [ 124.8865512, 38.1248247 ], [ 124.855453, 38.106211 ], [ 124.7624892, 38.0950133 ], [ 124.6917276, 38.108922 ], [ 124.7593296, 38.1582901 ], [ 124.7989505, 38.1671959 ], [ 124.8662185, 38.2375875 ], [ 124.8766337, 38.30664 ], [ 124.8579185, 38.3439984 ], [ 124.8948218, 38.3710038 ], [ 124.9372322, 38.4370932 ], [ 125.0009544, 38.4749231 ], [ 125.0000016, 38.582254 ], [ 125.086273, 38.562108 ], [ 125.128798, 38.5850632 ], [ 125.1309131, 38.6125172 ], [ 125.1893082, 38.649414 ], [ 125.2642673, 38.658526 ], [ 125.3067923, 38.6434059 ], [ 125.362532, 38.6880592 ], [ 125.4318922, 38.6808952 ], [ 125.4761886, 38.6979799 ], [ 125.5194635, 38.6690263 ], [ 125.5620508, 38.6971024 ], [ 125.5290536, 38.7176348 ], [ 125.4335948, 38.7312554 ], [ 125.3969109, 38.7151726 ], [ 125.3165985, 38.7053108 ], [ 125.2822425, 38.6875549 ], [ 125.2249836, 38.7219109 ], [ 125.2673401, 38.7693826 ], [ 125.2955627, 38.7791519 ], [ 125.2964783, 38.8652573 ], [ 125.3686981, 38.9162369 ], [ 125.3666153, 39.0265694 ], [ 125.4609985, 39.0182991 ], [ 125.4905777, 39.0424576 ], [ 125.5227203, 39.0020256 ], [ 125.5788651, 39.010273 ] ] ] ] } },
{ "type": "Feature", "properties": { "POLYGON_ID": "PRK_GAUL2000_ADM1_1064", "ADM0_ISO3": "PRK", "ADM0_NAME": "Dem People's Rep of Korea", "ADM0_CODE": 67, "ADM1_NAME": "P'yongan-namdo", "ADM1_CODE": 1064, "GEOSET": "GAUL", "GEOSET_YEAR": 2000.0, "GEOSET_VERSION": "GAUL_v1", "GEOSET_UNIT": "ADM1", "CENTROID_LONG": 126.25491392818509, "CENTROID_LAT": 39.524360324254673 }, "geometry": { "type": "MultiPolygon", "coordinates": [ [ [ [ 127.0255127, 39.2043381 ], [ 127.0655365, 39.1669388 ], [ 126.9949799, 39.1236038 ], [ 126.9820099, 39.0692062 ], [ 126.9319305, 39.0583267 ], [ 126.8394318, 39.1069412 ], [ 126.7711029, 39.1236038 ], [ 126.7302704, 39.1469421 ], [ 126.6599884, 39.1355515 ], [ 126.5619202, 39.1594315 ], [ 126.5627594, 39.1149979 ], [ 126.6169281, 39.0544357 ], [ 126.6611023, 38.9858246 ], [ 126.6241531, 38.9666595 ], [ 126.5716629, 38.9749908 ], [ 126.5155487, 39.0027771 ], [ 126.4788666, 38.9852676 ], [ 126.5005493, 38.9308243 ], [ 126.4683228, 38.9077683 ], [ 126.3873901, 38.930481 ], [ 126.3888931, 38.9658279 ], [ 126.3371964, 39.0530472 ], [ 126.2874908, 39.0602722 ], [ 126.2480316, 39.0899887 ], [ 126.235527, 39.1555481 ], [ 126.1660919, 39.1591568 ], [ 126.1408234, 39.1833267 ], [ 126.0933228, 39.1824951 ], [ 126.0736084, 39.2236023 ], [ 125.9723129, 39.203392 ], [ 125.9249878, 39.2347183 ], [ 125.8270493, 39.2200813 ], [ 125.781662, 39.2363815 ], [ 125.7433167, 39.2794342 ], [ 125.7130432, 39.2813797 ], [ 125.6308136, 39.2474899 ], [ 125.6336136, 39.14888 ], [ 125.6608124, 39.1177673 ], [ 125.5822067, 39.0694427 ], [ 125.5788651, 39.010273 ], [ 125.5227203, 39.0020256 ], [ 125.4905777, 39.0424576 ], [ 125.4609985, 39.0182991 ], [ 125.3666153, 39.0265694 ], [ 125.3686981, 38.9162369 ], [ 125.2964783, 38.8652573 ], [ 125.2955627, 38.7791519 ], [ 125.2673401, 38.7693826 ], [ 125.1907423, 38.7668752 ], [ 125.1367117, 38.8057201 ], [ 125.1509708, 38.8798443 ], [ 125.1955324, 38.9876565 ], [ 125.2459024, 39.044493 ], [ 125.302513, 39.1721796 ], [ 125.3586717, 39.2271039 ], [ 125.4126597, 39.2646359 ], [ 125.4194045, 39.3098098 ], [ 125.3965835, 39.3748055 ], [ 125.3726885, 39.3779815 ], [ 125.3375795, 39.4520074 ], [ 125.3870163, 39.4884458 ], [ 125.406501, 39.5414286 ], [ 125.434461, 39.5709999 ], [ 125.5038834, 39.5755539 ], [ 125.5788727, 39.6019363 ], [ 125.6347198, 39.6363831 ], [ 125.6941376, 39.6313782 ], [ 125.7822113, 39.6649933 ], [ 125.8236084, 39.6905441 ], [ 125.8549805, 39.7458267 ], [ 125.898613, 39.7505493 ], [ 125.9994202, 39.8294373 ], [ 126.016098, 39.8636093 ], [ 126.0713806, 39.8249969 ], [ 126.1074829, 39.820549 ], [ 126.2711029, 39.8541641 ], [ 126.3672028, 39.8938828 ], [ 126.3433228, 39.9572144 ], [ 126.3602066, 40.0176163 ], [ 126.4035873, 39.9938812 ], [ 126.44664, 39.9974899 ], [ 126.4871979, 40.027771 ], [ 126.5597076, 40.0413818 ], [ 126.5697174, 40.0888824 ], [ 126.6635971, 40.1441574 ], [ 126.707489, 40.1536026 ], [ 126.7291565, 40.1808243 ], [ 126.8141479, 40.2127686 ], [ 126.8266602, 40.2519379 ], [ 126.8899765, 40.2944412 ], [ 126.9111862, 40.3346939 ], [ 126.9919281, 40.3374939 ], [ 127.0527573, 40.3252716 ], [ 127.1019287, 40.2894363 ], [ 127.11026, 40.1880417 ], [ 127.1594162, 40.1744385 ], [ 127.1785889, 40.1355515 ], [ 127.0813828, 40.0611038 ], [ 127.0563736, 40.0202713 ], [ 127.0691528, 39.9630508 ], [ 127.114151, 39.8963852 ], [ 127.0836029, 39.8472137 ], [ 127.0341492, 39.8452683 ], [ 127.0077667, 39.8247147 ], [ 126.9699936, 39.8577728 ], [ 126.8708191, 39.8661041 ], [ 126.7760925, 39.8355484 ], [ 126.7577667, 39.7863846 ], [ 126.7188721, 39.7377701 ], [ 126.7538834, 39.7005463 ], [ 126.7002716, 39.6524887 ], [ 126.71138, 39.5905457 ], [ 126.6749878, 39.5636063 ], [ 126.6788635, 39.5183258 ], [ 126.7341537, 39.4783249 ], [ 126.7394333, 39.4558258 ], [ 126.6955338, 39.3558273 ], [ 126.6955338, 39.3308258 ], [ 126.7380371, 39.2972183 ], [ 126.8252716, 39.3097153 ], [ 126.8449936, 39.2733231 ], [ 126.9097137, 39.285553 ], [ 126.9324799, 39.2577744 ], [ 126.9208221, 39.2244339 ], [ 127.0255127, 39.2043381 ] ] ] ] } },
{ "type": "Feature", "properties": { "POLYGON_ID": "PRK_GAUL2000_ADM1_1065", "ADM0_ISO3": "PRK", "ADM0_NAME": "Dem People's Rep of Korea", "ADM0_CODE": 67, "ADM1_NAME": "Yanggang-do", "ADM1_CODE": 1065, "GEOSET": "GAUL", "GEOSET_YEAR": 2000.0, "GEOSET_VERSION": "GAUL_v1", "GEOSET_UNIT": "ADM1", "CENTROID_LONG": 128.17106585116932, "CENTROID_LAT": 41.307711983349733 }, "geometry": { "type": "MultiPolygon", "coordinates": [ [ [ [ 128.988769499999989, 41.0989304 ], [ 128.9674683, 41.121933 ], [ 128.8424683, 41.1780472 ], [ 128.7432861, 41.1747131 ], [ 128.6713562, 41.1205444 ], [ 128.6616516, 41.0858231 ], [ 128.6169128, 41.0655441 ], [ 128.575531, 41.0133286 ], [ 128.443573, 41.0019379 ], [ 128.4385681, 40.9099884 ], [ 128.416656499999988, 40.8822098 ], [ 128.390808099999987, 40.7961044 ], [ 128.361084, 40.7558289 ], [ 128.33551030000001, 40.6902695 ], [ 128.2457886, 40.625824 ], [ 128.1880188, 40.5688858 ], [ 128.1491394, 40.5636063 ], [ 128.0896912, 40.6030502 ], [ 127.9863663, 40.5819397 ], [ 127.9119263, 40.4977722 ], [ 127.7824936, 40.4266586 ], [ 127.727478, 40.4244385 ], [ 127.7285919, 40.4777679 ], [ 127.7697067, 40.5202713 ], [ 127.7869263, 40.6002731 ], [ 127.723877, 40.6088867 ], [ 127.711647, 40.6808243 ], [ 127.6733093, 40.6999969 ], [ 127.6188736, 40.7758255 ], [ 127.5955429, 40.8502731 ], [ 127.6860962, 40.9088821 ], [ 127.7169266, 40.9449921 ], [ 127.6902618, 40.988884 ], [ 127.7755432, 41.0308228 ], [ 127.7947083, 41.0897141 ], [ 127.781662, 41.1260986 ], [ 127.6835938, 41.1452713 ], [ 127.6380463, 41.1277695 ], [ 127.6249771, 41.0838776 ], [ 127.5816727, 41.0613785 ], [ 127.5056305, 41.0707779 ], [ 127.500267, 41.1422195 ], [ 127.4485931, 41.1697159 ], [ 127.3810883, 41.1466599 ], [ 127.3249969, 41.0999985 ], [ 127.234993, 41.1097183 ], [ 127.14888, 41.1513824 ], [ 127.1230316, 41.2369385 ], [ 127.137207, 41.2613831 ], [ 127.0730362, 41.288887 ], [ 127.0163879, 41.3841629 ], [ 127.0333328, 41.4241638 ], [ 126.9719162, 41.433876 ], [ 126.9277573, 41.4677658 ], [ 126.9111023, 41.5183258 ], [ 126.9297028, 41.5352707 ], [ 126.9972076, 41.531105 ], [ 127.0116577, 41.5655441 ], [ 127.0641479, 41.586937 ], [ 127.0605988, 41.6587441 ], [ 127.09808, 41.64417 ], [ 127.1405496, 41.5695932 ], [ 127.10841, 41.53628 ], [ 127.19821, 41.5316 ], [ 127.24361, 41.49735 ], [ 127.34524, 41.46045 ], [ 127.46188, 41.46106 ], [ 127.49731, 41.4748 ], [ 127.5519879, 41.4339828 ], [ 127.71606, 41.41596 ], [ 127.84795, 41.41847 ], [ 127.92801, 41.44365 ], [ 127.9866, 41.41821 ], [ 128.11906, 41.37697 ], [ 128.20184, 41.40856 ], [ 128.23891, 41.48606 ], [ 128.27837, 41.52335 ], [ 128.311309099999988, 41.5876107 ], [ 128.25401, 41.66918 ], [ 128.20401, 41.68466 ], [ 128.1568, 41.71863 ], [ 128.13619, 41.77353 ], [ 128.1077, 41.78933 ], [ 128.09848, 41.89703 ], [ 128.07013, 41.96616 ], [ 128.15147, 42.00346 ], [ 128.26183, 42.03532 ], [ 128.42566, 42.03172 ], [ 128.48926, 41.99736 ], [ 128.58517, 42.00459 ], [ 128.62889, 42.03645 ], [ 128.68484, 42.0131 ], [ 128.73506, 42.04748 ], [ 128.81383, 42.04036 ], [ 128.90708, 42.00922 ], [ 128.95279, 42.04063 ], [ 128.948, 42.08207 ], [ 129.012472300000013, 42.0994831 ], [ 129.016662599999989, 42.0541611 ], [ 128.966064499999987, 41.9886017 ], [ 128.90136720000001, 41.9744339 ], [ 128.8833313, 41.9252701 ], [ 128.838287400000013, 41.8963852 ], [ 128.874115, 41.8255539 ], [ 128.9260864, 41.8219376 ], [ 128.934967, 41.71138 ], [ 128.953308099999987, 41.6777725 ], [ 128.9271851, 41.640274 ], [ 128.9919128, 41.6272125 ], [ 129.0497131, 41.5719376 ], [ 129.0510864, 41.5294342 ], [ 128.981903100000011, 41.4736023 ], [ 128.962188700000013, 41.4286041 ], [ 128.9688416, 41.3808212 ], [ 129.028595, 41.2880478 ], [ 129.0305481, 41.2602768 ], [ 128.9907837, 41.2008286 ], [ 129.006927499999989, 41.1247101 ], [ 128.988769499999989, 41.0989304 ] ] ] ] } }
]
}
