{
"type": "FeatureCollection",
"name": "PRT_GAUL2013_ADM1",
"crs": { "type": "name", "properties": { "name": "urn:ogc:def:crs:OGC:1.3:CRS84" } },
"features": [
{ "type": "Feature", "properties": { "POLYGON_ID": "PRT_GAUL2013_ADM1_2386", "ADM0_ISO3": "PRT", "ADM0_NAME": "Portugal", "ADM0_CODE": 199, "ADM1_NAME": "Aveiro", "ADM1_CODE": 2386, "GEOSET": "GAUL", "GEOSET_YEAR": 2013.0, "GEOSET_VERSION": "GAUL_v1", "GEOSET_UNIT": "ADM1", "CENTROID_LONG": -8.463100730650762, "CENTROID_LAT": 40.728714503163793 }, "geometry": { "type": "MultiPolygon", "coordinates": [ [ [ [ -8.2530861, 41.0710602 ], [ -8.2278147, 41.0159454 ], [ -8.1270933, 40.9784775 ], [ -8.1227713, 40.9036827 ], [ -8.0983686, 40.8723145 ], [ -8.1276274, 40.8525238 ], [ -8.1653242, 40.8699799 ], [ -8.2327061, 40.8319359 ], [ -8.2666388, 40.7613297 ], [ -8.3235674, 40.7446442 ], [ -8.2919703, 40.6944466 ], [ -8.2919283, 40.6520958 ], [ -8.2414389, 40.6200142 ], [ -8.3034458, 40.6007767 ], [ -8.2724485, 40.5148697 ], [ -8.3254938, 40.4964676 ], [ -8.3142052, 40.4449043 ], [ -8.3492966, 40.4124908 ], [ -8.3521547, 40.3790245 ], [ -8.354599, 40.3505287 ], [ -8.48388, 40.3190346 ], [ -8.4766598, 40.3883934 ], [ -8.5036478, 40.4254913 ], [ -8.5665789, 40.4053459 ], [ -8.5711327, 40.4642296 ], [ -8.6176453, 40.488472 ], [ -8.638176, 40.4286613 ], [ -8.6974802, 40.460598 ], [ -8.7829706, 40.5219575 ], [ -8.7437391, 40.6430779 ], [ -8.6958361, 40.6591873 ], [ -8.6665468, 40.700737 ], [ -8.7235441, 40.7344742 ], [ -8.6635733, 40.9151993 ], [ -8.6450911, 41.0134048 ], [ -8.4961252, 41.0107155 ], [ -8.4511633, 41.0606956 ], [ -8.3833294, 41.0301819 ], [ -8.2530861, 41.0710602 ] ] ] ] } },
{ "type": "Feature", "properties": { "POLYGON_ID": "PRT_GAUL2013_ADM1_2387", "ADM0_ISO3": "PRT", "ADM0_NAME": "Portugal", "ADM0_CODE": 199, "ADM1_NAME": "Beja", "ADM1_CODE": 2387, "GEOSET": "GAUL", "GEOSET_YEAR": 2013.0, "GEOSET_VERSION": "GAUL_v1", "GEOSET_UNIT": "ADM1", "CENTROID_LONG": -7.940332395754889, "CENTROID_LAT": 37.828714911503127 }, "geometry": { "type": "MultiPolygon", "coordinates": [ [ [ [ -7.1020632, 38.1917915 ], [ -7.08262, 38.1762 ], [ -7.07212, 38.17544 ], [ -7.06704, 38.18296 ], [ -7.0657576, 38.1833558 ], [ -7.06448, 38.18375 ], [ -7.0623876, 38.1826873 ], [ -7.0531, 38.17797 ], [ -7.03567, 38.18297 ], [ -7.0308096, 38.1833985 ], [ -7.02671, 38.18376 ], [ -7.0239206, 38.1846865 ], [ -7.0058894, 38.1990652 ], [ -7.00559, 38.20516 ], [ -7.00101, 38.20647 ], [ -6.9899, 38.20527 ], [ -6.9786841, 38.2083759 ], [ -6.96628, 38.20888 ], [ -6.95052, 38.2177 ], [ -6.9438916, 38.2193054 ], [ -6.93689, 38.21818 ], [ -6.93503, 38.21387 ], [ -6.93388, 38.21118 ], [ -6.9437, 38.1802 ], [ -6.96031, 38.12494 ], [ -6.9801145, 38.0994991 ], [ -6.99355, 38.08224 ], [ -6.99294, 38.05635 ], [ -6.99876, 38.04674 ], [ -6.99363, 38.02812 ], [ -7.0087041, 38.0244288 ], [ -7.02336, 38.02084 ], [ -7.0336958, 38.0200789 ], [ -7.04183, 38.01948 ], [ -7.05776, 38.0244 ], [ -7.0785359, 38.0373208 ], [ -7.08826, 38.04024 ], [ -7.0946151, 38.0401054 ], [ -7.12594, 38.00076 ], [ -7.16979, 37.99751 ], [ -7.19872, 38.00628 ], [ -7.2031855, 38.002178 ], [ -7.20646, 37.99917 ], [ -7.20915, 37.9967 ], [ -7.23576, 37.9911 ], [ -7.243822, 37.9884608 ], [ -7.2508216, 37.9861681 ], [ -7.25756, 37.97788 ], [ -7.25736, 37.96986 ], [ -7.2549511, 37.9634826 ], [ -7.24976, 37.94974 ], [ -7.2540005, 37.9430107 ], [ -7.26527, 37.91428 ], [ -7.27148, 37.90402 ], [ -7.28104, 37.88821 ], [ -7.27439, 37.87883 ], [ -7.28771, 37.85907 ], [ -7.2957892, 37.851452 ], [ -7.29956, 37.84115 ], [ -7.3138454, 37.8265537 ], [ -7.32529, 37.81486 ], [ -7.38264, 37.7735 ], [ -7.39796, 37.76506 ], [ -7.4017501, 37.7646406 ], [ -7.41592, 37.7572 ], [ -7.41839, 37.74654 ], [ -7.4223978, 37.7419438 ], [ -7.4267, 37.73701 ], [ -7.43154, 37.71868 ], [ -7.43644, 37.70717 ], [ -7.44327, 37.6911 ], [ -7.44461, 37.67222 ], [ -7.44943, 37.65366 ], [ -7.4832408, 37.60771 ], [ -7.48816, 37.60796 ], [ -7.491394, 37.6081752 ], [ -7.49295, 37.60375 ], [ -7.4944157, 37.5890811 ], [ -7.49533, 37.58608 ], [ -7.49865, 37.57974 ], [ -7.50697, 37.57066 ], [ -7.50917, 37.56483 ], [ -7.50067, 37.56266 ], [ -7.50237, 37.558 ], [ -7.515719, 37.557429 ], [ -7.5200525, 37.5543081 ], [ -7.5122876, 37.525694 ], [ -7.5438962, 37.5257568 ], [ -7.6260409, 37.4929657 ], [ -7.6714993, 37.5040398 ], [ -7.7321615, 37.488369 ], [ -7.8748703, 37.4307365 ], [ -7.9163365, 37.4053764 ], [ -7.9954934, 37.395668 ], [ -7.9972067, 37.3680687 ], [ -8.0643177, 37.3174057 ], [ -8.1992407, 37.3465462 ], [ -8.3137465, 37.4327698 ], [ -8.4170694, 37.4152756 ], [ -8.4507408, 37.3699493 ], [ -8.5225468, 37.3811798 ], [ -8.5693398, 37.408432 ], [ -8.6836443, 37.393837 ], [ -8.7354059, 37.39925 ], [ -8.757947, 37.4336052 ], [ -8.7989847, 37.4432031 ], [ -8.7864265, 37.5315361 ], [ -8.8147163, 37.5939064 ], [ -8.7874193, 37.7172012 ], [ -8.8072624, 37.7417908 ], [ -8.7927931, 37.8223152 ], [ -8.7358303, 37.8134575 ], [ -8.6847839, 37.7573166 ], [ -8.5833654, 37.7559929 ], [ -8.5777903, 37.8020554 ], [ -8.5485992, 37.8475647 ], [ -8.4167242, 37.8652611 ], [ -8.3725748, 37.8601227 ], [ -8.3047771, 37.8856316 ], [ -8.2895212, 38.002243 ], [ -8.3370438, 38.04142 ], [ -8.3914995, 38.0494843 ], [ -8.3099308, 38.1712036 ], [ -8.2612715, 38.1956177 ], [ -8.1905928, 38.2018471 ], [ -8.1313095, 38.2207069 ], [ -8.1239738, 38.2538567 ], [ -8.1563168, 38.3189545 ], [ -8.0508108, 38.3221245 ], [ -8.0090408, 38.3025055 ], [ -7.9727306, 38.3149757 ], [ -7.8048763, 38.2422409 ], [ -7.7514172, 38.2423744 ], [ -7.6628098, 38.1995316 ], [ -7.5867224, 38.2035599 ], [ -7.5315661, 38.1924896 ], [ -7.458735, 38.2138367 ], [ -7.4273496, 38.2620468 ], [ -7.3777332, 38.3012733 ], [ -7.2743177, 38.3302765 ], [ -7.2383895, 38.2656899 ], [ -7.1473799, 38.172863 ], [ -7.1020632, 38.1917915 ] ] ] ] } },
{ "type": "Feature", "properties": { "POLYGON_ID": "PRT_GAUL2013_ADM1_2388", "ADM0_ISO3": "PRT", "ADM0_NAME": "Portugal", "ADM0_CODE": 199, "ADM1_NAME": "Braga", "ADM1_CODE": 2388, "GEOSET": "GAUL", "GEOSET_YEAR": 2013.0, "GEOSET_VERSION": "GAUL_v1", "GEOSET_UNIT": "ADM1", "CENTROID_LONG": -8.3065962739659227, "CENTROID_LAT": 41.552025563979001 }, "geometry": { "type": "MultiPolygon", "coordinates": [ [ [ [ -7.9659748, 41.3795776 ], [ -8.0157194, 41.325489 ], [ -8.1236429, 41.3519859 ], [ -8.1595478, 41.403614 ], [ -8.204627, 41.4151917 ], [ -8.2702379, 41.3747368 ], [ -8.2816629, 41.3427086 ], [ -8.3502893, 41.3683052 ], [ -8.4938936, 41.3697166 ], [ -8.5089207, 41.348423 ], [ -8.6075897, 41.3399391 ], [ -8.6218405, 41.3832664 ], [ -8.6654148, 41.4436913 ], [ -8.6986761, 41.4400826 ], [ -8.7720966, 41.4683151 ], [ -8.7872391, 41.4964218 ], [ -8.805545, 41.6068423 ], [ -8.7273655, 41.6177444 ], [ -8.6396055, 41.6521835 ], [ -8.5489244, 41.6213799 ], [ -8.5061579, 41.7206268 ], [ -8.4171715, 41.7583427 ], [ -8.2962255, 41.7621689 ], [ -8.1491833, 41.8164139 ], [ -8.12957, 41.81063 ], [ -8.11416, 41.80883 ], [ -8.0383014, 41.8191859 ], [ -8.0710936, 41.7282867 ], [ -8.1050768, 41.6919556 ], [ -8.0140228, 41.7006302 ], [ -7.9867296, 41.6650124 ], [ -7.9868703, 41.6060104 ], [ -7.8724637, 41.5924644 ], [ -7.8300285, 41.6151505 ], [ -7.8032899, 41.581398 ], [ -7.8279147, 41.542881 ], [ -7.9294343, 41.4825592 ], [ -7.9324188, 41.4343452 ], [ -7.9659748, 41.3795776 ] ] ] ] } },
{ "type": "Feature", "properties": { "POLYGON_ID": "PRT_GAUL2013_ADM1_2389", "ADM0_ISO3": "PRT", "ADM0_NAME": "Portugal", "ADM0_CODE": 199, "ADM1_NAME": "Braganca", "ADM1_CODE": 2389, "GEOSET": "GAUL", "GEOSET_YEAR": 2013.0, "GEOSET_VERSION": "GAUL_v1", "GEOSET_UNIT": "ADM1", "CENTROID_LONG": -6.8547659091161535, "CENTROID_LAT": 41.511356529609465 }, "geometry": { "type": "MultiPolygon", "coordinates": [ [ [ [ -6.97647, 41.96859 ], [ -6.96616, 41.97179 ], [ -6.93579, 41.94725 ], [ -6.930481, 41.945351 ], [ -6.9091586, 41.9413344 ], [ -6.89449, 41.94148 ], [ -6.88273, 41.93852 ], [ -6.85515, 41.94416 ], [ -6.8535671, 41.9452272 ], [ -6.84462, 41.94434 ], [ -6.8256412, 41.9451799 ], [ -6.8248321, 41.9454547 ], [ -6.81364, 41.94926 ], [ -6.78579, 41.98878 ], [ -6.7776091, 41.9883117 ], [ -6.76787, 41.98524 ], [ -6.7597869, 41.9778862 ], [ -6.7326, 41.94084 ], [ -6.68987, 41.9373 ], [ -6.67451, 41.93645 ], [ -6.6359081, 41.9414251 ], [ -6.61283, 41.94355 ], [ -6.5811714, 41.9589734 ], [ -6.5799, 41.9684 ], [ -6.5749004, 41.9678478 ], [ -6.57148, 41.96747 ], [ -6.56175, 41.95682 ], [ -6.5525259, 41.9457546 ], [ -6.55123, 41.9442 ], [ -6.54193, 41.93131 ], [ -6.54445, 41.92372 ], [ -6.53509, 41.87902 ], [ -6.5234, 41.8744949 ], [ -6.51733, 41.86926 ], [ -6.52321, 41.86137 ], [ -6.52235, 41.85932 ], [ -6.52917, 41.84022 ], [ -6.5286984, 41.8376797 ], [ -6.52811, 41.83451 ], [ -6.5300395, 41.8249277 ], [ -6.53107, 41.81981 ], [ -6.53671, 41.81377 ], [ -6.5394116, 41.8022241 ], [ -6.53945, 41.80206 ], [ -6.54417, 41.79604 ], [ -6.54667, 41.78684 ], [ -6.5484364, 41.7787239 ], [ -6.55047, 41.76938 ], [ -6.55634, 41.76082 ], [ -6.5691, 41.74758 ], [ -6.5634182, 41.7445184 ], [ -6.55919, 41.74224 ], [ -6.5571908, 41.7360823 ], [ -6.5543278, 41.733774 ], [ -6.55189, 41.73181 ], [ -6.549392, 41.7242557 ], [ -6.5448743, 41.7080685 ], [ -6.54971, 41.6998 ], [ -6.5531229, 41.6939504 ], [ -6.5545, 41.69159 ], [ -6.5451722, 41.6908602 ], [ -6.4813647, 41.6616339 ], [ -6.45807, 41.66719 ], [ -6.45265, 41.66957 ], [ -6.4478026, 41.6752549 ], [ -6.4376, 41.68722 ], [ -6.40934, 41.68105 ], [ -6.3983079, 41.6810929 ], [ -6.368, 41.67646 ], [ -6.3595051, 41.677582 ], [ -6.30785, 41.66437 ], [ -6.2848315, 41.6596903 ], [ -6.1826909, 41.5783797 ], [ -6.1954459, 41.5737983 ], [ -6.20793, 41.56451 ], [ -6.21229, 41.55644 ], [ -6.2160401, 41.5554398 ], [ -6.23106, 41.53282 ], [ -6.2541253, 41.517893 ], [ -6.25413, 41.51789 ], [ -6.25569, 41.5062 ], [ -6.2624009, 41.5008451 ], [ -6.27125, 41.49571 ], [ -6.29699, 41.45923 ], [ -6.3006988, 41.4529503 ], [ -6.30267, 41.44957 ], [ -6.30562, 41.44432 ], [ -6.31491, 41.41717 ], [ -6.3207406, 41.4138433 ], [ -6.3253, 41.40786 ], [ -6.32922, 41.39567 ], [ -6.39016, 41.38933 ], [ -6.3921781, 41.3806586 ], [ -6.3821458, 41.364458 ], [ -6.38144, 41.36211 ], [ -6.3888819, 41.3553728 ], [ -6.39599, 41.3502 ], [ -6.42214, 41.33055 ], [ -6.4250209, 41.3236341 ], [ -6.42838, 41.31557 ], [ -6.4340478, 41.311649 ], [ -6.44058, 41.30713 ], [ -6.4571, 41.30136 ], [ -6.47288, 41.29274 ], [ -6.4728842, 41.2927366 ], [ -6.5067, 41.26593 ], [ -6.5174707, 41.2629079 ], [ -6.5438535, 41.2562346 ], [ -6.5584, 41.2464 ], [ -6.5622954, 41.2428631 ], [ -6.57048, 41.23767 ], [ -6.57518, 41.23789 ], [ -6.581017, 41.2376976 ], [ -6.58883, 41.23744 ], [ -6.6233, 41.24527 ], [ -6.6321697, 41.2440087 ], [ -6.63427, 41.24371 ], [ -6.6373118, 41.2427135 ], [ -6.6879, 41.20067 ], [ -6.69287, 41.19531 ], [ -6.70114, 41.17915 ], [ -6.74887, 41.142 ], [ -6.76531, 41.13299 ], [ -6.75411, 41.10602 ], [ -6.755998, 41.1039751 ], [ -6.774459, 41.0806514 ], [ -6.78244, 41.06571 ], [ -6.7933163, 41.0577059 ], [ -6.8015488, 41.0501403 ], [ -6.80675, 41.04417 ], [ -6.81206, 41.04177 ], [ -6.8203064, 41.0383727 ], [ -6.849093, 41.0327823 ], [ -6.85964, 41.03166 ], [ -6.90188, 41.03756 ], [ -6.91503, 41.03893 ], [ -6.9169805, 41.0384461 ], [ -6.92031, 41.03762 ], [ -6.93036, 41.034 ], [ -7.0407372, 41.0459061 ], [ -7.0978155, 41.0840263 ], [ -7.0805063, 41.1330757 ], [ -7.1460562, 41.159481 ], [ -7.1612692, 41.1325645 ], [ -7.2573156, 41.1490211 ], [ -7.2983499, 41.1444664 ], [ -7.3471842, 41.1501846 ], [ -7.388001, 41.2028885 ], [ -7.4220901, 41.2156868 ], [ -7.3862085, 41.2443161 ], [ -7.3817482, 41.2921829 ], [ -7.3510323, 41.33284 ], [ -7.3564744, 41.4419479 ], [ -7.3167415, 41.4622383 ], [ -7.2779374, 41.5163841 ], [ -7.2214451, 41.5247116 ], [ -7.2519503, 41.5730248 ], [ -7.2354894, 41.6417542 ], [ -7.1999655, 41.7177811 ], [ -7.1631961, 41.7495995 ], [ -7.1977534, 41.8190117 ], [ -7.191722, 41.8863691 ], [ -7.1901039, 41.8888969 ], [ -7.17536, 41.91195 ], [ -7.17431, 41.91848 ], [ -7.17789, 41.92654 ], [ -7.1814, 41.93263 ], [ -7.1826086, 41.9374978 ], [ -7.18394, 41.94286 ], [ -7.18281, 41.94892 ], [ -7.1806628, 41.9533335 ], [ -7.18585, 41.9599 ], [ -7.18511, 41.96222 ], [ -7.1844607, 41.9648616 ], [ -7.1833, 41.96942 ], [ -7.1759, 41.97957 ], [ -7.17518, 41.9801 ], [ -7.14481, 41.98979 ], [ -7.12301, 41.98383 ], [ -7.117776, 41.984691 ], [ -7.11456, 41.98522 ], [ -7.09719, 41.98058 ], [ -7.06478, 41.95269 ], [ -7.05945, 41.94961 ], [ -7.0528271, 41.9490202 ], [ -7.04202, 41.9509 ], [ -7.0230507, 41.95201 ], [ -7.01342, 41.94879 ], [ -6.98864, 41.95803 ], [ -6.97647, 41.96859 ] ] ] ] } },
{ "type": "Feature", "properties": { "POLYGON_ID": "PRT_GAUL2013_ADM1_2390", "ADM0_ISO3": "PRT", "ADM0_NAME": "Portugal", "ADM0_CODE": 199, "ADM1_NAME": "Castelo Branco", "ADM1_CODE": 2390, "GEOSET": "GAUL", "GEOSET_YEAR": 2013.0, "GEOSET_VERSION": "GAUL_v1", "GEOSET_UNIT": "ADM1", "CENTROID_LONG": -7.4955576270835085, "CENTROID_LAT": 39.948625613152693 }, "geometry": { "type": "MultiPolygon", "coordinates": [ [ [ [ -6.9440793, 40.255277 ], [ -6.96138, 40.23912 ], [ -6.98162, 40.23776 ], [ -7.01646, 40.18073 ], [ -7.01405, 40.16433 ], [ -6.99026, 40.11671 ], [ -6.9884355, 40.1176113 ], [ -6.98273, 40.12043 ], [ -6.95856, 40.11462 ], [ -6.9532173, 40.113871 ], [ -6.94893, 40.11327 ], [ -6.942768, 40.1130829 ], [ -6.94133, 40.1126 ], [ -6.92007, 40.08597 ], [ -6.9187247, 40.0816394 ], [ -6.8934337, 40.0626902 ], [ -6.89522, 40.05754 ], [ -6.8950995, 40.0562555 ], [ -6.89478, 40.05285 ], [ -6.88605, 40.0468 ], [ -6.8814945, 40.0398245 ], [ -6.87933, 40.03651 ], [ -6.8753, 40.02532 ], [ -6.8751141, 40.0236131 ], [ -6.87508, 40.0233 ], [ -6.87307, 40.02084 ], [ -6.8659599, 40.0147755 ], [ -6.8638914, 40.0130092 ], [ -6.8669695, 40.0113152 ], [ -6.86836, 40.01055 ], [ -6.87038, 40.00629 ], [ -6.87469, 40.0 ], [ -6.87551, 39.99289 ], [ -6.8838828, 39.9750598 ], [ -6.8868246, 39.9684792 ], [ -6.89001, 39.95803 ], [ -6.88558, 39.94377 ], [ -6.8879714, 39.935704 ], [ -6.9026105, 39.9214082 ], [ -6.90453, 39.91401 ], [ -6.9026528, 39.906037 ], [ -6.89972, 39.89358 ], [ -6.90256, 39.86737 ], [ -6.91696, 39.85083 ], [ -6.98571, 39.79747 ], [ -6.9771417, 39.7773707 ], [ -6.9772, 39.77031 ], [ -6.99088, 39.74278 ], [ -6.99204, 39.7377 ], [ -6.9908924, 39.7306099 ], [ -6.99047, 39.728 ], [ -6.9914231, 39.7240756 ], [ -6.99503, 39.71887 ], [ -6.997302, 39.715589 ], [ -7.01206, 39.67205 ], [ -7.0594, 39.65639 ], [ -7.0652539, 39.656172 ], [ -7.10959, 39.66373 ], [ -7.14738, 39.65685 ], [ -7.17583, 39.66222 ], [ -7.2519, 39.66626 ], [ -7.31352, 39.64767 ], [ -7.38671, 39.65311 ], [ -7.42319, 39.65857 ], [ -7.4399045, 39.6614969 ], [ -7.46602, 39.66607 ], [ -7.4836959, 39.6644536 ], [ -7.52493, 39.65641 ], [ -7.5702538, 39.6604805 ], [ -7.6266336, 39.6249847 ], [ -7.6747642, 39.6469154 ], [ -7.820344, 39.5394058 ], [ -7.8117924, 39.5847282 ], [ -7.8433709, 39.6258087 ], [ -7.8918915, 39.6596947 ], [ -7.9492636, 39.6638184 ], [ -7.9559617, 39.7436104 ], [ -8.0345936, 39.750164 ], [ -8.0778055, 39.6176796 ], [ -8.1403427, 39.6170158 ], [ -8.2285404, 39.6526527 ], [ -8.2228022, 39.7579994 ], [ -8.2809782, 39.7982521 ], [ -8.2733965, 39.8416672 ], [ -8.2088184, 39.8538017 ], [ -8.141737, 39.888607 ], [ -8.114047, 39.9348335 ], [ -8.0523901, 39.9719238 ], [ -8.0274057, 39.9632416 ], [ -7.9479971, 40.0049744 ], [ -7.9024506, 40.0064583 ], [ -7.8987131, 40.04533 ], [ -7.8209577, 40.0531578 ], [ -7.7589793, 40.0800972 ], [ -7.7308011, 40.1238518 ], [ -7.8033929, 40.183506 ], [ -7.7805252, 40.2321396 ], [ -7.7279916, 40.2405167 ], [ -7.7063136, 40.2647324 ], [ -7.6560926, 40.2723999 ], [ -7.6097631, 40.3233871 ], [ -7.5349016, 40.3183441 ], [ -7.5019507, 40.381424 ], [ -7.4539175, 40.4004936 ], [ -7.3954439, 40.3810654 ], [ -7.3436503, 40.3879395 ], [ -7.3140845, 40.4132233 ], [ -7.2655849, 40.4074173 ], [ -7.2819719, 40.3298645 ], [ -7.3164897, 40.2810555 ], [ -7.2380486, 40.2582588 ], [ -7.2084665, 40.2860336 ], [ -7.1671901, 40.2691765 ], [ -7.102623, 40.3212051 ], [ -7.0800743, 40.2767563 ], [ -7.0001507, 40.2811317 ], [ -6.9440793, 40.255277 ] ] ] ] } },
{ "type": "Feature", "properties": { "POLYGON_ID": "PRT_GAUL2013_ADM1_2391", "ADM0_ISO3": "PRT", "ADM0_NAME": "Portugal", "ADM0_CODE": 199, "ADM1_NAME": "Coimbra", "ADM1_CODE": 2391, "GEOSET": "GAUL", "GEOSET_YEAR": 2013.0, "GEOSET_VERSION": "GAUL_v1", "GEOSET_UNIT": "ADM1", "CENTROID_LONG": -8.3329742117543297, "CENTROID_LAT": 40.21052507233334 }, "geometry": { "type": "MultiPolygon", "coordinates": [ [ [ [ -8.3521547, 40.3790245 ], [ -8.3005877, 40.3646736 ], [ -8.2429323, 40.3287621 ], [ -8.2091179, 40.3470612 ], [ -8.1143417, 40.3412323 ], [ -8.0394459, 40.388649 ], [ -8.0013666, 40.3955269 ], [ -7.8550963, 40.4916687 ], [ -7.822659, 40.50177 ], [ -7.794354, 40.4613075 ], [ -7.8457637, 40.430687 ], [ -7.7943578, 40.4089279 ], [ -7.7982903, 40.3108978 ], [ -7.8177962, 40.259613 ], [ -7.7805252, 40.2321396 ], [ -7.8033929, 40.183506 ], [ -7.7308011, 40.1238518 ], [ -7.7589793, 40.0800972 ], [ -7.8209577, 40.0531578 ], [ -7.8987131, 40.04533 ], [ -7.9024506, 40.0064583 ], [ -7.9479971, 40.0049744 ], [ -8.0274057, 39.9632416 ], [ -8.0523901, 39.9719238 ], [ -8.114047, 39.9348335 ], [ -8.1052618, 39.9743729 ], [ -8.1517115, 40.0261154 ], [ -8.137558, 40.0743256 ], [ -8.1756897, 40.0915337 ], [ -8.2102346, 40.0557747 ], [ -8.2694979, 40.0517273 ], [ -8.3133755, 39.9781609 ], [ -8.350317, 39.9464645 ], [ -8.3817072, 39.968483 ], [ -8.4218941, 40.0284653 ], [ -8.514533, 39.9877968 ], [ -8.5537472, 40.0330124 ], [ -8.5864191, 40.0330811 ], [ -8.6157475, 39.9954529 ], [ -8.6751471, 40.0325012 ], [ -8.7867107, 40.0389633 ], [ -8.7979698, 40.0162849 ], [ -8.8653946, 40.0248032 ], [ -8.8937334, 40.0466311 ], [ -8.8554316, 40.147953 ], [ -8.9088459, 40.1876411 ], [ -8.8696079, 40.2641792 ], [ -8.8140173, 40.4102135 ], [ -8.7829706, 40.5219575 ], [ -8.6974802, 40.460598 ], [ -8.638176, 40.4286613 ], [ -8.6176453, 40.488472 ], [ -8.5711327, 40.4642296 ], [ -8.5665789, 40.4053459 ], [ -8.5036478, 40.4254913 ], [ -8.4766598, 40.3883934 ], [ -8.48388, 40.3190346 ], [ -8.354599, 40.3505287 ], [ -8.3521547, 40.3790245 ] ] ] ] } },
{ "type": "Feature", "properties": { "POLYGON_ID": "PRT_GAUL2013_ADM1_2392", "ADM0_ISO3": "PRT", "ADM0_NAME": "Portugal", "ADM0_CODE": 199, "ADM1_NAME": "Evora", "ADM1_CODE": 2392, "GEOSET": "GAUL", "GEOSET_YEAR": 2013.0, "GEOSET_VERSION": "GAUL_v1", "GEOSET_UNIT": "ADM1", "CENTROID_LONG": -7.8385576791495017, "CENTROID_LAT": 38.603763998003515 }, "geometry": { "type": "MultiPolygon", "coordinates": [ [ [ [ -7.1961058, 38.7526988 ], [ -7.20371, 38.74653 ], [ -7.2341, 38.73385 ], [ -7.25085, 38.72518 ], [ -7.25482, 38.71883 ], [ -7.26457, 38.66686 ], [ -7.24088, 38.62375 ], [ -7.25527, 38.60601 ], [ -7.26019, 38.59092 ], [ -7.30601, 38.516 ], [ -7.31053, 38.50806 ], [ -7.31133, 38.47869 ], [ -7.2972563, 38.4839837 ], [ -7.29708, 38.48405 ], [ -7.2959481, 38.4791262 ], [ -7.2958801, 38.4788299 ], [ -7.31008, 38.46382 ], [ -7.31435, 38.44996 ], [ -7.32796, 38.44136 ], [ -7.330187, 38.4380111 ], [ -7.33062, 38.43736 ], [ -7.31929, 38.4351412 ], [ -7.31184, 38.43533 ], [ -7.28422, 38.42218 ], [ -7.26901, 38.39755 ], [ -7.17133, 38.29441 ], [ -7.15155, 38.27979 ], [ -7.13331, 38.23233 ], [ -7.11434, 38.21148 ], [ -7.1020632, 38.1917915 ], [ -7.1473799, 38.172863 ], [ -7.2383895, 38.2656899 ], [ -7.2743177, 38.3302765 ], [ -7.3777332, 38.3012733 ], [ -7.4273496, 38.2620468 ], [ -7.458735, 38.2138367 ], [ -7.5315661, 38.1924896 ], [ -7.5867224, 38.2035599 ], [ -7.6628098, 38.1995316 ], [ -7.7514172, 38.2423744 ], [ -7.8048763, 38.2422409 ], [ -7.9727306, 38.3149757 ], [ -8.0090408, 38.3025055 ], [ -8.0508108, 38.3221245 ], [ -8.1563168, 38.3189545 ], [ -8.1906538, 38.3427963 ], [ -8.2637177, 38.3522301 ], [ -8.309392, 38.3808937 ], [ -8.2842598, 38.4374657 ], [ -8.3631954, 38.5466042 ], [ -8.4017706, 38.5247383 ], [ -8.4463549, 38.5379868 ], [ -8.500062, 38.5213127 ], [ -8.5660677, 38.5314865 ], [ -8.6347189, 38.569561 ], [ -8.6528864, 38.6035385 ], [ -8.5628233, 38.6787834 ], [ -8.5355425, 38.6863213 ], [ -8.4859571, 38.762104 ], [ -8.5400019, 38.7656021 ], [ -8.4911852, 38.8062897 ], [ -8.4486513, 38.804184 ], [ -8.3704491, 38.8563423 ], [ -8.3329678, 38.8403816 ], [ -8.2938213, 38.8630333 ], [ -8.2373533, 38.8182755 ], [ -8.2183914, 38.8281326 ], [ -8.1404181, 38.7724762 ], [ -8.1788702, 38.851429 ], [ -8.155324, 38.8676033 ], [ -8.2672482, 38.9073792 ], [ -8.2382164, 38.938221 ], [ -8.2227783, 38.9875793 ], [ -8.1694803, 39.0205612 ], [ -8.1149406, 39.0043983 ], [ -8.0657787, 39.0158119 ], [ -8.0095749, 38.9821777 ], [ -7.9885492, 38.9417953 ], [ -7.9145708, 38.9711533 ], [ -7.8791862, 38.9389992 ], [ -7.8728862, 38.9067192 ], [ -7.785614, 38.8941727 ], [ -7.7392373, 38.9138184 ], [ -7.6363101, 38.9110527 ], [ -7.6162229, 38.9405098 ], [ -7.5094104, 38.9835548 ], [ -7.4575968, 38.9653816 ], [ -7.4614668, 38.9249382 ], [ -7.4202857, 38.9025993 ], [ -7.4206276, 38.8644943 ], [ -7.387064, 38.8016624 ], [ -7.3489304, 38.7971497 ], [ -7.2890153, 38.8395996 ], [ -7.20895, 38.8331451 ], [ -7.2269216, 38.7838745 ], [ -7.1961058, 38.7526988 ] ] ] ] } },
{ "type": "Feature", "properties": { "POLYGON_ID": "PRT_GAUL2013_ADM1_2393", "ADM0_ISO3": "PRT", "ADM0_NAME": "Portugal", "ADM0_CODE": 199, "ADM1_NAME": "Faro", "ADM1_CODE": 2393, "GEOSET": "GAUL", "GEOSET_YEAR": 2013.0, "GEOSET_VERSION": "GAUL_v1", "GEOSET_UNIT": "ADM1", "CENTROID_LONG": -8.1317579265883193, "CENTROID_LAT": 37.244568156501416 }, "geometry": { "type": "MultiPolygon", "coordinates": [ [ [ [ -7.5122876, 37.525694 ], [ -7.51195, 37.52445 ], [ -7.4903403, 37.5188401 ], [ -7.48969, 37.5062 ], [ -7.48696, 37.50126 ], [ -7.4781094, 37.4964175 ], [ -7.46437, 37.4889 ], [ -7.457407, 37.4102173 ], [ -7.4346528, 37.3746719 ], [ -7.4419098, 37.3107719 ], [ -7.4234371, 37.269989 ], [ -7.4350967, 37.246769 ], [ -7.4160428, 37.2273636 ], [ -7.4015899, 37.1774559 ], [ -7.4902711, 37.171196 ], [ -7.6135998, 37.1270905 ], [ -7.6245961, 37.1036453 ], [ -7.7839007, 37.0162125 ], [ -7.8539629, 37.0162544 ], [ -7.8837309, 36.9806709 ], [ -7.9161639, 37.0023804 ], [ -7.9989529, 37.0084152 ], [ -8.0927353, 37.0621071 ], [ -8.1917524, 37.0886078 ], [ -8.2977982, 37.0714912 ], [ -8.3501883, 37.097393 ], [ -8.4426699, 37.0863342 ], [ -8.6234245, 37.1260376 ], [ -8.6814795, 37.0828018 ], [ -8.7336969, 37.0805168 ], [ -8.8381233, 37.0588722 ], [ -8.8905201, 37.0385818 ], [ -8.94065, 37.0020752 ], [ -8.9758291, 37.0247307 ], [ -8.9625025, 37.0636253 ], [ -8.9088945, 37.1506615 ], [ -8.8948784, 37.2017479 ], [ -8.8596687, 37.2604065 ], [ -8.8650551, 37.3207817 ], [ -8.8155222, 37.3912163 ], [ -8.7989847, 37.4432031 ], [ -8.757947, 37.4336052 ], [ -8.7354059, 37.39925 ], [ -8.6836443, 37.393837 ], [ -8.5693398, 37.408432 ], [ -8.5225468, 37.3811798 ], [ -8.4507408, 37.3699493 ], [ -8.4170694, 37.4152756 ], [ -8.3137465, 37.4327698 ], [ -8.1992407, 37.3465462 ], [ -8.0643177, 37.3174057 ], [ -7.9972067, 37.3680687 ], [ -7.9954934, 37.395668 ], [ -7.9163365, 37.4053764 ], [ -7.8748703, 37.4307365 ], [ -7.7321615, 37.488369 ], [ -7.6714993, 37.5040398 ], [ -7.6260409, 37.4929657 ], [ -7.5438962, 37.5257568 ], [ -7.5122876, 37.525694 ] ] ] ] } },
{ "type": "Feature", "properties": { "POLYGON_ID": "PRT_GAUL2013_ADM1_2394", "ADM0_ISO3": "PRT", "ADM0_NAME": "Portugal", "ADM0_CODE": 199, "ADM1_NAME": "Guarda", "ADM1_CODE": 2394, "GEOSET": "GAUL", "GEOSET_YEAR": 2013.0, "GEOSET_VERSION": "GAUL_v1", "GEOSET_UNIT": "ADM1", "CENTROID_LONG": -7.2242648225357433, "CENTROID_LAT": 40.640677124464993 }, "geometry": { "type": "MultiPolygon", "coordinates": [ [ [ [ -6.93036, 41.034 ], [ -6.92857, 41.0274 ], [ -6.85663, 40.95424 ], [ -6.8498263, 40.939647 ], [ -6.84263, 40.9014 ], [ -6.8136669, 40.8831566 ], [ -6.81083, 40.88247 ], [ -6.810084, 40.882288 ], [ -6.80833, 40.88186 ], [ -6.8046, 40.87804 ], [ -6.803877, 40.8752594 ], [ -6.79915, 40.85708 ], [ -6.7984777, 40.8502729 ], [ -6.7982714, 40.8481693 ], [ -6.8027233, 40.8457221 ], [ -6.8036029, 40.845492 ], [ -6.81737, 40.84371 ], [ -6.8182902, 40.8424883 ], [ -6.81594, 40.8069 ], [ -6.8204062, 40.7928003 ], [ -6.8225001, 40.7861888 ], [ -6.82344, 40.76809 ], [ -6.82718, 40.75316 ], [ -6.79952, 40.66747 ], [ -6.79289, 40.64953 ], [ -6.8017944, 40.6219885 ], [ -6.80436, 40.61682 ], [ -6.83778, 40.56856 ], [ -6.8029111, 40.5524798 ], [ -6.79649, 40.54562 ], [ -6.7896, 40.53254 ], [ -6.79063, 40.52332 ], [ -6.7950408, 40.5122597 ], [ -6.79978, 40.51056 ], [ -6.8020142, 40.5081101 ], [ -6.8137181, 40.4892479 ], [ -6.81653, 40.48391 ], [ -6.84039, 40.44706 ], [ -6.83365, 40.43416 ], [ -6.80131, 40.38177 ], [ -6.7984411, 40.3797618 ], [ -6.7888091, 40.3379461 ], [ -6.7897, 40.33124 ], [ -6.79497, 40.32816 ], [ -6.80388, 40.32661 ], [ -6.8184094, 40.3212327 ], [ -6.85632, 40.29717 ], [ -6.85794, 40.26695 ], [ -6.8665298, 40.2638794 ], [ -6.87562, 40.26063 ], [ -6.8961, 40.25745 ], [ -6.9198516, 40.2563756 ], [ -6.9440793, 40.255277 ], [ -7.0001507, 40.2811317 ], [ -7.0800743, 40.2767563 ], [ -7.102623, 40.3212051 ], [ -7.1671901, 40.2691765 ], [ -7.2084665, 40.2860336 ], [ -7.2380486, 40.2582588 ], [ -7.3164897, 40.2810555 ], [ -7.2819719, 40.3298645 ], [ -7.2655849, 40.4074173 ], [ -7.3140845, 40.4132233 ], [ -7.3436503, 40.3879395 ], [ -7.3954439, 40.3810654 ], [ -7.4539175, 40.4004936 ], [ -7.5019507, 40.381424 ], [ -7.5349016, 40.3183441 ], [ -7.6097631, 40.3233871 ], [ -7.6560926, 40.2723999 ], [ -7.7063136, 40.2647324 ], [ -7.7279916, 40.2405167 ], [ -7.7805252, 40.2321396 ], [ -7.8177962, 40.259613 ], [ -7.7982903, 40.3108978 ], [ -7.7943578, 40.4089279 ], [ -7.8457637, 40.430687 ], [ -7.794354, 40.4613075 ], [ -7.822659, 40.50177 ], [ -7.6235294, 40.5703201 ], [ -7.5964189, 40.5659142 ], [ -7.5568299, 40.6484756 ], [ -7.536521, 40.6609383 ], [ -7.5902734, 40.7335777 ], [ -7.5639191, 40.75177 ], [ -7.6207213, 40.7852783 ], [ -7.5584192, 40.878067 ], [ -7.5142822, 40.8686409 ], [ -7.447928, 40.8143158 ], [ -7.3682923, 40.91362 ], [ -7.3305254, 40.9346848 ], [ -7.3194461, 40.9726372 ], [ -7.3419795, 41.0119286 ], [ -7.3364596, 41.0672684 ], [ -7.2983499, 41.1444664 ], [ -7.2573156, 41.1490211 ], [ -7.1612692, 41.1325645 ], [ -7.1460562, 41.159481 ], [ -7.0805063, 41.1330757 ], [ -7.0978155, 41.0840263 ], [ -7.0407372, 41.0459061 ], [ -6.93036, 41.034 ] ] ] ] } },
{ "type": "Feature", "properties": { "POLYGON_ID": "PRT_GAUL2013_ADM1_2405", "ADM0_ISO3": "PRT", "ADM0_NAME": "Portugal", "ADM0_CODE": 199, "ADM1_NAME": "Leiria", "ADM1_CODE": 2405, "GEOSET": "GAUL", "GEOSET_YEAR": 2013.0, "GEOSET_VERSION": "GAUL_v1", "GEOSET_UNIT": "ADM1", "CENTROID_LONG": -8.7633119471702674, "CENTROID_LAT": 39.723240233851421 }, "geometry": { "type": "MultiPolygon", "coordinates": [ [ [ [ -8.114047, 39.9348335 ], [ -8.141737, 39.888607 ], [ -8.2088184, 39.8538017 ], [ -8.2733965, 39.8416672 ], [ -8.2809782, 39.7982521 ], [ -8.377512, 39.7559967 ], [ -8.444932, 39.7546921 ], [ -8.4744825, 39.8403206 ], [ -8.5800858, 39.7813759 ], [ -8.6293278, 39.7919655 ], [ -8.6770592, 39.7694702 ], [ -8.6713696, 39.7132225 ], [ -8.6303587, 39.6998634 ], [ -8.6619072, 39.6527214 ], [ -8.6971531, 39.6432533 ], [ -8.6677322, 39.5645638 ], [ -8.7081604, 39.5247803 ], [ -8.7234402, 39.484333 ], [ -8.7855949, 39.4859009 ], [ -8.897274, 39.4679451 ], [ -8.9424458, 39.3943558 ], [ -8.9772625, 39.3876991 ], [ -8.9958057, 39.3519669 ], [ -8.9905691, 39.2973175 ], [ -9.038291, 39.311882 ], [ -9.097084, 39.292099 ], [ -9.1368885, 39.23452 ], [ -9.1982021, 39.2485847 ], [ -9.1984501, 39.3011589 ], [ -9.2743664, 39.3059158 ], [ -9.2905664, 39.2859154 ], [ -9.34462, 39.2908173 ], [ -9.3648043, 39.3447685 ], [ -9.2284508, 39.4278374 ], [ -9.1956215, 39.469326 ], [ -9.0932035, 39.5558586 ], [ -9.0473557, 39.7142601 ], [ -8.9749022, 39.8595619 ], [ -8.8937334, 40.0466311 ], [ -8.8653946, 40.0248032 ], [ -8.7979698, 40.0162849 ], [ -8.7867107, 40.0389633 ], [ -8.6751471, 40.0325012 ], [ -8.6157475, 39.9954529 ], [ -8.5864191, 40.0330811 ], [ -8.5537472, 40.0330124 ], [ -8.514533, 39.9877968 ], [ -8.4218941, 40.0284653 ], [ -8.3817072, 39.968483 ], [ -8.350317, 39.9464645 ], [ -8.3133755, 39.9781609 ], [ -8.2694979, 40.0517273 ], [ -8.2102346, 40.0557747 ], [ -8.1756897, 40.0915337 ], [ -8.137558, 40.0743256 ], [ -8.1517115, 40.0261154 ], [ -8.1052618, 39.9743729 ], [ -8.114047, 39.9348335 ] ] ] ] } },
{ "type": "Feature", "properties": { "POLYGON_ID": "PRT_GAUL2013_ADM1_2406", "ADM0_ISO3": "PRT", "ADM0_NAME": "Portugal", "ADM0_CODE": 199, "ADM1_NAME": "Lisboa", "ADM1_CODE": 2406, "GEOSET": "GAUL", "GEOSET_YEAR": 2013.0, "GEOSET_VERSION": "GAUL_v1", "GEOSET_UNIT": "ADM1", "CENTROID_LONG": -9.1648302342486048, "CENTROID_LAT": 39.002068690836353 }, "geometry": { "type": "MultiPolygon", "coordinates": [ [ [ [ -8.9905691, 39.2973175 ], [ -8.9574585, 39.2556686 ], [ -8.9073095, 39.2367134 ], [ -8.8700428, 39.2518196 ], [ -8.828227, 39.2257729 ], [ -8.8166924, 39.1925468 ], [ -8.8841801, 39.1882286 ], [ -8.9019947, 39.1661682 ], [ -8.8702669, 39.1359138 ], [ -8.8028803, 39.1096077 ], [ -8.7758231, 39.0625809 ], [ -8.8211451, 39.0307083 ], [ -8.881567, 39.0364952 ], [ -8.9337912, 39.0156097 ], [ -8.9556684, 38.9703865 ], [ -9.0104799, 38.9197197 ], [ -9.022316, 38.8844299 ], [ -9.0580635, 38.854496 ], [ -9.0816107, 38.8096046 ], [ -9.0884399, 38.7548294 ], [ -9.1197567, 38.7090416 ], [ -9.1933088, 38.6909904 ], [ -9.2579174, 38.6970406 ], [ -9.3186369, 38.6734276 ], [ -9.3968992, 38.7004509 ], [ -9.4243088, 38.6869431 ], [ -9.4838877, 38.707634 ], [ -9.4705982, 38.7467499 ], [ -9.495944, 38.7795029 ], [ -9.4498444, 38.8593025 ], [ -9.4092798, 38.9490891 ], [ -9.4215412, 38.9984398 ], [ -9.4206533, 39.0703392 ], [ -9.3692408, 39.152668 ], [ -9.3336525, 39.2701035 ], [ -9.34462, 39.2908173 ], [ -9.2905664, 39.2859154 ], [ -9.2743664, 39.3059158 ], [ -9.1984501, 39.3011589 ], [ -9.1982021, 39.2485847 ], [ -9.1368885, 39.23452 ], [ -9.097084, 39.292099 ], [ -9.038291, 39.311882 ], [ -8.9905691, 39.2973175 ] ] ], [ [ [ -8.8537469, 39.025291 ], [ -8.8456955, 38.9643936 ], [ -8.8881626, 38.9413338 ], [ -8.9086981, 38.8862076 ], [ -8.9455652, 38.8449249 ], [ -8.9838819, 38.8541298 ], [ -8.9885635, 38.9273224 ], [ -8.9443188, 38.9647942 ], [ -8.9190025, 39.0177689 ], [ -8.8537469, 39.025291 ] ] ] ] } },
{ "type": "Feature", "properties": { "POLYGON_ID": "PRT_GAUL2013_ADM1_2407", "ADM0_ISO3": "PRT", "ADM0_NAME": "Portugal", "ADM0_CODE": 199, "ADM1_NAME": "Portalegre", "ADM1_CODE": 2407, "GEOSET": "GAUL", "GEOSET_YEAR": 2013.0, "GEOSET_VERSION": "GAUL_v1", "GEOSET_UNIT": "ADM1", "CENTROID_LONG": -7.6162183647557304, "CENTROID_LAT": 39.19032205005167 }, "geometry": { "type": "MultiPolygon", "coordinates": [ [ [ [ -7.52493, 39.65641 ], [ -7.50468, 39.60956 ], [ -7.4726186, 39.5812103 ], [ -7.46052, 39.57671 ], [ -7.399, 39.53535 ], [ -7.39026, 39.52554 ], [ -7.3874694, 39.5156831 ], [ -7.3825, 39.49813 ], [ -7.380337, 39.4943409 ], [ -7.3781512, 39.4905122 ], [ -7.30062, 39.46107 ], [ -7.2944173, 39.45608 ], [ -7.30319, 39.40614 ], [ -7.30874, 39.40118 ], [ -7.32745, 39.38989 ], [ -7.31049, 39.34539 ], [ -7.2942274, 39.3251466 ], [ -7.2784962, 39.313717 ], [ -7.26611, 39.30563 ], [ -7.23252, 39.2812 ], [ -7.23018, 39.27671 ], [ -7.2357304, 39.2104172 ], [ -7.22964, 39.20087 ], [ -7.22445, 39.19612 ], [ -7.2208611, 39.1928363 ], [ -7.2181, 39.19031 ], [ -7.19493, 39.18201 ], [ -7.14416, 39.17449 ], [ -7.13342, 39.1671 ], [ -7.1315701, 39.1559405 ], [ -7.14179, 39.13516 ], [ -7.14535, 39.12105 ], [ -7.14026, 39.10979 ], [ -7.1368036, 39.106691 ], [ -7.11553, 39.09924 ], [ -7.1017589, 39.1001087 ], [ -7.0758241, 39.1084457 ], [ -7.05249, 39.11689 ], [ -6.97677, 39.07859 ], [ -6.9658685, 39.0663975 ], [ -6.9632627, 39.0634831 ], [ -6.96213, 39.05917 ], [ -6.9669, 39.04502 ], [ -6.96578, 39.04093 ], [ -6.95334, 39.029 ], [ -6.9534834, 39.0248167 ], [ -6.95356, 39.02258 ], [ -6.96985, 38.99981 ], [ -6.99022, 38.97131 ], [ -6.99943, 38.96319 ], [ -7.01617, 38.94333 ], [ -7.02705, 38.92076 ], [ -7.04618, 38.91219 ], [ -7.04865, 38.90735 ], [ -7.0461, 38.90072 ], [ -7.04303, 38.89649 ], [ -7.03265, 38.8822 ], [ -7.03732, 38.86322 ], [ -7.05342, 38.85882 ], [ -7.0537597, 38.8587276 ], [ -7.05776, 38.85764 ], [ -7.08475, 38.8213 ], [ -7.14584, 38.79739 ], [ -7.157, 38.77977 ], [ -7.1961058, 38.7526988 ], [ -7.2269216, 38.7838745 ], [ -7.20895, 38.8331451 ], [ -7.2890153, 38.8395996 ], [ -7.3489304, 38.7971497 ], [ -7.387064, 38.8016624 ], [ -7.4206276, 38.8644943 ], [ -7.4202857, 38.9025993 ], [ -7.4614668, 38.9249382 ], [ -7.4575968, 38.9653816 ], [ -7.5094104, 38.9835548 ], [ -7.6162229, 38.9405098 ], [ -7.6363101, 38.9110527 ], [ -7.7392373, 38.9138184 ], [ -7.785614, 38.8941727 ], [ -7.8728862, 38.9067192 ], [ -7.8791862, 38.9389992 ], [ -7.9145708, 38.9711533 ], [ -7.9885492, 38.9417953 ], [ -8.0095749, 38.9821777 ], [ -8.0657787, 39.0158119 ], [ -8.1149406, 39.0043983 ], [ -8.1694803, 39.0205612 ], [ -8.2227783, 38.9875793 ], [ -8.2573528, 39.0150146 ], [ -8.285799, 39.0810013 ], [ -8.328681, 39.0960007 ], [ -8.2972527, 39.156929 ], [ -8.2305584, 39.1826477 ], [ -8.1436958, 39.2511368 ], [ -8.123188, 39.2902222 ], [ -8.0846586, 39.2767792 ], [ -8.0230446, 39.3423882 ], [ -8.0244246, 39.3630943 ], [ -7.9633303, 39.3836861 ], [ -7.9395423, 39.4093323 ], [ -8.0005178, 39.4599495 ], [ -7.9995561, 39.4967804 ], [ -7.9653802, 39.5507889 ], [ -7.9378691, 39.555851 ], [ -7.844048, 39.5117149 ], [ -7.820344, 39.5394058 ], [ -7.6747642, 39.6469154 ], [ -7.6266336, 39.6249847 ], [ -7.5702538, 39.6604805 ], [ -7.52493, 39.65641 ] ] ] ] } },
{ "type": "Feature", "properties": { "POLYGON_ID": "PRT_GAUL2013_ADM1_2408", "ADM0_ISO3": "PRT", "ADM0_NAME": "Portugal", "ADM0_CODE": 199, "ADM1_NAME": "Porto", "ADM1_CODE": 2408, "GEOSET": "GAUL", "GEOSET_YEAR": 2013.0, "GEOSET_VERSION": "GAUL_v1", "GEOSET_UNIT": "ADM1", "CENTROID_LONG": -8.3483936836372727, "CENTROID_LAT": 41.223133762090399 }, "geometry": { "type": "MultiPolygon", "coordinates": [ [ [ [ -7.9659748, 41.3795776 ], [ -7.9577131, 41.3369713 ], [ -7.8719654, 41.2472267 ], [ -7.8871822, 41.1712303 ], [ -7.9082756, 41.1268845 ], [ -7.9411817, 41.1301651 ], [ -8.0480461, 41.0946274 ], [ -8.0887852, 41.1054993 ], [ -8.1378574, 41.0867729 ], [ -8.1821136, 41.0965767 ], [ -8.2530861, 41.0710602 ], [ -8.3833294, 41.0301819 ], [ -8.4511633, 41.0606956 ], [ -8.4961252, 41.0107155 ], [ -8.6450911, 41.0134048 ], [ -8.6699104, 41.1389885 ], [ -8.7175407, 41.2056046 ], [ -8.7390795, 41.333374 ], [ -8.7797365, 41.4013672 ], [ -8.7720966, 41.4683151 ], [ -8.6986761, 41.4400826 ], [ -8.6654148, 41.4436913 ], [ -8.6218405, 41.3832664 ], [ -8.6075897, 41.3399391 ], [ -8.5089207, 41.348423 ], [ -8.4938936, 41.3697166 ], [ -8.3502893, 41.3683052 ], [ -8.2816629, 41.3427086 ], [ -8.2702379, 41.3747368 ], [ -8.204627, 41.4151917 ], [ -8.1595478, 41.403614 ], [ -8.1236429, 41.3519859 ], [ -8.0157194, 41.325489 ], [ -7.9659748, 41.3795776 ] ] ] ] } },
{ "type": "Feature", "properties": { "POLYGON_ID": "PRT_GAUL2013_ADM1_2409", "ADM0_ISO3": "PRT", "ADM0_NAME": "Portugal", "ADM0_CODE": 199, "ADM1_NAME": "Santarem", "ADM1_CODE": 2409, "GEOSET": "GAUL", "GEOSET_YEAR": 2013.0, "GEOSET_VERSION": "GAUL_v1", "GEOSET_UNIT": "ADM1", "CENTROID_LONG": -8.4715993364294029, "CENTROID_LAT": 39.295865732546488 }, "geometry": { "type": "MultiPolygon", "coordinates": [ [ [ [ -8.2809782, 39.7982521 ], [ -8.2228022, 39.7579994 ], [ -8.2285404, 39.6526527 ], [ -8.1403427, 39.6170158 ], [ -8.0778055, 39.6176796 ], [ -8.0345936, 39.750164 ], [ -7.9559617, 39.7436104 ], [ -7.9492636, 39.6638184 ], [ -7.8918915, 39.6596947 ], [ -7.8433709, 39.6258087 ], [ -7.8117924, 39.5847282 ], [ -7.820344, 39.5394058 ], [ -7.844048, 39.5117149 ], [ -7.9378691, 39.555851 ], [ -7.9653802, 39.5507889 ], [ -7.9995561, 39.4967804 ], [ -8.0005178, 39.4599495 ], [ -7.9395423, 39.4093323 ], [ -7.9633303, 39.3836861 ], [ -8.0244246, 39.3630943 ], [ -8.0230446, 39.3423882 ], [ -8.0846586, 39.2767792 ], [ -8.123188, 39.2902222 ], [ -8.1436958, 39.2511368 ], [ -8.2305584, 39.1826477 ], [ -8.2972527, 39.156929 ], [ -8.328681, 39.0960007 ], [ -8.285799, 39.0810013 ], [ -8.2573528, 39.0150146 ], [ -8.2227783, 38.9875793 ], [ -8.2382164, 38.938221 ], [ -8.2672482, 38.9073792 ], [ -8.155324, 38.8676033 ], [ -8.1788702, 38.851429 ], [ -8.1404181, 38.7724762 ], [ -8.2183914, 38.8281326 ], [ -8.2373533, 38.8182755 ], [ -8.2938213, 38.8630333 ], [ -8.3329678, 38.8403816 ], [ -8.3704491, 38.8563423 ], [ -8.4486513, 38.804184 ], [ -8.4911852, 38.8062897 ], [ -8.5400019, 38.7656021 ], [ -8.6778822, 38.8277206 ], [ -8.7289486, 38.7900467 ], [ -8.7415075, 38.7363739 ], [ -8.7849331, 38.7372856 ], [ -8.8346148, 38.7645683 ], [ -8.8799782, 38.744976 ], [ -8.923069, 38.758213 ], [ -8.9455652, 38.8449249 ], [ -8.9086981, 38.8862076 ], [ -8.8881626, 38.9413338 ], [ -8.8456955, 38.9643936 ], [ -8.8537469, 39.025291 ], [ -8.8088827, 39.0315742 ], [ -8.7758231, 39.0625809 ], [ -8.8028803, 39.1096077 ], [ -8.8702669, 39.1359138 ], [ -8.9019947, 39.1661682 ], [ -8.8841801, 39.1882286 ], [ -8.8166924, 39.1925468 ], [ -8.828227, 39.2257729 ], [ -8.8700428, 39.2518196 ], [ -8.9073095, 39.2367134 ], [ -8.9574585, 39.2556686 ], [ -8.9905691, 39.2973175 ], [ -8.9958057, 39.3519669 ], [ -8.9772625, 39.3876991 ], [ -8.9424458, 39.3943558 ], [ -8.897274, 39.4679451 ], [ -8.7855949, 39.4859009 ], [ -8.7234402, 39.484333 ], [ -8.7081604, 39.5247803 ], [ -8.6677322, 39.5645638 ], [ -8.6971531, 39.6432533 ], [ -8.6619072, 39.6527214 ], [ -8.6303587, 39.6998634 ], [ -8.6713696, 39.7132225 ], [ -8.6770592, 39.7694702 ], [ -8.6293278, 39.7919655 ], [ -8.5800858, 39.7813759 ], [ -8.4744825, 39.8403206 ], [ -8.444932, 39.7546921 ], [ -8.377512, 39.7559967 ], [ -8.2809782, 39.7982521 ] ] ] ] } },
{ "type": "Feature", "properties": { "POLYGON_ID": "PRT_GAUL2013_ADM1_2410", "ADM0_ISO3": "PRT", "ADM0_NAME": "Portugal", "ADM0_CODE": 199, "ADM1_NAME": "Setubal", "ADM1_CODE": 2410, "GEOSET": "GAUL", "GEOSET_YEAR": 2013.0, "GEOSET_VERSION": "GAUL_v1", "GEOSET_UNIT": "ADM1", "CENTROID_LONG": -8.6447496071945569, "CENTROID_LAT": 38.311348675659218 }, "geometry": { "type": "MultiPolygon", "coordinates": [ [ [ [ -8.5400019, 38.7656021 ], [ -8.4859571, 38.762104 ], [ -8.5355425, 38.6863213 ], [ -8.5628233, 38.6787834 ], [ -8.6528864, 38.6035385 ], [ -8.6347189, 38.569561 ], [ -8.5660677, 38.5314865 ], [ -8.500062, 38.5213127 ], [ -8.4463549, 38.5379868 ], [ -8.4017706, 38.5247383 ], [ -8.3631954, 38.5466042 ], [ -8.2842598, 38.4374657 ], [ -8.309392, 38.3808937 ], [ -8.2637177, 38.3522301 ], [ -8.1906538, 38.3427963 ], [ -8.1563168, 38.3189545 ], [ -8.1239738, 38.2538567 ], [ -8.1313095, 38.2207069 ], [ -8.1905928, 38.2018471 ], [ -8.2612715, 38.1956177 ], [ -8.3099308, 38.1712036 ], [ -8.3914995, 38.0494843 ], [ -8.3370438, 38.04142 ], [ -8.2895212, 38.002243 ], [ -8.3047771, 37.8856316 ], [ -8.3725748, 37.8601227 ], [ -8.4167242, 37.8652611 ], [ -8.5485992, 37.8475647 ], [ -8.5777903, 37.8020554 ], [ -8.5833654, 37.7559929 ], [ -8.6847839, 37.7573166 ], [ -8.7358303, 37.8134575 ], [ -8.7927931, 37.8223152 ], [ -8.8020372, 37.9129677 ], [ -8.8891735, 37.9570351 ], [ -8.8510895, 37.9928284 ], [ -8.7925415, 38.1231575 ], [ -8.7714081, 38.199585 ], [ -8.7720633, 38.2831345 ], [ -8.793128, 38.3669891 ], [ -8.8238697, 38.4168053 ], [ -8.7870932, 38.443531 ], [ -8.8138113, 38.4834557 ], [ -8.8977709, 38.5169106 ], [ -8.9395761, 38.4809303 ], [ -9.0624294, 38.4322815 ], [ -9.1116037, 38.4378586 ], [ -9.2167349, 38.417347 ], [ -9.1814966, 38.4856758 ], [ -9.1813402, 38.5325279 ], [ -9.2025995, 38.5901337 ], [ -9.2594643, 38.6595268 ], [ -9.1633635, 38.6800156 ], [ -9.1150246, 38.6365204 ], [ -9.0427561, 38.678566 ], [ -9.0450373, 38.7142563 ], [ -8.9440737, 38.7607689 ], [ -8.923069, 38.758213 ], [ -8.8799782, 38.744976 ], [ -8.8346148, 38.7645683 ], [ -8.7849331, 38.7372856 ], [ -8.7415075, 38.7363739 ], [ -8.7289486, 38.7900467 ], [ -8.6778822, 38.8277206 ], [ -8.5400019, 38.7656021 ] ] ] ] } },
{ "type": "Feature", "properties": { "POLYGON_ID": "PRT_GAUL2013_ADM1_2411", "ADM0_ISO3": "PRT", "ADM0_NAME": "Portugal", "ADM0_CODE": 199, "ADM1_NAME": "Viana Do Castelo", "ADM1_CODE": 2411, "GEOSET": "GAUL", "GEOSET_YEAR": 2013.0, "GEOSET_VERSION": "GAUL_v1", "GEOSET_UNIT": "ADM1", "CENTROID_LONG": -8.5011593775650471, "CENTROID_LAT": 41.876726715771731 }, "geometry": { "type": "MultiPolygon", "coordinates": [ [ [ [ -8.1756405, 42.0687845 ], [ -8.17548, 42.0664 ], [ -8.14321, 42.07564 ], [ -8.1237, 42.07855 ], [ -8.1113224, 42.0771103 ], [ -8.09476, 42.07077 ], [ -8.0918334, 42.0675708 ], [ -8.08091, 42.05563 ], [ -8.092211, 42.0121076 ], [ -8.11058, 42.00476 ], [ -8.1628913, 41.9727955 ], [ -8.16801, 41.96765 ], [ -8.1721, 41.96005 ], [ -8.174403, 41.957396 ], [ -8.17689, 41.95453 ], [ -8.18254, 41.95138 ], [ -8.2013954, 41.9265103 ], [ -8.20748, 41.8996 ], [ -8.204262, 41.8951157 ], [ -8.17192, 41.88141 ], [ -8.1491833, 41.8164139 ], [ -8.2962255, 41.7621689 ], [ -8.4171715, 41.7583427 ], [ -8.5061579, 41.7206268 ], [ -8.5489244, 41.6213799 ], [ -8.6396055, 41.6521835 ], [ -8.7273655, 41.6177444 ], [ -8.805545, 41.6068423 ], [ -8.8257837, 41.6767693 ], [ -8.8553219, 41.7045898 ], [ -8.8737202, 41.7532005 ], [ -8.8596954, 41.8671494 ], [ -8.7998056, 41.909584 ], [ -8.7703598, 41.9207518 ], [ -8.76117, 41.92488 ], [ -8.73761, 41.96481 ], [ -8.65356, 42.00999 ], [ -8.6487193, 42.0233289 ], [ -8.61468, 42.05218 ], [ -8.6041196, 42.0543315 ], [ -8.5958893, 42.0552973 ], [ -8.58963, 42.05455 ], [ -8.55829, 42.05216 ], [ -8.5399271, 42.0551018 ], [ -8.51166, 42.07787 ], [ -8.505291, 42.0792612 ], [ -8.50287, 42.07979 ], [ -8.4893036, 42.078576 ], [ -8.45563, 42.08229 ], [ -8.42918, 42.0813 ], [ -8.37588, 42.08298 ], [ -8.36218, 42.09028 ], [ -8.32571, 42.09118 ], [ -8.31732, 42.09487 ], [ -8.26503, 42.12053 ], [ -8.25312, 42.12326 ], [ -8.2445422, 42.1302449 ], [ -8.22588, 42.13274 ], [ -8.2246381, 42.1330703 ], [ -8.21103, 42.13669 ], [ -8.19944, 42.14565 ], [ -8.19114, 42.14515 ], [ -8.18733, 42.14261 ], [ -8.1756405, 42.0687845 ] ] ] ] } },
{ "type": "Feature", "properties": { "POLYGON_ID": "PRT_GAUL2013_ADM1_2412", "ADM0_ISO3": "PRT", "ADM0_NAME": "Portugal", "ADM0_CODE": 199, "ADM1_NAME": "Vila Real", "ADM1_CODE": 2412, "GEOSET": "GAUL", "GEOSET_YEAR": 2013.0, "GEOSET_VERSION": "GAUL_v1", "GEOSET_UNIT": "ADM1", "CENTROID_LONG": -7.624367787927806, "CENTROID_LAT": 41.55765731778979 }, "geometry": { "type": "MultiPolygon", "coordinates": [ [ [ [ -7.191722, 41.8863691 ], [ -7.1977534, 41.8190117 ], [ -7.1631961, 41.7495995 ], [ -7.1999655, 41.7177811 ], [ -7.2354894, 41.6417542 ], [ -7.2519503, 41.5730248 ], [ -7.2214451, 41.5247116 ], [ -7.2779374, 41.5163841 ], [ -7.3167415, 41.4622383 ], [ -7.3564744, 41.4419479 ], [ -7.3510323, 41.33284 ], [ -7.3817482, 41.2921829 ], [ -7.3862085, 41.2443161 ], [ -7.4220901, 41.2156868 ], [ -7.535171, 41.1939392 ], [ -7.5743995, 41.1673431 ], [ -7.6562877, 41.1685066 ], [ -7.6928449, 41.1495361 ], [ -7.867589, 41.16399 ], [ -7.9082756, 41.1268845 ], [ -7.8871822, 41.1712303 ], [ -7.8719654, 41.2472267 ], [ -7.9577131, 41.3369713 ], [ -7.9659748, 41.3795776 ], [ -7.9324188, 41.4343452 ], [ -7.9294343, 41.4825592 ], [ -7.8279147, 41.542881 ], [ -7.8032899, 41.581398 ], [ -7.8300285, 41.6151505 ], [ -7.8724637, 41.5924644 ], [ -7.9868703, 41.6060104 ], [ -7.9867296, 41.6650124 ], [ -8.0140228, 41.7006302 ], [ -8.1050768, 41.6919556 ], [ -8.0710936, 41.7282867 ], [ -8.0383014, 41.8191859 ], [ -7.9835534, 41.8529447 ], [ -7.97406, 41.86635 ], [ -7.9273, 41.87417 ], [ -7.89266, 41.9256 ], [ -7.88272, 41.92315 ], [ -7.87406, 41.85219 ], [ -7.85528, 41.85618 ], [ -7.81995, 41.87759 ], [ -7.79679, 41.87987 ], [ -7.75862, 41.89448 ], [ -7.74827, 41.89592 ], [ -7.73469, 41.89402 ], [ -7.71813, 41.8938 ], [ -7.7107166, 41.8973886 ], [ -7.69719, 41.90404 ], [ -7.68933, 41.90535 ], [ -7.64985, 41.88243 ], [ -7.64043, 41.87788 ], [ -7.63031, 41.87747 ], [ -7.610923, 41.8821293 ], [ -7.6027894, 41.8806804 ], [ -7.59084, 41.87855 ], [ -7.58055, 41.88112 ], [ -7.5747029, 41.8805903 ], [ -7.59012, 41.8701 ], [ -7.57816, 41.8315 ], [ -7.5665, 41.8309 ], [ -7.5507, 41.83338 ], [ -7.5462414, 41.8358902 ], [ -7.50651, 41.85059 ], [ -7.5018715, 41.8562082 ], [ -7.503997, 41.8600318 ], [ -7.4966205, 41.8706203 ], [ -7.4940326, 41.8719786 ], [ -7.4837658, 41.8672401 ], [ -7.47244, 41.86201 ], [ -7.4504337, 41.8581894 ], [ -7.4496, 41.85629 ], [ -7.44436, 41.85083 ], [ -7.44007, 41.84408 ], [ -7.42865, 41.83544 ], [ -7.4235741, 41.8113109 ], [ -7.4133534, 41.812933 ], [ -7.3657808, 41.8463764 ], [ -7.35782, 41.8464 ], [ -7.33865, 41.84207 ], [ -7.3182596, 41.8427231 ], [ -7.30423, 41.84612 ], [ -7.24655, 41.86469 ], [ -7.21929, 41.87175 ], [ -7.2125732, 41.8755439 ], [ -7.20194, 41.88155 ], [ -7.191722, 41.8863691 ] ] ] ] } },
{ "type": "Feature", "properties": { "POLYGON_ID": "PRT_GAUL2013_ADM1_2413", "ADM0_ISO3": "PRT", "ADM0_NAME": "Portugal", "ADM0_CODE": 199, "ADM1_NAME": "Viseu", "ADM1_CODE": 2413, "GEOSET": "GAUL", "GEOSET_YEAR": 2013.0, "GEOSET_VERSION": "GAUL_v1", "GEOSET_UNIT": "ADM1", "CENTROID_LONG": -7.8631765766000994, "CENTROID_LAT": 40.805900682794679 }, "geometry": { "type": "MultiPolygon", "coordinates": [ [ [ [ -7.2983499, 41.1444664 ], [ -7.3364596, 41.0672684 ], [ -7.3419795, 41.0119286 ], [ -7.3194461, 40.9726372 ], [ -7.3305254, 40.9346848 ], [ -7.3682923, 40.91362 ], [ -7.447928, 40.8143158 ], [ -7.5142822, 40.8686409 ], [ -7.5584192, 40.878067 ], [ -7.6207213, 40.7852783 ], [ -7.5639191, 40.75177 ], [ -7.5902734, 40.7335777 ], [ -7.536521, 40.6609383 ], [ -7.5568299, 40.6484756 ], [ -7.5964189, 40.5659142 ], [ -7.6235294, 40.5703201 ], [ -7.822659, 40.50177 ], [ -7.8550963, 40.4916687 ], [ -8.0013666, 40.3955269 ], [ -8.0394459, 40.388649 ], [ -8.1143417, 40.3412323 ], [ -8.2091179, 40.3470612 ], [ -8.2429323, 40.3287621 ], [ -8.3005877, 40.3646736 ], [ -8.3521547, 40.3790245 ], [ -8.3492966, 40.4124908 ], [ -8.3142052, 40.4449043 ], [ -8.3254938, 40.4964676 ], [ -8.2724485, 40.5148697 ], [ -8.3034458, 40.6007767 ], [ -8.2414389, 40.6200142 ], [ -8.2919283, 40.6520958 ], [ -8.2919703, 40.6944466 ], [ -8.3235674, 40.7446442 ], [ -8.2666388, 40.7613297 ], [ -8.2327061, 40.8319359 ], [ -8.1653242, 40.8699799 ], [ -8.1276274, 40.8525238 ], [ -8.0983686, 40.8723145 ], [ -8.1227713, 40.9036827 ], [ -8.1270933, 40.9784775 ], [ -8.2278147, 41.0159454 ], [ -8.2530861, 41.0710602 ], [ -8.1821136, 41.0965767 ], [ -8.1378574, 41.0867729 ], [ -8.0887852, 41.1054993 ], [ -8.0480461, 41.0946274 ], [ -7.9411817, 41.1301651 ], [ -7.9082756, 41.1268845 ], [ -7.867589, 41.16399 ], [ -7.6928449, 41.1495361 ], [ -7.6562877, 41.1685066 ], [ -7.5743995, 41.1673431 ], [ -7.535171, 41.1939392 ], [ -7.4220901, 41.2156868 ], [ -7.388001, 41.2028885 ], [ -7.3471842, 41.1501846 ], [ -7.2983499, 41.1444664 ] ] ] ] } }
]
}
