{
"type": "FeatureCollection",
"name": "PRY_GAUL1997_ADM0",
"crs": { "type": "name", "properties": { "name": "urn:ogc:def:crs:OGC:1.3:CRS84" } },
"features": [
{ "type": "Feature", "properties": { "POLYGON_ID": "PRY_GAUL1997_ADM0_194", "ADM0_ISO3": "PRY", "ADM0_NAME": "Paraguay", "ADM0_CODE": 194, "GEOSET": "GAUL", "GEOSET_YEAR": 1997.0, "GEOSET_VERSION": "GAUL_v1", "GEOSET_UNIT": "ADM0", "CENTROID_LONG": -58.395659941896803, "CENTROID_LAT": -23.232558044563749 }, "geometry": { "type": "MultiPolygon", "coordinates": [ [ [ [ -58.16346, -20.16246 ], [ -58.16055, -20.1771 ], [ -58.12504, -20.18811 ], [ -58.15533, -20.21542 ], [ -58.16314, -20.24227 ], [ -58.15381, -20.26385 ], [ -58.11532, -20.25025 ], [ -58.08734, -20.27327 ], [ -58.0963, -20.31235 ], [ -58.09307, -20.34452 ], [ -58.07741, -20.37952 ], [ -58.00429, -20.42591 ], [ -57.99416, -20.44831 ], [ -58.01446, -20.4826 ], [ -58.01888, -20.51312 ], [ -57.99715, -20.57254 ], [ -58.01544, -20.60798 ], [ -57.97497, -20.64338 ], [ -57.98957, -20.6907 ], [ -57.95857, -20.70234 ], [ -57.94158, -20.67202 ], [ -57.91624, -20.66923 ], [ -57.87056, -20.73087 ], [ -57.87905, -20.74504 ], [ -57.93624, -20.755 ], [ -57.9608, -20.78409 ], [ -57.9504, -20.79916 ], [ -57.9016, -20.79074 ], [ -57.87229, -20.80669 ], [ -57.86037, -20.851 ], [ -57.92069, -20.88385 ], [ -57.88969, -20.90704 ], [ -57.86761, -20.94165 ], [ -57.8215104, -20.9422195 ], [ -57.81876, -20.98397 ], [ -57.86574, -21.04134 ], [ -57.8650902, -21.0729394 ], [ -57.8468801, -21.1016793 ], [ -57.86303, -21.14838 ], [ -57.85026, -21.19544 ], [ -57.8585, -21.23529 ], [ -57.91819, -21.27841 ], [ -57.8893, -21.30818 ], [ -57.8594, -21.31348 ], [ -57.86004, -21.34901 ], [ -57.88591, -21.37257 ], [ -57.90552, -21.40484 ], [ -57.933, -21.47892 ], [ -57.96448, -21.51428 ], [ -57.96346, -21.55179 ], [ -57.916, -21.58997 ], [ -57.93173, -21.60646 ], [ -57.92931, -21.65661 ], [ -57.89381, -21.68721 ], [ -57.89686, -21.7026 ], [ -57.94702, -21.74654 ], [ -57.91069, -21.77609 ], [ -57.9221, -21.81418 ], [ -57.96758, -21.84709 ], [ -57.92081, -21.87538 ], [ -57.94557, -21.9084 ], [ -57.9415, -21.9325 ], [ -57.96994, -22.00655 ], [ -58.00527, -22.03199 ], [ -57.98087, -22.0883 ], [ -57.94291, -22.08517 ], [ -57.92131, -22.12207 ], [ -57.86698, -22.13382 ], [ -57.82411, -22.12259 ], [ -57.79839, -22.14482 ], [ -57.78514, -22.12673 ], [ -57.75636, -22.13357 ], [ -57.70148, -22.09238 ], [ -57.65812, -22.10645 ], [ -57.61642, -22.09618 ], [ -57.61306, -22.11997 ], [ -57.5872, -22.1416 ], [ -57.58402, -22.16704 ], [ -57.55314, -22.18097 ], [ -57.50596, -22.183 ], [ -57.41245, -22.19877 ], [ -57.379301, -22.2232484 ], [ -57.32859, -22.23225 ], [ -57.2904, -22.21998 ], [ -57.25016, -22.24294 ], [ -57.22343, -22.23786 ], [ -57.19879, -22.21146 ], [ -57.18415, -22.23159 ], [ -57.10976, -22.22301 ], [ -57.09943, -22.2478 ], [ -57.0005, -22.22545 ], [ -56.9906914, -22.239718 ], [ -56.91046, -22.25784 ], [ -56.89385, -22.24646 ], [ -56.87186, -22.28506 ], [ -56.83113, -22.30043 ], [ -56.75355, -22.23684 ], [ -56.71833, -22.25496 ], [ -56.7056506, -22.2178432 ], [ -56.68442, -22.24465 ], [ -56.6428302, -22.2611683 ], [ -56.6043202, -22.2133502 ], [ -56.57636, -22.20067 ], [ -56.55693, -22.16629 ], [ -56.52649, -22.13347 ], [ -56.51894, -22.10306 ], [ -56.4719703, -22.0792701 ], [ -56.40335, -22.07751 ], [ -56.37944, -22.13308 ], [ -56.38065, -22.14927 ], [ -56.34146, -22.20598 ], [ -56.29344, -22.23226 ], [ -56.24803, -22.23999 ], [ -56.24287, -22.25654 ], [ -56.20841, -22.28087 ], [ -56.13668, -22.29044 ], [ -56.10236, -22.28121 ], [ -56.06072, -22.29325 ], [ -55.99185, -22.2825 ], [ -55.96666, -22.29207 ], [ -55.93613, -22.28142 ], [ -55.88729, -22.28607 ], [ -55.86167, -22.2791 ], [ -55.84312, -22.29303 ], [ -55.83262, -22.32375 ], [ -55.78966, -22.38211 ], [ -55.73975, -22.39613 ], [ -55.73387, -22.43328 ], [ -55.74595, -22.48382 ], [ -55.74184, -22.51432 ], [ -55.72437, -22.54798 ], [ -55.66207, -22.60139 ], [ -55.62736, -22.62142 ], [ -55.61456, -22.6544 ], [ -55.61464, -22.72048 ], [ -55.62703, -22.75771 ], [ -55.65429, -22.79111 ], [ -55.66699, -22.86251 ], [ -55.65293, -22.89663 ], [ -55.65055, -22.93416 ], [ -55.63514, -22.99133 ], [ -55.64328, -23.02159 ], [ -55.61982, -23.04854 ], [ -55.61832, -23.09142 ], [ -55.58997, -23.14678 ], [ -55.56417, -23.14848 ], [ -55.53951, -23.16578 ], [ -55.52169, -23.1971 ], [ -55.53435, -23.23341 ], [ -55.52001, -23.26176 ], [ -55.54889, -23.28554 ], [ -55.54918, -23.31695 ], [ -55.50614, -23.36716 ], [ -55.50182, -23.38204 ], [ -55.53764, -23.44735 ], [ -55.54325, -23.50034 ], [ -55.52516, -23.56786 ], [ -55.53529, -23.61375 ], [ -55.47739, -23.64369 ], [ -55.45862, -23.69332 ], [ -55.4612, -23.71488 ], [ -55.44265, -23.73403 ], [ -55.43329, -23.78897 ], [ -55.44581, -23.81242 ], [ -55.43378, -23.86667 ], [ -55.4416, -23.9123 ], [ -55.41258, -23.96139 ], [ -55.38187, -23.96784 ], [ -55.35426, -23.99173 ], [ -55.3336, -23.98884 ], [ -55.31489, -23.95894 ], [ -55.23098, -24.01141 ], [ -55.1935, -23.98743 ], [ -55.14513, -23.98776 ], [ -55.11221, -23.963 ], [ -55.06083, -23.99123 ], [ -55.00607, -23.95826 ], [ -54.9324708, -23.9642801 ], [ -54.90491, -23.90859 ], [ -54.8801, -23.89806 ], [ -54.80405, -23.88156 ], [ -54.75999, -23.85708 ], [ -54.74095, -23.86629 ], [ -54.7011517, -23.8610804 ], [ -54.67604, -23.81638 ], [ -54.641, -23.83781 ], [ -54.62144, -23.8337 ], [ -54.57358, -23.84983 ], [ -54.56192, -23.87931 ], [ -54.53681, -23.87254 ], [ -54.51415, -23.8877 ], [ -54.48337, -23.88471 ], [ -54.3998, -23.94024 ], [ -54.36833, -24.0 ], [ -54.3197, -24.01183 ], [ -54.31011, -24.04486 ], [ -54.28434, -24.08579 ], [ -54.32318, -24.12223 ], [ -54.33134, -24.15107 ], [ -54.32512, -24.17945 ], [ -54.3241, -24.24534 ], [ -54.27899, -24.2889 ], [ -54.2614, -24.33099 ], [ -54.2623703, -24.3756006 ], [ -54.33303, -24.49278 ], [ -54.33883, -24.54078 ], [ -54.33132, -24.61626 ], [ -54.33581, -24.64923 ], [ -54.36745, -24.74423 ], [ -54.40525, -24.8361 ], [ -54.45406, -25.0165 ], [ -54.4657, -25.07916 ], [ -54.45869, -25.11082 ], [ -54.4370002, -25.1466097 ], [ -54.43991, -25.16456 ], [ -54.47858, -25.2298 ], [ -54.4967, -25.2802 ], [ -54.54488, -25.3538 ], [ -54.57898, -25.39221 ], [ -54.61602, -25.45719 ], [ -54.60286, -25.50975 ], [ -54.5940998, -25.5922733 ], [ -54.5973218, -25.6233777 ], [ -54.5818316, -25.6567127 ], [ -54.6046332, -25.6683614 ], [ -54.627187, -25.6600586 ], [ -54.6587871, -25.6814971 ], [ -54.6150426, -25.7937705 ], [ -54.5940998, -25.8148372 ], [ -54.5879037, -25.8280968 ], [ -54.6228462, -25.9148617 ], [ -54.6087404, -25.9551397 ], [ -54.623356, -25.9857306 ], [ -54.6558164, -25.9791025 ], [ -54.6797792, -25.9940581 ], [ -54.67723, -26.0170013 ], [ -54.6498681, -26.0666265 ], [ -54.6451095, -26.1065646 ], [ -54.6746256, -26.1439023 ], [ -54.6722584, -26.160135 ], [ -54.6576372, -26.179255 ], [ -54.6463077, -26.1849198 ], [ -54.6377674, -26.1891899 ], [ -54.6257705, -26.198375 ], [ -54.6240835, -26.223306 ], [ -54.6733831, -26.2542354 ], [ -54.6758199, -26.2780417 ], [ -54.6643854, -26.2847899 ], [ -54.6610113, -26.2915381 ], [ -54.6497436, -26.3143609 ], [ -54.6507015, -26.3175938 ], [ -54.6540756, -26.3219052 ], [ -54.6720709, -26.3393381 ], [ -54.6968144, -26.3764534 ], [ -54.6988764, -26.3850762 ], [ -54.6980992, -26.4127949 ], [ -54.6990639, -26.4293146 ], [ -54.7007509, -26.4360629 ], [ -54.7058121, -26.4461852 ], [ -54.7112328, -26.4526126 ], [ -54.7189337, -26.4617436 ], [ -54.7376788, -26.4759899 ], [ -54.753987, -26.4941727 ], [ -54.7746066, -26.5039201 ], [ -54.7858537, -26.5131052 ], [ -54.801787, -26.5357868 ], [ -54.8033849, -26.5404919 ], [ -54.8085352, -26.5556566 ], [ -54.8059109, -26.5661538 ], [ -54.7976631, -26.5755264 ], [ -54.7935392, -26.5860236 ], [ -54.7886654, -26.5914597 ], [ -54.7851039, -26.6066432 ], [ -54.7858741, -26.6221051 ], [ -54.7860411, -26.6240762 ], [ -54.7864433, -26.6252156 ], [ -54.7894152, -26.6336362 ], [ -54.7974172, -26.6435275 ], [ -54.8029117, -26.6503193 ], [ -54.8349658, -26.6735633 ], [ -54.8608341, -26.6559429 ], [ -54.8758301, -26.6561303 ], [ -54.8853901, -26.6576299 ], [ -54.9176317, -26.6675648 ], [ -54.9352521, -26.6786244 ], [ -54.9418129, -26.6810613 ], [ -54.9461243, -26.6894966 ], [ -54.9488543, -26.7052347 ], [ -54.9493109, -26.7078668 ], [ -54.9458517, -26.7290211 ], [ -54.9444372, -26.7376715 ], [ -54.9449586, -26.7466663 ], [ -54.945187, -26.7506056 ], [ -54.9494984, -26.7686009 ], [ -54.958496, -26.7832221 ], [ -55.0522215, -26.7967186 ], [ -55.0606568, -26.8010299 ], [ -55.0685298, -26.8075907 ], [ -55.0883996, -26.833084 ], [ -55.126827, -26.8514542 ], [ -55.1408858, -26.8643884 ], [ -55.1455721, -26.8726362 ], [ -55.1508207, -26.8955052 ], [ -55.1332003, -26.9448048 ], [ -55.1393862, -26.9515531 ], [ -55.2010608, -26.9690551 ], [ -55.2048066, -26.9693609 ], [ -55.2597298, -26.9369319 ], [ -55.2743509, -26.9408684 ], [ -55.2994694, -26.9603633 ], [ -55.3324607, -26.9624252 ], [ -55.3776364, -26.9654244 ], [ -55.3905705, -26.9725476 ], [ -55.4051917, -26.9836072 ], [ -55.4165559, -26.9893671 ], [ -55.4393078, -27.0120997 ], [ -55.4548662, -27.0469656 ], [ -55.4528043, -27.102826 ], [ -55.4704247, -27.110699 ], [ -55.5476545, -27.1022637 ], [ -55.5626506, -27.1131358 ], [ -55.5660247, -27.1232582 ], [ -55.5723916, -27.1666628 ], [ -55.5735227, -27.1673092 ], [ -55.6023902, -27.1605609 ], [ -55.6072639, -27.1618731 ], [ -55.6228223, -27.1853044 ], [ -55.6168239, -27.207986 ], [ -55.5842074, -27.232917 ], [ -55.5776466, -27.2555986 ], [ -55.5928302, -27.2730315 ], [ -55.5977039, -27.2765931 ], [ -55.6020153, -27.2835288 ], [ -55.5931246, -27.3130839 ], [ -55.5905808, -27.3197068 ], [ -55.5948921, -27.3294543 ], [ -55.6020153, -27.3399515 ], [ -55.6533768, -27.3680692 ], [ -55.6771831, -27.3733178 ], [ -55.6886176, -27.3815656 ], [ -55.7184223, -27.424117 ], [ -55.7356678, -27.4449241 ], [ -55.7918184, -27.4385082 ], [ -55.7984229, -27.4360271 ], [ -55.8528247, -27.4055594 ], [ -55.8721321, -27.3618833 ], [ -55.8854412, -27.345575 ], [ -55.9238686, -27.3320786 ], [ -55.9851651, -27.3388268 ], [ -56.0175125, -27.3258562 ], [ -56.0284317, -27.3182127 ], [ -56.0500017, -27.3079305 ], [ -56.0639639, -27.3047886 ], [ -56.1320013, -27.3141271 ], [ -56.1880321, -27.3368062 ], [ -56.1920343, -27.3568172 ], [ -56.1933684, -27.3754942 ], [ -56.2200497, -27.3821645 ], [ -56.2694102, -27.3821645 ], [ -56.3014278, -27.3955052 ], [ -56.3161025, -27.4221865 ], [ -56.2934234, -27.4608744 ], [ -56.286753, -27.4795514 ], [ -56.2934234, -27.4902239 ], [ -56.345452, -27.5249096 ], [ -56.3641289, -27.5595954 ], [ -56.3734674, -27.5769382 ], [ -56.3894762, -27.5862767 ], [ -56.4201597, -27.5876108 ], [ -56.4788586, -27.5635976 ], [ -56.5002037, -27.5409184 ], [ -56.5162125, -27.5022305 ], [ -56.5388916, -27.4582063 ], [ -56.6015928, -27.4301909 ], [ -56.6536214, -27.4368612 ], [ -56.6869731, -27.4408634 ], [ -56.7243269, -27.4688788 ], [ -56.7229929, -27.4955602 ], [ -56.7501706, -27.4980732 ], [ -56.8320761, -27.457865 ], [ -56.8504428, -27.4360236 ], [ -56.8886653, -27.4131893 ], [ -56.9318519, -27.4117001 ], [ -56.9824844, -27.4390019 ], [ -57.0355988, -27.4762317 ], [ -57.0465196, -27.4806993 ], [ -57.0998206, -27.4831922 ], [ -57.12772, -27.4854697 ], [ -57.140175, -27.4841159 ], [ -57.2116564, -27.4659748 ], [ -57.2341296, -27.4665164 ], [ -57.2495631, -27.4554151 ], [ -57.2614767, -27.4497291 ], [ -57.2839499, -27.432671 ], [ -57.3189262, -27.414918 ], [ -57.37628, -27.4191329 ], [ -57.3903405, -27.4174024 ], [ -57.4125622, -27.4088439 ], [ -57.4778159, -27.404241 ], [ -57.5246578, -27.3934105 ], [ -57.543882, -27.383663 ], [ -57.5525464, -27.3812262 ], [ -57.5652722, -27.38258 ], [ -57.575832, -27.3806846 ], [ -57.5937023, -27.3801431 ], [ -57.6267353, -27.3725618 ], [ -57.6611222, -27.3582113 ], [ -57.6800755, -27.3422364 ], [ -57.6910045, -27.3408156 ], [ -57.7071518, -27.3387164 ], [ -57.7282713, -27.3305936 ], [ -57.7396433, -27.3303228 ], [ -57.7699687, -27.334655 ], [ -57.774089, -27.3348267 ], [ -57.7886907, -27.3329411 ], [ -57.7919005, -27.3316766 ], [ -57.8206013, -27.3221999 ], [ -57.8287242, -27.3192215 ], [ -57.8777322, -27.2796902 ], [ -57.8983101, -27.2702135 ], [ -57.9072453, -27.2721089 ], [ -57.9289063, -27.2821271 ], [ -57.9789974, -27.2672351 ], [ -58.074035, -27.2645275 ], [ -58.0913638, -27.2691305 ], [ -58.1195797, -27.2695623 ], [ -58.1647405, -27.2666936 ], [ -58.2072502, -27.2512601 ], [ -58.2982264, -27.253697 ], [ -58.3567111, -27.2710258 ], [ -58.386495, -27.2775241 ], [ -58.4376691, -27.2688597 ], [ -58.4478574, -27.2717252 ], [ -58.4549979, -27.2737334 ], [ -58.4805468, -27.2744293 ], [ -58.5609727, -27.2994598 ], [ -58.6071108, -27.2929763 ], [ -58.6073219, -27.287792 ], [ -58.6075568, -27.2820194 ], [ -58.5975741, -27.2699568 ], [ -58.5929986, -27.2578943 ], [ -58.5938299, -27.2476415 ], [ -58.5942465, -27.2244797 ], [ -58.6490132, -27.1953632 ], [ -58.664126, -27.1695743 ], [ -58.6551138, -27.1389327 ], [ -58.6505383, -27.1285339 ], [ -58.6376439, -27.1179965 ], [ -58.5543153, -27.1089843 ], [ -58.553782, -27.1050735 ], [ -58.5620797, -27.0442347 ], [ -58.5572269, -27.0364704 ], [ -58.517831, -27.0474849 ], [ -58.5174344, -27.0479783 ], [ -58.5175142, -27.0482834 ], [ -58.5197914, -27.0569905 ], [ -58.5025989, -27.0539402 ], [ -58.5017219, -27.049493 ], [ -58.5184049, -27.0029171 ], [ -58.5109178, -26.9975097 ], [ -58.4698775, -26.9984803 ], [ -58.4686296, -26.9908545 ], [ -58.501767, -26.9245799 ], [ -58.4970529, -26.9225001 ], [ -58.4607266, -26.9291553 ], [ -58.3840532, -26.8921358 ], [ -58.3778129, -26.8777406 ], [ -58.3776753, -26.8717542 ], [ -58.3237404, -26.8671788 ], [ -58.3202742, -26.8576119 ], [ -58.3202221, -26.8555785 ], [ -58.3199969, -26.8467972 ], [ -58.3310699, -26.8067235 ], [ -58.330257, -26.8057569 ], [ -58.3236018, -26.8056182 ], [ -58.3146053, -26.8079651 ], [ -58.2827001, -26.788287 ], [ -58.2882122, -26.7791892 ], [ -58.2957743, -26.7667081 ], [ -58.296981, -26.7647165 ], [ -58.2935148, -26.757368 ], [ -58.2840866, -26.7551496 ], [ -58.2751571, -26.7596669 ], [ -58.2723013, -26.7611116 ], [ -58.2601001, -26.7627754 ], [ -58.2459578, -26.7423939 ], [ -58.2556708, -26.7196371 ], [ -58.256254, -26.6709994 ], [ -58.264302, -26.6572362 ], [ -58.2622025, -26.646039 ], [ -58.2475062, -26.6425399 ], [ -58.2408579, -26.644756 ], [ -58.2321168, -26.6500353 ], [ -58.2290776, -26.6518708 ], [ -58.2249205, -26.652941 ], [ -58.2172972, -26.6549034 ], [ -58.1917537, -26.6390408 ], [ -58.2076163, -26.6271438 ], [ -58.2100657, -26.6211953 ], [ -58.2091326, -26.6153634 ], [ -58.1933866, -26.5914528 ], [ -58.2030675, -26.556345 ], [ -58.2206797, -26.5454977 ], [ -58.2245287, -26.5345338 ], [ -58.2105322, -26.4918446 ], [ -58.2155476, -26.4879956 ], [ -58.2302439, -26.4815805 ], [ -58.2342096, -26.4710832 ], [ -58.2322268, -26.4677007 ], [ -58.1817229, -26.4596527 ], [ -58.181023, -26.4541708 ], [ -58.1832391, -26.4504384 ], [ -58.1985186, -26.4383081 ], [ -58.2084716, -26.4266055 ], [ -58.2182692, -26.4188297 ], [ -58.221535, -26.4115204 ], [ -58.2123596, -26.3796396 ], [ -58.1919869, -26.3670428 ], [ -58.1888728, -26.3663421 ], [ -58.1573068, -26.3427823 ], [ -58.1567041, -26.3077371 ], [ -58.1651411, -26.2967277 ], [ -58.1674334, -26.2887048 ], [ -58.1594821, -26.2609216 ], [ -58.1116377, -26.2420925 ], [ -58.1074192, -26.2184275 ], [ -58.1143614, -26.2140251 ], [ -58.1403444, -26.2003187 ], [ -58.1461593, -26.1953838 ], [ -58.1569168, -26.1862545 ], [ -58.1593792, -26.1841647 ], [ -58.1591734, -26.1805635 ], [ -58.1552636, -26.1784028 ], [ -58.1452831, -26.1780941 ], [ -58.1426387, -26.1791594 ], [ -58.1192517, -26.1859139 ], [ -58.1172967, -26.1834445 ], [ -58.1215153, -26.1601911 ], [ -58.1158562, -26.1507251 ], [ -58.0974387, -26.1302497 ], [ -58.0964858, -26.1278289 ], [ -58.0936317, -26.120578 ], [ -58.0891892, -26.1151041 ], [ -58.0667771, -26.107305 ], [ -58.0543606, -26.1107816 ], [ -58.0400254, -26.1118322 ], [ -58.0201674, -26.1041154 ], [ -58.0048366, -26.0923858 ], [ -57.9747924, -26.0821995 ], [ -57.9488638, -26.0671774 ], [ -57.9221121, -26.0336349 ], [ -57.8984471, -26.020259 ], [ -57.8780747, -26.0164521 ], [ -57.8547184, -26.0085294 ], [ -57.8554386, -25.985276 ], [ -57.8911419, -25.9662412 ], [ -57.8894956, -25.9448398 ], [ -57.8735475, -25.929509 ], [ -57.8425772, -25.9215864 ], [ -57.8367124, -25.903992 ], [ -57.8446617, -25.898553 ], [ -57.8562617, -25.8906161 ], [ -57.8613034, -25.8855745 ], [ -57.8695347, -25.8702437 ], [ -57.8565704, -25.8527522 ], [ -57.8376384, -25.849151 ], [ -57.8152082, -25.8464758 ], [ -57.8012149, -25.8333057 ], [ -57.8026016, -25.8015008 ], [ -57.8188093, -25.7829919 ], [ -57.8226163, -25.7691016 ], [ -57.8278638, -25.760253 ], [ -57.8278638, -25.75552 ], [ -57.8227192, -25.7509928 ], [ -57.8166486, -25.750787 ], [ -57.8073884, -25.753565 ], [ -57.7716975, -25.7544057 ], [ -57.7679811, -25.7491407 ], [ -57.7376746, -25.7281515 ], [ -57.7301171, -25.7080871 ], [ -57.7311708, -25.7081338 ], [ -57.7659233, -25.7047946 ], [ -57.7664119, -25.699963 ], [ -57.7479173, -25.6569502 ], [ -57.7329981, -25.6457351 ], [ -57.7249726, -25.6436772 ], [ -57.7205482, -25.6439859 ], [ -57.6889606, -25.6615803 ], [ -57.6721894, -25.6570531 ], [ -57.6705431, -25.6482045 ], [ -57.675477, -25.6156694 ], [ -57.6776426, -25.601389 ], [ -57.6478592, -25.6043773 ], [ -57.6423509, -25.6107521 ], [ -57.6374248, -25.6131578 ], [ -57.6334104, -25.6151183 ], [ -57.629078, -25.6172342 ], [ -57.6053101, -25.5906883 ], [ -57.6058246, -25.5705216 ], [ -57.6043841, -25.5679493 ], [ -57.5973875, -25.5665088 ], [ -57.5861723, -25.5709332 ], [ -57.5795873, -25.569184 ], [ -57.5694011, -25.5363617 ], [ -57.5791757, -25.5244263 ], [ -57.5804104, -25.5193847 ], [ -57.5801018, -25.5098158 ], [ -57.5554079, -25.4420105 ], [ -57.5670504, -25.4341418 ], [ -57.5769121, -25.4247248 ], [ -57.5801018, -25.4174195 ], [ -57.5869955, -25.4125836 ], [ -57.5991143, -25.4003823 ], [ -57.6015166, -25.3979636 ], [ -57.6021205, -25.3973557 ], [ -57.6150178, -25.3889267 ], [ -57.6362803, -25.3850088 ], [ -57.6435856, -25.3806873 ], [ -57.6473926, -25.3701924 ], [ -57.6591222, -25.3588744 ], [ -57.6646783, -25.3513633 ], [ -57.6732183, -25.2872621 ], [ -57.7154157, -25.2689427 ], [ -57.7228921, -25.2665656 ], [ -57.7230602, -25.2665122 ], [ -57.7298031, -25.2575348 ], [ -57.7279214, -25.2549866 ], [ -57.7260396, -25.2539673 ], [ -57.728627, -25.2462052 ], [ -57.7324831, -25.2502231 ], [ -57.734233, -25.2520464 ], [ -57.7405838, -25.2531441 ], [ -57.7355659, -25.2469109 ], [ -57.7350954, -25.2348757 ], [ -57.7379964, -25.2336996 ], [ -57.7478755, -25.2350325 ], [ -57.7486971, -25.2340705 ], [ -57.7494828, -25.2331508 ], [ -57.7447393, -25.2316611 ], [ -57.7438768, -25.2284073 ], [ -57.7455625, -25.2276232 ], [ -57.7510401, -25.2238794 ], [ -57.755172, -25.2191745 ], [ -57.7573422, -25.2157196 ], [ -57.7570297, -25.2101641 ], [ -57.7541477, -25.2080113 ], [ -57.7494949, -25.2094175 ], [ -57.7488699, -25.1956675 ], [ -57.7554151, -25.1966224 ], [ -57.7565262, -25.1933758 ], [ -57.758297, -25.1869696 ], [ -57.7523248, -25.1812404 ], [ -57.7531408, -25.1762057 ], [ -57.7562484, -25.176848 ], [ -57.7607623, -25.1755807 ], [ -57.7754498, -25.1617612 ], [ -57.7761269, -25.1555633 ], [ -57.7797554, -25.1522299 ], [ -57.7862311, -25.1516744 ], [ -57.7894256, -25.1520737 ], [ -57.792429, -25.1515529 ], [ -57.8046513, -25.1479938 ], [ -57.8043561, -25.1440355 ], [ -57.8067693, -25.1419695 ], [ -57.8091131, -25.1426119 ], [ -57.8130643, -25.1438128 ], [ -57.8170363, -25.138824 ], [ -57.8216011, -25.1410514 ], [ -57.8223111, -25.1413978 ], [ -57.8227767, -25.1405219 ], [ -57.8260288, -25.1304034 ], [ -57.8306999, -25.1284968 ], [ -57.8365149, -25.1312931 ], [ -57.8370714, -25.1302573 ], [ -57.8397243, -25.1253192 ], [ -57.8441411, -25.1170575 ], [ -57.8468421, -25.1072705 ], [ -57.8477636, -25.0970068 ], [ -57.8546908, -25.0985639 ], [ -57.8588216, -25.0895395 ], [ -57.8589487, -25.0877918 ], [ -57.8590123, -25.0855039 ], [ -57.8607917, -25.0813095 ], [ -57.8653675, -25.0828665 ], [ -57.8769075, -25.08095 ], [ -57.8782851, -25.0782353 ], [ -57.8833702, -25.0754395 ], [ -57.8880703, -25.0772426 ], [ -57.8898328, -25.0786405 ], [ -57.8925688, -25.0793946 ], [ -57.8929933, -25.0795116 ], [ -57.8958498, -25.0799978 ], [ -57.9014157, -25.0784957 ], [ -57.9055337, -25.0773844 ], [ -57.90446, -25.0758244 ], [ -57.9058376, -25.0730489 ], [ -57.9159874, -25.0776275 ], [ -57.9230174, -25.0731502 ], [ -57.9309387, -25.0778504 ], [ -57.93102, -25.0769327 ], [ -57.933775, -25.0719144 ], [ -57.9409872, -25.0714687 ], [ -57.9431144, -25.0734541 ], [ -57.9446777, -25.0757814 ], [ -57.9458089, -25.0774654 ], [ -57.9520082, -25.0803828 ], [ -57.9533453, -25.0793901 ], [ -57.9560195, -25.0727856 ], [ -57.9628362, -25.077853 ], [ -57.9744959, -25.085954 ], [ -57.9790148, -25.0847876 ], [ -57.9850914, -25.083219 ], [ -57.9879963, -25.0817294 ], [ -57.9882519, -25.0815983 ], [ -57.9991513, -25.0739809 ], [ -58.00061, -25.0664647 ], [ -58.0010399, -25.0509759 ], [ -58.0037906, -25.0486164 ], [ -58.0021699, -25.0452736 ], [ -58.0054753, -25.0346747 ], [ -58.0144, -25.0382715 ], [ -58.0234759, -25.0374143 ], [ -58.0312241, -25.0391119 ], [ -58.0345688, -25.0402044 ], [ -58.0434876, -25.0427306 ], [ -58.044918, -25.0425297 ], [ -58.0464684, -25.0414481 ], [ -58.0495441, -25.0403556 ], [ -58.0591579, -25.042154 ], [ -58.0643641, -25.0442962 ], [ -58.0706541, -25.0438347 ], [ -58.0768224, -25.0374984 ], [ -58.0783855, -25.0319688 ], [ -58.076335, -25.0283552 ], [ -58.0778054, -25.0273448 ], [ -58.0796125, -25.026103 ], [ -58.0825369, -25.0231281 ], [ -58.0838647, -25.0187582 ], [ -58.0900787, -25.0085385 ], [ -58.0943478, -25.0088184 ], [ -58.105822, -25.0116846 ], [ -58.1109728, -25.014772 ], [ -58.1119816, -25.0171106 ], [ -58.1173617, -25.0183333 ], [ -58.1178456, -25.0154849 ], [ -58.1183094, -25.0127545 ], [ -58.1235794, -25.0122754 ], [ -58.1245301, -25.012189 ], [ -58.1263521, -25.0117422 ], [ -58.1297345, -25.0109128 ], [ -58.1333187, -25.0100339 ], [ -58.1377053, -25.0006186 ], [ -58.138649, -24.9973916 ], [ -58.1395569, -24.9934873 ], [ -58.1436883, -24.9898099 ], [ -58.1503923, -24.9830152 ], [ -58.1498021, -24.9801853 ], [ -58.1498172, -24.9745557 ], [ -58.1524958, -24.9732392 ], [ -58.1591543, -24.9705303 ], [ -58.1638456, -24.9691532 ], [ -58.1677954, -24.9681242 ], [ -58.1703831, -24.9698039 ], [ -58.1771174, -24.9709238 ], [ -58.1803861, -24.9695164 ], [ -58.1835187, -24.9671405 ], [ -58.1870901, -24.970833 ], [ -58.193325, -24.9677156 ], [ -58.1942329, -24.9662325 ], [ -58.1952015, -24.9645073 ], [ -58.1945259, -24.960623 ], [ -58.2043721, -24.947876 ], [ -58.2079738, -24.9481333 ], [ -58.2240705, -24.9419003 ], [ -58.2246996, -24.9386464 ], [ -58.2237451, -24.9363253 ], [ -58.2202743, -24.9300345 ], [ -58.2299925, -24.9276918 ], [ -58.2346781, -24.9269108 ], [ -58.238279, -24.929015 ], [ -58.2495157, -24.9315096 ], [ -58.2547869, -24.9314662 ], [ -58.2558065, -24.9326376 ], [ -58.2590386, -24.9378438 ], [ -58.2791475, -24.9561956 ], [ -58.2843103, -24.9552194 ], [ -58.2883451, -24.956803 ], [ -58.2886488, -24.9583214 ], [ -58.2942888, -24.9700353 ], [ -58.3196599, -24.9887489 ], [ -58.3236204, -24.9900788 ], [ -58.3239402, -24.9932765 ], [ -58.3265487, -24.9963473 ], [ -58.328627, -24.997772 ], [ -58.3293119, -24.9982416 ], [ -58.3363676, -24.9989889 ], [ -58.3414074, -24.9957043 ], [ -58.3439795, -24.990456 ], [ -58.3467601, -24.9799245 ], [ -58.3470903, -24.9769528 ], [ -58.3489061, -24.9719693 ], [ -58.3494016, -24.9706095 ], [ -58.352409, -24.9687373 ], [ -58.3529469, -24.9684025 ], [ -58.3563183, -24.9691671 ], [ -58.3613729, -24.9673828 ], [ -58.3788163, -24.9577977 ], [ -58.38084, -24.9565572 ], [ -58.3859663, -24.9534147 ], [ -58.3878258, -24.9537689 ], [ -58.3930278, -24.9515996 ], [ -58.3979421, -24.941284 ], [ -58.4049804, -24.9303192 ], [ -58.4162847, -24.9205792 ], [ -58.4182032, -24.9217598 ], [ -58.4203873, -24.9232651 ], [ -58.4298591, -24.9219516 ], [ -58.4329183, -24.915947 ], [ -58.4332029, -24.9138553 ], [ -58.4326195, -24.9085907 ], [ -58.4316092, -24.9071535 ], [ -58.42855, -24.8976344 ], [ -58.4341646, -24.8890066 ], [ -58.4412634, -24.8810464 ], [ -58.4494018, -24.878492 ], [ -58.4539463, -24.8746307 ], [ -58.4566195, -24.8716605 ], [ -58.4589957, -24.8697596 ], [ -58.4641935, -24.8698784 ], [ -58.470833, -24.864285 ], [ -58.4711736, -24.8638785 ], [ -58.4758071, -24.8601954 ], [ -58.4794605, -24.8608786 ], [ -58.5030738, -24.8550272 ], [ -58.5019154, -24.8522946 ], [ -58.5027768, -24.8494432 ], [ -58.5105885, -24.843681 ], [ -58.5158458, -24.8435622 ], [ -58.5187066, -24.8469369 ], [ -58.5417759, -24.8384831 ], [ -58.5472678, -24.8314769 ], [ -58.5587359, -24.8278794 ], [ -58.5646466, -24.8244933 ], [ -58.5740325, -24.8205429 ], [ -58.580567, -24.8212855 ], [ -58.5865075, -24.8230082 ], [ -58.5864778, -24.8249685 ], [ -58.589745, -24.827315 ], [ -58.5929529, -24.8259784 ], [ -58.596428, -24.82482 ], [ -58.6043882, -24.829513 ], [ -58.6105366, -24.8311466 ], [ -58.6378924, -24.8286219 ], [ -58.6483179, -24.8243745 ], [ -58.6581196, -24.8313248 ], [ -58.6730896, -24.8316218 ], [ -58.679138, -24.8248168 ], [ -58.6918511, -24.8102046 ], [ -58.6934439, -24.8110342 ], [ -58.6994473, -24.814161 ], [ -58.7041422, -24.8136862 ], [ -58.7097338, -24.805246 ], [ -58.7127934, -24.7955397 ], [ -58.7192818, -24.7820353 ], [ -58.7261923, -24.7741754 ], [ -58.7310982, -24.7742281 ], [ -58.7348435, -24.7784482 ], [ -58.7396967, -24.780611 ], [ -58.7454993, -24.780611 ], [ -58.7522493, -24.7782018 ], [ -58.7626436, -24.7744919 ], [ -58.7736686, -24.7757051 ], [ -58.7822218, -24.7756506 ], [ -58.7916569, -24.7729621 ], [ -58.8121772, -24.7659989 ], [ -58.8171114, -24.7640785 ], [ -58.8219363, -24.7622008 ], [ -58.8275279, -24.7531275 ], [ -58.8454938, -24.7390177 ], [ -58.8546949, -24.7322379 ], [ -58.8688851, -24.7279123 ], [ -58.8727976, -24.731986 ], [ -58.8757359, -24.7325077 ], [ -58.9029143, -24.7045213 ], [ -58.9112195, -24.7016638 ], [ -58.942549, -24.6801196 ], [ -58.9489185, -24.678227 ], [ -58.9489835, -24.6782077 ], [ -58.9535473, -24.677077 ], [ -58.9662107, -24.6721433 ], [ -58.9720901, -24.6620495 ], [ -58.9848768, -24.6594182 ], [ -58.9925228, -24.6632227 ], [ -58.9933876, -24.663653 ], [ -58.9974991, -24.6637353 ], [ -59.0042625, -24.6600349 ], [ -59.0234426, -24.6599321 ], [ -59.0279242, -24.6565401 ], [ -59.0464875, -24.6449252 ], [ -59.0510924, -24.6422938 ], [ -59.057198, -24.6305966 ], [ -59.0638997, -24.6273897 ], [ -59.0654004, -24.6296304 ], [ -59.0745485, -24.6253956 ], [ -59.0987212, -24.6165143 ], [ -59.1029957, -24.6183344 ], [ -59.1054224, -24.6216436 ], [ -59.1092763, -24.6230762 ], [ -59.1106897, -24.6236016 ], [ -59.1188249, -24.6209818 ], [ -59.1277323, -24.6177277 ], [ -59.140421, -24.6052502 ], [ -59.1430376, -24.6049595 ], [ -59.1534066, -24.5990304 ], [ -59.1552542, -24.5932392 ], [ -59.1604387, -24.5854349 ], [ -59.1626184, -24.5857349 ], [ -59.1634446, -24.5858486 ], [ -59.1704345, -24.5824748 ], [ -59.1706875, -24.5823527 ], [ -59.1729863, -24.5812432 ], [ -59.1793566, -24.575976 ], [ -59.1852857, -24.5633733 ], [ -59.2026473, -24.5591879 ], [ -59.2101287, -24.5566701 ], [ -59.2371161, -24.5483258 ], [ -59.2408242, -24.5457744 ], [ -59.250357, -24.527516 ], [ -59.253411, -24.5233058 ], [ -59.2570321, -24.5195974 ], [ -59.2668194, -24.5189864 ], [ -59.2770101, -24.5162561 ], [ -59.2806947, -24.5185425 ], [ -59.2911629, -24.5162561 ], [ -59.2967183, -24.5132706 ], [ -59.2981921, -24.5098316 ], [ -59.3061661, -24.5011206 ], [ -59.3109656, -24.5029535 ], [ -59.3150435, -24.5002386 ], [ -59.3282565, -24.4929515 ], [ -59.3418298, -24.4893079 ], [ -59.3503581, -24.4831419 ], [ -59.3521599, -24.4808196 ], [ -59.3561586, -24.4624195 ], [ -59.3659174, -24.4484002 ], [ -59.366441, -24.4413072 ], [ -59.3692526, -24.4352542 ], [ -59.3734686, -24.4312936 ], [ -59.3733153, -24.4289429 ], [ -59.3728043, -24.4229892 ], [ -59.4024447, -24.4122318 ], [ -59.4110046, -24.4118741 ], [ -59.4215831, -24.4084246 ], [ -59.4224289, -24.4006082 ], [ -59.4257609, -24.3955591 ], [ -59.4423595, -24.3895288 ], [ -59.4466727, -24.3830079 ], [ -59.4478174, -24.3774478 ], [ -59.457057, -24.3728689 ], [ -59.4595918, -24.3674927 ], [ -59.4576528, -24.3578109 ], [ -59.4647092, -24.3547322 ], [ -59.4711826, -24.3491877 ], [ -59.4719394, -24.346659 ], [ -59.4676027, -24.3409285 ], [ -59.4728693, -24.3334485 ], [ -60.0324791, -24.0029375 ], [ -60.052214, -24.0136556 ], [ -60.06048, -24.01591 ], [ -60.1167, -24.03949 ], [ -60.1533402, -24.0423561 ], [ -60.2464975, -24.0447397 ], [ -60.29567, -24.04684 ], [ -60.33463, -24.04564 ], [ -60.3725499, -24.0277795 ], [ -60.37763, -24.02389 ], [ -60.39707, -23.99099 ], [ -60.46932, -23.96086 ], [ -60.51703, -23.96604 ], [ -60.56743, -23.95698 ], [ -60.58803, -23.93523 ], [ -60.58761, -23.91778 ], [ -60.6032276, -23.901953 ], [ -60.6386858, -23.9047089 ], [ -60.68782, -23.90006 ], [ -60.7322053, -23.879084 ], [ -60.73487, -23.87643 ], [ -60.74716, -23.8739 ], [ -60.7520377, -23.8752802 ], [ -60.75338, -23.87566 ], [ -60.76274, -23.87092 ], [ -60.7677, -23.87157 ], [ -60.77607, -23.8767 ], [ -60.7789546, -23.8755202 ], [ -60.78585, -23.8727 ], [ -60.7858614, -23.8727075 ], [ -60.7917588, -23.8765863 ], [ -60.79895, -23.8694 ], [ -60.80013, -23.8671 ], [ -60.800154, -23.8671086 ], [ -60.8150514, -23.8724462 ], [ -60.84749, -23.86723 ], [ -60.8692061, -23.8487674 ], [ -60.9001102, -23.8316297 ], [ -60.93194, -23.8048 ], [ -60.95192, -23.81307 ], [ -60.9638558, -23.8120482 ], [ -60.9756921, -23.811035 ], [ -61.00247, -23.79415 ], [ -61.05791, -23.71262 ], [ -61.07967, -23.69583 ], [ -61.0850891, -23.689126 ], [ -61.08813, -23.68127 ], [ -61.0869618, -23.6793866 ], [ -61.08421, -23.67495 ], [ -61.08537, -23.67217 ], [ -61.0854279, -23.6721387 ], [ -61.09696, -23.6659 ], [ -61.0983257, -23.6637391 ], [ -61.1001083, -23.6608677 ], [ -61.09522, -23.64738 ], [ -61.10163, -23.62564 ], [ -61.0941502, -23.6231601 ], [ -61.09227, -23.62086 ], [ -61.09639, -23.61478 ], [ -61.13136, -23.58911 ], [ -61.13946, -23.58083 ], [ -61.1606428, -23.570349 ], [ -61.17236, -23.55128 ], [ -61.17638, -23.54848 ], [ -61.1798228, -23.5497438 ], [ -61.18797, -23.55092 ], [ -61.19436, -23.54433 ], [ -61.2014989, -23.5457282 ], [ -61.20608, -23.55201 ], [ -61.23525, -23.55131 ], [ -61.2744218, -23.5121225 ], [ -61.27508, -23.50642 ], [ -61.27997, -23.50479 ], [ -61.358489, -23.4487229 ], [ -61.37465, -23.454 ], [ -61.3784927, -23.4534661 ], [ -61.3812, -23.45309 ], [ -61.3862544, -23.4507995 ], [ -61.39587, -23.46296 ], [ -61.45019, -23.4268 ], [ -61.49561, -23.41842 ], [ -61.49993, -23.41187 ], [ -61.49854, -23.4066 ], [ -61.49922, -23.40166 ], [ -61.51549, -23.38306 ], [ -61.5282568, -23.3714003 ], [ -61.52829, -23.37137 ], [ -61.5285943, -23.3679584 ], [ -61.51446, -23.34823 ], [ -61.5275617, -23.3489905 ], [ -61.5493, -23.34658 ], [ -61.5765, -23.32277 ], [ -61.6011346, -23.2934408 ], [ -61.6059118, -23.291328 ], [ -61.63928, -23.28212 ], [ -61.67264, -23.2858 ], [ -61.69279, -23.26131 ], [ -61.73932, -23.23971 ], [ -61.758, -23.18122 ], [ -61.8198161, -23.1518758 ], [ -61.8245877, -23.1330389 ], [ -61.83016, -23.12919 ], [ -61.83556, -23.12765 ], [ -61.85152, -23.1081815 ], [ -61.8535268, -23.103069 ], [ -61.86374, -23.08939 ], [ -61.93766, -23.0687 ], [ -62.00634, -22.99531 ], [ -62.00766, -22.98571 ], [ -62.0027705, -22.9763909 ], [ -62.0042328, -22.9736412 ], [ -62.00674, -22.96893 ], [ -62.00623, -22.94735 ], [ -62.0086952, -22.9414194 ], [ -62.0201766, -22.9278638 ], [ -62.02353, -22.92673 ], [ -62.0307124, -22.9276278 ], [ -62.03407, -22.91658 ], [ -62.04142, -22.89457 ], [ -62.05996, -22.85939 ], [ -62.06497, -22.85013 ], [ -62.07688, -22.84955 ], [ -62.0796149, -22.8357507 ], [ -62.08104, -22.82856 ], [ -62.08776, -22.82002 ], [ -62.107271, -22.8212682 ], [ -62.13629, -22.7895 ], [ -62.14208, -22.76396 ], [ -62.2029331, -22.6943077 ], [ -62.1992887, -22.6896281 ], [ -62.2018154, -22.6589415 ], [ -62.2080505, -22.6595935 ], [ -62.2136336, -22.6582487 ], [ -62.2113922, -22.6531954 ], [ -62.2075615, -22.6482644 ], [ -62.2169346, -22.6476938 ], [ -62.2245145, -22.6458192 ], [ -62.2210913, -22.6426813 ], [ -62.2249628, -22.6394211 ], [ -62.2341729, -22.6381985 ], [ -62.2377998, -22.6434148 ], [ -62.2380851, -22.634979 ], [ -62.2341729, -22.6117909 ], [ -62.2428187, -22.6130517 ], [ -62.253245, -22.6126059 ], [ -62.2532858, -22.6099978 ], [ -62.2496181, -22.5987908 ], [ -62.2593395, -22.6014821 ], [ -62.2713799, -22.604863 ], [ -62.2709316, -22.6019695 ], [ -62.2559347, -22.5910479 ], [ -62.244198, -22.5889287 ], [ -62.2451073, -22.5844381 ], [ -62.2483547, -22.5825306 ], [ -62.2481917, -22.580493 ], [ -62.2307904, -22.5603205 ], [ -62.2374521, -22.5622459 ], [ -62.2395114, -22.5587312 ], [ -62.2357849, -22.5579639 ], [ -62.2461006, -22.5337177 ], [ -62.2509704, -22.5347612 ], [ -62.2533915, -22.5323401 ], [ -62.2534635, -22.5241134 ], [ -62.2447641, -22.5113682 ], [ -62.254244, -22.5149829 ], [ -62.2857687, -22.5230331 ], [ -62.2935948, -22.5166075 ], [ -62.285426, -22.4984165 ], [ -62.2895582, -22.4940354 ], [ -62.2874891, -22.486282 ], [ -62.2909787, -22.4743624 ], [ -62.3001233, -22.4798643 ], [ -62.3218426, -22.4811991 ], [ -62.3268172, -22.4765252 ], [ -62.3330659, -22.4758455 ], [ -62.3445853, -22.4735006 ], [ -62.3473261, -22.4724842 ], [ -62.3480091, -22.4662992 ], [ -62.3446068, -22.4674106 ], [ -62.3581972, -22.4532464 ], [ -62.3770366, -22.4790675 ], [ -62.3789717, -22.4742865 ], [ -62.3798455, -22.4682182 ], [ -62.424454, -22.4276848 ], [ -62.4264775, -22.4283155 ], [ -62.4308661, -22.4240583 ], [ -62.4515465, -22.4146602 ], [ -62.4602199, -22.410288 ], [ -62.4631245, -22.3951512 ], [ -62.4644508, -22.3882399 ], [ -62.5368487, -22.3690946 ], [ -62.5414438, -22.3663663 ], [ -62.5436257, -22.3476508 ], [ -62.5398643, -22.3355648 ], [ -62.5531412, -22.3408669 ], [ -62.5549247, -22.3395292 ], [ -62.5560841, -22.3330192 ], [ -62.6199358, -22.2931564 ], [ -62.6363702, -22.2989751 ], [ -62.6400901, -22.2969911 ], [ -62.6392875, -22.2920863 ], [ -62.6345611, -22.2892326 ], [ -62.6298346, -22.2826334 ], [ -62.6271246, -22.2749911 ], [ -62.6299238, -22.2557015 ], [ -62.6317965, -22.2518668 ], [ -62.6452023, -22.2504664 ], [ -62.4584122, -21.6694962 ], [ -62.3425109, -21.3090102 ], [ -62.2611933, -21.0560895 ], [ -62.2661038, -20.5605739 ], [ -62.0502805, -20.2637181 ], [ -61.9217252, -20.0868958 ], [ -61.7301547, -19.6431856 ], [ -60.6040048, -19.4572405 ], [ -60.3585879, -19.3927158 ], [ -59.9766987, -19.2923099 ], [ -59.0668995, -19.2871454 ], [ -58.235, -19.7727342 ], [ -58.1627063, -19.8262924 ], [ -58.2011682, -19.8627214 ], [ -58.1958103, -19.9260599 ], [ -58.2133917, -19.9533156 ], [ -58.1945293, -19.9621229 ], [ -58.1772816, -19.9983798 ], [ -58.1750798, -20.0290588 ], [ -58.1375438, -20.1193901 ], [ -58.16346, -20.16246 ] ] ] ] } }
]
}
