{
"type": "FeatureCollection",
"name": "PSE_GAUL2007_ADM0",
"crs": { "type": "name", "properties": { "name": "urn:ogc:def:crs:OGC:1.3:CRS84" } },
"features": [
{ "type": "Feature", "properties": { "POLYGON_ID": "PSE_GAUL2007_ADM0_267", "ADM0_ISO3": "PSE", "ADM0_NAME": "West Bank", "ADM0_CODE": 267, "GEOSET": "GAUL", "GEOSET_YEAR": 2007.0, "GEOSET_VERSION": "GAUL_v1", "GEOSET_UNIT": "ADM0", "CENTROID_LONG": 35.083437449456966, "CENTROID_LAT": 31.822597862828207 }, "geometry": { "type": "MultiPolygon", "coordinates": [ [ [ [ 34.9863281, 31.9644775 ], [ 35.0025005, 31.9343005 ], [ 35.0409005, 31.9199005 ], [ 35.0383005, 31.8625005 ], [ 35.0025005, 31.8581005 ], [ 34.9723005, 31.8317005 ], [ 35.0289005, 31.8273005 ], [ 35.0529005, 31.8575005 ], [ 35.0953005, 31.8359005 ], [ 35.1588745, 31.8137207 ], [ 35.2033081, 31.8167114 ], [ 35.22229, 31.807312 ], [ 35.2419614, 31.7506549 ], [ 35.2234161, 31.7317703 ], [ 35.2081123, 31.747624 ], [ 35.1564671, 31.7312748 ], [ 35.1231015, 31.7108948 ], [ 35.1253005, 31.7383005 ], [ 35.1323005, 31.7481005 ], [ 35.178857, 31.7463645 ], [ 35.1944854, 31.7536277 ], [ 35.2234299, 31.7442504 ], [ 35.2240847, 31.7468696 ], [ 35.2239813, 31.7561747 ], [ 35.2268417, 31.7557611 ], [ 35.2278756, 31.7611718 ], [ 35.2246361, 31.7788514 ], [ 35.2266005, 31.7799542 ], [ 35.2264282, 31.7896728 ], [ 35.2223271, 31.7997361 ], [ 35.1550903, 31.8098755 ], [ 35.1273193, 31.8204956 ], [ 35.1102905, 31.8245239 ], [ 35.0993042, 31.8297119 ], [ 35.0764771, 31.8375244 ], [ 35.0457153, 31.8458862 ], [ 35.0311279, 31.8197021 ], [ 34.9805298, 31.8145142 ], [ 34.9553223, 31.8486938 ], [ 34.9572754, 31.8544922 ], [ 34.9672852, 31.861084 ], [ 34.9859009, 31.862915 ], [ 35.0010986, 31.8660889 ], [ 35.0148926, 31.871521 ], [ 35.0205078, 31.8839111 ], [ 35.0289307, 31.8881226 ], [ 35.0233154, 31.9160767 ], [ 34.9974976, 31.9281006 ], [ 34.9816895, 31.9656982 ], [ 34.9863281, 31.9644775 ] ] ] ] } },
{ "type": "Feature", "properties": { "POLYGON_ID": "PSE_GAUL2007_ADM0_267", "ADM0_ISO3": "PSE", "ADM0_NAME": "West Bank", "ADM0_CODE": 267, "GEOSET": "GAUL", "GEOSET_YEAR": 2007.0, "GEOSET_VERSION": "GAUL_v1", "GEOSET_UNIT": "ADM0", "CENTROID_LONG": 35.25700013582555, "CENTROID_LAT": 31.944135137859746 }, "geometry": { "type": "MultiPolygon", "coordinates": [ [ [ [ 35.1231015, 31.7108948 ], [ 35.1564671, 31.7312748 ], [ 35.2081123, 31.747624 ], [ 35.2234161, 31.7317703 ], [ 35.2419614, 31.7506549 ], [ 35.22229, 31.807312 ], [ 35.2033081, 31.8167114 ], [ 35.1588745, 31.8137207 ], [ 35.0953005, 31.8359005 ], [ 35.0529005, 31.8575005 ], [ 35.0289005, 31.8273005 ], [ 34.9723005, 31.8317005 ], [ 35.0025005, 31.8581005 ], [ 35.0383005, 31.8625005 ], [ 35.0409005, 31.9199005 ], [ 35.0025005, 31.9343005 ], [ 34.9863281, 31.9644775 ], [ 34.9983859, 31.9955448 ], [ 35.0018123, 32.0410401 ], [ 34.9857509, 32.0904615 ], [ 34.9901054, 32.1429762 ], [ 34.9596007, 32.17567 ], [ 34.9640979, 32.1985842 ], [ 34.9889156, 32.2063175 ], [ 35.0301752, 32.264115 ], [ 35.0084034, 32.2801759 ], [ 35.0161456, 32.3378794 ], [ 35.0513616, 32.3664805 ], [ 35.0400354, 32.3800196 ], [ 35.0750135, 32.4618017 ], [ 35.1225789, 32.4825268 ], [ 35.2247767, 32.5524116 ], [ 35.2523547, 32.523287 ], [ 35.2934718, 32.5097954 ], [ 35.3418713, 32.5190398 ], [ 35.4026665, 32.5013366 ], [ 35.4172192, 32.4636365 ], [ 35.4117226, 32.4337981 ], [ 35.4402999, 32.4058394 ], [ 35.4763012, 32.4111932 ], [ 35.5551213, 32.3889955 ], [ 35.5561238, 32.3216762 ], [ 35.5708107, 32.2471388 ], [ 35.5621891, 32.2314994 ], [ 35.570429, 32.1920766 ], [ 35.54966, 32.1604284 ], [ 35.5496074, 32.123177 ], [ 35.5328899, 32.1068289 ], [ 35.5453968, 32.0828757 ], [ 35.5197315, 32.048342 ], [ 35.5262015, 32.0025566 ], [ 35.5477879, 31.9726504 ], [ 35.5254624, 31.9020942 ], [ 35.5499747, 31.8730093 ], [ 35.5365819, 31.8562345 ], [ 35.5428082, 31.8055288 ], [ 35.5588355, 31.7619443 ], [ 35.5226487, 31.7146382 ], [ 35.48577, 31.6041032 ], [ 35.4759603, 31.4905103 ], [ 35.4025005, 31.4955005 ], [ 35.2981005, 31.4167005 ], [ 35.2333005, 31.3763005 ], [ 35.1405005, 31.3569005 ], [ 35.0731005, 31.3587005 ], [ 34.9859005, 31.3543005 ], [ 34.9259005, 31.3443005 ], [ 34.8753005, 31.3867005 ], [ 34.8991005, 31.4353005 ], [ 34.9479005, 31.5047005 ], [ 34.9575005, 31.5911005 ], [ 34.9995005, 31.6507005 ], [ 35.1231015, 31.7108948 ] ] ] ] } },
{ "type": "Feature", "properties": { "POLYGON_ID": "PSE_GAUL2007_ADM0_91", "ADM0_ISO3": "PSE", "ADM0_NAME": "Gaza Strip", "ADM0_CODE": 91, "GEOSET": "GAUL", "GEOSET_YEAR": 2007.0, "GEOSET_VERSION": "GAUL_v1", "GEOSET_UNIT": "ADM0", "CENTROID_LONG": 34.378713156700492, "CENTROID_LAT": 31.408095078639775 }, "geometry": { "type": "MultiPolygon", "coordinates": [ [ [ [ 34.2688394, 31.2205349 ], [ 34.2419693, 31.293317 ], [ 34.2197962, 31.3216881 ], [ 34.3362135, 31.4237909 ], [ 34.4079083, 31.4976564 ], [ 34.4908597, 31.5958735 ], [ 34.567688, 31.5415039 ], [ 34.5471191, 31.5126953 ], [ 34.5103149, 31.4976807 ], [ 34.3824799, 31.3917916 ], [ 34.3632812, 31.3624878 ], [ 34.3739014, 31.3071289 ], [ 34.3198853, 31.2532959 ], [ 34.2688394, 31.2205349 ] ] ] ] } }
]
}
