{
"type": "FeatureCollection",
"name": "QAT_GAUL2008_ADM1",
"crs": { "type": "name", "properties": { "name": "urn:ogc:def:crs:OGC:1.3:CRS84" } },
"features": [
{ "type": "Feature", "properties": { "POLYGON_ID": "QAT_GAUL2008_ADM1_2422", "ADM0_ISO3": "QAT", "ADM0_NAME": "Qatar", "ADM0_CODE": 201, "ADM1_NAME": "Ad Dawhah", "ADM1_CODE": 2422, "GEOSET": "GAUL", "GEOSET_YEAR": 2008.0, "GEOSET_VERSION": "GAUL_v1", "GEOSET_UNIT": "ADM1", "CENTROID_LONG": 51.523356149881884, "CENTROID_LAT": 25.300272136377526 }, "geometry": { "type": "MultiPolygon", "coordinates": [ [ [ [ 51.6087707, 25.2318511 ], [ 51.5784111, 25.2403297 ], [ 51.5443115, 25.21558 ], [ 51.5102615, 25.2510395 ], [ 51.4471703, 25.3580894 ], [ 51.5360417, 25.3900514 ], [ 51.529007, 25.2905674 ], [ 51.6059227, 25.2661705 ], [ 51.6087707, 25.2318511 ] ] ] ] } },
{ "type": "Feature", "properties": { "POLYGON_ID": "QAT_GAUL2008_ADM1_2423", "ADM0_ISO3": "QAT", "ADM0_NAME": "Qatar", "ADM0_CODE": 201, "ADM1_NAME": "Al Ghuwayriyah", "ADM1_CODE": 2423, "GEOSET": "GAUL", "GEOSET_YEAR": 2008.0, "GEOSET_VERSION": "GAUL_v1", "GEOSET_UNIT": "ADM1", "CENTROID_LONG": 51.159191862983725, "CENTROID_LAT": 25.791076970360752 }, "geometry": { "type": "MultiPolygon", "coordinates": [ [ [ [ 51.3437309, 25.8312397 ], [ 51.3401413, 25.7968292 ], [ 51.2500687, 25.7003098 ], [ 51.1434708, 25.7048492 ], [ 51.1447792, 25.7324409 ], [ 50.9174228, 25.7308689 ], [ 50.9122467, 25.763628 ], [ 50.9362717, 25.8032398 ], [ 50.9742889, 25.7604313 ], [ 50.9953575, 25.7939034 ], [ 50.9682603, 25.8241244 ], [ 51.1449394, 25.8295403 ], [ 51.1450195, 25.8884792 ], [ 51.2816811, 25.8937893 ], [ 51.2849998, 25.8565292 ], [ 51.3411789, 25.8566399 ], [ 51.3437309, 25.8312397 ] ] ] ] } },
{ "type": "Feature", "properties": { "POLYGON_ID": "QAT_GAUL2008_ADM1_2424", "ADM0_ISO3": "QAT", "ADM0_NAME": "Qatar", "ADM0_CODE": 201, "ADM1_NAME": "Al Jumayliyah", "ADM1_CODE": 2424, "GEOSET": "GAUL", "GEOSET_YEAR": 2008.0, "GEOSET_VERSION": "GAUL_v1", "GEOSET_UNIT": "ADM1", "CENTROID_LONG": 50.994676668335977, "CENTROID_LAT": 25.442416003795881 }, "geometry": { "type": "MultiPolygon", "coordinates": [ [ [ [ 51.2873802, 25.5678005 ], [ 51.2878189, 25.4868202 ], [ 51.1813316, 25.4862804 ], [ 51.1408386, 25.4419098 ], [ 51.1462212, 25.3169098 ], [ 51.1437607, 25.2757397 ], [ 51.0456581, 25.2719402 ], [ 51.0464783, 25.1328793 ], [ 50.7810054, 25.1296176 ], [ 50.7705765, 25.2115059 ], [ 50.7767487, 25.2947578 ], [ 50.7695427, 25.3870735 ], [ 50.7572327, 25.4163246 ], [ 50.7755661, 25.4825172 ], [ 50.7633858, 25.4988995 ], [ 50.8415833, 25.5512085 ], [ 50.8091431, 25.6108437 ], [ 50.8853302, 25.6279621 ], [ 50.8654938, 25.5722141 ], [ 50.8914299, 25.5061207 ], [ 50.9438896, 25.6026306 ], [ 50.9094543, 25.6451073 ], [ 50.8989143, 25.7078877 ], [ 50.9174228, 25.7308689 ], [ 51.1447792, 25.7324409 ], [ 51.1434708, 25.7048492 ], [ 51.2500687, 25.7003098 ], [ 51.2449684, 25.62644 ], [ 51.2873802, 25.5678005 ] ] ] ] } },
{ "type": "Feature", "properties": { "POLYGON_ID": "QAT_GAUL2008_ADM1_2425", "ADM0_ISO3": "QAT", "ADM0_NAME": "Qatar", "ADM0_CODE": 201, "ADM1_NAME": "Al Khawr", "ADM1_CODE": 2425, "GEOSET": "GAUL", "GEOSET_YEAR": 2008.0, "GEOSET_VERSION": "GAUL_v1", "GEOSET_UNIT": "ADM1", "CENTROID_LONG": 51.432446701250825, "CENTROID_LAT": 25.732537728266287 }, "geometry": { "type": "MultiPolygon", "coordinates": [ [ [ [ 51.5002594, 25.5499736 ], [ 51.3048401, 25.5524101 ], [ 51.2873802, 25.5678005 ], [ 51.2449684, 25.62644 ], [ 51.2500687, 25.7003098 ], [ 51.3401413, 25.7968292 ], [ 51.3437309, 25.8312397 ], [ 51.4155502, 25.8311901 ], [ 51.4130567, 25.9621471 ], [ 51.440136, 25.9473591 ], [ 51.5169792, 25.9510574 ], [ 51.582634, 25.9084339 ], [ 51.6004639, 25.7951794 ], [ 51.5714111, 25.7722282 ], [ 51.5393295, 25.6590424 ], [ 51.5563393, 25.6206799 ], [ 51.5024681, 25.602335 ], [ 51.5002594, 25.5499736 ] ] ] ] } },
{ "type": "Feature", "properties": { "POLYGON_ID": "QAT_GAUL2008_ADM1_2426", "ADM0_ISO3": "QAT", "ADM0_NAME": "Qatar", "ADM0_CODE": 201, "ADM1_NAME": "Al-wakrah", "ADM1_CODE": 2426, "GEOSET": "GAUL", "GEOSET_YEAR": 2008.0, "GEOSET_VERSION": "GAUL_v1", "GEOSET_UNIT": "ADM1", "CENTROID_LONG": 51.480660758297752, "CENTROID_LAT": 24.990435182634403 }, "geometry": { "type": "MultiPolygon", "coordinates": [ [ [ [ 51.6087707, 25.2318511 ], [ 51.6274567, 25.2055302 ], [ 51.6290855, 25.0836926 ], [ 51.6181374, 25.0599022 ], [ 51.6366463, 25.0142956 ], [ 51.5732155, 24.9034328 ], [ 51.5228462, 24.8528099 ], [ 51.4921598, 24.7613359 ], [ 51.3468208, 24.7627392 ], [ 51.3312988, 25.0910892 ], [ 51.4216309, 25.0515099 ], [ 51.4174309, 25.1468391 ], [ 51.5489693, 25.2042103 ], [ 51.5443115, 25.21558 ], [ 51.5784111, 25.2403297 ], [ 51.6087707, 25.2318511 ] ] ] ] } },
{ "type": "Feature", "properties": { "POLYGON_ID": "QAT_GAUL2008_ADM1_2427", "ADM0_ISO3": "QAT", "ADM0_NAME": "Qatar", "ADM0_CODE": 201, "ADM1_NAME": "Ar Rayyan", "ADM1_CODE": 2427, "GEOSET": "GAUL", "GEOSET_YEAR": 2008.0, "GEOSET_VERSION": "GAUL_v1", "GEOSET_UNIT": "ADM1", "CENTROID_LONG": 51.335892591301125, "CENTROID_LAT": 25.289513604340918 }, "geometry": { "type": "MultiPolygon", "coordinates": [ [ [ [ 51.4471703, 25.3580894 ], [ 51.5102615, 25.2510395 ], [ 51.5443115, 25.21558 ], [ 51.5489693, 25.2042103 ], [ 51.4174309, 25.1468391 ], [ 51.4216309, 25.0515099 ], [ 51.3312988, 25.0910892 ], [ 51.250679, 25.1329708 ], [ 51.3390198, 25.1781502 ], [ 51.2927399, 25.3185692 ], [ 51.1462212, 25.3169098 ], [ 51.1408386, 25.4419098 ], [ 51.1813316, 25.4862804 ], [ 51.2878189, 25.4868202 ], [ 51.2909813, 25.4143696 ], [ 51.4471703, 25.3580894 ] ] ] ] } },
{ "type": "Feature", "properties": { "POLYGON_ID": "QAT_GAUL2008_ADM1_2428", "ADM0_ISO3": "QAT", "ADM0_NAME": "Qatar", "ADM0_CODE": 201, "ADM1_NAME": "Ash Shamal", "ADM1_CODE": 2428, "GEOSET": "GAUL", "GEOSET_YEAR": 2008.0, "GEOSET_VERSION": "GAUL_v1", "GEOSET_UNIT": "ADM1", "CENTROID_LONG": 51.211680814668831, "CENTROID_LAT": 25.970999050665913 }, "geometry": { "type": "MultiPolygon", "coordinates": [ [ [ [ 51.4130567, 25.9621471 ], [ 51.4155502, 25.8311901 ], [ 51.3437309, 25.8312397 ], [ 51.3411789, 25.8566399 ], [ 51.2849998, 25.8565292 ], [ 51.2816811, 25.8937893 ], [ 51.1450195, 25.8884792 ], [ 51.1449394, 25.8295403 ], [ 50.9682603, 25.8241244 ], [ 50.9692917, 25.8791618 ], [ 50.9989204, 25.9013805 ], [ 50.9994812, 25.9523964 ], [ 51.0401611, 25.9777679 ], [ 51.0488205, 26.0378933 ], [ 51.1191254, 26.0788879 ], [ 51.160347, 26.0872002 ], [ 51.1985741, 26.1360435 ], [ 51.2461929, 26.1522026 ], [ 51.3032112, 26.1370449 ], [ 51.3685608, 26.0981731 ], [ 51.3659096, 26.0504303 ], [ 51.4064713, 26.0099487 ], [ 51.4130567, 25.9621471 ] ] ] ] } },
{ "type": "Feature", "properties": { "POLYGON_ID": "QAT_GAUL2008_ADM1_2430", "ADM0_ISO3": "QAT", "ADM0_NAME": "Qatar", "ADM0_CODE": 201, "ADM1_NAME": "Umm Salal", "ADM1_CODE": 2430, "GEOSET": "GAUL", "GEOSET_YEAR": 2008.0, "GEOSET_VERSION": "GAUL_v1", "GEOSET_UNIT": "ADM1", "CENTROID_LONG": 51.405120660123274, "CENTROID_LAT": 25.462506172181701 }, "geometry": { "type": "MultiPolygon", "coordinates": [ [ [ [ 51.5002594, 25.5499736 ], [ 51.4818916, 25.5029507 ], [ 51.5321655, 25.4364071 ], [ 51.5360417, 25.3900514 ], [ 51.4471703, 25.3580894 ], [ 51.2909813, 25.4143696 ], [ 51.2878189, 25.4868202 ], [ 51.2873802, 25.5678005 ], [ 51.3048401, 25.5524101 ], [ 51.5002594, 25.5499736 ] ] ] ] } },
{ "type": "Feature", "properties": { "POLYGON_ID": "QAT_GAUL2008_ADM1_2429", "ADM0_ISO3": "QAT", "ADM0_NAME": "Qatar", "ADM0_CODE": 201, "ADM1_NAME": "Jarayan Al Batnah", "ADM1_CODE": 2429, "GEOSET": "GAUL", "GEOSET_YEAR": 2008.0, "GEOSET_VERSION": "GAUL_v1", "GEOSET_UNIT": "ADM1", "CENTROID_LONG": 51.115804906256784, "CENTROID_LAT": 24.872621469300356 }, "geometry": { "type": "MultiPolygon", "coordinates": [ [ [ [ 51.3055157, 24.5063006 ], [ 51.098611, 24.471111 ], [ 51.0, 24.5 ], [ 50.928889, 24.545278 ], [ 50.8595306, 24.6733525 ], [ 50.8150283, 24.7394515 ], [ 50.8724403, 24.7640152 ], [ 50.862587, 24.8308716 ], [ 50.8724365, 24.8749542 ], [ 50.8577728, 24.9155216 ], [ 50.8054733, 24.9783878 ], [ 50.8221436, 25.0321884 ], [ 50.8121567, 25.0701122 ], [ 50.7807541, 25.1000614 ], [ 50.7810054, 25.1296176 ], [ 51.0464783, 25.1328793 ], [ 51.0456581, 25.2719402 ], [ 51.1437607, 25.2757397 ], [ 51.1462212, 25.3169098 ], [ 51.2927399, 25.3185692 ], [ 51.3390198, 25.1781502 ], [ 51.250679, 25.1329708 ], [ 51.3312988, 25.0910892 ], [ 51.3468208, 24.7627392 ], [ 51.4921598, 24.7613359 ], [ 51.4258423, 24.6333923 ], [ 51.3619385, 24.6130352 ], [ 51.2789154, 24.6506805 ], [ 51.2292404, 24.6366901 ], [ 51.2374077, 24.6100502 ], [ 51.3061759, 24.5869735 ], [ 51.3055157, 24.5063006 ] ] ] ] } }
]
}
