{
"type": "FeatureCollection",
"name": "REU_GAUL2000_ADM0",
"crs": { "type": "name", "properties": { "name": "urn:ogc:def:crs:OGC:1.3:CRS84" } },
"features": [
{ "type": "Feature", "properties": { "POLYGON_ID": "REU_GAUL2000_ADM0_206", "ADM0_ISO3": "REU", "ADM0_NAME": "Réunion", "ADM0_CODE": 206, "GEOSET": "GAUL", "GEOSET_YEAR": 2000.0, "GEOSET_VERSION": "GAUL_v1", "GEOSET_UNIT": "ADM0", "CENTROID_LONG": 55.532031282361643, "CENTROID_LAT": -21.133028064378738 }, "geometry": { "type": "MultiPolygon", "coordinates": [ [ [ [ 55.4507759, -20.8717136 ], [ 55.4679011, -20.8834108 ], [ 55.5031623, -20.8822449 ], [ 55.5512356, -20.8954018 ], [ 55.5922283, -20.895947 ], [ 55.6666534, -20.9267356 ], [ 55.6967778, -20.9645535 ], [ 55.7078351, -21.0274501 ], [ 55.779927, -21.1215738 ], [ 55.8268832, -21.1452142 ], [ 55.8366505, -21.183342 ], [ 55.8086426, -21.2272087 ], [ 55.8017193, -21.2620087 ], [ 55.8077026, -21.3360971 ], [ 55.7814448, -21.3614521 ], [ 55.7273293, -21.3697087 ], [ 55.6452527, -21.389086 ], [ 55.6098866, -21.3871491 ], [ 55.5867848, -21.3716449 ], [ 55.5518248, -21.3733419 ], [ 55.5035139, -21.3514546 ], [ 55.4297583, -21.3262254 ], [ 55.3944261, -21.2942844 ], [ 55.3394518, -21.2808906 ], [ 55.3286659, -21.2571638 ], [ 55.2931685, -21.2287564 ], [ 55.2830393, -21.1998333 ], [ 55.2866074, -21.1604723 ], [ 55.2710578, -21.1318257 ], [ 55.2207095, -21.0773694 ], [ 55.2164902, -21.0390552 ], [ 55.2352379, -21.0178679 ], [ 55.2788828, -20.9962203 ], [ 55.2772218, -20.9545448 ], [ 55.3006726, -20.9281882 ], [ 55.3250385, -20.9294033 ], [ 55.3955814, -20.8815589 ], [ 55.4507759, -20.8717136 ] ] ] ] } }
]
}
