{
"type": "FeatureCollection",
"name": "ROU_GAUL2003_ADM0",
"crs": { "type": "name", "properties": { "name": "urn:ogc:def:crs:OGC:1.3:CRS84" } },
"features": [
{ "type": "Feature", "properties": { "POLYGON_ID": "ROU_GAUL2003_ADM0_203", "ADM0_ISO3": "ROU", "ADM0_NAME": "Romania", "ADM0_CODE": 203, "GEOSET": "GAUL", "GEOSET_YEAR": 2003.0, "GEOSET_VERSION": "GAUL_v1", "GEOSET_UNIT": "ADM0", "CENTROID_LONG": 24.987789655735472, "CENTROID_LAT": 45.844137182768172 }, "geometry": { "type": "MultiPolygon", "coordinates": [ [ [ [ 28.21632, 45.4689 ], [ 28.27881, 45.45523 ], [ 28.28564, 45.40807 ], [ 28.33113, 45.34307 ], [ 28.35446, 45.32363 ], [ 28.57324, 45.25535 ], [ 28.63909, 45.25101 ], [ 28.68517, 45.23595 ], [ 28.73659, 45.22992 ], [ 28.79501, 45.24746 ], [ 28.7728, 45.2896 ], [ 28.82684, 45.33632 ], [ 28.90044, 45.30842 ], [ 28.93145, 45.28487 ], [ 28.95965, 45.29635 ], [ 28.95839, 45.31925 ], [ 28.99679, 45.35597 ], [ 29.04998, 45.36544 ], [ 29.09058, 45.38698 ], [ 29.13104, 45.38358 ], [ 29.24919, 45.42986 ], [ 29.31375, 45.43279 ], [ 29.33679, 45.44454 ], [ 29.42979, 45.44407 ], [ 29.48729, 45.42394 ], [ 29.57072, 45.40696 ], [ 29.65741, 45.3438 ], [ 29.68064, 45.27142 ], [ 29.66146, 45.25473 ], [ 29.6757312, 45.2169136 ], [ 29.6302725, 45.2226729 ], [ 29.6551955, 45.1670773 ], [ 29.678691, 45.1398197 ], [ 29.6576708, 45.0514169 ], [ 29.6277939, 44.8983849 ], [ 29.6092882, 44.857104 ], [ 29.5642781, 44.8344958 ], [ 29.4902587, 44.8321875 ], [ 29.3893418, 44.8159476 ], [ 29.3261305, 44.8137703 ], [ 29.2346204, 44.802255 ], [ 29.1757015, 44.7893842 ], [ 29.0965646, 44.75714 ], [ 29.043441, 44.7232555 ], [ 28.9613114, 44.6421901 ], [ 28.9324299, 44.589299 ], [ 28.8354617, 44.481359 ], [ 28.794433, 44.4542717 ], [ 28.7367943, 44.4024545 ], [ 28.6936406, 44.3522351 ], [ 28.6560202, 44.3397114 ], [ 28.6345416, 44.3104631 ], [ 28.637603, 44.2325409 ], [ 28.6701025, 44.186961 ], [ 28.6418627, 44.164451 ], [ 28.6532208, 44.0591141 ], [ 28.6771223, 44.0097918 ], [ 28.6450125, 43.9573329 ], [ 28.6446719, 43.9321414 ], [ 28.6061316, 43.8726593 ], [ 28.581477, 43.7591435 ], [ 28.5837724, 43.7373543 ], [ 28.4774575, 43.7352603 ], [ 28.41928, 43.74207 ], [ 28.36123, 43.75741 ], [ 28.24171, 43.77491 ], [ 28.15923, 43.79775 ], [ 28.00602, 43.85118 ], [ 27.92929, 44.00861 ], [ 27.90395, 44.00758 ], [ 27.84591, 43.97012 ], [ 27.75887, 43.96013 ], [ 27.72097, 43.96938 ], [ 27.68486, 44.02486 ], [ 27.65727, 44.05062 ], [ 27.61916, 44.02385 ], [ 27.49096, 44.03486 ], [ 27.40863, 44.02803 ], [ 27.36983, 44.06685 ], [ 27.30327, 44.08565 ], [ 27.28654, 44.13303 ], [ 27.21273, 44.12669 ], [ 27.15348, 44.14885 ], [ 27.07817, 44.14332 ], [ 27.03238, 44.15238 ], [ 27.00755, 44.14406 ], [ 26.90468, 44.14122 ], [ 26.78345, 44.09316 ], [ 26.74189, 44.08323 ], [ 26.69553, 44.08392 ], [ 26.6095, 44.06344 ], [ 26.55319, 44.06817 ], [ 26.4442487, 44.0455902 ], [ 26.39881, 44.05193 ], [ 26.31865, 44.03983 ], [ 26.26693, 44.01482 ], [ 26.19534, 43.99196 ], [ 26.13661, 43.98953 ], [ 26.08206, 43.94826 ], [ 26.0621495, 43.9139598 ], [ 25.95988, 43.86907 ], [ 25.93239, 43.8448 ], [ 25.87961, 43.78058 ], [ 25.81645, 43.7549 ], [ 25.7886, 43.7201 ], [ 25.71839, 43.69989 ], [ 25.66328, 43.6968 ], [ 25.58404, 43.65418 ], [ 25.49811, 43.65194 ], [ 25.44669, 43.63462 ], [ 25.37155, 43.62826 ], [ 25.26544, 43.6892 ], [ 25.17693, 43.70728 ], [ 25.10158, 43.69303 ], [ 25.06329, 43.7021 ], [ 24.99388, 43.73803 ], [ 24.90611, 43.71895 ], [ 24.8322, 43.72296 ], [ 24.73153, 43.71682 ], [ 24.6883286, 43.7234305 ], [ 24.6316, 43.75033 ], [ 24.55188, 43.76751 ], [ 24.47709, 43.75888 ], [ 24.41393, 43.72505 ], [ 24.34527, 43.70205 ], [ 24.28467, 43.70211 ], [ 24.1802, 43.68976 ], [ 24.02854, 43.73465 ], [ 23.99004, 43.75167 ], [ 23.89452, 43.75947 ], [ 23.82699, 43.78567 ], [ 23.71875, 43.81471 ], [ 23.62304, 43.80008 ], [ 23.51467, 43.84128 ], [ 23.44434, 43.86236 ], [ 23.33725, 43.85878 ], [ 23.26272, 43.85141 ], [ 23.11562, 43.81141 ], [ 23.0535468, 43.8079605 ], [ 22.98883, 43.81661 ], [ 22.8866898, 43.8449201 ], [ 22.85931, 43.86539 ], [ 22.85198, 43.89606 ], [ 22.89216, 43.98739 ], [ 22.91598, 44.00173 ], [ 23.01216, 44.02354 ], [ 23.0464, 44.06032 ], [ 23.04128, 44.08787 ], [ 23.01499, 44.10456 ], [ 22.93902, 44.10863 ], [ 22.88575, 44.13689 ], [ 22.81318, 44.16301 ], [ 22.76823, 44.19282 ], [ 22.67614, 44.21545 ], [ 22.6854, 44.26458 ], [ 22.67008, 44.2848 ], [ 22.5664, 44.30317 ], [ 22.52521, 44.33916 ], [ 22.50079, 44.38395 ], [ 22.49934, 44.42235 ], [ 22.4655199, 44.4439601 ], [ 22.45476, 44.46776 ], [ 22.47727, 44.48101 ], [ 22.516, 44.47472 ], [ 22.55823, 44.50113 ], [ 22.58217, 44.54817 ], [ 22.6414, 44.54413 ], [ 22.69317, 44.51636 ], [ 22.75162, 44.53319 ], [ 22.75151, 44.56659 ], [ 22.71287, 44.6 ], [ 22.66645, 44.61817 ], [ 22.63283, 44.61337 ], [ 22.58083, 44.63239 ], [ 22.46446, 44.71498 ], [ 22.42444, 44.70743 ], [ 22.37487, 44.67349 ], [ 22.3319, 44.67445 ], [ 22.27734, 44.62835 ], [ 22.26025, 44.59108 ], [ 22.23352, 44.56187 ], [ 22.1804, 44.4801 ], [ 22.13003, 44.47675 ], [ 22.08383, 44.50204 ], [ 22.04263, 44.53794 ], [ 22.0283, 44.58563 ], [ 21.99003, 44.63356 ], [ 21.85098, 44.65361 ], [ 21.76521, 44.66026 ], [ 21.72017, 44.65336 ], [ 21.6906, 44.66436 ], [ 21.62942, 44.65983 ], [ 21.61249, 44.68662 ], [ 21.61227, 44.72672 ], [ 21.59027, 44.75821 ], [ 21.55227, 44.76986 ], [ 21.39719, 44.77827 ], [ 21.35247, 44.83878 ], [ 21.36701, 44.86659 ], [ 21.4516, 44.87458 ], [ 21.48112, 44.86958 ], [ 21.5597598, 44.88881 ], [ 21.5466497, 44.930598 ], [ 21.40622, 44.97788 ], [ 21.35941, 45.02107 ], [ 21.456, 45.04113 ], [ 21.44731, 45.05811 ], [ 21.4827697, 45.0923198 ], [ 21.4788, 45.12237 ], [ 21.5266097, 45.1376899 ], [ 21.51405, 45.17057 ], [ 21.47946, 45.19254 ], [ 21.39465, 45.21827 ], [ 21.29134, 45.2434 ], [ 21.27614, 45.22984 ], [ 21.20245, 45.26488 ], [ 21.17602, 45.32515 ], [ 21.14496, 45.30492 ], [ 21.09616, 45.29602 ], [ 21.06389, 45.33173 ], [ 21.01631, 45.32449 ], [ 21.0097, 45.34172 ], [ 20.9506896, 45.3731331 ], [ 20.91992, 45.41771 ], [ 20.86662, 45.43231 ], [ 20.86796, 45.46376 ], [ 20.83301, 45.47972 ], [ 20.77072, 45.47943 ], [ 20.76878, 45.49986 ], [ 20.8329298, 45.5358399 ], [ 20.76608, 45.61216 ], [ 20.8065792, 45.6577094 ], [ 20.7964, 45.68724 ], [ 20.80291, 45.7381 ], [ 20.82219, 45.77583 ], [ 20.78411, 45.78719 ], [ 20.77218, 45.75431 ], [ 20.70054, 45.75007 ], [ 20.66013, 45.82919 ], [ 20.61111, 45.8641 ], [ 20.58097, 45.8696 ], [ 20.56878, 45.91019 ], [ 20.51577, 45.89211 ], [ 20.48364, 45.95291 ], [ 20.44671, 45.96983 ], [ 20.40449, 45.96469 ], [ 20.3574, 46.00497 ], [ 20.3027493, 46.0864002 ], [ 20.2673, 46.1171 ], [ 20.2765, 46.14502 ], [ 20.35892, 46.16804 ], [ 20.44238, 46.14738 ], [ 20.49731, 46.16517 ], [ 20.50339, 46.19264 ], [ 20.55825, 46.17524 ], [ 20.63623, 46.13606 ], [ 20.71975, 46.17219 ], [ 20.73019, 46.20039 ], [ 20.76034, 46.20535 ], [ 20.75523, 46.23994 ], [ 20.78937, 46.26996 ], [ 20.85758, 46.28568 ], [ 20.92039, 46.26445 ], [ 21.03172, 46.26344 ], [ 21.07157, 46.24795 ], [ 21.12141, 46.29732 ], [ 21.1732, 46.30049 ], [ 21.20448, 46.3462 ], [ 21.21845, 46.4051 ], [ 21.24612, 46.42019 ], [ 21.29946, 46.41589 ], [ 21.31874, 46.45609 ], [ 21.27355, 46.48505 ], [ 21.27088, 46.5038592 ], [ 21.32475, 46.57887 ], [ 21.31117, 46.59227 ], [ 21.3331784, 46.6255486 ], [ 21.37, 46.63402 ], [ 21.41536, 46.62222 ], [ 21.43181, 46.64815 ], [ 21.45971, 46.65659 ], [ 21.43739, 46.68631 ], [ 21.50124, 46.68772 ], [ 21.54005, 46.72706 ], [ 21.49844, 46.75143 ], [ 21.54538, 46.84269 ], [ 21.60803, 46.86379 ], [ 21.62564, 46.9364 ], [ 21.68422, 46.96078 ], [ 21.6942, 47.00836 ], [ 21.66708, 47.02819 ], [ 21.73372, 47.09517 ], [ 21.79322, 47.11248 ], [ 21.82042, 47.16964 ], [ 21.87423, 47.20644 ], [ 21.85852, 47.24136 ], [ 21.88303, 47.268 ], [ 21.88704, 47.30602 ], [ 21.92633, 47.33421 ], [ 21.93184, 47.35733 ], [ 21.9607395, 47.3797498 ], [ 22.02606, 47.39411 ], [ 22.03746, 47.43728 ], [ 22.01718, 47.47288 ], [ 22.0222, 47.50829 ], [ 22.06221, 47.55139 ], [ 22.09635, 47.56125 ], [ 22.13802, 47.59473 ], [ 22.19053, 47.60314 ], [ 22.19706, 47.63068 ], [ 22.2433788, 47.6924482 ], [ 22.28268, 47.73235 ], [ 22.33168, 47.75946 ], [ 22.43345, 47.74387 ], [ 22.44775, 47.79543 ], [ 22.48, 47.80685 ], [ 22.55721, 47.77435 ], [ 22.59022, 47.76951 ], [ 22.65661, 47.77827 ], [ 22.69144, 47.79807 ], [ 22.72824, 47.83683 ], [ 22.78397, 47.84599 ], [ 22.7789498, 47.8906099 ], [ 22.86007, 47.91298 ], [ 22.9059895, 47.9590498 ], [ 22.95028, 47.96945 ], [ 22.9389, 48.01701 ], [ 23.03814, 47.9915 ], [ 23.11323, 48.02704 ], [ 23.12964, 48.08795 ], [ 23.1866477, 48.1184195 ], [ 23.20501, 48.09649 ], [ 23.27864, 48.08739 ], [ 23.30337, 48.04624 ], [ 23.40315, 48.0 ], [ 23.43562, 48.0 ], [ 23.51119, 47.98112 ], [ 23.53011, 48.0 ], [ 23.62018, 48.0 ], [ 23.6683, 47.98822 ], [ 23.76645, 47.99733 ], [ 23.82367, 47.98234 ], [ 23.85047, 47.95195 ], [ 23.89077, 47.93468 ], [ 23.97452, 47.96428 ], [ 24.01106, 47.96529 ], [ 24.07749, 47.94737 ], [ 24.11031, 47.9228 ], [ 24.14677, 47.91368 ], [ 24.21116, 47.91801 ], [ 24.23471, 47.9059 ], [ 24.33963, 47.93272 ], [ 24.38415, 47.93075 ], [ 24.4095699, 47.9559599 ], [ 24.47678, 47.96987 ], [ 24.52842, 47.95706 ], [ 24.57831, 47.96524 ], [ 24.63347, 47.94676 ], [ 24.67113, 47.91162 ], [ 24.68286, 47.87195 ], [ 24.72739, 47.84134 ], [ 24.82298, 47.81838 ], [ 24.91005, 47.72233 ], [ 25.05569, 47.73927 ], [ 25.1206688, 47.7579196 ], [ 25.15483, 47.78839 ], [ 25.24329, 47.888 ], [ 25.32818, 47.92186 ], [ 25.61159, 47.93914 ], [ 25.64182, 47.94554 ], [ 25.72713, 47.93397 ], [ 25.78523, 47.94157 ], [ 25.9212, 47.97823 ], [ 25.98476, 47.97388 ], [ 26.07315, 47.99106 ], [ 26.14428, 47.98842 ], [ 26.19963, 48.00007 ], [ 26.23892, 48.04894 ], [ 26.27249, 48.07542 ], [ 26.32465, 48.15562 ], [ 26.32182, 48.18796 ], [ 26.39858, 48.19061 ], [ 26.47875, 48.22282 ], [ 26.55509, 48.21777 ], [ 26.59016, 48.24729 ], [ 26.62361, 48.2505 ], [ 26.73375, 48.26163 ], [ 26.78622, 48.24981 ], [ 26.8142, 48.25564 ], [ 26.85909, 48.23593 ], [ 26.94275, 48.17123 ], [ 26.99778, 48.15879 ], [ 26.98221, 48.13422 ], [ 27.04481, 48.13073 ], [ 27.0362, 48.09572 ], [ 27.11939, 48.01808 ], [ 27.1663, 48.0 ], [ 27.15442, 47.96745 ], [ 27.17316, 47.95722 ], [ 27.17161, 47.91839 ], [ 27.21508, 47.89921 ], [ 27.23166, 47.84213 ], [ 27.22206, 47.82287 ], [ 27.2892082, 47.7601871 ], [ 27.26444, 47.73283 ], [ 27.29631, 47.66836 ], [ 27.35987, 47.62447 ], [ 27.45684, 47.54069 ], [ 27.48378, 47.49125 ], [ 27.55167, 47.4798 ], [ 27.57944, 47.46208 ], [ 27.56241, 47.43771 ], [ 27.59246, 47.41359 ], [ 27.58172, 47.3773 ], [ 27.6048296, 47.370571 ], [ 27.64454, 47.31143 ], [ 27.6825, 47.31581 ], [ 27.69235, 47.29565 ], [ 27.7326295, 47.2986202 ], [ 27.76186, 47.24727 ], [ 27.7881, 47.22837 ], [ 27.81142, 47.16583 ], [ 27.80349, 47.14828 ], [ 27.85622, 47.13903 ], [ 27.90722, 47.08108 ], [ 28.02172, 47.03517 ], [ 28.09873, 46.99154 ], [ 28.11722, 46.92668 ], [ 28.1175, 46.85031 ], [ 28.14206, 46.81077 ], [ 28.1656896, 46.7945404 ], [ 28.18189, 46.75552 ], [ 28.20662, 46.72921 ], [ 28.23992, 46.66873 ], [ 28.25548, 46.61873 ], [ 28.22951, 46.57942 ], [ 28.22016, 46.50907 ], [ 28.2564193, 46.4709693 ], [ 28.25912, 46.44143 ], [ 28.23163, 46.42112 ], [ 28.18648, 46.29642 ], [ 28.14299, 46.28798 ], [ 28.1487669, 46.263158 ], [ 28.11551, 46.24493 ], [ 28.11607, 46.2209 ], [ 28.13861, 46.1917 ], [ 28.1333692, 46.1408986 ], [ 28.09488, 46.08244 ], [ 28.10794, 46.0599 ], [ 28.09305, 46.01541 ], [ 28.11953, 45.95637 ], [ 28.11681, 45.85845 ], [ 28.1235, 45.79431 ], [ 28.15556, 45.77914 ], [ 28.17185, 45.72474 ], [ 28.1658, 45.69779 ], [ 28.17293, 45.64302 ], [ 28.09454, 45.61331 ], [ 28.10762, 45.57931 ], [ 28.14226, 45.56915 ], [ 28.16597, 45.54096 ], [ 28.16719, 45.50963 ], [ 28.18663, 45.47503 ], [ 28.21632, 45.4689 ] ] ] ] } }
]
}
