{
"type": "FeatureCollection",
"name": "ROU_GAUL2000_ADM1",
"crs": { "type": "name", "properties": { "name": "urn:ogc:def:crs:OGC:1.3:CRS84" } },
"features": [
{ "type": "Feature", "properties": { "POLYGON_ID": "ROU_GAUL2000_ADM1_2446", "ADM0_ISO3": "ROU", "ADM0_NAME": "Romania", "ADM0_CODE": 203, "ADM1_NAME": "Alba", "ADM1_CODE": 2446, "GEOSET": "GAUL", "GEOSET_YEAR": 2000.0, "GEOSET_VERSION": "GAUL_v1", "GEOSET_UNIT": "ADM1", "CENTROID_LONG": 23.51599457217894, "CENTROID_LAT": 46.208997028080788 }, "geometry": { "type": "MultiPolygon", "coordinates": [ [ [ [ 24.0144424, 46.4905548 ], [ 24.0944443, 46.5199966 ], [ 24.1169434, 46.4924927 ], [ 24.0724983, 46.4677734 ], [ 24.0497208, 46.4083328 ], [ 24.081665, 46.3661041 ], [ 24.2177773, 46.3136063 ], [ 24.2655525, 46.2747192 ], [ 24.2419434, 46.2563858 ], [ 24.2302742, 46.1869431 ], [ 24.1299973, 46.1474991 ], [ 24.0819435, 46.0794373 ], [ 24.0088882, 46.0811081 ], [ 23.9483299, 46.0341644 ], [ 23.9363861, 45.9866638 ], [ 23.8594437, 45.9616623 ], [ 23.8430519, 45.8822174 ], [ 23.7624969, 45.8641663 ], [ 23.7302742, 45.8388824 ], [ 23.7330551, 45.7936096 ], [ 23.7074966, 45.7688828 ], [ 23.7491646, 45.6524963 ], [ 23.7266655, 45.6249924 ], [ 23.7186089, 45.5324936 ], [ 23.6902771, 45.5069427 ], [ 23.6849976, 45.5069427 ], [ 23.6186104, 45.5886078 ], [ 23.5761108, 45.6188889 ], [ 23.4794426, 45.6624985 ], [ 23.4461098, 45.7138824 ], [ 23.4044418, 45.9108276 ], [ 23.3630524, 45.9824982 ], [ 23.3230553, 46.0074997 ], [ 23.3044434, 46.07444 ], [ 23.2030525, 46.0569382 ], [ 23.1636086, 46.0599976 ], [ 23.0716629, 46.1274948 ], [ 23.1208305, 46.1452713 ], [ 23.1241646, 46.1747208 ], [ 23.056942, 46.2113876 ], [ 23.0166664, 46.2561035 ], [ 23.0061073, 46.3147202 ], [ 22.9794426, 46.3344421 ], [ 22.8383331, 46.3338852 ], [ 22.7986107, 46.3580551 ], [ 22.7474976, 46.3874969 ], [ 22.7738876, 46.4472198 ], [ 22.7249985, 46.5491638 ], [ 22.746109, 46.6038818 ], [ 22.8186073, 46.6422195 ], [ 22.867775, 46.6533279 ], [ 22.8847198, 46.6269379 ], [ 23.0238876, 46.6199951 ], [ 23.0669441, 46.5491638 ], [ 23.1136093, 46.5199966 ], [ 23.2874985, 46.5555496 ], [ 23.346386, 46.5386047 ], [ 23.5099983, 46.5319443 ], [ 23.5561104, 46.5019379 ], [ 23.6555519, 46.5094376 ], [ 23.6905518, 46.4949951 ], [ 23.6599998, 46.4516602 ], [ 23.7019424, 46.4316635 ], [ 23.805275, 46.4791641 ], [ 23.8741646, 46.4663849 ], [ 24.0144424, 46.4905548 ] ] ] ] } },
{ "type": "Feature", "properties": { "POLYGON_ID": "ROU_GAUL2000_ADM1_2447", "ADM0_ISO3": "ROU", "ADM0_NAME": "Romania", "ADM0_CODE": 203, "ADM1_NAME": "Arad", "ADM1_CODE": 2447, "GEOSET": "GAUL", "GEOSET_YEAR": 2000.0, "GEOSET_VERSION": "GAUL_v1", "GEOSET_UNIT": "ADM1", "CENTROID_LONG": 21.812288039789664, "CENTROID_LAT": 46.280891094950334 }, "geometry": { "type": "MultiPolygon", "coordinates": [ [ [ [ 21.4878411, 46.6932302 ], [ 21.5130539, 46.6619415 ], [ 21.5961075, 46.6391602 ], [ 21.665554, 46.6388855 ], [ 21.7399979, 46.6661072 ], [ 21.9024963, 46.6730499 ], [ 21.9866638, 46.6549988 ], [ 22.0208321, 46.6291656 ], [ 22.0677757, 46.6461105 ], [ 22.2413864, 46.5847168 ], [ 22.265274, 46.5438843 ], [ 22.3616638, 46.5166626 ], [ 22.410553, 46.465271 ], [ 22.5797195, 46.4147186 ], [ 22.6922188, 46.4074936 ], [ 22.7474976, 46.3874969 ], [ 22.7986107, 46.3580551 ], [ 22.6619415, 46.2363815 ], [ 22.5502777, 46.2111053 ], [ 22.5547218, 46.1491623 ], [ 22.4649963, 46.0808258 ], [ 22.4711075, 46.038887 ], [ 22.4002762, 46.0027771 ], [ 22.3808327, 45.9530487 ], [ 22.2799988, 45.9202728 ], [ 22.2197189, 45.9233322 ], [ 22.0677757, 45.9786072 ], [ 21.9874992, 45.969162 ], [ 21.8719444, 45.9822159 ], [ 21.8452759, 45.9397202 ], [ 21.7724991, 45.9255524 ], [ 21.7163887, 45.9708328 ], [ 21.6197205, 45.9644394 ], [ 21.6047211, 45.9969406 ], [ 21.5636101, 46.0069427 ], [ 21.5369415, 46.0499954 ], [ 21.4672203, 46.0402756 ], [ 21.451664, 45.9916611 ], [ 21.3158302, 45.9580536 ], [ 21.2552757, 45.9891663 ], [ 21.2077751, 45.9863815 ], [ 21.158886, 46.0399933 ], [ 21.0724983, 46.0333328 ], [ 21.0119438, 46.0466614 ], [ 20.8758316, 46.1469421 ], [ 20.8408318, 46.163887 ], [ 20.7220465, 46.1759407 ], [ 20.76034, 46.20535 ], [ 20.75523, 46.23994 ], [ 20.7902091, 46.2702362 ], [ 20.85758, 46.28568 ], [ 20.92039, 46.26445 ], [ 21.03172, 46.26344 ], [ 21.07157, 46.24795 ], [ 21.12141, 46.29732 ], [ 21.1732, 46.30049 ], [ 21.20448, 46.3462 ], [ 21.21845, 46.4051 ], [ 21.29946, 46.41589 ], [ 21.31874, 46.45609 ], [ 21.27088, 46.5038592 ], [ 21.32475, 46.57887 ], [ 21.3331784, 46.6255486 ], [ 21.41536, 46.62222 ], [ 21.4878411, 46.6932302 ] ] ] ] } },
{ "type": "Feature", "properties": { "POLYGON_ID": "ROU_GAUL2000_ADM1_2448", "ADM0_ISO3": "ROU", "ADM0_NAME": "Romania", "ADM0_CODE": 203, "ADM1_NAME": "Arges", "ADM1_CODE": 2448, "GEOSET": "GAUL", "GEOSET_YEAR": 2000.0, "GEOSET_VERSION": "GAUL_v1", "GEOSET_UNIT": "ADM1", "CENTROID_LONG": 24.909393737411015, "CENTROID_LAT": 45.06665748226964 }, "geometry": { "type": "MultiPolygon", "coordinates": [ [ [ [ 25.3127747, 45.4297104 ], [ 25.2986107, 45.3255539 ], [ 25.2705536, 45.2808228 ], [ 25.2580528, 45.2080536 ], [ 25.1780548, 45.156662 ], [ 25.1261063, 45.176384 ], [ 25.1236076, 45.1027756 ], [ 25.1641617, 45.0283279 ], [ 25.2294426, 44.9538879 ], [ 25.2133293, 44.8591537 ], [ 25.2541656, 44.8022156 ], [ 25.2183266, 44.7408218 ], [ 25.2513886, 44.6897125 ], [ 25.3341637, 44.6483307 ], [ 25.3041649, 44.5905457 ], [ 25.3183327, 44.5486069 ], [ 25.2441635, 44.5052719 ], [ 25.1377716, 44.4530487 ], [ 24.9838867, 44.4374924 ], [ 24.9338875, 44.4249954 ], [ 24.8980522, 44.4322205 ], [ 24.7866631, 44.4269409 ], [ 24.7586098, 44.4413834 ], [ 24.7377777, 44.5091629 ], [ 24.7719421, 44.5083313 ], [ 24.7763863, 44.5636063 ], [ 24.746109, 44.609993 ], [ 24.7258301, 44.7108307 ], [ 24.7369423, 44.7522202 ], [ 24.6244431, 44.7505493 ], [ 24.6058311, 44.7827759 ], [ 24.6097221, 44.8969421 ], [ 24.5705528, 44.9186096 ], [ 24.4830551, 44.8527756 ], [ 24.4733315, 44.8866653 ], [ 24.5047188, 44.9291611 ], [ 24.5066643, 45.0616608 ], [ 24.5241661, 45.1191635 ], [ 24.5544434, 45.1641617 ], [ 24.5111084, 45.2866592 ], [ 24.5424995, 45.367775 ], [ 24.5402756, 45.4611053 ], [ 24.5588875, 45.5077744 ], [ 24.556942, 45.6066666 ], [ 24.6427765, 45.6130524 ], [ 24.7266655, 45.6349945 ], [ 24.8169441, 45.6486053 ], [ 24.9799995, 45.6383286 ], [ 25.0436096, 45.6260986 ], [ 25.1844406, 45.5566635 ], [ 25.2138824, 45.5352707 ], [ 25.2272186, 45.4822159 ], [ 25.3127747, 45.4297104 ] ] ] ] } },
{ "type": "Feature", "properties": { "POLYGON_ID": "ROU_GAUL2000_ADM1_2449", "ADM0_ISO3": "ROU", "ADM0_NAME": "Romania", "ADM0_CODE": 203, "ADM1_NAME": "Bacau", "ADM1_CODE": 2449, "GEOSET": "GAUL", "GEOSET_YEAR": 2000.0, "GEOSET_VERSION": "GAUL_v1", "GEOSET_UNIT": "ADM1", "CENTROID_LONG": 26.768971747469148, "CENTROID_LAT": 46.433939239975231 }, "geometry": { "type": "MultiPolygon", "coordinates": [ [ [ [ 27.1736107, 46.7711105 ], [ 27.2555504, 46.7433319 ], [ 27.2758293, 46.7105408 ], [ 27.2605515, 46.640831 ], [ 27.3113823, 46.5669327 ], [ 27.3824997, 46.4977646 ], [ 27.4291649, 46.4322128 ], [ 27.4386063, 46.3894348 ], [ 27.498333, 46.3099976 ], [ 27.5116615, 46.2158279 ], [ 27.4958305, 46.1683197 ], [ 27.4061089, 46.1944427 ], [ 27.3780518, 46.1686096 ], [ 27.2674942, 46.1897125 ], [ 27.1911087, 46.1749878 ], [ 26.9844437, 46.1097107 ], [ 26.9419403, 46.0891647 ], [ 26.8458328, 46.0988846 ], [ 26.7869415, 46.0938797 ], [ 26.7574997, 46.1111069 ], [ 26.6611099, 46.0924988 ], [ 26.5955505, 46.0569305 ], [ 26.5177727, 46.0774918 ], [ 26.4449997, 46.0622177 ], [ 26.4036064, 46.1102676 ], [ 26.3524933, 46.1313858 ], [ 26.3344383, 46.2241516 ], [ 26.2508316, 46.2291565 ], [ 26.2299995, 46.2580414 ], [ 26.2511063, 46.3111038 ], [ 26.2352715, 46.3261108 ], [ 26.140831, 46.3227768 ], [ 26.1472206, 46.3622208 ], [ 26.0224953, 46.3980408 ], [ 26.0436096, 46.4636078 ], [ 26.0791626, 46.4647217 ], [ 26.0883293, 46.5163879 ], [ 26.0297165, 46.5608215 ], [ 26.0102768, 46.6355438 ], [ 25.9824944, 46.6505508 ], [ 26.0672188, 46.6744308 ], [ 26.0955505, 46.6560974 ], [ 26.1766624, 46.6655426 ], [ 26.2177734, 46.6994324 ], [ 26.3055496, 46.676384 ], [ 26.4424934, 46.7061005 ], [ 26.5516624, 46.7091599 ], [ 26.5780525, 46.7449875 ], [ 26.6522217, 46.7858276 ], [ 26.7880516, 46.7724915 ], [ 26.8252716, 46.7874908 ], [ 26.8741646, 46.8358307 ], [ 26.9180374, 46.7750015 ], [ 26.971386, 46.7730408 ], [ 27.0497208, 46.7924957 ], [ 27.1044426, 46.7655487 ], [ 27.1736107, 46.7711105 ] ] ] ] } },
{ "type": "Feature", "properties": { "POLYGON_ID": "ROU_GAUL2000_ADM1_2450", "ADM0_ISO3": "ROU", "ADM0_NAME": "Romania", "ADM0_CODE": 203, "ADM1_NAME": "Bihor", "ADM1_CODE": 2450, "GEOSET": "GAUL", "GEOSET_YEAR": 2000.0, "GEOSET_VERSION": "GAUL_v1", "GEOSET_UNIT": "ADM1", "CENTROID_LONG": 22.26337214317407, "CENTROID_LAT": 46.972216449624348 }, "geometry": { "type": "MultiPolygon", "coordinates": [ [ [ [ 22.7486076, 47.3605499 ], [ 22.7358322, 47.3024979 ], [ 22.6983299, 47.2869415 ], [ 22.6833305, 47.25 ], [ 22.5824966, 47.1872177 ], [ 22.6094437, 47.1519394 ], [ 22.6630554, 47.156105 ], [ 22.747776, 47.0738831 ], [ 22.8013878, 47.0691605 ], [ 22.8547211, 47.0449982 ], [ 22.8633308, 47.0122147 ], [ 22.8063889, 46.9563828 ], [ 22.8761101, 46.9016647 ], [ 22.8208313, 46.8263855 ], [ 22.6997185, 46.8058319 ], [ 22.8341637, 46.7202759 ], [ 22.867775, 46.6533279 ], [ 22.8186073, 46.6422195 ], [ 22.746109, 46.6038818 ], [ 22.7249985, 46.5491638 ], [ 22.7738876, 46.4472198 ], [ 22.7474976, 46.3874969 ], [ 22.6922188, 46.4074936 ], [ 22.5797195, 46.4147186 ], [ 22.410553, 46.465271 ], [ 22.3616638, 46.5166626 ], [ 22.265274, 46.5438843 ], [ 22.2413864, 46.5847168 ], [ 22.0677757, 46.6461105 ], [ 22.0208321, 46.6291656 ], [ 21.9866638, 46.6549988 ], [ 21.9024963, 46.6730499 ], [ 21.7399979, 46.6661072 ], [ 21.665554, 46.6388855 ], [ 21.5961075, 46.6391602 ], [ 21.5130539, 46.6619415 ], [ 21.4878411, 46.6932302 ], [ 21.54005, 46.72706 ], [ 21.49844, 46.75143 ], [ 21.54538, 46.84269 ], [ 21.60803, 46.86379 ], [ 21.62564, 46.9364 ], [ 21.68422, 46.96078 ], [ 21.6942, 47.00836 ], [ 21.6670471, 47.0282521 ], [ 21.73372, 47.09517 ], [ 21.79322, 47.11248 ], [ 21.82042, 47.16964 ], [ 21.87423, 47.20644 ], [ 21.85852, 47.24136 ], [ 21.88704, 47.30602 ], [ 21.9607395, 47.3797498 ], [ 22.02606, 47.39411 ], [ 22.03746, 47.43728 ], [ 22.0222, 47.50829 ], [ 22.06221, 47.55139 ], [ 22.118139, 47.5779751 ], [ 22.190682, 47.6037746 ], [ 22.2591629, 47.5686035 ], [ 22.3372192, 47.5444412 ], [ 22.3644409, 47.4869385 ], [ 22.414444, 47.4824982 ], [ 22.4772186, 47.4474945 ], [ 22.5433311, 47.4288864 ], [ 22.6758308, 47.4155502 ], [ 22.7486076, 47.3605499 ] ] ] ] } },
{ "type": "Feature", "properties": { "POLYGON_ID": "ROU_GAUL2000_ADM1_2451", "ADM0_ISO3": "ROU", "ADM0_NAME": "Romania", "ADM0_CODE": 203, "ADM1_NAME": "Bistrita-nasaud", "ADM1_CODE": 2451, "GEOSET": "GAUL", "GEOSET_YEAR": 2000.0, "GEOSET_VERSION": "GAUL_v1", "GEOSET_UNIT": "ADM1", "CENTROID_LONG": 24.510348611794946, "CENTROID_LAT": 47.240647403811231 }, "geometry": { "type": "MultiPolygon", "coordinates": [ [ [ [ 24.9841652, 47.5897217 ], [ 25.0499954, 47.5683289 ], [ 25.0869408, 47.4886017 ], [ 25.060833, 47.4452667 ], [ 25.0088844, 47.4511108 ], [ 24.9869423, 47.4277725 ], [ 25.0319405, 47.3930435 ], [ 25.0302734, 47.3638687 ], [ 24.9866638, 47.3074951 ], [ 25.0166626, 47.2585907 ], [ 25.0216637, 47.1497116 ], [ 24.8672218, 47.1130524 ], [ 24.7677765, 47.0216599 ], [ 24.7763863, 46.9749985 ], [ 24.7405548, 46.9599991 ], [ 24.6541634, 46.9733276 ], [ 24.6074982, 46.9499969 ], [ 24.5352745, 46.8811035 ], [ 24.5272217, 46.8247147 ], [ 24.4383316, 46.7655487 ], [ 24.2908325, 46.7699966 ], [ 24.1991653, 46.7958298 ], [ 24.2069435, 46.8541641 ], [ 24.1958313, 46.9088821 ], [ 24.1383324, 46.9574966 ], [ 24.1647186, 47.047493 ], [ 24.1461105, 47.0863876 ], [ 24.0630531, 47.1477737 ], [ 23.9838867, 47.1705551 ], [ 23.9416656, 47.2105484 ], [ 23.9474983, 47.2630539 ], [ 23.9897194, 47.300827 ], [ 24.0444412, 47.3136063 ], [ 24.0199966, 47.3724976 ], [ 24.1302757, 47.4516602 ], [ 24.1611099, 47.5130539 ], [ 24.2544441, 47.5333328 ], [ 24.3027763, 47.5863876 ], [ 24.3422203, 47.5741653 ], [ 24.4119415, 47.6005554 ], [ 24.5272217, 47.5911102 ], [ 24.6411095, 47.5638886 ], [ 24.7447205, 47.5616608 ], [ 24.7947197, 47.5719376 ], [ 24.9027748, 47.5724945 ], [ 24.9841652, 47.5897217 ] ] ] ] } },
{ "type": "Feature", "properties": { "POLYGON_ID": "ROU_GAUL2000_ADM1_2452", "ADM0_ISO3": "ROU", "ADM0_NAME": "Romania", "ADM0_CODE": 203, "ADM1_NAME": "Botosani", "ADM1_CODE": 2452, "GEOSET": "GAUL", "GEOSET_YEAR": 2000.0, "GEOSET_VERSION": "GAUL_v1", "GEOSET_UNIT": "ADM1", "CENTROID_LONG": 26.761289201920281, "CENTROID_LAT": 47.878262717421769 }, "geometry": { "type": "MultiPolygon", "coordinates": [ [ [ [ 27.1685123, 47.9239031 ], [ 27.21508, 47.89921 ], [ 27.22206, 47.82287 ], [ 27.2892082, 47.7601871 ], [ 27.26444, 47.73283 ], [ 27.29631, 47.66836 ], [ 27.3666301, 47.6186227 ], [ 27.2519417, 47.5933228 ], [ 27.1752777, 47.5608215 ], [ 27.1083298, 47.5680466 ], [ 27.0561066, 47.4988785 ], [ 26.9877777, 47.5241547 ], [ 26.7902756, 47.5302658 ], [ 26.7086105, 47.492775 ], [ 26.5875816, 47.4808807 ], [ 26.5616646, 47.5130539 ], [ 26.6202736, 47.5594406 ], [ 26.5044518, 47.6902466 ], [ 26.492775, 47.7608185 ], [ 26.3991623, 47.8149948 ], [ 26.3561096, 47.805275 ], [ 26.2988815, 47.8563766 ], [ 26.1111069, 47.9526138 ], [ 26.1008626, 47.9876921 ], [ 26.19963, 48.00007 ], [ 26.27249, 48.07542 ], [ 26.32465, 48.15562 ], [ 26.32182, 48.18796 ], [ 26.39858, 48.19061 ], [ 26.47875, 48.22282 ], [ 26.55509, 48.21777 ], [ 26.62361, 48.2505 ], [ 26.73375, 48.26163 ], [ 26.8142, 48.25564 ], [ 26.85909, 48.23593 ], [ 26.94275, 48.17123 ], [ 27.04481, 48.13073 ], [ 27.0362, 48.09572 ], [ 27.11939, 48.01808 ], [ 27.1663, 48.0 ], [ 27.1685123, 47.9239031 ] ] ] ] } },
{ "type": "Feature", "properties": { "POLYGON_ID": "ROU_GAUL2000_ADM1_2453", "ADM0_ISO3": "ROU", "ADM0_NAME": "Romania", "ADM0_CODE": 203, "ADM1_NAME": "Braila", "ADM1_CODE": 2453, "GEOSET": "GAUL", "GEOSET_YEAR": 2000.0, "GEOSET_VERSION": "GAUL_v1", "GEOSET_UNIT": "ADM1", "CENTROID_LONG": 27.653570697419212, "CENTROID_LAT": 45.098071646356793 }, "geometry": { "type": "MultiPolygon", "coordinates": [ [ [ [ 28.032486, 45.3983765 ], [ 28.0213814, 45.344162 ], [ 27.9863815, 45.2869415 ], [ 28.0436096, 45.2538757 ], [ 28.1088867, 45.2513886 ], [ 28.1249924, 45.2283325 ], [ 28.1002769, 45.1805496 ], [ 28.1797218, 45.1305466 ], [ 28.1355515, 45.094162 ], [ 28.1438866, 45.0361099 ], [ 28.1263886, 45.0069427 ], [ 28.1424942, 44.9713745 ], [ 28.1197166, 44.9155426 ], [ 28.1272163, 44.8813858 ], [ 28.0949936, 44.863884 ], [ 28.0694008, 44.7961044 ], [ 28.0249977, 44.7552795 ], [ 27.9513817, 44.7772217 ], [ 27.8827896, 44.7571335 ], [ 27.839489, 44.7699585 ], [ 27.7902756, 44.8169327 ], [ 27.7355537, 44.7708206 ], [ 27.644722, 44.7938766 ], [ 27.5202713, 44.7991638 ], [ 27.4636078, 44.8313828 ], [ 27.4430504, 44.7841568 ], [ 27.3616638, 44.844162 ], [ 27.3080482, 44.8263779 ], [ 27.2652702, 44.7872086 ], [ 27.1986046, 44.8305435 ], [ 27.1899986, 44.8736038 ], [ 27.2366638, 44.9658279 ], [ 27.2216606, 45.0041656 ], [ 27.1522217, 45.051384 ], [ 27.140831, 45.1074905 ], [ 27.0922165, 45.1399918 ], [ 27.0497208, 45.1102676 ], [ 27.0049934, 45.1491547 ], [ 27.1388817, 45.2352676 ], [ 27.1613846, 45.2422104 ], [ 27.3044395, 45.2022095 ], [ 27.3313866, 45.2258224 ], [ 27.3194427, 45.2822189 ], [ 27.3752747, 45.3238754 ], [ 27.3633308, 45.3613815 ], [ 27.3827705, 45.4060974 ], [ 27.4141617, 45.4666595 ], [ 27.5474968, 45.5108185 ], [ 27.6374969, 45.4597168 ], [ 27.7049942, 45.4347076 ], [ 27.721489, 45.4081268 ], [ 27.7756386, 45.4144516 ], [ 27.8094406, 45.3883286 ], [ 27.8676987, 45.409935 ], [ 27.9672813, 45.3891678 ], [ 28.032486, 45.3983765 ] ] ] ] } },
{ "type": "Feature", "properties": { "POLYGON_ID": "ROU_GAUL2000_ADM1_2454", "ADM0_ISO3": "ROU", "ADM0_NAME": "Romania", "ADM0_CODE": 203, "ADM1_NAME": "Brasov", "ADM1_CODE": 2454, "GEOSET": "GAUL", "GEOSET_YEAR": 2000.0, "GEOSET_VERSION": "GAUL_v1", "GEOSET_UNIT": "ADM1", "CENTROID_LONG": 25.328585021615265, "CENTROID_LAT": 45.789839974647279 }, "geometry": { "type": "MultiPolygon", "coordinates": [ [ [ [ 25.4216614, 46.1372147 ], [ 25.4297218, 46.0922089 ], [ 25.5577736, 46.0519409 ], [ 25.621666, 46.0413818 ], [ 25.6024933, 45.9583206 ], [ 25.6272163, 45.9069366 ], [ 25.6030502, 45.8727646 ], [ 25.6072426, 45.8216476 ], [ 25.6642036, 45.7802124 ], [ 25.7325058, 45.7477646 ], [ 25.7955513, 45.7688828 ], [ 25.9263878, 45.7377777 ], [ 26.0194435, 45.6836014 ], [ 26.1097183, 45.5972137 ], [ 26.0877724, 45.5030518 ], [ 26.0372162, 45.5049896 ], [ 25.9722176, 45.5444336 ], [ 25.9261055, 45.5397186 ], [ 25.8894386, 45.4699936 ], [ 25.8644409, 45.4527664 ], [ 25.8011055, 45.4688797 ], [ 25.7719383, 45.4949875 ], [ 25.7066612, 45.5116577 ], [ 25.6316605, 45.5111008 ], [ 25.5994415, 45.4791565 ], [ 25.5444374, 45.5041656 ], [ 25.4816666, 45.4947128 ], [ 25.4366646, 45.4902725 ], [ 25.3555527, 45.4280548 ], [ 25.3127747, 45.4297104 ], [ 25.2272186, 45.4822159 ], [ 25.2138824, 45.5352707 ], [ 25.1844406, 45.5566635 ], [ 25.0436096, 45.6260986 ], [ 24.9799995, 45.6383286 ], [ 24.8169441, 45.6486053 ], [ 24.7266655, 45.6349945 ], [ 24.7102776, 45.7272186 ], [ 24.6888886, 45.7869415 ], [ 24.6936073, 45.8294373 ], [ 24.7202759, 45.8486099 ], [ 24.8188858, 45.8694382 ], [ 24.8272209, 45.8958282 ], [ 24.7208328, 45.9497147 ], [ 24.7999992, 45.9805527 ], [ 24.7852745, 46.0205536 ], [ 24.8661079, 46.0252762 ], [ 24.9736099, 46.0908279 ], [ 24.9599991, 46.1291656 ], [ 24.9936104, 46.1538849 ], [ 25.0669403, 46.1516266 ], [ 25.1472206, 46.1777725 ], [ 25.1683273, 46.2063828 ], [ 25.2074966, 46.2049866 ], [ 25.2688866, 46.1755447 ], [ 25.3524933, 46.1783218 ], [ 25.4216614, 46.1372147 ] ] ] ] } },
{ "type": "Feature", "properties": { "POLYGON_ID": "ROU_GAUL2000_ADM1_2455", "ADM0_ISO3": "ROU", "ADM0_NAME": "Romania", "ADM0_CODE": 203, "ADM1_NAME": "Bucuresti", "ADM1_CODE": 2455, "GEOSET": "GAUL", "GEOSET_YEAR": 2000.0, "GEOSET_VERSION": "GAUL_v1", "GEOSET_UNIT": "ADM1", "CENTROID_LONG": 26.151926713940945, "CENTROID_LAT": 44.540093248382107 }, "geometry": { "type": "MultiPolygon", "coordinates": [ [ [ [ 26.2536049, 44.7378159 ], [ 26.3244438, 44.6313858 ], [ 26.3174934, 44.5813828 ], [ 26.3824997, 44.5794296 ], [ 26.3897209, 44.5569305 ], [ 26.3847198, 44.5130539 ], [ 26.4472198, 44.4785995 ], [ 26.4327736, 44.4505539 ], [ 26.3205528, 44.4019318 ], [ 26.2819405, 44.3549957 ], [ 26.2330513, 44.3363876 ], [ 26.1474953, 44.3386078 ], [ 26.0994415, 44.3099976 ], [ 26.0380516, 44.3572159 ], [ 25.9669418, 44.3624878 ], [ 25.9605484, 44.4058228 ], [ 25.9774933, 44.4808197 ], [ 25.9497147, 44.5422134 ], [ 25.9099998, 44.5635986 ], [ 25.9524956, 44.6102676 ], [ 25.9255486, 44.6708298 ], [ 25.9611053, 44.6788788 ], [ 25.9446487, 44.7452927 ], [ 26.0647545, 44.7505798 ], [ 26.098877, 44.7414017 ], [ 26.1766624, 44.7591629 ], [ 26.2536049, 44.7378159 ] ] ] ] } },
{ "type": "Feature", "properties": { "POLYGON_ID": "ROU_GAUL2000_ADM1_2456", "ADM0_ISO3": "ROU", "ADM0_NAME": "Romania", "ADM0_CODE": 203, "ADM1_NAME": "Buzau", "ADM1_CODE": 2456, "GEOSET": "GAUL", "GEOSET_YEAR": 2000.0, "GEOSET_VERSION": "GAUL_v1", "GEOSET_UNIT": "ADM1", "CENTROID_LONG": 26.731448799394375, "CENTROID_LAT": 45.265664584171247 }, "geometry": { "type": "MultiPolygon", "coordinates": [ [ [ [ 27.3827705, 45.4060974 ], [ 27.3633308, 45.3613815 ], [ 27.3752747, 45.3238754 ], [ 27.3194427, 45.2822189 ], [ 27.3313866, 45.2258224 ], [ 27.3044395, 45.2022095 ], [ 27.1613846, 45.2422104 ], [ 27.1388817, 45.2352676 ], [ 27.0049934, 45.1491547 ], [ 27.0497208, 45.1102676 ], [ 27.0922165, 45.1399918 ], [ 27.140831, 45.1074905 ], [ 27.1522217, 45.051384 ], [ 27.2216606, 45.0041656 ], [ 27.2366638, 44.9658279 ], [ 27.1899986, 44.8736038 ], [ 27.1986046, 44.8305435 ], [ 27.1844406, 44.7994308 ], [ 27.2261086, 44.7786026 ], [ 27.1530495, 44.7555466 ], [ 27.1130486, 44.8094406 ], [ 27.0583305, 44.8238754 ], [ 27.0049934, 44.7819366 ], [ 26.9216614, 44.8169327 ], [ 26.828331, 44.8288879 ], [ 26.7899933, 44.8111038 ], [ 26.6758308, 44.8072128 ], [ 26.6224976, 44.8702698 ], [ 26.5444374, 44.9505539 ], [ 26.5438843, 44.9783325 ], [ 26.5863876, 45.0038757 ], [ 26.5524979, 45.0366516 ], [ 26.4649925, 45.0697098 ], [ 26.4311066, 45.1463776 ], [ 26.4324989, 45.1816635 ], [ 26.3263817, 45.164444 ], [ 26.3169403, 45.2086105 ], [ 26.2508316, 45.2069397 ], [ 26.2222176, 45.2513886 ], [ 26.2447166, 45.3041534 ], [ 26.180275, 45.348053 ], [ 26.1566658, 45.3905487 ], [ 26.1433296, 45.4630508 ], [ 26.0877724, 45.5030518 ], [ 26.1097183, 45.5972137 ], [ 26.1480484, 45.6316528 ], [ 26.2724953, 45.6224976 ], [ 26.3055496, 45.6111069 ], [ 26.3466606, 45.6577759 ], [ 26.3505516, 45.7022095 ], [ 26.3944435, 45.769722 ], [ 26.4027748, 45.8291626 ], [ 26.4633293, 45.797493 ], [ 26.4919395, 45.7133255 ], [ 26.5258293, 45.6686096 ], [ 26.6330528, 45.5958328 ], [ 26.7274933, 45.6149979 ], [ 26.7761078, 45.5855408 ], [ 26.8349953, 45.5216599 ], [ 26.9155502, 45.5452728 ], [ 27.0036087, 45.5083237 ], [ 27.0433273, 45.4655457 ], [ 27.1149979, 45.4808197 ], [ 27.1322174, 45.4299927 ], [ 27.2036057, 45.457222 ], [ 27.2874947, 45.4541626 ], [ 27.2752724, 45.3999939 ], [ 27.3488846, 45.4155426 ], [ 27.3827705, 45.4060974 ] ] ] ] } },
{ "type": "Feature", "properties": { "POLYGON_ID": "ROU_GAUL2000_ADM1_2457", "ADM0_ISO3": "ROU", "ADM0_NAME": "Romania", "ADM0_CODE": 203, "ADM1_NAME": "Calarasi", "ADM1_CODE": 2457, "GEOSET": "GAUL", "GEOSET_YEAR": 2000.0, "GEOSET_VERSION": "GAUL_v1", "GEOSET_UNIT": "ADM1", "CENTROID_LONG": 27.043282419863637, "CENTROID_LAT": 44.320316832745341 }, "geometry": { "type": "MultiPolygon", "coordinates": [ [ [ [ 28.013485, 44.3391037 ], [ 27.998333, 44.3080444 ], [ 27.9396782, 44.2580338 ], [ 27.8330536, 44.2505417 ], [ 27.7749977, 44.2199936 ], [ 27.6666603, 44.1963806 ], [ 27.6154022, 44.2076416 ], [ 27.5268059, 44.1724167 ], [ 27.4511108, 44.1294327 ], [ 27.3056946, 44.1443405 ], [ 27.2774492, 44.1347306 ], [ 27.18246, 44.13196 ], [ 27.15348, 44.14885 ], [ 26.90468, 44.14122 ], [ 26.78345, 44.09316 ], [ 26.69553, 44.08392 ], [ 26.6095, 44.06344 ], [ 26.55319, 44.06817 ], [ 26.4371338, 44.0464366 ], [ 26.431942, 44.1308289 ], [ 26.4877777, 44.1722107 ], [ 26.4408264, 44.2177658 ], [ 26.4388886, 44.2477646 ], [ 26.3511086, 44.2986069 ], [ 26.2972183, 44.2916565 ], [ 26.2819405, 44.3549957 ], [ 26.3205528, 44.4019318 ], [ 26.4327736, 44.4505539 ], [ 26.4472198, 44.4785995 ], [ 26.3847198, 44.5130539 ], [ 26.3897209, 44.5569305 ], [ 26.5094376, 44.5744324 ], [ 26.6444435, 44.4638748 ], [ 26.7811089, 44.5069427 ], [ 26.8386078, 44.5694427 ], [ 26.8630486, 44.5483246 ], [ 27.0177727, 44.5605545 ], [ 27.0833282, 44.539444 ], [ 27.0877724, 44.5099945 ], [ 27.1833305, 44.5019379 ], [ 27.2533264, 44.5063858 ], [ 27.3197174, 44.4863815 ], [ 27.3861046, 44.5074997 ], [ 27.4458275, 44.4622116 ], [ 27.5347176, 44.515831 ], [ 27.5455513, 44.4622116 ], [ 27.6272163, 44.4747086 ], [ 27.6599998, 44.4352646 ], [ 27.7041626, 44.4319305 ], [ 27.7472153, 44.3897095 ], [ 27.833931, 44.3533707 ], [ 27.8479576, 44.3781357 ], [ 28.013485, 44.3391037 ] ] ] ] } },
{ "type": "Feature", "properties": { "POLYGON_ID": "ROU_GAUL2000_ADM1_2458", "ADM0_ISO3": "ROU", "ADM0_NAME": "Romania", "ADM0_CODE": 203, "ADM1_NAME": "Caras-severin", "ADM1_CODE": 2458, "GEOSET": "GAUL", "GEOSET_YEAR": 2000.0, "GEOSET_VERSION": "GAUL_v1", "GEOSET_UNIT": "ADM1", "CENTROID_LONG": 22.079281130509727, "CENTROID_LAT": 45.166419531099656 }, "geometry": { "type": "MultiPolygon", "coordinates": [ [ [ [ 22.5058327, 45.6952744 ], [ 22.603054, 45.6552734 ], [ 22.6536102, 45.5991592 ], [ 22.7041664, 45.5752716 ], [ 22.7655525, 45.5224991 ], [ 22.7849998, 45.4822159 ], [ 22.7133331, 45.4116592 ], [ 22.7277756, 45.3308258 ], [ 22.7494431, 45.2994385 ], [ 22.6513863, 45.2397156 ], [ 22.6513863, 45.2133331 ], [ 22.7419434, 45.1824951 ], [ 22.7830544, 45.1530533 ], [ 22.7261086, 45.1291656 ], [ 22.640274, 45.0749969 ], [ 22.5733299, 45.0097198 ], [ 22.4741631, 44.8758316 ], [ 22.4499969, 44.8038864 ], [ 22.3972206, 44.7708282 ], [ 22.3286095, 44.7741623 ], [ 22.3011093, 44.8113861 ], [ 22.2413864, 44.8308258 ], [ 22.2097206, 44.8202744 ], [ 22.206665, 44.7538834 ], [ 22.1627769, 44.711937 ], [ 22.1486092, 44.6672211 ], [ 22.1611099, 44.5988846 ], [ 22.1161079, 44.5747147 ], [ 22.0594444, 44.5997162 ], [ 22.0279538, 44.5847794 ], [ 21.99003, 44.63356 ], [ 21.85098, 44.65361 ], [ 21.6906, 44.66436 ], [ 21.62942, 44.65983 ], [ 21.61227, 44.72672 ], [ 21.55227, 44.76986 ], [ 21.39719, 44.77827 ], [ 21.35247, 44.83878 ], [ 21.36701, 44.86659 ], [ 21.48112, 44.86958 ], [ 21.5597598, 44.88881 ], [ 21.5466497, 44.930598 ], [ 21.40622, 44.97788 ], [ 21.35941, 45.02107 ], [ 21.456, 45.04113 ], [ 21.4827697, 45.0923198 ], [ 21.4788, 45.12237 ], [ 21.5266097, 45.1376899 ], [ 21.48235, 45.19176 ], [ 21.5438881, 45.2397156 ], [ 21.5655518, 45.3058319 ], [ 21.5397186, 45.3527756 ], [ 21.4908333, 45.3969421 ], [ 21.5597191, 45.4266663 ], [ 21.5108299, 45.4583282 ], [ 21.6144409, 45.5024948 ], [ 21.6513863, 45.5724945 ], [ 21.7058296, 45.5933304 ], [ 21.8019409, 45.5849991 ], [ 21.994442, 45.5288849 ], [ 22.0674973, 45.5258331 ], [ 22.1052742, 45.5511093 ], [ 22.0911102, 45.5952759 ], [ 22.1586075, 45.6122208 ], [ 22.2133331, 45.7080536 ], [ 22.2616653, 45.6916656 ], [ 22.2813873, 45.6516647 ], [ 22.3188858, 45.6363831 ], [ 22.3933296, 45.6733322 ], [ 22.5058327, 45.6952744 ] ] ] ] } },
{ "type": "Feature", "properties": { "POLYGON_ID": "ROU_GAUL2000_ADM1_2459", "ADM0_ISO3": "ROU", "ADM0_NAME": "Romania", "ADM0_CODE": 203, "ADM1_NAME": "Cluj", "ADM1_CODE": 2459, "GEOSET": "GAUL", "GEOSET_YEAR": 2000.0, "GEOSET_VERSION": "GAUL_v1", "GEOSET_UNIT": "ADM1", "CENTROID_LONG": 23.587272904732195, "CENTROID_LAT": 46.823023675572827 }, "geometry": { "type": "MultiPolygon", "coordinates": [ [ [ [ 24.1991653, 46.7958298 ], [ 24.1336098, 46.7394409 ], [ 24.1347198, 46.6944427 ], [ 24.1130524, 46.6536102 ], [ 24.0483322, 46.6074982 ], [ 23.9822197, 46.6033325 ], [ 23.9702759, 46.5772171 ], [ 24.0099983, 46.5230484 ], [ 24.0144424, 46.4905548 ], [ 23.8741646, 46.4663849 ], [ 23.805275, 46.4791641 ], [ 23.7019424, 46.4316635 ], [ 23.6599998, 46.4516602 ], [ 23.6905518, 46.4949951 ], [ 23.6555519, 46.5094376 ], [ 23.5561104, 46.5019379 ], [ 23.5099983, 46.5319443 ], [ 23.346386, 46.5386047 ], [ 23.2874985, 46.5555496 ], [ 23.1136093, 46.5199966 ], [ 23.0669441, 46.5491638 ], [ 23.0238876, 46.6199951 ], [ 22.8847198, 46.6269379 ], [ 22.867775, 46.6533279 ], [ 22.8341637, 46.7202759 ], [ 22.6997185, 46.8058319 ], [ 22.8208313, 46.8263855 ], [ 22.8761101, 46.9016647 ], [ 22.8063889, 46.9563828 ], [ 22.8633308, 47.0122147 ], [ 22.9719429, 46.9808273 ], [ 22.9844437, 46.925827 ], [ 23.0588875, 46.9311066 ], [ 23.1305542, 46.9083328 ], [ 23.2422218, 46.9180527 ], [ 23.3244438, 46.9766617 ], [ 23.393055, 46.9427719 ], [ 23.4597206, 46.9569397 ], [ 23.519165, 47.0224991 ], [ 23.6069412, 47.0449982 ], [ 23.6294441, 47.0683289 ], [ 23.6055527, 47.1005554 ], [ 23.6238861, 47.176384 ], [ 23.6869431, 47.2049942 ], [ 23.7524986, 47.2138824 ], [ 23.8024979, 47.2527771 ], [ 23.8586082, 47.2566605 ], [ 23.8688889, 47.351944 ], [ 23.8911095, 47.3680496 ], [ 24.0199966, 47.3724976 ], [ 24.0444412, 47.3136063 ], [ 23.9897194, 47.300827 ], [ 23.9474983, 47.2630539 ], [ 23.9416656, 47.2105484 ], [ 23.9838867, 47.1705551 ], [ 24.0630531, 47.1477737 ], [ 24.1461105, 47.0863876 ], [ 24.1647186, 47.047493 ], [ 24.1383324, 46.9574966 ], [ 24.1958313, 46.9088821 ], [ 24.2069435, 46.8541641 ], [ 24.1991653, 46.7958298 ] ] ] ] } },
{ "type": "Feature", "properties": { "POLYGON_ID": "ROU_GAUL2000_ADM1_2460", "ADM0_ISO3": "ROU", "ADM0_NAME": "Romania", "ADM0_CODE": 203, "ADM1_NAME": "Constanta", "ADM1_CODE": 2460, "GEOSET": "GAUL", "GEOSET_YEAR": 2000.0, "GEOSET_VERSION": "GAUL_v1", "GEOSET_UNIT": "ADM1", "CENTROID_LONG": 28.260802450583668, "CENTROID_LAT": 44.251923703934061 }, "geometry": { "type": "MultiPolygon", "coordinates": [ [ [ [ 28.9932509, 44.6700743 ], [ 28.9324299, 44.589299 ], [ 28.8354617, 44.481359 ], [ 28.7367943, 44.4024545 ], [ 28.6936406, 44.3522351 ], [ 28.6345416, 44.3104631 ], [ 28.637603, 44.2325409 ], [ 28.6701025, 44.186961 ], [ 28.6418627, 44.164451 ], [ 28.6532208, 44.0591141 ], [ 28.6771223, 44.0097918 ], [ 28.6446719, 43.9321414 ], [ 28.6061316, 43.8726593 ], [ 28.5837724, 43.7373543 ], [ 28.4774575, 43.7352603 ], [ 28.24171, 43.77491 ], [ 28.15923, 43.79775 ], [ 28.00602, 43.85118 ], [ 27.92929, 44.00861 ], [ 27.84591, 43.97012 ], [ 27.75887, 43.96013 ], [ 27.7036737, 43.9882658 ], [ 27.65727, 44.05062 ], [ 27.61916, 44.02385 ], [ 27.49096, 44.03486 ], [ 27.40863, 44.02803 ], [ 27.3698259, 44.0668519 ], [ 27.30327, 44.08565 ], [ 27.2774492, 44.1347306 ], [ 27.3056946, 44.1443405 ], [ 27.4511108, 44.1294327 ], [ 27.5268059, 44.1724167 ], [ 27.6154022, 44.2076416 ], [ 27.6666603, 44.1963806 ], [ 27.7749977, 44.2199936 ], [ 27.8330536, 44.2505417 ], [ 27.9396782, 44.2580338 ], [ 27.998333, 44.3080444 ], [ 28.013485, 44.3391037 ], [ 28.0661049, 44.4042358 ], [ 28.1128769, 44.4402008 ], [ 28.0914154, 44.4961395 ], [ 28.0628967, 44.5072937 ], [ 28.0188293, 44.5683365 ], [ 28.036068, 44.6195297 ], [ 27.9747162, 44.6799927 ], [ 27.9320488, 44.6851654 ], [ 27.8847198, 44.7144318 ], [ 27.8827896, 44.7571335 ], [ 27.9513817, 44.7772217 ], [ 28.0249977, 44.7552795 ], [ 28.0694008, 44.7961044 ], [ 28.1127777, 44.7899857 ], [ 28.1808319, 44.7422104 ], [ 28.2705536, 44.758606 ], [ 28.3352776, 44.7161026 ], [ 28.3372154, 44.676384 ], [ 28.3758316, 44.6386108 ], [ 28.4047165, 44.6988754 ], [ 28.4930496, 44.6538849 ], [ 28.5224953, 44.6738815 ], [ 28.6352768, 44.6677628 ], [ 28.6863823, 44.6783218 ], [ 28.7777748, 44.6708298 ], [ 28.8279274, 44.6433536 ], [ 28.90271, 44.6888399 ], [ 28.9790346, 44.6888399 ], [ 28.9932509, 44.6700743 ] ] ] ] } },
{ "type": "Feature", "properties": { "POLYGON_ID": "ROU_GAUL2000_ADM1_2461", "ADM0_ISO3": "ROU", "ADM0_NAME": "Romania", "ADM0_CODE": 203, "ADM1_NAME": "Covasna", "ADM1_CODE": 2461, "GEOSET": "GAUL", "GEOSET_YEAR": 2000.0, "GEOSET_VERSION": "GAUL_v1", "GEOSET_UNIT": "ADM1", "CENTROID_LONG": 25.989177552037685, "CENTROID_LAT": 45.949086498543572 }, "geometry": { "type": "MultiPolygon", "coordinates": [ [ [ [ 26.2508316, 46.2291565 ], [ 26.3344383, 46.2241516 ], [ 26.3524933, 46.1313858 ], [ 26.4036064, 46.1102676 ], [ 26.4449997, 46.0622177 ], [ 26.4080505, 46.0136108 ], [ 26.3927727, 45.9563828 ], [ 26.4027748, 45.8291626 ], [ 26.3944435, 45.769722 ], [ 26.3505516, 45.7022095 ], [ 26.3466606, 45.6577759 ], [ 26.3055496, 45.6111069 ], [ 26.2724953, 45.6224976 ], [ 26.1480484, 45.6316528 ], [ 26.1097183, 45.5972137 ], [ 26.0194435, 45.6836014 ], [ 25.9263878, 45.7377777 ], [ 25.7955513, 45.7688828 ], [ 25.7325058, 45.7477646 ], [ 25.6642036, 45.7802124 ], [ 25.6072426, 45.8216476 ], [ 25.6030502, 45.8727646 ], [ 25.6272163, 45.9069366 ], [ 25.6024933, 45.9583206 ], [ 25.621666, 46.0413818 ], [ 25.5577736, 46.0519409 ], [ 25.4297218, 46.0922089 ], [ 25.4216614, 46.1372147 ], [ 25.5077705, 46.2358246 ], [ 25.6358299, 46.2972107 ], [ 25.6586037, 46.2966537 ], [ 25.7299995, 46.1730499 ], [ 25.7758293, 46.1366577 ], [ 25.9352722, 46.1180496 ], [ 26.0422173, 46.1269379 ], [ 26.1283264, 46.1480408 ], [ 26.2027702, 46.1485977 ], [ 26.2508316, 46.2291565 ] ] ] ] } },
{ "type": "Feature", "properties": { "POLYGON_ID": "ROU_GAUL2000_ADM1_2462", "ADM0_ISO3": "ROU", "ADM0_NAME": "Romania", "ADM0_CODE": 203, "ADM1_NAME": "Dimbovita", "ADM1_CODE": 2462, "GEOSET": "GAUL", "GEOSET_YEAR": 2000.0, "GEOSET_VERSION": "GAUL_v1", "GEOSET_UNIT": "ADM1", "CENTROID_LONG": 25.509010325854653, "CENTROID_LAT": 44.923831544894732 }, "geometry": { "type": "MultiPolygon", "coordinates": [ [ [ [ 25.9446487, 44.7452927 ], [ 25.9611053, 44.6788788 ], [ 25.9255486, 44.6708298 ], [ 25.9524956, 44.6102676 ], [ 25.9099998, 44.5635986 ], [ 25.8241615, 44.5580444 ], [ 25.7436066, 44.5883255 ], [ 25.6597176, 44.5897217 ], [ 25.6169395, 44.5541534 ], [ 25.5388832, 44.5616608 ], [ 25.5164146, 44.5262146 ], [ 25.4247208, 44.5605545 ], [ 25.3086052, 44.4983215 ], [ 25.2441635, 44.5052719 ], [ 25.3183327, 44.5486069 ], [ 25.3041649, 44.5905457 ], [ 25.3341637, 44.6483307 ], [ 25.2513886, 44.6897125 ], [ 25.2183266, 44.7408218 ], [ 25.2541656, 44.8022156 ], [ 25.2133293, 44.8591537 ], [ 25.2294426, 44.9538879 ], [ 25.1641617, 45.0283279 ], [ 25.1236076, 45.1027756 ], [ 25.1261063, 45.176384 ], [ 25.1780548, 45.156662 ], [ 25.2580528, 45.2080536 ], [ 25.2705536, 45.2808228 ], [ 25.2986107, 45.3255539 ], [ 25.3127747, 45.4297104 ], [ 25.3555527, 45.4280548 ], [ 25.4366646, 45.4902725 ], [ 25.4816666, 45.4947128 ], [ 25.4958305, 45.4363785 ], [ 25.4924927, 45.3641586 ], [ 25.5802727, 45.2969437 ], [ 25.5874977, 45.2644348 ], [ 25.5572166, 45.234993 ], [ 25.5699997, 45.2091599 ], [ 25.6836052, 45.1160965 ], [ 25.6999969, 45.0422134 ], [ 25.7266617, 45.0044327 ], [ 25.8005486, 44.9811096 ], [ 25.8202705, 44.9149857 ], [ 25.8036079, 44.8883286 ], [ 25.8130493, 44.8433228 ], [ 25.8761063, 44.8330536 ], [ 25.9472198, 44.7752686 ], [ 25.9446487, 44.7452927 ] ] ] ] } },
{ "type": "Feature", "properties": { "POLYGON_ID": "ROU_GAUL2000_ADM1_2463", "ADM0_ISO3": "ROU", "ADM0_NAME": "Romania", "ADM0_CODE": 203, "ADM1_NAME": "Dolj", "ADM1_CODE": 2463, "GEOSET": "GAUL", "GEOSET_YEAR": 2000.0, "GEOSET_VERSION": "GAUL_v1", "GEOSET_UNIT": "ADM1", "CENTROID_LONG": 23.632483769093625, "CENTROID_LAT": 44.160335882953774 }, "geometry": { "type": "MultiPolygon", "coordinates": [ [ [ [ 23.9811096, 44.5499954 ], [ 23.8911095, 44.4905548 ], [ 23.9061089, 44.4636078 ], [ 23.9972191, 44.4391632 ], [ 24.0380554, 44.3686066 ], [ 24.1494408, 44.3333282 ], [ 24.2449989, 44.2672195 ], [ 24.2344437, 44.1452713 ], [ 24.288887, 44.1288834 ], [ 24.2122192, 44.0908279 ], [ 24.2005539, 44.031105 ], [ 24.2541656, 43.984993 ], [ 24.2294426, 43.9011078 ], [ 24.1816635, 43.8772202 ], [ 24.2116661, 43.8511047 ], [ 24.1536102, 43.8183289 ], [ 24.1173883, 43.7059423 ], [ 23.99004, 43.75167 ], [ 23.89452, 43.75947 ], [ 23.71875, 43.81471 ], [ 23.62304, 43.80008 ], [ 23.44434, 43.86236 ], [ 23.26272, 43.85141 ], [ 23.11562, 43.81141 ], [ 23.0535468, 43.8079605 ], [ 22.98883, 43.81661 ], [ 22.8866898, 43.8449201 ], [ 22.85198, 43.89606 ], [ 22.89216, 43.98739 ], [ 23.01216, 44.02354 ], [ 23.0464, 44.06032 ], [ 23.03078, 44.10147 ], [ 22.999442, 44.1029461 ], [ 23.0455551, 44.1544418 ], [ 23.1313858, 44.1538849 ], [ 23.1411095, 44.2055511 ], [ 23.1055527, 44.2747192 ], [ 23.1849976, 44.3630524 ], [ 23.1797218, 44.406662 ], [ 23.1941643, 44.472496 ], [ 23.2419434, 44.4905548 ], [ 23.2866631, 44.5299988 ], [ 23.4472198, 44.5458298 ], [ 23.478611, 44.593605 ], [ 23.5516663, 44.6097183 ], [ 23.6652756, 44.6049957 ], [ 23.7302742, 44.6266632 ], [ 23.7716637, 44.7163849 ], [ 23.8005524, 44.746666 ], [ 23.8424988, 44.7524948 ], [ 23.8669434, 44.6780548 ], [ 23.9286079, 44.6502762 ], [ 23.9427757, 44.6002731 ], [ 23.9811096, 44.5499954 ] ] ] ] } },
{ "type": "Feature", "properties": { "POLYGON_ID": "ROU_GAUL2000_ADM1_2464", "ADM0_ISO3": "ROU", "ADM0_NAME": "Romania", "ADM0_CODE": 203, "ADM1_NAME": "Galati", "ADM1_CODE": 2464, "GEOSET": "GAUL", "GEOSET_YEAR": 2000.0, "GEOSET_VERSION": "GAUL_v1", "GEOSET_UNIT": "ADM1", "CENTROID_LONG": 27.761223983723212, "CENTROID_LAT": 45.790269424193689 }, "geometry": { "type": "MultiPolygon", "coordinates": [ [ [ [ 28.1240484, 46.1232635 ], [ 28.09488, 46.08244 ], [ 28.09305, 46.01541 ], [ 28.11953, 45.95637 ], [ 28.1235, 45.79431 ], [ 28.15556, 45.77914 ], [ 28.17185, 45.72474 ], [ 28.17293, 45.64302 ], [ 28.09454, 45.61331 ], [ 28.10762, 45.57931 ], [ 28.16597, 45.54096 ], [ 28.18663, 45.47503 ], [ 28.2162652, 45.4689089 ], [ 28.1890106, 45.4132385 ], [ 28.1186104, 45.4291916 ], [ 28.032486, 45.3983765 ], [ 27.9672813, 45.3891678 ], [ 27.8676987, 45.409935 ], [ 27.8094406, 45.3883286 ], [ 27.7756386, 45.4144516 ], [ 27.721489, 45.4081268 ], [ 27.7049942, 45.4347076 ], [ 27.6374969, 45.4597168 ], [ 27.5474968, 45.5108185 ], [ 27.5199814, 45.5177307 ], [ 27.5272636, 45.5757904 ], [ 27.3697395, 45.7118835 ], [ 27.3213844, 45.8352737 ], [ 27.2810974, 45.8787689 ], [ 27.2299995, 45.9727707 ], [ 27.2249146, 46.0342026 ], [ 27.3736076, 46.0883255 ], [ 27.4038887, 46.1263886 ], [ 27.4936066, 46.1333237 ], [ 27.5361099, 46.1027756 ], [ 27.5283318, 46.0577698 ], [ 27.5472183, 46.0113754 ], [ 27.6277733, 46.0519409 ], [ 27.6652756, 46.1333237 ], [ 27.748333, 46.1433258 ], [ 27.8366623, 46.1347198 ], [ 27.9155502, 46.1619415 ], [ 27.9799995, 46.1369324 ], [ 28.1240484, 46.1232635 ] ] ] ] } },
{ "type": "Feature", "properties": { "POLYGON_ID": "ROU_GAUL2000_ADM1_2465", "ADM0_ISO3": "ROU", "ADM0_NAME": "Romania", "ADM0_CODE": 203, "ADM1_NAME": "Giurgiu", "ADM1_CODE": 2465, "GEOSET": "GAUL", "GEOSET_YEAR": 2000.0, "GEOSET_VERSION": "GAUL_v1", "GEOSET_UNIT": "ADM1", "CENTROID_LONG": 25.921077720603424, "CENTROID_LAT": 44.179175998758879 }, "geometry": { "type": "MultiPolygon", "coordinates": [ [ [ [ 25.9099998, 44.5635986 ], [ 25.9497147, 44.5422134 ], [ 25.9774933, 44.4808197 ], [ 25.9605484, 44.4058228 ], [ 25.9669418, 44.3624878 ], [ 26.0380516, 44.3572159 ], [ 26.0994415, 44.3099976 ], [ 26.1474953, 44.3386078 ], [ 26.2330513, 44.3363876 ], [ 26.2819405, 44.3549957 ], [ 26.2972183, 44.2916565 ], [ 26.3511086, 44.2986069 ], [ 26.4388886, 44.2477646 ], [ 26.4408264, 44.2177658 ], [ 26.4877777, 44.1722107 ], [ 26.431942, 44.1308289 ], [ 26.4371338, 44.0464366 ], [ 26.3404174, 44.0426603 ], [ 26.19534, 43.99196 ], [ 26.13661, 43.98953 ], [ 26.08206, 43.94826 ], [ 26.0621495, 43.9139598 ], [ 25.95988, 43.86907 ], [ 25.87961, 43.78058 ], [ 25.81645, 43.7549 ], [ 25.7886, 43.7201 ], [ 25.6787152, 43.7010537 ], [ 25.6866646, 43.8174896 ], [ 25.6405525, 43.8888779 ], [ 25.6494408, 43.9624939 ], [ 25.5999947, 44.0438766 ], [ 25.5958328, 44.1313858 ], [ 25.6480484, 44.1449966 ], [ 25.6691666, 44.1805496 ], [ 25.7086105, 44.1838837 ], [ 25.7141647, 44.2227707 ], [ 25.6741638, 44.3336105 ], [ 25.6255493, 44.3663788 ], [ 25.5480537, 44.3580475 ], [ 25.4977722, 44.3713837 ], [ 25.4958305, 44.4011078 ], [ 25.455555, 44.4191666 ], [ 25.4624977, 44.4555435 ], [ 25.5230484, 44.5077667 ], [ 25.5164146, 44.5262146 ], [ 25.5388832, 44.5616608 ], [ 25.6169395, 44.5541534 ], [ 25.6597176, 44.5897217 ], [ 25.7436066, 44.5883255 ], [ 25.8241615, 44.5580444 ], [ 25.9099998, 44.5635986 ] ] ] ] } },
{ "type": "Feature", "properties": { "POLYGON_ID": "ROU_GAUL2000_ADM1_2466", "ADM0_ISO3": "ROU", "ADM0_NAME": "Romania", "ADM0_CODE": 203, "ADM1_NAME": "Gorj", "ADM1_CODE": 2466, "GEOSET": "GAUL", "GEOSET_YEAR": 2000.0, "GEOSET_VERSION": "GAUL_v1", "GEOSET_UNIT": "ADM1", "CENTROID_LONG": 23.390691074327055, "CENTROID_LAT": 45.026338417519248 }, "geometry": { "type": "MultiPolygon", "coordinates": [ [ [ [ 23.8424988, 44.7524948 ], [ 23.8005524, 44.746666 ], [ 23.7716637, 44.7163849 ], [ 23.7302742, 44.6266632 ], [ 23.6652756, 44.6049957 ], [ 23.5516663, 44.6097183 ], [ 23.478611, 44.593605 ], [ 23.3761101, 44.633049 ], [ 23.3233299, 44.6630554 ], [ 23.2402763, 44.692215 ], [ 23.1338882, 44.7105484 ], [ 23.0694427, 44.7655487 ], [ 22.978054, 44.7936096 ], [ 22.9638863, 44.8163834 ], [ 22.9705544, 44.8824997 ], [ 22.9313889, 44.9549942 ], [ 22.9727745, 45.0069427 ], [ 22.9169426, 45.082222 ], [ 22.8280525, 45.1363831 ], [ 22.7830544, 45.1530533 ], [ 22.7419434, 45.1824951 ], [ 22.6513863, 45.2133331 ], [ 22.6513863, 45.2397156 ], [ 22.7494431, 45.2994385 ], [ 22.8191643, 45.3199997 ], [ 22.9291649, 45.3019409 ], [ 22.9863853, 45.3072205 ], [ 23.0616646, 45.2838821 ], [ 23.2433319, 45.3027725 ], [ 23.3836098, 45.3422165 ], [ 23.5383301, 45.3472214 ], [ 23.5938873, 45.3613815 ], [ 23.6616631, 45.3991623 ], [ 23.6994438, 45.4049988 ], [ 23.7330551, 45.3905487 ], [ 23.8719444, 45.3783264 ], [ 23.9274979, 45.3491592 ], [ 23.9124985, 45.2913818 ], [ 23.9174995, 45.2133331 ], [ 23.8688889, 45.1602707 ], [ 23.8261108, 45.0824966 ], [ 23.8255539, 45.0430527 ], [ 23.7922211, 44.9797211 ], [ 23.8194427, 44.9313889 ], [ 23.8113861, 44.8713837 ], [ 23.8447189, 44.8169403 ], [ 23.8424988, 44.7524948 ] ] ] ] } },
{ "type": "Feature", "properties": { "POLYGON_ID": "ROU_GAUL2000_ADM1_2467", "ADM0_ISO3": "ROU", "ADM0_NAME": "Romania", "ADM0_CODE": 203, "ADM1_NAME": "Harghita", "ADM1_CODE": 2467, "GEOSET": "GAUL", "GEOSET_YEAR": 2000.0, "GEOSET_VERSION": "GAUL_v1", "GEOSET_UNIT": "ADM1", "CENTROID_LONG": 25.575340324557157, "CENTROID_LAT": 46.559669355477496 }, "geometry": { "type": "MultiPolygon", "coordinates": [ [ [ [ 25.6797218, 47.1316528 ], [ 25.7449989, 47.0966568 ], [ 25.7769394, 46.9972076 ], [ 25.8516617, 46.9772186 ], [ 25.7944374, 46.9305496 ], [ 25.7922173, 46.8722076 ], [ 25.8419418, 46.8038788 ], [ 25.8455505, 46.6933289 ], [ 25.8897209, 46.6174927 ], [ 25.9824944, 46.6505508 ], [ 26.0102768, 46.6355438 ], [ 26.0297165, 46.5608215 ], [ 26.0883293, 46.5163879 ], [ 26.0791626, 46.4647217 ], [ 26.0436096, 46.4636078 ], [ 26.0224953, 46.3980408 ], [ 26.1472206, 46.3622208 ], [ 26.140831, 46.3227768 ], [ 26.2352715, 46.3261108 ], [ 26.2511063, 46.3111038 ], [ 26.2299995, 46.2580414 ], [ 26.2508316, 46.2291565 ], [ 26.2027702, 46.1485977 ], [ 26.1283264, 46.1480408 ], [ 26.0422173, 46.1269379 ], [ 25.9352722, 46.1180496 ], [ 25.7758293, 46.1366577 ], [ 25.7299995, 46.1730499 ], [ 25.6586037, 46.2966537 ], [ 25.6358299, 46.2972107 ], [ 25.5077705, 46.2358246 ], [ 25.4216614, 46.1372147 ], [ 25.3524933, 46.1783218 ], [ 25.2688866, 46.1755447 ], [ 25.2074966, 46.2049866 ], [ 25.1683273, 46.2063828 ], [ 25.0577736, 46.2510986 ], [ 24.9794426, 46.2716599 ], [ 24.9411087, 46.3272171 ], [ 24.8952751, 46.3538818 ], [ 24.9133301, 46.3827744 ], [ 24.9594421, 46.3916626 ], [ 24.9616661, 46.4563828 ], [ 25.0688858, 46.5466537 ], [ 25.1255493, 46.5586014 ], [ 25.1472206, 46.6011047 ], [ 25.2144394, 46.6372147 ], [ 25.2866592, 46.7205505 ], [ 25.3405495, 46.7572098 ], [ 25.2908325, 46.828331 ], [ 25.2769394, 46.8844376 ], [ 25.3244438, 46.9677658 ], [ 25.3188858, 47.0436096 ], [ 25.2777748, 47.1035995 ], [ 25.2980537, 47.1405487 ], [ 25.3777733, 47.2036057 ], [ 25.4961052, 47.1919327 ], [ 25.5247154, 47.1761017 ], [ 25.4969406, 47.133606 ], [ 25.5530548, 47.1033325 ], [ 25.6397209, 47.1141586 ], [ 25.6797218, 47.1316528 ] ] ] ] } },
{ "type": "Feature", "properties": { "POLYGON_ID": "ROU_GAUL2000_ADM1_2468", "ADM0_ISO3": "ROU", "ADM0_NAME": "Romania", "ADM0_CODE": 203, "ADM1_NAME": "Hunedoara", "ADM1_CODE": 2468, "GEOSET": "GAUL", "GEOSET_YEAR": 2000.0, "GEOSET_VERSION": "GAUL_v1", "GEOSET_UNIT": "ADM1", "CENTROID_LONG": 23.012928728802844, "CENTROID_LAT": 45.765794169740815 }, "geometry": { "type": "MultiPolygon", "coordinates": [ [ [ [ 23.6849976, 45.5069427 ], [ 23.6994438, 45.4049988 ], [ 23.6616631, 45.3991623 ], [ 23.5938873, 45.3613815 ], [ 23.5383301, 45.3472214 ], [ 23.3836098, 45.3422165 ], [ 23.2433319, 45.3027725 ], [ 23.0616646, 45.2838821 ], [ 22.9863853, 45.3072205 ], [ 22.9291649, 45.3019409 ], [ 22.8191643, 45.3199997 ], [ 22.7494431, 45.2994385 ], [ 22.7277756, 45.3308258 ], [ 22.7133331, 45.4116592 ], [ 22.7849998, 45.4822159 ], [ 22.7655525, 45.5224991 ], [ 22.7041664, 45.5752716 ], [ 22.6536102, 45.5991592 ], [ 22.603054, 45.6552734 ], [ 22.5058327, 45.6952744 ], [ 22.5472221, 45.7627716 ], [ 22.6066666, 45.7938843 ], [ 22.5555534, 45.820549 ], [ 22.5474968, 45.8516617 ], [ 22.4452744, 45.8844376 ], [ 22.4422188, 45.9377747 ], [ 22.3808327, 45.9530487 ], [ 22.4002762, 46.0027771 ], [ 22.4711075, 46.038887 ], [ 22.4649963, 46.0808258 ], [ 22.5547218, 46.1491623 ], [ 22.5502777, 46.2111053 ], [ 22.6619415, 46.2363815 ], [ 22.7986107, 46.3580551 ], [ 22.8383331, 46.3338852 ], [ 22.9794426, 46.3344421 ], [ 23.0061073, 46.3147202 ], [ 23.0166664, 46.2561035 ], [ 23.056942, 46.2113876 ], [ 23.1241646, 46.1747208 ], [ 23.1208305, 46.1452713 ], [ 23.0716629, 46.1274948 ], [ 23.1636086, 46.0599976 ], [ 23.2030525, 46.0569382 ], [ 23.3044434, 46.07444 ], [ 23.3230553, 46.0074997 ], [ 23.3630524, 45.9824982 ], [ 23.4044418, 45.9108276 ], [ 23.4461098, 45.7138824 ], [ 23.4794426, 45.6624985 ], [ 23.5761108, 45.6188889 ], [ 23.6186104, 45.5886078 ], [ 23.6849976, 45.5069427 ] ] ] ] } },
{ "type": "Feature", "properties": { "POLYGON_ID": "ROU_GAUL2000_ADM1_2469", "ADM0_ISO3": "ROU", "ADM0_NAME": "Romania", "ADM0_CODE": 203, "ADM1_NAME": "Ialomita", "ADM1_CODE": 2469, "GEOSET": "GAUL", "GEOSET_YEAR": 2000.0, "GEOSET_VERSION": "GAUL_v1", "GEOSET_UNIT": "ADM1", "CENTROID_LONG": 27.225706961355325, "CENTROID_LAT": 44.636020920725173 }, "geometry": { "type": "MultiPolygon", "coordinates": [ [ [ [ 27.1986046, 44.8305435 ], [ 27.2652702, 44.7872086 ], [ 27.3080482, 44.8263779 ], [ 27.3616638, 44.844162 ], [ 27.4430504, 44.7841568 ], [ 27.4636078, 44.8313828 ], [ 27.5202713, 44.7991638 ], [ 27.644722, 44.7938766 ], [ 27.7355537, 44.7708206 ], [ 27.7902756, 44.8169327 ], [ 27.839489, 44.7699585 ], [ 27.8827896, 44.7571335 ], [ 27.8847198, 44.7144318 ], [ 27.9320488, 44.6851654 ], [ 27.9747162, 44.6799927 ], [ 28.036068, 44.6195297 ], [ 28.0188293, 44.5683365 ], [ 28.0628967, 44.5072937 ], [ 28.0914154, 44.4961395 ], [ 28.1128769, 44.4402008 ], [ 28.0661049, 44.4042358 ], [ 28.013485, 44.3391037 ], [ 27.8479576, 44.3781357 ], [ 27.833931, 44.3533707 ], [ 27.7472153, 44.3897095 ], [ 27.7041626, 44.4319305 ], [ 27.6599998, 44.4352646 ], [ 27.6272163, 44.4747086 ], [ 27.5455513, 44.4622116 ], [ 27.5347176, 44.515831 ], [ 27.4458275, 44.4622116 ], [ 27.3861046, 44.5074997 ], [ 27.3197174, 44.4863815 ], [ 27.2533264, 44.5063858 ], [ 27.1833305, 44.5019379 ], [ 27.0877724, 44.5099945 ], [ 27.0833282, 44.539444 ], [ 27.0177727, 44.5605545 ], [ 26.8630486, 44.5483246 ], [ 26.8386078, 44.5694427 ], [ 26.7811089, 44.5069427 ], [ 26.6444435, 44.4638748 ], [ 26.5094376, 44.5744324 ], [ 26.3897209, 44.5569305 ], [ 26.3824997, 44.5794296 ], [ 26.3174934, 44.5813828 ], [ 26.3244438, 44.6313858 ], [ 26.2536049, 44.7378159 ], [ 26.3244438, 44.7997208 ], [ 26.3794403, 44.7994308 ], [ 26.4333305, 44.817215 ], [ 26.5194435, 44.8222198 ], [ 26.5497208, 44.8633194 ], [ 26.6224976, 44.8702698 ], [ 26.6758308, 44.8072128 ], [ 26.7899933, 44.8111038 ], [ 26.828331, 44.8288879 ], [ 26.9216614, 44.8169327 ], [ 27.0049934, 44.7819366 ], [ 27.0583305, 44.8238754 ], [ 27.1130486, 44.8094406 ], [ 27.1530495, 44.7555466 ], [ 27.2261086, 44.7786026 ], [ 27.1844406, 44.7994308 ], [ 27.1986046, 44.8305435 ] ] ] ] } },
{ "type": "Feature", "properties": { "POLYGON_ID": "ROU_GAUL2000_ADM1_2470", "ADM0_ISO3": "ROU", "ADM0_NAME": "Romania", "ADM0_CODE": 203, "ADM1_NAME": "Iasi", "ADM1_CODE": 2470, "GEOSET": "GAUL", "GEOSET_YEAR": 2000.0, "GEOSET_VERSION": "GAUL_v1", "GEOSET_UNIT": "ADM1", "CENTROID_LONG": 27.292686415827699, "CENTROID_LAT": 47.213302490217337 }, "geometry": { "type": "MultiPolygon", "coordinates": [ [ [ [ 27.6040982, 47.3722284 ], [ 27.64454, 47.31143 ], [ 27.7326295, 47.2986202 ], [ 27.7881, 47.22837 ], [ 27.81142, 47.16583 ], [ 27.85622, 47.13903 ], [ 27.90722, 47.08108 ], [ 28.02172, 47.03517 ], [ 28.0987264, 46.9915425 ], [ 28.1158593, 46.9013781 ], [ 28.1200309, 46.8544486 ], [ 28.0302734, 46.8372116 ], [ 27.9538879, 46.8591537 ], [ 27.9194374, 46.8147125 ], [ 27.8833275, 46.8605499 ], [ 27.8488846, 46.8624878 ], [ 27.8311043, 46.9222107 ], [ 27.7961044, 46.9394379 ], [ 27.7372208, 46.9063797 ], [ 27.7044373, 46.9636078 ], [ 27.6180496, 46.9710999 ], [ 27.6238823, 46.9158325 ], [ 27.5230484, 46.9072189 ], [ 27.4791603, 46.8813858 ], [ 27.3963814, 46.9208298 ], [ 27.2877769, 46.8863754 ], [ 27.1849976, 46.890831 ], [ 27.0927734, 46.9763794 ], [ 27.1047173, 47.0005417 ], [ 27.1691666, 47.0205536 ], [ 27.1755486, 47.0535965 ], [ 27.1099968, 47.0949936 ], [ 26.9758263, 47.0472107 ], [ 26.8786087, 47.0338745 ], [ 26.7580528, 47.1055527 ], [ 26.6483307, 47.1341629 ], [ 26.6302757, 47.1861038 ], [ 26.5566635, 47.2722168 ], [ 26.5869408, 47.2866516 ], [ 26.5630493, 47.3305435 ], [ 26.5616646, 47.3844376 ], [ 26.6274986, 47.3699875 ], [ 26.6766624, 47.3794327 ], [ 26.6741638, 47.4102707 ], [ 26.7086105, 47.492775 ], [ 26.7902756, 47.5302658 ], [ 26.9877777, 47.5241547 ], [ 27.0561066, 47.4988785 ], [ 27.1083298, 47.5680466 ], [ 27.1752777, 47.5608215 ], [ 27.2519417, 47.5933228 ], [ 27.3666301, 47.6186227 ], [ 27.45684, 47.54069 ], [ 27.48378, 47.49125 ], [ 27.55167, 47.4798 ], [ 27.56241, 47.43771 ], [ 27.6040982, 47.3722284 ] ] ] ] } },
{ "type": "Feature", "properties": { "POLYGON_ID": "ROU_GAUL2000_ADM1_2471", "ADM0_ISO3": "ROU", "ADM0_NAME": "Romania", "ADM0_CODE": 203, "ADM1_NAME": "Maramures", "ADM1_CODE": 2471, "GEOSET": "GAUL", "GEOSET_YEAR": 2000.0, "GEOSET_VERSION": "GAUL_v1", "GEOSET_UNIT": "ADM1", "CENTROID_LONG": 23.999369514620284, "CENTROID_LAT": 47.674224875540958 }, "geometry": { "type": "MultiPolygon", "coordinates": [ [ [ [ 24.5741026, 47.9644082 ], [ 24.63347, 47.94676 ], [ 24.6711267, 47.9116221 ], [ 24.68286, 47.87195 ], [ 24.72739, 47.84134 ], [ 24.82298, 47.81838 ], [ 24.89634, 47.73785 ], [ 24.9281069, 47.7251538 ], [ 25.0005536, 47.7305071 ], [ 24.9891663, 47.6933289 ], [ 25.0316658, 47.6485977 ], [ 24.9841652, 47.5897217 ], [ 24.9027748, 47.5724945 ], [ 24.7947197, 47.5719376 ], [ 24.7447205, 47.5616608 ], [ 24.6411095, 47.5638886 ], [ 24.5272217, 47.5911102 ], [ 24.4119415, 47.6005554 ], [ 24.3422203, 47.5741653 ], [ 24.3027763, 47.5863876 ], [ 24.2544441, 47.5333328 ], [ 24.1611099, 47.5130539 ], [ 24.1302757, 47.4516602 ], [ 24.0199966, 47.3724976 ], [ 23.8911095, 47.3680496 ], [ 23.8688889, 47.351944 ], [ 23.7994423, 47.3372192 ], [ 23.7302742, 47.4005508 ], [ 23.5880547, 47.3786087 ], [ 23.4897194, 47.3811035 ], [ 23.4630547, 47.394722 ], [ 23.3186073, 47.4008331 ], [ 23.2661095, 47.4363861 ], [ 23.1680527, 47.4008331 ], [ 23.1347198, 47.4127731 ], [ 23.0374985, 47.3969421 ], [ 23.018055, 47.4149933 ], [ 23.0463867, 47.4580536 ], [ 23.0852776, 47.4666595 ], [ 23.0852776, 47.5269394 ], [ 23.1358299, 47.5849991 ], [ 23.1883316, 47.6022186 ], [ 23.2808304, 47.5702744 ], [ 23.3122215, 47.5780487 ], [ 23.3197212, 47.6452713 ], [ 23.369442, 47.6897202 ], [ 23.3641663, 47.7163849 ], [ 23.2627754, 47.7244415 ], [ 23.2524986, 47.7588882 ], [ 23.371109, 47.7930527 ], [ 23.4974976, 47.7999954 ], [ 23.5630531, 47.8133316 ], [ 23.658886, 47.9088821 ], [ 23.5902748, 47.9463882 ], [ 23.5652771, 47.9827728 ], [ 23.5232859, 47.9895058 ], [ 23.62018, 48.0 ], [ 23.6683, 47.98822 ], [ 23.76645, 47.99733 ], [ 23.82367, 47.98234 ], [ 23.89077, 47.93468 ], [ 23.97452, 47.96428 ], [ 24.07749, 47.94737 ], [ 24.14677, 47.91368 ], [ 24.23471, 47.9059 ], [ 24.47678, 47.96987 ], [ 24.5741026, 47.9644082 ] ] ] ] } },
{ "type": "Feature", "properties": { "POLYGON_ID": "ROU_GAUL2000_ADM1_2472", "ADM0_ISO3": "ROU", "ADM0_NAME": "Romania", "ADM0_CODE": 203, "ADM1_NAME": "Mehedinti", "ADM1_CODE": 2472, "GEOSET": "GAUL", "GEOSET_YEAR": 2000.0, "GEOSET_VERSION": "GAUL_v1", "GEOSET_UNIT": "ADM1", "CENTROID_LONG": 22.800924538388138, "CENTROID_LAT": 44.610326469584578 }, "geometry": { "type": "MultiPolygon", "coordinates": [ [ [ [ 23.478611, 44.593605 ], [ 23.4472198, 44.5458298 ], [ 23.2866631, 44.5299988 ], [ 23.2419434, 44.4905548 ], [ 23.1941643, 44.472496 ], [ 23.1797218, 44.406662 ], [ 23.1849976, 44.3630524 ], [ 23.1055527, 44.2747192 ], [ 23.1411095, 44.2055511 ], [ 23.1313858, 44.1538849 ], [ 23.0455551, 44.1544418 ], [ 22.999442, 44.1029461 ], [ 22.93902, 44.10863 ], [ 22.81318, 44.16301 ], [ 22.76823, 44.19282 ], [ 22.67614, 44.21545 ], [ 22.67008, 44.2848 ], [ 22.5664, 44.30317 ], [ 22.52521, 44.33916 ], [ 22.49934, 44.42235 ], [ 22.4655199, 44.4439601 ], [ 22.55823, 44.50113 ], [ 22.58217, 44.54817 ], [ 22.6414, 44.54413 ], [ 22.69317, 44.51636 ], [ 22.75162, 44.53319 ], [ 22.75151, 44.56659 ], [ 22.71287, 44.6 ], [ 22.58083, 44.63239 ], [ 22.46446, 44.71498 ], [ 22.42444, 44.70743 ], [ 22.37487, 44.67349 ], [ 22.3319, 44.67445 ], [ 22.27734, 44.62835 ], [ 22.1804, 44.4801 ], [ 22.13003, 44.47675 ], [ 22.04263, 44.53794 ], [ 22.0279538, 44.5847794 ], [ 22.0594444, 44.5997162 ], [ 22.1161079, 44.5747147 ], [ 22.1611099, 44.5988846 ], [ 22.1486092, 44.6672211 ], [ 22.1627769, 44.711937 ], [ 22.206665, 44.7538834 ], [ 22.2097206, 44.8202744 ], [ 22.2413864, 44.8308258 ], [ 22.3011093, 44.8113861 ], [ 22.3286095, 44.7741623 ], [ 22.3972206, 44.7708282 ], [ 22.4499969, 44.8038864 ], [ 22.4741631, 44.8758316 ], [ 22.5733299, 45.0097198 ], [ 22.640274, 45.0749969 ], [ 22.7261086, 45.1291656 ], [ 22.7830544, 45.1530533 ], [ 22.8280525, 45.1363831 ], [ 22.9169426, 45.082222 ], [ 22.9727745, 45.0069427 ], [ 22.9313889, 44.9549942 ], [ 22.9705544, 44.8824997 ], [ 22.9638863, 44.8163834 ], [ 22.978054, 44.7936096 ], [ 23.0694427, 44.7655487 ], [ 23.1338882, 44.7105484 ], [ 23.2402763, 44.692215 ], [ 23.3233299, 44.6630554 ], [ 23.3761101, 44.633049 ], [ 23.478611, 44.593605 ] ] ] ] } },
{ "type": "Feature", "properties": { "POLYGON_ID": "ROU_GAUL2000_ADM1_2473", "ADM0_ISO3": "ROU", "ADM0_NAME": "Romania", "ADM0_CODE": 203, "ADM1_NAME": "Mures", "ADM1_CODE": 2473, "GEOSET": "GAUL", "GEOSET_YEAR": 2000.0, "GEOSET_VERSION": "GAUL_v1", "GEOSET_UNIT": "ADM1", "CENTROID_LONG": 24.730563428833101, "CENTROID_LAT": 46.643365139982429 }, "geometry": { "type": "MultiPolygon", "coordinates": [ [ [ [ 25.2980537, 47.1405487 ], [ 25.2777748, 47.1035995 ], [ 25.3188858, 47.0436096 ], [ 25.3244438, 46.9677658 ], [ 25.2769394, 46.8844376 ], [ 25.2908325, 46.828331 ], [ 25.3405495, 46.7572098 ], [ 25.2866592, 46.7205505 ], [ 25.2144394, 46.6372147 ], [ 25.1472206, 46.6011047 ], [ 25.1255493, 46.5586014 ], [ 25.0688858, 46.5466537 ], [ 24.9616661, 46.4563828 ], [ 24.9594421, 46.3916626 ], [ 24.9133301, 46.3827744 ], [ 24.8952751, 46.3538818 ], [ 24.9411087, 46.3272171 ], [ 24.9794426, 46.2716599 ], [ 25.0577736, 46.2510986 ], [ 25.1683273, 46.2063828 ], [ 25.1472206, 46.1777725 ], [ 25.0669403, 46.1516266 ], [ 24.9936104, 46.1538849 ], [ 24.9599991, 46.1291656 ], [ 24.8944435, 46.1655502 ], [ 24.8088875, 46.1630554 ], [ 24.7430534, 46.1344376 ], [ 24.7013855, 46.1372147 ], [ 24.6780548, 46.1674957 ], [ 24.7013855, 46.2519379 ], [ 24.6522217, 46.3241653 ], [ 24.5269432, 46.2844391 ], [ 24.4036102, 46.2813873 ], [ 24.3569412, 46.2924957 ], [ 24.2655525, 46.2747192 ], [ 24.2177773, 46.3136063 ], [ 24.081665, 46.3661041 ], [ 24.0497208, 46.4083328 ], [ 24.0724983, 46.4677734 ], [ 24.1169434, 46.4924927 ], [ 24.0944443, 46.5199966 ], [ 24.0144424, 46.4905548 ], [ 24.0099983, 46.5230484 ], [ 23.9702759, 46.5772171 ], [ 23.9822197, 46.6033325 ], [ 24.0483322, 46.6074982 ], [ 24.1130524, 46.6536102 ], [ 24.1347198, 46.6944427 ], [ 24.1336098, 46.7394409 ], [ 24.1991653, 46.7958298 ], [ 24.2908325, 46.7699966 ], [ 24.4383316, 46.7655487 ], [ 24.5272217, 46.8247147 ], [ 24.5352745, 46.8811035 ], [ 24.6074982, 46.9499969 ], [ 24.6541634, 46.9733276 ], [ 24.7405548, 46.9599991 ], [ 24.7763863, 46.9749985 ], [ 24.7677765, 47.0216599 ], [ 24.8672218, 47.1130524 ], [ 25.0216637, 47.1497116 ], [ 25.0958328, 47.1399918 ], [ 25.1977768, 47.1608276 ], [ 25.2980537, 47.1405487 ] ] ] ] } },
{ "type": "Feature", "properties": { "POLYGON_ID": "ROU_GAUL2000_ADM1_2474", "ADM0_ISO3": "ROU", "ADM0_NAME": "Romania", "ADM0_CODE": 203, "ADM1_NAME": "Neamt", "ADM1_CODE": 2474, "GEOSET": "GAUL", "GEOSET_YEAR": 2000.0, "GEOSET_VERSION": "GAUL_v1", "GEOSET_UNIT": "ADM1", "CENTROID_LONG": 26.347366887846224, "CENTROID_LAT": 46.99356596395134 }, "geometry": { "type": "MultiPolygon", "coordinates": [ [ [ [ 26.5566635, 47.2722168 ], [ 26.6302757, 47.1861038 ], [ 26.6483307, 47.1341629 ], [ 26.7580528, 47.1055527 ], [ 26.8786087, 47.0338745 ], [ 26.9758263, 47.0472107 ], [ 27.1099968, 47.0949936 ], [ 27.1755486, 47.0535965 ], [ 27.1691666, 47.0205536 ], [ 27.1047173, 47.0005417 ], [ 27.0927734, 46.9763794 ], [ 27.1849976, 46.890831 ], [ 27.1983299, 46.8577728 ], [ 27.1672173, 46.7980499 ], [ 27.1736107, 46.7711105 ], [ 27.1044426, 46.7655487 ], [ 27.0497208, 46.7924957 ], [ 26.971386, 46.7730408 ], [ 26.9180374, 46.7750015 ], [ 26.8741646, 46.8358307 ], [ 26.8252716, 46.7874908 ], [ 26.7880516, 46.7724915 ], [ 26.6522217, 46.7858276 ], [ 26.5780525, 46.7449875 ], [ 26.5516624, 46.7091599 ], [ 26.4424934, 46.7061005 ], [ 26.3055496, 46.676384 ], [ 26.2177734, 46.6994324 ], [ 26.1766624, 46.6655426 ], [ 26.0955505, 46.6560974 ], [ 26.0672188, 46.6744308 ], [ 25.9824944, 46.6505508 ], [ 25.8897209, 46.6174927 ], [ 25.8455505, 46.6933289 ], [ 25.8419418, 46.8038788 ], [ 25.7922173, 46.8722076 ], [ 25.7944374, 46.9305496 ], [ 25.8516617, 46.9772186 ], [ 25.7769394, 46.9972076 ], [ 25.7449989, 47.0966568 ], [ 25.6797218, 47.1316528 ], [ 25.726944, 47.2116547 ], [ 25.8208275, 47.2636108 ], [ 25.8261108, 47.2980499 ], [ 25.8011055, 47.3405457 ], [ 25.8297195, 47.3563766 ], [ 25.9169426, 47.3099976 ], [ 26.0099945, 47.3333206 ], [ 26.1086044, 47.3460999 ], [ 26.3441658, 47.3594437 ], [ 26.4466629, 47.3427658 ], [ 26.5566635, 47.2722168 ] ] ] ] } },
{ "type": "Feature", "properties": { "POLYGON_ID": "ROU_GAUL2000_ADM1_2475", "ADM0_ISO3": "ROU", "ADM0_NAME": "Romania", "ADM0_CODE": 203, "ADM1_NAME": "Olt", "ADM1_CODE": 2475, "GEOSET": "GAUL", "GEOSET_YEAR": 2000.0, "GEOSET_VERSION": "GAUL_v1", "GEOSET_UNIT": "ADM1", "CENTROID_LONG": 24.460293741836097, "CENTROID_LAT": 44.291947180766499 }, "geometry": { "type": "MultiPolygon", "coordinates": [ [ [ [ 24.4733315, 44.8866653 ], [ 24.4830551, 44.8527756 ], [ 24.5705528, 44.9186096 ], [ 24.6097221, 44.8969421 ], [ 24.6058311, 44.7827759 ], [ 24.6244431, 44.7505493 ], [ 24.7369423, 44.7522202 ], [ 24.7258301, 44.7108307 ], [ 24.746109, 44.609993 ], [ 24.7763863, 44.5636063 ], [ 24.7719421, 44.5083313 ], [ 24.7377777, 44.5091629 ], [ 24.7586098, 44.4413834 ], [ 24.7866631, 44.4269409 ], [ 24.8980522, 44.4322205 ], [ 24.9338875, 44.4249954 ], [ 24.8558311, 44.3805542 ], [ 24.8574982, 44.2819443 ], [ 24.8138886, 44.1891632 ], [ 24.8649979, 44.1252747 ], [ 24.8499985, 44.0955505 ], [ 24.7816658, 44.1011047 ], [ 24.7183304, 44.070549 ], [ 24.7116661, 44.0452728 ], [ 24.6458321, 44.0330505 ], [ 24.59972, 44.0011063 ], [ 24.619442, 43.9786072 ], [ 24.6913872, 43.9624939 ], [ 24.6988869, 43.8827744 ], [ 24.7880554, 43.8180542 ], [ 24.7336082, 43.7905502 ], [ 24.6938858, 43.7530518 ], [ 24.6917519, 43.7228885 ], [ 24.6316, 43.75033 ], [ 24.55188, 43.76751 ], [ 24.47709, 43.75888 ], [ 24.41393, 43.72505 ], [ 24.3221853, 43.7041966 ], [ 24.1802, 43.68976 ], [ 24.1173883, 43.7059423 ], [ 24.1536102, 43.8183289 ], [ 24.2116661, 43.8511047 ], [ 24.1816635, 43.8772202 ], [ 24.2294426, 43.9011078 ], [ 24.2541656, 43.984993 ], [ 24.2005539, 44.031105 ], [ 24.2122192, 44.0908279 ], [ 24.288887, 44.1288834 ], [ 24.2344437, 44.1452713 ], [ 24.2449989, 44.2672195 ], [ 24.1494408, 44.3333282 ], [ 24.0380554, 44.3686066 ], [ 23.9972191, 44.4391632 ], [ 23.9061089, 44.4636078 ], [ 23.8911095, 44.4905548 ], [ 23.9811096, 44.5499954 ], [ 24.0163879, 44.5613861 ], [ 24.1102753, 44.5455551 ], [ 24.1355553, 44.5630493 ], [ 24.2155533, 44.5661087 ], [ 24.25, 44.6102753 ], [ 24.2988853, 44.5880508 ], [ 24.329998, 44.5966644 ], [ 24.2986412, 44.6547546 ], [ 24.2838402, 44.733017 ], [ 24.2949982, 44.8191605 ], [ 24.327774, 44.8669434 ], [ 24.4172211, 44.9255524 ], [ 24.4733315, 44.8866653 ] ] ] ] } },
{ "type": "Feature", "properties": { "POLYGON_ID": "ROU_GAUL2000_ADM1_2476", "ADM0_ISO3": "ROU", "ADM0_NAME": "Romania", "ADM0_CODE": 203, "ADM1_NAME": "Prahova", "ADM1_CODE": 2476, "GEOSET": "GAUL", "GEOSET_YEAR": 2000.0, "GEOSET_VERSION": "GAUL_v1", "GEOSET_UNIT": "ADM1", "CENTROID_LONG": 26.024371641752186, "CENTROID_LAT": 45.128554653259222 }, "geometry": { "type": "MultiPolygon", "coordinates": [ [ [ [ 26.0877724, 45.5030518 ], [ 26.1433296, 45.4630508 ], [ 26.1566658, 45.3905487 ], [ 26.180275, 45.348053 ], [ 26.2447166, 45.3041534 ], [ 26.2222176, 45.2513886 ], [ 26.2508316, 45.2069397 ], [ 26.3169403, 45.2086105 ], [ 26.3263817, 45.164444 ], [ 26.4324989, 45.1816635 ], [ 26.4311066, 45.1463776 ], [ 26.4649925, 45.0697098 ], [ 26.5524979, 45.0366516 ], [ 26.5863876, 45.0038757 ], [ 26.5438843, 44.9783325 ], [ 26.5444374, 44.9505539 ], [ 26.6224976, 44.8702698 ], [ 26.5497208, 44.8633194 ], [ 26.5194435, 44.8222198 ], [ 26.4333305, 44.817215 ], [ 26.3794403, 44.7994308 ], [ 26.3244438, 44.7997208 ], [ 26.2536049, 44.7378159 ], [ 26.1766624, 44.7591629 ], [ 26.098877, 44.7414017 ], [ 26.0647545, 44.7505798 ], [ 25.9446487, 44.7452927 ], [ 25.9472198, 44.7752686 ], [ 25.8761063, 44.8330536 ], [ 25.8130493, 44.8433228 ], [ 25.8036079, 44.8883286 ], [ 25.8202705, 44.9149857 ], [ 25.8005486, 44.9811096 ], [ 25.7266617, 45.0044327 ], [ 25.6999969, 45.0422134 ], [ 25.6836052, 45.1160965 ], [ 25.5699997, 45.2091599 ], [ 25.5572166, 45.234993 ], [ 25.5874977, 45.2644348 ], [ 25.5802727, 45.2969437 ], [ 25.4924927, 45.3641586 ], [ 25.4958305, 45.4363785 ], [ 25.4816666, 45.4947128 ], [ 25.5444374, 45.5041656 ], [ 25.5994415, 45.4791565 ], [ 25.6316605, 45.5111008 ], [ 25.7066612, 45.5116577 ], [ 25.7719383, 45.4949875 ], [ 25.8011055, 45.4688797 ], [ 25.8644409, 45.4527664 ], [ 25.8894386, 45.4699936 ], [ 25.9261055, 45.5397186 ], [ 25.9722176, 45.5444336 ], [ 26.0372162, 45.5049896 ], [ 26.0877724, 45.5030518 ] ] ] ] } },
{ "type": "Feature", "properties": { "POLYGON_ID": "ROU_GAUL2000_ADM1_2477", "ADM0_ISO3": "ROU", "ADM0_NAME": "Romania", "ADM0_CODE": 203, "ADM1_NAME": "Salaj", "ADM1_CODE": 2477, "GEOSET": "GAUL", "GEOSET_YEAR": 2000.0, "GEOSET_VERSION": "GAUL_v1", "GEOSET_UNIT": "ADM1", "CENTROID_LONG": 23.215805380764476, "CENTROID_LAT": 47.189520495871449 }, "geometry": { "type": "MultiPolygon", "coordinates": [ [ [ [ 23.8688889, 47.351944 ], [ 23.8586082, 47.2566605 ], [ 23.8024979, 47.2527771 ], [ 23.7524986, 47.2138824 ], [ 23.6869431, 47.2049942 ], [ 23.6238861, 47.176384 ], [ 23.6055527, 47.1005554 ], [ 23.6294441, 47.0683289 ], [ 23.6069412, 47.0449982 ], [ 23.519165, 47.0224991 ], [ 23.4597206, 46.9569397 ], [ 23.393055, 46.9427719 ], [ 23.3244438, 46.9766617 ], [ 23.2422218, 46.9180527 ], [ 23.1305542, 46.9083328 ], [ 23.0588875, 46.9311066 ], [ 22.9844437, 46.925827 ], [ 22.9719429, 46.9808273 ], [ 22.8633308, 47.0122147 ], [ 22.8547211, 47.0449982 ], [ 22.8013878, 47.0691605 ], [ 22.747776, 47.0738831 ], [ 22.6630554, 47.156105 ], [ 22.6094437, 47.1519394 ], [ 22.5824966, 47.1872177 ], [ 22.6833305, 47.25 ], [ 22.6983299, 47.2869415 ], [ 22.7358322, 47.3024979 ], [ 22.7486076, 47.3605499 ], [ 22.9116631, 47.4136047 ], [ 23.0024986, 47.3805542 ], [ 23.0163879, 47.3516617 ], [ 23.1138878, 47.3305511 ], [ 23.1780548, 47.3738861 ], [ 23.1680527, 47.4008331 ], [ 23.2661095, 47.4363861 ], [ 23.3186073, 47.4008331 ], [ 23.4630547, 47.394722 ], [ 23.4897194, 47.3811035 ], [ 23.5880547, 47.3786087 ], [ 23.7302742, 47.4005508 ], [ 23.7994423, 47.3372192 ], [ 23.8688889, 47.351944 ] ] ] ] } },
{ "type": "Feature", "properties": { "POLYGON_ID": "ROU_GAUL2000_ADM1_2478", "ADM0_ISO3": "ROU", "ADM0_NAME": "Romania", "ADM0_CODE": 203, "ADM1_NAME": "Satu Mare", "ADM1_CODE": 2478, "GEOSET": "GAUL", "GEOSET_YEAR": 2000.0, "GEOSET_VERSION": "GAUL_v1", "GEOSET_UNIT": "ADM1", "CENTROID_LONG": 22.923472670105298, "CENTROID_LAT": 47.709332887767019 }, "geometry": { "type": "MultiPolygon", "coordinates": [ [ [ [ 23.5232859, 47.9895058 ], [ 23.5652771, 47.9827728 ], [ 23.5902748, 47.9463882 ], [ 23.658886, 47.9088821 ], [ 23.5630531, 47.8133316 ], [ 23.4974976, 47.7999954 ], [ 23.371109, 47.7930527 ], [ 23.2524986, 47.7588882 ], [ 23.2627754, 47.7244415 ], [ 23.3641663, 47.7163849 ], [ 23.369442, 47.6897202 ], [ 23.3197212, 47.6452713 ], [ 23.3122215, 47.5780487 ], [ 23.2808304, 47.5702744 ], [ 23.1883316, 47.6022186 ], [ 23.1358299, 47.5849991 ], [ 23.0852776, 47.5269394 ], [ 23.0852776, 47.4666595 ], [ 23.0463867, 47.4580536 ], [ 23.018055, 47.4149933 ], [ 23.0374985, 47.3969421 ], [ 23.1347198, 47.4127731 ], [ 23.1680527, 47.4008331 ], [ 23.1780548, 47.3738861 ], [ 23.1138878, 47.3305511 ], [ 23.0163879, 47.3516617 ], [ 23.0024986, 47.3805542 ], [ 22.9116631, 47.4136047 ], [ 22.7486076, 47.3605499 ], [ 22.6758308, 47.4155502 ], [ 22.5433311, 47.4288864 ], [ 22.4772186, 47.4474945 ], [ 22.414444, 47.4824982 ], [ 22.3644409, 47.4869385 ], [ 22.3372192, 47.5444412 ], [ 22.2591629, 47.5686035 ], [ 22.190682, 47.6037746 ], [ 22.19706, 47.63068 ], [ 22.28268, 47.73235 ], [ 22.33168, 47.75946 ], [ 22.43345, 47.74387 ], [ 22.44775, 47.79543 ], [ 22.48, 47.80685 ], [ 22.55721, 47.77435 ], [ 22.65661, 47.77827 ], [ 22.72824, 47.83683 ], [ 22.78397, 47.84599 ], [ 22.7789498, 47.8906099 ], [ 22.86007, 47.91298 ], [ 22.9059895, 47.9590498 ], [ 22.95028, 47.96945 ], [ 22.9389, 48.01701 ], [ 23.03814, 47.9915 ], [ 23.11323, 48.02704 ], [ 23.12964, 48.08795 ], [ 23.20501, 48.09649 ], [ 23.27864, 48.08739 ], [ 23.30337, 48.04624 ], [ 23.40315, 48.0 ], [ 23.47903, 47.98274 ], [ 23.5232859, 47.9895058 ] ] ] ] } },
{ "type": "Feature", "properties": { "POLYGON_ID": "ROU_GAUL2000_ADM1_2479", "ADM0_ISO3": "ROU", "ADM0_NAME": "Romania", "ADM0_CODE": 203, "ADM1_NAME": "Sibiu", "ADM1_CODE": 2479, "GEOSET": "GAUL", "GEOSET_YEAR": 2000.0, "GEOSET_VERSION": "GAUL_v1", "GEOSET_UNIT": "ADM1", "CENTROID_LONG": 24.309684939117577, "CENTROID_LAT": 45.898650284589813 }, "geometry": { "type": "MultiPolygon", "coordinates": [ [ [ [ 24.9599991, 46.1291656 ], [ 24.9736099, 46.0908279 ], [ 24.8661079, 46.0252762 ], [ 24.7852745, 46.0205536 ], [ 24.7999992, 45.9805527 ], [ 24.7208328, 45.9497147 ], [ 24.8272209, 45.8958282 ], [ 24.8188858, 45.8694382 ], [ 24.7202759, 45.8486099 ], [ 24.6936073, 45.8294373 ], [ 24.6888886, 45.7869415 ], [ 24.7102776, 45.7272186 ], [ 24.7266655, 45.6349945 ], [ 24.6427765, 45.6130524 ], [ 24.556942, 45.6066666 ], [ 24.496666, 45.6161041 ], [ 24.2974968, 45.613884 ], [ 23.9886093, 45.5691605 ], [ 23.8583298, 45.5383301 ], [ 23.7519417, 45.5036087 ], [ 23.6902771, 45.5069427 ], [ 23.7186089, 45.5324936 ], [ 23.7266655, 45.6249924 ], [ 23.7491646, 45.6524963 ], [ 23.7074966, 45.7688828 ], [ 23.7330551, 45.7936096 ], [ 23.7302742, 45.8388824 ], [ 23.7624969, 45.8641663 ], [ 23.8430519, 45.8822174 ], [ 23.8594437, 45.9616623 ], [ 23.9363861, 45.9866638 ], [ 23.9483299, 46.0341644 ], [ 24.0088882, 46.0811081 ], [ 24.0819435, 46.0794373 ], [ 24.1299973, 46.1474991 ], [ 24.2302742, 46.1869431 ], [ 24.2419434, 46.2563858 ], [ 24.2655525, 46.2747192 ], [ 24.3569412, 46.2924957 ], [ 24.4036102, 46.2813873 ], [ 24.5269432, 46.2844391 ], [ 24.6522217, 46.3241653 ], [ 24.7013855, 46.2519379 ], [ 24.6780548, 46.1674957 ], [ 24.7013855, 46.1372147 ], [ 24.7430534, 46.1344376 ], [ 24.8088875, 46.1630554 ], [ 24.8944435, 46.1655502 ], [ 24.9599991, 46.1291656 ] ] ] ] } },
{ "type": "Feature", "properties": { "POLYGON_ID": "ROU_GAUL2000_ADM1_2480", "ADM0_ISO3": "ROU", "ADM0_NAME": "Romania", "ADM0_CODE": 203, "ADM1_NAME": "Suceava", "ADM1_CODE": 2480, "GEOSET": "GAUL", "GEOSET_YEAR": 2000.0, "GEOSET_VERSION": "GAUL_v1", "GEOSET_UNIT": "ADM1", "CENTROID_LONG": 25.748000758771358, "CENTROID_LAT": 47.56413684123536 }, "geometry": { "type": "MultiPolygon", "coordinates": [ [ [ [ 26.1008626, 47.9876921 ], [ 26.1111069, 47.9526138 ], [ 26.2988815, 47.8563766 ], [ 26.3561096, 47.805275 ], [ 26.3991623, 47.8149948 ], [ 26.492775, 47.7608185 ], [ 26.5044518, 47.6902466 ], [ 26.6202736, 47.5594406 ], [ 26.5616646, 47.5130539 ], [ 26.5875816, 47.4808807 ], [ 26.7086105, 47.492775 ], [ 26.6741638, 47.4102707 ], [ 26.6766624, 47.3794327 ], [ 26.6274986, 47.3699875 ], [ 26.5616646, 47.3844376 ], [ 26.5630493, 47.3305435 ], [ 26.5869408, 47.2866516 ], [ 26.5566635, 47.2722168 ], [ 26.4466629, 47.3427658 ], [ 26.3441658, 47.3594437 ], [ 26.1086044, 47.3460999 ], [ 26.0099945, 47.3333206 ], [ 25.9169426, 47.3099976 ], [ 25.8297195, 47.3563766 ], [ 25.8011055, 47.3405457 ], [ 25.8261108, 47.2980499 ], [ 25.8208275, 47.2636108 ], [ 25.726944, 47.2116547 ], [ 25.6797218, 47.1316528 ], [ 25.6397209, 47.1141586 ], [ 25.5530548, 47.1033325 ], [ 25.4969406, 47.133606 ], [ 25.5247154, 47.1761017 ], [ 25.4961052, 47.1919327 ], [ 25.3777733, 47.2036057 ], [ 25.2980537, 47.1405487 ], [ 25.1977768, 47.1608276 ], [ 25.0958328, 47.1399918 ], [ 25.0216637, 47.1497116 ], [ 25.0166626, 47.2585907 ], [ 24.9866638, 47.3074951 ], [ 25.0302734, 47.3638687 ], [ 25.0319405, 47.3930435 ], [ 24.9869423, 47.4277725 ], [ 25.0088844, 47.4511108 ], [ 25.060833, 47.4452667 ], [ 25.0869408, 47.4886017 ], [ 25.0499954, 47.5683289 ], [ 24.9841652, 47.5897217 ], [ 25.0316658, 47.6485977 ], [ 24.9891663, 47.6933289 ], [ 25.0005536, 47.7305071 ], [ 25.1206688, 47.7579196 ], [ 25.24329, 47.888 ], [ 25.32818, 47.92186 ], [ 25.61159, 47.93914 ], [ 25.72713, 47.93397 ], [ 25.78523, 47.94157 ], [ 25.9212, 47.97823 ], [ 25.98476, 47.97388 ], [ 26.1008626, 47.9876921 ] ] ] ] } },
{ "type": "Feature", "properties": { "POLYGON_ID": "ROU_GAUL2000_ADM1_2481", "ADM0_ISO3": "ROU", "ADM0_NAME": "Romania", "ADM0_CODE": 203, "ADM1_NAME": "Teleorman", "ADM1_CODE": 2481, "GEOSET": "GAUL", "GEOSET_YEAR": 2000.0, "GEOSET_VERSION": "GAUL_v1", "GEOSET_UNIT": "ADM1", "CENTROID_LONG": 25.220981145878003, "CENTROID_LAT": 44.057669438714399 }, "geometry": { "type": "MultiPolygon", "coordinates": [ [ [ [ 25.5164146, 44.5262146 ], [ 25.5230484, 44.5077667 ], [ 25.4624977, 44.4555435 ], [ 25.455555, 44.4191666 ], [ 25.4958305, 44.4011078 ], [ 25.4977722, 44.3713837 ], [ 25.5480537, 44.3580475 ], [ 25.6255493, 44.3663788 ], [ 25.6741638, 44.3336105 ], [ 25.7141647, 44.2227707 ], [ 25.7086105, 44.1838837 ], [ 25.6691666, 44.1805496 ], [ 25.6480484, 44.1449966 ], [ 25.5958328, 44.1313858 ], [ 25.5999947, 44.0438766 ], [ 25.6494408, 43.9624939 ], [ 25.6405525, 43.8888779 ], [ 25.6866646, 43.8174896 ], [ 25.6787152, 43.7010537 ], [ 25.58404, 43.65418 ], [ 25.4746, 43.64414 ], [ 25.37155, 43.62826 ], [ 25.26544, 43.6892 ], [ 25.2250675, 43.6973043 ], [ 25.17693, 43.70728 ], [ 25.10158, 43.69303 ], [ 24.99388, 43.73803 ], [ 24.90611, 43.71895 ], [ 24.6917519, 43.7228885 ], [ 24.6938858, 43.7530518 ], [ 24.7336082, 43.7905502 ], [ 24.7880554, 43.8180542 ], [ 24.6988869, 43.8827744 ], [ 24.6913872, 43.9624939 ], [ 24.619442, 43.9786072 ], [ 24.59972, 44.0011063 ], [ 24.6458321, 44.0330505 ], [ 24.7116661, 44.0452728 ], [ 24.7183304, 44.070549 ], [ 24.7816658, 44.1011047 ], [ 24.8499985, 44.0955505 ], [ 24.8649979, 44.1252747 ], [ 24.8138886, 44.1891632 ], [ 24.8574982, 44.2819443 ], [ 24.8558311, 44.3805542 ], [ 24.9338875, 44.4249954 ], [ 24.9838867, 44.4374924 ], [ 25.1377716, 44.4530487 ], [ 25.2441635, 44.5052719 ], [ 25.3086052, 44.4983215 ], [ 25.4247208, 44.5605545 ], [ 25.5164146, 44.5262146 ] ] ] ] } },
{ "type": "Feature", "properties": { "POLYGON_ID": "ROU_GAUL2000_ADM1_2482", "ADM0_ISO3": "ROU", "ADM0_NAME": "Romania", "ADM0_CODE": 203, "ADM1_NAME": "Timis", "ADM1_CODE": 2482, "GEOSET": "GAUL", "GEOSET_YEAR": 2000.0, "GEOSET_VERSION": "GAUL_v1", "GEOSET_UNIT": "ADM1", "CENTROID_LONG": 21.37387076756405, "CENTROID_LAT": 45.748289106118222 }, "geometry": { "type": "MultiPolygon", "coordinates": [ [ [ [ 20.7220465, 46.1759407 ], [ 20.8408318, 46.163887 ], [ 20.8758316, 46.1469421 ], [ 21.0119438, 46.0466614 ], [ 21.0724983, 46.0333328 ], [ 21.158886, 46.0399933 ], [ 21.2077751, 45.9863815 ], [ 21.2552757, 45.9891663 ], [ 21.3158302, 45.9580536 ], [ 21.451664, 45.9916611 ], [ 21.4672203, 46.0402756 ], [ 21.5369415, 46.0499954 ], [ 21.5636101, 46.0069427 ], [ 21.6047211, 45.9969406 ], [ 21.6197205, 45.9644394 ], [ 21.7163887, 45.9708328 ], [ 21.7724991, 45.9255524 ], [ 21.8452759, 45.9397202 ], [ 21.8719444, 45.9822159 ], [ 21.9874992, 45.969162 ], [ 22.0677757, 45.9786072 ], [ 22.2197189, 45.9233322 ], [ 22.2799988, 45.9202728 ], [ 22.3808327, 45.9530487 ], [ 22.4422188, 45.9377747 ], [ 22.4452744, 45.8844376 ], [ 22.5474968, 45.8516617 ], [ 22.5555534, 45.820549 ], [ 22.6066666, 45.7938843 ], [ 22.5472221, 45.7627716 ], [ 22.5058327, 45.6952744 ], [ 22.3933296, 45.6733322 ], [ 22.3188858, 45.6363831 ], [ 22.2813873, 45.6516647 ], [ 22.2616653, 45.6916656 ], [ 22.2133331, 45.7080536 ], [ 22.1586075, 45.6122208 ], [ 22.0911102, 45.5952759 ], [ 22.1052742, 45.5511093 ], [ 22.0674973, 45.5258331 ], [ 21.994442, 45.5288849 ], [ 21.8019409, 45.5849991 ], [ 21.7058296, 45.5933304 ], [ 21.6513863, 45.5724945 ], [ 21.6144409, 45.5024948 ], [ 21.5108299, 45.4583282 ], [ 21.5597191, 45.4266663 ], [ 21.4908333, 45.3969421 ], [ 21.5397186, 45.3527756 ], [ 21.5655518, 45.3058319 ], [ 21.5438881, 45.2397156 ], [ 21.48235, 45.19176 ], [ 21.29134, 45.2434 ], [ 21.27614, 45.22984 ], [ 21.20245, 45.26488 ], [ 21.1760168, 45.3251477 ], [ 21.09616, 45.29602 ], [ 21.0638895, 45.3317256 ], [ 21.0097, 45.34172 ], [ 20.9506896, 45.3731331 ], [ 20.91992, 45.41771 ], [ 20.86662, 45.43231 ], [ 20.86796, 45.46376 ], [ 20.76878, 45.49986 ], [ 20.8329298, 45.5358399 ], [ 20.76608, 45.61216 ], [ 20.8065792, 45.6577094 ], [ 20.80291, 45.7381 ], [ 20.77218, 45.75431 ], [ 20.70054, 45.75007 ], [ 20.66013, 45.82919 ], [ 20.58097, 45.8696 ], [ 20.56878, 45.91019 ], [ 20.51577, 45.89211 ], [ 20.48364, 45.95291 ], [ 20.40449, 45.96469 ], [ 20.3574, 46.00497 ], [ 20.3027493, 46.0864002 ], [ 20.2673, 46.1171 ], [ 20.2765, 46.14502 ], [ 20.35892, 46.16804 ], [ 20.44238, 46.14738 ], [ 20.55825, 46.17524 ], [ 20.63623, 46.13606 ], [ 20.7220465, 46.1759407 ] ] ] ] } },
{ "type": "Feature", "properties": { "POLYGON_ID": "ROU_GAUL2000_ADM1_2483", "ADM0_ISO3": "ROU", "ADM0_NAME": "Romania", "ADM0_CODE": 203, "ADM1_NAME": "Tulcea", "ADM1_CODE": 2483, "GEOSET": "GAUL", "GEOSET_YEAR": 2000.0, "GEOSET_VERSION": "GAUL_v1", "GEOSET_UNIT": "ADM1", "CENTROID_LONG": 28.860492068390755, "CENTROID_LAT": 45.053992036351353 }, "geometry": { "type": "MultiPolygon", "coordinates": [ [ [ [ 29.6757312, 45.2169136 ], [ 29.6302725, 45.2226729 ], [ 29.678691, 45.1398197 ], [ 29.6277939, 44.8983849 ], [ 29.6092882, 44.857104 ], [ 29.5642781, 44.8344958 ], [ 29.4902587, 44.8321875 ], [ 29.3261305, 44.8137703 ], [ 29.1757015, 44.7893842 ], [ 29.0965646, 44.75714 ], [ 29.043441, 44.7232555 ], [ 28.9932509, 44.6700743 ], [ 28.9790346, 44.6888399 ], [ 28.90271, 44.6888399 ], [ 28.8279274, 44.6433536 ], [ 28.7777748, 44.6708298 ], [ 28.6863823, 44.6783218 ], [ 28.6352768, 44.6677628 ], [ 28.5224953, 44.6738815 ], [ 28.4930496, 44.6538849 ], [ 28.4047165, 44.6988754 ], [ 28.3758316, 44.6386108 ], [ 28.3372154, 44.676384 ], [ 28.3352776, 44.7161026 ], [ 28.2705536, 44.758606 ], [ 28.1808319, 44.7422104 ], [ 28.1127777, 44.7899857 ], [ 28.0694008, 44.7961044 ], [ 28.0949936, 44.863884 ], [ 28.1272163, 44.8813858 ], [ 28.1197166, 44.9155426 ], [ 28.1424942, 44.9713745 ], [ 28.1263886, 45.0069427 ], [ 28.1438866, 45.0361099 ], [ 28.1355515, 45.094162 ], [ 28.1797218, 45.1305466 ], [ 28.1002769, 45.1805496 ], [ 28.1249924, 45.2283325 ], [ 28.1088867, 45.2513886 ], [ 28.0436096, 45.2538757 ], [ 27.9863815, 45.2869415 ], [ 28.0213814, 45.344162 ], [ 28.032486, 45.3983765 ], [ 28.1186104, 45.4291916 ], [ 28.1890106, 45.4132385 ], [ 28.2162652, 45.4689089 ], [ 28.21632, 45.4689 ], [ 28.27881, 45.45523 ], [ 28.28564, 45.40807 ], [ 28.35446, 45.32363 ], [ 28.57324, 45.25535 ], [ 28.63909, 45.25101 ], [ 28.73659, 45.22992 ], [ 28.79501, 45.24746 ], [ 28.7728, 45.2896 ], [ 28.82684, 45.33632 ], [ 28.93145, 45.28487 ], [ 28.99679, 45.35597 ], [ 29.09058, 45.38698 ], [ 29.13104, 45.38358 ], [ 29.24919, 45.42986 ], [ 29.33679, 45.44454 ], [ 29.42979, 45.44407 ], [ 29.57072, 45.40696 ], [ 29.65741, 45.3438 ], [ 29.68064, 45.27142 ], [ 29.6757312, 45.2169136 ] ] ] ] } },
{ "type": "Feature", "properties": { "POLYGON_ID": "ROU_GAUL2000_ADM1_2484", "ADM0_ISO3": "ROU", "ADM0_NAME": "Romania", "ADM0_CODE": 203, "ADM1_NAME": "Vaslui", "ADM1_CODE": 2484, "GEOSET": "GAUL", "GEOSET_YEAR": 2000.0, "GEOSET_VERSION": "GAUL_v1", "GEOSET_UNIT": "ADM1", "CENTROID_LONG": 27.758022364594606, "CENTROID_LAT": 46.540445519212511 }, "geometry": { "type": "MultiPolygon", "coordinates": [ [ [ [ 28.1200309, 46.8544486 ], [ 28.1656896, 46.7945404 ], [ 28.23992, 46.66873 ], [ 28.25548, 46.61873 ], [ 28.22951, 46.57942 ], [ 28.22016, 46.50907 ], [ 28.2564193, 46.4709693 ], [ 28.2448288, 46.4003984 ], [ 28.2062, 46.37931 ], [ 28.18648, 46.29642 ], [ 28.11551, 46.24493 ], [ 28.13861, 46.1917 ], [ 28.1240484, 46.1232635 ], [ 27.9799995, 46.1369324 ], [ 27.9155502, 46.1619415 ], [ 27.8366623, 46.1347198 ], [ 27.748333, 46.1433258 ], [ 27.6652756, 46.1333237 ], [ 27.6277733, 46.0519409 ], [ 27.5472183, 46.0113754 ], [ 27.5283318, 46.0577698 ], [ 27.5361099, 46.1027756 ], [ 27.4936066, 46.1333237 ], [ 27.4958305, 46.1683197 ], [ 27.5116615, 46.2158279 ], [ 27.498333, 46.3099976 ], [ 27.4386063, 46.3894348 ], [ 27.4291649, 46.4322128 ], [ 27.3824997, 46.4977646 ], [ 27.3113823, 46.5669327 ], [ 27.2605515, 46.640831 ], [ 27.2758293, 46.7105408 ], [ 27.2555504, 46.7433319 ], [ 27.1736107, 46.7711105 ], [ 27.1672173, 46.7980499 ], [ 27.1983299, 46.8577728 ], [ 27.1849976, 46.890831 ], [ 27.2877769, 46.8863754 ], [ 27.3963814, 46.9208298 ], [ 27.4791603, 46.8813858 ], [ 27.5230484, 46.9072189 ], [ 27.6238823, 46.9158325 ], [ 27.6180496, 46.9710999 ], [ 27.7044373, 46.9636078 ], [ 27.7372208, 46.9063797 ], [ 27.7961044, 46.9394379 ], [ 27.8311043, 46.9222107 ], [ 27.8488846, 46.8624878 ], [ 27.8833275, 46.8605499 ], [ 27.9194374, 46.8147125 ], [ 27.9538879, 46.8591537 ], [ 28.0302734, 46.8372116 ], [ 28.1200309, 46.8544486 ] ] ] ] } },
{ "type": "Feature", "properties": { "POLYGON_ID": "ROU_GAUL2000_ADM1_2485", "ADM0_ISO3": "ROU", "ADM0_NAME": "Romania", "ADM0_CODE": 203, "ADM1_NAME": "Vilcea", "ADM1_CODE": 2485, "GEOSET": "GAUL", "GEOSET_YEAR": 2000.0, "GEOSET_VERSION": "GAUL_v1", "GEOSET_UNIT": "ADM1", "CENTROID_LONG": 24.159569407279193, "CENTROID_LAT": 45.138022629366716 }, "geometry": { "type": "MultiPolygon", "coordinates": [ [ [ [ 24.556942, 45.6066666 ], [ 24.5588875, 45.5077744 ], [ 24.5402756, 45.4611053 ], [ 24.5424995, 45.367775 ], [ 24.5111084, 45.2866592 ], [ 24.5544434, 45.1641617 ], [ 24.5241661, 45.1191635 ], [ 24.5066643, 45.0616608 ], [ 24.5047188, 44.9291611 ], [ 24.4733315, 44.8866653 ], [ 24.4172211, 44.9255524 ], [ 24.327774, 44.8669434 ], [ 24.2949982, 44.8191605 ], [ 24.2838402, 44.733017 ], [ 24.2986412, 44.6547546 ], [ 24.329998, 44.5966644 ], [ 24.2988853, 44.5880508 ], [ 24.25, 44.6102753 ], [ 24.2155533, 44.5661087 ], [ 24.1355553, 44.5630493 ], [ 24.1102753, 44.5455551 ], [ 24.0163879, 44.5613861 ], [ 23.9811096, 44.5499954 ], [ 23.9427757, 44.6002731 ], [ 23.9286079, 44.6502762 ], [ 23.8669434, 44.6780548 ], [ 23.8424988, 44.7524948 ], [ 23.8447189, 44.8169403 ], [ 23.8113861, 44.8713837 ], [ 23.8194427, 44.9313889 ], [ 23.7922211, 44.9797211 ], [ 23.8255539, 45.0430527 ], [ 23.8261108, 45.0824966 ], [ 23.8688889, 45.1602707 ], [ 23.9174995, 45.2133331 ], [ 23.9124985, 45.2913818 ], [ 23.9274979, 45.3491592 ], [ 23.8719444, 45.3783264 ], [ 23.7330551, 45.3905487 ], [ 23.6994438, 45.4049988 ], [ 23.6849976, 45.5069427 ], [ 23.6902771, 45.5069427 ], [ 23.7519417, 45.5036087 ], [ 23.8583298, 45.5383301 ], [ 23.9886093, 45.5691605 ], [ 24.2974968, 45.613884 ], [ 24.496666, 45.6161041 ], [ 24.556942, 45.6066666 ] ] ] ] } },
{ "type": "Feature", "properties": { "POLYGON_ID": "ROU_GAUL2000_ADM1_2486", "ADM0_ISO3": "ROU", "ADM0_NAME": "Romania", "ADM0_CODE": 203, "ADM1_NAME": "Vrancea", "ADM1_CODE": 2486, "GEOSET": "GAUL", "GEOSET_YEAR": 2000.0, "GEOSET_VERSION": "GAUL_v1", "GEOSET_UNIT": "ADM1", "CENTROID_LONG": 26.967844161017457, "CENTROID_LAT": 45.809309458856482 }, "geometry": { "type": "MultiPolygon", "coordinates": [ [ [ [ 27.4958305, 46.1683197 ], [ 27.4936066, 46.1333237 ], [ 27.4038887, 46.1263886 ], [ 27.3736076, 46.0883255 ], [ 27.2249146, 46.0342026 ], [ 27.2299995, 45.9727707 ], [ 27.2810974, 45.8787689 ], [ 27.3213844, 45.8352737 ], [ 27.3697395, 45.7118835 ], [ 27.5272636, 45.5757904 ], [ 27.5199814, 45.5177307 ], [ 27.5474968, 45.5108185 ], [ 27.4141617, 45.4666595 ], [ 27.3827705, 45.4060974 ], [ 27.3488846, 45.4155426 ], [ 27.2752724, 45.3999939 ], [ 27.2874947, 45.4541626 ], [ 27.2036057, 45.457222 ], [ 27.1322174, 45.4299927 ], [ 27.1149979, 45.4808197 ], [ 27.0433273, 45.4655457 ], [ 27.0036087, 45.5083237 ], [ 26.9155502, 45.5452728 ], [ 26.8349953, 45.5216599 ], [ 26.7761078, 45.5855408 ], [ 26.7274933, 45.6149979 ], [ 26.6330528, 45.5958328 ], [ 26.5258293, 45.6686096 ], [ 26.4919395, 45.7133255 ], [ 26.4633293, 45.797493 ], [ 26.4027748, 45.8291626 ], [ 26.3927727, 45.9563828 ], [ 26.4080505, 46.0136108 ], [ 26.4449997, 46.0622177 ], [ 26.5177727, 46.0774918 ], [ 26.5955505, 46.0569305 ], [ 26.6611099, 46.0924988 ], [ 26.7574997, 46.1111069 ], [ 26.7869415, 46.0938797 ], [ 26.8458328, 46.0988846 ], [ 26.9419403, 46.0891647 ], [ 26.9844437, 46.1097107 ], [ 27.1911087, 46.1749878 ], [ 27.2674942, 46.1897125 ], [ 27.3780518, 46.1686096 ], [ 27.4061089, 46.1944427 ], [ 27.4958305, 46.1683197 ] ] ] ] } }
]
}
