{
"type": "FeatureCollection",
"name": "RWA_GAUL1995_ADM1",
"crs": { "type": "name", "properties": { "name": "urn:ogc:def:crs:OGC:1.3:CRS84" } },
"features": [
{ "type": "Feature", "properties": { "POLYGON_ID": "RWA_GAUL1995_ADM1_2578", "ADM0_ISO3": "RWA", "ADM0_NAME": "Rwanda", "ADM0_CODE": 205, "ADM1_NAME": "Butare", "ADM1_CODE": 2578, "GEOSET": "GAUL", "GEOSET_YEAR": 1995.0, "GEOSET_VERSION": "GAUL_v1", "GEOSET_UNIT": "ADM1", "CENTROID_LONG": 29.777771192669828, "CENTROID_LAT": -2.5569013405438215 }, "geometry": { "type": "MultiPolygon", "coordinates": [ [ [ [ 29.9732686, -2.2748108 ], [ 29.9728091, -2.2753316 ], [ 29.9589813, -2.3273247 ], [ 29.9587719, -2.3272523 ], [ 29.956996, -2.328734 ], [ 29.9556698, -2.3298406 ], [ 29.9551805, -2.3383124 ], [ 29.9566791, -2.3491698 ], [ 29.9477827, -2.359658 ], [ 29.9442008, -2.3638808 ], [ 29.9434056, -2.3699976 ], [ 29.9437902, -2.3713027 ], [ 29.9444149, -2.373423 ], [ 29.9479321, -2.376145 ], [ 29.952275, -2.383424 ], [ 29.9541623, -2.3883034 ], [ 29.9547829, -2.3899078 ], [ 29.9550582, -2.3971869 ], [ 29.9619702, -2.4143751 ], [ 29.9611138, -2.4194827 ], [ 29.9610832, -2.4252937 ], [ 29.9626124, -2.4358452 ], [ 29.9676282, -2.445785 ], [ 29.9657626, -2.4500362 ], [ 29.9682093, -2.4573458 ], [ 29.9703808, -2.4613523 ], [ 29.9669248, -2.4706193 ], [ 29.968821, -2.475941 ], [ 29.9686304, -2.4775531 ], [ 29.9677506, -2.4849939 ], [ 29.9636523, -2.4895203 ], [ 29.9617863, -2.4895576 ], [ 29.9560063, -2.4896732 ], [ 29.9530396, -2.4917224 ], [ 29.9503788, -2.4963712 ], [ 29.9429173, -2.5012022 ], [ 29.9380945, -2.5116766 ], [ 29.9363687, -2.5194156 ], [ 29.9356057, -2.524466 ], [ 29.9342795, -2.5338037 ], [ 29.9292291, -2.5407615 ], [ 29.9294471, -2.5457937 ], [ 29.9248184, -2.5530599 ], [ 29.924633, -2.553351 ], [ 29.9207816, -2.557602 ], [ 29.9241788, -2.5678662 ], [ 29.9295561, -2.5808554 ], [ 29.9316998, -2.5891758 ], [ 29.9301375, -2.6085233 ], [ 29.9309368, -2.6232202 ], [ 29.9301241, -2.6266447 ], [ 29.928557, -2.6332482 ], [ 29.9299013, -2.6358642 ], [ 29.9340433, -2.6378444 ], [ 29.9360053, -2.6422226 ], [ 29.9336618, -2.6511242 ], [ 29.9309612, -2.654631 ], [ 29.9287931, -2.6574463 ], [ 29.928666, -2.6666749 ], [ 29.9254868, -2.68248 ], [ 29.9185108, -2.6961958 ], [ 29.9183655, -2.7024452 ], [ 29.9124068, -2.7084402 ], [ 29.9095728, -2.7154889 ], [ 29.9020517, -2.7216474 ], [ 29.8933862, -2.7351816 ], [ 29.8936951, -2.7398504 ], [ 29.8930956, -2.7457728 ], [ 29.8929502, -2.7470989 ], [ 29.891792, -2.748441 ], [ 29.8895167, -2.7510775 ], [ 29.8811323, -2.7561776 ], [ 29.8780101, -2.7601866 ], [ 29.8717287, -2.7616092 ], [ 29.8709677, -2.7613296 ], [ 29.8668514, -2.7598171 ], [ 29.8550092, -2.7626437 ], [ 29.852977, -2.7665973 ], [ 29.8502535, -2.767019 ], [ 29.8458728, -2.7676973 ], [ 29.8443862, -2.7679275 ], [ 29.8384182, -2.7710976 ], [ 29.8357512, -2.7726579 ], [ 29.8331906, -2.7745968 ], [ 29.8322669, -2.7813955 ], [ 29.8274466, -2.7792007 ], [ 29.8130348, -2.7726385 ], [ 29.8122958, -2.7662833 ], [ 29.8109102, -2.763198 ], [ 29.8074739, -2.7599834 ], [ 29.7910352, -2.761884 ], [ 29.7869116, -2.765766 ], [ 29.7776189, -2.7657475 ], [ 29.7696194, -2.7658953 ], [ 29.7686989, -2.7682359 ], [ 29.7676795, -2.770828 ], [ 29.7647605, -2.7796774 ], [ 29.7625488, -2.7948743 ], [ 29.7590199, -2.8026582 ], [ 29.7534138, -2.8109463 ], [ 29.7512159, -2.8110775 ], [ 29.7507116, -2.8111076 ], [ 29.7489221, -2.8084322 ], [ 29.7467836, -2.8077418 ], [ 29.7449454, -2.8071482 ], [ 29.7393423, -2.8110482 ], [ 29.7322911, -2.8111455 ], [ 29.728082, -2.8150214 ], [ 29.7276163, -2.8154502 ], [ 29.7237596, -2.8181188 ], [ 29.7224455, -2.8155485 ], [ 29.7224351, -2.8155282 ], [ 29.7154814, -2.8157619 ], [ 29.7082549, -2.8191706 ], [ 29.7045346, -2.8148075 ], [ 29.7013986, -2.8106781 ], [ 29.6961394, -2.8066461 ], [ 29.6852316, -2.7997897 ], [ 29.6794466, -2.7996728 ], [ 29.6698438, -2.7915699 ], [ 29.6638166, -2.7889278 ], [ 29.6613123, -2.7878301 ], [ 29.6597542, -2.7878901 ], [ 29.6390681, -2.7886871 ], [ 29.6353672, -2.7954071 ], [ 29.6332441, -2.7997702 ], [ 29.629738, -2.8036854 ], [ 29.624401, -2.806237 ], [ 29.6210316, -2.8078202 ], [ 29.6163175, -2.8100353 ], [ 29.6122465, -2.8110482 ], [ 29.6098037, -2.8093126 ], [ 29.6057213, -2.8064123 ], [ 29.6012608, -2.8075615 ], [ 29.5912879, -2.808068 ], [ 29.5895154, -2.806685 ], [ 29.5894764, -2.8027699 ], [ 29.5879376, -2.8028283 ], [ 29.5824058, -2.8046788 ], [ 29.5799247, -2.8066614 ], [ 29.5595074, -2.7877667 ], [ 29.5909634, -2.7214582 ], [ 29.5671062, -2.624248 ], [ 29.5883713, -2.5580237 ], [ 29.6151657, -2.5590615 ], [ 29.6422882, -2.5001261 ], [ 29.6917133, -2.4568598 ], [ 29.6988888, -2.4133945 ], [ 29.6535702, -2.3381889 ], [ 29.6874123, -2.3232937 ], [ 29.7368107, -2.3449442 ], [ 29.7745361, -2.3443546 ], [ 29.7861233, -2.3021953 ], [ 29.8566055, -2.3059039 ], [ 29.8704529, -2.2760134 ], [ 29.9732686, -2.2748108 ] ] ] ] } },
{ "type": "Feature", "properties": { "POLYGON_ID": "RWA_GAUL1995_ADM1_2579", "ADM0_ISO3": "RWA", "ADM0_NAME": "Rwanda", "ADM0_CODE": 205, "ADM1_NAME": "Byumba", "ADM1_CODE": 2579, "GEOSET": "GAUL", "GEOSET_YEAR": 1995.0, "GEOSET_VERSION": "GAUL_v1", "GEOSET_UNIT": "ADM1", "CENTROID_LONG": 30.135290876902932, "CENTROID_LAT": -1.6106727130453378 }, "geometry": { "type": "MultiPolygon", "coordinates": [ [ [ [ 30.3169861, -1.8553685 ], [ 30.2865658, -1.8207891 ], [ 30.2462525, -1.8461891 ], [ 30.2173691, -1.8408384 ], [ 30.1412449, -1.7717841 ], [ 30.1064701, -1.7710248 ], [ 30.0738544, -1.726661 ], [ 30.02812, -1.7042626 ], [ 29.9769211, -1.7229574 ], [ 29.9364414, -1.7211395 ], [ 29.8782978, -1.6536396 ], [ 29.9103546, -1.6520729 ], [ 29.917799, -1.5743141 ], [ 29.9070911, -1.5033677 ], [ 29.918939, -1.4740593 ], [ 29.9213387, -1.479186 ], [ 29.9235486, -1.4805817 ], [ 29.9302602, -1.4727016 ], [ 29.9778878, -1.4574049 ], [ 29.9786893, -1.4572112 ], [ 29.978993, -1.4568145 ], [ 29.9860774, -1.447559 ], [ 30.0217545, -1.4124461 ], [ 30.0245877, -1.417357 ], [ 30.0256714, -1.4174313 ], [ 30.0316164, -1.4178385 ], [ 30.052989, -1.3979273 ], [ 30.0610561, -1.3941982 ], [ 30.0700428, -1.390044 ], [ 30.0714305, -1.3894025 ], [ 30.0696192, -1.3861737 ], [ 30.0699709, -1.3800906 ], [ 30.0757748, -1.3769363 ], [ 30.08503, -1.372592 ], [ 30.0976076, -1.3759019 ], [ 30.099385, -1.3763696 ], [ 30.1035405, -1.3710809 ], [ 30.1181283, -1.3840982 ], [ 30.118651, -1.3848693 ], [ 30.1239397, -1.383736 ], [ 30.1240288, -1.3788351 ], [ 30.1256397, -1.3686254 ], [ 30.1286595, -1.3656057 ], [ 30.1483173, -1.4003654 ], [ 30.1653023, -1.4655769 ], [ 30.2457733, -1.4400856 ], [ 30.2659225, -1.4904299 ], [ 30.3123932, -1.5313452 ], [ 30.311348, -1.5645436 ], [ 30.3627491, -1.6422435 ], [ 30.3414555, -1.6880125 ], [ 30.3647671, -1.7170842 ], [ 30.317152, -1.7852713 ], [ 30.3282623, -1.8334777 ], [ 30.3169861, -1.8553685 ] ] ] ] } },
{ "type": "Feature", "properties": { "POLYGON_ID": "RWA_GAUL1995_ADM1_2580", "ADM0_ISO3": "RWA", "ADM0_NAME": "Rwanda", "ADM0_CODE": 205, "ADM1_NAME": "Cyangugu", "ADM1_CODE": 2580, "GEOSET": "GAUL", "GEOSET_YEAR": 1995.0, "GEOSET_VERSION": "GAUL_v1", "GEOSET_UNIT": "ADM1", "CENTROID_LONG": 29.107506225512804, "CENTROID_LAT": -2.468534591280561 }, "geometry": { "type": "MultiPolygon", "coordinates": [ [ [ [ 29.3308604, -2.6814852 ], [ 29.3325801, -2.6785222 ], [ 29.3352367, -2.6739449 ], [ 29.3250006, -2.6517717 ], [ 29.3239059, -2.6517597 ], [ 29.3176439, -2.6516911 ], [ 29.3172922, -2.6509842 ], [ 29.314959, -2.6462944 ], [ 29.3115223, -2.6444956 ], [ 29.3008633, -2.6431263 ], [ 29.2934529, -2.6405756 ], [ 29.283841, -2.6308025 ], [ 29.2816393, -2.6259429 ], [ 29.2729939, -2.6237144 ], [ 29.2679732, -2.6240903 ], [ 29.2646976, -2.6181566 ], [ 29.2537432, -2.6228552 ], [ 29.2470577, -2.6221571 ], [ 29.2443191, -2.62307 ], [ 29.2405102, -2.6244174 ], [ 29.2403723, -2.6244662 ], [ 29.2406408, -2.6263456 ], [ 29.2404804, -2.6264474 ], [ 29.2389493, -2.6274196 ], [ 29.2309751, -2.6292721 ], [ 29.2232426, -2.6292721 ], [ 29.2191463, -2.6259105 ], [ 29.2183024, -2.6252179 ], [ 29.2132816, -2.6214591 ], [ 29.2101268, -2.6225502 ], [ 29.2097107, -2.6226941 ], [ 29.2091201, -2.622366 ], [ 29.206811, -2.6210832 ], [ 29.2010384, -2.6176196 ], [ 29.1917755, -2.6176465 ], [ 29.1855465, -2.6153912 ], [ 29.1824857, -2.6142635 ], [ 29.1780043, -2.6155816 ], [ 29.1739046, -2.6152979 ], [ 29.1743236, -2.6105315 ], [ 29.1687122, -2.6029332 ], [ 29.1626174, -2.6004362 ], [ 29.1564153, -2.5966237 ], [ 29.1532471, -2.5946368 ], [ 29.1509918, -2.5922741 ], [ 29.1493808, -2.5914418 ], [ 29.1446849, -2.5942686 ], [ 29.1412187, -2.5963552 ], [ 29.1395272, -2.5980735 ], [ 29.1412724, -2.6041683 ], [ 29.1382385, -2.605645 ], [ 29.1281164, -2.610263 ], [ 29.124277, -2.6079003 ], [ 29.1212967, -2.6036044 ], [ 29.1162491, -2.597107 ], [ 29.109859, -2.5967579 ], [ 29.1029857, -2.5967042 ], [ 29.096166, -2.5969727 ], [ 29.0932394, -2.5918177 ], [ 29.087091, -2.5924084 ], [ 29.0827558, -2.5950314 ], [ 29.0764856, -2.5988253 ], [ 29.0729147, -2.6035239 ], [ 29.0622556, -2.6018861 ], [ 29.060591, -2.6079808 ], [ 29.0593828, -2.6135117 ], [ 29.058094, -2.6180224 ], [ 29.053288, -2.61915 ], [ 29.0523483, -2.6233385 ], [ 29.0523752, -2.6277954 ], [ 29.0538519, -2.639609 ], [ 29.0595707, -2.6457306 ], [ 29.0616649, -2.6498654 ], [ 29.0561877, -2.65349 ], [ 29.0520798, -2.6567924 ], [ 29.0494883, -2.661713 ], [ 29.0478377, -2.6648472 ], [ 29.0482136, -2.6708076 ], [ 29.051167, -2.6752646 ], [ 29.0519456, -2.6762849 ], [ 29.0565368, -2.6760701 ], [ 29.0573959, -2.6777347 ], [ 29.0566434, -2.6835096 ], [ 29.0547379, -2.6895214 ], [ 29.0512475, -2.6925017 ], [ 29.0500724, -2.6939645 ], [ 29.0499319, -2.6941395 ], [ 29.0496634, -2.7018452 ], [ 29.0506837, -2.7045032 ], [ 29.0553554, -2.7058994 ], [ 29.0555971, -2.7101147 ], [ 29.0494486, -2.7190554 ], [ 29.046898, -2.7202905 ], [ 29.0464814, -2.7207359 ], [ 29.0451351, -2.7221754 ], [ 29.0434076, -2.7240225 ], [ 29.0411254, -2.7268685 ], [ 29.0409106, -2.7289359 ], [ 29.0410009, -2.7321407 ], [ 29.0410717, -2.7346547 ], [ 29.0406414, -2.7438442 ], [ 29.0389452, -2.741667 ], [ 29.0353252, -2.7370205 ], [ 29.0268034, -2.7276264 ], [ 29.0217037, -2.7199098 ], [ 29.015933, -2.7165547 ], [ 29.0043246, -2.7044095 ], [ 28.9990106, -2.7011513 ], [ 28.9951317, -2.698773 ], [ 28.9823825, -2.6936062 ], [ 28.975404, -2.6950153 ], [ 28.970103, -2.6990414 ], [ 28.9694265, -2.7016723 ], [ 28.9688952, -2.7037385 ], [ 28.9669493, -2.7030003 ], [ 28.9229982, -2.6818635 ], [ 28.9191377, -2.6807376 ], [ 28.9181669, -2.6804544 ], [ 28.9170455, -2.6786563 ], [ 28.9103832, -2.6679736 ], [ 28.9107858, -2.6652225 ], [ 28.9033376, -2.6619345 ], [ 28.8998483, -2.6620016 ], [ 28.9000234, -2.6513876 ], [ 28.9036731, -2.6500577 ], [ 28.9063571, -2.6451593 ], [ 28.9039415, -2.635698 ], [ 28.904277, -2.6267736 ], [ 28.9011176, -2.6224859 ], [ 28.9005193, -2.6216739 ], [ 28.900801, -2.6198525 ], [ 28.9025324, -2.6086563 ], [ 28.9005193, -2.6022818 ], [ 28.898976, -2.6014765 ], [ 28.8978353, -2.5948335 ], [ 28.9000496, -2.5843658 ], [ 28.8954867, -2.5748375 ], [ 28.8953984, -2.5742044 ], [ 28.8934737, -2.5604107 ], [ 28.8912594, -2.5577267 ], [ 28.8778392, -2.5503456 ], [ 28.8628086, -2.5218277 ], [ 28.8636137, -2.5206267 ], [ 28.8657277, -2.5174738 ], [ 28.8667675, -2.5159228 ], [ 28.8762288, -2.5091456 ], [ 28.8842505, -2.5073761 ], [ 28.8853545, -2.5071326 ], [ 28.8893135, -2.5047169 ], [ 28.8932484, -2.4907892 ], [ 28.8929077, -2.488681 ], [ 28.8619447, -2.4358336 ], [ 28.865, -2.4047225 ], [ 28.9050003, -2.3622219 ], [ 28.9208331, -2.3669442 ], [ 28.9386117, -2.3694444 ], [ 28.9497219, -2.3663892 ], [ 28.9849997, -2.3344444 ], [ 29.0027781, -2.2811122 ], [ 29.0205558, -2.2783336 ], [ 29.0544582, -2.2808264 ], [ 29.1002778, -2.2674997 ], [ 29.143469, -2.1899196 ], [ 29.1706971, -2.2488959 ], [ 29.2268829, -2.276386 ], [ 29.3132191, -2.2888 ], [ 29.323164, -2.3132403 ], [ 29.3430323, -2.3568668 ], [ 29.3185464, -2.3998066 ], [ 29.3235172, -2.4324693 ], [ 29.280308, -2.4418562 ], [ 29.2697502, -2.4829949 ], [ 29.308527, -2.4963563 ], [ 29.3449665, -2.5576024 ], [ 29.3397359, -2.5812505 ], [ 29.3677237, -2.6303279 ], [ 29.3308604, -2.6814852 ] ] ] ] } },
{ "type": "Feature", "properties": { "POLYGON_ID": "RWA_GAUL1995_ADM1_2581", "ADM0_ISO3": "RWA", "ADM0_NAME": "Rwanda", "ADM0_CODE": 205, "ADM1_NAME": "Gikongoro", "ADM1_CODE": 2581, "GEOSET": "GAUL", "GEOSET_YEAR": 1995.0, "GEOSET_VERSION": "GAUL_v1", "GEOSET_UNIT": "ADM1", "CENTROID_LONG": 29.479538896307371, "CENTROID_LAT": -2.5099789244286383 }, "geometry": { "type": "MultiPolygon", "coordinates": [ [ [ [ 29.5622391, -2.2057515 ], [ 29.5629805, -2.2057066 ], [ 29.602602, -2.287045 ], [ 29.6535702, -2.3381889 ], [ 29.6988888, -2.4133945 ], [ 29.6917133, -2.4568598 ], [ 29.6422882, -2.5001261 ], [ 29.6151657, -2.5590615 ], [ 29.5883713, -2.5580237 ], [ 29.5671062, -2.624248 ], [ 29.5909634, -2.7214582 ], [ 29.5595074, -2.7877667 ], [ 29.5799247, -2.8066614 ], [ 29.5745228, -2.8109783 ], [ 29.5734847, -2.8118078 ], [ 29.5712874, -2.8117975 ], [ 29.5652065, -2.8117689 ], [ 29.5518444, -2.8176513 ], [ 29.5477929, -2.8175344 ], [ 29.5439946, -2.8166384 ], [ 29.5426117, -2.8176123 ], [ 29.5439362, -2.8256179 ], [ 29.542748, -2.8294746 ], [ 29.5378979, -2.8272346 ], [ 29.531996, -2.8270203 ], [ 29.521283, -2.8299031 ], [ 29.5150304, -2.8271956 ], [ 29.5129463, -2.822852 ], [ 29.5066548, -2.8188395 ], [ 29.5006423, -2.8126239 ], [ 29.4922713, -2.8090184 ], [ 29.4861224, -2.801975 ], [ 29.4833554, -2.8018632 ], [ 29.4800294, -2.8052871 ], [ 29.4771226, -2.8088088 ], [ 29.4760046, -2.8070898 ], [ 29.4700513, -2.8076349 ], [ 29.4567891, -2.8005496 ], [ 29.4480129, -2.7981599 ], [ 29.4377134, -2.7973633 ], [ 29.434066, -2.8006335 ], [ 29.431037, -2.8041716 ], [ 29.4308238, -2.8044206 ], [ 29.4189452, -2.8087389 ], [ 29.4151021, -2.8127776 ], [ 29.4090644, -2.8156123 ], [ 29.400666, -2.8195554 ], [ 29.3949363, -2.8162713 ], [ 29.3886197, -2.8185492 ], [ 29.3846229, -2.8211765 ], [ 29.3799413, -2.830931 ], [ 29.3769507, -2.8378486 ], [ 29.3766447, -2.8379449 ], [ 29.3704947, -2.8398815 ], [ 29.3666331, -2.8318785 ], [ 29.3658118, -2.8301763 ], [ 29.364468, -2.8273914 ], [ 29.3617167, -2.8182859 ], [ 29.3559739, -2.8072152 ], [ 29.3537059, -2.8057497 ], [ 29.3514321, -2.798066 ], [ 29.3535938, -2.7978258 ], [ 29.3566727, -2.7913624 ], [ 29.3536375, -2.783174 ], [ 29.34772, -2.7761429 ], [ 29.3497726, -2.7737192 ], [ 29.3504621, -2.7686697 ], [ 29.350515, -2.7682821 ], [ 29.3473178, -2.7666079 ], [ 29.3440516, -2.7648975 ], [ 29.3389131, -2.7641014 ], [ 29.3378503, -2.7639367 ], [ 29.3413003, -2.7535866 ], [ 29.3331699, -2.7470458 ], [ 29.3344431, -2.7444589 ], [ 29.344265, -2.7408616 ], [ 29.3524462, -2.7349646 ], [ 29.3521887, -2.7312763 ], [ 29.3517036, -2.7243262 ], [ 29.3497356, -2.7243447 ], [ 29.3480832, -2.7199446 ], [ 29.3481203, -2.7165099 ], [ 29.3510537, -2.7128895 ], [ 29.3501254, -2.7005244 ], [ 29.3489929, -2.6999303 ], [ 29.3449084, -2.7024739 ], [ 29.3412508, -2.6998932 ], [ 29.3390786, -2.6988349 ], [ 29.337222, -2.6931537 ], [ 29.3342514, -2.6911671 ], [ 29.3340863, -2.6895787 ], [ 29.3296488, -2.6910373 ], [ 29.3290039, -2.6899585 ], [ 29.3274507, -2.68736 ], [ 29.3302865, -2.682474 ], [ 29.3308604, -2.6814852 ], [ 29.3677237, -2.6303279 ], [ 29.3397359, -2.5812505 ], [ 29.3449665, -2.5576024 ], [ 29.308527, -2.4963563 ], [ 29.2697502, -2.4829949 ], [ 29.280308, -2.4418562 ], [ 29.3235172, -2.4324693 ], [ 29.3185464, -2.3998066 ], [ 29.3430323, -2.3568668 ], [ 29.323164, -2.3132403 ], [ 29.3884373, -2.2393203 ], [ 29.4415689, -2.2759881 ], [ 29.5148487, -2.2335496 ], [ 29.5622391, -2.2057515 ] ] ] ] } },
{ "type": "Feature", "properties": { "POLYGON_ID": "RWA_GAUL1995_ADM1_2582", "ADM0_ISO3": "RWA", "ADM0_NAME": "Rwanda", "ADM0_CODE": 205, "ADM1_NAME": "Gisenyi", "ADM1_CODE": 2582, "GEOSET": "GAUL", "GEOSET_YEAR": 1995.0, "GEOSET_VERSION": "GAUL_v1", "GEOSET_UNIT": "ADM1", "CENTROID_LONG": 29.401876576703813, "CENTROID_LAT": -1.7863707217293221 }, "geometry": { "type": "MultiPolygon", "coordinates": [ [ [ [ 29.6225098, -1.9756669 ], [ 29.5671654, -1.975772 ], [ 29.5669289, -1.9468799 ], [ 29.5180912, -1.9449729 ], [ 29.4477768, -1.8624145 ], [ 29.3924885, -1.8436006 ], [ 29.3681774, -1.8526888 ], [ 29.3700733, -1.9331912 ], [ 29.3543224, -1.9854193 ], [ 29.3265116, -1.9982404 ], [ 29.1422673, -1.9941122 ], [ 29.1280556, -1.9488889 ], [ 29.1272219, -1.8602778 ], [ 29.1547219, -1.7983333 ], [ 29.1911108, -1.7586111 ], [ 29.2325208, -1.7148763 ], [ 29.2431846, -1.6997464 ], [ 29.2447296, -1.6975543 ], [ 29.2443142, -1.6817525 ], [ 29.2418245, -1.6687773 ], [ 29.2504408, -1.6642692 ], [ 29.2554777, -1.6591744 ], [ 29.2592988, -1.6514164 ], [ 29.2615599, -1.6482051 ], [ 29.267335, -1.640003 ], [ 29.2751153, -1.6289531 ], [ 29.3418342, -1.5341964 ], [ 29.3757629, -1.505982 ], [ 29.4500725, -1.5061287 ], [ 29.4500902, -1.5061492 ], [ 29.4509732, -1.5071748 ], [ 29.4516172, -1.5080552 ], [ 29.4531555, -1.5493869 ], [ 29.4530277, -1.6211512 ], [ 29.5052814, -1.6136206 ], [ 29.5586357, -1.6381965 ], [ 29.5849762, -1.6672064 ], [ 29.6400028, -1.6766478 ], [ 29.6355889, -1.7193544 ], [ 29.6588707, -1.7349951 ], [ 29.6732306, -1.7865699 ], [ 29.6633227, -1.8612988 ], [ 29.6730956, -1.9105436 ], [ 29.6434434, -1.9790424 ], [ 29.6225098, -1.9756669 ] ] ] ] } },
{ "type": "Feature", "properties": { "POLYGON_ID": "RWA_GAUL1995_ADM1_2583", "ADM0_ISO3": "RWA", "ADM0_NAME": "Rwanda", "ADM0_CODE": 205, "ADM1_NAME": "Gitarama", "ADM1_CODE": 2583, "GEOSET": "GAUL", "GEOSET_YEAR": 1995.0, "GEOSET_VERSION": "GAUL_v1", "GEOSET_UNIT": "ADM1", "CENTROID_LONG": 29.795415706696168, "CENTROID_LAT": -2.0759674498809355 }, "geometry": { "type": "MultiPolygon", "coordinates": [ [ [ [ 29.6535702, -2.3381889 ], [ 29.602602, -2.287045 ], [ 29.5629805, -2.2057066 ], [ 29.5635236, -2.2056737 ], [ 29.6091141, -2.1807369 ], [ 29.5987515, -2.1371452 ], [ 29.6193297, -2.1136386 ], [ 29.6385685, -2.0474419 ], [ 29.6225098, -1.9756669 ], [ 29.6434434, -1.9790424 ], [ 29.6730956, -1.9105436 ], [ 29.6633227, -1.8612988 ], [ 29.6732306, -1.7865699 ], [ 29.6588707, -1.7349951 ], [ 29.7103342, -1.7532695 ], [ 29.7463358, -1.7499865 ], [ 29.7964716, -1.8457611 ], [ 29.8626372, -1.868546 ], [ 29.9101402, -1.8573439 ], [ 29.9794048, -1.9086296 ], [ 30.0031467, -1.9612547 ], [ 30.0103478, -2.012982 ], [ 29.9842461, -2.045101 ], [ 30.0187318, -2.080118 ], [ 30.0207242, -2.112037 ], [ 29.9834168, -2.1551168 ], [ 29.9906774, -2.2156012 ], [ 29.973291, -2.2747855 ], [ 29.9732686, -2.2748108 ], [ 29.8704529, -2.2760134 ], [ 29.8566055, -2.3059039 ], [ 29.7861233, -2.3021953 ], [ 29.7745361, -2.3443546 ], [ 29.7368107, -2.3449442 ], [ 29.6874123, -2.3232937 ], [ 29.6535702, -2.3381889 ] ] ] ] } },
{ "type": "Feature", "properties": { "POLYGON_ID": "RWA_GAUL1995_ADM1_2584", "ADM0_ISO3": "RWA", "ADM0_NAME": "Rwanda", "ADM0_CODE": 205, "ADM1_NAME": "Kibungo", "ADM1_CODE": 2584, "GEOSET": "GAUL", "GEOSET_YEAR": 1995.0, "GEOSET_VERSION": "GAUL_v1", "GEOSET_UNIT": "ADM1", "CENTROID_LONG": 30.592544438328506, "CENTROID_LAT": -2.1421755485222382 }, "geometry": { "type": "MultiPolygon", "coordinates": [ [ [ [ 30.3746046, -2.3429512 ], [ 30.3491802, -2.3389709 ], [ 30.3204823, -2.2841289 ], [ 30.3334847, -2.2438712 ], [ 30.3132324, -2.2014377 ], [ 30.2746677, -2.2054975 ], [ 30.2574139, -2.1722622 ], [ 30.2642193, -2.1254067 ], [ 30.3559666, -2.0823834 ], [ 30.4332085, -2.0738711 ], [ 30.4160233, -2.0229199 ], [ 30.4227295, -1.9816965 ], [ 30.4062729, -1.9475414 ], [ 30.3685226, -1.9336992 ], [ 30.3505116, -1.8726188 ], [ 30.4155617, -1.8416872 ], [ 30.4598484, -1.8377923 ], [ 30.4965572, -1.8690746 ], [ 30.5296516, -1.8748167 ], [ 30.5686302, -1.9212357 ], [ 30.6168709, -1.8966703 ], [ 30.6508007, -1.9158188 ], [ 30.7481651, -1.9363172 ], [ 30.8082851, -1.9336921 ], [ 30.8076036, -1.9381758 ], [ 30.825304, -1.9664306 ], [ 30.8286784, -1.9718171 ], [ 30.8569802, -2.0169947 ], [ 30.8777832, -2.0502022 ], [ 30.8900208, -2.0628262 ], [ 30.8933057, -2.0671094 ], [ 30.8982329, -2.0701044 ], [ 30.8992059, -2.0747704 ], [ 30.8917599, -2.09371 ], [ 30.8868004, -2.0931948 ], [ 30.8864462, -2.1028238 ], [ 30.8742408, -2.1198599 ], [ 30.876173, -2.1346738 ], [ 30.8753917, -2.1351621 ], [ 30.8687016, -2.1393434 ], [ 30.8659643, -2.1436588 ], [ 30.8613913, -2.1548336 ], [ 30.860554, -2.1734477 ], [ 30.8601031, -2.1794054 ], [ 30.8525351, -2.1863294 ], [ 30.850152, -2.1984703 ], [ 30.8466763, -2.2027103 ], [ 30.844001, -2.2059739 ], [ 30.8454502, -2.2122537 ], [ 30.8456244, -2.2138456 ], [ 30.8459716, -2.2170171 ], [ 30.8461587, -2.2187268 ], [ 30.8466418, -2.2235896 ], [ 30.8432802, -2.2359035 ], [ 30.8423264, -2.2406901 ], [ 30.8440934, -2.2447503 ], [ 30.8468672, -2.2511242 ], [ 30.8458689, -2.2580159 ], [ 30.8515046, -2.2673551 ], [ 30.8536623, -2.2926999 ], [ 30.8501842, -2.3012662 ], [ 30.85054, -2.3051801 ], [ 30.8511826, -2.3122478 ], [ 30.8532436, -2.3137936 ], [ 30.8568183, -2.311797 ], [ 30.8526317, -2.3211362 ], [ 30.85117, -2.3215993 ], [ 30.8448061, -2.3236159 ], [ 30.839909, -2.3280072 ], [ 30.8273031, -2.3556752 ], [ 30.8198371, -2.3621964 ], [ 30.7971278, -2.3662382 ], [ 30.7964193, -2.3703603 ], [ 30.7922972, -2.3759316 ], [ 30.78832, -2.3775401 ], [ 30.7877265, -2.3775279 ], [ 30.786758, -2.3766401 ], [ 30.783441, -2.3796351 ], [ 30.7804782, -2.3846268 ], [ 30.7787829, -2.3863084 ], [ 30.7764849, -2.3885879 ], [ 30.7674033, -2.3914863 ], [ 30.7662762, -2.3903591 ], [ 30.7663406, -2.3887598 ], [ 30.7664694, -2.3855607 ], [ 30.7640541, -2.3825013 ], [ 30.7479198, -2.3796995 ], [ 30.7387094, -2.3731621 ], [ 30.7332346, -2.3634686 ], [ 30.7278485, -2.3615952 ], [ 30.7228997, -2.3596107 ], [ 30.7170359, -2.3553853 ], [ 30.7136989, -2.3563505 ], [ 30.7104663, -2.3572854 ], [ 30.7038644, -2.3623737 ], [ 30.6962642, -2.3631788 ], [ 30.6912081, -2.3700061 ], [ 30.6898908, -2.3818033 ], [ 30.683881, -2.3899455 ], [ 30.6800038, -2.3940554 ], [ 30.67349, -2.3968858 ], [ 30.6578259, -2.4131315 ], [ 30.6518937, -2.4128989 ], [ 30.6512699, -2.4126028 ], [ 30.645031, -2.409642 ], [ 30.6347806, -2.4036506 ], [ 30.6309953, -2.4035159 ], [ 30.6277288, -2.4016122 ], [ 30.6246754, -2.3998325 ], [ 30.6199521, -2.4011528 ], [ 30.6148272, -2.4025854 ], [ 30.6095541, -2.3991346 ], [ 30.6063748, -2.3994836 ], [ 30.5996688, -2.4015042 ], [ 30.5932309, -2.4038649 ], [ 30.5903229, -2.4055709 ], [ 30.5847785, -2.4135192 ], [ 30.5738834, -2.4185597 ], [ 30.5695409, -2.4189862 ], [ 30.5677527, -2.4175046 ], [ 30.5641127, -2.4144885 ], [ 30.5607486, -2.4136945 ], [ 30.5506905, -2.4113206 ], [ 30.5432535, -2.4132367 ], [ 30.5381781, -2.4099695 ], [ 30.5342144, -2.4049249 ], [ 30.5254319, -2.4046633 ], [ 30.5210131, -2.4045318 ], [ 30.5106289, -2.4006991 ], [ 30.5089096, -2.3923448 ], [ 30.5083031, -2.3893977 ], [ 30.5045987, -2.3872913 ], [ 30.4999499, -2.3846479 ], [ 30.4958768, -2.3790377 ], [ 30.4947414, -2.3774739 ], [ 30.4922395, -2.3771469 ], [ 30.4892808, -2.3756088 ], [ 30.485733, -2.3660415 ], [ 30.4826538, -2.3658777 ], [ 30.478297, -2.3683345 ], [ 30.4711886, -2.3663036 ], [ 30.469387, -2.3626675 ], [ 30.4709266, -2.3566728 ], [ 30.4701731, -2.3514316 ], [ 30.4605424, -2.3472058 ], [ 30.4586752, -2.3443559 ], [ 30.4591338, -2.3329562 ], [ 30.4632285, -2.3247668 ], [ 30.4623113, -2.3205411 ], [ 30.4583476, -2.318117 ], [ 30.4519599, -2.3179532 ], [ 30.4430498, -2.3218514 ], [ 30.4426696, -2.3223461 ], [ 30.4372844, -2.3293529 ], [ 30.4309005, -2.3283068 ], [ 30.4294881, -2.3280754 ], [ 30.4213315, -2.3227358 ], [ 30.4139937, -2.3138913 ], [ 30.4114162, -2.3117777 ], [ 30.4090801, -2.3098621 ], [ 30.4042975, -2.3120568 ], [ 30.404139, -2.3120677 ], [ 30.392865, -2.312843 ], [ 30.3878859, -2.317167 ], [ 30.3804826, -2.3255858 ], [ 30.3801551, -2.3301391 ], [ 30.3789758, -2.3338407 ], [ 30.3767155, -2.3408181 ], [ 30.3746046, -2.3429512 ] ] ] ] } },
{ "type": "Feature", "properties": { "POLYGON_ID": "RWA_GAUL1995_ADM1_2585", "ADM0_ISO3": "RWA", "ADM0_NAME": "Rwanda", "ADM0_CODE": 205, "ADM1_NAME": "Kibuye", "ADM1_CODE": 2585, "GEOSET": "GAUL", "GEOSET_YEAR": 1995.0, "GEOSET_VERSION": "GAUL_v1", "GEOSET_UNIT": "ADM1", "CENTROID_LONG": 29.389260169012257, "CENTROID_LAT": -2.0967175821608666 }, "geometry": { "type": "MultiPolygon", "coordinates": [ [ [ [ 29.323164, -2.3132403 ], [ 29.3132191, -2.2888 ], [ 29.2268829, -2.276386 ], [ 29.1706971, -2.2488959 ], [ 29.143469, -2.1899196 ], [ 29.1683333, -2.1249997 ], [ 29.1705556, -2.0863886 ], [ 29.1529602, -2.0282412 ], [ 29.1430556, -1.9961111 ], [ 29.1422673, -1.9941122 ], [ 29.3265116, -1.9982404 ], [ 29.3543224, -1.9854193 ], [ 29.3700733, -1.9331912 ], [ 29.3681774, -1.8526888 ], [ 29.3924885, -1.8436006 ], [ 29.4477768, -1.8624145 ], [ 29.5180912, -1.9449729 ], [ 29.5669289, -1.9468799 ], [ 29.5671654, -1.975772 ], [ 29.6225098, -1.9756669 ], [ 29.6385685, -2.0474419 ], [ 29.6193297, -2.1136386 ], [ 29.5987515, -2.1371452 ], [ 29.6091141, -2.1807369 ], [ 29.5635236, -2.2056737 ], [ 29.5622391, -2.2057515 ], [ 29.5148487, -2.2335496 ], [ 29.4415689, -2.2759881 ], [ 29.3884373, -2.2393203 ], [ 29.323164, -2.3132403 ] ] ] ] } },
{ "type": "Feature", "properties": { "POLYGON_ID": "RWA_GAUL1995_ADM1_2586", "ADM0_ISO3": "RWA", "ADM0_NAME": "Rwanda", "ADM0_CODE": 205, "ADM1_NAME": "Kigali-ngali", "ADM1_CODE": 2586, "GEOSET": "GAUL", "GEOSET_YEAR": 1995.0, "GEOSET_VERSION": "GAUL_v1", "GEOSET_UNIT": "ADM1", "CENTROID_LONG": 30.120459568732286, "CENTROID_LAT": -2.0359504557482651 }, "geometry": { "type": "MultiPolygon", "coordinates": [ [ [ [ 29.8782978, -1.6536396 ], [ 29.9364414, -1.7211395 ], [ 29.9769211, -1.7229574 ], [ 30.02812, -1.7042626 ], [ 30.0738544, -1.726661 ], [ 30.1064701, -1.7710248 ], [ 30.1412449, -1.7717841 ], [ 30.2173691, -1.8408384 ], [ 30.2462525, -1.8461891 ], [ 30.2865658, -1.8207891 ], [ 30.3169861, -1.8553685 ], [ 30.3505116, -1.8726188 ], [ 30.3685226, -1.9336992 ], [ 30.4062729, -1.9475414 ], [ 30.4227295, -1.9816965 ], [ 30.4160233, -2.0229199 ], [ 30.4332085, -2.0738711 ], [ 30.3559666, -2.0823834 ], [ 30.2642193, -2.1254067 ], [ 30.2574139, -2.1722622 ], [ 30.2746677, -2.2054975 ], [ 30.3132324, -2.2014377 ], [ 30.3334847, -2.2438712 ], [ 30.3204823, -2.2841289 ], [ 30.3491802, -2.3389709 ], [ 30.3746046, -2.3429512 ], [ 30.3736035, -2.3439628 ], [ 30.3737067, -2.3484288 ], [ 30.3731, -2.3516759 ], [ 30.3723866, -2.3554947 ], [ 30.2947388, -2.373509 ], [ 30.2778892, -2.3751396 ], [ 30.2564584, -2.3734314 ], [ 30.2498379, -2.3707388 ], [ 30.2438201, -2.3601056 ], [ 30.2374885, -2.3567426 ], [ 30.2184483, -2.3595956 ], [ 30.2178619, -2.3673984 ], [ 30.2145469, -2.3702033 ], [ 30.2135046, -2.3804395 ], [ 30.213272, -2.3827234 ], [ 30.2051122, -2.3867268 ], [ 30.1989414, -2.3977425 ], [ 30.19657, -2.4085797 ], [ 30.1913426, -2.4174279 ], [ 30.1824689, -2.4291831 ], [ 30.17946, -2.4298716 ], [ 30.1727172, -2.4274737 ], [ 30.1710707, -2.4268882 ], [ 30.1653334, -2.4266332 ], [ 30.1562556, -2.431631 ], [ 30.1482744, -2.432294 ], [ 30.1389671, -2.4372154 ], [ 30.1318018, -2.4377509 ], [ 30.1238206, -2.4359914 ], [ 30.1223462, -2.435105 ], [ 30.1106741, -2.4280874 ], [ 30.1071951, -2.4259957 ], [ 30.0977348, -2.4234968 ], [ 30.074301, -2.4015929 ], [ 30.0657307, -2.3954611 ], [ 30.0650703, -2.3949886 ], [ 30.0639804, -2.3936745 ], [ 30.0606048, -2.3882421 ], [ 30.0564515, -2.3767311 ], [ 30.0496687, -2.3659704 ], [ 30.0434724, -2.3579892 ], [ 30.0302638, -2.3479935 ], [ 30.0189931, -2.3434036 ], [ 29.9980582, -2.3438371 ], [ 29.9707793, -2.3314039 ], [ 29.9589813, -2.3273247 ], [ 29.9728091, -2.2753316 ], [ 29.973291, -2.2747855 ], [ 29.9906774, -2.2156012 ], [ 29.9834168, -2.1551168 ], [ 30.0207242, -2.112037 ], [ 30.0187318, -2.080118 ], [ 29.9842461, -2.045101 ], [ 30.0103478, -2.012982 ], [ 30.0031467, -1.9612547 ], [ 29.9794048, -1.9086296 ], [ 29.9101402, -1.8573439 ], [ 29.8626372, -1.868546 ], [ 29.7964716, -1.8457611 ], [ 29.7463358, -1.7499865 ], [ 29.7970047, -1.7068164 ], [ 29.7962399, -1.6710782 ], [ 29.8235607, -1.6507607 ], [ 29.8782978, -1.6536396 ] ], [ [ 30.0689144, -1.8884321 ], [ 30.0310364, -1.9425358 ], [ 30.030117, -1.9806011 ], [ 30.0545464, -1.9996471 ], [ 30.1421509, -2.0094037 ], [ 30.1640015, -1.968387 ], [ 30.1609573, -1.9255053 ], [ 30.0989399, -1.9263108 ], [ 30.0689144, -1.8884321 ] ] ] ] } },
{ "type": "Feature", "properties": { "POLYGON_ID": "RWA_GAUL1995_ADM1_2587", "ADM0_ISO3": "RWA", "ADM0_NAME": "Rwanda", "ADM0_CODE": 205, "ADM1_NAME": "Prefecture De La Ville De Kigali", "ADM1_CODE": 2587, "GEOSET": "GAUL", "GEOSET_YEAR": 1995.0, "GEOSET_VERSION": "GAUL_v1", "GEOSET_UNIT": "ADM1", "CENTROID_LONG": 30.095339268300368, "CENTROID_LAT": -1.9587998750475246 }, "geometry": { "type": "MultiPolygon", "coordinates": [ [ [ [ 30.0689144, -1.8884321 ], [ 30.0989399, -1.9263108 ], [ 30.1609573, -1.9255053 ], [ 30.1640015, -1.968387 ], [ 30.1421509, -2.0094037 ], [ 30.0545464, -1.9996471 ], [ 30.030117, -1.9806011 ], [ 30.0310364, -1.9425358 ], [ 30.0689144, -1.8884321 ] ] ] ] } },
{ "type": "Feature", "properties": { "POLYGON_ID": "RWA_GAUL1995_ADM1_2588", "ADM0_ISO3": "RWA", "ADM0_NAME": "Rwanda", "ADM0_CODE": 205, "ADM1_NAME": "Ruhengeri", "ADM1_CODE": 2588, "GEOSET": "GAUL", "GEOSET_YEAR": 1995.0, "GEOSET_VERSION": "GAUL_v1", "GEOSET_UNIT": "ADM1", "CENTROID_LONG": 29.702235221492963, "CENTROID_LAT": -1.5325305621872118 }, "geometry": { "type": "MultiPolygon", "coordinates": [ [ [ [ 29.8635641, -1.3595659 ], [ 29.8641767, -1.3595371 ], [ 29.871481, -1.3549051 ], [ 29.8786468, -1.3557789 ], [ 29.88311, -1.3563232 ], [ 29.8808409, -1.3586868 ], [ 29.8827513, -1.3750494 ], [ 29.8850504, -1.4011429 ], [ 29.8834492, -1.4071031 ], [ 29.8849341, -1.4106802 ], [ 29.8859809, -1.4152162 ], [ 29.8867351, -1.4245187 ], [ 29.8869861, -1.4276145 ], [ 29.8910546, -1.438865 ], [ 29.8975176, -1.4560997 ], [ 29.8983673, -1.4583655 ], [ 29.9041108, -1.4662116 ], [ 29.9093589, -1.4708118 ], [ 29.918939, -1.4740593 ], [ 29.9070911, -1.5033677 ], [ 29.917799, -1.5743141 ], [ 29.9103546, -1.6520729 ], [ 29.8782978, -1.6536396 ], [ 29.8235607, -1.6507607 ], [ 29.7962399, -1.6710782 ], [ 29.7970047, -1.7068164 ], [ 29.7463358, -1.7499865 ], [ 29.7103342, -1.7532695 ], [ 29.6588707, -1.7349951 ], [ 29.6355889, -1.7193544 ], [ 29.6400028, -1.6766478 ], [ 29.5849762, -1.6672064 ], [ 29.5586357, -1.6381965 ], [ 29.5052814, -1.6136206 ], [ 29.4530277, -1.6211512 ], [ 29.4531555, -1.5493869 ], [ 29.4516172, -1.5080552 ], [ 29.4509732, -1.5071748 ], [ 29.4500902, -1.5061492 ], [ 29.4500725, -1.5061287 ], [ 29.451537, -1.5061316 ], [ 29.4715286, -1.4794761 ], [ 29.4798734, -1.4683497 ], [ 29.4865158, -1.4594932 ], [ 29.5195403, -1.4208303 ], [ 29.5212047, -1.4188817 ], [ 29.5263527, -1.4128548 ], [ 29.5555017, -1.3934221 ], [ 29.5895089, -1.3866207 ], [ 29.5954237, -1.3870221 ], [ 29.6190235, -1.3886236 ], [ 29.6600297, -1.3853648 ], [ 29.674306, -1.3842303 ], [ 29.7341667, -1.3419444 ], [ 29.7418437, -1.343766 ], [ 29.7505556, -1.3458331 ], [ 29.7521116, -1.345812 ], [ 29.7606082, -1.3456973 ], [ 29.7941669, -1.3636108 ], [ 29.7990883, -1.3592237 ], [ 29.7978791, -1.3494989 ], [ 29.797603, -1.3485379 ], [ 29.8050155, -1.3388399 ], [ 29.8101402, -1.3294687 ], [ 29.8113993, -1.3291006 ], [ 29.818955, -1.3268918 ], [ 29.8231049, -1.3179918 ], [ 29.8199168, -1.3143787 ], [ 29.8243801, -1.3090653 ], [ 29.8250698, -1.3090993 ], [ 29.8320314, -1.313316 ], [ 29.8390959, -1.3210039 ], [ 29.8420205, -1.322455 ], [ 29.8420205, -1.3326311 ], [ 29.8496718, -1.3379701 ], [ 29.8616914, -1.3566547 ], [ 29.8635641, -1.3595659 ] ] ] ] } },
{ "type": "Feature", "properties": { "POLYGON_ID": "RWA_GAUL1995_ADM1_2589", "ADM0_ISO3": "RWA", "ADM0_NAME": "Rwanda", "ADM0_CODE": 205, "ADM1_NAME": "Umutara", "ADM1_CODE": 2589, "GEOSET": "GAUL", "GEOSET_YEAR": 1995.0, "GEOSET_VERSION": "GAUL_v1", "GEOSET_UNIT": "ADM1", "CENTROID_LONG": 30.507248084124342, "CENTROID_LAT": -1.5389148842914 }, "geometry": { "type": "MultiPolygon", "coordinates": [ [ [ [ 30.8082851, -1.9336921 ], [ 30.7481651, -1.9363172 ], [ 30.6508007, -1.9158188 ], [ 30.6168709, -1.8966703 ], [ 30.5686302, -1.9212357 ], [ 30.5296516, -1.8748167 ], [ 30.4965572, -1.8690746 ], [ 30.4598484, -1.8377923 ], [ 30.4155617, -1.8416872 ], [ 30.3505116, -1.8726188 ], [ 30.3169861, -1.8553685 ], [ 30.3282623, -1.8334777 ], [ 30.317152, -1.7852713 ], [ 30.3647671, -1.7170842 ], [ 30.3414555, -1.6880125 ], [ 30.3627491, -1.6422435 ], [ 30.311348, -1.5645436 ], [ 30.3123932, -1.5313452 ], [ 30.2659225, -1.4904299 ], [ 30.2457733, -1.4400856 ], [ 30.1653023, -1.4655769 ], [ 30.1483173, -1.4003654 ], [ 30.1286595, -1.3656057 ], [ 30.1365948, -1.3627701 ], [ 30.1370898, -1.3612851 ], [ 30.1388614, -1.3559703 ], [ 30.148621, -1.3485485 ], [ 30.1663894, -1.3424997 ], [ 30.1682015, -1.3412917 ], [ 30.1662761, -1.3317631 ], [ 30.1634266, -1.3264638 ], [ 30.1615153, -1.3197521 ], [ 30.1620525, -1.3184985 ], [ 30.1669577, -1.3070532 ], [ 30.1709488, -1.3048762 ], [ 30.1724091, -1.2801714 ], [ 30.1702231, -1.2754872 ], [ 30.1967095, -1.2787527 ], [ 30.1989024, -1.2753066 ], [ 30.1992493, -1.2747616 ], [ 30.2046917, -1.2722218 ], [ 30.2119482, -1.2747616 ], [ 30.2148357, -1.2690047 ], [ 30.2194177, -1.2661027 ], [ 30.2203605, -1.2632272 ], [ 30.220945, -1.2614444 ], [ 30.2260616, -1.2568624 ], [ 30.230949, -1.2546477 ], [ 30.2312305, -1.2541168 ], [ 30.2356752, -1.2457347 ], [ 30.2414834, -1.2426025 ], [ 30.2430585, -1.2417531 ], [ 30.2461825, -1.232381 ], [ 30.2492435, -1.2291742 ], [ 30.2504326, -1.2279285 ], [ 30.252743, -1.2255082 ], [ 30.2564918, -1.2183229 ], [ 30.263677, -1.2136369 ], [ 30.2747647, -1.2110109 ], [ 30.2781634, -1.2027935 ], [ 30.2786723, -1.1977044 ], [ 30.2883568, -1.1933308 ], [ 30.29147, -1.1897386 ], [ 30.292418, -1.1886447 ], [ 30.2917932, -1.1855207 ], [ 30.2936677, -1.1767734 ], [ 30.2941235, -1.1759594 ], [ 30.2980413, -1.1689634 ], [ 30.2977289, -1.1586541 ], [ 30.3000927, -1.1553591 ], [ 30.3015839, -1.1532805 ], [ 30.3017297, -1.1530772 ], [ 30.3064564, -1.1464884 ], [ 30.3080382, -1.1442836 ], [ 30.3195868, -1.140226 ], [ 30.319597, -1.1402224 ], [ 30.333436, -1.1333029 ], [ 30.3383412, -1.1308503 ], [ 30.3411352, -1.1284056 ], [ 30.3433396, -1.1264767 ], [ 30.3431199, -1.125692 ], [ 30.3423209, -1.1228383 ], [ 30.3418481, -1.1211497 ], [ 30.3411528, -1.1186666 ], [ 30.3403566, -1.1135481 ], [ 30.3402025, -1.1125578 ], [ 30.3401132, -1.1119836 ], [ 30.3396893, -1.1092586 ], [ 30.3396544, -1.1090339 ], [ 30.3393332, -1.1069692 ], [ 30.338966, -1.1046085 ], [ 30.3390598, -1.1016055 ], [ 30.3391451, -1.0988756 ], [ 30.3391738, -1.0979573 ], [ 30.339235, -1.096001 ], [ 30.3392784, -1.0946116 ], [ 30.3449016, -1.088676 ], [ 30.3455526, -1.0883756 ], [ 30.3489629, -1.0868016 ], [ 30.3511497, -1.0752427 ], [ 30.3551733, -1.0644912 ], [ 30.3593489, -1.0632996 ], [ 30.3615645, -1.0647766 ], [ 30.3661432, -1.0672876 ], [ 30.3740227, -1.0696849 ], [ 30.3752864, -1.0675788 ], [ 30.3744422, -1.06454 ], [ 30.376841, -1.0617542 ], [ 30.3772661, -1.0612606 ], [ 30.3860695, -1.0670312 ], [ 30.3887888, -1.0679673 ], [ 30.3911049, -1.0687646 ], [ 30.3922723, -1.0679863 ], [ 30.3986378, -1.0637427 ], [ 30.4051367, -1.0634473 ], [ 30.4129699, -1.0639119 ], [ 30.420745, -1.0643037 ], [ 30.4247767, -1.0645068 ], [ 30.427555, -1.0646468 ], [ 30.4305922, -1.0628245 ], [ 30.4306368, -1.0627977 ], [ 30.4312295, -1.0624421 ], [ 30.4310882, -1.0580609 ], [ 30.4333675, -1.0551153 ], [ 30.4339429, -1.0543718 ], [ 30.4347628, -1.0533122 ], [ 30.4381264, -1.0497225 ], [ 30.4395962, -1.0483657 ], [ 30.4437513, -1.0479135 ], [ 30.4508742, -1.0484223 ], [ 30.4680292, -1.0526408 ], [ 30.4705472, -1.0544429 ], [ 30.4735151, -1.0574108 ], [ 30.4681268, -1.0607356 ], [ 30.4641127, -1.0673433 ], [ 30.4526881, -1.081794 ], [ 30.4515765, -1.0892046 ], [ 30.4536762, -1.1033465 ], [ 30.4542442, -1.1047481 ], [ 30.4593576, -1.1173649 ], [ 30.4733142, -1.119094 ], [ 30.4768343, -1.121873 ], [ 30.4754757, -1.125393 ], [ 30.4695472, -1.1311362 ], [ 30.4680033, -1.1394114 ], [ 30.4726349, -1.1585554 ], [ 30.4777606, -1.1610256 ], [ 30.4848624, -1.1592347 ], [ 30.4979848, -1.1624469 ], [ 30.5011657, -1.1637428 ], [ 30.5099349, -1.1715857 ], [ 30.5092556, -1.175044 ], [ 30.5125286, -1.1816518 ], [ 30.5149371, -1.1923971 ], [ 30.5225329, -1.2006105 ], [ 30.5215449, -1.2051804 ], [ 30.5233676, -1.2101152 ], [ 30.5240768, -1.2120352 ], [ 30.5327225, -1.2212985 ], [ 30.5332165, -1.2248802 ], [ 30.5411829, -1.2338347 ], [ 30.5464939, -1.2458769 ], [ 30.5514343, -1.2504468 ], [ 30.5521136, -1.2708877 ], [ 30.5566217, -1.2736049 ], [ 30.5598947, -1.286944 ], [ 30.5599564, -1.296516 ], [ 30.5552013, -1.3065821 ], [ 30.5588856, -1.3141085 ], [ 30.5618334, -1.3201305 ], [ 30.563847, -1.324244 ], [ 30.5672435, -1.3264054 ], [ 30.5694819, -1.3376934 ], [ 30.5731407, -1.3390599 ], [ 30.5784306, -1.3376052 ], [ 30.5932308, -1.3464615 ], [ 30.5970925, -1.3477179 ], [ 30.6018123, -1.3492535 ], [ 30.6086723, -1.3514854 ], [ 30.6233667, -1.3768666 ], [ 30.6316662, -1.391202 ], [ 30.6712233, -1.3958864 ], [ 30.6846216, -1.397473 ], [ 30.721964, -1.4319793 ], [ 30.7396674, -1.4483381 ], [ 30.7439602, -1.4951079 ], [ 30.7462868, -1.520455 ], [ 30.799939, -1.5922236 ], [ 30.8280191, -1.6322165 ], [ 30.8387969, -1.6475666 ], [ 30.8459266, -1.6577211 ], [ 30.8440293, -1.660784 ], [ 30.8215392, -1.6970893 ], [ 30.8255337, -1.7428191 ], [ 30.8279196, -1.7701339 ], [ 30.8316426, -1.8127551 ], [ 30.824579, -1.845954 ], [ 30.8183445, -1.8752559 ], [ 30.8161223, -1.8857004 ], [ 30.814223, -1.894627 ], [ 30.813648, -1.8984103 ], [ 30.8082851, -1.9336921 ] ] ] ] } }
]
}
