{
"type": "FeatureCollection",
"name": "SAU_GAUL1994_ADM0",
"crs": { "type": "name", "properties": { "name": "urn:ogc:def:crs:OGC:1.3:CRS84" } },
"features": [
{ "type": "Feature", "properties": { "POLYGON_ID": "SAU_GAUL1994_ADM0_215", "ADM0_ISO3": "SAU", "ADM0_NAME": "Saudi Arabia", "ADM0_CODE": 215, "GEOSET": "GAUL", "GEOSET_YEAR": 1994.0, "GEOSET_VERSION": "GAUL_v1", "GEOSET_UNIT": "ADM0", "CENTROID_LONG": 44.544882379004079, "CENTROID_LAT": 24.124294851713348 }, "geometry": { "type": "MultiPolygon", "coordinates": [ [ [ [ 46.5530397, 29.1011702 ], [ 46.575737, 29.096389 ], [ 47.468245, 28.997331 ], [ 47.500209, 28.963439 ], [ 47.516328, 28.928239 ], [ 47.589704, 28.833753 ], [ 47.602558, 28.75596 ], [ 47.59821, 28.685572 ], [ 47.608446, 28.652294 ], [ 47.641437, 28.62729 ], [ 47.656308, 28.593413 ], [ 47.711542, 28.540146 ], [ 47.706987, 28.521394 ], [ 48.433273, 28.5314042 ], [ 48.4681092, 28.5037944 ], [ 48.5012865, 28.4916046 ], [ 48.5075074, 28.4283573 ], [ 48.5457073, 28.3997999 ], [ 48.5334029, 28.3886316 ], [ 48.5153033, 28.3372827 ], [ 48.5490306, 28.2758918 ], [ 48.5890084, 28.2505267 ], [ 48.6351841, 28.1975177 ], [ 48.6168847, 28.1811173 ], [ 48.6101661, 28.1278464 ], [ 48.6319231, 28.073423 ], [ 48.6680504, 28.035688 ], [ 48.7041024, 28.0158039 ], [ 48.7686954, 28.005798 ], [ 48.7554939, 27.9810911 ], [ 48.7564434, 27.9489026 ], [ 48.8245759, 27.8901048 ], [ 48.8312912, 27.8665929 ], [ 48.8887858, 27.8331505 ], [ 48.8937659, 27.8172412 ], [ 48.8135615, 27.8067704 ], [ 48.8051272, 27.7537909 ], [ 48.8315368, 27.7293622 ], [ 48.8215898, 27.6945184 ], [ 48.863555, 27.6860579 ], [ 48.8850893, 27.6644254 ], [ 48.8469909, 27.6147331 ], [ 48.8818085, 27.5932381 ], [ 48.9098061, 27.6272012 ], [ 48.9258692, 27.5905828 ], [ 48.972654, 27.6210228 ], [ 48.9887859, 27.6151227 ], [ 49.0463722, 27.5602082 ], [ 49.0778305, 27.5612297 ], [ 49.1040763, 27.5395448 ], [ 49.1295134, 27.534185 ], [ 49.1997021, 27.5409167 ], [ 49.2592299, 27.524071 ], [ 49.289562, 27.4785992 ], [ 49.313064, 27.4719821 ], [ 49.2910844, 27.4363099 ], [ 49.248412, 27.4279476 ], [ 49.2320641, 27.4431955 ], [ 49.1975935, 27.4429368 ], [ 49.1423875, 27.4179909 ], [ 49.213781, 27.370931 ], [ 49.2395292, 27.376746 ], [ 49.2561457, 27.3986797 ], [ 49.2794218, 27.3831568 ], [ 49.2579235, 27.3612526 ], [ 49.2427739, 27.3219886 ], [ 49.2949873, 27.3387819 ], [ 49.3253553, 27.323665 ], [ 49.3224675, 27.2712912 ], [ 49.3353121, 27.2545667 ], [ 49.327346, 27.2133676 ], [ 49.3344804, 27.1761336 ], [ 49.3922108, 27.196152 ], [ 49.4102515, 27.1627946 ], [ 49.3752374, 27.1495047 ], [ 49.3796379, 27.1246799 ], [ 49.4208795, 27.1181839 ], [ 49.4360357, 27.1483719 ], [ 49.5393165, 27.108584 ], [ 49.5407702, 27.1253315 ], [ 49.5093545, 27.1388997 ], [ 49.5046953, 27.1609742 ], [ 49.5321428, 27.1853112 ], [ 49.5716752, 27.1370072 ], [ 49.5898371, 27.0892893 ], [ 49.6205325, 27.064746 ], [ 49.7059166, 27.0998354 ], [ 49.695508, 27.0749713 ], [ 49.6606773, 27.074251 ], [ 49.6223759, 27.0588492 ], [ 49.6669211, 27.0129124 ], [ 49.6845592, 26.9696441 ], [ 49.7419883, 26.93279 ], [ 49.775028, 26.9037905 ], [ 49.8928724, 26.8541769 ], [ 49.9542731, 26.8512432 ], [ 50.0014639, 26.8193461 ], [ 50.0788884, 26.7222667 ], [ 50.1254276, 26.6882676 ], [ 50.0719275, 26.685848 ], [ 50.0441919, 26.6693559 ], [ 50.0293697, 26.7156135 ], [ 50.0081039, 26.7488792 ], [ 49.9925777, 26.7174405 ], [ 49.9963758, 26.6690972 ], [ 50.0212104, 26.6474909 ], [ 50.0121803, 26.6205313 ], [ 50.0191608, 26.5441872 ], [ 50.0744715, 26.4589538 ], [ 50.116571, 26.4556501 ], [ 50.1349457, 26.4318403 ], [ 50.1934356, 26.4071726 ], [ 50.2172193, 26.3807892 ], [ 50.2365009, 26.3382085 ], [ 50.2367629, 26.3102175 ], [ 50.2213579, 26.262719 ], [ 50.2299984, 26.2193328 ], [ 50.2262757, 26.1807924 ], [ 50.1810199, 26.139636 ], [ 50.1591026, 26.0727248 ], [ 50.1661846, 26.0383394 ], [ 50.1273463, 26.0519731 ], [ 50.1296611, 26.0751412 ], [ 50.1103598, 26.1097624 ], [ 50.0877484, 26.1223778 ], [ 50.0680345, 26.1826031 ], [ 50.0301424, 26.1864502 ], [ 50.0149338, 26.1430641 ], [ 49.9952626, 26.1160783 ], [ 50.014577, 26.0920458 ], [ 50.0033662, 26.0095168 ], [ 50.0186795, 25.9779733 ], [ 50.043046, 25.9995796 ], [ 50.0699204, 25.9855105 ], [ 50.1115156, 25.9821839 ], [ 50.1301719, 25.9317189 ], [ 50.1119838, 25.913688 ], [ 50.1172324, 25.876585 ], [ 50.1526033, 25.8145327 ], [ 50.1937532, 25.7531713 ], [ 50.221479, 25.744904 ], [ 50.2464217, 25.6855693 ], [ 50.2165808, 25.6880118 ], [ 50.1540505, 25.7237331 ], [ 50.1637192, 25.6925171 ], [ 50.2012085, 25.6595985 ], [ 50.2356333, 25.6051325 ], [ 50.2608379, 25.5896783 ], [ 50.2794615, 25.553682 ], [ 50.3136177, 25.5428576 ], [ 50.3162371, 25.5156884 ], [ 50.3378336, 25.4986921 ], [ 50.3756766, 25.4441181 ], [ 50.4011759, 25.4504896 ], [ 50.4654906, 25.4294006 ], [ 50.498406, 25.3991538 ], [ 50.5146164, 25.342959 ], [ 50.5373392, 25.294655 ], [ 50.5262038, 25.2459712 ], [ 50.5364159, 25.2121947 ], [ 50.5622689, 25.1881754 ], [ 50.5648522, 25.1433158 ], [ 50.5526952, 25.1318791 ], [ 50.5777754, 25.0610094 ], [ 50.5929741, 25.0641035 ], [ 50.6583824, 24.97758 ], [ 50.6835511, 24.9317317 ], [ 50.6916285, 24.8872061 ], [ 50.7127306, 24.8860143 ], [ 50.7369923, 24.8631474 ], [ 50.7371232, 24.8408633 ], [ 50.755403, 24.8114808 ], [ 50.7560185, 24.7712706 ], [ 50.7869071, 24.7264143 ], [ 50.8150283, 24.7394515 ], [ 50.8595306, 24.6733525 ], [ 50.928889, 24.545278 ], [ 51.0, 24.5 ], [ 51.098611, 24.471111 ], [ 51.3055157, 24.5063006 ], [ 51.3191842, 24.5030071 ], [ 51.3569552, 24.529934 ], [ 51.3547778, 24.5472217 ], [ 51.3899982, 24.5721513 ], [ 51.4112804, 24.6073586 ], [ 51.4507735, 24.6169879 ], [ 51.4581339, 24.5830052 ], [ 51.4921952, 24.5881915 ], [ 51.4904926, 24.5537897 ], [ 51.4637491, 24.5552991 ], [ 51.4527511, 24.5289616 ], [ 51.4301495, 24.5282543 ], [ 51.4249664, 24.501537 ], [ 51.4008947, 24.4721611 ], [ 51.348367, 24.4385516 ], [ 51.3306766, 24.4193158 ], [ 51.3142369, 24.3469957 ], [ 51.299657, 24.3453455 ], [ 51.3059074, 24.2847797 ], [ 51.3665976, 24.2807328 ], [ 51.3910557, 24.3082621 ], [ 51.4172099, 24.318972 ], [ 51.4794161, 24.3077121 ], [ 51.5087691, 24.2880015 ], [ 51.5537989, 24.2377297 ], [ 51.590556, 24.2429745 ], [ 51.590556, 24.123333 ], [ 52.310872, 23.2598017 ], [ 52.581111, 22.935833 ], [ 55.137222, 22.628056 ], [ 55.202778, 22.700556 ], [ 55.208333, 22.708333 ], [ 55.666667, 22.0 ], [ 55.6229822, 21.8698789 ], [ 55.3574753, 21.0790315 ], [ 55.336821, 21.01751 ], [ 54.9999779, 19.9999928 ], [ 54.260018, 19.759123 ], [ 53.513371, 19.512224 ], [ 53.0775904, 19.365859 ], [ 52.756411, 19.257985 ], [ 52.0, 19.0 ], [ 51.391238, 18.895432 ], [ 50.7840618, 18.7890167 ], [ 50.3739719, 18.7475197 ], [ 49.950051, 18.704679 ], [ 49.6723544, 18.675352 ], [ 49.116667, 18.616667 ], [ 48.9999736, 18.5604042 ], [ 48.183333, 18.166667 ], [ 47.5999997, 17.4499992 ], [ 47.466667, 17.116667 ], [ 47.183333, 16.95 ], [ 47.0, 16.95 ], [ 46.7499993, 17.2833329 ], [ 46.366667, 17.233333 ], [ 46.1, 17.25 ], [ 45.3999998, 17.3333331 ], [ 45.216667, 17.433333 ], [ 44.65, 17.433333 ], [ 44.566667, 17.405556 ], [ 44.466667, 17.433333 ], [ 44.366111, 17.433333 ], [ 44.138056, 17.408889 ], [ 44.130833, 17.383611 ], [ 44.100611, 17.366056 ], [ 44.066667, 17.405833 ], [ 44.0232779, 17.3913061 ], [ 44.01136, 17.4024704 ], [ 43.966667, 17.330556 ], [ 43.905556, 17.341667 ], [ 43.831944, 17.338889 ], [ 43.788889, 17.375 ], [ 43.683333, 17.366667 ], [ 43.617806, 17.426111 ], [ 43.566528, 17.483361 ], [ 43.527194, 17.51425 ], [ 43.4956938, 17.5268893 ], [ 43.484639, 17.545111 ], [ 43.445417, 17.55 ], [ 43.4196105, 17.5658328 ], [ 43.399222, 17.556639 ], [ 43.35475, 17.556389 ], [ 43.335889, 17.539833 ], [ 43.285361, 17.517278 ], [ 43.24075, 17.480528 ], [ 43.2564998, 17.4578334 ], [ 43.229671, 17.432074 ], [ 43.2470556, 17.4015007 ], [ 43.228028, 17.385528 ], [ 43.326, 17.328361 ], [ 43.3364983, 17.304 ], [ 43.267222, 17.292222 ], [ 43.198769, 17.244913 ], [ 43.2163032, 17.2103595 ], [ 43.183957, 17.185586 ], [ 43.151947, 17.174711 ], [ 43.160167, 17.086972 ], [ 43.185278, 17.098611 ], [ 43.227222, 17.075361 ], [ 43.239778, 17.023778 ], [ 43.179222, 17.025833 ], [ 43.17775, 16.968083 ], [ 43.19404, 16.944712 ], [ 43.144321, 16.925306 ], [ 43.137924, 16.907153 ], [ 43.150467, 16.877647 ], [ 43.179972, 16.849056 ], [ 43.221278, 16.838139 ], [ 43.232556, 16.806944 ], [ 43.266611, 16.794889 ], [ 43.211667, 16.709694 ], [ 43.227639, 16.701944 ], [ 43.2347205, 16.6428328 ], [ 43.157389, 16.666583 ], [ 43.129472, 16.592611 ], [ 43.120722, 16.528583 ], [ 42.992166, 16.5216932 ], [ 42.94475, 16.489806 ], [ 42.937972, 16.450722 ], [ 42.9465, 16.435306 ], [ 42.923306, 16.394694 ], [ 42.830611, 16.379528 ], [ 42.803667, 16.401278 ], [ 42.7645401, 16.40461 ], [ 42.7727237, 16.478438 ], [ 42.7353621, 16.5069103 ], [ 42.7059239, 16.5844527 ], [ 42.721414, 16.6233795 ], [ 42.7296421, 16.6777374 ], [ 42.7072401, 16.70933 ], [ 42.6637262, 16.7904085 ], [ 42.622059, 16.8310575 ], [ 42.5732999, 16.8444129 ], [ 42.5641453, 16.867653 ], [ 42.5306701, 16.8896424 ], [ 42.5544537, 16.9230423 ], [ 42.5398607, 16.9552668 ], [ 42.549919, 17.0041274 ], [ 42.4962322, 17.0429789 ], [ 42.4604716, 17.0477461 ], [ 42.4398083, 17.0655216 ], [ 42.4092569, 17.1113634 ], [ 42.4156448, 17.1485385 ], [ 42.3682969, 17.181814 ], [ 42.3564542, 17.1499398 ], [ 42.3321368, 17.2115894 ], [ 42.3331879, 17.2862309 ], [ 42.3264365, 17.3264542 ], [ 42.3071254, 17.3373245 ], [ 42.3183296, 17.3857496 ], [ 42.3187487, 17.4275543 ], [ 42.2835316, 17.4690349 ], [ 42.2579635, 17.4757896 ], [ 42.2353619, 17.5157084 ], [ 42.1917105, 17.543552 ], [ 42.1755131, 17.5651944 ], [ 42.1420182, 17.5698601 ], [ 42.1342453, 17.6078177 ], [ 42.074796, 17.6624212 ], [ 42.0157495, 17.7048316 ], [ 41.9607137, 17.7295255 ], [ 41.9444673, 17.7511515 ], [ 41.8918119, 17.7847773 ], [ 41.8609462, 17.8181347 ], [ 41.8293078, 17.8206984 ], [ 41.7071186, 17.925793 ], [ 41.6682737, 17.9644054 ], [ 41.6694786, 17.9873836 ], [ 41.6361278, 17.9970392 ], [ 41.6392514, 18.0547139 ], [ 41.5840356, 18.0944592 ], [ 41.5688827, 18.1652306 ], [ 41.5313835, 18.213014 ], [ 41.5087458, 18.280102 ], [ 41.480136, 18.2862804 ], [ 41.4777066, 18.3131679 ], [ 41.4586901, 18.3377407 ], [ 41.4422766, 18.391041 ], [ 41.4538018, 18.4154173 ], [ 41.4318451, 18.4653224 ], [ 41.4178251, 18.5144318 ], [ 41.3881839, 18.5350755 ], [ 41.3498236, 18.5814445 ], [ 41.2932196, 18.5836382 ], [ 41.2529177, 18.6180302 ], [ 41.2555305, 18.6336677 ], [ 41.236884, 18.6731576 ], [ 41.2025411, 18.7204237 ], [ 41.2360524, 18.8198049 ], [ 41.2332497, 18.8429304 ], [ 41.1823754, 18.8665635 ], [ 41.1564996, 18.8874102 ], [ 41.1430689, 18.9395515 ], [ 41.1268388, 18.9592719 ], [ 41.1407901, 18.9767822 ], [ 41.16404, 19.0352329 ], [ 41.1556679, 19.0903799 ], [ 41.09522, 19.1044556 ], [ 41.0687417, 19.1255708 ], [ 41.0395393, 19.198752 ], [ 41.0478131, 19.2511913 ], [ 41.0105661, 19.3135874 ], [ 40.9940445, 19.3309995 ], [ 40.9538016, 19.3494659 ], [ 40.9464674, 19.4232299 ], [ 40.9596002, 19.4685675 ], [ 40.9176481, 19.5348369 ], [ 40.870621, 19.5394633 ], [ 40.8145179, 19.5747754 ], [ 40.8026359, 19.6097043 ], [ 40.8020466, 19.6868309 ], [ 40.7889597, 19.7262128 ], [ 40.732503, 19.8011031 ], [ 40.6707224, 19.782843 ], [ 40.6556055, 19.794486 ], [ 40.6277881, 19.7793855 ], [ 40.6193113, 19.8156601 ], [ 40.5813078, 19.8365854 ], [ 40.5823392, 19.8646353 ], [ 40.5627072, 19.8957793 ], [ 40.5339926, 19.904338 ], [ 40.5466015, 19.9432681 ], [ 40.5362355, 19.9671106 ], [ 40.4950463, 19.985469 ], [ 40.4249886, 20.0277583 ], [ 40.4111814, 20.0534115 ], [ 40.3645669, 20.0767597 ], [ 40.2902462, 20.0964375 ], [ 40.257786, 20.1384846 ], [ 40.2360389, 20.1502651 ], [ 40.2337502, 20.1890968 ], [ 40.1668456, 20.1885533 ], [ 40.1468666, 20.2178114 ], [ 40.129294, 20.2231778 ], [ 40.1123436, 20.2657913 ], [ 40.0595867, 20.2837174 ], [ 40.0443225, 20.2762261 ], [ 39.9783936, 20.2719434 ], [ 39.9421353, 20.2936676 ], [ 39.9149236, 20.2658175 ], [ 39.8666654, 20.2933861 ], [ 39.8047769, 20.3401119 ], [ 39.7891623, 20.3422499 ], [ 39.7171139, 20.3996398 ], [ 39.6891655, 20.4335865 ], [ 39.6599697, 20.4495841 ], [ 39.644044, 20.4953801 ], [ 39.6161317, 20.5240292 ], [ 39.6149202, 20.5614825 ], [ 39.5637317, 20.5969812 ], [ 39.5334553, 20.6359309 ], [ 39.5195466, 20.672772 ], [ 39.4890247, 20.709875 ], [ 39.5061257, 20.7335571 ], [ 39.4845194, 20.7721106 ], [ 39.4637611, 20.7720877 ], [ 39.4561257, 20.7411925 ], [ 39.4236196, 20.8136567 ], [ 39.4063843, 20.8405639 ], [ 39.3632765, 20.8650712 ], [ 39.3629883, 20.9022986 ], [ 39.3388478, 20.9321002 ], [ 39.3078839, 20.9264097 ], [ 39.2701391, 20.9822246 ], [ 39.2801778, 20.9977573 ], [ 39.230479, 21.0814389 ], [ 39.1955238, 21.0952133 ], [ 39.1880325, 21.1203918 ], [ 39.2031068, 21.1431212 ], [ 39.1847256, 21.1601076 ], [ 39.1586827, 21.2284627 ], [ 39.1441847, 21.2314782 ], [ 39.1066363, 21.2973646 ], [ 39.1069998, 21.3205785 ], [ 39.1589545, 21.3518731 ], [ 39.1911692, 21.4083888 ], [ 39.1625364, 21.451883 ], [ 39.1804724, 21.4813146 ], [ 39.147246, 21.534854 ], [ 39.1134303, 21.5316191 ], [ 39.1023635, 21.579026 ], [ 39.1020263, 21.6150976 ], [ 39.0847517, 21.6964185 ], [ 39.0481791, 21.7542503 ], [ 39.0344767, 21.7951743 ], [ 38.9710165, 21.8555797 ], [ 38.9609648, 21.8972436 ], [ 38.9992301, 21.8743767 ], [ 39.0095176, 21.9209356 ], [ 38.974939, 21.9727986 ], [ 39.0001796, 21.979144 ], [ 39.0109255, 21.9988284 ], [ 39.0092557, 22.0399226 ], [ 39.0432286, 22.0548889 ], [ 39.0409039, 22.0911472 ], [ 39.0558342, 22.1418937 ], [ 39.0340739, 22.141599 ], [ 39.0342606, 22.1950959 ], [ 39.0764058, 22.2551869 ], [ 39.0747556, 22.3410556 ], [ 39.0989126, 22.3423161 ], [ 39.1290776, 22.3686897 ], [ 39.1298536, 22.4130221 ], [ 39.107707, 22.4088082 ], [ 39.090606, 22.3828472 ], [ 39.0687181, 22.4087133 ], [ 39.0836287, 22.4628911 ], [ 39.0735442, 22.490761 ], [ 39.0817002, 22.5508062 ], [ 39.0726242, 22.5770815 ], [ 39.0296473, 22.6359283 ], [ 39.0044884, 22.7209654 ], [ 39.0238683, 22.7451223 ], [ 38.962484, 22.7623576 ], [ 38.9392209, 22.8060842 ], [ 38.9131061, 22.8279623 ], [ 38.8812908, 22.8779787 ], [ 38.8685575, 22.9122135 ], [ 38.8896105, 22.9258472 ], [ 38.9086761, 22.8832141 ], [ 38.9380062, 22.8476172 ], [ 38.9733805, 22.8630648 ], [ 38.9304952, 22.9097088 ], [ 38.910657, 22.9683985 ], [ 38.8752238, 22.9690075 ], [ 38.8101593, 22.9923295 ], [ 38.7814185, 23.033188 ], [ 38.8019738, 23.0608221 ], [ 38.7993283, 23.1245769 ], [ 38.7303969, 23.2047158 ], [ 38.7178928, 23.236639 ], [ 38.697642, 23.2576495 ], [ 38.6361202, 23.4241252 ], [ 38.623603, 23.4929649 ], [ 38.5932841, 23.5436132 ], [ 38.5625853, 23.5247408 ], [ 38.5328721, 23.5437343 ], [ 38.5302921, 23.5980497 ], [ 38.4856388, 23.653701 ], [ 38.4688455, 23.7084518 ], [ 38.4546814, 23.7315937 ], [ 38.4607387, 23.7640376 ], [ 38.4254102, 23.8108813 ], [ 38.3934182, 23.8162739 ], [ 38.3578606, 23.8722722 ], [ 38.3037679, 23.8967369 ], [ 38.2885298, 23.9331425 ], [ 38.252838, 23.9466976 ], [ 38.1549105, 24.0000013 ], [ 38.1075626, 24.0452341 ], [ 38.0765299, 24.063062 ], [ 38.0274761, 24.0688507 ], [ 37.9870793, 24.1035832 ], [ 37.9361396, 24.1373597 ], [ 37.9002218, 24.1513372 ], [ 37.8636623, 24.1478895 ], [ 37.7576378, 24.2256251 ], [ 37.7472029, 24.2543495 ], [ 37.7095466, 24.2595914 ], [ 37.6880188, 24.2955157 ], [ 37.6254885, 24.2711067 ], [ 37.6235535, 24.2493465 ], [ 37.575184, 24.2439474 ], [ 37.5618254, 24.2643488 ], [ 37.5189172, 24.2703078 ], [ 37.5014495, 24.2859551 ], [ 37.4683999, 24.3385385 ], [ 37.4271255, 24.3673873 ], [ 37.4238284, 24.3928997 ], [ 37.4623787, 24.4331492 ], [ 37.4331861, 24.4670894 ], [ 37.4202858, 24.5019299 ], [ 37.374002, 24.5494219 ], [ 37.3415024, 24.6132226 ], [ 37.3218312, 24.621765 ], [ 37.2965741, 24.671228 ], [ 37.2248827, 24.7082459 ], [ 37.2304717, 24.7581935 ], [ 37.2227708, 24.7943274 ], [ 37.1963416, 24.7760935 ], [ 37.153679, 24.8273704 ], [ 37.1823936, 24.8467339 ], [ 37.224755, 24.8388235 ], [ 37.2659998, 24.8699282 ], [ 37.2506112, 24.897451 ], [ 37.25824, 24.932691 ], [ 37.280989, 24.9539503 ], [ 37.2855925, 24.9878544 ], [ 37.2545893, 25.0461283 ], [ 37.2447766, 25.0772494 ], [ 37.2672015, 25.1074701 ], [ 37.2519601, 25.1609342 ], [ 37.1915941, 25.2326813 ], [ 37.1201973, 25.2981158 ], [ 37.0896066, 25.3448744 ], [ 37.0729345, 25.4116579 ], [ 37.0748695, 25.4398747 ], [ 37.0093793, 25.4904903 ], [ 36.9967345, 25.5078598 ], [ 37.0005391, 25.5436303 ], [ 36.9728329, 25.5524509 ], [ 36.9664777, 25.6041862 ], [ 36.9356808, 25.6470158 ], [ 36.8795613, 25.6731241 ], [ 36.8217393, 25.7465313 ], [ 36.7987054, 25.7088815 ], [ 36.7658589, 25.7365385 ], [ 36.7127647, 25.7473924 ], [ 36.6889156, 25.7887224 ], [ 36.7024085, 25.8152334 ], [ 36.6491179, 25.8570643 ], [ 36.677636, 25.8884899 ], [ 36.7032925, 25.9339487 ], [ 36.7115402, 25.9873767 ], [ 36.7068712, 26.0220994 ], [ 36.686031, 26.0434275 ], [ 36.6528963, 26.057513 ], [ 36.5817353, 26.0574573 ], [ 36.4981815, 26.1155675 ], [ 36.4867055, 26.1383918 ], [ 36.4835524, 26.1799903 ], [ 36.4442819, 26.2519502 ], [ 36.4190707, 26.2790113 ], [ 36.3475593, 26.4042389 ], [ 36.3522414, 26.4150012 ], [ 36.2897405, 26.5383003 ], [ 36.252572, 26.5840144 ], [ 36.2304091, 26.6257242 ], [ 36.2053191, 26.6532076 ], [ 36.1676627, 26.6773089 ], [ 36.1558691, 26.709075 ], [ 36.1005551, 26.7353176 ], [ 36.0976673, 26.7635868 ], [ 36.0704981, 26.7972585 ], [ 36.0462135, 26.844924 ], [ 36.0507777, 26.8805078 ], [ 36.0223251, 26.8751218 ], [ 35.9984367, 26.908764 ], [ 36.0008759, 26.9342503 ], [ 35.9750819, 26.949521 ], [ 35.9621358, 26.9734651 ], [ 35.9194438, 26.9961421 ], [ 35.8717128, 27.0433983 ], [ 35.8431357, 27.0800168 ], [ 35.8047754, 27.1132104 ], [ 35.7905851, 27.1635575 ], [ 35.8173745, 27.1880615 ], [ 35.8034264, 27.235655 ], [ 35.7547885, 27.2906874 ], [ 35.7397207, 27.3219657 ], [ 35.6670404, 27.3568062 ], [ 35.6149613, 27.4225911 ], [ 35.590549, 27.4428419 ], [ 35.5905883, 27.4655843 ], [ 35.5461053, 27.50974 ], [ 35.5307035, 27.553172 ], [ 35.5304973, 27.6004937 ], [ 35.48182, 27.6554312 ], [ 35.4560653, 27.7310189 ], [ 35.424846, 27.7742086 ], [ 35.3770822, 27.7856912 ], [ 35.3571916, 27.7994657 ], [ 35.3530432, 27.83668 ], [ 35.3227898, 27.8787009 ], [ 35.2845048, 27.9131289 ], [ 35.266356, 27.9510111 ], [ 35.2094049, 27.9851641 ], [ 35.1711035, 27.9936017 ], [ 35.164601, 28.010359 ], [ 35.2201573, 28.0492693 ], [ 35.1106163, 28.0706628 ], [ 35.0561012, 28.116246 ], [ 35.0235656, 28.0897382 ], [ 35.0040679, 28.1108141 ], [ 34.93015, 28.0777252 ], [ 34.8643717, 28.0811533 ], [ 34.8113889, 28.1110204 ], [ 34.758907, 28.0960803 ], [ 34.7243153, 28.1202568 ], [ 34.6797701, 28.1197952 ], [ 34.6509507, 28.0929927 ], [ 34.6652753, 28.0806687 ], [ 34.6464095, 28.0394435 ], [ 34.6161724, 28.0335271 ], [ 34.6097321, 28.0996491 ], [ 34.5782934, 28.1132435 ], [ 34.6099383, 28.1414572 ], [ 34.6668927, 28.2226405 ], [ 34.6734116, 28.2552939 ], [ 34.7223508, 28.3485786 ], [ 34.7550009, 28.4433759 ], [ 34.8062484, 28.5235443 ], [ 34.7927031, 28.5740158 ], [ 34.7961345, 28.6105524 ], [ 34.775792, 28.6637447 ], [ 34.7935446, 28.6996559 ], [ 34.8163034, 28.775319 ], [ 34.8340921, 28.8114561 ], [ 34.8418748, 28.868214 ], [ 34.8264239, 28.8796311 ], [ 34.8322029, 28.9207646 ], [ 34.8648988, 29.0081689 ], [ 34.8533279, 29.0237376 ], [ 34.8740272, 29.0626283 ], [ 34.8951883, 29.1838025 ], [ 34.9103837, 29.2230501 ], [ 34.9409188, 29.2417588 ], [ 34.9276583, 29.2805185 ], [ 34.9570448, 29.3567102 ], [ 35.5178688, 29.2705036 ], [ 36.0665295, 29.1837499 ], [ 36.5003864, 29.5004332 ], [ 36.7498938, 29.8670984 ], [ 37.0327898, 29.91739 ], [ 37.4999291, 30.0004352 ], [ 37.6666034, 30.3337758 ], [ 37.9999524, 30.5004463 ], [ 37.5061847, 30.9977966 ], [ 37.2392098, 31.2628678 ], [ 36.9999036, 31.5004677 ], [ 37.4972996, 31.6282559 ], [ 37.9530656, 31.7433442 ], [ 38.5146344, 31.8825206 ], [ 39.0, 32.0004799 ], [ 39.1051259, 32.0824594 ], [ 39.1301811, 32.1354693 ], [ 39.1731969, 32.1354177 ], [ 39.200936, 32.15433 ], [ 39.791019, 32.055493 ], [ 40.1308247, 31.996821 ], [ 40.413311, 31.948046 ], [ 40.931854, 31.659857 ], [ 41.440812, 31.373181 ], [ 42.08558, 31.111673 ], [ 42.1760719, 31.0476498 ], [ 42.7719844, 30.6257226 ], [ 43.40964, 30.166813 ], [ 43.8172178, 29.86853 ], [ 44.062351, 29.689131 ], [ 44.426861, 29.417964 ], [ 44.721884, 29.19849 ], [ 45.5849, 29.131724 ], [ 45.9489044, 29.1012105 ], [ 46.426071, 29.061211 ], [ 46.5530397, 29.1011702 ] ] ], [ [ [ 50.0838979, 26.5373475 ], [ 50.0599473, 26.5398686 ], [ 50.0263967, 26.5701548 ], [ 50.0646883, 26.5917316 ], [ 50.0942312, 26.5649652 ], [ 50.0838979, 26.5373475 ] ] ], [ [ [ 49.5412057, 27.3545503 ], [ 49.6183323, 27.3084466 ], [ 49.5747693, 27.294587 ], [ 49.5361176, 27.3339328 ], [ 49.5004389, 27.3119532 ], [ 49.5140365, 27.2402094 ], [ 49.5448368, 27.2352523 ], [ 49.5594396, 27.207127 ], [ 49.5443587, 27.191758 ], [ 49.5180736, 27.2028739 ], [ 49.5092235, 27.2255181 ], [ 49.477071, 27.24073 ], [ 49.4894376, 27.2676044 ], [ 49.4598587, 27.2858744 ], [ 49.4920111, 27.3436997 ], [ 49.5412057, 27.3545503 ] ] ], [ [ [ 41.7870937, 16.8755503 ], [ 41.8206836, 16.8661011 ], [ 41.84782, 16.8470159 ], [ 41.8575247, 16.8038392 ], [ 41.8822316, 16.7650042 ], [ 41.9315081, 16.7555156 ], [ 41.955295, 16.7428478 ], [ 41.9910949, 16.7544875 ], [ 42.0169642, 16.7427266 ], [ 42.042267, 16.7683831 ], [ 42.0471358, 16.8069432 ], [ 42.0866977, 16.8211629 ], [ 42.1089425, 16.7672994 ], [ 42.1348511, 16.7509252 ], [ 42.1528591, 16.7240114 ], [ 42.1871135, 16.717021 ], [ 42.1872609, 16.6899305 ], [ 42.172216, 16.675511 ], [ 42.1869171, 16.592134 ], [ 42.1564607, 16.5901629 ], [ 42.1016803, 16.6479358 ], [ 42.1037103, 16.6897111 ], [ 42.0530424, 16.7015473 ], [ 41.9806502, 16.689996 ], [ 41.9480197, 16.6785789 ], [ 41.9019193, 16.7215853 ], [ 41.8695573, 16.7285167 ], [ 41.830087, 16.7680524 ], [ 41.8274906, 16.7882607 ], [ 41.7972765, 16.8172175 ], [ 41.7713056, 16.8115008 ], [ 41.7870937, 16.8755503 ] ] ], [ [ [ 42.041478, 16.6478573 ], [ 42.0326311, 16.6320331 ], [ 41.9997976, 16.6325636 ], [ 42.0067553, 16.6568842 ], [ 42.041478, 16.6478573 ] ] ], [ [ [ 41.9275397, 16.9226756 ], [ 41.9427287, 16.8888959 ], [ 41.9693969, 16.8792043 ], [ 41.9169183, 16.8496778 ], [ 41.93546, 16.8266865 ], [ 41.9599836, 16.8222794 ], [ 41.9815866, 16.7871082 ], [ 41.9282535, 16.797078 ], [ 41.8809023, 16.8253899 ], [ 41.8305028, 16.9060461 ], [ 41.8398212, 16.9214183 ], [ 41.8839277, 16.926418 ], [ 41.9227496, 16.9602403 ], [ 41.9402043, 16.9371213 ], [ 41.9275397, 16.9226756 ] ] ], [ [ [ 41.7776641, 16.7366498 ], [ 41.8219048, 16.699645 ], [ 41.7538248, 16.7040651 ], [ 41.7157559, 16.732783 ], [ 41.7430855, 16.7426153 ], [ 41.7776641, 16.7366498 ] ] ], [ [ [ 41.6848771, 16.9036166 ], [ 41.6724778, 16.8969602 ], [ 41.6438843, 16.9281926 ], [ 41.6715479, 16.9653873 ], [ 41.6934816, 16.9610196 ], [ 41.7232669, 16.9355202 ], [ 41.6848771, 16.9036166 ] ] ], [ [ [ 41.6288591, 16.8200432 ], [ 41.5814523, 16.8326618 ], [ 41.563811, 16.8634228 ], [ 41.5735746, 16.8884539 ], [ 41.6288591, 16.8200432 ] ] ], [ [ [ 38.9517807, 21.9740625 ], [ 38.9791725, 21.9551737 ], [ 38.9464798, 21.9243637 ], [ 38.9327806, 21.9769929 ], [ 38.9517807, 21.9740625 ] ] ], [ [ [ 37.1142841, 24.9630558 ], [ 37.0608495, 24.9575257 ], [ 37.078255, 24.9938036 ], [ 37.1142841, 24.9630558 ] ] ], [ [ [ 36.9767456, 25.4715852 ], [ 37.0223156, 25.4409749 ], [ 36.9844596, 25.427184 ], [ 36.9689268, 25.4546871 ], [ 36.9767456, 25.4715852 ] ] ], [ [ [ 36.9274855, 25.5848817 ], [ 36.9381757, 25.5161108 ], [ 36.9222436, 25.5162876 ], [ 36.9068254, 25.5545759 ], [ 36.9010465, 25.595048 ], [ 36.9274855, 25.5848817 ] ] ], [ [ [ 36.8347313, 25.4378022 ], [ 36.8536953, 25.4385192 ], [ 36.8948157, 25.4139662 ], [ 36.9091403, 25.3522806 ], [ 36.8910079, 25.3559247 ], [ 36.8649094, 25.3878906 ], [ 36.8253638, 25.4167787 ], [ 36.8347313, 25.4378022 ] ] ], [ [ [ 36.8447601, 25.5290733 ], [ 36.8234026, 25.5400909 ], [ 36.8503851, 25.5721811 ], [ 36.8721191, 25.551282 ], [ 36.8447601, 25.5290733 ] ] ], [ [ [ 36.5308807, 25.6316861 ], [ 36.604576, 25.5867447 ], [ 36.6594185, 25.580049 ], [ 36.6824622, 25.5591695 ], [ 36.6686255, 25.5441443 ], [ 36.6145884, 25.5765522 ], [ 36.5500609, 25.6009906 ], [ 36.5146637, 25.604959 ], [ 36.4915316, 25.6209861 ], [ 36.4887813, 25.650398 ], [ 36.5320103, 25.692982 ], [ 36.5308807, 25.6316861 ] ] ], [ [ [ 36.6143952, 25.8603614 ], [ 36.5948484, 25.8593857 ], [ 36.5663532, 25.8277146 ], [ 36.5475004, 25.7702363 ], [ 36.5717065, 25.7578632 ], [ 36.6032205, 25.6955916 ], [ 36.5456833, 25.7172077 ], [ 36.534299, 25.7930803 ], [ 36.5834837, 25.8643068 ], [ 36.6143952, 25.8603614 ] ] ], [ [ [ 35.2001193, 27.9713667 ], [ 35.2110518, 27.9337104 ], [ 35.1815711, 27.9357305 ], [ 35.1628395, 27.9887625 ], [ 35.2001193, 27.9713667 ] ] ], [ [ [ 34.7168436, 27.9520654 ], [ 34.7369962, 27.9135742 ], [ 34.7057998, 27.9003236 ], [ 34.688355, 27.9588102 ], [ 34.7168436, 27.9520654 ] ] ], [ [ [ 34.5564317, 27.9952617 ], [ 34.5045523, 27.9811434 ], [ 34.5290071, 27.9636167 ], [ 34.5672267, 27.9712096 ], [ 34.6232152, 27.9184789 ], [ 34.5674428, 27.9098743 ], [ 34.5490517, 27.9145826 ], [ 34.5055444, 27.9554215 ], [ 34.4956858, 27.9895843 ], [ 34.5169713, 28.0120091 ], [ 34.5564317, 27.9952617 ] ] ] ] } }
]
}
