{
"type": "FeatureCollection",
"name": "SDN_GAUL1992_ADM1",
"crs": { "type": "name", "properties": { "name": "urn:ogc:def:crs:OGC:1.3:CRS84" } },
"features": [
{ "type": "Feature", "properties": { "POLYGON_ID": "SDN_GAUL1992_ADM1_68786", "ADM0_ISO3": "SDN", "ADM0_NAME": "Sudan", "ADM0_CODE": 40764, "ADM1_NAME": "Bahr El Ghazal", "ADM1_CODE": 68786, "GEOSET": "GAUL", "GEOSET_YEAR": 1992.0, "GEOSET_VERSION": "GAUL_v1", "GEOSET_UNIT": "ADM1", "CENTROID_LONG": 27.581412084786706, "CENTROID_LAT": 7.9769563186822259 }, "geometry": { "type": "MultiPolygon", "coordinates": [ [ [ [ 27.9072208, 9.6101589 ], [ 28.0314274, 9.3598394 ], [ 28.0421219, 9.3436813 ], [ 28.3607464, 9.3469906 ], [ 28.7685852, 9.3484182 ], [ 28.7585907, 9.4031458 ], [ 28.9013596, 9.3507977 ], [ 28.9441891, 9.2860756 ], [ 28.8777466, 9.2152538 ], [ 28.8058872, 9.1838446 ], [ 28.7916107, 9.1467247 ], [ 28.8149281, 9.1143646 ], [ 28.8011284, 9.0915213 ], [ 28.7606773, 9.0862865 ], [ 28.7230816, 9.0567818 ], [ 28.7654362, 9.0253725 ], [ 28.8196869, 9.0329866 ], [ 29.1014156, 9.0501194 ], [ 29.15662, 8.9282904 ], [ 29.2498894, 8.7385921 ], [ 29.2946224, 8.6553106 ], [ 29.4602337, 8.5444279 ], [ 29.4906902, 8.5196819 ], [ 29.65868, 8.4078474 ], [ 29.6686745, 8.3121929 ], [ 29.6981792, 7.9505148 ], [ 29.7124329, 7.8293619 ], [ 29.9570656, 7.789187 ], [ 30.0037022, 7.6335702 ], [ 30.1593189, 7.247622 ], [ 30.2278481, 7.0610719 ], [ 30.3139839, 7.0586925 ], [ 30.3801327, 7.0458436 ], [ 30.4895878, 7.0491748 ], [ 30.5390816, 7.1043782 ], [ 30.570015, 7.1729069 ], [ 30.5938091, 7.1995568 ], [ 30.6528206, 7.2223997 ], [ 30.7194443, 7.2052674 ], [ 30.7508526, 7.1491122 ], [ 30.822237, 7.1058059 ], [ 30.8350868, 7.0458436 ], [ 30.8664951, 6.9801703 ], [ 30.8855305, 6.9877849 ], [ 30.9749985, 6.9459062 ], [ 31.1044407, 6.8478723 ], [ 31.2067585, 6.7907653 ], [ 31.2172279, 6.7512665 ], [ 31.3185921, 6.6365762 ], [ 31.3509541, 6.5442533 ], [ 31.4080601, 6.4833388 ], [ 31.4228134, 6.403389 ], [ 31.4684982, 6.3667455 ], [ 31.5470219, 6.1854305 ], [ 31.5703392, 6.1135707 ], [ 31.6169777, 6.0340967 ], [ 31.6916924, 5.8656306 ], [ 31.6866722, 5.8161597 ], [ 31.5643673, 5.8794532 ], [ 31.4825153, 5.8875432 ], [ 31.1874619, 5.9260907 ], [ 30.9999599, 5.9137173 ], [ 30.8548126, 6.0403047 ], [ 30.6083012, 6.246366 ], [ 30.5002728, 6.0831351 ], [ 30.1695271, 6.083611 ], [ 30.1866608, 6.1416698 ], [ 30.1138477, 6.2611189 ], [ 30.0871983, 6.3734293 ], [ 29.7712059, 6.3729534 ], [ 29.7983322, 6.2187643 ], [ 29.7835789, 6.1607056 ], [ 29.7997589, 6.1069298 ], [ 29.7726345, 6.0588646 ], [ 29.6960144, 6.0012817 ], [ 29.6431904, 5.9765353 ], [ 29.6408119, 5.9270425 ], [ 29.6060715, 5.8275809 ], [ 29.583704, 5.7890339 ], [ 29.5784702, 5.7324023 ], [ 29.591795, 5.6805301 ], [ 29.3981075, 5.7000418 ], [ 29.0026398, 5.7352576 ], [ 28.9783707, 5.7933168 ], [ 28.944582, 5.8099728 ], [ 28.8351269, 5.839478 ], [ 28.8118076, 5.8580379 ], [ 28.7651691, 5.9270425 ], [ 28.72472, 5.9655895 ], [ 28.6709442, 6.0593405 ], [ 28.6095524, 6.0731411 ], [ 28.5814762, 6.0907493 ], [ 28.5459061, 6.2453308 ], [ 28.5059319, 6.2805467 ], [ 28.4854679, 6.3243289 ], [ 28.5097389, 6.3914294 ], [ 28.4673843, 6.4637651 ], [ 28.4678612, 6.5004086 ], [ 28.5006981, 6.5006909 ], [ 28.5011902, 6.7525649 ], [ 28.0448093, 6.7506609 ], [ 27.9410648, 6.8006296 ], [ 27.9082279, 6.8025332 ], [ 27.4180584, 6.7539926 ], [ 27.0911217, 6.7240109 ], [ 26.7337265, 6.6887951 ], [ 26.4103343, 6.6549015 ], [ 26.3206666, 6.7045787 ], [ 26.2830345, 6.7026917 ], [ 26.2824479, 6.7025175 ], [ 26.2557633, 6.7153296 ], [ 26.2593297, 6.7279641 ], [ 26.2073558, 6.7476629 ], [ 26.2073541, 6.7477142 ], [ 26.1867652, 6.7766795 ], [ 26.1826713, 6.78206 ], [ 26.174962, 6.7921923 ], [ 26.1728997, 6.7949028 ], [ 26.1748915, 6.8062221 ], [ 26.1729244, 6.8099105 ], [ 26.1218725, 6.8147843 ], [ 26.1199402, 6.8136365 ], [ 26.0699587, 6.8298811 ], [ 26.0849526, 6.9004789 ], [ 26.0753366, 6.9008625 ], [ 26.0405823, 6.9260433 ], [ 26.0362252, 6.9270215 ], [ 26.0452675, 6.9965465 ], [ 26.0394059, 7.0040828 ], [ 26.0363587, 7.0052609 ], [ 26.0001587, 7.0079424 ], [ 26.0001156, 7.0079786 ], [ 25.9835396, 7.039756 ], [ 25.9465124, 7.0402308 ], [ 25.9422294, 7.0402308 ], [ 25.9365292, 7.0454663 ], [ 25.9338848, 7.0598215 ], [ 25.9034, 7.0786147 ], [ 25.9064603, 7.0832051 ], [ 25.9024789, 7.0873717 ], [ 25.9011365, 7.088647 ], [ 25.8928901, 7.0911262 ], [ 25.879077, 7.0867642 ], [ 25.8448893, 7.1062322 ], [ 25.8402102, 7.1074799 ], [ 25.8229369, 7.1294648 ], [ 25.822876, 7.1297084 ], [ 25.822876, 7.1338737 ], [ 25.8237461, 7.1350483 ], [ 25.8039639, 7.1529707 ], [ 25.7874348, 7.151341 ], [ 25.7837793, 7.1541822 ], [ 25.7560265, 7.1757524 ], [ 25.7059264, 7.1897399 ], [ 25.6991887, 7.1937578 ], [ 25.6934414, 7.1956394 ], [ 25.6849057, 7.1936535 ], [ 25.6198198, 7.2192417 ], [ 25.549545, 7.2572281 ], [ 25.5001627, 7.305186 ], [ 25.4493559, 7.3056608 ], [ 25.4464189, 7.3072812 ], [ 25.4132688, 7.341273 ], [ 25.3813942, 7.3351037 ], [ 25.3786062, 7.3369996 ], [ 25.3704532, 7.3408904 ], [ 25.3604657, 7.3456567 ], [ 25.3557913, 7.3478875 ], [ 25.3363463, 7.4129724 ], [ 25.3344214, 7.4229178 ], [ 25.3068894, 7.4341562 ], [ 25.3062004, 7.4348893 ], [ 25.3044367, 7.4367655 ], [ 25.2930315, 7.4488987 ], [ 25.2902996, 7.451805 ], [ 25.2858417, 7.4621653 ], [ 25.2853199, 7.4636906 ], [ 25.2762122, 7.4738444 ], [ 25.2749352, 7.4743309 ], [ 25.2024443, 7.4927438 ], [ 25.1815518, 7.5573207 ], [ 25.1815137, 7.564077 ], [ 25.1658824, 7.578688 ], [ 25.2309341, 7.631869 ], [ 25.2866603, 7.6559444 ], [ 25.2869687, 7.6567184 ], [ 25.2892884, 7.662541 ], [ 25.2803164, 7.7059425 ], [ 25.2836402, 7.7952105 ], [ 25.2535704, 7.8112614 ], [ 25.2427778, 7.8427778 ], [ 25.241954, 7.8445486 ], [ 25.2238116, 7.8683343 ], [ 25.2237083, 7.8685973 ], [ 25.1682565, 7.9143928 ], [ 25.0845217, 7.8950847 ], [ 25.0520578, 7.9315412 ], [ 24.9990885, 7.9637174 ], [ 24.9976208, 7.9636097 ], [ 24.9675445, 7.9845722 ], [ 24.962923, 8.0051091 ], [ 24.9579485, 8.0140815 ], [ 24.9560555, 8.016619 ], [ 24.9536802, 8.019803 ], [ 24.9284964, 8.0386901 ], [ 24.9251436, 8.0387983 ], [ 24.9012155, 8.0510293 ], [ 24.8886421, 8.1196992 ], [ 24.8586594, 8.1748287 ], [ 24.834451, 8.1689017 ], [ 24.7686184, 8.1843748 ], [ 24.7622769, 8.1807724 ], [ 24.728137, 8.2092315 ], [ 24.7269294, 8.2091903 ], [ 24.698652, 8.2082261 ], [ 24.6858827, 8.2077907 ], [ 24.6220857, 8.2193668 ], [ 24.5993832, 8.2156477 ], [ 24.5632869, 8.2031372 ], [ 24.5625666, 8.2028554 ], [ 24.5595245, 8.201665 ], [ 24.5563296, 8.2037949 ], [ 24.5429795, 8.2097038 ], [ 24.5386816, 8.2083285 ], [ 24.538632, 8.2083126 ], [ 24.5323179, 8.2149589 ], [ 24.5099534, 8.2306501 ], [ 24.4954224, 8.2349031 ], [ 24.4941784, 8.2377644 ], [ 24.4821257, 8.2838104 ], [ 24.4347318, 8.2789912 ], [ 24.4255102, 8.2780535 ], [ 24.4146837, 8.2762783 ], [ 24.4075608, 8.2743249 ], [ 24.3881062, 8.2634415 ], [ 24.3843122, 8.2600691 ], [ 24.3620735, 8.2517841 ], [ 24.3600959, 8.2510473 ], [ 24.3550382, 8.2541085 ], [ 24.34856, 8.2580295 ], [ 24.3420524, 8.2619684 ], [ 24.3255669, 8.2646686 ], [ 24.3088333, 8.2674094 ], [ 24.2757406, 8.2755483 ], [ 24.2522359, 8.2850875 ], [ 24.219419, 8.29596 ], [ 24.2115974, 8.3004316 ], [ 24.153942, 8.3739311 ], [ 24.1555177, 8.4079197 ], [ 24.1610518, 8.4160649 ], [ 24.164272, 8.4442521 ], [ 24.1641666, 8.4452778 ], [ 24.1646508, 8.4461697 ], [ 24.1622879, 8.4804584 ], [ 24.2038768, 8.5003675 ], [ 24.2169812, 8.5365148 ], [ 24.2337911, 8.5658596 ], [ 24.2551375, 8.5926516 ], [ 24.2234771, 8.6412444 ], [ 24.2465553, 8.6517906 ], [ 24.3836136, 8.7897997 ], [ 24.5268574, 8.8450031 ], [ 24.5792046, 8.9240007 ], [ 24.577301, 8.9539824 ], [ 24.5430374, 9.0629616 ], [ 24.565403, 9.1847897 ], [ 24.625843, 9.3208952 ], [ 24.6010952, 9.3818092 ], [ 24.6562996, 9.4165497 ], [ 24.7391052, 9.4822226 ], [ 24.7543335, 9.5193424 ], [ 24.7533817, 9.5831118 ], [ 24.7348213, 9.618804 ], [ 24.7395802, 9.7120781 ], [ 24.7257786, 9.7506256 ], [ 24.7624226, 9.7634745 ], [ 24.8238125, 9.82201 ], [ 24.8537941, 9.8762617 ], [ 24.9461174, 9.931941 ], [ 25.0117912, 10.041872 ], [ 25.053194, 10.0965996 ], [ 25.0593796, 10.1213455 ], [ 25.028923, 10.1736937 ], [ 25.0736561, 10.2674446 ], [ 25.1269569, 10.3255033 ], [ 25.1902504, 10.3321657 ], [ 25.2544956, 10.351202 ], [ 25.3396797, 10.3359728 ], [ 25.362524, 10.3540573 ], [ 25.4629364, 10.3740444 ], [ 25.5352726, 10.3607197 ], [ 25.6256924, 10.3964119 ], [ 25.7438335, 10.4051685 ], [ 25.8132248, 10.4398651 ], [ 25.8517246, 10.4389143 ], [ 25.9182644, 10.4075451 ], [ 25.9325237, 10.375226 ], [ 25.931097, 10.1841593 ], [ 25.985281, 10.164197 ], [ 26.0499191, 10.1171436 ], [ 26.1140842, 10.0116291 ], [ 26.1159859, 9.9949942 ], [ 26.211256, 9.913332 ], [ 26.2666512, 9.7473679 ], [ 26.3137054, 9.6366253 ], [ 26.3479271, 9.5943241 ], [ 26.3959312, 9.5658073 ], [ 26.5095253, 9.529685 ], [ 26.7039185, 9.4883347 ], [ 26.7504978, 9.4968901 ], [ 26.853159, 9.5315857 ], [ 26.9924202, 9.5938492 ], [ 27.1373825, 9.6242676 ], [ 27.2367191, 9.6256933 ], [ 27.4672337, 9.6209402 ], [ 27.8222752, 9.6019287 ], [ 27.9072208, 9.6101589 ] ] ] ] } },
{ "type": "Feature", "properties": { "POLYGON_ID": "SDN_GAUL1992_ADM1_68787", "ADM0_ISO3": "SDN", "ADM0_NAME": "Sudan", "ADM0_CODE": 40764, "ADM1_NAME": "Blue Nile", "ADM1_CODE": 68787, "GEOSET": "GAUL", "GEOSET_YEAR": 1992.0, "GEOSET_VERSION": "GAUL_v1", "GEOSET_UNIT": "ADM1", "CENTROID_LONG": 33.462486520474933, "CENTROID_LAT": 12.921245950374256 }, "geometry": { "type": "MultiPolygon", "coordinates": [ [ [ [ 33.5691948, 15.4553909 ], [ 33.5901337, 15.4463491 ], [ 33.6287689, 15.3942947 ], [ 33.640667, 15.3157721 ], [ 33.7111015, 15.3105373 ], [ 34.0166245, 15.1839504 ], [ 34.1741447, 14.9426727 ], [ 34.3035851, 14.7508888 ], [ 34.2755089, 14.6718903 ], [ 33.9209671, 14.1722031 ], [ 33.9081192, 14.1303253 ], [ 33.9519005, 14.0889225 ], [ 33.953331, 14.0575132 ], [ 33.981884, 13.9989786 ], [ 34.0128174, 13.9866056 ], [ 34.0251884, 13.9475822 ], [ 34.0585022, 13.9347334 ], [ 34.0612755, 13.9028578 ], [ 34.0955391, 13.8214808 ], [ 34.1207619, 13.8148184 ], [ 34.1559792, 13.7462893 ], [ 34.1916695, 13.7500963 ], [ 34.2245064, 13.7263021 ], [ 34.2682877, 13.7191639 ], [ 34.3120689, 13.7315369 ], [ 34.3168297, 13.6829958 ], [ 34.2644806, 13.6520624 ], [ 34.3648949, 13.495018 ], [ 34.5723839, 13.2537413 ], [ 34.6589165, 13.1765394 ], [ 34.7099838, 13.1893053 ], [ 34.7686653, 13.1833344 ], [ 34.7888451, 13.1666555 ], [ 34.8201447, 13.1038532 ], [ 34.8094368, 13.0826445 ], [ 34.883564, 13.0424919 ], [ 34.9053917, 12.9786596 ], [ 34.9578972, 12.9700117 ], [ 34.975605, 12.9325361 ], [ 35.0163765, 12.942832 ], [ 35.0596161, 12.9292421 ], [ 35.0804138, 12.8989725 ], [ 35.1333313, 12.9045324 ], [ 35.1697769, 12.8738518 ], [ 35.2058105, 12.8213453 ], [ 35.2852936, 12.7939587 ], [ 35.3151512, 12.7743979 ], [ 35.333889, 12.7377453 ], [ 35.419754, 12.7350693 ], [ 35.4419899, 12.7192135 ], [ 35.4864655, 12.7305393 ], [ 35.5167351, 12.7144775 ], [ 35.5548286, 12.7311563 ], [ 35.6021881, 12.7023296 ], [ 35.6802292, 12.6846209 ], [ 35.7071188, 12.6665642 ], [ 35.6946473, 12.6614551 ], [ 35.6920362, 12.6607907 ], [ 35.6875702, 12.6573683 ], [ 35.6893704, 12.6421894 ], [ 35.689604, 12.6402197 ], [ 35.6903307, 12.625939 ], [ 35.68818, 12.61576 ], [ 35.6875434, 12.61492 ], [ 35.6830196, 12.6089505 ], [ 35.68189, 12.60746 ], [ 35.6805168, 12.6070256 ], [ 35.67089, 12.60398 ], [ 35.6477696, 12.6039088 ], [ 35.6449081, 12.6038989 ], [ 35.5611303, 12.4709605 ], [ 35.5416377, 12.4292811 ], [ 35.4284711, 12.2479126 ], [ 35.4374409, 12.2281791 ], [ 35.4058283, 12.1866678 ], [ 35.3960934, 12.1834319 ], [ 35.3385784, 12.0827431 ], [ 35.3337013, 12.0730917 ], [ 35.3424809, 12.0337311 ], [ 35.30565, 12.01656 ], [ 35.30217, 12.01217 ], [ 35.2752006, 11.935951 ], [ 35.270665, 11.9322277 ], [ 35.2517723, 11.916725 ], [ 35.10958, 11.81582 ], [ 35.0547106, 11.7343712 ], [ 35.0667104, 11.6755793 ], [ 35.0924299, 11.6235193 ], [ 35.0895908, 11.546479 ], [ 35.06085, 11.47298 ], [ 35.0594199, 11.4377918 ], [ 34.9988801, 11.3457298 ], [ 34.9556225, 11.2537499 ], [ 34.9575894, 11.2367416 ], [ 34.9660113, 11.2269623 ], [ 34.9664489, 11.2264547 ], [ 34.9871422, 11.202422 ], [ 34.9959269, 11.1884197 ], [ 35.0000004, 11.1819282 ], [ 35.00696, 11.15977 ], [ 34.9705849, 11.0168582 ], [ 34.95246, 10.9674897 ], [ 34.97427, 10.90636 ], [ 34.9724, 10.9007 ], [ 34.9444211, 10.8722608 ], [ 34.922556, 10.8452393 ], [ 34.90387, 10.80881 ], [ 34.84824, 10.74296 ], [ 34.83335, 10.74425 ], [ 34.8066921, 10.7318986 ], [ 34.786639, 10.7064972 ], [ 34.7815088, 10.7082913 ], [ 34.77729, 10.7128607 ], [ 34.7801, 10.74392 ], [ 34.7753501, 10.7595195 ], [ 34.7621001, 10.7589725 ], [ 34.7564907, 10.7628495 ], [ 34.74842, 10.77276 ], [ 34.69906, 10.82846 ], [ 34.6019807, 10.9041296 ], [ 34.5910864, 10.8958378 ], [ 34.5778791, 10.8857854 ], [ 34.5416006, 10.8581805 ], [ 34.522304, 10.8472501 ], [ 34.5079059, 10.8389503 ], [ 34.5006484, 10.8335395 ], [ 34.4721425, 10.8160674 ], [ 34.4170075, 10.7296677 ], [ 34.41286, 10.72573 ], [ 34.4037106, 10.7085527 ], [ 34.3919325, 10.6864403 ], [ 34.3844597, 10.6724097 ], [ 34.3323578, 10.6202723 ], [ 34.3008533, 10.590021 ], [ 34.29986, 10.58783 ], [ 34.2863672, 10.5130922 ], [ 34.28983, 10.50891 ], [ 34.30401, 10.50787 ], [ 34.30891, 10.50561 ], [ 34.3161396, 10.493974 ], [ 34.3254271, 10.4753981 ], [ 34.3246267, 10.4689146 ], [ 34.32412, 10.46481 ], [ 34.31308, 10.45162 ], [ 34.30282, 10.42878 ], [ 34.2997917, 10.4188426 ], [ 34.2962788, 10.4010493 ], [ 34.2959896, 10.3958891 ], [ 34.3018797, 10.377851 ], [ 34.3148866, 10.341632 ], [ 34.3174077, 10.3229312 ], [ 34.3363975, 10.2564996 ], [ 34.3435311, 10.2315326 ], [ 34.3499044, 10.2092261 ], [ 34.3332806, 10.1381407 ], [ 34.3327898, 10.1354089 ], [ 34.2736874, 10.077521 ], [ 34.24977, 10.06128 ], [ 34.2245194, 9.9992717 ], [ 34.2214502, 9.983369 ], [ 34.2215922, 9.9827645 ], [ 34.2226922, 9.8935187 ], [ 34.1516172, 9.7035495 ], [ 34.14821, 9.69195 ], [ 34.1355048, 9.6522878 ], [ 34.1321973, 9.643722 ], [ 34.1240718, 9.6226782 ], [ 34.1134798, 9.5906492 ], [ 34.1132451, 9.4986362 ], [ 33.8995705, 9.4986362 ], [ 33.8876724, 9.5462255 ], [ 33.8876724, 9.6237965 ], [ 33.918129, 9.7565699 ], [ 33.9652443, 9.8027315 ], [ 33.9771385, 9.8803024 ], [ 33.9928436, 9.910759 ], [ 33.9885597, 9.9697695 ], [ 33.9995079, 9.9997511 ], [ 33.9957008, 10.0620928 ], [ 33.9709549, 10.0930262 ], [ 33.9661942, 10.1539402 ], [ 33.901474, 10.1615543 ], [ 33.7939224, 10.337635 ], [ 33.6678085, 10.4413795 ], [ 33.4826889, 10.6579103 ], [ 33.2190437, 10.7350044 ], [ 33.2656822, 10.8292313 ], [ 33.2352257, 10.997221 ], [ 33.2385559, 11.0029316 ], [ 33.1971512, 11.2484922 ], [ 33.1352882, 11.6258745 ], [ 33.1838264, 11.7810154 ], [ 33.2568092, 12.1658125 ], [ 33.2920265, 12.200552 ], [ 33.2558594, 12.2143536 ], [ 33.0231476, 12.2267265 ], [ 32.7376137, 12.2357683 ], [ 32.7461777, 12.1996002 ], [ 32.7418938, 12.1291685 ], [ 32.7571259, 12.0687304 ], [ 32.7590294, 12.0116234 ], [ 32.7414207, 11.9469013 ], [ 32.1065788, 11.9449978 ], [ 32.0461426, 12.0273275 ], [ 31.9233608, 12.180089 ], [ 31.8338928, 12.1796131 ], [ 31.6411572, 12.6797762 ], [ 31.6416321, 12.7287931 ], [ 31.6663799, 12.7778091 ], [ 31.6644764, 12.8220673 ], [ 31.6782761, 12.8744154 ], [ 31.7368107, 13.014328 ], [ 31.8429356, 13.071435 ], [ 31.8771992, 13.1185484 ], [ 31.9176502, 13.1471024 ], [ 32.0045013, 13.1820803 ], [ 32.0501862, 13.250989 ], [ 32.0035477, 13.289156 ], [ 32.0049782, 13.3353176 ], [ 32.0397148, 13.439538 ], [ 32.0606575, 13.4580975 ], [ 31.8693466, 13.6327496 ], [ 31.7532291, 13.9087677 ], [ 31.5766735, 14.0334511 ], [ 31.5281334, 14.1857367 ], [ 31.5233746, 14.3151798 ], [ 31.6009445, 14.5069637 ], [ 31.8855267, 14.7477655 ], [ 31.9312134, 14.9343147 ], [ 32.0235367, 14.9347906 ], [ 32.0487595, 14.9523993 ], [ 32.042572, 15.0580473 ], [ 32.3556709, 15.1879396 ], [ 32.436573, 15.1841326 ], [ 32.4432335, 15.2226801 ], [ 32.498436, 15.2369566 ], [ 32.6697578, 15.2502813 ], [ 32.9205551, 15.2750282 ], [ 32.9457779, 15.2655096 ], [ 33.0747414, 15.2902565 ], [ 33.1784859, 15.2621784 ], [ 33.2493935, 15.3240452 ], [ 33.5001907, 15.4734745 ], [ 33.5691948, 15.4553909 ] ] ] ] } },
{ "type": "Feature", "properties": { "POLYGON_ID": "SDN_GAUL1992_ADM1_68788", "ADM0_ISO3": "SDN", "ADM0_NAME": "Sudan", "ADM0_CODE": 40764, "ADM1_NAME": "Darfur", "ADM1_CODE": 68788, "GEOSET": "GAUL", "GEOSET_YEAR": 1992.0, "GEOSET_VERSION": "GAUL_v1", "GEOSET_UNIT": "ADM1", "CENTROID_LONG": 25.204389949318493, "CENTROID_LAT": 14.454856607770745 }, "geometry": { "type": "MultiPolygon", "coordinates": [ [ [ [ 27.5005035, 16.6012745 ], [ 26.9458447, 16.6029453 ], [ 26.9553623, 16.5110989 ], [ 26.9991436, 15.9928513 ], [ 27.0172272, 15.7929764 ], [ 27.0605335, 15.2495079 ], [ 27.0738583, 15.0615301 ], [ 27.1176414, 14.976346 ], [ 27.1457195, 14.854517 ], [ 27.2161503, 14.8021688 ], [ 27.396513, 14.2777357 ], [ 27.4488621, 14.1164083 ], [ 27.4912167, 13.9726887 ], [ 27.4521942, 13.7571096 ], [ 27.5007343, 13.690485 ], [ 27.5288124, 13.6238604 ], [ 27.5297642, 13.5734158 ], [ 27.4950237, 13.4791889 ], [ 27.3822365, 13.3449869 ], [ 27.3784294, 13.2498083 ], [ 27.3541603, 13.2126894 ], [ 27.3574905, 13.169383 ], [ 27.2356625, 13.0356569 ], [ 27.1395321, 12.913353 ], [ 27.127634, 12.8495836 ], [ 27.1176414, 12.6972981 ], [ 27.1266823, 12.579277 ], [ 27.1095505, 12.5250254 ], [ 27.038168, 12.4055758 ], [ 27.0414982, 12.3570347 ], [ 27.070528, 12.2846994 ], [ 27.0790939, 12.2380619 ], [ 27.0624371, 12.1228962 ], [ 27.0776653, 12.0757828 ], [ 27.1476231, 11.9720383 ], [ 27.1971149, 11.859252 ], [ 27.2366142, 11.7255259 ], [ 27.2504158, 11.5960836 ], [ 27.2505417, 11.4278507 ], [ 27.2833252, 11.1710854 ], [ 27.3252048, 10.9997635 ], [ 27.4470329, 10.7018557 ], [ 27.5417347, 10.464385 ], [ 27.6664181, 10.1588621 ], [ 27.731617, 9.9870653 ], [ 27.7849159, 9.8585739 ], [ 27.9072208, 9.6101589 ], [ 27.8222752, 9.6019287 ], [ 27.4672337, 9.6209402 ], [ 27.2367191, 9.6256933 ], [ 27.1373825, 9.6242676 ], [ 26.9924202, 9.5938492 ], [ 26.853159, 9.5315857 ], [ 26.7504978, 9.4968901 ], [ 26.7039185, 9.4883347 ], [ 26.5095253, 9.529685 ], [ 26.3959312, 9.5658073 ], [ 26.3479271, 9.5943241 ], [ 26.3137054, 9.6366253 ], [ 26.2666512, 9.7473679 ], [ 26.211256, 9.913332 ], [ 26.1159859, 9.9949942 ], [ 26.1140842, 10.0116291 ], [ 26.0499191, 10.1171436 ], [ 25.985281, 10.164197 ], [ 25.931097, 10.1841593 ], [ 25.9325237, 10.375226 ], [ 25.9182644, 10.4075451 ], [ 25.8517246, 10.4389143 ], [ 25.8132248, 10.4398651 ], [ 25.7438335, 10.4051685 ], [ 25.6256924, 10.3964119 ], [ 25.5352726, 10.3607197 ], [ 25.4629364, 10.3740444 ], [ 25.362524, 10.3540573 ], [ 25.3396797, 10.3359728 ], [ 25.2544956, 10.351202 ], [ 25.1902504, 10.3321657 ], [ 25.1269569, 10.3255033 ], [ 25.0736561, 10.2674446 ], [ 25.028923, 10.1736937 ], [ 25.0593796, 10.1213455 ], [ 25.053194, 10.0965996 ], [ 25.0117912, 10.041872 ], [ 24.9461174, 9.931941 ], [ 24.8537941, 9.8762617 ], [ 24.8238125, 9.82201 ], [ 24.7624226, 9.7634745 ], [ 24.7257786, 9.7506256 ], [ 24.7395802, 9.7120781 ], [ 24.7348213, 9.618804 ], [ 24.7533817, 9.5831118 ], [ 24.7543335, 9.5193424 ], [ 24.7391052, 9.4822226 ], [ 24.6562996, 9.4165497 ], [ 24.6010952, 9.3818092 ], [ 24.625843, 9.3208952 ], [ 24.565403, 9.1847897 ], [ 24.5430374, 9.0629616 ], [ 24.577301, 8.9539824 ], [ 24.5792046, 8.9240007 ], [ 24.5268574, 8.8450031 ], [ 24.3836136, 8.7897997 ], [ 24.2465553, 8.6517906 ], [ 24.2234771, 8.6412444 ], [ 24.2604743, 8.6940721 ], [ 24.2532031, 8.6990416 ], [ 24.2299925, 8.6997616 ], [ 24.2103801, 8.6908207 ], [ 24.2051747, 8.6884477 ], [ 24.2029079, 8.6874143 ], [ 24.1661567, 8.7029104 ], [ 24.1426238, 8.6812433 ], [ 24.0518747, 8.6937488 ], [ 23.9643484, 8.6545904 ], [ 23.965987, 8.6983371 ], [ 23.9466062, 8.7154837 ], [ 23.890434, 8.7194791 ], [ 23.8904087, 8.7194777 ], [ 23.847, 8.7276149 ], [ 23.7792836, 8.7067791 ], [ 23.7268766, 8.7185346 ], [ 23.7266526, 8.7187212 ], [ 23.6778674, 8.7251662 ], [ 23.6777294, 8.7251556 ], [ 23.6255339, 8.7548419 ], [ 23.6016979, 8.7434225 ], [ 23.5928173, 8.739168 ], [ 23.5454515, 8.7003829 ], [ 23.5135173, 8.7136241 ], [ 23.5201009, 8.727689 ], [ 23.5144237, 8.7633888 ], [ 23.5140146, 8.7641303 ], [ 23.5085654, 8.7740069 ], [ 23.5082394, 8.7745979 ], [ 23.4978335, 8.8093005 ], [ 23.5546544, 8.9043446 ], [ 23.5864945, 8.9682258 ], [ 23.5823244, 9.0288188 ], [ 23.5519353, 9.0036528 ], [ 23.5395897, 8.9566446 ], [ 23.5094397, 8.9495419 ], [ 23.4514087, 8.9785574 ], [ 23.4598999, 9.0050503 ], [ 23.4599233, 9.0062656 ], [ 23.4637778, 9.0688586 ], [ 23.4616667, 9.0827778 ], [ 23.4722524, 9.1306344 ], [ 23.4816604, 9.1731671 ], [ 23.5071845, 9.1761804 ], [ 23.5193305, 9.1776143 ], [ 23.5497043, 9.2045431 ], [ 23.5943738, 9.2092289 ], [ 23.6107294, 9.2304 ], [ 23.6126676, 9.2448799 ], [ 23.6502514, 9.2722894 ], [ 23.6521611, 9.2759392 ], [ 23.6537144, 9.2935752 ], [ 23.6519221, 9.2945225 ], [ 23.649881, 9.3008315 ], [ 23.6422652, 9.3153648 ], [ 23.6383856, 9.3217511 ], [ 23.6388524, 9.3786979 ], [ 23.6718085, 9.4500665 ], [ 23.6667637, 9.4567928 ], [ 23.640136, 9.4482034 ], [ 23.635859, 9.4647005 ], [ 23.6335679, 9.4735375 ], [ 23.6324216, 9.477959 ], [ 23.6473849, 9.5378375 ], [ 23.6455131, 9.5407265 ], [ 23.6327135, 9.5417631 ], [ 23.6318483, 9.5412901 ], [ 23.6305283, 9.54194 ], [ 23.630278, 9.559167 ], [ 23.6966984, 9.6714785 ], [ 23.6978164, 9.6746635 ], [ 23.698962, 9.677927 ], [ 23.6722762, 9.8996663 ], [ 23.5977212, 10.0212652 ], [ 23.3166007, 10.466008 ], [ 23.3066541, 10.4727219 ], [ 23.269239, 10.4933552 ], [ 23.2331995, 10.535172 ], [ 23.1506663, 10.5937706 ], [ 23.1322339, 10.6289848 ], [ 23.1178897, 10.6465166 ], [ 23.0972304, 10.6577834 ], [ 23.0879411, 10.6611727 ], [ 23.0029306, 10.7172063 ], [ 23.0009636, 10.7223413 ], [ 22.981236, 10.7673294 ], [ 22.977229, 10.7691994 ], [ 22.9338328, 10.8293176 ], [ 22.9316646, 10.8333071 ], [ 22.9209902, 10.8566919 ], [ 22.9201149, 10.8613967 ], [ 22.9197889, 10.8629843 ], [ 22.9194241, 10.8639359 ], [ 22.8799813, 10.909641 ], [ 22.8792377, 10.9101755 ], [ 22.8736298, 10.922803 ], [ 22.8755096, 10.9313664 ], [ 22.9306047, 11.0995253 ], [ 22.9882455, 11.2212656 ], [ 22.9790331, 11.3023354 ], [ 22.9342868, 11.3186546 ], [ 22.94192, 11.4247296 ], [ 22.8279486, 11.4149907 ], [ 22.7876769, 11.4052518 ], [ 22.7847816, 11.4410488 ], [ 22.7400353, 11.4884272 ], [ 22.6600184, 11.5147486 ], [ 22.6084286, 11.5618638 ], [ 22.5618398, 11.6305625 ], [ 22.5552595, 11.7047887 ], [ 22.5828969, 11.8513985 ], [ 22.6342874, 12.0550477 ], [ 22.543834, 12.0587397 ], [ 22.4778399, 12.0324344 ], [ 22.4962998, 12.163038 ], [ 22.473225, 12.238262 ], [ 22.4487656, 12.2645673 ], [ 22.4193872, 12.3957583 ], [ 22.3716012, 12.4314194 ], [ 22.4253767, 12.5395669 ], [ 22.4585409, 12.6333742 ], [ 22.3999438, 12.6499806 ], [ 22.3097945, 12.6891244 ], [ 22.1944982, 12.7557875 ], [ 22.1954471, 12.7109501 ], [ 22.1510842, 12.6737041 ], [ 21.9469899, 12.6238831 ], [ 21.9256502, 12.6613583 ], [ 21.862663, 12.7260791 ], [ 21.8609294, 12.7616178 ], [ 21.8155671, 12.8036574 ], [ 21.8418599, 12.8315394 ], [ 21.9044137, 12.996953 ], [ 21.9301287, 13.020212 ], [ 21.926517, 13.0482385 ], [ 21.9713015, 13.0733756 ], [ 22.0026507, 13.1105033 ], [ 22.007418, 13.13983 ], [ 22.0688161, 13.1437305 ], [ 22.0881746, 13.1658338 ], [ 22.135415, 13.1710346 ], [ 22.1796216, 13.22911 ], [ 22.1812107, 13.2487574 ], [ 22.2904271, 13.3537842 ], [ 22.2751137, 13.4033361 ], [ 22.2176162, 13.4669011 ], [ 22.2251284, 13.5486689 ], [ 22.1670531, 13.5944647 ], [ 22.1147563, 13.6833113 ], [ 22.1237539, 13.7357979 ], [ 22.0719455, 13.7786371 ], [ 22.197082, 13.9166595 ], [ 22.2278355, 13.95323 ], [ 22.2945912, 13.9645371 ], [ 22.3217529, 14.0116927 ], [ 22.3583456, 14.0224442 ], [ 22.3949384, 14.0539442 ], [ 22.4405851, 14.0528125 ], [ 22.4852886, 14.1050609 ], [ 22.5348964, 14.1101537 ], [ 22.56828, 14.1842855 ], [ 22.5401778, 14.2372854 ], [ 22.4654833, 14.2416237 ], [ 22.425, 14.2925 ], [ 22.4566878, 14.3311898 ], [ 22.4329704, 14.4130151 ], [ 22.4427538, 14.4835746 ], [ 22.3938115, 14.5203094 ], [ 22.4113282, 14.600976 ], [ 22.4777371, 14.6309193 ], [ 22.5785363, 14.6463357 ], [ 22.7110577, 14.6937706 ], [ 22.7116506, 14.7248998 ], [ 22.6624541, 14.845448 ], [ 22.6777573, 14.8745101 ], [ 22.7600244, 14.9070355 ], [ 22.7505213, 14.9690165 ], [ 22.8127305, 15.0351731 ], [ 22.8436523, 15.0460904 ], [ 22.8849066, 15.0910502 ], [ 22.9387596, 15.1061192 ], [ 22.9336056, 15.1691677 ], [ 22.9787787, 15.1967799 ], [ 23.0029878, 15.2424808 ], [ 22.9854486, 15.259526 ], [ 23.004223, 15.3148611 ], [ 22.9931066, 15.3341296 ], [ 22.98866, 15.414909 ], [ 22.926408, 15.4682679 ], [ 22.9272065, 15.553553 ], [ 23.0322403, 15.6273697 ], [ 23.0990194, 15.7046994 ], [ 23.1227257, 15.7197097 ], [ 23.2080009, 15.7146294 ], [ 23.3508064, 15.6941169 ], [ 23.4432436, 15.7102298 ], [ 23.5242861, 15.749755 ], [ 23.5899187, 15.7631842 ], [ 23.6742764, 15.7633733 ], [ 23.733064, 15.7517842 ], [ 23.8176467, 15.7507007 ], [ 23.8619644, 15.7323734 ], [ 23.9706634, 15.7102241 ], [ 24.0, 15.7111173 ], [ 24.0, 16.0 ], [ 24.0, 16.4970553 ], [ 24.0, 19.5 ], [ 24.0, 19.997942 ], [ 25.0, 19.997923 ], [ 25.0, 20.0000071 ], [ 25.3916063, 20.0027653 ], [ 25.799922, 20.0041939 ], [ 26.2053823, 20.0060974 ], [ 26.6089392, 20.0056225 ], [ 27.0101156, 20.0041939 ], [ 27.4969549, 20.0056225 ], [ 27.4964743, 19.6894069 ], [ 27.4999218, 19.6832161 ], [ 27.4994602, 19.2327156 ], [ 27.4989834, 18.9538422 ], [ 27.4989834, 18.4165592 ], [ 27.4985085, 18.1476803 ], [ 27.4980316, 17.6061153 ], [ 27.4980316, 17.0574112 ], [ 27.5005035, 16.6012745 ] ] ] ] } },
{ "type": "Feature", "properties": { "POLYGON_ID": "SDN_GAUL1992_ADM1_68789", "ADM0_ISO3": "SDN", "ADM0_NAME": "Sudan", "ADM0_CODE": 40764, "ADM1_NAME": "Equatoria", "ADM1_CODE": 68789, "GEOSET": "GAUL", "GEOSET_YEAR": 1992.0, "GEOSET_VERSION": "GAUL_v1", "GEOSET_UNIT": "ADM1", "CENTROID_LONG": 31.009277402746989, "CENTROID_LAT": 5.1428251551020612 }, "geometry": { "type": "MultiPolygon", "coordinates": [ [ [ [ 31.6916924, 5.8656306 ], [ 32.183075, 5.8646722 ], [ 32.7065086, 5.8651762 ], [ 32.9991837, 5.8642244 ], [ 33.2495041, 5.8666039 ], [ 33.67733, 5.7937927 ], [ 34.0175934, 5.7366853 ], [ 34.0732727, 5.729547 ], [ 34.1632156, 5.73383 ], [ 34.4363785, 5.8223462 ], [ 34.6043663, 5.8737426 ], [ 34.9641418, 5.9917636 ], [ 35.0078785, 6.0024432 ], [ 34.99556, 5.96559 ], [ 35.00103, 5.89705 ], [ 35.13011, 5.69116 ], [ 35.13729, 5.61373 ], [ 35.30607, 5.50104 ], [ 35.31861, 5.46272 ], [ 35.29796, 5.42035 ], [ 35.29392, 5.37159 ], [ 35.3201586, 5.3336481 ], [ 35.33401, 5.32995 ], [ 35.3639986, 5.3481465 ], [ 35.36472, 5.34892 ], [ 35.37432, 5.35499 ], [ 35.3945371, 5.3568265 ], [ 35.39997, 5.35732 ], [ 35.4074232, 5.3603852 ], [ 35.40921, 5.36112 ], [ 35.4167332, 5.3669655 ], [ 35.42069, 5.37004 ], [ 35.42482, 5.372 ], [ 35.4355021, 5.3770993 ], [ 35.50072, 5.41453 ], [ 35.51792, 5.4172 ], [ 35.52286, 5.41404 ], [ 35.53227, 5.41752 ], [ 35.5343458, 5.418015 ], [ 35.5485249, 5.4148066 ], [ 35.55273, 5.41091 ], [ 35.57454, 5.41396 ], [ 35.5818794, 5.4151299 ], [ 35.592, 5.41032 ], [ 35.5955869, 5.4040413 ], [ 35.61109, 5.39888 ], [ 35.6157655, 5.3990676 ], [ 35.61959, 5.39775 ], [ 35.6196064, 5.3920967 ], [ 35.63778, 5.38078 ], [ 35.6559, 5.39026 ], [ 35.71883, 5.38973 ], [ 35.73793, 5.37437 ], [ 35.74414, 5.37324 ], [ 35.76164, 5.35327 ], [ 35.77176, 5.34755 ], [ 35.7736, 5.34709 ], [ 35.7737324, 5.3498579 ], [ 35.81978, 5.3364 ], [ 35.8261944, 5.3321392 ], [ 35.8280855, 5.3308985 ], [ 35.83932, 5.33023 ], [ 35.86419, 5.30339 ], [ 35.8571954, 5.2862939 ], [ 35.8513889, 5.2835788 ], [ 35.85137, 5.28357 ], [ 35.8497002, 5.2818902 ], [ 35.82922, 5.23384 ], [ 35.86378, 5.1755 ], [ 35.83954, 5.12597 ], [ 35.8324846, 5.1205043 ], [ 35.8284, 5.11734 ], [ 35.8262114, 5.1146977 ], [ 35.81745, 5.10412 ], [ 35.8163, 5.0 ], [ 35.8162879, 4.9750596 ], [ 35.81711, 4.77735 ], [ 35.9477, 4.62 ], [ 35.8506676, 4.62 ], [ 35.7478954, 4.62 ], [ 35.5101358, 4.62 ], [ 35.5087699, 4.62 ], [ 35.42084, 4.77111 ], [ 35.47694, 4.90278 ], [ 35.4572197, 4.9225 ], [ 35.31028, 4.9075 ], [ 35.33194, 4.98139 ], [ 35.32722, 5.02305 ], [ 35.2861075, 5.0108384 ], [ 35.19667, 4.95583 ], [ 35.15222, 4.98889 ], [ 35.0, 4.90616 ], [ 34.7125, 4.79806 ], [ 34.5, 4.73843 ], [ 34.47639, 4.72417 ], [ 34.3784599, 4.6199999 ], [ 34.3746778, 4.6148604 ], [ 34.34639, 4.57642 ], [ 34.32929, 4.5578 ], [ 34.3187823, 4.548179 ], [ 34.30547, 4.53599 ], [ 34.2766557, 4.5036428 ], [ 34.17779, 4.39819 ], [ 34.1733433, 4.3936253 ], [ 34.0344822, 4.2515727 ], [ 33.99449, 4.21443 ], [ 33.5148942, 3.7545522 ], [ 33.50901, 3.74891 ], [ 33.3804667, 3.7586222 ], [ 33.3199063, 3.7631979 ], [ 33.2943794, 3.7651266 ], [ 33.2084782, 3.7716169 ], [ 33.17654, 3.77403 ], [ 33.0418854, 3.8636674 ], [ 33.0261566, 3.8741378 ], [ 32.9019072, 3.8155132 ], [ 32.8854515, 3.8109573 ], [ 32.7145168, 3.7648684 ], [ 32.6682172, 3.7622873 ], [ 32.4934249, 3.752543 ], [ 32.4072715, 3.747738 ], [ 32.4001188, 3.7435477 ], [ 32.380188, 3.7318633 ], [ 32.1986041, 3.6254107 ], [ 32.1728823, 3.6103314 ], [ 32.179608, 3.6098826 ], [ 32.1954788, 3.6017852 ], [ 32.1963239, 3.5996725 ], [ 32.1967744, 3.5985463 ], [ 32.1963118, 3.5967729 ], [ 32.1958027, 3.5948215 ], [ 32.2022806, 3.5909348 ], [ 32.2049479, 3.5914135 ], [ 32.2085965, 3.5920684 ], [ 32.2092427, 3.5908189 ], [ 32.2102897, 3.5886083 ], [ 32.215664, 3.566779 ], [ 32.2155252, 3.5653395 ], [ 32.2126166, 3.5561483 ], [ 32.2112205, 3.5546358 ], [ 32.2078465, 3.5446302 ], [ 32.2102668, 3.5401354 ], [ 32.2105224, 3.5398601 ], [ 32.2111042, 3.5385803 ], [ 32.2104061, 3.5367188 ], [ 32.2066831, 3.5318324 ], [ 32.2053654, 3.5307783 ], [ 32.2024947, 3.5245027 ], [ 32.2043562, 3.5149625 ], [ 32.2060032, 3.5133968 ], [ 32.1986398, 3.5059907 ], [ 32.0844411, 3.5335559 ], [ 32.0575332, 3.5809714 ], [ 32.0152715, 3.5868954 ], [ 31.9493205, 3.5868744 ], [ 31.9379491, 3.6703889 ], [ 31.9194922, 3.7096096 ], [ 31.8532455, 3.7906878 ], [ 31.8024684, 3.8000386 ], [ 31.7410791, 3.7526558 ], [ 31.7104157, 3.7172446 ], [ 31.6639391, 3.7103676 ], [ 31.5825103, 3.6831801 ], [ 31.5389261, 3.654142 ], [ 31.5153322, 3.6662005 ], [ 31.30758, 3.78274 ], [ 31.28293, 3.79257 ], [ 31.17384, 3.79318 ], [ 31.099954, 3.7360273 ], [ 31.0734857, 3.7444319 ], [ 31.0327197, 3.6985149 ], [ 30.9732118, 3.6912042 ], [ 30.912195, 3.5671804 ], [ 30.8603296, 3.5147327 ], [ 30.8545296, 3.4874709 ], [ 30.8462445, 3.5089422 ], [ 30.8461369, 3.5100718 ], [ 30.8519812, 3.5312959 ], [ 30.8615216, 3.5517797 ], [ 30.8575179, 3.56913 ], [ 30.8067648, 3.5838945 ], [ 30.7909456, 3.6044186 ], [ 30.7857929, 3.6251299 ], [ 30.785876, 3.6329468 ], [ 30.7870788, 3.6395691 ], [ 30.7725613, 3.6737603 ], [ 30.7688599, 3.6740354 ], [ 30.7650957, 3.6743151 ], [ 30.764932, 3.6743273 ], [ 30.7615149, 3.6721437 ], [ 30.7612932, 3.6720021 ], [ 30.7572303, 3.6694058 ], [ 30.7568155, 3.667981 ], [ 30.7507826, 3.647259 ], [ 30.743708, 3.6321869 ], [ 30.7400005, 3.6294333 ], [ 30.7270669, 3.6230281 ], [ 30.7218688, 3.6211135 ], [ 30.7203451, 3.6214467 ], [ 30.6693771, 3.6365647 ], [ 30.6607579, 3.6319544 ], [ 30.6536444, 3.6281496 ], [ 30.6407684, 3.6197405 ], [ 30.6306315, 3.6117673 ], [ 30.5939095, 3.5952755 ], [ 30.5920224, 3.5950936 ], [ 30.5683791, 3.5928148 ], [ 30.5606893, 3.5961983 ], [ 30.5853441, 3.6827862 ], [ 30.5752453, 3.7383298 ], [ 30.5684732, 3.7755762 ], [ 30.5668175, 3.7846827 ], [ 30.552529, 3.8214245 ], [ 30.5524079, 3.821736 ], [ 30.553462, 3.8325475 ], [ 30.5342361, 3.8724181 ], [ 30.4844768, 3.8567308 ], [ 30.4361017, 3.8886378 ], [ 30.409968, 3.8844143 ], [ 30.385668, 3.9112815 ], [ 30.3176896, 3.9330143 ], [ 30.2995415, 3.9323991 ], [ 30.2835119, 3.9525151 ], [ 30.2658278, 3.9569119 ], [ 30.2645691, 3.9562797 ], [ 30.2552775, 3.9516134 ], [ 30.2426011, 3.9452471 ], [ 30.206648, 3.9533155 ], [ 30.2023971, 3.962384 ], [ 30.2020026, 3.9636511 ], [ 30.201316, 3.9744084 ], [ 30.2045185, 4.0039148 ], [ 30.1740552, 4.0429459 ], [ 30.1715975, 4.0460949 ], [ 30.1530556, 4.1027236 ], [ 30.1251355, 4.114495 ], [ 30.1077682, 4.1130162 ], [ 30.0571038, 4.1355687 ], [ 30.0466989, 4.1538671 ], [ 30.0279789, 4.1963731 ], [ 29.9852865, 4.2293224 ], [ 29.9765611, 4.2303813 ], [ 29.970337, 4.2311366 ], [ 29.9433471, 4.2427619 ], [ 29.9642636, 4.2787505 ], [ 29.9442699, 4.3141238 ], [ 29.8959776, 4.3479592 ], [ 29.8411903, 4.3373945 ], [ 29.820007, 4.356302 ], [ 29.8011637, 4.3659716 ], [ 29.7953942, 4.4405452 ], [ 29.8218473, 4.5389754 ], [ 29.8164881, 4.5638314 ], [ 29.7680183, 4.5835766 ], [ 29.7329525, 4.5771171 ], [ 29.7092677, 4.617412 ], [ 29.6117603, 4.6610904 ], [ 29.5207123, 4.6678575 ], [ 29.5024246, 4.6866753 ], [ 29.49474, 4.6859578 ], [ 29.4853389, 4.6718562 ], [ 29.4761839, 4.6675926 ], [ 29.4744257, 4.6679123 ], [ 29.4628846, 4.6644739 ], [ 29.4690364, 4.6374056 ], [ 29.4668833, 4.6266398 ], [ 29.4727793, 4.6035107 ], [ 29.4730352, 4.5986487 ], [ 29.4618682, 4.5819124 ], [ 29.4555023, 4.5783475 ], [ 29.4413529, 4.5586614 ], [ 29.4422357, 4.540712 ], [ 29.4099783, 4.4842236 ], [ 29.3893301, 4.471647 ], [ 29.3678379, 4.4685363 ], [ 29.3499974, 4.4448515 ], [ 29.3426151, 4.4082477 ], [ 29.3084721, 4.3787187 ], [ 29.2764823, 4.3879465 ], [ 29.2650988, 4.3934823 ], [ 29.247876, 4.3796414 ], [ 29.2552583, 4.3667225 ], [ 29.2503368, 4.3611858 ], [ 29.2035824, 4.3408845 ], [ 29.1334509, 4.4082477 ], [ 29.1239154, 4.4291642 ], [ 29.11924, 4.4297309 ], [ 29.0986927, 4.4282414 ], [ 29.0774687, 4.4303945 ], [ 29.0814674, 4.4531565 ], [ 29.0764154, 4.4560814 ], [ 29.0756231, 4.4565401 ], [ 29.0679952, 4.454193 ], [ 29.0320457, 4.484433 ], [ 29.0199485, 4.4903755 ], [ 29.0053871, 4.4893562 ], [ 28.993803, 4.4799172 ], [ 28.9574733, 4.4770626 ], [ 28.9485866, 4.4789945 ], [ 28.9476513, 4.4787406 ], [ 28.9033702, 4.4722274 ], [ 28.8695348, 4.4885299 ], [ 28.8317007, 4.4737654 ], [ 28.788945, 4.5580462 ], [ 28.7213282, 4.5364328 ], [ 28.7132768, 4.5325159 ], [ 28.7117388, 4.5282096 ], [ 28.7129692, 4.5251336 ], [ 28.7105085, 4.5091387 ], [ 28.7024349, 4.5086005 ], [ 28.6717091, 4.4428285 ], [ 28.6634465, 4.4202439 ], [ 28.6025428, 4.4150148 ], [ 28.6011713, 4.4142528 ], [ 28.5966318, 4.4111488 ], [ 28.5942377, 4.4060946 ], [ 28.5924827, 4.4008295 ], [ 28.5921021, 4.3996875 ], [ 28.5920846, 4.3996351 ], [ 28.5920846, 4.3892561 ], [ 28.5668618, 4.3762579 ], [ 28.5617308, 4.3775407 ], [ 28.510572, 4.3691832 ], [ 28.4679894, 4.3023312 ], [ 28.4592038, 4.2861327 ], [ 28.4555126, 4.2845948 ], [ 28.4385949, 4.2845948 ], [ 28.4275215, 4.2799808 ], [ 28.3708044, 4.2999976 ], [ 28.3688013, 4.315822 ], [ 28.3632343, 4.3307339 ], [ 28.3606266, 4.3328587 ], [ 28.3549292, 4.337501 ], [ 28.3201711, 4.3541111 ], [ 28.2574218, 4.3424225 ], [ 28.2023624, 4.3482668 ], [ 28.176832, 4.3765655 ], [ 28.1592991, 4.384563 ], [ 28.119927, 4.4334705 ], [ 28.1134676, 4.4417755 ], [ 28.1091612, 4.4423907 ], [ 28.0999334, 4.4337781 ], [ 28.0719423, 4.4168604 ], [ 28.0332479, 4.4799946 ], [ 28.0348631, 4.5217198 ], [ 28.0430284, 4.5429741 ], [ 27.9393803, 4.5674884 ], [ 27.9335157, 4.5473812 ], [ 27.9264501, 4.5448197 ], [ 27.9206058, 4.5488184 ], [ 27.8683148, 4.5488184 ], [ 27.8111022, 4.6008019 ], [ 27.784589, 4.5978176 ], [ 27.7840339, 4.5980335 ], [ 27.7815313, 4.6053996 ], [ 27.7822668, 4.6089299 ], [ 27.7755766, 4.6628366 ], [ 27.7754212, 4.6650891 ], [ 27.7880326, 4.7056916 ], [ 27.7746607, 4.7712677 ], [ 27.7677314, 4.7862814 ], [ 27.7139326, 4.7881567 ], [ 27.7028289, 4.7998155 ], [ 27.7022137, 4.8035066 ], [ 27.7089919, 4.8131525 ], [ 27.7102112, 4.8148876 ], [ 27.7006786, 4.8327229 ], [ 27.7006758, 4.8327281 ], [ 27.6948315, 4.8561053 ], [ 27.6911403, 4.8628724 ], [ 27.6708391, 4.8816356 ], [ 27.6551518, 4.8939394 ], [ 27.5822519, 4.885942 ], [ 27.5398039, 4.9194698 ], [ 27.5201178, 4.975452 ], [ 27.443611, 5.019444 ], [ 27.4555768, 5.0521458 ], [ 27.4550287, 5.0721511 ], [ 27.4038927, 5.1302138 ], [ 27.400778, 5.1446972 ], [ 27.3249318, 5.1998819 ], [ 27.2930672, 5.2650596 ], [ 27.2492968, 5.3281307 ], [ 27.2465969, 5.3478402 ], [ 27.255409, 5.3563083 ], [ 27.2565994, 5.3622602 ], [ 27.2481958, 5.372965 ], [ 27.2470455, 5.3742154 ], [ 27.2352776, 5.4041643 ], [ 27.2342624, 5.4084504 ], [ 27.2340773, 5.410148 ], [ 27.234056, 5.4103429 ], [ 27.2327552, 5.4222665 ], [ 27.2446802, 5.4639124 ], [ 27.2462427, 5.4667616 ], [ 27.2596914, 5.5068492 ], [ 27.268337, 5.5199471 ], [ 27.2739227, 5.5284095 ], [ 27.2777463, 5.5342021 ], [ 27.2787535, 5.5374912 ], [ 27.2785639, 5.5400034 ], [ 27.2834361, 5.5843426 ], [ 27.2826757, 5.5875107 ], [ 27.256578, 5.5999803 ], [ 27.2548456, 5.5990303 ], [ 27.2528204, 5.5979197 ], [ 27.2473786, 5.5936672 ], [ 27.2440362, 5.5899391 ], [ 27.2439607, 5.589855 ], [ 27.2313657, 5.6100667 ], [ 27.2319988, 5.6134433 ], [ 27.2361824, 5.6223338 ], [ 27.2365799, 5.6231022 ], [ 27.2368188, 5.6245355 ], [ 27.2377268, 5.6299841 ], [ 27.2383179, 5.6335306 ], [ 27.238237, 5.6345021 ], [ 27.2380551, 5.6366848 ], [ 27.2378942, 5.6386153 ], [ 27.2155893, 5.6762915 ], [ 27.2180651, 5.6837191 ], [ 27.1867818, 5.7288793 ], [ 27.1476486, 5.7470846 ], [ 27.1475982, 5.7726299 ], [ 27.1466459, 5.7722728 ], [ 27.1457313, 5.7719298 ], [ 27.1446452, 5.7715225 ], [ 27.1444947, 5.7714661 ], [ 27.1404372, 5.7711279 ], [ 27.1402892, 5.7711279 ], [ 27.1194801, 5.7773437 ], [ 27.1192601, 5.7775009 ], [ 27.1192324, 5.7782489 ], [ 27.1190015, 5.7844807 ], [ 27.1187023, 5.7925602 ], [ 27.1084326, 5.78705 ], [ 27.1082736, 5.7869555 ], [ 27.0817757, 5.7975466 ], [ 27.0795865, 5.7931682 ], [ 27.0576404, 5.7943947 ], [ 27.0564192, 5.7940527 ], [ 27.054495, 5.792728 ], [ 27.052634, 5.7902467 ], [ 27.0474198, 5.8044207 ], [ 27.0474198, 5.8086569 ], [ 27.0255629, 5.8368523 ], [ 27.0254778, 5.8376462 ], [ 27.0155886, 5.8486068 ], [ 27.008995, 5.8491278 ], [ 26.9912221, 5.8574521 ], [ 26.9908971, 5.8578912 ], [ 26.9245452, 5.8861101 ], [ 26.9067095, 5.8925021 ], [ 26.9064908, 5.8925346 ], [ 26.8989573, 5.8936566 ], [ 26.86463, 5.9035075 ], [ 26.8477982, 5.9786032 ], [ 26.8102504, 6.0019087 ], [ 26.8050938, 6.0051316 ], [ 26.761632, 6.0058095 ], [ 26.7539286, 6.0044982 ], [ 26.7355498, 6.0091662 ], [ 26.7340008, 6.0090209 ], [ 26.7183496, 6.0069697 ], [ 26.6982542, 6.0038509 ], [ 26.6449342, 6.0103707 ], [ 26.6258221, 6.0165935 ], [ 26.6161535, 6.0211309 ], [ 26.6122269, 6.0234868 ], [ 26.574723, 6.0269705 ], [ 26.5702796, 6.0293952 ], [ 26.5591998, 6.0354416 ], [ 26.554796, 6.0378448 ], [ 26.5544867, 6.0436195 ], [ 26.5543506, 6.0461588 ], [ 26.5458577, 6.0593558 ], [ 26.5444959, 6.0592374 ], [ 26.5426386, 6.0610947 ], [ 26.537346, 6.0827468 ], [ 26.5314227, 6.0861761 ], [ 26.5314227, 6.1015509 ], [ 26.522585, 6.1092738 ], [ 26.5160311, 6.1146514 ], [ 26.5009451, 6.1084686 ], [ 26.4862934, 6.1023935 ], [ 26.4834876, 6.1012301 ], [ 26.4668489, 6.0830068 ], [ 26.4625934, 6.0790552 ], [ 26.4588645, 6.0755927 ], [ 26.4731586, 6.1282238 ], [ 26.4924709, 6.1451873 ], [ 26.5019407, 6.1509905 ], [ 26.5105652, 6.1560291 ], [ 26.5295941, 6.1812634 ], [ 26.5321948, 6.1918051 ], [ 26.5334035, 6.1967042 ], [ 26.5340181, 6.2176009 ], [ 26.5084416, 6.2242424 ], [ 26.5064528, 6.2217242 ], [ 26.5012755, 6.215908 ], [ 26.497828, 6.2173986 ], [ 26.4810649, 6.220224 ], [ 26.4810107, 6.2202254 ], [ 26.4752127, 6.2199255 ], [ 26.4730329, 6.2353674 ], [ 26.4850326, 6.2686871 ], [ 26.4363434, 6.3060437 ], [ 26.4035454, 6.304829 ], [ 26.3935597, 6.3044592 ], [ 26.390651, 6.3090087 ], [ 26.3781095, 6.3286248 ], [ 26.3674581, 6.3335408 ], [ 26.3626594, 6.3357556 ], [ 26.3617289, 6.3405631 ], [ 26.3361168, 6.3821061 ], [ 26.3087233, 6.3805408 ], [ 26.3083857, 6.3805215 ], [ 26.3082379, 6.3808615 ], [ 26.3129462, 6.4245814 ], [ 26.31433, 6.4305777 ], [ 26.3004626, 6.4886726 ], [ 26.3112566, 6.4937856 ], [ 26.3211079, 6.5100605 ], [ 26.3218026, 6.5105687 ], [ 26.335468, 6.5394027 ], [ 26.3363389, 6.5401077 ], [ 26.3543401, 6.5837506 ], [ 26.3923449, 6.5950919 ], [ 26.3877175, 6.6015372 ], [ 26.4121791, 6.6372319 ], [ 26.4121791, 6.6463029 ], [ 26.4103343, 6.6549015 ], [ 26.7337265, 6.6887951 ], [ 27.0911217, 6.7240109 ], [ 27.4180584, 6.7539926 ], [ 27.9082279, 6.8025332 ], [ 27.9410648, 6.8006296 ], [ 28.0448093, 6.7506609 ], [ 28.5011902, 6.7525649 ], [ 28.5006981, 6.5006909 ], [ 28.4678612, 6.5004086 ], [ 28.4673843, 6.4637651 ], [ 28.5097389, 6.3914294 ], [ 28.4854679, 6.3243289 ], [ 28.5059319, 6.2805467 ], [ 28.5459061, 6.2453308 ], [ 28.5814762, 6.0907493 ], [ 28.6095524, 6.0731411 ], [ 28.6709442, 6.0593405 ], [ 28.72472, 5.9655895 ], [ 28.7651691, 5.9270425 ], [ 28.8118076, 5.8580379 ], [ 28.8351269, 5.839478 ], [ 28.944582, 5.8099728 ], [ 28.9783707, 5.7933168 ], [ 29.0026398, 5.7352576 ], [ 29.3981075, 5.7000418 ], [ 29.591795, 5.6805301 ], [ 29.5784702, 5.7324023 ], [ 29.583704, 5.7890339 ], [ 29.6060715, 5.8275809 ], [ 29.6408119, 5.9270425 ], [ 29.6431904, 5.9765353 ], [ 29.6960144, 6.0012817 ], [ 29.7726345, 6.0588646 ], [ 29.7997589, 6.1069298 ], [ 29.7835789, 6.1607056 ], [ 29.7983322, 6.2187643 ], [ 29.7712059, 6.3729534 ], [ 30.0871983, 6.3734293 ], [ 30.1138477, 6.2611189 ], [ 30.1866608, 6.1416698 ], [ 30.1695271, 6.083611 ], [ 30.5002728, 6.0831351 ], [ 30.6083012, 6.246366 ], [ 30.8548126, 6.0403047 ], [ 30.9999599, 5.9137173 ], [ 31.1874619, 5.9260907 ], [ 31.4825153, 5.8875432 ], [ 31.5643673, 5.8794532 ], [ 31.6866722, 5.8161597 ], [ 31.6916924, 5.8656306 ] ] ] ] } },
{ "type": "Feature", "properties": { "POLYGON_ID": "SDN_GAUL1992_ADM1_68791", "ADM0_ISO3": "SDN", "ADM0_NAME": "Sudan", "ADM0_CODE": 40764, "ADM1_NAME": "Kordofan", "ADM1_CODE": 68791, "GEOSET": "GAUL", "GEOSET_YEAR": 1992.0, "GEOSET_VERSION": "GAUL_v1", "GEOSET_UNIT": "ADM1", "CENTROID_LONG": 29.574073408370065, "CENTROID_LAT": 13.216177344254348 }, "geometry": { "type": "MultiPolygon", "coordinates": [ [ [ [ 32.3556709, 15.1879396 ], [ 32.042572, 15.0580473 ], [ 32.0487595, 14.9523993 ], [ 32.0235367, 14.9347906 ], [ 31.9312134, 14.9343147 ], [ 31.8855267, 14.7477655 ], [ 31.6009445, 14.5069637 ], [ 31.5233746, 14.3151798 ], [ 31.5281334, 14.1857367 ], [ 31.5766735, 14.0334511 ], [ 31.7532291, 13.9087677 ], [ 31.8693466, 13.6327496 ], [ 32.0606575, 13.4580975 ], [ 32.0397148, 13.439538 ], [ 32.0049782, 13.3353176 ], [ 32.0035477, 13.289156 ], [ 32.0501862, 13.250989 ], [ 32.0045013, 13.1820803 ], [ 31.9176502, 13.1471024 ], [ 31.8771992, 13.1185484 ], [ 31.8429356, 13.071435 ], [ 31.7368107, 13.014328 ], [ 31.6782761, 12.8744154 ], [ 31.6644764, 12.8220673 ], [ 31.6663799, 12.7778091 ], [ 31.6416321, 12.7287931 ], [ 31.6411572, 12.6797762 ], [ 31.8338928, 12.1796131 ], [ 31.9233608, 12.180089 ], [ 32.0461426, 12.0273275 ], [ 32.1065788, 11.9449978 ], [ 32.3607063, 11.7237082 ], [ 32.3923721, 11.6660433 ], [ 32.3923721, 11.2467184 ], [ 32.4015465, 11.1744022 ], [ 32.4706268, 11.0427227 ], [ 32.440403, 11.0265331 ], [ 32.1473618, 10.7372694 ], [ 32.0092049, 10.6627941 ], [ 31.9730492, 10.6271763 ], [ 31.8575592, 10.4080696 ], [ 31.7874012, 10.301754 ], [ 31.7021332, 10.2181053 ], [ 31.5121689, 10.0038557 ], [ 31.3518867, 9.8030977 ], [ 31.3146496, 9.772337 ], [ 31.2590637, 9.7561464 ], [ 31.1808109, 9.749671 ], [ 30.8926277, 9.7485914 ], [ 30.8262482, 9.7221479 ], [ 30.5337448, 9.9558249 ], [ 30.4657478, 10.000618 ], [ 30.2736244, 10.1171865 ], [ 29.9967728, 10.2888021 ], [ 29.9390278, 10.286644 ], [ 29.5390396, 10.0818319 ], [ 29.5380878, 9.7501354 ], [ 29.1169224, 9.7487078 ], [ 29.0783768, 9.7501354 ], [ 29.0512505, 9.7296715 ], [ 28.9770107, 9.6411552 ], [ 28.8057041, 9.487854 ], [ 28.7880974, 9.4355059 ], [ 28.7585907, 9.4031458 ], [ 28.7685852, 9.3484182 ], [ 28.3607464, 9.3469906 ], [ 28.0421219, 9.3436813 ], [ 28.0314274, 9.3598394 ], [ 27.9072208, 9.6101589 ], [ 27.7849159, 9.8585739 ], [ 27.731617, 9.9870653 ], [ 27.6664181, 10.1588621 ], [ 27.5417347, 10.464385 ], [ 27.4470329, 10.7018557 ], [ 27.3252048, 10.9997635 ], [ 27.2833252, 11.1710854 ], [ 27.2505417, 11.4278507 ], [ 27.2504158, 11.5960836 ], [ 27.2366142, 11.7255259 ], [ 27.1971149, 11.859252 ], [ 27.1476231, 11.9720383 ], [ 27.0776653, 12.0757828 ], [ 27.0624371, 12.1228962 ], [ 27.0790939, 12.2380619 ], [ 27.070528, 12.2846994 ], [ 27.0414982, 12.3570347 ], [ 27.038168, 12.4055758 ], [ 27.1095505, 12.5250254 ], [ 27.1266823, 12.579277 ], [ 27.1176414, 12.6972981 ], [ 27.127634, 12.8495836 ], [ 27.1395321, 12.913353 ], [ 27.2356625, 13.0356569 ], [ 27.3574905, 13.169383 ], [ 27.3541603, 13.2126894 ], [ 27.3784294, 13.2498083 ], [ 27.3822365, 13.3449869 ], [ 27.4950237, 13.4791889 ], [ 27.5297642, 13.5734158 ], [ 27.5288124, 13.6238604 ], [ 27.5007343, 13.690485 ], [ 27.4521942, 13.7571096 ], [ 27.4912167, 13.9726887 ], [ 27.4488621, 14.1164083 ], [ 27.396513, 14.2777357 ], [ 27.2161503, 14.8021688 ], [ 27.1457195, 14.854517 ], [ 27.1176414, 14.976346 ], [ 27.0738583, 15.0615301 ], [ 27.0605335, 15.2495079 ], [ 27.0172272, 15.7929764 ], [ 26.9991436, 15.9928513 ], [ 26.9553623, 16.5110989 ], [ 26.9458447, 16.6029453 ], [ 27.5005035, 16.6012745 ], [ 27.7921333, 16.6010304 ], [ 28.1871243, 16.6034107 ], [ 28.5859222, 16.606741 ], [ 28.981863, 16.6048374 ], [ 29.3283138, 16.6029339 ], [ 29.7846947, 16.5800915 ], [ 30.0335846, 16.5634346 ], [ 30.4994831, 16.541544 ], [ 31.0800724, 16.5139427 ], [ 31.6185131, 16.5370941 ], [ 31.7079811, 16.379097 ], [ 31.7836475, 16.2030182 ], [ 31.8031597, 16.1292534 ], [ 31.8959579, 15.9917212 ], [ 32.1001167, 15.719511 ], [ 32.1981506, 15.4925108 ], [ 32.3556709, 15.1879396 ] ] ] ] } },
{ "type": "Feature", "properties": { "POLYGON_ID": "SDN_GAUL1992_ADM1_68792", "ADM0_ISO3": "SDN", "ADM0_NAME": "Sudan", "ADM0_CODE": 40764, "ADM1_NAME": "Northern", "ADM1_CODE": 68792, "GEOSET": "GAUL", "GEOSET_YEAR": 1992.0, "GEOSET_VERSION": "GAUL_v1", "GEOSET_UNIT": "ADM1", "CENTROID_LONG": 30.414954837206565, "CENTROID_LAT": 19.256867506583575 }, "geometry": { "type": "MultiPolygon", "coordinates": [ [ [ [ 34.2175941, 16.0550251 ], [ 33.906086, 15.9896078 ], [ 33.8091393, 15.9646215 ], [ 33.6542244, 15.9851103 ], [ 33.531292, 16.0380821 ], [ 33.4358444, 16.1135406 ], [ 33.0880356, 16.2044907 ], [ 32.8061867, 16.2539635 ], [ 32.6987457, 16.3394165 ], [ 32.2529907, 16.3913879 ], [ 32.1755333, 16.4028816 ], [ 31.8831921, 16.6327572 ], [ 31.8303089, 16.657196 ], [ 31.6185131, 16.5370941 ], [ 31.0800724, 16.5139427 ], [ 30.4994831, 16.541544 ], [ 30.0335846, 16.5634346 ], [ 29.7846947, 16.5800915 ], [ 29.3283138, 16.6029339 ], [ 28.981863, 16.6048374 ], [ 28.5859222, 16.606741 ], [ 28.1871243, 16.6034107 ], [ 27.7921333, 16.6010304 ], [ 27.5005035, 16.6012745 ], [ 27.4980316, 17.0574112 ], [ 27.4980316, 17.6061153 ], [ 27.4985085, 18.1476803 ], [ 27.4989834, 18.4165592 ], [ 27.4989834, 18.9538422 ], [ 27.4994602, 19.2327156 ], [ 27.4999218, 19.6832161 ], [ 27.4964743, 19.6894069 ], [ 27.4969549, 20.0056225 ], [ 27.0101156, 20.0041939 ], [ 26.6089392, 20.0056225 ], [ 26.2053823, 20.0060974 ], [ 25.799922, 20.0041939 ], [ 25.3916063, 20.0027653 ], [ 25.0, 20.0000071 ], [ 24.9999996, 20.5238882 ], [ 25.0, 22.0 ], [ 25.3280544, 22.0 ], [ 25.9999981, 22.0 ], [ 26.3852768, 22.0 ], [ 26.8312931, 22.0 ], [ 27.1513882, 22.0 ], [ 27.8088741, 22.0 ], [ 28.2329636, 22.0 ], [ 28.6055546, 22.0 ], [ 29.0024662, 22.0 ], [ 29.4133873, 22.0 ], [ 29.4933071, 22.0 ], [ 30.0, 22.0 ], [ 31.3160877, 22.0 ], [ 31.3163766, 22.0007557 ], [ 31.3168889, 22.0021067 ], [ 31.33755, 22.05622 ], [ 31.34608, 22.07855 ], [ 31.34621, 22.07998 ], [ 31.346386, 22.08199 ], [ 31.34728, 22.092 ], [ 31.3476699, 22.0962185 ], [ 31.3572995, 22.1154693 ], [ 31.35833, 22.11678 ], [ 31.3813587, 22.1461508 ], [ 31.38159, 22.14644 ], [ 31.38738, 22.15382 ], [ 31.3876212, 22.1541322 ], [ 31.3975077, 22.1621339 ], [ 31.3996175, 22.1638301 ], [ 31.40831, 22.17811 ], [ 31.4103393, 22.1814389 ], [ 31.4131787, 22.1836368 ], [ 31.4688016, 22.2228306 ], [ 31.51261, 22.18417 ], [ 31.5128263, 22.1815062 ], [ 31.5080227, 22.1705506 ], [ 31.5071106, 22.1686313 ], [ 31.498758, 22.1595216 ], [ 31.4970989, 22.1577147 ], [ 31.4745808, 22.1351106 ], [ 31.4726924, 22.133099 ], [ 31.4653905, 22.1253006 ], [ 31.45818, 22.11466 ], [ 31.4572301, 22.1132592 ], [ 31.43553, 22.08119 ], [ 31.4303168, 22.0711582 ], [ 31.4259262, 22.0626358 ], [ 31.42571, 22.06205 ], [ 31.4122104, 22.0077797 ], [ 31.4144386, 22.0000005 ], [ 31.4146246, 22.0000002 ], [ 31.5195299, 22.0000987 ], [ 31.988843, 22.0005392 ], [ 32.644449, 22.0011546 ], [ 33.182633, 22.0016598 ], [ 33.5631753, 21.7260437 ], [ 33.2584915, 21.5146523 ], [ 33.3184547, 21.4466 ], [ 33.3313026, 21.3680763 ], [ 33.3541451, 21.295742 ], [ 33.3560486, 21.2491035 ], [ 33.2922821, 21.1729622 ], [ 33.297039, 21.0539875 ], [ 33.2703896, 20.9721355 ], [ 33.2865715, 20.9264488 ], [ 33.349865, 20.8926601 ], [ 33.4026871, 20.8498306 ], [ 33.4412346, 20.7946262 ], [ 33.4764519, 20.7646465 ], [ 33.5554504, 20.7327614 ], [ 33.5797195, 20.6504326 ], [ 33.6182671, 20.6023674 ], [ 33.6396828, 20.5381203 ], [ 33.6696625, 20.4986229 ], [ 33.6082726, 20.0693665 ], [ 33.6934586, 19.7091179 ], [ 33.6725197, 19.4350033 ], [ 33.6825104, 19.354578 ], [ 33.8010101, 19.1689796 ], [ 33.9171257, 18.8677387 ], [ 34.1184311, 18.3675766 ], [ 34.449173, 18.2619286 ], [ 34.6085968, 18.1795998 ], [ 34.6828384, 18.1058369 ], [ 34.8593941, 17.9402256 ], [ 34.9179268, 17.856945 ], [ 35.1358871, 17.596632 ], [ 35.1763382, 17.5585594 ], [ 35.3509903, 17.4119854 ], [ 35.587986, 17.2463741 ], [ 35.6640816, 17.2091274 ], [ 35.6764603, 17.0448723 ], [ 35.6963005, 16.9642353 ], [ 35.6892586, 16.8550968 ], [ 35.6927795, 16.7389164 ], [ 35.6751785, 16.5311985 ], [ 35.6540527, 16.4783897 ], [ 35.587162, 16.418539 ], [ 35.4252129, 16.3375645 ], [ 35.3407173, 16.3481274 ], [ 35.1400414, 16.3586884 ], [ 35.0379448, 16.3481274 ], [ 34.7598152, 16.3375645 ], [ 34.622509, 16.3234825 ], [ 34.489769, 16.3014374 ], [ 34.3458481, 16.3054352 ], [ 34.3193626, 16.2479668 ], [ 34.2175941, 16.0550251 ] ] ] ] } },
{ "type": "Feature", "properties": { "POLYGON_ID": "SDN_GAUL1992_ADM1_68793", "ADM0_ISO3": "SDN", "ADM0_NAME": "Sudan", "ADM0_CODE": 40764, "ADM1_NAME": "Upper Nile", "ADM1_CODE": 68793, "GEOSET": "GAUL", "GEOSET_YEAR": 1992.0, "GEOSET_VERSION": "GAUL_v1", "GEOSET_UNIT": "ADM1", "CENTROID_LONG": 32.104623484151553, "CENTROID_LAT": 8.4556017374882853 }, "geometry": { "type": "MultiPolygon", "coordinates": [ [ [ [ 34.1132451, 9.4986362 ], [ 34.1272179, 9.2364657 ], [ 34.129497, 9.2053281 ], [ 34.1354164, 9.1413088 ], [ 34.13836, 9.11487 ], [ 34.1429276, 9.043479 ], [ 34.1401276, 9.0209487 ], [ 34.14421, 8.9771189 ], [ 34.1437836, 8.9487152 ], [ 34.14401, 8.69036 ], [ 34.143, 8.62211 ], [ 34.1397745, 8.5950264 ], [ 34.1036393, 8.5528196 ], [ 34.0727355, 8.5422324 ], [ 34.05376, 8.52485 ], [ 34.0506991, 8.5228392 ], [ 34.0402847, 8.5159978 ], [ 34.038855, 8.5150582 ], [ 34.0322218, 8.5106982 ], [ 34.0317992, 8.5092371 ], [ 34.0287829, 8.4987704 ], [ 34.01277, 8.48528 ], [ 34.0013177, 8.4939299 ], [ 33.9948821, 8.4885675 ], [ 33.94648, 8.49569 ], [ 33.9072327, 8.4824863 ], [ 33.9039489, 8.4821994 ], [ 33.9029753, 8.4817043 ], [ 33.9017793, 8.4810961 ], [ 33.8975211, 8.4789277 ], [ 33.8926425, 8.4735621 ], [ 33.89205, 8.47291 ], [ 33.8904678, 8.4664826 ], [ 33.8891613, 8.4611701 ], [ 33.8809104, 8.4590353 ], [ 33.8749236, 8.4400076 ], [ 33.8776096, 8.4356456 ], [ 33.8388013, 8.4275575 ], [ 33.8364594, 8.4251794 ], [ 33.8267289, 8.4188478 ], [ 33.8253183, 8.4161927 ], [ 33.8183578, 8.4030912 ], [ 33.7824905, 8.3741233 ], [ 33.7777188, 8.3722722 ], [ 33.743459, 8.3700114 ], [ 33.74236, 8.37045 ], [ 33.73942, 8.36895 ], [ 33.7377736, 8.3653737 ], [ 33.690727, 8.3914074 ], [ 33.6896787, 8.3974411 ], [ 33.6889592, 8.3981011 ], [ 33.67556, 8.42461 ], [ 33.6776714, 8.4290733 ], [ 33.6784503, 8.4307197 ], [ 33.62137, 8.46674 ], [ 33.6003209, 8.4476061 ], [ 33.5976782, 8.4442781 ], [ 33.56257, 8.46681 ], [ 33.4956615, 8.4697579 ], [ 33.4883091, 8.4676078 ], [ 33.487217, 8.4650641 ], [ 33.4833621, 8.4560783 ], [ 33.4808398, 8.4543957 ], [ 33.4789856, 8.4531624 ], [ 33.4493216, 8.438288 ], [ 33.44743, 8.4377379 ], [ 33.4435, 8.43659 ], [ 33.4254086, 8.4463978 ], [ 33.42191, 8.44589 ], [ 33.4056796, 8.4350195 ], [ 33.4015251, 8.4294418 ], [ 33.37279, 8.43046 ], [ 33.37023, 8.4342 ], [ 33.3084738, 8.4574542 ], [ 33.3077817, 8.4571705 ], [ 33.30179, 8.45059 ], [ 33.3009493, 8.4465717 ], [ 33.2997904, 8.4410318 ], [ 33.2708496, 8.4516132 ], [ 33.26942, 8.4518 ], [ 33.2593477, 8.4459411 ], [ 33.2546724, 8.4450634 ], [ 33.2476102, 8.4437388 ], [ 33.2475607, 8.4417794 ], [ 33.2474582, 8.4377677 ], [ 33.2402803, 8.4289289 ], [ 33.23428, 8.42154 ], [ 33.2230188, 8.4288831 ], [ 33.22195, 8.42989 ], [ 33.2158136, 8.4278889 ], [ 33.2141625, 8.4258905 ], [ 33.2165672, 8.4121767 ], [ 33.2160122, 8.4064006 ], [ 33.19481, 8.40526 ], [ 33.19113, 8.40541 ], [ 33.1895729, 8.3706297 ], [ 33.1939388, 8.3466893 ], [ 33.2157397, 8.3544282 ], [ 33.2158594, 8.3444397 ], [ 33.215183, 8.3431241 ], [ 33.2102695, 8.3336463 ], [ 33.1978588, 8.3320201 ], [ 33.1917114, 8.3324205 ], [ 33.2004479, 8.3046956 ], [ 33.2004795, 8.3022395 ], [ 33.178441, 8.2948592 ], [ 33.1693166, 8.2965583 ], [ 33.17221, 8.25944 ], [ 33.1977417, 8.2215881 ], [ 33.19548, 8.21571 ], [ 33.1890069, 8.2091095 ], [ 33.1854909, 8.2062201 ], [ 33.1703289, 8.1985789 ], [ 33.1713512, 8.1858124 ], [ 33.1739999, 8.1838113 ], [ 33.1756701, 8.1658399 ], [ 33.1824086, 8.145142 ], [ 33.190648, 8.1294817 ], [ 33.1661668, 8.1222734 ], [ 33.1657015, 8.121888 ], [ 33.1638505, 8.1164814 ], [ 33.1626075, 8.1128506 ], [ 33.1197583, 8.105828 ], [ 33.11928, 8.10565 ], [ 33.1155903, 8.0971907 ], [ 33.118614, 8.0638492 ], [ 33.1174711, 8.060032 ], [ 33.0848075, 8.0729395 ], [ 33.08246, 8.06923 ], [ 33.0862392, 8.0592711 ], [ 33.0807828, 8.0545359 ], [ 33.0783204, 8.0524473 ], [ 33.0786942, 8.0373786 ], [ 33.0766011, 8.0230406 ], [ 33.0755834, 8.0217577 ], [ 33.0736588, 8.0193323 ], [ 33.05371, 8.01289 ], [ 33.0318702, 7.9896589 ], [ 33.0333434, 7.981586 ], [ 33.0336, 7.98018 ], [ 33.0360762, 7.9762948 ], [ 33.0331053, 7.964976 ], [ 33.0237778, 7.9572489 ], [ 33.0176963, 7.9541246 ], [ 33.0034706, 7.9300711 ], [ 33.0044109, 7.9108284 ], [ 33.0111653, 7.8944074 ], [ 33.013629, 7.8884123 ], [ 33.00413, 7.88473 ], [ 33.0033985, 7.8842773 ], [ 33.00232, 7.88361 ], [ 33.0014767, 7.8780332 ], [ 33.02612, 7.82947 ], [ 33.0462596, 7.8065505 ], [ 33.04698, 7.79841 ], [ 33.0466133, 7.7961638 ], [ 33.0518205, 7.7862103 ], [ 33.0597803, 7.7901596 ], [ 33.0631609, 7.7862699 ], [ 33.075438, 7.791103 ], [ 33.0761583, 7.791507 ], [ 33.08427, 7.79266 ], [ 33.0850246, 7.7932604 ], [ 33.0965653, 7.7893883 ], [ 33.1052762, 7.7880337 ], [ 33.10448, 7.7837 ], [ 33.1000311, 7.7785112 ], [ 33.1642087, 7.7940675 ], [ 33.22273, 7.76688 ], [ 33.2280439, 7.7719174 ], [ 33.2298501, 7.7736165 ], [ 33.2386591, 7.7724076 ], [ 33.2397777, 7.7719783 ], [ 33.2456571, 7.7671179 ], [ 33.2541223, 7.7580311 ], [ 33.2633659, 7.7539072 ], [ 33.278818, 7.7435084 ], [ 33.280109, 7.7408523 ], [ 33.3030888, 7.7267758 ], [ 33.30556, 7.72399 ], [ 33.3459892, 7.7159914 ], [ 33.34611, 7.71681 ], [ 33.3461144, 7.716814 ], [ 33.3493973, 7.7198274 ], [ 33.3810024, 7.7299039 ], [ 33.3840235, 7.7298072 ], [ 33.3857306, 7.7297525 ], [ 33.3899432, 7.7271102 ], [ 33.4019654, 7.7315553 ], [ 33.4025618, 7.7332898 ], [ 33.405551, 7.7328754 ], [ 33.4234334, 7.7467853 ], [ 33.4231702, 7.7478094 ], [ 33.42472, 7.74936 ], [ 33.4314085, 7.7503498 ], [ 33.4362197, 7.7485913 ], [ 33.4384721, 7.7477677 ], [ 33.4439864, 7.7418353 ], [ 33.4618025, 7.7421166 ], [ 33.46179, 7.7452595 ], [ 33.46334, 7.74598 ], [ 33.4730927, 7.7439967 ], [ 33.482641, 7.7367923 ], [ 33.4881493, 7.7312107 ], [ 33.4892992, 7.7312407 ], [ 33.49376, 7.73136 ], [ 33.4999208, 7.7349372 ], [ 33.49996, 7.73496 ], [ 33.5014783, 7.7287545 ], [ 33.5059159, 7.7274523 ], [ 33.5134595, 7.7316797 ], [ 33.5137449, 7.7314196 ], [ 33.5140814, 7.7311131 ], [ 33.5481314, 7.7016585 ], [ 33.55078, 7.70173 ], [ 33.5507888, 7.7017186 ], [ 33.5572793, 7.6933009 ], [ 33.5801377, 7.6862625 ], [ 33.5802641, 7.6870758 ], [ 33.5839013, 7.6989095 ], [ 33.5871185, 7.6976468 ], [ 33.58869, 7.69703 ], [ 33.5980994, 7.7049375 ], [ 33.5993946, 7.7050185 ], [ 33.6006222, 7.7050953 ], [ 33.6021611, 7.7051923 ], [ 33.603179, 7.7039523 ], [ 33.6234461, 7.7030288 ], [ 33.6320839, 7.7018913 ], [ 33.6323087, 7.7011385 ], [ 33.6336399, 7.6940207 ], [ 33.6352528, 7.6931094 ], [ 33.6384377, 7.6913081 ], [ 33.6384468, 7.69131 ], [ 33.64596, 7.69289 ], [ 33.6496823, 7.6917603 ], [ 33.65601, 7.68984 ], [ 33.6607889, 7.6900999 ], [ 33.6624456, 7.6910125 ], [ 33.6712905, 7.6932491 ], [ 33.67779, 7.68244 ], [ 33.6812606, 7.6809002 ], [ 33.683693, 7.6808298 ], [ 33.685646, 7.6763245 ], [ 33.6817693, 7.6754257 ], [ 33.6861189, 7.6709166 ], [ 33.68764, 7.67128 ], [ 33.6921979, 7.6680885 ], [ 33.6899603, 7.6628956 ], [ 33.6898294, 7.6625918 ], [ 33.6948513, 7.66107 ], [ 33.6979182, 7.6581984 ], [ 33.700095, 7.6566083 ], [ 33.71556, 7.65461 ], [ 33.72082, 7.65213 ], [ 33.7220779, 7.6468807 ], [ 33.73466, 7.63123 ], [ 33.74175, 7.62233 ], [ 33.7468624, 7.6206523 ], [ 33.7558504, 7.6166368 ], [ 33.7585117, 7.6133497 ], [ 33.7639444, 7.6123389 ], [ 33.77227, 7.61079 ], [ 33.7742012, 7.6049595 ], [ 33.7809071, 7.60237 ], [ 33.78687, 7.60549 ], [ 33.7954245, 7.6030936 ], [ 33.7961575, 7.6027996 ], [ 33.80317, 7.59282 ], [ 33.82547, 7.57659 ], [ 33.83268, 7.56567 ], [ 33.833838, 7.5649272 ], [ 33.83915, 7.56152 ], [ 33.8411344, 7.5578857 ], [ 33.84265, 7.55511 ], [ 33.8478126, 7.5517705 ], [ 33.8488778, 7.5510814 ], [ 33.85936, 7.53052 ], [ 33.8656, 7.52421 ], [ 33.87508, 7.51462 ], [ 33.8959239, 7.514266 ], [ 33.89837, 7.51639 ], [ 33.8998551, 7.516679 ], [ 33.9008775, 7.5168779 ], [ 33.926821, 7.5116296 ], [ 33.93723, 7.50905 ], [ 33.9453292, 7.5038663 ], [ 33.9460043, 7.5030166 ], [ 33.9468247, 7.5012285 ], [ 33.9568399, 7.4465615 ], [ 33.9998828, 7.4154596 ], [ 34.0237317, 7.3721485 ], [ 34.0316572, 7.3605171 ], [ 34.0316581, 7.3605014 ], [ 34.0320498, 7.3537413 ], [ 34.0303745, 7.3323225 ], [ 34.034287, 7.2900372 ], [ 34.0340694, 7.2828232 ], [ 34.0245173, 7.2644974 ], [ 34.01001, 7.26874 ], [ 34.0422909, 7.2209299 ], [ 34.0900608, 7.1973388 ], [ 34.10283, 7.16957 ], [ 34.18329, 7.13237 ], [ 34.18999, 7.11463 ], [ 34.1911777, 7.1012599 ], [ 34.1940373, 7.0979705 ], [ 34.1942278, 7.0918131 ], [ 34.1878026, 7.0798515 ], [ 34.1909784, 7.0639924 ], [ 34.1942987, 7.0620408 ], [ 34.1950795, 7.0599912 ], [ 34.1927123, 7.046062 ], [ 34.2364212, 7.0024106 ], [ 34.30496, 6.96059 ], [ 34.3432609, 6.9585524 ], [ 34.44401, 6.92557 ], [ 34.4517108, 6.9276498 ], [ 34.4768724, 6.9098975 ], [ 34.480197, 6.904911 ], [ 34.5048596, 6.8804028 ], [ 34.50572, 6.88062 ], [ 34.5075275, 6.87883 ], [ 34.5073983, 6.871895 ], [ 34.5312107, 6.8284792 ], [ 34.5329589, 6.8263309 ], [ 34.5343499, 6.8114194 ], [ 34.5339705, 6.8098783 ], [ 34.5346138, 6.8076901 ], [ 34.53514, 6.8059 ], [ 34.5337431, 6.8008974 ], [ 34.5398449, 6.7958504 ], [ 34.5353881, 6.7928792 ], [ 34.53326, 6.79152 ], [ 34.5285104, 6.7522212 ], [ 34.55274, 6.73165 ], [ 34.6164991, 6.7213491 ], [ 34.638422, 6.735676 ], [ 34.7060376, 6.6862293 ], [ 34.7272459, 6.6398499 ], [ 34.73843, 6.63666 ], [ 34.7530674, 6.6159821 ], [ 34.7726638, 6.5962221 ], [ 34.77452, 6.59852 ], [ 34.8047373, 6.5993652 ], [ 34.8090455, 6.6005502 ], [ 34.8507596, 6.6043338 ], [ 34.8583397, 6.6050656 ], [ 34.88479, 6.58309 ], [ 34.8868085, 6.5800596 ], [ 34.88854, 6.57746 ], [ 34.8930398, 6.5745201 ], [ 34.8932232, 6.5745139 ], [ 34.8937643, 6.5744959 ], [ 34.9083736, 6.5683035 ], [ 34.90835, 6.56712 ], [ 34.9134905, 6.5626805 ], [ 34.92419, 6.55344 ], [ 34.93833, 6.55156 ], [ 34.942021, 6.5399333 ], [ 34.94467, 6.53386 ], [ 34.947829, 6.5310666 ], [ 34.9520077, 6.5232237 ], [ 34.9528, 6.5204 ], [ 34.9534514, 6.5196278 ], [ 34.9546607, 6.518194 ], [ 34.9553262, 6.5143395 ], [ 34.95722, 6.50219 ], [ 34.9672265, 6.5030422 ], [ 34.9719238, 6.5004883 ], [ 34.97951, 6.49038 ], [ 34.9862, 6.48147 ], [ 34.998771, 6.474729 ], [ 35.01954, 6.44702 ], [ 34.98949, 6.38405 ], [ 34.99658, 6.34574 ], [ 34.98651, 6.29945 ], [ 34.9858748, 6.2982266 ], [ 34.9839289, 6.2944789 ], [ 34.97447, 6.28506 ], [ 34.96438, 6.28404 ], [ 34.9554, 6.28161 ], [ 34.95279, 6.26914 ], [ 34.97205, 6.20159 ], [ 34.96876, 6.16457 ], [ 34.9639294, 6.1396784 ], [ 34.96934, 6.09054 ], [ 35.0, 6.07382 ], [ 35.0078785, 6.0024432 ], [ 34.9641418, 5.9917636 ], [ 34.6043663, 5.8737426 ], [ 34.4363785, 5.8223462 ], [ 34.1632156, 5.73383 ], [ 34.0732727, 5.729547 ], [ 34.0175934, 5.7366853 ], [ 33.67733, 5.7937927 ], [ 33.2495041, 5.8666039 ], [ 32.9991837, 5.8642244 ], [ 32.7065086, 5.8651762 ], [ 32.183075, 5.8646722 ], [ 31.6916924, 5.8656306 ], [ 31.6169777, 6.0340967 ], [ 31.5703392, 6.1135707 ], [ 31.5470219, 6.1854305 ], [ 31.4684982, 6.3667455 ], [ 31.4228134, 6.403389 ], [ 31.4080601, 6.4833388 ], [ 31.3509541, 6.5442533 ], [ 31.3185921, 6.6365762 ], [ 31.2172279, 6.7512665 ], [ 31.2067585, 6.7907653 ], [ 31.1044407, 6.8478723 ], [ 30.9749985, 6.9459062 ], [ 30.8855305, 6.9877849 ], [ 30.8664951, 6.9801703 ], [ 30.8350868, 7.0458436 ], [ 30.822237, 7.1058059 ], [ 30.7508526, 7.1491122 ], [ 30.7194443, 7.2052674 ], [ 30.6528206, 7.2223997 ], [ 30.5938091, 7.1995568 ], [ 30.570015, 7.1729069 ], [ 30.5390816, 7.1043782 ], [ 30.4895878, 7.0491748 ], [ 30.3801327, 7.0458436 ], [ 30.3139839, 7.0586925 ], [ 30.2278481, 7.0610719 ], [ 30.1593189, 7.247622 ], [ 30.0037022, 7.6335702 ], [ 29.9570656, 7.789187 ], [ 29.7124329, 7.8293619 ], [ 29.6981792, 7.9505148 ], [ 29.6686745, 8.3121929 ], [ 29.65868, 8.4078474 ], [ 29.4906902, 8.5196819 ], [ 29.4602337, 8.5444279 ], [ 29.2946224, 8.6553106 ], [ 29.2498894, 8.7385921 ], [ 29.15662, 8.9282904 ], [ 29.1014156, 9.0501194 ], [ 28.8196869, 9.0329866 ], [ 28.7654362, 9.0253725 ], [ 28.7230816, 9.0567818 ], [ 28.7606773, 9.0862865 ], [ 28.8011284, 9.0915213 ], [ 28.8149281, 9.1143646 ], [ 28.7916107, 9.1467247 ], [ 28.8058872, 9.1838446 ], [ 28.8777466, 9.2152538 ], [ 28.9441891, 9.2860756 ], [ 28.9013596, 9.3507977 ], [ 28.7585907, 9.4031458 ], [ 28.7880974, 9.4355059 ], [ 28.8057041, 9.487854 ], [ 28.9770107, 9.6411552 ], [ 29.0512505, 9.7296715 ], [ 29.0783768, 9.7501354 ], [ 29.1169224, 9.7487078 ], [ 29.5380878, 9.7501354 ], [ 29.5390396, 10.0818319 ], [ 29.9390278, 10.286644 ], [ 29.9967728, 10.2888021 ], [ 30.2736244, 10.1171865 ], [ 30.4657478, 10.000618 ], [ 30.5337448, 9.9558249 ], [ 30.8262482, 9.7221479 ], [ 30.8926277, 9.7485914 ], [ 31.1808109, 9.749671 ], [ 31.2590637, 9.7561464 ], [ 31.3146496, 9.772337 ], [ 31.3518867, 9.8030977 ], [ 31.5121689, 10.0038557 ], [ 31.7021332, 10.2181053 ], [ 31.7874012, 10.301754 ], [ 31.8575592, 10.4080696 ], [ 31.9730492, 10.6271763 ], [ 32.0092049, 10.6627941 ], [ 32.1473618, 10.7372694 ], [ 32.440403, 11.0265331 ], [ 32.4706268, 11.0427227 ], [ 32.4015465, 11.1744022 ], [ 32.3923721, 11.2467184 ], [ 32.3923721, 11.6660433 ], [ 32.3607063, 11.7237082 ], [ 32.1065788, 11.9449978 ], [ 32.7414207, 11.9469013 ], [ 32.7590294, 12.0116234 ], [ 32.7571259, 12.0687304 ], [ 32.7418938, 12.1291685 ], [ 32.7461777, 12.1996002 ], [ 32.7376137, 12.2357683 ], [ 33.0231476, 12.2267265 ], [ 33.2558594, 12.2143536 ], [ 33.2920265, 12.200552 ], [ 33.2568092, 12.1658125 ], [ 33.1838264, 11.7810154 ], [ 33.1352882, 11.6258745 ], [ 33.1971512, 11.2484922 ], [ 33.2385559, 11.0029316 ], [ 33.2352257, 10.997221 ], [ 33.2656822, 10.8292313 ], [ 33.2190437, 10.7350044 ], [ 33.4826889, 10.6579103 ], [ 33.6678085, 10.4413795 ], [ 33.7939224, 10.337635 ], [ 33.901474, 10.1615543 ], [ 33.9661942, 10.1539402 ], [ 33.9709549, 10.0930262 ], [ 33.9957008, 10.0620928 ], [ 33.9995079, 9.9997511 ], [ 33.9885597, 9.9697695 ], [ 33.9928436, 9.910759 ], [ 33.9771385, 9.8803024 ], [ 33.9652443, 9.8027315 ], [ 33.918129, 9.7565699 ], [ 33.8876724, 9.6237965 ], [ 33.8876724, 9.5462255 ], [ 33.8995705, 9.4986362 ], [ 34.1132451, 9.4986362 ] ] ] ] } },
{ "type": "Feature", "properties": { "POLYGON_ID": "SDN_GAUL1992_ADM1_68790", "ADM0_ISO3": "SDN", "ADM0_NAME": "Sudan", "ADM0_CODE": 40764, "ADM1_NAME": "Kassala", "ADM1_CODE": 68790, "GEOSET": "GAUL", "GEOSET_YEAR": 1992.0, "GEOSET_VERSION": "GAUL_v1", "GEOSET_UNIT": "ADM1", "CENTROID_LONG": 35.624489537806134, "CENTROID_LAT": 17.972707162977837 }, "geometry": { "type": "MultiPolygon", "coordinates": [ [ [ [ 38.5695511, 18.0050423 ], [ 38.452392, 17.8983484 ], [ 38.3899499, 17.7560389 ], [ 38.3875843, 17.7318675 ], [ 38.34169, 17.64962 ], [ 38.28044, 17.62541 ], [ 38.2601296, 17.5585899 ], [ 38.1662323, 17.572962 ], [ 38.10888, 17.55889 ], [ 38.10661, 17.48049 ], [ 38.0706999, 17.4820214 ], [ 38.0676297, 17.5522606 ], [ 38.0038618, 17.5570803 ], [ 37.9725397, 17.5159592 ], [ 37.9769646, 17.4910103 ], [ 37.9177369, 17.4570699 ], [ 37.8753161, 17.4524468 ], [ 37.8370362, 17.5000501 ], [ 37.7748426, 17.4804694 ], [ 37.76554, 17.3839813 ], [ 37.6123209, 17.3741501 ], [ 37.51531, 17.33686 ], [ 37.4924434, 17.3068874 ], [ 37.51738, 17.2588 ], [ 37.4954223, 17.2490625 ], [ 37.49819, 17.20824 ], [ 37.43705, 17.10242 ], [ 37.41447, 17.09932 ], [ 37.3946504, 17.0471308 ], [ 37.31103, 17.09437 ], [ 37.1973605, 17.063363 ], [ 37.12882, 17.05717 ], [ 37.11116, 17.08196 ], [ 37.0212527, 17.0960482 ], [ 37.0020389, 17.0681793 ], [ 37.0182264, 17.0293413 ], [ 36.9835221, 16.969113 ], [ 37.0041393, 16.9414307 ], [ 37.0109696, 16.8800607 ], [ 37.0019623, 16.8302011 ], [ 37.0292711, 16.8010994 ], [ 36.9826825, 16.7497393 ], [ 36.9905403, 16.7258407 ], [ 36.9557613, 16.6865199 ], [ 36.9011001, 16.6757973 ], [ 36.90379, 16.61065 ], [ 36.88745, 16.54543 ], [ 36.89964, 16.49641 ], [ 36.9390115, 16.4442498 ], [ 36.9625703, 16.4354995 ], [ 36.9489693, 16.3660096 ], [ 36.93365, 16.3541 ], [ 36.959058, 16.2913205 ], [ 36.89927, 16.2264 ], [ 36.81642, 15.95854 ], [ 36.7679774, 15.8297031 ], [ 36.69969, 15.71301 ], [ 36.63879, 15.52195 ], [ 36.61345, 15.41321 ], [ 36.54157, 15.22803 ], [ 36.47113, 15.1975 ], [ 36.4387628, 15.1566335 ], [ 36.4495484, 15.100398 ], [ 36.47031, 14.9195288 ], [ 36.50017, 14.60405 ], [ 36.50539, 14.51196 ], [ 36.52689, 14.32914 ], [ 36.5603404, 14.2577128 ], [ 36.4987084, 14.065652 ], [ 36.4759001, 14.0093604 ], [ 36.4528499, 13.9810993 ], [ 36.4556905, 13.9464088 ], [ 36.4929439, 13.8561604 ], [ 36.4985478, 13.8450887 ], [ 36.5009012, 13.8322203 ], [ 36.4536968, 13.7662693 ], [ 36.4522542, 13.7641963 ], [ 36.44405, 13.75509 ], [ 36.4416641, 13.752441 ], [ 36.42242, 13.7288 ], [ 36.3752811, 13.5823973 ], [ 36.3746677, 13.5397799 ], [ 36.3741494, 13.5302287 ], [ 36.33312, 13.43896 ], [ 36.2923902, 13.3242405 ], [ 36.2586905, 13.2878898 ], [ 36.2515922, 13.2830615 ], [ 36.183423, 13.0402592 ], [ 36.1797731, 13.0117723 ], [ 36.1741852, 12.995668 ], [ 36.1715805, 12.9881614 ], [ 36.15029, 12.94091 ], [ 36.15336, 12.92551 ], [ 36.17684, 12.90071 ], [ 36.18224, 12.88992 ], [ 36.1813301, 12.876811 ], [ 36.1808519, 12.8751132 ], [ 36.17645, 12.8194108 ], [ 36.1763025, 12.7926695 ], [ 36.1613662, 12.7178589 ], [ 36.157, 12.70966 ], [ 36.1560377, 12.7005017 ], [ 36.1574774, 12.687961 ], [ 36.1551684, 12.6809202 ], [ 36.1116006, 12.6838399 ], [ 36.1092427, 12.6921169 ], [ 36.06867, 12.72447 ], [ 36.0543419, 12.7198787 ], [ 36.0415094, 12.7191302 ], [ 36.0388435, 12.720009 ], [ 36.0092703, 12.7245172 ], [ 36.0074541, 12.7241602 ], [ 35.7838, 12.66362 ], [ 35.7123044, 12.671024 ], [ 35.70768, 12.66685 ], [ 35.7071188, 12.6665642 ], [ 35.6802292, 12.6846209 ], [ 35.6021881, 12.7023296 ], [ 35.5548286, 12.7311563 ], [ 35.5167351, 12.7144775 ], [ 35.4864655, 12.7305393 ], [ 35.4419899, 12.7192135 ], [ 35.419754, 12.7350693 ], [ 35.333889, 12.7377453 ], [ 35.3151512, 12.7743979 ], [ 35.2852936, 12.7939587 ], [ 35.2058105, 12.8213453 ], [ 35.1697769, 12.8738518 ], [ 35.1333313, 12.9045324 ], [ 35.0804138, 12.8989725 ], [ 35.0596161, 12.9292421 ], [ 35.0163765, 12.942832 ], [ 34.975605, 12.9325361 ], [ 34.9578972, 12.9700117 ], [ 34.9053917, 12.9786596 ], [ 34.883564, 13.0424919 ], [ 34.8094368, 13.0826445 ], [ 34.8201447, 13.1038532 ], [ 34.7888451, 13.1666555 ], [ 34.7686653, 13.1833344 ], [ 34.7099838, 13.1893053 ], [ 34.6589165, 13.1765394 ], [ 34.5723839, 13.2537413 ], [ 34.3648949, 13.495018 ], [ 34.2644806, 13.6520624 ], [ 34.3168297, 13.6829958 ], [ 34.3120689, 13.7315369 ], [ 34.2682877, 13.7191639 ], [ 34.2245064, 13.7263021 ], [ 34.1916695, 13.7500963 ], [ 34.1559792, 13.7462893 ], [ 34.1207619, 13.8148184 ], [ 34.0955391, 13.8214808 ], [ 34.0612755, 13.9028578 ], [ 34.0585022, 13.9347334 ], [ 34.0251884, 13.9475822 ], [ 34.0128174, 13.9866056 ], [ 33.981884, 13.9989786 ], [ 33.953331, 14.0575132 ], [ 33.9519005, 14.0889225 ], [ 33.9081192, 14.1303253 ], [ 33.9209671, 14.1722031 ], [ 34.2755089, 14.6718903 ], [ 34.3035851, 14.7508888 ], [ 34.1741447, 14.9426727 ], [ 34.0166245, 15.1839504 ], [ 33.7111015, 15.3105373 ], [ 33.640667, 15.3157721 ], [ 33.6287689, 15.3942947 ], [ 33.5901337, 15.4463491 ], [ 33.5691948, 15.4553909 ], [ 33.5791893, 15.5519972 ], [ 33.6110725, 15.605773 ], [ 33.6272545, 15.6595488 ], [ 33.6677055, 15.6885786 ], [ 33.7152939, 15.6876259 ], [ 33.7995262, 15.7147522 ], [ 33.9865532, 15.7628174 ], [ 34.0836334, 15.7333117 ], [ 34.3805923, 15.6833429 ], [ 34.3363342, 15.8470507 ], [ 34.2175941, 16.0550251 ], [ 34.3193626, 16.2479668 ], [ 34.3458481, 16.3054352 ], [ 34.489769, 16.3014374 ], [ 34.622509, 16.3234825 ], [ 34.7598152, 16.3375645 ], [ 35.0379448, 16.3481274 ], [ 35.1400414, 16.3586884 ], [ 35.3407173, 16.3481274 ], [ 35.4252129, 16.3375645 ], [ 35.587162, 16.418539 ], [ 35.6540527, 16.4783897 ], [ 35.6751785, 16.5311985 ], [ 35.6927795, 16.7389164 ], [ 35.6892586, 16.8550968 ], [ 35.6963005, 16.9642353 ], [ 35.6764603, 17.0448723 ], [ 35.6640816, 17.2091274 ], [ 35.587986, 17.2463741 ], [ 35.3509903, 17.4119854 ], [ 35.1763382, 17.5585594 ], [ 35.1358871, 17.596632 ], [ 34.9179268, 17.856945 ], [ 34.8593941, 17.9402256 ], [ 34.6828384, 18.1058369 ], [ 34.6085968, 18.1795998 ], [ 34.449173, 18.2619286 ], [ 34.1184311, 18.3675766 ], [ 33.9171257, 18.8677387 ], [ 33.8010101, 19.1689796 ], [ 33.6825104, 19.354578 ], [ 33.6725197, 19.4350033 ], [ 33.6934586, 19.7091179 ], [ 33.6082726, 20.0693665 ], [ 33.6696625, 20.4986229 ], [ 33.6396828, 20.5381203 ], [ 33.6182671, 20.6023674 ], [ 33.5797195, 20.6504326 ], [ 33.5554504, 20.7327614 ], [ 33.4764519, 20.7646465 ], [ 33.4412346, 20.7946262 ], [ 33.4026871, 20.8498306 ], [ 33.349865, 20.8926601 ], [ 33.2865715, 20.9264488 ], [ 33.2703896, 20.9721355 ], [ 33.297039, 21.0539875 ], [ 33.2922821, 21.1729622 ], [ 33.3560486, 21.2491035 ], [ 33.3541451, 21.295742 ], [ 33.3313026, 21.3680763 ], [ 33.3184547, 21.4466 ], [ 33.2584915, 21.5146523 ], [ 33.5631753, 21.7260437 ], [ 34.00521, 21.77233 ], [ 34.0865289, 22.0025085 ], [ 36.8824988, 22.0051335 ], [ 36.8666286, 21.9731676 ], [ 36.8840302, 21.9439257 ], [ 36.8742612, 21.9144608 ], [ 36.8870106, 21.8165701 ], [ 36.8792695, 21.7994849 ], [ 36.8984445, 21.7317853 ], [ 36.901339, 21.6746863 ], [ 36.9176282, 21.5948423 ], [ 36.9613248, 21.5302731 ], [ 37.0004516, 21.4450375 ], [ 37.0553706, 21.3566263 ], [ 37.0920546, 21.3246148 ], [ 37.1253645, 21.2758252 ], [ 37.1967734, 21.2189443 ], [ 37.2739661, 21.1319699 ], [ 37.2901184, 21.0872125 ], [ 37.3169207, 21.069847 ], [ 37.2911863, 21.0177174 ], [ 37.2370249, 21.0305507 ], [ 37.2357643, 21.1373678 ], [ 37.1999549, 21.1602876 ], [ 37.1615164, 21.2174051 ], [ 37.1336659, 21.2272675 ], [ 37.1032169, 21.2038899 ], [ 37.1004942, 21.1591999 ], [ 37.1230882, 21.151858 ], [ 37.1256981, 21.0751789 ], [ 37.0933589, 21.0734034 ], [ 37.0946501, 21.0366085 ], [ 37.1295684, 20.9958104 ], [ 37.1707544, 20.8773301 ], [ 37.1678957, 20.7967265 ], [ 37.1786617, 20.7093164 ], [ 37.2368148, 20.5657586 ], [ 37.2305997, 20.4882067 ], [ 37.1957715, 20.4644218 ], [ 37.2064153, 20.4063511 ], [ 37.1869297, 20.3330377 ], [ 37.2059721, 20.2554872 ], [ 37.1924068, 20.2254846 ], [ 37.2141949, 20.1803975 ], [ 37.2167439, 20.0759003 ], [ 37.181928, 20.0351266 ], [ 37.2241667, 19.9122367 ], [ 37.2665407, 19.8328429 ], [ 37.2673685, 19.7563852 ], [ 37.2442495, 19.6696533 ], [ 37.2418626, 19.5692723 ], [ 37.2946595, 19.47678 ], [ 37.2885325, 19.4656509 ], [ 37.3207637, 19.353693 ], [ 37.3164082, 19.3155461 ], [ 37.3357472, 19.2132461 ], [ 37.3388154, 19.1398234 ], [ 37.359241, 19.134944 ], [ 37.3688405, 19.0589219 ], [ 37.3928759, 19.0234706 ], [ 37.3968345, 18.9493465 ], [ 37.4164375, 18.908058 ], [ 37.4132262, 18.8755857 ], [ 37.4641171, 18.8121518 ], [ 37.5090438, 18.7308854 ], [ 37.5708426, 18.7101217 ], [ 37.6630151, 18.7253524 ], [ 37.6981853, 18.7034528 ], [ 37.7416617, 18.7081277 ], [ 37.7514121, 18.6684035 ], [ 37.8069036, 18.6154537 ], [ 37.9105686, 18.5829878 ], [ 37.9534111, 18.5551574 ], [ 38.0097435, 18.4797398 ], [ 38.1192843, 18.4099655 ], [ 38.0878137, 18.3912724 ], [ 38.0788052, 18.3603214 ], [ 38.1025442, 18.2816192 ], [ 38.1615322, 18.2378421 ], [ 38.2600364, 18.2106871 ], [ 38.3423897, 18.1709327 ], [ 38.3939072, 18.1565488 ], [ 38.4134541, 18.1124328 ], [ 38.5086963, 18.0579615 ], [ 38.5193486, 18.1019072 ], [ 38.5619028, 18.0495888 ], [ 38.5695511, 18.0050423 ] ] ], [ [ [ 37.2769408, 20.8490857 ], [ 37.277381, 20.7741769 ], [ 37.2502105, 20.7566541 ], [ 37.2553107, 20.8367674 ], [ 37.2769408, 20.8490857 ] ] ] ] } },
{ "type": "Feature", "properties": { "POLYGON_ID": "SDN_GAUL1992_ADM1_2753", "ADM0_ISO3": "SDN", "ADM0_NAME": "Sudan", "ADM0_CODE": 40764, "ADM1_NAME": "Khartoum", "ADM1_CODE": 2753, "GEOSET": "GAUL", "GEOSET_YEAR": 1992.0, "GEOSET_VERSION": "GAUL_v1", "GEOSET_UNIT": "ADM1", "CENTROID_LONG": 32.81115175597138, "CENTROID_LAT": 15.862042648898569 }, "geometry": { "type": "MultiPolygon", "coordinates": [ [ [ [ 34.2175941, 16.0550251 ], [ 34.3363342, 15.8470507 ], [ 34.3805923, 15.6833429 ], [ 34.0836334, 15.7333117 ], [ 33.9865532, 15.7628174 ], [ 33.7995262, 15.7147522 ], [ 33.7152939, 15.6876259 ], [ 33.6677055, 15.6885786 ], [ 33.6272545, 15.6595488 ], [ 33.6110725, 15.605773 ], [ 33.5791893, 15.5519972 ], [ 33.5691948, 15.4553909 ], [ 33.5001907, 15.4734745 ], [ 33.2493935, 15.3240452 ], [ 33.1784859, 15.2621784 ], [ 33.0747414, 15.2902565 ], [ 32.9457779, 15.2655096 ], [ 32.9205551, 15.2750282 ], [ 32.6697578, 15.2502813 ], [ 32.498436, 15.2369566 ], [ 32.4432335, 15.2226801 ], [ 32.436573, 15.1841326 ], [ 32.3556709, 15.1879396 ], [ 32.1981506, 15.4925108 ], [ 32.1001167, 15.719511 ], [ 31.8959579, 15.9917212 ], [ 31.8031597, 16.1292534 ], [ 31.7836475, 16.2030182 ], [ 31.7079811, 16.379097 ], [ 31.6185131, 16.5370941 ], [ 31.8303089, 16.657196 ], [ 31.8831921, 16.6327572 ], [ 32.1755333, 16.4028816 ], [ 32.2529907, 16.3913879 ], [ 32.6987457, 16.3394165 ], [ 32.8061867, 16.2539635 ], [ 33.0880356, 16.2044907 ], [ 33.4358444, 16.1135406 ], [ 33.531292, 16.0380821 ], [ 33.6542244, 15.9851103 ], [ 33.8091393, 15.9646215 ], [ 33.906086, 15.9896078 ], [ 34.2175941, 16.0550251 ] ] ] ] } }
]
}
