{
"type": "FeatureCollection",
"name": "SDN_GAUL2014_ADM0",
"crs": { "type": "name", "properties": { "name": "urn:ogc:def:crs:OGC:1.3:CRS84" } },
"features": [
{ "type": "Feature", "properties": { "POLYGON_ID": "SDN_GAUL2014_ADM0_6", "ADM0_ISO3": "SDN", "ADM0_NAME": "Sudan", "ADM0_CODE": 6, "GEOSET": "GAUL", "GEOSET_YEAR": 2014.0, "GEOSET_VERSION": "GAUL_v1", "GEOSET_UNIT": "ADM0", "CENTROID_LONG": 29.957933888631672, "CENTROID_LAT": 16.019691058696612 }, "geometry": { "type": "MultiPolygon", "coordinates": [ [ [ [ 31.4122104, 22.0077797 ], [ 31.4144386, 22.0000005 ], [ 31.4146246, 22.0000002 ], [ 31.5195299, 22.0000987 ], [ 31.988843, 22.0005392 ], [ 32.4122693, 22.0009367 ], [ 32.644449, 22.0011546 ], [ 33.182633, 22.0016598 ], [ 33.1847352, 21.9999311 ], [ 33.56408, 21.72539 ], [ 34.00521, 21.77233 ], [ 34.08562, 22.0 ], [ 34.0865289, 22.0025085 ], [ 36.8824988, 22.0051335 ], [ 36.8666286, 21.9731676 ], [ 36.8840302, 21.9439257 ], [ 36.8742612, 21.9144608 ], [ 36.8870106, 21.8165701 ], [ 36.8792695, 21.7994849 ], [ 36.8984445, 21.7317853 ], [ 36.901339, 21.6746863 ], [ 36.9151045, 21.6365117 ], [ 36.9176282, 21.5948423 ], [ 36.9613248, 21.5302731 ], [ 37.0004516, 21.4450375 ], [ 37.0443967, 21.3863566 ], [ 37.0553706, 21.3566263 ], [ 37.0920546, 21.3246148 ], [ 37.1253645, 21.2758252 ], [ 37.1631843, 21.237888 ], [ 37.1967734, 21.2189443 ], [ 37.2503993, 21.1528369 ], [ 37.2739661, 21.1319699 ], [ 37.2901184, 21.0872125 ], [ 37.3169207, 21.069847 ], [ 37.2911863, 21.0177174 ], [ 37.2549036, 21.0138742 ], [ 37.2370249, 21.0305507 ], [ 37.2360325, 21.0682533 ], [ 37.2573842, 21.0716912 ], [ 37.232952, 21.1083792 ], [ 37.2357643, 21.1373678 ], [ 37.2049634, 21.1432221 ], [ 37.1999549, 21.1602876 ], [ 37.1606166, 21.1681016 ], [ 37.1740549, 21.191157 ], [ 37.1615164, 21.2174051 ], [ 37.1336659, 21.2272675 ], [ 37.1032169, 21.2038899 ], [ 37.1004942, 21.1591999 ], [ 37.1230882, 21.151858 ], [ 37.1183741, 21.1122941 ], [ 37.1256981, 21.0751789 ], [ 37.0933589, 21.0734034 ], [ 37.0946501, 21.0366085 ], [ 37.1295684, 20.9958104 ], [ 37.1626289, 20.9148263 ], [ 37.1707544, 20.8773301 ], [ 37.1678957, 20.7967265 ], [ 37.1754977, 20.7906293 ], [ 37.1835748, 20.7217248 ], [ 37.1786617, 20.7093164 ], [ 37.207499, 20.6300731 ], [ 37.2368148, 20.5657586 ], [ 37.2402808, 20.5256336 ], [ 37.2305997, 20.4882067 ], [ 37.2379463, 20.4669139 ], [ 37.1957715, 20.4644218 ], [ 37.1931465, 20.4319578 ], [ 37.2064153, 20.4063511 ], [ 37.1893537, 20.3709059 ], [ 37.1869297, 20.3330377 ], [ 37.2042499, 20.2866198 ], [ 37.2059721, 20.2554872 ], [ 37.1924068, 20.2254846 ], [ 37.2141949, 20.1803975 ], [ 37.2167439, 20.0759003 ], [ 37.2030533, 20.0458977 ], [ 37.181928, 20.0351266 ], [ 37.2241667, 19.9122367 ], [ 37.257229, 19.8633897 ], [ 37.2665407, 19.8328429 ], [ 37.2673685, 19.7563852 ], [ 37.2560569, 19.6710557 ], [ 37.2442495, 19.6696533 ], [ 37.2418626, 19.5692723 ], [ 37.2946595, 19.47678 ], [ 37.2885325, 19.4656509 ], [ 37.3207637, 19.353693 ], [ 37.3164082, 19.3155461 ], [ 37.3357472, 19.2132461 ], [ 37.330816, 19.1915727 ], [ 37.3388154, 19.1398234 ], [ 37.359241, 19.134944 ], [ 37.3688405, 19.0589219 ], [ 37.3928759, 19.0234706 ], [ 37.3968345, 18.9493465 ], [ 37.4164375, 18.908058 ], [ 37.4132262, 18.8755857 ], [ 37.4331797, 18.8388029 ], [ 37.4641171, 18.8121518 ], [ 37.5090438, 18.7308854 ], [ 37.5708426, 18.7101217 ], [ 37.6630151, 18.7253524 ], [ 37.6981853, 18.7034528 ], [ 37.7416617, 18.7081277 ], [ 37.7514121, 18.6684035 ], [ 37.7371881, 18.6370186 ], [ 37.7726935, 18.639829 ], [ 37.8069036, 18.6154537 ], [ 37.9105686, 18.5829878 ], [ 37.9534111, 18.5551574 ], [ 38.0097435, 18.4797398 ], [ 38.057439, 18.4452125 ], [ 38.1192843, 18.4099655 ], [ 38.0878137, 18.3912724 ], [ 38.0788052, 18.3603214 ], [ 38.1025442, 18.2816192 ], [ 38.1615322, 18.2378421 ], [ 38.2119926, 18.2260787 ], [ 38.2770065, 18.2455249 ], [ 38.2600364, 18.2106871 ], [ 38.300249, 18.1971863 ], [ 38.3423897, 18.1709327 ], [ 38.3703939, 18.1765649 ], [ 38.3875636, 18.1985149 ], [ 38.4059892, 18.1692082 ], [ 38.3939072, 18.1565488 ], [ 38.4134541, 18.1124328 ], [ 38.4805608, 18.1016783 ], [ 38.4641917, 18.0812839 ], [ 38.5086963, 18.0579615 ], [ 38.5193486, 18.1019072 ], [ 38.5447182, 18.0827787 ], [ 38.5619028, 18.0495888 ], [ 38.5561641, 18.0294835 ], [ 38.5695511, 18.0050423 ], [ 38.452392, 17.8983484 ], [ 38.3899499, 17.7560389 ], [ 38.3875843, 17.7318675 ], [ 38.34169, 17.64962 ], [ 38.29905, 17.63934 ], [ 38.28044, 17.62541 ], [ 38.2601296, 17.5585899 ], [ 38.24347, 17.55435 ], [ 38.1662323, 17.572962 ], [ 38.1303307, 17.57313 ], [ 38.10888, 17.55889 ], [ 38.10135, 17.52242 ], [ 38.10661, 17.48049 ], [ 38.0706999, 17.4820214 ], [ 38.0676297, 17.5522606 ], [ 38.05682, 17.56466 ], [ 38.01841, 17.54913 ], [ 38.0038618, 17.5570803 ], [ 37.9725397, 17.5159592 ], [ 37.9769646, 17.4910103 ], [ 37.9177369, 17.4570699 ], [ 37.87025, 17.45256 ], [ 37.857, 17.48603 ], [ 37.8370362, 17.5000501 ], [ 37.7873701, 17.49615 ], [ 37.7748426, 17.4804694 ], [ 37.76554, 17.3839813 ], [ 37.6123209, 17.3741501 ], [ 37.51531, 17.33686 ], [ 37.4924434, 17.3068874 ], [ 37.51738, 17.2588 ], [ 37.4954223, 17.2490625 ], [ 37.49819, 17.20824 ], [ 37.4661001, 17.1582794 ], [ 37.4680698, 17.1472995 ], [ 37.43705, 17.10242 ], [ 37.41447, 17.09932 ], [ 37.3946504, 17.0471308 ], [ 37.31103, 17.09437 ], [ 37.2521391, 17.0756101 ], [ 37.2200709, 17.0786699 ], [ 37.1973605, 17.063363 ], [ 37.12882, 17.05717 ], [ 37.11116, 17.08196 ], [ 37.0212527, 17.0960482 ], [ 37.0020389, 17.0681793 ], [ 37.0182264, 17.0293413 ], [ 36.9835221, 16.969113 ], [ 37.0041393, 16.9414307 ], [ 36.99839, 16.9183 ], [ 37.0109696, 16.8800607 ], [ 37.0019623, 16.8302011 ], [ 37.0292711, 16.8010994 ], [ 36.9826825, 16.7497393 ], [ 36.9905403, 16.7258407 ], [ 36.9557613, 16.6865199 ], [ 36.9011001, 16.6757973 ], [ 36.90379, 16.61065 ], [ 36.88745, 16.54543 ], [ 36.89964, 16.49641 ], [ 36.9390115, 16.4442498 ], [ 36.9625703, 16.4354995 ], [ 36.9489693, 16.3660096 ], [ 36.93365, 16.3541 ], [ 36.9584104, 16.2806405 ], [ 36.9316384, 16.2629057 ], [ 36.89927, 16.2264 ], [ 36.86373, 16.11646 ], [ 36.81642, 15.95854 ], [ 36.7679774, 15.8297031 ], [ 36.7468695, 15.800829 ], [ 36.69969, 15.71301 ], [ 36.63879, 15.52195 ], [ 36.6302575, 15.4680404 ], [ 36.61487, 15.4416593 ], [ 36.61345, 15.41321 ], [ 36.54157, 15.22803 ], [ 36.47113, 15.1975 ], [ 36.4387628, 15.1566335 ], [ 36.4495484, 15.100398 ], [ 36.47031, 14.9195288 ], [ 36.47199, 14.8554707 ], [ 36.4819318, 14.7932519 ], [ 36.50017, 14.60405 ], [ 36.50539, 14.51196 ], [ 36.52689, 14.32914 ], [ 36.5483559, 14.2682628 ], [ 36.5603404, 14.2577128 ], [ 36.5344675, 14.1711004 ], [ 36.4987084, 14.065652 ], [ 36.4759001, 14.0093604 ], [ 36.4528499, 13.9810993 ], [ 36.4556905, 13.9464088 ], [ 36.4747629, 13.9103392 ], [ 36.5009012, 13.8322203 ], [ 36.42242, 13.7288 ], [ 36.3752811, 13.5823973 ], [ 36.3741494, 13.5302287 ], [ 36.33312, 13.43896 ], [ 36.2923902, 13.3242405 ], [ 36.2515922, 13.2830615 ], [ 36.183423, 13.0402592 ], [ 36.1808827, 13.0149699 ], [ 36.15029, 12.94091 ], [ 36.18224, 12.88992 ], [ 36.17667, 12.8602633 ], [ 36.1742725, 12.7420907 ], [ 36.157, 12.70966 ], [ 36.1551684, 12.6809202 ], [ 36.1116006, 12.6838399 ], [ 36.1007771, 12.7125612 ], [ 36.06867, 12.72447 ], [ 35.98482, 12.71971 ], [ 35.9518328, 12.7053979 ], [ 35.8848819, 12.6919182 ], [ 35.8409004, 12.6757175 ], [ 35.7838, 12.66362 ], [ 35.7130504, 12.6716974 ], [ 35.6875702, 12.6573683 ], [ 35.68189, 12.60746 ], [ 35.6418719, 12.6020483 ], [ 35.5913923, 12.514289 ], [ 35.5611303, 12.4709605 ], [ 35.5416377, 12.4292811 ], [ 35.4284711, 12.2479126 ], [ 35.43848, 12.20381 ], [ 35.4200899, 12.1858062 ], [ 35.3960217, 12.1834081 ], [ 35.33366, 12.07301 ], [ 35.3424809, 12.0337311 ], [ 35.30217, 12.01217 ], [ 35.2932803, 11.9652308 ], [ 35.2752006, 11.935951 ], [ 35.2177513, 11.8897011 ], [ 35.1539821, 11.8493885 ], [ 35.10958, 11.81582 ], [ 35.08152, 11.78234 ], [ 35.0547106, 11.7343712 ], [ 35.0667104, 11.6755793 ], [ 35.0924299, 11.6235193 ], [ 35.0895908, 11.546479 ], [ 35.06085, 11.47298 ], [ 35.0594199, 11.4377918 ], [ 35.03728, 11.3956 ], [ 34.9988801, 11.3457298 ], [ 34.9786806, 11.2938814 ], [ 34.9556225, 11.2537499 ], [ 34.9575894, 11.2367416 ], [ 34.9871422, 11.202422 ], [ 35.00696, 11.15977 ], [ 34.9712395, 11.0186386 ], [ 34.95246, 10.9674897 ], [ 34.9724, 10.9007 ], [ 34.9091, 10.82861 ], [ 34.90387, 10.80881 ], [ 34.8632096, 10.766039 ], [ 34.77729, 10.7128607 ], [ 34.7753501, 10.7595195 ], [ 34.7564907, 10.7628495 ], [ 34.69906, 10.82846 ], [ 34.6019807, 10.9041296 ], [ 34.5416006, 10.8581805 ], [ 34.4721425, 10.8160674 ], [ 34.41286, 10.72573 ], [ 34.3844597, 10.6724097 ], [ 34.29986, 10.58783 ], [ 34.28294, 10.52724 ], [ 34.3254271, 10.4753981 ], [ 34.2967124, 10.4087376 ], [ 34.29591, 10.39447 ], [ 34.3499173, 10.2091809 ], [ 34.3445103, 10.1604112 ], [ 34.3306687, 10.1235287 ], [ 34.30766, 10.10059 ], [ 34.24977, 10.06128 ], [ 34.23211, 10.03861 ], [ 34.2214502, 9.983369 ], [ 34.2226922, 9.8935187 ], [ 34.1531796, 9.7088686 ], [ 34.1085329, 9.5742901 ], [ 34.1132455, 9.4986362 ], [ 33.8995705, 9.4986362 ], [ 33.8876724, 9.5462255 ], [ 33.8876724, 9.6237965 ], [ 33.918129, 9.7565699 ], [ 33.9443016, 9.7741785 ], [ 33.9652443, 9.8027315 ], [ 33.9771385, 9.8803024 ], [ 33.9928436, 9.910759 ], [ 33.9885597, 9.9697695 ], [ 33.9995079, 9.9997511 ], [ 33.9957008, 10.0620928 ], [ 33.9709549, 10.0930262 ], [ 33.9661942, 10.1539402 ], [ 33.9509659, 10.1620302 ], [ 33.901474, 10.1615543 ], [ 33.8105774, 10.3057499 ], [ 33.7939224, 10.337635 ], [ 33.6678085, 10.4413795 ], [ 33.4826889, 10.6579103 ], [ 33.2190437, 10.7350044 ], [ 33.2656822, 10.8292313 ], [ 33.2352257, 10.997221 ], [ 33.2385559, 11.0029316 ], [ 33.1971512, 11.2484922 ], [ 33.1352882, 11.6258745 ], [ 33.1733665, 11.7386708 ], [ 33.1838264, 11.7810154 ], [ 33.222374, 11.9927874 ], [ 33.2568092, 12.1658125 ], [ 33.2920265, 12.200552 ], [ 33.2558594, 12.2143536 ], [ 33.0231476, 12.2267265 ], [ 32.7376137, 12.2357683 ], [ 32.7461777, 12.1996002 ], [ 32.7418938, 12.1291685 ], [ 32.7571259, 12.0687304 ], [ 32.7504616, 12.0425558 ], [ 32.7590294, 12.0116234 ], [ 32.7414207, 11.9469013 ], [ 32.4744453, 11.9464254 ], [ 32.1065788, 11.9449978 ], [ 32.3607063, 11.7237082 ], [ 32.3845024, 11.6965828 ], [ 32.3923721, 11.6660433 ], [ 32.3923721, 11.2467184 ], [ 32.4015465, 11.1744022 ], [ 32.4463387, 11.082119 ], [ 32.4706268, 11.0427227 ], [ 32.440403, 11.0265331 ], [ 32.3772621, 10.9655495 ], [ 32.1473618, 10.7372694 ], [ 32.0092049, 10.6627941 ], [ 31.9730492, 10.6271763 ], [ 31.8575592, 10.4080696 ], [ 31.7874012, 10.301754 ], [ 31.7021332, 10.2181053 ], [ 31.5121689, 10.0038557 ], [ 31.4479485, 9.9266825 ], [ 31.3518867, 9.8030977 ], [ 31.3146496, 9.772337 ], [ 31.2590637, 9.7561464 ], [ 31.1808109, 9.749671 ], [ 30.8926277, 9.7485914 ], [ 30.8613262, 9.7302427 ], [ 30.8262482, 9.7221479 ], [ 30.5337448, 9.9558249 ], [ 30.4657478, 10.000618 ], [ 30.2736244, 10.1171865 ], [ 30.0636921, 10.2488661 ], [ 29.9967728, 10.2888021 ], [ 29.9390278, 10.286644 ], [ 29.7831726, 10.2060394 ], [ 29.5390396, 10.0818319 ], [ 29.5380878, 9.7501354 ], [ 29.1169224, 9.7487078 ], [ 29.0783768, 9.7501354 ], [ 29.0512505, 9.7296715 ], [ 28.9770107, 9.6411552 ], [ 28.9770085, 9.6411609 ], [ 28.9752858, 10.1176926 ], [ 27.8150605, 10.1433906 ], [ 27.8145324, 9.8007944 ], [ 27.9072208, 9.6101589 ], [ 27.8222752, 9.6019287 ], [ 27.7186623, 9.6062069 ], [ 27.4672337, 9.6209402 ], [ 27.2367191, 9.6256933 ], [ 27.1373825, 9.6242676 ], [ 26.9924202, 9.5938492 ], [ 26.853159, 9.5315857 ], [ 26.7504978, 9.4968901 ], [ 26.7039185, 9.4883347 ], [ 26.5955524, 9.508297 ], [ 26.5095253, 9.529685 ], [ 26.3959312, 9.5658073 ], [ 26.3479271, 9.5943241 ], [ 26.3137054, 9.6366253 ], [ 26.2666512, 9.7473679 ], [ 26.211256, 9.913332 ], [ 26.1159859, 9.9949942 ], [ 26.1140842, 10.0116291 ], [ 26.0760612, 10.0667629 ], [ 26.0499191, 10.1171436 ], [ 25.985281, 10.164197 ], [ 25.931097, 10.1841593 ], [ 25.9325237, 10.375226 ], [ 25.9182644, 10.4075451 ], [ 25.8517246, 10.4389143 ], [ 25.8132248, 10.4398651 ], [ 25.7761536, 10.4161005 ], [ 25.7438335, 10.4051685 ], [ 25.7238712, 10.4180012 ], [ 25.6915512, 10.3989897 ], [ 25.6649342, 10.4037428 ], [ 25.6256924, 10.3964119 ], [ 25.5352726, 10.3607197 ], [ 25.4629364, 10.3740444 ], [ 25.362524, 10.3540573 ], [ 25.3396797, 10.3359728 ], [ 25.2644901, 10.3412085 ], [ 25.2544956, 10.351202 ], [ 25.1902504, 10.3321657 ], [ 25.1269569, 10.3255033 ], [ 25.0736561, 10.2674446 ], [ 25.0570011, 10.2198553 ], [ 25.028923, 10.1736937 ], [ 25.0593796, 10.1213455 ], [ 25.053194, 10.0965996 ], [ 25.0303497, 10.0718527 ], [ 25.0351086, 10.038065 ], [ 25.0117912, 10.041872 ], [ 25.0027485, 10.0028486 ], [ 24.9827614, 9.9928551 ], [ 24.9461174, 9.931941 ], [ 24.8537941, 9.8762617 ], [ 24.8190536, 9.8367624 ], [ 24.8238125, 9.82201 ], [ 24.7624226, 9.7634745 ], [ 24.7257786, 9.7506256 ], [ 24.7395802, 9.7120781 ], [ 24.7348213, 9.618804 ], [ 24.7533817, 9.5831118 ], [ 24.7543335, 9.5193424 ], [ 24.7391052, 9.4822226 ], [ 24.6848526, 9.4446268 ], [ 24.6562996, 9.4165497 ], [ 24.6010952, 9.3818092 ], [ 24.6025238, 9.3546839 ], [ 24.625843, 9.3208952 ], [ 24.565403, 9.1847897 ], [ 24.5473194, 9.1062679 ], [ 24.5430374, 9.0629616 ], [ 24.577301, 8.9539824 ], [ 24.5792046, 8.9240007 ], [ 24.5268574, 8.8450031 ], [ 24.3836136, 8.7897997 ], [ 24.2465553, 8.6517906 ], [ 24.2233592, 8.6421508 ], [ 24.2638421, 8.6816324 ], [ 24.2299925, 8.6997616 ], [ 24.197704, 8.6850419 ], [ 24.1661567, 8.7029104 ], [ 24.1426238, 8.6812433 ], [ 24.1158632, 8.690337 ], [ 24.0518747, 8.6937488 ], [ 24.0011244, 8.6665235 ], [ 23.9840305, 8.6385086 ], [ 23.9643484, 8.6545904 ], [ 23.965987, 8.6983371 ], [ 23.9466062, 8.7154837 ], [ 23.8701988, 8.7183853 ], [ 23.8547239, 8.7299915 ], [ 23.7792836, 8.7067791 ], [ 23.7328588, 8.7135494 ], [ 23.7154496, 8.7280571 ], [ 23.6777294, 8.7251556 ], [ 23.6255339, 8.7548419 ], [ 23.5928173, 8.739168 ], [ 23.5454515, 8.7003829 ], [ 23.513474, 8.7135317 ], [ 23.5239203, 8.7358487 ], [ 23.4978335, 8.8093005 ], [ 23.5243951, 8.8436351 ], [ 23.5897158, 8.9746887 ], [ 23.5823244, 9.0288188 ], [ 23.5519353, 9.0036528 ], [ 23.5395897, 8.9566446 ], [ 23.5094397, 8.9495419 ], [ 23.4514087, 8.9785574 ], [ 23.4664659, 9.0511358 ], [ 23.4616667, 9.0827778 ], [ 23.4816604, 9.1731671 ], [ 23.5315269, 9.1790541 ], [ 23.5497043, 9.2045431 ], [ 23.5943738, 9.2092289 ], [ 23.6133353, 9.2498675 ], [ 23.639008, 9.2508011 ], [ 23.6597262, 9.2903975 ], [ 23.6383856, 9.3217511 ], [ 23.6388524, 9.3786979 ], [ 23.6581458, 9.4065945 ], [ 23.6718085, 9.4500665 ], [ 23.640136, 9.4482034 ], [ 23.6323415, 9.4946801 ], [ 23.6473849, 9.5378375 ], [ 23.630278, 9.559167 ], [ 23.698962, 9.677927 ], [ 23.6722762, 9.8996663 ], [ 23.5977212, 10.0212652 ], [ 23.3176585, 10.4652939 ], [ 23.269239, 10.4933552 ], [ 23.2331995, 10.535172 ], [ 23.1506663, 10.5937706 ], [ 23.1322339, 10.6289848 ], [ 23.1082993, 10.6537448 ], [ 23.0045825, 10.7128936 ], [ 22.9859455, 10.7615486 ], [ 22.9690932, 10.776169 ], [ 22.9220493, 10.8509991 ], [ 22.9135209, 10.8793355 ], [ 22.8787529, 10.910524 ], [ 22.8755096, 10.9313664 ], [ 22.9063862, 11.0178017 ], [ 22.9306047, 11.0995253 ], [ 22.9882455, 11.2212656 ], [ 22.9790331, 11.3023354 ], [ 22.9342868, 11.3186546 ], [ 22.94192, 11.4247296 ], [ 22.8279486, 11.4149907 ], [ 22.7876769, 11.4052518 ], [ 22.7847816, 11.4410488 ], [ 22.7400353, 11.4884272 ], [ 22.6600184, 11.5147486 ], [ 22.6084286, 11.5618638 ], [ 22.5618398, 11.6305625 ], [ 22.5552595, 11.7047887 ], [ 22.5828969, 11.8513985 ], [ 22.6100079, 11.9501036 ], [ 22.6342874, 12.0550477 ], [ 22.5858302, 12.0612779 ], [ 22.543834, 12.0587397 ], [ 22.5140674, 12.0393568 ], [ 22.4778399, 12.0324344 ], [ 22.4962998, 12.163038 ], [ 22.473225, 12.238262 ], [ 22.4487656, 12.2645673 ], [ 22.4478426, 12.3007948 ], [ 22.433767, 12.3222544 ], [ 22.4193872, 12.3957583 ], [ 22.4015566, 12.423574 ], [ 22.3716012, 12.4314194 ], [ 22.4036963, 12.495966 ], [ 22.4258062, 12.5145098 ], [ 22.4253767, 12.5395669 ], [ 22.4585409, 12.6333742 ], [ 22.3999438, 12.6499806 ], [ 22.3097945, 12.6891244 ], [ 22.1944982, 12.7557875 ], [ 22.1954471, 12.7109501 ], [ 22.1510842, 12.6737041 ], [ 21.9469899, 12.6238831 ], [ 21.9256502, 12.6613583 ], [ 21.8941566, 12.6831727 ], [ 21.8856331, 12.7072985 ], [ 21.862663, 12.7260791 ], [ 21.8609294, 12.7616178 ], [ 21.8155671, 12.8036574 ], [ 21.8418599, 12.8315394 ], [ 21.8565955, 12.879791 ], [ 21.8791322, 12.922264 ], [ 21.9044137, 12.996953 ], [ 21.9301287, 13.020212 ], [ 21.926517, 13.0482385 ], [ 21.9452976, 13.0684637 ], [ 21.9713015, 13.0733756 ], [ 22.0026507, 13.1105033 ], [ 22.007418, 13.13983 ], [ 22.0688161, 13.1437305 ], [ 22.0881746, 13.1658338 ], [ 22.135415, 13.1710346 ], [ 22.1482725, 13.1989166 ], [ 22.1796216, 13.22911 ], [ 22.1812107, 13.2487574 ], [ 22.2904271, 13.3537842 ], [ 22.2751137, 13.4033361 ], [ 22.2176162, 13.4669011 ], [ 22.2132822, 13.5106744 ], [ 22.2251284, 13.5486689 ], [ 22.1916123, 13.5823295 ], [ 22.1670531, 13.5944647 ], [ 22.1413381, 13.6453167 ], [ 22.1147563, 13.6833113 ], [ 22.1312255, 13.708304 ], [ 22.1237539, 13.7357979 ], [ 22.0719455, 13.7786371 ], [ 22.1376572, 13.8547587 ], [ 22.2100883, 13.9302078 ], [ 22.2445259, 13.9603016 ], [ 22.2945912, 13.9645371 ], [ 22.3217529, 14.0116927 ], [ 22.3583456, 14.0224442 ], [ 22.3949384, 14.0539442 ], [ 22.4405851, 14.0528125 ], [ 22.4852886, 14.1050609 ], [ 22.5348964, 14.1101537 ], [ 22.5682826, 14.1842824 ], [ 22.5401778, 14.2372854 ], [ 22.4773727, 14.2459788 ], [ 22.4654833, 14.2416237 ], [ 22.425, 14.2925 ], [ 22.4291271, 14.3136779 ], [ 22.4566878, 14.3311898 ], [ 22.4400856, 14.3723989 ], [ 22.4329704, 14.4130151 ], [ 22.4427538, 14.4835746 ], [ 22.3938115, 14.5203094 ], [ 22.4113282, 14.600976 ], [ 22.4433468, 14.6051266 ], [ 22.4777371, 14.6309193 ], [ 22.5150921, 14.6415922 ], [ 22.5785363, 14.6463357 ], [ 22.7110577, 14.6937706 ], [ 22.7116506, 14.7248998 ], [ 22.6624541, 14.845448 ], [ 22.6777573, 14.8745101 ], [ 22.7254095, 14.9011764 ], [ 22.7600244, 14.9070355 ], [ 22.7468158, 14.9519713 ], [ 22.7505213, 14.9690165 ], [ 22.7801651, 14.9914964 ], [ 22.8127305, 15.0351731 ], [ 22.8436523, 15.0460904 ], [ 22.8624267, 15.0764754 ], [ 22.8849066, 15.0910502 ], [ 22.9175148, 15.0910502 ], [ 22.9387596, 15.1061192 ], [ 22.9286312, 15.1458913 ], [ 22.9336056, 15.1691677 ], [ 22.9787787, 15.1967799 ], [ 23.0029878, 15.2424808 ], [ 22.9854486, 15.259526 ], [ 23.004223, 15.3148611 ], [ 22.9931066, 15.3341296 ], [ 22.98866, 15.414909 ], [ 22.926408, 15.4682679 ], [ 22.91875, 15.4887715 ], [ 22.9286312, 15.5171802 ], [ 22.9272065, 15.553553 ], [ 22.9786495, 15.5835847 ], [ 23.0322403, 15.6273697 ], [ 23.0990194, 15.7046994 ], [ 23.1241656, 15.7204064 ], [ 23.2080009, 15.7146294 ], [ 23.3508064, 15.6941169 ], [ 23.4432436, 15.7102298 ], [ 23.5242861, 15.749755 ], [ 23.5899187, 15.7631842 ], [ 23.6742764, 15.7633733 ], [ 23.733064, 15.7517842 ], [ 23.8176467, 15.7507007 ], [ 23.8619644, 15.7323734 ], [ 23.9706634, 15.7102241 ], [ 24.0, 15.7111131 ], [ 24.0, 16.0 ], [ 24.0, 16.4970553 ], [ 24.0, 19.5 ], [ 24.0, 19.997942 ], [ 25.0, 19.997923 ], [ 24.9999996, 20.5238882 ], [ 25.0, 22.0 ], [ 25.3280544, 22.0 ], [ 25.6894455, 22.0 ], [ 25.9999981, 22.0 ], [ 26.3852768, 22.0 ], [ 26.8312931, 22.0 ], [ 27.1513882, 22.0 ], [ 27.5324478, 22.0 ], [ 27.8088741, 22.0 ], [ 28.2329636, 22.0 ], [ 28.6055546, 22.0 ], [ 29.0024662, 22.0 ], [ 29.4133873, 22.0 ], [ 29.4933071, 22.0 ], [ 30.0, 22.0 ], [ 31.3160877, 22.0 ], [ 31.3163766, 22.0007557 ], [ 31.3168889, 22.0021067 ], [ 31.33755, 22.05622 ], [ 31.34608, 22.07855 ], [ 31.34621, 22.07998 ], [ 31.346386, 22.08199 ], [ 31.34728, 22.092 ], [ 31.3476699, 22.0962185 ], [ 31.3572995, 22.1154693 ], [ 31.35833, 22.11678 ], [ 31.3813587, 22.1461508 ], [ 31.38159, 22.14644 ], [ 31.38738, 22.15382 ], [ 31.3876212, 22.1541322 ], [ 31.3975077, 22.1621339 ], [ 31.3996175, 22.1638301 ], [ 31.40831, 22.17811 ], [ 31.4103393, 22.1814389 ], [ 31.4131787, 22.1836368 ], [ 31.4688016, 22.2228306 ], [ 31.48358, 22.21928 ], [ 31.51261, 22.18417 ], [ 31.5128263, 22.1815062 ], [ 31.5080227, 22.1705506 ], [ 31.5071106, 22.1686313 ], [ 31.498758, 22.1595216 ], [ 31.4970989, 22.1577147 ], [ 31.4745808, 22.1351106 ], [ 31.4726924, 22.133099 ], [ 31.4653905, 22.1253006 ], [ 31.45818, 22.11466 ], [ 31.4572301, 22.1132592 ], [ 31.43553, 22.08119 ], [ 31.4303168, 22.0711582 ], [ 31.4259262, 22.0626358 ], [ 31.42571, 22.06205 ], [ 31.4122104, 22.0077797 ] ] ], [ [ [ 37.2769408, 20.8490857 ], [ 37.2822689, 20.8259703 ], [ 37.277381, 20.7741769 ], [ 37.2502105, 20.7566541 ], [ 37.2553107, 20.8367674 ], [ 37.2769408, 20.8490857 ] ] ] ] } }
]
}
