{
"type": "FeatureCollection",
"name": "SDN_GAUL2003_ADM0",
"crs": { "type": "name", "properties": { "name": "urn:ogc:def:crs:OGC:1.3:CRS84" } },
"features": [
{ "type": "Feature", "properties": { "POLYGON_ID": "SDN_GAUL2003_ADM0_40764", "ADM0_ISO3": "SDN", "ADM0_NAME": "Sudan", "ADM0_CODE": 40764, "GEOSET": "GAUL", "GEOSET_YEAR": 2003.0, "GEOSET_VERSION": "GAUL_v1", "GEOSET_UNIT": "ADM0", "CENTROID_LONG": 30.0430454755158, "CENTROID_LAT": 13.832659907464642 }, "geometry": { "type": "MultiPolygon", "coordinates": [ [ [ [ 31.4122104, 22.0077797 ], [ 31.4144386, 22.0000005 ], [ 31.4146246, 22.0000002 ], [ 31.5195299, 22.0000987 ], [ 31.988843, 22.0005392 ], [ 32.4122693, 22.0009367 ], [ 32.644449, 22.0011546 ], [ 33.182633, 22.0016598 ], [ 33.56408, 21.72539 ], [ 34.00521, 21.77233 ], [ 34.0865289, 22.0025085 ], [ 36.8824988, 22.0051335 ], [ 36.8666286, 21.9731676 ], [ 36.8840302, 21.9439257 ], [ 36.8742612, 21.9144608 ], [ 36.8870106, 21.8165701 ], [ 36.8792695, 21.7994849 ], [ 36.8984445, 21.7317853 ], [ 36.901339, 21.6746863 ], [ 36.9151045, 21.6365117 ], [ 36.9176282, 21.5948423 ], [ 36.9613248, 21.5302731 ], [ 37.0004516, 21.4450375 ], [ 37.0443967, 21.3863566 ], [ 37.0553706, 21.3566263 ], [ 37.0920546, 21.3246148 ], [ 37.1253645, 21.2758252 ], [ 37.1631843, 21.237888 ], [ 37.1967734, 21.2189443 ], [ 37.2503993, 21.1528369 ], [ 37.2739661, 21.1319699 ], [ 37.2901184, 21.0872125 ], [ 37.3169207, 21.069847 ], [ 37.2911863, 21.0177174 ], [ 37.2549036, 21.0138742 ], [ 37.2370249, 21.0305507 ], [ 37.2360325, 21.0682533 ], [ 37.2573842, 21.0716912 ], [ 37.232952, 21.1083792 ], [ 37.2357643, 21.1373678 ], [ 37.2049634, 21.1432221 ], [ 37.1999549, 21.1602876 ], [ 37.1606166, 21.1681016 ], [ 37.1740549, 21.191157 ], [ 37.1615164, 21.2174051 ], [ 37.1336659, 21.2272675 ], [ 37.1032169, 21.2038899 ], [ 37.1004942, 21.1591999 ], [ 37.1230882, 21.151858 ], [ 37.1183741, 21.1122941 ], [ 37.1256981, 21.0751789 ], [ 37.0933589, 21.0734034 ], [ 37.0946501, 21.0366085 ], [ 37.1295684, 20.9958104 ], [ 37.1626289, 20.9148263 ], [ 37.1707544, 20.8773301 ], [ 37.1678957, 20.7967265 ], [ 37.1754977, 20.7906293 ], [ 37.1835748, 20.7217248 ], [ 37.1786617, 20.7093164 ], [ 37.207499, 20.6300731 ], [ 37.2368148, 20.5657586 ], [ 37.2402808, 20.5256336 ], [ 37.2305997, 20.4882067 ], [ 37.2379463, 20.4669139 ], [ 37.1957715, 20.4644218 ], [ 37.1931465, 20.4319578 ], [ 37.2064153, 20.4063511 ], [ 37.1893537, 20.3709059 ], [ 37.1869297, 20.3330377 ], [ 37.2042499, 20.2866198 ], [ 37.2059721, 20.2554872 ], [ 37.1924068, 20.2254846 ], [ 37.2141949, 20.1803975 ], [ 37.2167439, 20.0759003 ], [ 37.2030533, 20.0458977 ], [ 37.181928, 20.0351266 ], [ 37.2241667, 19.9122367 ], [ 37.257229, 19.8633897 ], [ 37.2665407, 19.8328429 ], [ 37.2673685, 19.7563852 ], [ 37.2560569, 19.6710557 ], [ 37.2442495, 19.6696533 ], [ 37.2418626, 19.5692723 ], [ 37.2946595, 19.47678 ], [ 37.2885325, 19.4656509 ], [ 37.3207637, 19.353693 ], [ 37.3164082, 19.3155461 ], [ 37.3357472, 19.2132461 ], [ 37.330816, 19.1915727 ], [ 37.3388154, 19.1398234 ], [ 37.359241, 19.134944 ], [ 37.3688405, 19.0589219 ], [ 37.3928759, 19.0234706 ], [ 37.3968345, 18.9493465 ], [ 37.4164375, 18.908058 ], [ 37.4132262, 18.8755857 ], [ 37.4331797, 18.8388029 ], [ 37.4641171, 18.8121518 ], [ 37.5090438, 18.7308854 ], [ 37.5708426, 18.7101217 ], [ 37.6630151, 18.7253524 ], [ 37.6981853, 18.7034528 ], [ 37.7416617, 18.7081277 ], [ 37.7514121, 18.6684035 ], [ 37.7371881, 18.6370186 ], [ 37.7726935, 18.639829 ], [ 37.8069036, 18.6154537 ], [ 37.9105686, 18.5829878 ], [ 37.9534111, 18.5551574 ], [ 38.0097435, 18.4797398 ], [ 38.057439, 18.4452125 ], [ 38.1192843, 18.4099655 ], [ 38.0878137, 18.3912724 ], [ 38.0788052, 18.3603214 ], [ 38.1025442, 18.2816192 ], [ 38.1615322, 18.2378421 ], [ 38.2119926, 18.2260787 ], [ 38.2770065, 18.2455249 ], [ 38.2600364, 18.2106871 ], [ 38.300249, 18.1971863 ], [ 38.3423897, 18.1709327 ], [ 38.3703939, 18.1765649 ], [ 38.3875636, 18.1985149 ], [ 38.4059892, 18.1692082 ], [ 38.3939072, 18.1565488 ], [ 38.4134541, 18.1124328 ], [ 38.4805608, 18.1016783 ], [ 38.4641917, 18.0812839 ], [ 38.5086963, 18.0579615 ], [ 38.5193486, 18.1019072 ], [ 38.5447182, 18.0827787 ], [ 38.5619028, 18.0495888 ], [ 38.5561641, 18.0294835 ], [ 38.5695511, 18.0050423 ], [ 38.452392, 17.8983484 ], [ 38.3899499, 17.7560389 ], [ 38.3875843, 17.7318675 ], [ 38.34169, 17.64962 ], [ 38.29905, 17.63934 ], [ 38.28044, 17.62541 ], [ 38.2601296, 17.5585899 ], [ 38.24347, 17.55435 ], [ 38.1662323, 17.572962 ], [ 38.1303307, 17.57313 ], [ 38.10888, 17.55889 ], [ 38.10135, 17.52242 ], [ 38.10661, 17.48049 ], [ 38.0706999, 17.4820214 ], [ 38.0676297, 17.5522606 ], [ 38.05682, 17.56466 ], [ 38.01841, 17.54913 ], [ 38.0038618, 17.5570803 ], [ 37.9725397, 17.5159591 ], [ 37.9769646, 17.4910103 ], [ 37.9177369, 17.4570699 ], [ 37.87025, 17.45256 ], [ 37.857, 17.48603 ], [ 37.8370362, 17.5000501 ], [ 37.7873701, 17.49615 ], [ 37.7748426, 17.4804694 ], [ 37.76554, 17.3839813 ], [ 37.6123209, 17.3741501 ], [ 37.51531, 17.33686 ], [ 37.4924434, 17.3068874 ], [ 37.51738, 17.2588 ], [ 37.4954223, 17.2490625 ], [ 37.49819, 17.20824 ], [ 37.4661001, 17.1582794 ], [ 37.4680698, 17.1472995 ], [ 37.43705, 17.10242 ], [ 37.41447, 17.09932 ], [ 37.3946504, 17.0471308 ], [ 37.31103, 17.09437 ], [ 37.2521391, 17.0756101 ], [ 37.2200709, 17.0786699 ], [ 37.1973605, 17.063363 ], [ 37.12882, 17.05717 ], [ 37.11116, 17.08196 ], [ 37.0212527, 17.0960482 ], [ 37.0020389, 17.0681793 ], [ 37.0182264, 17.0293413 ], [ 36.9835221, 16.969113 ], [ 37.0041393, 16.9414307 ], [ 36.99839, 16.9183 ], [ 37.0109696, 16.8800607 ], [ 37.0019623, 16.8302011 ], [ 37.0292711, 16.8010994 ], [ 36.9826825, 16.7497393 ], [ 36.9905403, 16.7258407 ], [ 36.9557613, 16.6865199 ], [ 36.9011001, 16.6757973 ], [ 36.90379, 16.61065 ], [ 36.88745, 16.54543 ], [ 36.89964, 16.49641 ], [ 36.9390115, 16.4442498 ], [ 36.9625703, 16.4354995 ], [ 36.9489693, 16.3660096 ], [ 36.93365, 16.3541 ], [ 36.9584104, 16.2806405 ], [ 36.9316384, 16.2629057 ], [ 36.89927, 16.2264 ], [ 36.86373, 16.11646 ], [ 36.81642, 15.95854 ], [ 36.7679774, 15.8297031 ], [ 36.7468695, 15.800829 ], [ 36.69969, 15.71301 ], [ 36.63879, 15.52195 ], [ 36.6302575, 15.4680404 ], [ 36.61487, 15.4416593 ], [ 36.61345, 15.41321 ], [ 36.54157, 15.22803 ], [ 36.47113, 15.1975 ], [ 36.4387628, 15.1566335 ], [ 36.4495484, 15.100398 ], [ 36.47031, 14.9195288 ], [ 36.47199, 14.8554707 ], [ 36.4819318, 14.7932519 ], [ 36.50017, 14.60405 ], [ 36.50539, 14.51196 ], [ 36.52689, 14.32914 ], [ 36.5483559, 14.2682628 ], [ 36.5603404, 14.2577128 ], [ 36.5344675, 14.1711004 ], [ 36.4987084, 14.065652 ], [ 36.4759001, 14.0093604 ], [ 36.4528499, 13.9810993 ], [ 36.4556905, 13.9464088 ], [ 36.4747629, 13.9103392 ], [ 36.5009012, 13.8322203 ], [ 36.42242, 13.7288 ], [ 36.3752811, 13.5823973 ], [ 36.3741494, 13.5302287 ], [ 36.33312, 13.43896 ], [ 36.2923902, 13.3242405 ], [ 36.2515922, 13.2830615 ], [ 36.183423, 13.0402592 ], [ 36.1808827, 13.0149699 ], [ 36.15029, 12.94091 ], [ 36.18224, 12.88992 ], [ 36.17667, 12.8602633 ], [ 36.1742725, 12.7420907 ], [ 36.157, 12.70966 ], [ 36.1551684, 12.6809202 ], [ 36.1116006, 12.6838399 ], [ 36.1007771, 12.7125612 ], [ 36.06867, 12.72447 ], [ 35.98482, 12.71971 ], [ 35.9518328, 12.7053979 ], [ 35.8848819, 12.6919182 ], [ 35.8409004, 12.6757175 ], [ 35.7838, 12.66362 ], [ 35.7130504, 12.6716974 ], [ 35.6875702, 12.6573683 ], [ 35.68189, 12.60746 ], [ 35.6418719, 12.6020483 ], [ 35.5913923, 12.514289 ], [ 35.5611303, 12.4709605 ], [ 35.5416377, 12.4292811 ], [ 35.4284711, 12.2479126 ], [ 35.43848, 12.20381 ], [ 35.4200899, 12.1858062 ], [ 35.3960217, 12.1834081 ], [ 35.33366, 12.07301 ], [ 35.3424809, 12.0337311 ], [ 35.30217, 12.01217 ], [ 35.2932803, 11.9652308 ], [ 35.2752006, 11.935951 ], [ 35.2177513, 11.8897011 ], [ 35.1539821, 11.8493885 ], [ 35.10958, 11.81582 ], [ 35.08152, 11.78234 ], [ 35.0547106, 11.7343712 ], [ 35.0667104, 11.6755793 ], [ 35.0924299, 11.6235193 ], [ 35.0895908, 11.546479 ], [ 35.06085, 11.47298 ], [ 35.0594199, 11.4377918 ], [ 35.03728, 11.3956 ], [ 34.9988801, 11.3457298 ], [ 34.9786806, 11.2938814 ], [ 34.9556225, 11.2537499 ], [ 34.9575894, 11.2367416 ], [ 34.9871422, 11.202422 ], [ 35.00696, 11.15977 ], [ 34.9712395, 11.0186386 ], [ 34.95246, 10.9674897 ], [ 34.9724, 10.9007 ], [ 34.9091, 10.82861 ], [ 34.90387, 10.80881 ], [ 34.8632096, 10.766039 ], [ 34.77729, 10.7128607 ], [ 34.7753501, 10.7595195 ], [ 34.7564907, 10.7628495 ], [ 34.69906, 10.82846 ], [ 34.6019807, 10.9041296 ], [ 34.5416006, 10.8581805 ], [ 34.4721425, 10.8160674 ], [ 34.41286, 10.72573 ], [ 34.3844597, 10.6724097 ], [ 34.29986, 10.58783 ], [ 34.28294, 10.52724 ], [ 34.3254271, 10.4753981 ], [ 34.2967124, 10.4087376 ], [ 34.29591, 10.39447 ], [ 34.3499173, 10.2091809 ], [ 34.3445103, 10.1604112 ], [ 34.3306687, 10.1235287 ], [ 34.30766, 10.10059 ], [ 34.24977, 10.06128 ], [ 34.23211, 10.03861 ], [ 34.2214502, 9.983369 ], [ 34.2226922, 9.8935187 ], [ 34.1531796, 9.7088686 ], [ 34.1085329, 9.5742901 ], [ 34.11517, 9.48084 ], [ 34.13182, 9.1736106 ], [ 34.1429276, 9.043479 ], [ 34.14421, 8.9771189 ], [ 34.1418926, 8.8227779 ], [ 34.1443999, 8.7748086 ], [ 34.143, 8.62211 ], [ 34.1397745, 8.5950264 ], [ 34.1036393, 8.5528196 ], [ 34.07663, 8.5458 ], [ 34.0322218, 8.5106982 ], [ 34.0235623, 8.4897389 ], [ 33.9929199, 8.4869325 ], [ 33.94648, 8.49569 ], [ 33.89205, 8.47291 ], [ 33.864751, 8.4343099 ], [ 33.84034, 8.42912 ], [ 33.8183578, 8.4030912 ], [ 33.7691009, 8.362971 ], [ 33.7493596, 8.3743972 ], [ 33.71576, 8.36301 ], [ 33.6928424, 8.3771508 ], [ 33.67556, 8.42461 ], [ 33.67911, 8.43796 ], [ 33.62137, 8.46674 ], [ 33.5976387, 8.4442301 ], [ 33.57352, 8.4463 ], [ 33.56257, 8.46681 ], [ 33.4883091, 8.4676078 ], [ 33.47558, 8.4509 ], [ 33.43741, 8.43792 ], [ 33.4254086, 8.4463978 ], [ 33.39555, 8.42142 ], [ 33.3661404, 8.4401594 ], [ 33.30179, 8.45059 ], [ 33.2476102, 8.4437388 ], [ 33.21259, 8.40452 ], [ 33.19113, 8.40541 ], [ 33.1939388, 8.3466893 ], [ 33.2157365, 8.3545184 ], [ 33.192721, 8.2957192 ], [ 33.1748824, 8.2844829 ], [ 33.17221, 8.25944 ], [ 33.1949374, 8.24732 ], [ 33.19548, 8.21571 ], [ 33.16542, 8.19445 ], [ 33.1906699, 8.1294402 ], [ 33.15944, 8.10962 ], [ 33.11928, 8.10565 ], [ 33.11618, 8.07311 ], [ 33.08539, 8.07386 ], [ 33.0736588, 8.0193323 ], [ 33.0409, 8.00653 ], [ 33.0347969, 7.9663774 ], [ 33.0002, 7.9401 ], [ 33.013629, 7.8884123 ], [ 33.0067832, 7.8581004 ], [ 33.0661071, 7.7858704 ], [ 33.0888727, 7.7963187 ], [ 33.1124713, 7.781376 ], [ 33.1642087, 7.7940675 ], [ 33.2157225, 7.7675419 ], [ 33.241888, 7.7711684 ], [ 33.29209, 7.7420292 ], [ 33.33816, 7.70616 ], [ 33.3515869, 7.7218371 ], [ 33.3923207, 7.7256189 ], [ 33.4384721, 7.7477677 ], [ 33.49996, 7.73496 ], [ 33.54003, 7.70144 ], [ 33.5801377, 7.6862625 ], [ 33.5980994, 7.7049375 ], [ 33.6336399, 7.6940207 ], [ 33.6712905, 7.6932491 ], [ 33.69954, 7.65668 ], [ 33.72082, 7.65213 ], [ 33.74175, 7.62233 ], [ 33.79608, 7.60291 ], [ 33.8488778, 7.5510814 ], [ 33.87508, 7.51462 ], [ 33.9008775, 7.5168779 ], [ 33.9468247, 7.5012285 ], [ 33.9405922, 7.4746288 ], [ 33.9568399, 7.4465615 ], [ 33.9998828, 7.4154596 ], [ 34.0316572, 7.3605171 ], [ 34.031828, 7.2706616 ], [ 34.0117096, 7.2563016 ], [ 34.0422909, 7.2209299 ], [ 34.0900608, 7.1973388 ], [ 34.10283, 7.16957 ], [ 34.1638082, 7.1443782 ], [ 34.19203, 7.11952 ], [ 34.1950795, 7.0599912 ], [ 34.2364212, 7.0024106 ], [ 34.271126, 7.0022917 ], [ 34.27081, 6.98459 ], [ 34.30496, 6.96059 ], [ 34.3432609, 6.9585524 ], [ 34.44401, 6.92557 ], [ 34.4759295, 6.9113105 ], [ 34.48618, 6.88286 ], [ 34.5212177, 6.8579598 ], [ 34.53934, 6.81849 ], [ 34.5285104, 6.7522212 ], [ 34.55274, 6.73165 ], [ 34.6164991, 6.7213491 ], [ 34.638422, 6.735676 ], [ 34.672968, 6.7020321 ], [ 34.7060376, 6.6862293 ], [ 34.7144921, 6.6513414 ], [ 34.73843, 6.63666 ], [ 34.7688888, 6.5936296 ], [ 34.8586501, 6.6050955 ], [ 34.92419, 6.55344 ], [ 34.93833, 6.55156 ], [ 34.95474, 6.5181 ], [ 35.01954, 6.44702 ], [ 35.0102, 6.40715 ], [ 34.98949, 6.38405 ], [ 34.99658, 6.34574 ], [ 34.98651, 6.29945 ], [ 34.9554, 6.28161 ], [ 34.95211, 6.24194 ], [ 34.97205, 6.20159 ], [ 34.96392, 6.13963 ], [ 34.96934, 6.09054 ], [ 35.0, 6.07382 ], [ 34.99439, 6.04397 ], [ 35.00867, 6.0002 ], [ 34.99556, 5.96559 ], [ 35.0055, 5.9201 ], [ 35.00103, 5.89705 ], [ 35.13011, 5.69116 ], [ 35.12726, 5.62447 ], [ 35.13729, 5.61373 ], [ 35.30607, 5.50104 ], [ 35.31861, 5.46272 ], [ 35.29796, 5.42035 ], [ 35.29392, 5.37159 ], [ 35.3019, 5.34894 ], [ 35.33401, 5.32995 ], [ 35.37432, 5.35499 ], [ 35.39997, 5.35732 ], [ 35.45597, 5.38687 ], [ 35.4718098, 5.4067999 ], [ 35.51792, 5.4172 ], [ 35.56399, 5.40726 ], [ 35.5818794, 5.4151299 ], [ 35.62838, 5.37776 ], [ 35.6559, 5.39026 ], [ 35.6782, 5.38296 ], [ 35.71883, 5.38973 ], [ 35.75703, 5.35786 ], [ 35.80944, 5.34028 ], [ 35.8614, 5.31465 ], [ 35.86078, 5.28797 ], [ 35.83214, 5.25892 ], [ 35.82922, 5.23384 ], [ 35.86378, 5.1755 ], [ 35.8587, 5.1535 ], [ 35.81745, 5.10412 ], [ 35.81574, 4.82518 ], [ 35.81711, 4.77735 ], [ 35.86414, 4.72405 ], [ 35.9477, 4.62 ], [ 35.8506676, 4.62 ], [ 35.7478954, 4.62 ], [ 35.5101358, 4.62 ], [ 35.50877, 4.62 ], [ 35.42084, 4.77111 ], [ 35.47694, 4.90278 ], [ 35.4572197, 4.9225 ], [ 35.31028, 4.9075 ], [ 35.33194, 4.98139 ], [ 35.34639, 5.00778 ], [ 35.32722, 5.02305 ], [ 35.2861075, 5.0108384 ], [ 35.19667, 4.95583 ], [ 35.15222, 4.98889 ], [ 35.0, 4.90616 ], [ 34.7125, 4.79806 ], [ 34.5, 4.73843 ], [ 34.47639, 4.72417 ], [ 34.3784599, 4.6199999 ], [ 34.34639, 4.57642 ], [ 34.32929, 4.5578 ], [ 34.3187823, 4.548179 ], [ 34.30547, 4.53599 ], [ 34.26836, 4.49433 ], [ 34.26519, 4.4888801 ], [ 34.26057, 4.48409 ], [ 34.17779, 4.39819 ], [ 34.17289, 4.39316 ], [ 34.1322742, 4.3513817 ], [ 34.08485, 4.3026 ], [ 34.04249, 4.25901 ], [ 33.99449, 4.21443 ], [ 33.6669589, 3.900365 ], [ 33.50901, 3.74891 ], [ 33.17654, 3.77403 ], [ 33.0261566, 3.8741378 ], [ 32.9019072, 3.8155132 ], [ 32.7201049, 3.7651799 ], [ 32.4072715, 3.747738 ], [ 32.1728823, 3.6103314 ], [ 32.2085965, 3.5920684 ], [ 32.216456, 3.5749961 ], [ 32.2026503, 3.5050227 ], [ 32.0844411, 3.5335559 ], [ 32.085664, 3.5595953 ], [ 32.0373103, 3.5869024 ], [ 31.9493205, 3.5868744 ], [ 31.9379491, 3.6703889 ], [ 31.9194922, 3.7096096 ], [ 31.8532455, 3.7906878 ], [ 31.8084218, 3.8282606 ], [ 31.8024684, 3.8000386 ], [ 31.7410791, 3.7526558 ], [ 31.7104157, 3.7172446 ], [ 31.6639391, 3.7103676 ], [ 31.5825103, 3.6831801 ], [ 31.53893, 3.65414 ], [ 31.47534, 3.68664 ], [ 31.30758, 3.78274 ], [ 31.28293, 3.79257 ], [ 31.17384, 3.79318 ], [ 31.1007857, 3.7454621 ], [ 31.0734857, 3.7444319 ], [ 31.0611235, 3.7200017 ], [ 31.0327197, 3.6985149 ], [ 30.9996303, 3.6879803 ], [ 30.9732118, 3.6912042 ], [ 30.9471352, 3.6503845 ], [ 30.9502619, 3.6359526 ], [ 30.9164012, 3.5874228 ], [ 30.912195, 3.5671804 ], [ 30.8603296, 3.5147327 ], [ 30.8545296, 3.4874709 ], [ 30.8462445, 3.5089422 ], [ 30.8461369, 3.5100718 ], [ 30.8519812, 3.5312959 ], [ 30.8615216, 3.5517797 ], [ 30.8575179, 3.56913 ], [ 30.8067648, 3.5838945 ], [ 30.7909456, 3.6044186 ], [ 30.7857929, 3.6251299 ], [ 30.785876, 3.6329468 ], [ 30.7870788, 3.6395691 ], [ 30.7725613, 3.6737603 ], [ 30.7688599, 3.6740354 ], [ 30.7650957, 3.6743151 ], [ 30.764932, 3.6743273 ], [ 30.7615149, 3.6721437 ], [ 30.7612932, 3.6720021 ], [ 30.7572303, 3.6694058 ], [ 30.7568155, 3.667981 ], [ 30.7507826, 3.647259 ], [ 30.743708, 3.6321869 ], [ 30.7400005, 3.6294333 ], [ 30.7270669, 3.6230281 ], [ 30.7218688, 3.6211135 ], [ 30.7203451, 3.6214467 ], [ 30.6693771, 3.6365647 ], [ 30.6607579, 3.6319544 ], [ 30.6536444, 3.6281496 ], [ 30.6407684, 3.6197405 ], [ 30.6306315, 3.6117673 ], [ 30.5939095, 3.5952755 ], [ 30.5920224, 3.5950936 ], [ 30.5683791, 3.5928148 ], [ 30.5606893, 3.5961983 ], [ 30.5591513, 3.6140388 ], [ 30.5853441, 3.6827862 ], [ 30.5752453, 3.7383298 ], [ 30.5684732, 3.7755762 ], [ 30.5668175, 3.7846827 ], [ 30.552529, 3.8214245 ], [ 30.5524079, 3.821736 ], [ 30.553462, 3.8325475 ], [ 30.5534371, 3.8629064 ], [ 30.5342361, 3.8724181 ], [ 30.4844768, 3.8567308 ], [ 30.4361017, 3.8886378 ], [ 30.409968, 3.8844143 ], [ 30.385668, 3.9112815 ], [ 30.3546009, 3.9151738 ], [ 30.3176896, 3.9330143 ], [ 30.2995415, 3.9323991 ], [ 30.2835119, 3.9525151 ], [ 30.2658278, 3.9569119 ], [ 30.2645691, 3.9562797 ], [ 30.2552775, 3.9516134 ], [ 30.2426011, 3.9452471 ], [ 30.206648, 3.9533155 ], [ 30.2023971, 3.962384 ], [ 30.2020026, 3.9636511 ], [ 30.201316, 3.9744084 ], [ 30.2045185, 4.0039148 ], [ 30.1740552, 4.0429459 ], [ 30.1715975, 4.0460949 ], [ 30.1580481, 4.0634343 ], [ 30.1530556, 4.1027236 ], [ 30.1251355, 4.114495 ], [ 30.1077682, 4.1130162 ], [ 30.0799782, 4.1150747 ], [ 30.0571038, 4.1355687 ], [ 30.0466989, 4.1538671 ], [ 30.0279789, 4.1963731 ], [ 29.9852865, 4.2293224 ], [ 29.9765611, 4.2303813 ], [ 29.970337, 4.2311366 ], [ 29.9433471, 4.2427619 ], [ 29.9642636, 4.2787505 ], [ 29.9442699, 4.3141238 ], [ 29.8959776, 4.3479592 ], [ 29.8411903, 4.3373945 ], [ 29.820007, 4.356302 ], [ 29.8011637, 4.3659716 ], [ 29.7953942, 4.4405452 ], [ 29.8055448, 4.492221 ], [ 29.7923182, 4.5091387 ], [ 29.8218473, 4.5389754 ], [ 29.8164881, 4.5638314 ], [ 29.7845811, 4.5648606 ], [ 29.7680183, 4.5835766 ], [ 29.7329525, 4.5771171 ], [ 29.7092677, 4.617412 ], [ 29.6117603, 4.6610904 ], [ 29.5886907, 4.650017 ], [ 29.5711578, 4.6641663 ], [ 29.5207123, 4.6678575 ], [ 29.5024246, 4.6866753 ], [ 29.49474, 4.6859578 ], [ 29.4853389, 4.6718562 ], [ 29.4761839, 4.6675926 ], [ 29.4744257, 4.6679123 ], [ 29.4628846, 4.6644739 ], [ 29.4690364, 4.6374056 ], [ 29.4668833, 4.6266398 ], [ 29.4727793, 4.6035107 ], [ 29.4730352, 4.5986487 ], [ 29.4618682, 4.5819124 ], [ 29.4555023, 4.5783475 ], [ 29.4413529, 4.5586614 ], [ 29.4422357, 4.540712 ], [ 29.4099783, 4.4842236 ], [ 29.3893301, 4.471647 ], [ 29.3678379, 4.4685363 ], [ 29.3499974, 4.4448515 ], [ 29.3426151, 4.4082477 ], [ 29.3084721, 4.3787187 ], [ 29.2764823, 4.3879465 ], [ 29.2650988, 4.3934823 ], [ 29.247876, 4.3796414 ], [ 29.2552583, 4.3667225 ], [ 29.2503368, 4.3611858 ], [ 29.2472608, 4.3451909 ], [ 29.2035824, 4.3408845 ], [ 29.1334509, 4.4082477 ], [ 29.1239154, 4.4291642 ], [ 29.11924, 4.4297309 ], [ 29.0986927, 4.4282414 ], [ 29.0774687, 4.4303945 ], [ 29.0814674, 4.4531565 ], [ 29.0764154, 4.4560814 ], [ 29.0756231, 4.4565401 ], [ 29.0679952, 4.454193 ], [ 29.047632, 4.4571553 ], [ 29.0320457, 4.484433 ], [ 29.0199485, 4.4903755 ], [ 29.0053871, 4.4893562 ], [ 28.993803, 4.4799172 ], [ 28.9574733, 4.4770626 ], [ 28.9485866, 4.4789945 ], [ 28.9476513, 4.4787406 ], [ 28.9033702, 4.4722274 ], [ 28.8695348, 4.4885299 ], [ 28.8317007, 4.4737654 ], [ 28.80494, 4.4928362 ], [ 28.8101691, 4.5195969 ], [ 28.788945, 4.5580462 ], [ 28.7535717, 4.5380526 ], [ 28.7213282, 4.5364328 ], [ 28.7132768, 4.5325159 ], [ 28.7117388, 4.5282096 ], [ 28.7129692, 4.5251336 ], [ 28.7105085, 4.5091387 ], [ 28.7024349, 4.5086005 ], [ 28.6978971, 4.4857615 ], [ 28.6717091, 4.4428285 ], [ 28.6634465, 4.4202439 ], [ 28.6025428, 4.4150148 ], [ 28.6011713, 4.4142528 ], [ 28.5966318, 4.4111488 ], [ 28.5942377, 4.4060946 ], [ 28.5924827, 4.4008295 ], [ 28.5921021, 4.3996875 ], [ 28.5920846, 4.3996351 ], [ 28.5920846, 4.3892561 ], [ 28.5668618, 4.3762579 ], [ 28.5617308, 4.3775407 ], [ 28.510572, 4.3691832 ], [ 28.4679894, 4.3023312 ], [ 28.4592038, 4.2861327 ], [ 28.4555126, 4.2845948 ], [ 28.4385949, 4.2845948 ], [ 28.4275215, 4.2799808 ], [ 28.414295, 4.2735214 ], [ 28.367233, 4.2852099 ], [ 28.3708044, 4.2999976 ], [ 28.3688013, 4.315822 ], [ 28.3632343, 4.3307339 ], [ 28.3606266, 4.3328587 ], [ 28.3549292, 4.337501 ], [ 28.3201711, 4.3541111 ], [ 28.2574218, 4.3424225 ], [ 28.2023624, 4.3482668 ], [ 28.176832, 4.3765655 ], [ 28.1592991, 4.384563 ], [ 28.131308, 4.4024034 ], [ 28.119927, 4.4334705 ], [ 28.1134676, 4.4417755 ], [ 28.1091612, 4.4423907 ], [ 28.0999334, 4.4337781 ], [ 28.0719423, 4.4168604 ], [ 28.0599461, 4.4473122 ], [ 28.0408753, 4.4550021 ], [ 28.0332479, 4.4799946 ], [ 28.0348631, 4.5217198 ], [ 28.0430284, 4.5429741 ], [ 27.9661298, 4.5562007 ], [ 27.9393803, 4.5674884 ], [ 27.9335157, 4.5473812 ], [ 27.9264501, 4.5448197 ], [ 27.9206058, 4.5488184 ], [ 27.8683148, 4.5488184 ], [ 27.8111022, 4.6008019 ], [ 27.784589, 4.5978176 ], [ 27.7840339, 4.5980335 ], [ 27.7815313, 4.6053996 ], [ 27.7822668, 4.6089299 ], [ 27.7864946, 4.6318689 ], [ 27.7755766, 4.6628366 ], [ 27.7754212, 4.6650891 ], [ 27.7735757, 4.6946182 ], [ 27.7880326, 4.7056916 ], [ 27.787725, 4.7386042 ], [ 27.7746607, 4.7712677 ], [ 27.7677314, 4.7862814 ], [ 27.7139326, 4.7881567 ], [ 27.7028289, 4.7998155 ], [ 27.7022137, 4.8035066 ], [ 27.7089919, 4.8131525 ], [ 27.7102112, 4.8148876 ], [ 27.7006786, 4.8327229 ], [ 27.7006758, 4.8327281 ], [ 27.6948315, 4.8561053 ], [ 27.6911403, 4.8628724 ], [ 27.6708391, 4.8816356 ], [ 27.6551518, 4.8939394 ], [ 27.598862, 4.894247 ], [ 27.5822519, 4.885942 ], [ 27.5398039, 4.9194698 ], [ 27.5201178, 4.975452 ], [ 27.443611, 5.019444 ], [ 27.4549975, 5.0732924 ], [ 27.4060418, 5.1202203 ], [ 27.3959031, 5.1541127 ], [ 27.3249318, 5.1998819 ], [ 27.3008885, 5.2291394 ], [ 27.2930672, 5.2650596 ], [ 27.2742381, 5.2824403 ], [ 27.2493257, 5.3279198 ], [ 27.2568574, 5.3635503 ], [ 27.2394766, 5.3864349 ], [ 27.2325244, 5.4243827 ], [ 27.2596585, 5.5067993 ], [ 27.2788729, 5.535909 ], [ 27.2585954, 5.6010866 ], [ 27.2386076, 5.5894995 ], [ 27.2374489, 5.6439591 ], [ 27.2142746, 5.6723476 ], [ 27.2189095, 5.6862521 ], [ 27.1867818, 5.7288793 ], [ 27.1476486, 5.7470846 ], [ 27.1349027, 5.7711279 ], [ 27.1079626, 5.7867706 ], [ 27.0726218, 5.7873499 ], [ 27.0233765, 5.8221114 ], [ 27.0172932, 5.8484721 ], [ 26.9818052, 5.8659596 ], [ 26.9559101, 5.8646649 ], [ 26.9269135, 5.8852613 ], [ 26.8762828, 5.8970337 ], [ 26.8523299, 5.926813 ], [ 26.8477982, 5.9786032 ], [ 26.8050714, 6.0051456 ], [ 26.7355553, 6.0091667 ], [ 26.6982542, 6.0038509 ], [ 26.6794803, 5.9915507 ], [ 26.6115057, 6.0239195 ], [ 26.554796, 6.0378448 ], [ 26.5369689, 6.0667644 ], [ 26.5314227, 6.1020224 ], [ 26.5159725, 6.1146995 ], [ 26.4434756, 6.0841953 ], [ 26.4640758, 6.1202457 ], [ 26.5196227, 6.1613205 ], [ 26.5334035, 6.1967042 ], [ 26.5329179, 6.2339695 ], [ 26.5017108, 6.2157198 ], [ 26.4757216, 6.2163201 ], [ 26.4723951, 6.2398854 ], [ 26.4850326, 6.2686871 ], [ 26.4363434, 6.3060437 ], [ 26.3935597, 6.3044592 ], [ 26.3626594, 6.3357556 ], [ 26.3361168, 6.3821061 ], [ 26.3083857, 6.3805215 ], [ 26.296501, 6.4078564 ], [ 26.3151204, 6.4340028 ], [ 26.301651, 6.4577723 ], [ 26.3004626, 6.4886726 ], [ 26.3230436, 6.4993689 ], [ 26.3285898, 6.5338346 ], [ 26.3499823, 6.5429463 ], [ 26.3543401, 6.5837506 ], [ 26.379298, 6.5813736 ], [ 26.3848442, 6.6055392 ], [ 26.4121791, 6.6372319 ], [ 26.4121791, 6.6538705 ], [ 26.3622632, 6.6863555 ], [ 26.3206666, 6.7045787 ], [ 26.2747123, 6.700221 ], [ 26.2609017, 6.733533 ], [ 26.2073654, 6.7473638 ], [ 26.1728997, 6.7949028 ], [ 26.1713151, 6.812928 ], [ 26.1307518, 6.8200588 ], [ 26.1079451, 6.8113628 ], [ 26.0699587, 6.8298811 ], [ 26.0849526, 6.9004789 ], [ 26.0613224, 6.9014215 ], [ 26.036889, 6.9732701 ], [ 26.0386199, 7.0050934 ], [ 26.0001587, 7.0079424 ], [ 25.9835396, 7.039756 ], [ 25.9365314, 7.045454 ], [ 25.9332076, 7.0634975 ], [ 25.9018689, 7.0682458 ], [ 25.8971206, 7.0924621 ], [ 25.8681559, 7.0801165 ], [ 25.8377668, 7.1081315 ], [ 25.8211478, 7.1546648 ], [ 25.7874348, 7.151341 ], [ 25.7560265, 7.1757524 ], [ 25.6626475, 7.2004277 ], [ 25.6430865, 7.2182921 ], [ 25.6198198, 7.2192417 ], [ 25.5879877, 7.2434383 ], [ 25.549545, 7.2572281 ], [ 25.5367246, 7.28002 ], [ 25.5001627, 7.305186 ], [ 25.4493559, 7.3056608 ], [ 25.4132688, 7.341273 ], [ 25.390477, 7.3289275 ], [ 25.3557913, 7.3478875 ], [ 25.3334974, 7.4276921 ], [ 25.3111804, 7.4295914 ], [ 25.2826906, 7.4713764 ], [ 25.2024443, 7.4927438 ], [ 25.1963579, 7.5345551 ], [ 25.1658824, 7.578688 ], [ 25.2309341, 7.631869 ], [ 25.2864707, 7.6554685 ], [ 25.2959858, 7.679352 ], [ 25.2803164, 7.7059425 ], [ 25.2836402, 7.7952105 ], [ 25.2535704, 7.8112614 ], [ 25.236632, 7.8559887 ], [ 25.1682565, 7.9143928 ], [ 25.084721, 7.8948608 ], [ 25.0381531, 7.9471561 ], [ 25.0063395, 7.96425 ], [ 24.9789976, 7.9576195 ], [ 24.9621803, 8.0084092 ], [ 24.9398633, 8.0383235 ], [ 24.9012155, 8.0510293 ], [ 24.8886421, 8.1196992 ], [ 24.8586594, 8.1748287 ], [ 24.834451, 8.1689017 ], [ 24.7907667, 8.1826718 ], [ 24.7499313, 8.1831466 ], [ 24.7290388, 8.2092622 ], [ 24.6835994, 8.2077129 ], [ 24.6449939, 8.2216078 ], [ 24.5922878, 8.2144854 ], [ 24.5595245, 8.201665 ], [ 24.4954224, 8.2349031 ], [ 24.4821257, 8.2838104 ], [ 24.4185913, 8.27735 ], [ 24.3600959, 8.2510473 ], [ 24.3420524, 8.2619684 ], [ 24.2869721, 8.2709901 ], [ 24.2290428, 8.2904582 ], [ 24.2029096, 8.3053983 ], [ 24.153942, 8.3739311 ], [ 24.1506959, 8.3963453 ], [ 24.1663653, 8.4238854 ], [ 24.1711136, 8.4580732 ], [ 24.1622879, 8.4804584 ], [ 24.2038768, 8.5003675 ], [ 24.2337911, 8.5658596 ], [ 24.2551375, 8.5926516 ], [ 24.2232204, 8.6419779 ], [ 24.2638421, 8.6816324 ], [ 24.2299925, 8.6997616 ], [ 24.197704, 8.6850419 ], [ 24.1661567, 8.7029104 ], [ 24.1426238, 8.6812433 ], [ 24.1158632, 8.690337 ], [ 24.0518747, 8.6937488 ], [ 24.0011244, 8.6665235 ], [ 23.9840305, 8.6385086 ], [ 23.9643484, 8.6545904 ], [ 23.965987, 8.6983371 ], [ 23.9466062, 8.7154837 ], [ 23.8701988, 8.7183853 ], [ 23.8547239, 8.7299915 ], [ 23.7792836, 8.7067791 ], [ 23.7328588, 8.7135494 ], [ 23.7154496, 8.7280571 ], [ 23.6777294, 8.7251556 ], [ 23.6255339, 8.7548419 ], [ 23.5928173, 8.739168 ], [ 23.5454515, 8.7003829 ], [ 23.513474, 8.7135317 ], [ 23.5239203, 8.7358487 ], [ 23.4978335, 8.8093005 ], [ 23.5243951, 8.8436351 ], [ 23.5897158, 8.9746887 ], [ 23.5823244, 9.0288188 ], [ 23.5519353, 9.0036528 ], [ 23.5395897, 8.9566446 ], [ 23.5094397, 8.9495419 ], [ 23.4514087, 8.9785574 ], [ 23.4664659, 9.0511358 ], [ 23.4616667, 9.0827778 ], [ 23.4816604, 9.1731671 ], [ 23.5315269, 9.1790541 ], [ 23.5497043, 9.2045431 ], [ 23.5943738, 9.2092289 ], [ 23.6133353, 9.2498675 ], [ 23.639008, 9.2508011 ], [ 23.6597262, 9.2903975 ], [ 23.6383856, 9.3217511 ], [ 23.6388524, 9.3786979 ], [ 23.6581458, 9.4065945 ], [ 23.6718085, 9.4500665 ], [ 23.640136, 9.4482034 ], [ 23.6323415, 9.4946801 ], [ 23.6473849, 9.5378375 ], [ 23.630278, 9.559167 ], [ 23.698962, 9.677927 ], [ 23.6722762, 9.8996663 ], [ 23.5977212, 10.0212652 ], [ 23.3176585, 10.4652939 ], [ 23.269239, 10.4933552 ], [ 23.2331995, 10.535172 ], [ 23.1506663, 10.5937706 ], [ 23.1322339, 10.6289848 ], [ 23.1082993, 10.6537448 ], [ 23.0045825, 10.7128936 ], [ 22.9859455, 10.7615486 ], [ 22.9690932, 10.776169 ], [ 22.9220493, 10.8509991 ], [ 22.9135209, 10.8793355 ], [ 22.8787529, 10.910524 ], [ 22.8755096, 10.9313664 ], [ 22.9063862, 11.0178017 ], [ 22.9306047, 11.0995253 ], [ 22.9882455, 11.2212656 ], [ 22.9790331, 11.3023354 ], [ 22.9342868, 11.3186546 ], [ 22.94192, 11.4247296 ], [ 22.8279486, 11.4149907 ], [ 22.7876769, 11.4052518 ], [ 22.7847816, 11.4410488 ], [ 22.7400353, 11.4884272 ], [ 22.6600184, 11.5147486 ], [ 22.6084286, 11.5618638 ], [ 22.5618398, 11.6305625 ], [ 22.5552595, 11.7047887 ], [ 22.5828969, 11.8513985 ], [ 22.6100079, 11.9501036 ], [ 22.6342874, 12.0550477 ], [ 22.5858302, 12.0612779 ], [ 22.543834, 12.0587397 ], [ 22.5140674, 12.0393568 ], [ 22.4778399, 12.0324344 ], [ 22.4962998, 12.163038 ], [ 22.473225, 12.238262 ], [ 22.4487656, 12.2645673 ], [ 22.4478426, 12.3007948 ], [ 22.433767, 12.3222544 ], [ 22.4193872, 12.3957583 ], [ 22.4015566, 12.423574 ], [ 22.3716012, 12.4314194 ], [ 22.4036963, 12.495966 ], [ 22.4258062, 12.5145098 ], [ 22.4253767, 12.5395669 ], [ 22.4585409, 12.6333742 ], [ 22.3999438, 12.6499806 ], [ 22.3097945, 12.6891244 ], [ 22.1944982, 12.7557875 ], [ 22.1954471, 12.7109501 ], [ 22.1510842, 12.6737041 ], [ 21.9469899, 12.6238831 ], [ 21.9256502, 12.6613583 ], [ 21.8941566, 12.6831727 ], [ 21.8856331, 12.7072985 ], [ 21.862663, 12.7260791 ], [ 21.8609294, 12.7616178 ], [ 21.8155671, 12.8036574 ], [ 21.8418599, 12.8315394 ], [ 21.8565955, 12.879791 ], [ 21.8791322, 12.922264 ], [ 21.9044137, 12.996953 ], [ 21.9301287, 13.020212 ], [ 21.926517, 13.0482385 ], [ 21.9452976, 13.0684637 ], [ 21.9713015, 13.0733756 ], [ 22.0026507, 13.1105033 ], [ 22.007418, 13.13983 ], [ 22.0688161, 13.1437305 ], [ 22.0881746, 13.1658338 ], [ 22.135415, 13.1710346 ], [ 22.1482725, 13.1989166 ], [ 22.1796216, 13.22911 ], [ 22.1812107, 13.2487574 ], [ 22.2904271, 13.3537842 ], [ 22.2751137, 13.4033361 ], [ 22.2176162, 13.4669011 ], [ 22.2132822, 13.5106744 ], [ 22.2251284, 13.5486689 ], [ 22.1916123, 13.5823295 ], [ 22.1670531, 13.5944647 ], [ 22.1413381, 13.6453167 ], [ 22.1147563, 13.6833113 ], [ 22.1312255, 13.708304 ], [ 22.1237539, 13.7357979 ], [ 22.0719455, 13.7786371 ], [ 22.1376572, 13.8547587 ], [ 22.2100883, 13.9302078 ], [ 22.2445259, 13.9603016 ], [ 22.2945912, 13.9645371 ], [ 22.3217529, 14.0116927 ], [ 22.3583456, 14.0224442 ], [ 22.3949384, 14.0539442 ], [ 22.4405851, 14.0528125 ], [ 22.4852886, 14.1050609 ], [ 22.5348964, 14.1101537 ], [ 22.5682826, 14.1842824 ], [ 22.5401778, 14.2372854 ], [ 22.4773727, 14.2459788 ], [ 22.4654833, 14.2416237 ], [ 22.425, 14.2925 ], [ 22.4291271, 14.3136779 ], [ 22.4566878, 14.3311898 ], [ 22.4400856, 14.3723989 ], [ 22.4329704, 14.4130151 ], [ 22.4427538, 14.4835746 ], [ 22.3938115, 14.5203094 ], [ 22.4113282, 14.600976 ], [ 22.4433468, 14.6051266 ], [ 22.4777371, 14.6309193 ], [ 22.5150921, 14.6415922 ], [ 22.5785363, 14.6463357 ], [ 22.7110577, 14.6937706 ], [ 22.7116506, 14.7248998 ], [ 22.6624541, 14.845448 ], [ 22.6777573, 14.8745101 ], [ 22.7254095, 14.9011764 ], [ 22.7600244, 14.9070355 ], [ 22.7468158, 14.9519713 ], [ 22.7505213, 14.9690165 ], [ 22.7801651, 14.9914964 ], [ 22.8127305, 15.0351731 ], [ 22.8436523, 15.0460904 ], [ 22.8624267, 15.0764754 ], [ 22.8849066, 15.0910502 ], [ 22.9175148, 15.0910502 ], [ 22.9387596, 15.1061192 ], [ 22.9286312, 15.1458913 ], [ 22.9336056, 15.1691677 ], [ 22.9787787, 15.1967799 ], [ 23.0029878, 15.2424808 ], [ 22.9854486, 15.259526 ], [ 23.004223, 15.3148611 ], [ 22.9931066, 15.3341296 ], [ 22.98866, 15.414909 ], [ 22.926408, 15.4682679 ], [ 22.91875, 15.4887715 ], [ 22.9286312, 15.5171802 ], [ 22.9272065, 15.553553 ], [ 22.9786495, 15.5835847 ], [ 23.0322403, 15.6273697 ], [ 23.0990194, 15.7046994 ], [ 23.1241656, 15.7204064 ], [ 23.2080009, 15.7146294 ], [ 23.3508064, 15.6941169 ], [ 23.4432436, 15.7102298 ], [ 23.5242861, 15.749755 ], [ 23.5899187, 15.7631842 ], [ 23.6742764, 15.7633733 ], [ 23.733064, 15.7517842 ], [ 23.8176467, 15.7507007 ], [ 23.8619644, 15.7323734 ], [ 23.9706634, 15.7102241 ], [ 24.0, 15.7111131 ], [ 24.0, 16.0 ], [ 24.0, 16.4970553 ], [ 24.0, 19.5 ], [ 24.0, 19.997942 ], [ 25.0, 19.997923 ], [ 24.9999996, 20.5238882 ], [ 25.0, 22.0 ], [ 25.3280544, 22.0 ], [ 25.6894455, 22.0 ], [ 25.9999981, 22.0 ], [ 26.3852768, 22.0 ], [ 26.8312931, 22.0 ], [ 27.1513882, 22.0 ], [ 27.5324478, 22.0 ], [ 27.8088741, 22.0 ], [ 28.2329636, 22.0 ], [ 28.6055546, 22.0 ], [ 29.0024662, 22.0 ], [ 29.4133873, 22.0 ], [ 29.4933071, 22.0 ], [ 30.0, 22.0 ], [ 31.3160877, 22.0 ], [ 31.3163766, 22.0007557 ], [ 31.3168889, 22.0021067 ], [ 31.33755, 22.05622 ], [ 31.34608, 22.07855 ], [ 31.34621, 22.07998 ], [ 31.346386, 22.08199 ], [ 31.34728, 22.092 ], [ 31.3476699, 22.0962185 ], [ 31.3572995, 22.1154693 ], [ 31.35833, 22.11678 ], [ 31.3813587, 22.1461508 ], [ 31.38159, 22.14644 ], [ 31.38738, 22.15382 ], [ 31.3876212, 22.1541322 ], [ 31.3975077, 22.1621339 ], [ 31.3996175, 22.1638301 ], [ 31.40831, 22.17811 ], [ 31.4103393, 22.1814389 ], [ 31.4131787, 22.1836368 ], [ 31.4688016, 22.2228306 ], [ 31.48358, 22.21928 ], [ 31.51261, 22.18417 ], [ 31.5128263, 22.1815062 ], [ 31.5080227, 22.1705506 ], [ 31.5071106, 22.1686313 ], [ 31.498758, 22.1595216 ], [ 31.4970989, 22.1577147 ], [ 31.4745808, 22.1351106 ], [ 31.4726924, 22.133099 ], [ 31.4653905, 22.1253006 ], [ 31.45818, 22.11466 ], [ 31.4572301, 22.1132592 ], [ 31.43553, 22.08119 ], [ 31.4303168, 22.0711582 ], [ 31.4259262, 22.0626358 ], [ 31.42571, 22.06205 ], [ 31.4122104, 22.0077797 ] ] ], [ [ [ 37.2769408, 20.8490857 ], [ 37.2822689, 20.8259703 ], [ 37.277381, 20.7741769 ], [ 37.2502105, 20.7566541 ], [ 37.2553107, 20.8367674 ], [ 37.2769408, 20.8490857 ] ] ] ] } }
]
}
