{
"type": "FeatureCollection",
"name": "SEN_GAUL2013_ADM0",
"crs": { "type": "name", "properties": { "name": "urn:ogc:def:crs:OGC:1.3:CRS84" } },
"features": [
{ "type": "Feature", "properties": { "POLYGON_ID": "SEN_GAUL2013_ADM0_217", "ADM0_ISO3": "SEN", "ADM0_NAME": "Senegal", "ADM0_CODE": 217, "GEOSET": "GAUL", "GEOSET_YEAR": 2013.0, "GEOSET_VERSION": "GAUL_v1", "GEOSET_UNIT": "ADM0", "CENTROID_LONG": -14.460004447232862, "CENTROID_LAT": 14.357472211087741 }, "geometry": { "type": "MultiPolygon", "coordinates": [ [ [ [ -14.9454374, 16.6355367 ], [ -14.9286162, 16.635132 ], [ -14.9141073, 16.6495253 ], [ -14.9102344, 16.6470976 ], [ -14.9113327, 16.6402188 ], [ -14.8922572, 16.6362881 ], [ -14.886708, 16.6570399 ], [ -14.8827195, 16.6602192 ], [ -14.878731, 16.6609128 ], [ -14.8605803, 16.6368084 ], [ -14.8263023, 16.6353632 ], [ -14.8230074, 16.6399876 ], [ -14.8230074, 16.6470398 ], [ -14.8210999, 16.6508548 ], [ -14.817516, 16.6536295 ], [ -14.8126026, 16.6541497 ], [ -14.7846252, 16.6328777 ], [ -14.7766482, 16.6485427 ], [ -14.771099, 16.6544965 ], [ -14.76607, 16.6563463 ], [ -14.7555496, 16.6499878 ], [ -14.7514454, 16.6381957 ], [ -14.7532374, 16.6307967 ], [ -14.7341041, 16.6228775 ], [ -14.7386707, 16.6275018 ], [ -14.738555, 16.6312013 ], [ -14.7363585, 16.6329355 ], [ -14.7293641, 16.6322996 ], [ -14.727919, 16.6335135 ], [ -14.7289017, 16.6439761 ], [ -14.7284393, 16.6459993 ], [ -14.7262427, 16.647271 ], [ -14.7173408, 16.639872 ], [ -14.6864732, 16.6468085 ], [ -14.6665884, 16.6470398 ], [ -14.651039, 16.6506236 ], [ -14.6450274, 16.650219 ], [ -14.6516171, 16.629525 ], [ -14.6482644, 16.6247272 ], [ -14.6394781, 16.6175595 ], [ -14.5530604, 16.6232243 ], [ -14.5492453, 16.6420108 ], [ -14.5475112, 16.6439761 ], [ -14.5439851, 16.6443229 ], [ -14.5297074, 16.6299874 ], [ -14.5128285, 16.6241492 ], [ -14.5034641, 16.6157675 ], [ -14.4879725, 16.6169236 ], [ -14.4786082, 16.6262301 ], [ -14.475718, 16.6270972 ], [ -14.4564113, 16.6238601 ], [ -14.4437521, 16.6279643 ], [ -14.4373936, 16.6411437 ], [ -14.4276461, 16.6484817 ], [ -14.4268039, 16.6491157 ], [ -14.4219598, 16.6527624 ], [ -14.4182025, 16.6528202 ], [ -14.4140406, 16.6501034 ], [ -14.4109191, 16.6368084 ], [ -14.3929997, 16.6363459 ], [ -14.3842713, 16.6379066 ], [ -14.3667565, 16.634265 ], [ -14.3518429, 16.6401032 ], [ -14.3360045, 16.6426466 ], [ -14.3264668, 16.6306233 ], [ -14.334097, 16.5769807 ], [ -14.3332877, 16.5710846 ], [ -14.2968131, 16.5731078 ], [ -14.2918997, 16.5815473 ], [ -14.2874487, 16.5854202 ], [ -14.2822463, 16.5868075 ], [ -14.2676218, 16.5765183 ], [ -14.2665235, 16.5732812 ], [ -14.2735757, 16.5618359 ], [ -14.274963, 16.549697 ], [ -14.2597154, 16.5206744 ], [ -14.2536331, 16.5154189 ], [ -14.2584887, 16.5250723 ], [ -14.2572748, 16.534032 ], [ -14.2540377, 16.5407373 ], [ -14.2476214, 16.5462865 ], [ -14.2392398, 16.5473848 ], [ -14.2205689, 16.5446102 ], [ -14.2083144, 16.5353037 ], [ -14.1995281, 16.5094072 ], [ -14.1668685, 16.4939156 ], [ -14.162302, 16.4888288 ], [ -14.156695, 16.477557 ], [ -14.1442741, 16.4728969 ], [ -14.1415583, 16.4754269 ], [ -14.1387756, 16.4780194 ], [ -14.1332263, 16.4779616 ], [ -14.1383709, 16.4546086 ], [ -14.0709131, 16.4066886 ], [ -14.0346118, 16.3626416 ], [ -14.0303921, 16.3502136 ], [ -14.0275019, 16.3485951 ], [ -13.9960805, 16.3471535 ], [ -13.982384, 16.3381625 ], [ -13.9665028, 16.3312723 ], [ -13.9570917, 16.3160633 ], [ -13.9584362, 16.3075765 ], [ -13.9642341, 16.306148 ], [ -13.9717125, 16.3100133 ], [ -13.9867534, 16.2758981 ], [ -13.9632257, 16.2768224 ], [ -13.9512938, 16.2702683 ], [ -13.9520501, 16.2671593 ], [ -13.9690236, 16.2495135 ], [ -13.970284, 16.2454802 ], [ -13.967091, 16.2239691 ], [ -13.9533945, 16.2317837 ], [ -13.9412945, 16.235733 ], [ -13.9384376, 16.2347246 ], [ -13.9192793, 16.2201879 ], [ -13.9175148, 16.208424 ], [ -13.9063959, 16.1950229 ], [ -13.9034822, 16.1938032 ], [ -13.8983565, 16.1933831 ], [ -13.8928947, 16.1946435 ], [ -13.8769295, 16.1967442 ], [ -13.8697031, 16.189938 ], [ -13.8675184, 16.1826276 ], [ -13.8769295, 16.153386 ], [ -13.8644934, 16.1299423 ], [ -13.8551663, 16.1275055 ], [ -13.8500407, 16.1095236 ], [ -13.8455872, 16.1070028 ], [ -13.8434025, 16.1085153 ], [ -13.8264289, 16.1295222 ], [ -13.8103797, 16.1386812 ], [ -13.7947505, 16.1449832 ], [ -13.7740798, 16.1438069 ], [ -13.7647527, 16.1449832 ], [ -13.7324861, 16.1711158 ], [ -13.7230751, 16.1797706 ], [ -13.7027404, 16.177922 ], [ -13.7013119, 16.1702755 ], [ -13.704505, 16.15952 ], [ -13.7184535, 16.1460756 ], [ -13.7189577, 16.1422103 ], [ -13.717123, 16.1363326 ], [ -13.7061015, 16.1170861 ], [ -13.6843384, 16.0972556 ], [ -13.631233, 16.1089354 ], [ -13.5891552, 16.1292611 ], [ -13.5881274, 16.1297576 ], [ -13.5816567, 16.1328833 ], [ -13.5677922, 16.1364124 ], [ -13.5237618, 16.1284298 ], [ -13.4789751, 16.144143 ], [ -13.4748578, 16.1375888 ], [ -13.5045195, 16.1184305 ], [ -13.5103174, 16.1125486 ], [ -13.5135104, 16.1011209 ], [ -13.509057, 16.0918778 ], [ -13.4939219, 16.0831324 ], [ -13.4895626, 16.0822147 ], [ -13.4861174, 16.0838112 ], [ -13.4745216, 16.1035577 ], [ -13.4687237, 16.1078431 ], [ -13.4601529, 16.1098597 ], [ -13.4539349, 16.1058264 ], [ -13.4522543, 16.0964994 ], [ -13.4486412, 16.089273 ], [ -13.4455321, 16.086416 ], [ -13.3763775, 16.058687 ], [ -13.3727643, 16.0493599 ], [ -13.3771337, 16.0244037 ], [ -13.3733525, 16.0107072 ], [ -13.3549505, 15.9546609 ], [ -13.3431026, 15.9402082 ], [ -13.3346998, 15.9340741 ], [ -13.3257929, 15.9298728 ], [ -13.3227679, 15.8875229 ], [ -13.3003326, 15.8718938 ], [ -13.2993242, 15.84198 ], [ -13.2734438, 15.7831607 ], [ -13.2809222, 15.7869419 ], [ -13.2872243, 15.7854295 ], [ -13.2779813, 15.7556837 ], [ -13.2408411, 15.7266102 ], [ -13.216053, 15.7027464 ], [ -13.2212627, 15.6724965 ], [ -13.2324383, 15.6716562 ], [ -13.2446223, 15.677202 ], [ -13.2507563, 15.6720763 ], [ -13.2494119, 15.6530021 ], [ -13.2293293, 15.6164501 ], [ -13.2144564, 15.6126689 ], [ -13.1990794, 15.625441 ], [ -13.1912648, 15.6272056 ], [ -13.1837864, 15.6267015 ], [ -13.1536247, 15.611185 ], [ -13.0871547, 15.5770412 ], [ -13.0938769, 15.5735961 ], [ -13.090936, 15.5677141 ], [ -13.0874909, 15.5646051 ], [ -13.0847179, 15.5570426 ], [ -13.0853902, 15.5464552 ], [ -13.096986, 15.5297337 ], [ -13.1018596, 15.4993998 ], [ -13.0963137, 15.4956185 ], [ -13.0838777, 15.4929296 ], [ -13.0559805, 15.4798213 ], [ -13.0279994, 15.4811658 ], [ -13.0164036, 15.485031 ], [ -13.0079168, 15.4931817 ], [ -12.9973293, 15.496963 ], [ -12.9760704, 15.4984754 ], [ -12.9615141, 15.5009617 ], [ -12.9585086, 15.5004921 ], [ -12.9609454, 15.4962067 ], [ -12.9625419, 15.4899887 ], [ -12.9585086, 15.4762082 ], [ -12.9613655, 15.4538568 ], [ -12.9601051, 15.4468825 ], [ -12.9524586, 15.4425971 ], [ -12.9316198, 15.4478909 ], [ -12.9320399, 15.4283965 ], [ -12.9398545, 15.423859 ], [ -12.9456524, 15.4169687 ], [ -12.9470809, 15.4107507 ], [ -12.9448121, 15.3938612 ], [ -12.947585, 15.3675606 ], [ -12.9460725, 15.3623509 ], [ -12.9411989, 15.3557967 ], [ -12.932124, 15.3479821 ], [ -12.9106969, 15.338319 ], [ -12.883388, 15.3364704 ], [ -12.8505332, 15.3167239 ], [ -12.8336437, 15.286558 ], [ -12.8322993, 15.2806761 ], [ -12.8411221, 15.2623581 ], [ -12.8503652, 15.2526949 ], [ -12.8641457, 15.2547116 ], [ -12.871204, 15.2596692 ], [ -12.8839762, 15.268156 ], [ -12.8920428, 15.2672317 ], [ -12.8962442, 15.2641227 ], [ -12.8980928, 15.2591651 ], [ -12.8891859, 15.2424436 ], [ -12.8736408, 15.2353012 ], [ -12.8545666, 15.2142944 ], [ -12.8512895, 15.2023624 ], [ -12.8429708, 15.2001777 ], [ -12.8017973, 15.2147985 ], [ -12.7942348, 15.210009 ], [ -12.7907897, 15.2056395 ], [ -12.7849077, 15.1891701 ], [ -12.7929744, 15.1664827 ], [ -12.7913779, 15.155139 ], [ -12.782723, 15.1478286 ], [ -12.7569266, 15.1391737 ], [ -12.746087, 15.1323675 ], [ -12.7339871, 15.1173266 ], [ -12.7273489, 15.1113606 ], [ -12.7194503, 15.1060669 ], [ -12.6980233, 15.0961517 ], [ -12.6930656, 15.0853121 ], [ -12.6884441, 15.088001 ], [ -12.6860073, 15.1012773 ], [ -12.6615553, 15.1091759 ], [ -12.6247513, 15.0914461 ], [ -12.6071055, 15.0846399 ], [ -12.6006354, 15.0795982 ], [ -12.5831576, 15.0568268 ], [ -12.5723181, 15.0506087 ], [ -12.5526556, 15.0332991 ], [ -12.5157676, 15.0223755 ], [ -12.5052641, 15.017754 ], [ -12.4994662, 15.0181741 ], [ -12.4913156, 15.0150651 ], [ -12.4719892, 14.9975033 ], [ -12.4633344, 14.98742 ], [ -12.4607295, 14.9815381 ], [ -12.4565721, 14.9603809 ], [ -12.4517865, 14.9206428 ], [ -12.4490091, 14.9088923 ], [ -12.4534956, 14.8974836 ], [ -12.4504619, 14.8913734 ], [ -12.4364894, 14.8829557 ], [ -12.4133302, 14.8587283 ], [ -12.3944439, 14.8447559 ], [ -12.3861545, 14.8439013 ], [ -12.3771814, 14.837791 ], [ -12.3740621, 14.8337317 ], [ -12.3664991, 14.8335608 ], [ -12.3358195, 14.8309116 ], [ -12.3280856, 14.8279633 ], [ -12.3173178, 14.8196739 ], [ -12.3080883, 14.8069833 ], [ -12.2894584, 14.7870715 ], [ -12.2878347, 14.7827559 ], [ -12.2723668, 14.774381 ], [ -12.2397644, 14.7657924 ], [ -12.2391646, 14.7593725 ], [ -12.2388259, 14.7557471 ], [ -12.2087991, 14.7164017 ], [ -12.2140188, 14.7073148 ], [ -12.2135804, 14.7035226 ], [ -12.1596271, 14.6802151 ], [ -12.1651824, 14.6758594 ], [ -12.1774485, 14.6698352 ], [ -12.1773009, 14.665319 ], [ -12.1464198, 14.6527687 ], [ -12.1449396, 14.635058 ], [ -12.1510809, 14.6205952 ], [ -12.1721765, 14.6132749 ], [ -12.1718312, 14.5996567 ], [ -12.1856357, 14.5563303 ], [ -12.1913803, 14.5545077 ], [ -12.2165639, 14.5489777 ], [ -12.2133617, 14.5259673 ], [ -12.2214641, 14.4929421 ], [ -12.2028186, 14.4821082 ], [ -12.2065883, 14.4585026 ], [ -12.1893501, 14.4377046 ], [ -12.1984398, 14.4284049 ], [ -12.2019788, 14.4208056 ], [ -12.2008484, 14.4069656 ], [ -12.1398144, 14.3862113 ], [ -12.1319117, 14.3875805 ], [ -12.1185119, 14.3727134 ], [ -12.1157153, 14.3694042 ], [ -12.111042, 14.3638742 ], [ -12.0993997, 14.3557548 ], [ -12.0934268, 14.3063561 ], [ -12.0403299, 14.3014647 ], [ -12.0180188, 14.2531299 ], [ -12.0027208, 14.205431 ], [ -11.98752, 14.16996 ], [ -11.99092, 14.12215 ], [ -11.98922, 14.10101 ], [ -12.01357, 14.04694 ], [ -12.01611, 14.02832 ], [ -12.0131641, 13.9975747 ], [ -11.9799126, 13.9583516 ], [ -11.933508, 13.9226727 ], [ -11.9504585, 13.8205396 ], [ -11.9703593, 13.796241 ], [ -11.9739435, 13.7955517 ], [ -11.979182, 13.7892104 ], [ -11.9834555, 13.7792848 ], [ -12.009634, 13.7525282 ], [ -12.0538411, 13.7315515 ], [ -12.0609489, 13.7299913 ], [ -12.06771, 13.7209765 ], [ -12.0739268, 13.7208706 ], [ -12.0684268, 13.7066309 ], [ -12.039801, 13.6662766 ], [ -12.0378236, 13.6246968 ], [ -11.9979915, 13.5867178 ], [ -11.9987711, 13.5751669 ], [ -11.998027, 13.5679033 ], [ -11.9955822, 13.565494 ], [ -11.9869721, 13.5639704 ], [ -11.9712402, 13.5371836 ], [ -11.9691143, 13.534101 ], [ -11.9263122, 13.5124874 ], [ -11.866459, 13.4593353 ], [ -11.8642268, 13.4372965 ], [ -11.8873995, 13.394211 ], [ -11.846307, 13.3509527 ], [ -11.8329172, 13.3152291 ], [ -11.81659, 13.3085962 ], [ -11.7987534, 13.3104918 ], [ -11.7938284, 13.3291291 ], [ -11.7900371, 13.3340896 ], [ -11.7768918, 13.3386249 ], [ -11.7713644, 13.33781 ], [ -11.741743, 13.3915961 ], [ -11.7461721, 13.402084 ], [ -11.7447548, 13.4089224 ], [ -11.7047873, 13.4144144 ], [ -11.6942285, 13.3914543 ], [ -11.6257381, 13.3937929 ], [ -11.6371133, 13.3635688 ], [ -11.5935668, 13.3613475 ], [ -11.5901348, 13.3134238 ], [ -11.5498855, 13.2909086 ], [ -11.5221904, 13.2540424 ], [ -11.5411079, 13.2302547 ], [ -11.5341741, 13.1977411 ], [ -11.4985176, 13.1836584 ], [ -11.5155081, 13.1626993 ], [ -11.5188224, 13.158322 ], [ -11.5185957, 13.1549502 ], [ -11.4961115, 13.1214825 ], [ -11.4687939, 13.096919 ], [ -11.425948, 13.0831159 ], [ -11.4354796, 13.0629859 ], [ -11.4105453, 13.0312123 ], [ -11.4066748, 13.0020446 ], [ -11.4114977, 13.0031902 ], [ -11.4132644, 13.0015965 ], [ -11.4158854, 12.9992321 ], [ -11.3910421, 12.9648657 ], [ -11.3834638, 12.9671199 ], [ -11.3803669, 12.9815762 ], [ -11.3832396, 12.9917926 ], [ -11.3572756, 12.9819676 ], [ -11.3500224, 12.9346502 ], [ -11.3629994, 12.9308263 ], [ -11.381913, 12.9289599 ], [ -11.3875124, 12.9250963 ], [ -11.3891854, 12.9263794 ], [ -11.3961957, 12.9308039 ], [ -11.3991451, 12.928097 ], [ -11.3864415, 12.9048513 ], [ -11.4046839, 12.8772337 ], [ -11.397655, 12.8548195 ], [ -11.4083584, 12.8500941 ], [ -11.4102029, 12.8471883 ], [ -11.4022727, 12.8259488 ], [ -11.3904783, 12.8253633 ], [ -11.3813848, 12.8046007 ], [ -11.3896435, 12.776585 ], [ -11.396889, 12.7767654 ], [ -11.3982883, 12.7742334 ], [ -11.3955755, 12.7699739 ], [ -11.378063, 12.7545685 ], [ -11.3837812, 12.7276575 ], [ -11.3934478, 12.7294777 ], [ -11.4248169, 12.7264914 ], [ -11.4250285, 12.7070365 ], [ -11.4310791, 12.6980595 ], [ -11.4330667, 12.7043426 ], [ -11.4382099, 12.7001811 ], [ -11.4367177, 12.6903773 ], [ -11.4438389, 12.6621602 ], [ -11.4312567, 12.6600506 ], [ -11.4070561, 12.6347285 ], [ -11.4213714, 12.6040292 ], [ -11.4111659, 12.5732196 ], [ -11.4196889, 12.5650552 ], [ -11.4367072, 12.5679514 ], [ -11.4407343, 12.5672342 ], [ -11.4420582, 12.5595387 ], [ -11.4452302, 12.5448649 ], [ -11.4409825, 12.5429892 ], [ -11.4355212, 12.5488091 ], [ -11.4266672, 12.5277913 ], [ -11.4106143, 12.5214474 ], [ -11.410697, 12.5351834 ], [ -11.4081318, 12.5406172 ], [ -11.3865072, 12.5378037 ], [ -11.3824526, 12.4914101 ], [ -11.3752811, 12.483025 ], [ -11.3728263, 12.4955474 ], [ -11.3681925, 12.5063873 ], [ -11.3517296, 12.4748121 ], [ -11.3648599, 12.458462 ], [ -11.3749215, 12.4539846 ], [ -11.3727583, 12.4431684 ], [ -11.37946, 12.41356 ], [ -11.40867, 12.41758 ], [ -11.45971, 12.44149 ], [ -11.5360025, 12.4422063 ], [ -11.55007, 12.44029 ], [ -11.58144, 12.43314 ], [ -11.63901, 12.42366 ], [ -11.64815, 12.42549 ], [ -11.66383, 12.4234 ], [ -11.67201, 12.41995 ], [ -11.6837167, 12.4123149 ], [ -11.68791, 12.40958 ], [ -11.6970801, 12.4020551 ], [ -11.72264, 12.39229 ], [ -11.76161, 12.38786 ], [ -11.78573, 12.39358 ], [ -11.8433396, 12.3966067 ], [ -11.8467007, 12.3970356 ], [ -11.86065, 12.40174 ], [ -11.88246, 12.41918 ], [ -11.90332, 12.43087 ], [ -11.93186, 12.42529 ], [ -11.93419, 12.42207 ], [ -11.95874, 12.40706 ], [ -11.96067, 12.40643 ], [ -12.01676, 12.39659 ], [ -12.04961, 12.42319 ], [ -12.08865, 12.42202 ], [ -12.09684, 12.42131 ], [ -12.1132, 12.41231 ], [ -12.13001, 12.39502 ], [ -12.13982, 12.38856 ], [ -12.15919, 12.36805 ], [ -12.17251, 12.36273 ], [ -12.1737149, 12.3622995 ], [ -12.1775596, 12.3609259 ], [ -12.17836, 12.36064 ], [ -12.18568, 12.36093 ], [ -12.18914, 12.35864 ], [ -12.1978258, 12.3584262 ], [ -12.2137482, 12.3577203 ], [ -12.225936, 12.3561772 ], [ -12.34363, 12.30731 ], [ -12.35322, 12.30728 ], [ -12.38993, 12.35614 ], [ -12.40037, 12.36547 ], [ -12.40402, 12.36874 ], [ -12.44953, 12.39157 ], [ -12.4966, 12.39759 ], [ -12.5062, 12.39732 ], [ -12.51761, 12.38945 ], [ -12.54376, 12.37141 ], [ -12.55545, 12.3679 ], [ -12.5639002, 12.3685109 ], [ -12.56458, 12.36856 ], [ -12.57705, 12.38185 ], [ -12.58437, 12.39538 ], [ -12.62174, 12.42627 ], [ -12.67281, 12.4334 ], [ -12.73957, 12.43002 ], [ -12.7516355, 12.433857 ], [ -12.75545, 12.43507 ], [ -12.75877, 12.44218 ], [ -12.7612, 12.45827 ], [ -12.77183, 12.4709 ], [ -12.7766, 12.47189 ], [ -12.81047, 12.47596 ], [ -12.83418, 12.48688 ], [ -12.83759, 12.49112 ], [ -12.84173, 12.49627 ], [ -12.84181, 12.51054 ], [ -12.87399, 12.52692 ], [ -12.8764389, 12.5307017 ], [ -12.89327, 12.5397 ], [ -12.90007, 12.54197 ], [ -12.90523, 12.54194 ], [ -12.92253, 12.53701 ], [ -12.93091, 12.53052 ], [ -12.93262, 12.52747 ], [ -12.93647, 12.5206 ], [ -12.9380144, 12.5078687 ], [ -12.93955, 12.48746 ], [ -12.94815, 12.47706 ], [ -12.96702, 12.46269 ], [ -12.96865, 12.46167 ], [ -12.97405, 12.46358 ], [ -13.0024, 12.47374 ], [ -13.00399, 12.47434 ], [ -13.01645, 12.47732 ], [ -13.03975, 12.47493 ], [ -13.05099, 12.47395 ], [ -13.05877, 12.47707 ], [ -13.07121, 12.49132 ], [ -13.07659, 12.52971 ], [ -13.0509, 12.58206 ], [ -13.05188, 12.59056 ], [ -13.05621, 12.61009 ], [ -13.05673, 12.61929 ], [ -13.08003, 12.63918 ], [ -13.08794, 12.62994 ], [ -13.0890443, 12.6294446 ], [ -13.0927833, 12.6277672 ], [ -13.09728, 12.62575 ], [ -13.1008, 12.62687 ], [ -13.11912, 12.63505 ], [ -13.13415, 12.64233 ], [ -13.13906, 12.64161 ], [ -13.14511, 12.63491 ], [ -13.17184, 12.63866 ], [ -13.17956, 12.63655 ], [ -13.1809004, 12.6342404 ], [ -13.1846504, 12.62778 ], [ -13.1877, 12.62776 ], [ -13.19712, 12.6369 ], [ -13.21077, 12.64649 ], [ -13.21335, 12.64877 ], [ -13.2181534, 12.6484713 ], [ -13.22155, 12.64826 ], [ -13.23297, 12.63968 ], [ -13.28786, 12.65246 ], [ -13.29067, 12.65175 ], [ -13.29532, 12.64666 ], [ -13.30466, 12.64246 ], [ -13.32409, 12.64172 ], [ -13.33325, 12.64461 ], [ -13.33602, 12.65212 ], [ -13.34231, 12.65389 ], [ -13.34631, 12.64971 ], [ -13.35017, 12.65344 ], [ -13.3507924, 12.6586661 ], [ -13.3509, 12.6595698 ], [ -13.39306, 12.66212 ], [ -13.45208, 12.66598 ], [ -13.45308, 12.66605 ], [ -13.46174, 12.66506 ], [ -13.46738, 12.66686 ], [ -13.58023, 12.67499 ], [ -13.7082731, 12.6762128 ], [ -13.8233805, 12.67616 ], [ -13.86063, 12.67583 ], [ -13.99499, 12.67614 ], [ -14.00569, 12.67726 ], [ -14.1234, 12.67774 ], [ -14.1478105, 12.6767739 ], [ -14.15448, 12.67651 ], [ -14.1591501, 12.67486 ], [ -14.16948, 12.6766 ], [ -14.27047, 12.67695 ], [ -14.30983, 12.67608 ], [ -14.30981, 12.67493 ], [ -14.31756, 12.67646 ], [ -14.3396503, 12.6765388 ], [ -14.3792, 12.67668 ], [ -14.50801, 12.67712 ], [ -14.63683, 12.67749 ], [ -14.76564, 12.67781 ], [ -14.76678, 12.67781 ], [ -14.78153, 12.67671 ], [ -14.805464, 12.6771405 ], [ -14.89439, 12.67874 ], [ -14.8952, 12.67875 ], [ -14.90245, 12.67728 ], [ -14.9095, 12.67834 ], [ -14.94275, 12.67746 ], [ -15.0, 12.67901 ], [ -15.02292, 12.67963 ], [ -15.03512, 12.67995 ], [ -15.05736, 12.67897 ], [ -15.07169, 12.68062 ], [ -15.10211, 12.67769 ], [ -15.11244, 12.67962 ], [ -15.1301015, 12.6796155 ], [ -15.16447, 12.67961 ], [ -15.17925, 12.68079 ], [ -15.18669, 12.67724 ], [ -15.19489, 12.67712 ], [ -15.2290974, 12.6622026 ], [ -15.23518, 12.65955 ], [ -15.26889, 12.63799 ], [ -15.32983, 12.61176 ], [ -15.40738, 12.55108 ], [ -15.4254839, 12.53808 ], [ -15.42962, 12.53511 ], [ -15.45214, 12.52236 ], [ -15.4687002, 12.5179797 ], [ -15.47123, 12.5145 ], [ -15.48645, 12.50926 ], [ -15.49219, 12.50729 ], [ -15.49938, 12.50281 ], [ -15.50639, 12.50155 ], [ -15.53061, 12.49291 ], [ -15.54198, 12.48676 ], [ -15.54452, 12.48396 ], [ -15.6119, 12.45144 ], [ -15.61444, 12.44887 ], [ -15.62792, 12.44268 ], [ -15.63091, 12.43942 ], [ -15.66585, 12.4283 ], [ -15.6774976, 12.426152 ], [ -15.76143, 12.43211 ], [ -15.76959, 12.43208 ], [ -15.77946, 12.43205 ], [ -15.78464, 12.43358 ], [ -15.8008, 12.43425 ], [ -15.81514, 12.43747 ], [ -15.86137, 12.44387 ], [ -15.89721, 12.44477 ], [ -15.93463, 12.44222 ], [ -15.9491, 12.43968 ], [ -15.97609, 12.44626 ], [ -16.04325, 12.46781 ], [ -16.0566, 12.46781 ], [ -16.06271, 12.46932 ], [ -16.1352988, 12.453987 ], [ -16.1497706, 12.4533596 ], [ -16.16561, 12.45061 ], [ -16.16915, 12.45049 ], [ -16.20135, 12.45707 ], [ -16.2117336, 12.456542 ], [ -16.2844904, 12.4199696 ], [ -16.29072, 12.4148 ], [ -16.30418, 12.40835 ], [ -16.32871, 12.39319 ], [ -16.36098, 12.37858 ], [ -16.3852751, 12.3624756 ], [ -16.3899002, 12.36059 ], [ -16.4024005, 12.3599443 ], [ -16.46777, 12.35664 ], [ -16.49433, 12.35041 ], [ -16.50719, 12.34948 ], [ -16.5093403, 12.35151 ], [ -16.5185994, 12.3526195 ], [ -16.56014, 12.35218 ], [ -16.58344, 12.34669 ], [ -16.59209, 12.3463 ], [ -16.6021803, 12.3465489 ], [ -16.6106899, 12.3479944 ], [ -16.64893, 12.3548 ], [ -16.67281, 12.35605 ], [ -16.68003, 12.35431 ], [ -16.7074315, 12.3386392 ], [ -16.7306136, 12.3552521 ], [ -16.7360335, 12.3776289 ], [ -16.7726594, 12.404946 ], [ -16.7899653, 12.4562875 ], [ -16.7914722, 12.484553 ], [ -16.7776373, 12.521316 ], [ -16.7552348, 12.5446251 ], [ -16.7661615, 12.575156 ], [ -16.7666305, 12.6155906 ], [ -16.789207, 12.6947267 ], [ -16.7775154, 12.7232776 ], [ -16.7909232, 12.7700379 ], [ -16.7779455, 12.8064851 ], [ -16.7463913, 12.9451166 ], [ -16.735535, 13.026323 ], [ -16.747044, 13.0636658 ], [ -16.7332147, 13.0730571 ], [ -16.7243556, 13.1165503 ], [ -16.7253721, 13.1196335 ], [ -16.7224335, 13.1213092 ], [ -16.72193, 13.1195028 ], [ -16.6988379, 13.1340552 ], [ -16.6862026, 13.1621579 ], [ -16.6879018, 13.1639007 ], [ -16.6838062, 13.167822 ], [ -16.6763557, 13.1618965 ], [ -16.6744386, 13.1642928 ], [ -16.4289505, 13.1667071 ], [ -15.8939297, 13.1667071 ], [ -15.830768, 13.1667071 ], [ -15.8130863, 13.1667071 ], [ -15.803, 13.1667071 ], [ -15.8029984, 13.1673296 ], [ -15.8027702, 13.2535465 ], [ -15.8025203, 13.3480207 ], [ -15.7399722, 13.3571894 ], [ -15.6727611, 13.3745337 ], [ -15.6077608, 13.3586883 ], [ -15.5884954, 13.3609861 ], [ -15.5515237, 13.3751817 ], [ -15.5207495, 13.401443 ], [ -15.4820376, 13.3978782 ], [ -15.4563352, 13.3784528 ], [ -15.4373705, 13.3683297 ], [ -15.4124144, 13.3581928 ], [ -15.374325, 13.3475184 ], [ -15.3583951, 13.3450258 ], [ -15.3435455, 13.3451599 ], [ -15.3378685, 13.345934 ], [ -15.274767, 13.3676589 ], [ -15.2386098, 13.3963996 ], [ -15.2147854, 13.4448061 ], [ -15.2096204, 13.4835842 ], [ -15.2111776, 13.5121503 ], [ -15.2138556, 13.5241876 ], [ -15.2193136, 13.539125 ], [ -15.2032433, 13.5388199 ], [ -15.187515, 13.5407058 ], [ -15.171191, 13.5462471 ], [ -15.1652839, 13.5482523 ], [ -15.1232165, 13.5821843 ], [ -15.1084566, 13.5916483 ], [ -15.0720244, 13.5996448 ], [ -15.0595201, 13.5582684 ], [ -15.0465135, 13.5330601 ], [ -15.00239, 13.4949866 ], [ -14.9565303, 13.4837018 ], [ -14.9216258, 13.4602228 ], [ -14.8882151, 13.4515972 ], [ -14.8370712, 13.4578646 ], [ -14.8034348, 13.4406669 ], [ -14.7557647, 13.4336233 ], [ -14.7217708, 13.3773474 ], [ -14.7018067, 13.359628 ], [ -14.651865, 13.3435488 ], [ -14.602701, 13.3518131 ], [ -14.5763337, 13.3667219 ], [ -14.5492864, 13.3280597 ], [ -14.5430934, 13.3217782 ], [ -14.5130014, 13.3021229 ], [ -14.4961308, 13.2970052 ], [ -14.4785859, 13.2952772 ], [ -14.4625327, 13.2963589 ], [ -14.4129232, 13.2531659 ], [ -14.3619606, 13.2349564 ], [ -14.2708789, 13.245242 ], [ -14.2319492, 13.2269682 ], [ -14.205839, 13.2250303 ], [ -14.1648764, 13.237423 ], [ -14.1237312, 13.2850602 ], [ -14.0922065, 13.2860032 ], [ -14.0577919, 13.2999285 ], [ -14.0095956, 13.301025 ], [ -13.9537249, 13.3320982 ], [ -13.9316934, 13.3230275 ], [ -13.9040348, 13.3174632 ], [ -13.8799883, 13.318103 ], [ -13.8369795, 13.3359178 ], [ -13.8086403, 13.3728503 ], [ -13.802564, 13.3955273 ], [ -13.8019871, 13.4131477 ], [ -13.8087663, 13.4426579 ], [ -13.8139692, 13.4532085 ], [ -13.8282611, 13.471834 ], [ -13.8480888, 13.4868077 ], [ -13.8574319, 13.5047443 ], [ -13.8602412, 13.5088497 ], [ -13.8756689, 13.531395 ], [ -13.890405, 13.5456477 ], [ -13.9075813, 13.556627 ], [ -13.943425, 13.5665956 ], [ -13.9636499, 13.5658293 ], [ -14.0322985, 13.539103 ], [ -14.0705969, 13.5462601 ], [ -14.1025906, 13.5413532 ], [ -14.1467185, 13.5164167 ], [ -14.20448, 13.5021824 ], [ -14.2360938, 13.4700323 ], [ -14.2424406, 13.4571054 ], [ -14.2896756, 13.4589909 ], [ -14.332215, 13.4453727 ], [ -14.3619649, 13.4594891 ], [ -14.3801224, 13.4760203 ], [ -14.4064917, 13.4915156 ], [ -14.4254092, 13.497517 ], [ -14.4274846, 13.5020206 ], [ -14.4328985, 13.5137689 ], [ -14.4442688, 13.5297122 ], [ -14.4571362, 13.5417638 ], [ -14.4688542, 13.5487325 ], [ -14.4761624, 13.5530787 ], [ -14.4862242, 13.5892158 ], [ -14.5181837, 13.6311213 ], [ -14.5635176, 13.6529769 ], [ -14.6143244, 13.6543762 ], [ -14.6384673, 13.6478845 ], [ -14.6801119, 13.6209845 ], [ -14.6905034, 13.6236885 ], [ -14.7232331, 13.6275261 ], [ -14.7488525, 13.6355195 ], [ -14.7541893, 13.6376899 ], [ -14.7849443, 13.6501975 ], [ -14.8021657, 13.6554003 ], [ -14.8002105, 13.7072476 ], [ -14.8077089, 13.7301615 ], [ -14.8199647, 13.7515062 ], [ -14.8339064, 13.7660431 ], [ -14.8488028, 13.7763573 ], [ -14.8901936, 13.7967614 ], [ -14.953804, 13.8065366 ], [ -14.9871336, 13.7998998 ], [ -14.9933794, 13.7980601 ], [ -15.0127491, 13.8084732 ], [ -15.0381096, 13.8154887 ], [ -15.0859085, 13.8119809 ], [ -15.1102859, 13.8050452 ], [ -15.2247442, 13.7452896 ], [ -15.2304761, 13.7503386 ], [ -15.2404985, 13.759167 ], [ -15.3033531, 13.784325 ], [ -15.3600042, 13.7758935 ], [ -15.3854632, 13.7632529 ], [ -15.4087471, 13.7461758 ], [ -15.4252263, 13.7280758 ], [ -15.4348108, 13.7135003 ], [ -15.451159, 13.6793943 ], [ -15.4580541, 13.6587687 ], [ -15.4643921, 13.6271307 ], [ -15.4718574, 13.6000404 ], [ -15.751344, 13.6000404 ], [ -15.8923782, 13.6000404 ], [ -16.0847007, 13.6000404 ], [ -16.5164782, 13.6000404 ], [ -16.5533088, 13.6000404 ], [ -16.5612412, 13.6000404 ], [ -16.5722966, 13.6249893 ], [ -16.5424956, 13.6646503 ], [ -16.50692, 13.6741505 ], [ -16.4929389, 13.7347112 ], [ -16.5036978, 13.7398413 ], [ -16.492461, 13.7495667 ], [ -16.4877828, 13.7599743 ], [ -16.4927187, 13.7641941 ], [ -16.4924037, 13.7779679 ], [ -16.4808579, 13.7824696 ], [ -16.4789372, 13.7935766 ], [ -16.4921319, 13.8183731 ], [ -16.4881718, 13.8758486 ], [ -16.4797348, 13.8990316 ], [ -16.4977528, 13.9339413 ], [ -16.4742123, 13.9655994 ], [ -16.4887379, 13.9788908 ], [ -16.4703256, 14.0111164 ], [ -16.4722189, 14.0453861 ], [ -16.443393, 14.058647 ], [ -16.4238805, 14.052885 ], [ -16.358325, 14.088123 ], [ -16.366492, 14.129813 ], [ -16.390288, 14.114091 ], [ -16.373248, 14.089714 ], [ -16.398055, 14.067415 ], [ -16.4299654, 14.0580365 ], [ -16.4547108, 14.0651805 ], [ -16.4756257, 14.0480005 ], [ -16.4781557, 14.0114723 ], [ -16.4956971, 13.9887955 ], [ -16.4886374, 13.9582766 ], [ -16.5163357, 13.9187205 ], [ -16.5318011, 13.9681363 ], [ -16.5262202, 13.9779388 ], [ -16.5477873, 14.0189433 ], [ -16.5435723, 14.0488435 ], [ -16.507192, 14.088914 ], [ -16.4872111, 14.1235278 ], [ -16.447277, 14.1305 ], [ -16.43315, 14.150937 ], [ -16.327405, 14.127198 ], [ -16.287283, 14.128189 ], [ -16.241244, 14.157802 ], [ -16.220577, 14.193849 ], [ -16.291776, 14.175699 ], [ -16.326724, 14.191739 ], [ -16.362656, 14.194886 ], [ -16.394475, 14.237727 ], [ -16.429131, 14.225799 ], [ -16.424373, 14.204059 ], [ -16.4564429, 14.1870503 ], [ -16.496236, 14.209546 ], [ -16.48631, 14.246318 ], [ -16.521937, 14.268031 ], [ -16.530132, 14.243336 ], [ -16.557627, 14.24728 ], [ -16.561116, 14.216988 ], [ -16.5977, 14.161877 ], [ -16.6597305, 14.1240121 ], [ -16.6495439, 14.1056718 ], [ -16.660058, 14.078121 ], [ -16.716255, 14.0709142 ], [ -16.7660367, 14.0986911 ], [ -16.7636559, 14.1042956 ], [ -16.775741, 14.107692 ], [ -16.7788701, 14.113335 ], [ -16.7930815, 14.1187426 ], [ -16.78338, 14.139704 ], [ -16.8013904, 14.1661245 ], [ -16.8375583, 14.1551242 ], [ -16.8673299, 14.1847107 ], [ -16.8727034, 14.2257788 ], [ -16.91365, 14.282295 ], [ -16.9289925, 14.2861269 ], [ -16.933933, 14.353218 ], [ -16.960734, 14.39704 ], [ -17.0100525, 14.4386139 ], [ -17.048543, 14.449734 ], [ -17.0799099, 14.4869812 ], [ -17.10721, 14.547208 ], [ -17.131181, 14.565533 ], [ -17.1663135, 14.6286341 ], [ -17.204629, 14.6694091 ], [ -17.2612687, 14.7073497 ], [ -17.3610727, 14.7388778 ], [ -17.402383, 14.7370351 ], [ -17.4257646, 14.7257995 ], [ -17.4303939, 14.6744263 ], [ -17.4674986, 14.6767736 ], [ -17.4735147, 14.6967212 ], [ -17.5031951, 14.7190709 ], [ -17.5256913, 14.750423 ], [ -17.4316322, 14.770776 ], [ -17.3076812, 14.8194164 ], [ -17.1285744, 14.9102476 ], [ -17.105443, 14.954891 ], [ -16.976433, 15.098207 ], [ -16.878656, 15.222922 ], [ -16.821307, 15.308903 ], [ -16.7650516, 15.400932 ], [ -16.632209, 15.595241 ], [ -16.595488, 15.657844 ], [ -16.5618954, 15.7274439 ], [ -16.510084, 15.882287 ], [ -16.460831, 15.898595 ], [ -16.482547, 15.974176 ], [ -16.4978278, 15.9852913 ], [ -16.4966206, 16.0295833 ], [ -16.461313, 16.038458 ], [ -16.463095, 16.063689 ], [ -16.420726, 16.099263 ], [ -16.411184, 16.143888 ], [ -16.43374, 16.18598 ], [ -16.41368, 16.21991 ], [ -16.3999595, 16.2135297 ], [ -16.3932622, 16.2150247 ], [ -16.373469, 16.2360736 ], [ -16.3553502, 16.280384 ], [ -16.3692233, 16.2996988 ], [ -16.3596556, 16.3285812 ], [ -16.3536758, 16.3339033 ], [ -16.3325073, 16.3517829 ], [ -16.3319093, 16.3580617 ], [ -16.3276039, 16.4045846 ], [ -16.3164814, 16.4056011 ], [ -16.312774, 16.4081725 ], [ -16.310681, 16.4118799 ], [ -16.3048806, 16.4647414 ], [ -16.2868216, 16.4758639 ], [ -16.2865226, 16.5028926 ], [ -16.2820378, 16.5119819 ], [ -16.2639189, 16.5243601 ], [ -16.2530955, 16.5265726 ], [ -16.2379666, 16.5249581 ], [ -16.2165589, 16.5153904 ], [ -16.212373, 16.5149718 ], [ -16.1980813, 16.5177225 ], [ -16.1767333, 16.5254365 ], [ -16.1584949, 16.5452894 ], [ -16.1521563, 16.5497743 ], [ -16.1447414, 16.5520466 ], [ -16.132722, 16.5528838 ], [ -16.1185498, 16.5560531 ], [ -16.1113143, 16.5553355 ], [ -16.1012084, 16.5229848 ], [ -16.0527719, 16.478196 ], [ -16.031414, 16.4840023 ], [ -16.0290819, 16.4858741 ], [ -16.0126474, 16.4990655 ], [ -16.0033787, 16.5027132 ], [ -15.9930935, 16.501577 ], [ -15.963912, 16.4852522 ], [ -15.9145786, 16.5135367 ], [ -15.865305, 16.5128191 ], [ -15.859385, 16.49183 ], [ -15.8257751, 16.5071602 ], [ -15.8195595, 16.5089322 ], [ -15.8105898, 16.5085136 ], [ -15.7933081, 16.4996635 ], [ -15.7322543, 16.4893184 ], [ -15.7074381, 16.4729338 ], [ -15.6582841, 16.4820829 ], [ -15.6423778, 16.4859697 ], [ -15.6269499, 16.4961952 ], [ -15.6262323, 16.5021152 ], [ -15.6329895, 16.5213104 ], [ -15.6312553, 16.526453 ], [ -15.6225248, 16.5338082 ], [ -15.6106848, 16.5396086 ], [ -15.5868661, 16.5239776 ], [ -15.5516641, 16.5117427 ], [ -15.5175863, 16.5210259 ], [ -15.5083954, 16.5271532 ], [ -15.5078751, 16.5291186 ], [ -15.5190314, 16.5477894 ], [ -15.5183956, 16.5548994 ], [ -15.5157365, 16.5615469 ], [ -15.5097827, 16.5679054 ], [ -15.5011921, 16.5735205 ], [ -15.4524984, 16.589004 ], [ -15.4406485, 16.5801021 ], [ -15.4330183, 16.5663447 ], [ -15.4309373, 16.5514311 ], [ -15.4043473, 16.5362285 ], [ -15.3948095, 16.5370378 ], [ -15.3867747, 16.5405639 ], [ -15.3596066, 16.5599862 ], [ -15.2986228, 16.5755356 ], [ -15.220529, 16.5572694 ], [ -15.1972338, 16.5724719 ], [ -15.180008, 16.5781368 ], [ -15.1775224, 16.5799865 ], [ -15.1748634, 16.5876745 ], [ -15.1168277, 16.5799287 ], [ -15.084515, 16.6166346 ], [ -15.1210474, 16.6413171 ], [ -15.1203538, 16.6498144 ], [ -15.1163653, 16.6577336 ], [ -15.0990239, 16.6774449 ], [ -15.0694858, 16.6624736 ], [ -15.0646302, 16.6450166 ], [ -15.0520288, 16.6281955 ], [ -15.0468842, 16.6334557 ], [ -15.0398899, 16.6310279 ], [ -15.0334158, 16.6313747 ], [ -15.0002938, 16.6477912 ], [ -14.9976926, 16.6807398 ], [ -14.9911029, 16.6903931 ], [ -14.9854381, 16.6927053 ], [ -14.977461, 16.69074 ], [ -14.9519115, 16.6774449 ], [ -14.9495415, 16.6702772 ], [ -14.9542236, 16.6538029 ], [ -14.9537612, 16.6501034 ], [ -14.9454374, 16.6355367 ] ] ], [ [ [ -16.407068, 14.202744 ], [ -16.367976, 14.201297 ], [ -16.369678, 14.176941 ], [ -16.390437, 14.160333 ], [ -16.448377, 14.179184 ], [ -16.407068, 14.202744 ] ] ], [ [ [ -16.4990037, 13.8527678 ], [ -16.4964597, 13.8214858 ], [ -16.4805906, 13.7915466 ], [ -16.4916586, 13.7817371 ], [ -16.4948263, 13.7699481 ], [ -16.4933649, 13.7596374 ], [ -16.5081252, 13.7505164 ], [ -16.5077602, 13.7392818 ], [ -16.4962716, 13.7326187 ], [ -16.5354133, 13.6726708 ], [ -16.5940511, 13.6417369 ], [ -16.6117716, 13.6497697 ], [ -16.638461, 13.70912 ], [ -16.6234602, 13.769645 ], [ -16.5687346, 13.8277943 ], [ -16.4990037, 13.8527678 ] ] ], [ [ [ -16.506347, 14.24104 ], [ -16.509052, 14.210754 ], [ -16.537002, 14.185072 ], [ -16.535076, 14.232356 ], [ -16.506347, 14.24104 ] ] ], [ [ [ -16.6772778, 13.9975631 ], [ -16.6376222, 13.976122 ], [ -16.5857881, 14.0007471 ], [ -16.5463021, 13.9929167 ], [ -16.5247596, 13.9221685 ], [ -16.5364139, 13.9124688 ], [ -16.5687203, 13.8531637 ], [ -16.5862858, 13.8407518 ], [ -16.6457284, 13.8268567 ], [ -16.6534961, 13.8432331 ], [ -16.6832221, 13.8512028 ], [ -16.7010574, 13.8766818 ], [ -16.7027739, 13.9048965 ], [ -16.7344659, 13.9096861 ], [ -16.7426931, 13.9521034 ], [ -16.7059592, 13.9955298 ], [ -16.6772778, 13.9975631 ] ] ], [ [ [ -16.628909, 14.095592 ], [ -16.625487, 14.059551 ], [ -16.5879394, 14.0460986 ], [ -16.6231192, 13.9970894 ], [ -16.6476766, 13.9978744 ], [ -16.7024517, 14.0246747 ], [ -16.687996, 14.055387 ], [ -16.656703, 14.070416 ], [ -16.654733, 14.090007 ], [ -16.628909, 14.095592 ] ] ], [ [ [ -16.7122011, 13.9057546 ], [ -16.7044734, 13.8753296 ], [ -16.6729907, 13.8378673 ], [ -16.6768711, 13.7863854 ], [ -16.6933087, 13.7802635 ], [ -16.7253354, 13.8231147 ], [ -16.7297441, 13.905852 ], [ -16.7122011, 13.9057546 ] ] ], [ [ [ -16.798008, 14.1255145 ], [ -16.7911325, 14.1130455 ], [ -16.764619, 14.10288 ], [ -16.77396, 14.082204 ], [ -16.71323, 14.059975 ], [ -16.741689, 14.037361 ], [ -16.7201074, 14.0182662 ], [ -16.7227982, 13.9953756 ], [ -16.765764, 13.959395 ], [ -16.773321, 14.050526 ], [ -16.798008, 14.1255145 ] ] ] ] } }
]
}
