{
"type": "FeatureCollection",
"name": "SGP_GAUL1991_ADM2",
"crs": { "type": "name", "properties": { "name": "urn:ogc:def:crs:OGC:1.3:CRS84" } },
"features": [
{ "type": "Feature", "properties": { "POLYGON_ID": "SGP_GAUL1991_ADM2_25419", "ADM0_ISO3": "SGP", "ADM0_NAME": "Singapore", "ADM0_CODE": 222, "ADM1_NAME": "Ang Mo Kio-cheng San", "ADM1_CODE": 2658, "ADM2_NAME": "Administrative unit not available", "ADM2_CODE": 25419, "GEOSET": "GAUL", "GEOSET_YEAR": 1991.0, "GEOSET_VERSION": "GAUL_v1", "GEOSET_UNIT": "ADM2", "CENTROID_LONG": 103.86373030688304, "CENTROID_LAT": 1.3912367590855856 }, "geometry": { "type": "MultiPolygon", "coordinates": [ [ [ [ 103.9248734, 1.390017 ], [ 103.9100266, 1.3822777 ], [ 103.866806, 1.3722274 ], [ 103.8534393, 1.3654087 ], [ 103.8469543, 1.3458374 ], [ 103.8184128, 1.3555754 ], [ 103.8264389, 1.4231249 ], [ 103.858214, 1.4168505 ], [ 103.9140701, 1.418807 ], [ 103.9248734, 1.390017 ] ] ] ] } },
{ "type": "Feature", "properties": { "POLYGON_ID": "SGP_GAUL1991_ADM2_25420", "ADM0_ISO3": "SGP", "ADM0_NAME": "Singapore", "ADM0_CODE": 222, "ADM1_NAME": "Bukit Timah", "ADM1_CODE": 2659, "ADM2_NAME": "Administrative unit not available", "ADM2_CODE": 25420, "GEOSET": "GAUL", "GEOSET_YEAR": 1991.0, "GEOSET_VERSION": "GAUL_v1", "GEOSET_UNIT": "ADM2", "CENTROID_LONG": 103.71429168958601, "CENTROID_LAT": 1.3185181601872511 }, "geometry": { "type": "MultiPolygon", "coordinates": [ [ [ [ 103.6513596, 1.344467 ], [ 103.7851105, 1.3283547 ], [ 103.799881, 1.3067644 ], [ 103.7568512, 1.3059591 ], [ 103.6634064, 1.2920071 ], [ 103.6513596, 1.344467 ] ] ] ] } },
{ "type": "Feature", "properties": { "POLYGON_ID": "SGP_GAUL1991_ADM2_25421", "ADM0_ISO3": "SGP", "ADM0_NAME": "Singapore", "ADM0_CODE": 222, "ADM1_NAME": "Central Singapore", "ADM1_CODE": 2660, "ADM2_NAME": "Administrative unit not available", "ADM2_CODE": 25421, "GEOSET": "GAUL", "GEOSET_YEAR": 1991.0, "GEOSET_VERSION": "GAUL_v1", "GEOSET_UNIT": "ADM2", "CENTROID_LONG": 103.83308588489913, "CENTROID_LAT": 1.3123345500755974 }, "geometry": { "type": "MultiPolygon", "coordinates": [ [ [ [ 103.8469543, 1.3458374 ], [ 103.8483658, 1.3418273 ], [ 103.8548126, 1.3230363 ], [ 103.8740997, 1.3240727 ], [ 103.8727798, 1.2983999 ], [ 103.8467789, 1.260175 ], [ 103.799881, 1.3067644 ], [ 103.7851105, 1.3283547 ], [ 103.8184128, 1.3555754 ], [ 103.8469543, 1.3458374 ] ] ] ] } },
{ "type": "Feature", "properties": { "POLYGON_ID": "SGP_GAUL1991_ADM2_25422", "ADM0_ISO3": "SGP", "ADM0_NAME": "Singapore", "ADM0_CODE": 222, "ADM1_NAME": "Hougang", "ADM1_CODE": 2661, "ADM2_NAME": "Administrative unit not available", "ADM2_CODE": 25422, "GEOSET": "GAUL", "GEOSET_YEAR": 1991.0, "GEOSET_VERSION": "GAUL_v1", "GEOSET_UNIT": "ADM2", "CENTROID_LONG": 103.8883082, "CENTROID_LAT": 1.3732889666666666 }, "geometry": { "type": "MultiPolygon", "coordinates": [ [ [ [ 103.866806, 1.3722274 ], [ 103.9100266, 1.3822777 ], [ 103.888092, 1.3653618 ], [ 103.866806, 1.3722274 ] ] ] ] } },
{ "type": "Feature", "properties": { "POLYGON_ID": "SGP_GAUL1991_ADM2_25423", "ADM0_ISO3": "SGP", "ADM0_NAME": "Singapore", "ADM0_CODE": 222, "ADM1_NAME": "Marine Parade", "ADM1_CODE": 2662, "ADM2_NAME": "Administrative unit not available", "ADM2_CODE": 25423, "GEOSET": "GAUL", "GEOSET_YEAR": 1991.0, "GEOSET_VERSION": "GAUL_v1", "GEOSET_UNIT": "ADM2", "CENTROID_LONG": 103.9300536547896, "CENTROID_LAT": 1.3334987630514576 }, "geometry": { "type": "MultiPolygon", "coordinates": [ [ [ [ 103.8727798, 1.2983999 ], [ 103.8740997, 1.3240727 ], [ 103.8483658, 1.3418273 ], [ 103.8469543, 1.3458374 ], [ 103.8534393, 1.3654087 ], [ 103.8896255, 1.3245714 ], [ 103.9369888, 1.3292249 ], [ 103.9610977, 1.376014 ], [ 104.0055923, 1.372532 ], [ 103.9536285, 1.305279 ], [ 103.8727798, 1.2983999 ] ] ] ] } },
{ "type": "Feature", "properties": { "POLYGON_ID": "SGP_GAUL1991_ADM2_25424", "ADM0_ISO3": "SGP", "ADM0_NAME": "Singapore", "ADM0_CODE": 222, "ADM1_NAME": "Northeast", "ADM1_CODE": 2663, "ADM2_NAME": "Administrative unit not available", "ADM2_CODE": 25424, "GEOSET": "GAUL", "GEOSET_YEAR": 1991.0, "GEOSET_VERSION": "GAUL_v1", "GEOSET_UNIT": "ADM2", "CENTROID_LONG": 103.91164933331586, "CENTROID_LAT": 1.3559531980087332 }, "geometry": { "type": "MultiPolygon", "coordinates": [ [ [ [ 103.9100266, 1.3822777 ], [ 103.9248734, 1.390017 ], [ 103.9610977, 1.376014 ], [ 103.9369888, 1.3292249 ], [ 103.8896255, 1.3245714 ], [ 103.8534393, 1.3654087 ], [ 103.866806, 1.3722274 ], [ 103.888092, 1.3653618 ], [ 103.9100266, 1.3822777 ] ] ] ] } },
{ "type": "Feature", "properties": { "POLYGON_ID": "SGP_GAUL1991_ADM2_25425", "ADM0_ISO3": "SGP", "ADM0_NAME": "Singapore", "ADM0_CODE": 222, "ADM1_NAME": "Potong Pasir", "ADM1_CODE": 2664, "ADM2_NAME": "Administrative unit not available", "ADM2_CODE": 25425, "GEOSET": "GAUL", "GEOSET_YEAR": 1991.0, "GEOSET_VERSION": "GAUL_v1", "GEOSET_UNIT": "ADM2", "CENTROID_LONG": 103.8590927, "CENTROID_LAT": 1.3296454333333332 }, "geometry": { "type": "MultiPolygon", "coordinates": [ [ [ [ 103.8483658, 1.3418273 ], [ 103.8740997, 1.3240727 ], [ 103.8548126, 1.3230363 ], [ 103.8483658, 1.3418273 ] ] ] ] } },
{ "type": "Feature", "properties": { "POLYGON_ID": "SGP_GAUL1991_ADM2_25426", "ADM0_ISO3": "SGP", "ADM0_NAME": "Singapore", "ADM0_CODE": 222, "ADM1_NAME": "Sembawang-hong Kah", "ADM1_CODE": 2665, "ADM2_NAME": "Administrative unit not available", "ADM2_CODE": 25426, "GEOSET": "GAUL", "GEOSET_YEAR": 1991.0, "GEOSET_VERSION": "GAUL_v1", "GEOSET_UNIT": "ADM2", "CENTROID_LONG": 103.75402073993646, "CENTROID_LAT": 1.3915963122779575 }, "geometry": { "type": "MultiPolygon", "coordinates": [ [ [ [ 103.858214, 1.4168505 ], [ 103.8264389, 1.4231249 ], [ 103.8184128, 1.3555754 ], [ 103.7851105, 1.3283547 ], [ 103.6513596, 1.344467 ], [ 103.6828308, 1.427254 ], [ 103.7516022, 1.436749 ], [ 103.8234787, 1.471272 ], [ 103.858214, 1.4168505 ] ] ] ] } },
{ "type": "Feature", "properties": { "POLYGON_ID": "SGP_GAUL1991_ADM2_25427", "ADM0_ISO3": "SGP", "ADM0_NAME": "Singapore", "ADM0_CODE": 222, "ADM1_NAME": "Tanjong Pagar", "ADM1_CODE": 2666, "ADM2_NAME": "Administrative unit not available", "ADM2_CODE": 25427, "GEOSET": "GAUL", "GEOSET_YEAR": 1991.0, "GEOSET_VERSION": "GAUL_v1", "GEOSET_UNIT": "ADM2", "CENTROID_LONG": 103.80221664959205, "CENTROID_LAT": 1.2833477166712601 }, "geometry": { "type": "MultiPolygon", "coordinates": [ [ [ [ 103.799881, 1.3067644 ], [ 103.8467789, 1.260175 ], [ 103.8063736, 1.2594889 ], [ 103.7568512, 1.3059591 ], [ 103.799881, 1.3067644 ] ] ] ] } }
]
}
