{
"type": "FeatureCollection",
"name": "SGS_GAUL2006_ADM2",
"crs": { "type": "name", "properties": { "name": "urn:ogc:def:crs:OGC:1.3:CRS84" } },
"features": [
{ "type": "Feature", "properties": { "POLYGON_ID": "SGS_GAUL2006_ADM2_25775", "ADM0_ISO3": "SGS", "ADM0_NAME": "South Georgia and the South Sandwich Islands", "ADM0_CODE": 228, "ADM1_NAME": "Administrative unit not available", "ADM1_CODE": 2715, "ADM2_NAME": "Administrative unit not available", "ADM2_CODE": 25775, "GEOSET": "GAUL", "GEOSET_YEAR": 2006.0, "GEOSET_VERSION": "GAUL_v1", "GEOSET_UNIT": "ADM2", "CENTROID_LONG": -36.238004555167151, "CENTROID_LAT": -54.552564190305269 }, "geometry": { "type": "MultiPolygon", "coordinates": [ [ [ [ -26.3964227, -58.3900936 ], [ -26.2391142, -58.4071803 ], [ -26.2469293, -58.4660116 ], [ -26.2899161, -58.4830778 ], [ -26.4489154, -58.4406768 ], [ -26.3964227, -58.3900936 ] ] ], [ [ [ -26.3929148, -57.7934797 ], [ -26.4457155, -57.8160774 ], [ -26.5122139, -57.7727783 ], [ -26.4631167, -57.7425798 ], [ -26.3929148, -57.7934797 ] ] ], [ [ [ -26.5774717, -59.0803071 ], [ -26.6661148, -59.0370787 ], [ -26.5970159, -59.0038785 ], [ -26.5085148, -59.0502772 ], [ -26.5774717, -59.0803071 ] ] ], [ [ [ -37.7189764, -53.9772 ], [ -37.6522462, -54.0122314 ], [ -37.4584132, -54.0345607 ], [ -37.4180413, -54.067363 ], [ -37.2701698, -54.0638685 ], [ -37.2388068, -54.0914962 ], [ -37.1547651, -54.0933948 ], [ -36.992024, -54.0551592 ], [ -36.9202204, -54.0807001 ], [ -36.6414862, -54.121033 ], [ -36.7044747, -54.1868879 ], [ -36.5519529, -54.1637098 ], [ -36.5269918, -54.1842946 ], [ -36.6801619, -54.2603123 ], [ -36.636237, -54.2747379 ], [ -36.4853813, -54.2372106 ], [ -36.4380068, -54.3142852 ], [ -36.3464351, -54.3393572 ], [ -36.3867576, -54.2608321 ], [ -36.292356, -54.2704016 ], [ -36.178838, -54.3854525 ], [ -36.1850031, -54.4332066 ], [ -36.0482397, -54.4823505 ], [ -36.0738981, -54.5604608 ], [ -35.9587121, -54.569433 ], [ -35.9109304, -54.6976776 ], [ -35.8188467, -54.7935709 ], [ -35.9120988, -54.8129936 ], [ -35.9680843, -54.8698409 ], [ -36.0852393, -54.8858538 ], [ -36.1223032, -54.8508132 ], [ -36.2669218, -54.7933995 ], [ -36.3592109, -54.6483767 ], [ -36.4202307, -54.5846015 ], [ -36.4975569, -54.5612957 ], [ -36.5297223, -54.498222 ], [ -36.6334563, -54.5178127 ], [ -36.6580562, -54.4836918 ], [ -36.8184378, -54.4587072 ], [ -36.8557619, -54.3859817 ], [ -37.0174237, -54.354795 ], [ -37.1029263, -54.3158318 ], [ -37.0883708, -54.2865169 ], [ -37.2510179, -54.244323 ], [ -37.298578, -54.2727404 ], [ -37.3987372, -54.2066026 ], [ -37.3928188, -54.1794479 ], [ -37.5382779, -54.1718376 ], [ -37.6185368, -54.1866268 ], [ -37.6959152, -54.1482062 ], [ -37.6277729, -54.0598253 ], [ -37.6664848, -54.0337546 ], [ -37.7537259, -54.0565026 ], [ -37.9853952, -54.0485884 ], [ -38.0194109, -54.0140637 ], [ -37.8789168, -54.0020769 ], [ -37.7816029, -54.0177454 ], [ -37.7189764, -53.9772 ] ] ] ] } }
]
}
