{
"type": "FeatureCollection",
"name": "SGS_GAUL1999_ADM0",
"crs": { "type": "name", "properties": { "name": "urn:ogc:def:crs:OGC:1.3:CRS84" } },
"features": [
{ "type": "Feature", "properties": { "POLYGON_ID": "SGS_GAUL1999_ADM0_228", "ADM0_ISO3": "SGS", "ADM0_NAME": "South Georgia and the South Sandwich Islands", "ADM0_CODE": 228, "GEOSET": "GAUL", "GEOSET_YEAR": 1999.0, "GEOSET_VERSION": "GAUL_v1", "GEOSET_UNIT": "ADM0", "CENTROID_LONG": -35.954789346901251, "CENTROID_LAT": -54.663925563716688 }, "geometry": { "type": "MultiPolygon", "coordinates": [ [ [ [ -26.3964227, -58.3900936 ], [ -26.2678153, -58.3934782 ], [ -26.2391142, -58.4071803 ], [ -26.2469293, -58.4660116 ], [ -26.2899161, -58.4830778 ], [ -26.4194143, -58.4606785 ], [ -26.4489154, -58.4406768 ], [ -26.4313957, -58.395771 ], [ -26.3964227, -58.3900936 ] ] ], [ [ [ -26.3929148, -57.7934797 ], [ -26.4457155, -57.8160774 ], [ -26.4965152, -57.799679 ], [ -26.5122139, -57.7727783 ], [ -26.4631167, -57.7425798 ], [ -26.4287155, -57.7529795 ], [ -26.3929148, -57.7934797 ] ] ], [ [ [ -26.5774717, -59.0803071 ], [ -26.6160148, -59.0747802 ], [ -26.6661148, -59.0370787 ], [ -26.5970159, -59.0038785 ], [ -26.5300299, -59.0261844 ], [ -26.5085148, -59.0502772 ], [ -26.5774717, -59.0803071 ] ] ], [ [ [ -27.1265139, -56.73228 ], [ -27.198416, -56.7294812 ], [ -27.2021812, -56.7077177 ], [ -27.1490158, -56.6868773 ], [ -27.0972156, -56.7010809 ], [ -27.0780138, -56.7192798 ], [ -27.1265139, -56.73228 ] ] ], [ [ [ -27.1923346, -59.4463165 ], [ -27.1594132, -59.4482804 ], [ -27.1581164, -59.4808811 ], [ -27.253815, -59.4742807 ], [ -27.2495165, -59.4511794 ], [ -27.1923346, -59.4463165 ] ] ], [ [ [ -27.3194164, -59.4757721 ], [ -27.384316, -59.4668804 ], [ -27.4184142, -59.4455796 ], [ -27.3446157, -59.4300815 ], [ -27.3194164, -59.4757721 ] ] ], [ [ [ -27.5463876, -56.2778933 ], [ -27.5258139, -56.2965822 ], [ -27.5775138, -56.3290781 ], [ -27.5968021, -56.2998049 ], [ -27.5463876, -56.2778933 ] ] ], [ [ [ -37.7189764, -53.9772 ], [ -37.6522462, -54.0122314 ], [ -37.573038, -54.012929 ], [ -37.512508, -54.0247869 ], [ -37.4636811, -53.9975833 ], [ -37.4584132, -54.0345607 ], [ -37.4984411, -54.0603667 ], [ -37.4180413, -54.067363 ], [ -37.3574511, -54.0539144 ], [ -37.2701698, -54.0638685 ], [ -37.2388068, -54.0914962 ], [ -37.15298, -54.0588599 ], [ -37.1547651, -54.0933948 ], [ -37.111441, -54.1135381 ], [ -37.0711544, -54.0790068 ], [ -36.992024, -54.0551592 ], [ -36.9540166, -54.1049285 ], [ -36.9202204, -54.0807001 ], [ -36.8171342, -54.0935088 ], [ -36.8250045, -54.1328605 ], [ -36.7861157, -54.1502988 ], [ -36.7783909, -54.1092183 ], [ -36.7285358, -54.1065808 ], [ -36.6414862, -54.121033 ], [ -36.6556871, -54.1466909 ], [ -36.7044747, -54.1868879 ], [ -36.6641156, -54.1917505 ], [ -36.638182, -54.1765145 ], [ -36.5519529, -54.1637098 ], [ -36.5269918, -54.1842946 ], [ -36.6801619, -54.2603123 ], [ -36.636237, -54.2747379 ], [ -36.5916873, -54.2656268 ], [ -36.5404955, -54.2408284 ], [ -36.4853813, -54.2372106 ], [ -36.4677128, -54.2704457 ], [ -36.4942507, -54.2893255 ], [ -36.486756, -54.3640067 ], [ -36.4380068, -54.3142852 ], [ -36.389681, -54.3586406 ], [ -36.3464351, -54.3393572 ], [ -36.3867576, -54.2608321 ], [ -36.292356, -54.2704016 ], [ -36.2178805, -54.3518732 ], [ -36.2487611, -54.3897992 ], [ -36.178838, -54.3854525 ], [ -36.1643481, -54.4112815 ], [ -36.1850031, -54.4332066 ], [ -36.1488376, -54.4623237 ], [ -36.1003025, -54.4557869 ], [ -36.0482397, -54.4823505 ], [ -36.0381704, -54.5164585 ], [ -36.0838892, -54.5149862 ], [ -36.0944659, -54.5423332 ], [ -36.0738981, -54.5604608 ], [ -35.9587121, -54.569433 ], [ -35.8900505, -54.5495148 ], [ -35.9276838, -54.5986232 ], [ -35.940631, -54.632287 ], [ -35.9217908, -54.6471967 ], [ -35.9109304, -54.6976776 ], [ -35.8821188, -54.730882 ], [ -35.8376564, -54.7611368 ], [ -35.7914857, -54.7602265 ], [ -35.8188467, -54.7935709 ], [ -35.8799586, -54.7992843 ], [ -35.9120988, -54.8129936 ], [ -35.986574, -54.8083062 ], [ -36.0005782, -54.8246592 ], [ -35.9277962, -54.8451404 ], [ -35.9680843, -54.8698409 ], [ -36.0852393, -54.8858538 ], [ -36.1289572, -54.8717635 ], [ -36.1223032, -54.8508132 ], [ -36.1676409, -54.828314 ], [ -36.2669218, -54.7933995 ], [ -36.2739041, -54.767344 ], [ -36.3592109, -54.6483767 ], [ -36.4124259, -54.6163825 ], [ -36.4202307, -54.5846015 ], [ -36.4733615, -54.5789295 ], [ -36.4975569, -54.5612957 ], [ -36.4585636, -54.5246495 ], [ -36.5166638, -54.5209423 ], [ -36.5297223, -54.498222 ], [ -36.5968233, -54.5032349 ], [ -36.6334563, -54.5178127 ], [ -36.6580562, -54.4836918 ], [ -36.7053555, -54.4819055 ], [ -36.7548313, -54.465806 ], [ -36.8184378, -54.4587072 ], [ -36.8137826, -54.4323858 ], [ -36.8557619, -54.3859817 ], [ -36.9098463, -54.3687875 ], [ -36.9322341, -54.3421544 ], [ -36.9655846, -54.3575001 ], [ -37.0174237, -54.354795 ], [ -37.1029263, -54.3158318 ], [ -37.0883708, -54.2865169 ], [ -37.1499831, -54.2664315 ], [ -37.2040112, -54.2622642 ], [ -37.2510179, -54.244323 ], [ -37.298578, -54.2727404 ], [ -37.4125404, -54.2692569 ], [ -37.4171936, -54.2508239 ], [ -37.3436209, -54.2376782 ], [ -37.3455898, -54.217199 ], [ -37.3987372, -54.2066026 ], [ -37.3928188, -54.1794479 ], [ -37.2628099, -54.161582 ], [ -37.2443613, -54.1465404 ], [ -37.4306196, -54.1457653 ], [ -37.5539092, -54.1395307 ], [ -37.5382779, -54.1718376 ], [ -37.6185368, -54.1866268 ], [ -37.6858564, -54.1740546 ], [ -37.6959152, -54.1482062 ], [ -37.6604776, -54.1045649 ], [ -37.6577766, -54.0777031 ], [ -37.6277729, -54.0598253 ], [ -37.6664848, -54.0337546 ], [ -37.7537259, -54.0565026 ], [ -37.8378951, -54.0487005 ], [ -37.8666982, -54.0585206 ], [ -37.9374796, -54.0470971 ], [ -37.9853952, -54.0485884 ], [ -38.0194109, -54.0140637 ], [ -37.8789168, -54.0020769 ], [ -37.8420496, -54.022277 ], [ -37.7816029, -54.0177454 ], [ -37.7189764, -53.9772 ] ] ], [ [ [ -37.0848872, -54.4708356 ], [ -37.0315076, -54.4973793 ], [ -37.05781, -54.5154023 ], [ -37.1168984, -54.4786673 ], [ -37.0848872, -54.4708356 ] ] ] ] } }
]
}
