{
"type": "FeatureCollection",
"name": "SHN_GAUL2014_ADM2",
"crs": { "type": "name", "properties": { "name": "urn:ogc:def:crs:OGC:1.3:CRS84" } },
"features": [
{ "type": "Feature", "properties": { "POLYGON_ID": "SHN_GAUL2014_ADM2_68775", "ADM0_ISO3": "SHN", "ADM0_NAME": "Saint Helena", "ADM0_CODE": 207, "ADM1_NAME": "Ascension", "ADM1_CODE": 68772, "ADM2_NAME": "Ascension", "ADM2_CODE": 68775, "GEOSET": "GAUL", "GEOSET_YEAR": 2014.0, "GEOSET_VERSION": "GAUL_v1", "GEOSET_UNIT": "ADM2", "CENTROID_LONG": -14.365244346099749, "CENTROID_LAT": -7.943873168096121 }, "geometry": { "type": "MultiPolygon", "coordinates": [ [ [ [ -14.3795534, -7.8895771 ], [ -14.298457, -7.9438595 ], [ -14.3127907, -7.9662837 ], [ -14.3945395, -7.9930568 ], [ -14.4196995, -7.932852 ], [ -14.3795534, -7.8895771 ] ] ] ] } },
{ "type": "Feature", "properties": { "POLYGON_ID": "SHN_GAUL2014_ADM2_68776", "ADM0_ISO3": "SHN", "ADM0_NAME": "Saint Helena", "ADM0_CODE": 207, "ADM1_NAME": "Saint Helena", "ADM1_CODE": 68773, "ADM2_NAME": "Saint Helena", "ADM2_CODE": 68776, "GEOSET": "GAUL", "GEOSET_YEAR": 2014.0, "GEOSET_VERSION": "GAUL_v1", "GEOSET_UNIT": "ADM2", "CENTROID_LONG": -5.708640995861634, "CENTROID_LAT": -15.963875854255857 }, "geometry": { "type": "MultiPolygon", "coordinates": [ [ [ [ -5.700803, -15.903703 ], [ -5.6568577, -15.9114786 ], [ -5.6359135, -15.947525 ], [ -5.6720765, -16.000301 ], [ -5.7524872, -16.0214835 ], [ -5.7866757, -15.9974302 ], [ -5.7577915, -15.9484868 ], [ -5.700803, -15.903703 ] ] ] ] } },
{ "type": "Feature", "properties": { "POLYGON_ID": "SHN_GAUL2014_ADM2_68777", "ADM0_ISO3": "SHN", "ADM0_NAME": "Saint Helena", "ADM0_CODE": 207, "ADM1_NAME": "Tristan Da Cunha", "ADM1_CODE": 68774, "ADM2_NAME": "Tristan Da Cunha", "ADM2_CODE": 68777, "GEOSET": "GAUL", "GEOSET_YEAR": 2014.0, "GEOSET_VERSION": "GAUL_v1", "GEOSET_UNIT": "ADM2", "CENTROID_LONG": -12.282970738807391, "CENTROID_LAT": -37.112242318779458 }, "geometry": { "type": "MultiPolygon", "coordinates": [ [ [ [ -12.2755253, -37.0625861 ], [ -12.2152519, -37.1140654 ], [ -12.2712209, -37.1676737 ], [ -12.3446357, -37.1274922 ], [ -12.3143784, -37.0634291 ], [ -12.2755253, -37.0625861 ] ] ] ] } },
{ "type": "Feature", "properties": { "POLYGON_ID": "SHN_GAUL2014_ADM2_68778", "ADM0_ISO3": "SHN", "ADM0_NAME": "Saint Helena", "ADM0_CODE": 207, "ADM1_NAME": "Tristan Da Cunha", "ADM1_CODE": 68774, "ADM2_NAME": "In Accessible Island", "ADM2_CODE": 68778, "GEOSET": "GAUL", "GEOSET_YEAR": 2014.0, "GEOSET_VERSION": "GAUL_v1", "GEOSET_UNIT": "ADM2", "CENTROID_LONG": -12.675020091107863, "CENTROID_LAT": -37.298438254123866 }, "geometry": { "type": "MultiPolygon", "coordinates": [ [ [ [ -12.6767522, -37.2811789 ], [ -12.6413066, -37.2996982 ], [ -12.67936, -37.3167518 ], [ -12.7055268, -37.2943217 ], [ -12.6767522, -37.2811789 ] ] ] ] } },
{ "type": "Feature", "properties": { "POLYGON_ID": "SHN_GAUL2014_ADM2_68781", "ADM0_ISO3": "SHN", "ADM0_NAME": "Saint Helena", "ADM0_CODE": 207, "ADM1_NAME": "Tristan Da Cunha", "ADM1_CODE": 68774, "ADM2_NAME": "Nightingale Island", "ADM2_CODE": 68781, "GEOSET": "GAUL", "GEOSET_YEAR": 2014.0, "GEOSET_VERSION": "GAUL_v1", "GEOSET_UNIT": "ADM2", "CENTROID_LONG": -12.48251022174837, "CENTROID_LAT": -37.42313627165484 }, "geometry": { "type": "MultiPolygon", "coordinates": [ [ [ [ -12.4743344, -37.4155278 ], [ -12.4747362, -37.4303968 ], [ -12.4928202, -37.4270211 ], [ -12.4920821, -37.4195188 ], [ -12.4743344, -37.4155278 ] ] ] ] } },
{ "type": "Feature", "properties": { "POLYGON_ID": "SHN_GAUL2014_ADM2_68782", "ADM0_ISO3": "SHN", "ADM0_NAME": "Saint Helena", "ADM0_CODE": 207, "ADM1_NAME": "Tristan Da Cunha", "ADM1_CODE": 68774, "ADM2_NAME": "Gouch Island", "ADM2_CODE": 68782, "GEOSET": "GAUL", "GEOSET_YEAR": 2014.0, "GEOSET_VERSION": "GAUL_v1", "GEOSET_UNIT": "ADM2", "CENTROID_LONG": -9.937912533428042, "CENTROID_LAT": -40.318687228799128 }, "geometry": { "type": "MultiPolygon", "coordinates": [ [ [ [ -9.9592376, -40.2750629 ], [ -9.9316995, -40.2765588 ], [ -9.8758678, -40.3465087 ], [ -9.8907495, -40.3695736 ], [ -10.0109349, -40.3116942 ], [ -9.9592376, -40.2750629 ] ] ] ] } }
]
}
