{
"type": "FeatureCollection",
"name": "SLE_GAUL2000_ADM1",
"crs": { "type": "name", "properties": { "name": "urn:ogc:def:crs:OGC:1.3:CRS84" } },
"features": [
{ "type": "Feature", "properties": { "POLYGON_ID": "SLE_GAUL2000_ADM1_2654", "ADM0_ISO3": "SLE", "ADM0_NAME": "Sierra Leone", "ADM0_CODE": 221, "ADM1_NAME": "Eastern", "ADM1_CODE": 2654, "GEOSET": "GAUL", "GEOSET_YEAR": 2000.0, "GEOSET_VERSION": "GAUL_v1", "GEOSET_UNIT": "ADM1", "CENTROID_LONG": -10.983664563019449, "CENTROID_LAT": 8.2349070533299802 }, "geometry": { "type": "MultiPolygon", "coordinates": [ [ [ [ -10.5859536, 9.0446689 ], [ -10.5848, 9.0432 ], [ -10.5835902, 9.0363714 ], [ -10.5843763, 9.0343408 ], [ -10.58619, 9.01618 ], [ -10.5869453, 9.0140704 ], [ -10.59176, 9.0093 ], [ -10.59432, 9.00334 ], [ -10.5959324, 8.9914847 ], [ -10.59835, 8.97371 ], [ -10.5972302, 8.963369 ], [ -10.59817, 8.95901 ], [ -10.596578, 8.9483883 ], [ -10.5934618, 8.9351242 ], [ -10.5920202, 8.9325603 ], [ -10.59609, 8.88961 ], [ -10.5950696, 8.88418 ], [ -10.59329, 8.87471 ], [ -10.5867803, 8.8399515 ], [ -10.58772, 8.83467 ], [ -10.5833806, 8.8215618 ], [ -10.58524, 8.81789 ], [ -10.5856367, 8.8146713 ], [ -10.5842063, 8.8021833 ], [ -10.58345, 8.80158 ], [ -10.5819202, 8.8016726 ], [ -10.5799806, 8.80179 ], [ -10.57756, 8.79937 ], [ -10.5763, 8.79811 ], [ -10.57052, 8.80153 ], [ -10.5626906, 8.793691 ], [ -10.53575, 8.77246 ], [ -10.52749, 8.75704 ], [ -10.52547, 8.74095 ], [ -10.49399, 8.70201 ], [ -10.48457, 8.68934 ], [ -10.4812, 8.6513983 ], [ -10.4785002, 8.6463604 ], [ -10.4785514, 8.6459281 ], [ -10.47921, 8.64039 ], [ -10.481226, 8.6384056 ], [ -10.48176, 8.63788 ], [ -10.4984004, 8.6312793 ], [ -10.50212, 8.62463 ], [ -10.51576, 8.61802 ], [ -10.5229409, 8.6102399 ], [ -10.5260858, 8.6098031 ], [ -10.52618, 8.60979 ], [ -10.53101, 8.61302 ], [ -10.54417, 8.61169 ], [ -10.55157, 8.60529 ], [ -10.55286, 8.60473 ], [ -10.55943, 8.60187 ], [ -10.56638, 8.59569 ], [ -10.5720721, 8.5965453 ], [ -10.57583, 8.59711 ], [ -10.5777031, 8.5964164 ], [ -10.57953, 8.59574 ], [ -10.58231, 8.59139 ], [ -10.6023, 8.54966 ], [ -10.6066734, 8.5467707 ], [ -10.60784, 8.546 ], [ -10.6078452, 8.5459987 ], [ -10.61812, 8.54333 ], [ -10.6223908, 8.5416852 ], [ -10.62404, 8.53204 ], [ -10.6252332, 8.5287098 ], [ -10.63112, 8.51228 ], [ -10.631633, 8.5099616 ], [ -10.63289, 8.50428 ], [ -10.6306063, 8.4978361 ], [ -10.6294708, 8.4946273 ], [ -10.6304215, 8.4914229 ], [ -10.6342324, 8.4921515 ], [ -10.63823, 8.49374 ], [ -10.6386189, 8.4934183 ], [ -10.63962, 8.49259 ], [ -10.6396844, 8.4912689 ], [ -10.6395321, 8.4841033 ], [ -10.6394218, 8.483178 ], [ -10.6499229, 8.4696031 ], [ -10.65033, 8.46139 ], [ -10.65196, 8.45589 ], [ -10.65176, 8.4450919 ], [ -10.65214, 8.40031 ], [ -10.6527673, 8.3911103 ], [ -10.65656, 8.38517 ], [ -10.66441, 8.38221 ], [ -10.66928, 8.37511 ], [ -10.67529, 8.37099 ], [ -10.69191, 8.36393 ], [ -10.6972709, 8.3556511 ], [ -10.69979, 8.34741 ], [ -10.7019106, 8.3329588 ], [ -10.70607, 8.3248 ], [ -10.7092679, 8.3185232 ], [ -10.71628, 8.30476 ], [ -10.7122002, 8.2824709 ], [ -10.7143523, 8.2805435 ], [ -10.7080379, 8.2717638 ], [ -10.7007, 8.27325 ], [ -10.70018, 8.29346 ], [ -10.6989316, 8.2982683 ], [ -10.69762, 8.30332 ], [ -10.6975797, 8.3033496 ], [ -10.6913802, 8.3078998 ], [ -10.6905158, 8.3115246 ], [ -10.68788, 8.32258 ], [ -10.67399, 8.34091 ], [ -10.6686662, 8.3409052 ], [ -10.66282, 8.3409 ], [ -10.5971022, 8.3322601 ], [ -10.58646, 8.32599 ], [ -10.58234, 8.31144 ], [ -10.57958, 8.30798 ], [ -10.5676, 8.30725 ], [ -10.56092, 8.30516 ], [ -10.55354, 8.30766 ], [ -10.52118, 8.33097 ], [ -10.49043, 8.35542 ], [ -10.48416, 8.36757 ], [ -10.4793967, 8.3709889 ], [ -10.47144, 8.3767 ], [ -10.4647106, 8.388389 ], [ -10.46343, 8.38912 ], [ -10.4588795, 8.3917088 ], [ -10.45269, 8.39523 ], [ -10.44575, 8.40347 ], [ -10.43135, 8.42982 ], [ -10.4288603, 8.4324729 ], [ -10.42555, 8.436 ], [ -10.41723, 8.44056 ], [ -10.40843, 8.45017 ], [ -10.4014519, 8.4655259 ], [ -10.3938, 8.47606 ], [ -10.3896, 8.48775 ], [ -10.38598, 8.49288 ], [ -10.3727, 8.48705 ], [ -10.36399, 8.48814 ], [ -10.3615218, 8.4889557 ], [ -10.3534045, 8.4916385 ], [ -10.34689, 8.49607 ], [ -10.3399007, 8.4990152 ], [ -10.3314034, 8.5028883 ], [ -10.3277803, 8.5014114 ], [ -10.32173, 8.49894 ], [ -10.30196, 8.48867 ], [ -10.2889649, 8.4853395 ], [ -10.2868603, 8.4848001 ], [ -10.2862973, 8.4851682 ], [ -10.2820423, 8.4879526 ], [ -10.2785971, 8.4835525 ], [ -10.275223, 8.4784627 ], [ -10.2747471, 8.4739417 ], [ -10.2785543, 8.4648403 ], [ -10.2792681, 8.4609737 ], [ -10.2770076, 8.4587727 ], [ -10.2746876, 8.4488979 ], [ -10.2717728, 8.4446149 ], [ -10.2721892, 8.4404508 ], [ -10.2756989, 8.4355729 ], [ -10.2806958, 8.4261741 ], [ -10.2769481, 8.4241515 ], [ -10.2732005, 8.41969 ], [ -10.2773645, 8.4106481 ], [ -10.2809932, 8.4011302 ], [ -10.2782568, 8.3944677 ], [ -10.2821234, 8.3907796 ], [ -10.2853952, 8.3897088 ], [ -10.2870608, 8.3864371 ], [ -10.2901541, 8.3793582 ], [ -10.2884885, 8.3770382 ], [ -10.2864065, 8.3715059 ], [ -10.293069, 8.3641891 ], [ -10.2954484, 8.3578835 ], [ -10.2947346, 8.3545523 ], [ -10.2897972, 8.3505072 ], [ -10.2932474, 8.3433093 ], [ -10.2896187, 8.3415842 ], [ -10.2889644, 8.3380745 ], [ -10.2950915, 8.331412 ], [ -10.2943777, 8.3279023 ], [ -10.2946156, 8.3235598 ], [ -10.2968761, 8.3174922 ], [ -10.2988392, 8.3067846 ], [ -10.3035386, 8.3026205 ], [ -10.3014566, 8.2965529 ], [ -10.3149005, 8.2887602 ], [ -10.3201948, 8.2834659 ], [ -10.3160308, 8.2763275 ], [ -10.3138426, 8.2642629 ], [ -10.3138298, 8.2641923 ], [ -10.3109149, 8.2633 ], [ -10.3109149, 8.256697 ], [ -10.3118072, 8.256459 ], [ -10.3078811, 8.2446212 ], [ -10.3014566, 8.2401597 ], [ -10.3022299, 8.2333782 ], [ -10.29527, 8.2231466 ], [ -10.2957459, 8.218923 ], [ -10.2996125, 8.2121415 ], [ -10.3013376, 8.2043488 ], [ -10.3006832, 8.1988166 ], [ -10.3021638, 8.1962541 ], [ -10.302415, 8.1961838 ], [ -10.3087139, 8.1976863 ], [ -10.3088953, 8.1976286 ], [ -10.3191835, 8.1943551 ], [ -10.3203733, 8.192392 ], [ -10.319797, 8.1895107 ], [ -10.3195405, 8.188228 ], [ -10.3273927, 8.181506 ], [ -10.3273461, 8.1806991 ], [ -10.3272142, 8.1784127 ], [ -10.3340772, 8.1680126 ], [ -10.3349475, 8.1666938 ], [ -10.3432161, 8.1599719 ], [ -10.3445819, 8.1574028 ], [ -10.3457145, 8.1552724 ], [ -10.3498786, 8.1516438 ], [ -10.3535073, 8.1496807 ], [ -10.3550007, 8.1506323 ], [ -10.3662969, 8.1578303 ], [ -10.3710558, 8.1627082 ], [ -10.3720076, 8.1642549 ], [ -10.3733758, 8.1651472 ], [ -10.3768855, 8.1652067 ], [ -10.3872956, 8.1613401 ], [ -10.3890207, 8.1552724 ], [ -10.3858679, 8.1511679 ], [ -10.3890207, 8.1494427 ], [ -10.3951478, 8.1508704 ], [ -10.4012155, 8.1506325 ], [ -10.4111497, 8.1486694 ], [ -10.4266162, 8.148491 ], [ -10.4335166, 8.1542612 ], [ -10.4382161, 8.152655 ], [ -10.442975, 8.1539042 ], [ -10.4449736, 8.1540498 ], [ -10.4552292, 8.1547965 ], [ -10.4621892, 8.1569975 ], [ -10.4720044, 8.1528335 ], [ -10.4794402, 8.1502161 ], [ -10.4846751, 8.1487884 ], [ -10.4852104, 8.1462305 ], [ -10.5008554, 8.1447433 ], [ -10.5132337, 8.1347829 ], [ -10.5241146, 8.1282655 ], [ -10.5277433, 8.1247558 ], [ -10.5253679, 8.122305 ], [ -10.5239957, 8.1208892 ], [ -10.5300038, 8.1116688 ], [ -10.5329439, 8.1060763 ], [ -10.536402, 8.099199 ], [ -10.5434477, 8.0893614 ], [ -10.5471716, 8.0863743 ], [ -10.5545717, 8.0804384 ], [ -10.5752135, 8.0477208 ], [ -10.5930595, 8.0436757 ], [ -10.6025179, 8.0413557 ], [ -10.605, 8.0386653 ], [ -10.605, 8.0183882 ], [ -10.605, 7.9292 ], [ -10.605, 7.774533 ], [ -10.6342793, 7.7663021 ], [ -10.6388662, 7.7685223 ], [ -10.644569, 7.7681053 ], [ -10.651309, 7.7648726 ], [ -10.6564289, 7.7605981 ], [ -10.6586075, 7.7571403 ], [ -10.6624435, 7.7519438 ], [ -10.6706031, 7.7503097 ], [ -10.6729926, 7.747737 ], [ -10.6827749, 7.7433785 ], [ -10.6893026, 7.7425066 ], [ -10.691791, 7.7411583 ], [ -10.6960174, 7.7385774 ], [ -10.700424, 7.7349033 ], [ -10.707806, 7.7268339 ], [ -10.7066451, 7.7192378 ], [ -10.7092486, 7.7126222 ], [ -10.7179379, 7.7026368 ], [ -10.7257678, 7.6956907 ], [ -10.7266046, 7.6870839 ], [ -10.7338964, 7.6810431 ], [ -10.7484322, 7.6641629 ], [ -10.747558, 7.6605532 ], [ -10.7525373, 7.659889 ], [ -10.7611478, 7.6562487 ], [ -10.7667941, 7.649712 ], [ -10.7749988, 7.6491936 ], [ -10.7749988, 7.643164 ], [ -10.7755736, 7.6358497 ], [ -10.7912504, 7.618595 ], [ -10.7902136, 7.608249 ], [ -10.8135541, 7.5898673 ], [ -10.8220744, 7.5796002 ], [ -10.8190878, 7.5778758 ], [ -10.8189832, 7.5763608 ], [ -10.8606833, 7.5372186 ], [ -10.8758523, 7.5296638 ], [ -10.8853107, 7.5255593 ], [ -10.8887014, 7.5246075 ], [ -10.8923748, 7.521346 ], [ -10.9286169, 7.4999206 ], [ -10.927903, 7.5042036 ], [ -10.9305347, 7.5084453 ], [ -10.9329594, 7.5123533 ], [ -10.9400383, 7.5053933 ], [ -10.9453921, 7.5034898 ], [ -10.970079, 7.4842161 ], [ -10.9773958, 7.4753526 ], [ -10.9755517, 7.473687 ], [ -10.9756112, 7.4711291 ], [ -10.9859024, 7.4669056 ], [ -10.9920295, 7.4637528 ], [ -11.0004171, 7.453759 ], [ -11.0035104, 7.4542944 ], [ -11.007496, 7.4508442 ], [ -11.0104703, 7.4467991 ], [ -11.0098677, 7.4415253 ], [ -11.0193338, 7.4388874 ], [ -11.0267102, 7.4372218 ], [ -11.027365, 7.4319072 ], [ -11.033789, 7.4360321 ], [ -11.0334321, 7.4258599 ], [ -11.0916397, 7.3916437 ], [ -11.1006579, 7.3900495 ], [ -11.1027637, 7.388943 ], [ -11.1020379, 7.3853976 ], [ -11.1065682, 7.3791034 ], [ -11.1275934, 7.3564039 ], [ -11.1276647, 7.3519305 ], [ -11.1394431, 7.3440426 ], [ -11.1425108, 7.3405572 ], [ -11.2506057, 7.3762016 ], [ -11.3408989, 7.4311017 ], [ -11.3667137, 7.5264177 ], [ -11.3578362, 7.5642638 ], [ -11.3315542, 7.5883264 ], [ -11.3987193, 7.6280414 ], [ -11.4521009, 7.5425373 ], [ -11.5044312, 7.540902 ], [ -11.4885453, 7.620332 ], [ -11.5152288, 7.6643251 ], [ -11.4734331, 7.7139689 ], [ -11.4256145, 7.7019229 ], [ -11.4011577, 7.768723 ], [ -11.425432, 7.8227471 ], [ -11.4688703, 7.7814989 ], [ -11.491867, 7.7906246 ], [ -11.4845665, 7.8322378 ], [ -11.4531741, 7.8683755 ], [ -11.4469686, 7.9030531 ], [ -11.3847314, 7.915099 ], [ -11.3595445, 7.955252 ], [ -11.3776134, 8.0260674 ], [ -11.3378254, 8.021687 ], [ -11.3345401, 8.0943275 ], [ -11.3456735, 8.1286401 ], [ -11.4033478, 8.1374008 ], [ -11.3821762, 8.194345 ], [ -11.4002451, 8.2282926 ], [ -11.4378429, 8.2359582 ], [ -11.4688703, 8.286332 ], [ -11.4685052, 8.3140741 ], [ -11.5004451, 8.3502118 ], [ -11.5464386, 8.3702883 ], [ -11.5537392, 8.4305178 ], [ -11.5922583, 8.4887794 ], [ -11.5817168, 8.5250466 ], [ -11.5327687, 8.5387272 ], [ -11.4923487, 8.5344632 ], [ -11.4079553, 8.5527632 ], [ -11.3800611, 8.5314428 ], [ -11.3392857, 8.5646671 ], [ -11.3528775, 8.6318265 ], [ -11.3397603, 8.776125 ], [ -11.3059431, 8.8013221 ], [ -11.2930569, 8.8593134 ], [ -11.2694737, 8.8623255 ], [ -11.2571362, 8.9081779 ], [ -11.2227828, 8.9355358 ], [ -11.16371, 8.922637 ], [ -11.1239275, 8.9783646 ], [ -11.1351999, 9.0154971 ], [ -11.1046485, 9.0669118 ], [ -11.0547063, 9.0768506 ], [ -10.9381543, 9.0249248 ], [ -10.9319656, 8.9876477 ], [ -10.8742776, 8.948526 ], [ -10.7997827, 8.9336904 ], [ -10.6736957, 8.9346013 ], [ -10.6942512, 8.9657661 ], [ -10.6730326, 9.0181494 ], [ -10.6219754, 9.0420203 ], [ -10.5944929, 9.0412278 ], [ -10.5888214, 9.0426834 ], [ -10.5874143, 9.0436576 ], [ -10.5859536, 9.0446689 ] ] ] ] } },
{ "type": "Feature", "properties": { "POLYGON_ID": "SLE_GAUL2000_ADM1_2655", "ADM0_ISO3": "SLE", "ADM0_NAME": "Sierra Leone", "ADM0_CODE": 221, "ADM1_NAME": "Northern", "ADM1_CODE": 2655, "GEOSET": "GAUL", "GEOSET_YEAR": 2000.0, "GEOSET_VERSION": "GAUL_v1", "GEOSET_UNIT": "ADM1", "CENTROID_LONG": -11.977743599422956, "CENTROID_LAT": 9.1386758109981781 }, "geometry": { "type": "MultiPolygon", "coordinates": [ [ [ [ -11.20595, 10.0 ], [ -11.19469, 9.99109 ], [ -11.17126, 9.96615 ], [ -11.1691828, 9.9554746 ], [ -11.1671, 9.94477 ], [ -11.16456, 9.91258 ], [ -11.16016, 9.89051 ], [ -11.1586132, 9.8874966 ], [ -11.15437, 9.87923 ], [ -11.1535513, 9.8785222 ], [ -11.15282, 9.87789 ], [ -11.14277, 9.86911 ], [ -11.09734, 9.84792 ], [ -11.03871, 9.79774 ], [ -11.0231532, 9.7748866 ], [ -11.00398, 9.75079 ], [ -10.98384, 9.72502 ], [ -10.983269, 9.7240472 ], [ -10.97736, 9.71398 ], [ -10.9751183, 9.7083933 ], [ -10.9728915, 9.7028531 ], [ -10.97089, 9.69788 ], [ -10.9699116, 9.6899541 ], [ -10.96791, 9.67374 ], [ -10.96282, 9.66407 ], [ -10.95472, 9.65786 ], [ -10.9471518, 9.6567028 ], [ -10.94406, 9.65623 ], [ -10.92622, 9.65459 ], [ -10.92136, 9.64999 ], [ -10.9211739, 9.6466402 ], [ -10.9209, 9.64171 ], [ -10.911956, 9.6095996 ], [ -10.91099, 9.60193 ], [ -10.9040515, 9.5943317 ], [ -10.900591, 9.5941403 ], [ -10.89548, 9.59386 ], [ -10.87813, 9.57383 ], [ -10.8594, 9.55816 ], [ -10.8589537, 9.5528138 ], [ -10.87007, 9.54324 ], [ -10.8735494, 9.5378712 ], [ -10.87379, 9.5375 ], [ -10.8639576, 9.5298919 ], [ -10.85713, 9.5246 ], [ -10.8489066, 9.5233588 ], [ -10.83096, 9.52065 ], [ -10.82749, 9.51788 ], [ -10.844525, 9.5007674 ], [ -10.8483701, 9.495398 ], [ -10.84861, 9.49103 ], [ -10.8407602, 9.4765304 ], [ -10.8407617, 9.47562 ], [ -10.84077, 9.47102 ], [ -10.84889, 9.46161 ], [ -10.8489, 9.45471 ], [ -10.8453626, 9.447076 ], [ -10.84384, 9.44379 ], [ -10.8433603, 9.4427506 ], [ -10.83549, 9.43814 ], [ -10.82716, 9.43537 ], [ -10.8193324, 9.4285376 ], [ -10.81607, 9.42569 ], [ -10.8134841, 9.4242188 ], [ -10.80635, 9.42016 ], [ -10.8040787, 9.417173 ], [ -10.80197, 9.4144 ], [ -10.8036032, 9.4098398 ], [ -10.80452, 9.40728 ], [ -10.8124, 9.40132 ], [ -10.8138803, 9.3979956 ], [ -10.81659, 9.39191 ], [ -10.8147413, 9.3866138 ], [ -10.80966, 9.38086 ], [ -10.80457, 9.38085 ], [ -10.79923, 9.39072 ], [ -10.78331, 9.38559 ], [ -10.78002, 9.38333 ], [ -10.77007, 9.3817 ], [ -10.7668705, 9.3830941 ], [ -10.76011, 9.38604 ], [ -10.74831, 9.38487 ], [ -10.7454409, 9.3812051 ], [ -10.74092, 9.37543 ], [ -10.7383761, 9.3740433 ], [ -10.73713, 9.37508 ], [ -10.7316895, 9.3796005 ], [ -10.7309826, 9.3801878 ], [ -10.72499, 9.37167 ], [ -10.719037, 9.3617198 ], [ -10.7106834, 9.3434546 ], [ -10.71021, 9.33789 ], [ -10.7104024, 9.3374458 ], [ -10.7116, 9.33468 ], [ -10.6885636, 9.3238937 ], [ -10.66884, 9.3093 ], [ -10.6672749, 9.3068236 ], [ -10.67522, 9.25025 ], [ -10.67455, 9.23945 ], [ -10.6644, 9.22655 ], [ -10.6637401, 9.2100098 ], [ -10.66792, 9.20335 ], [ -10.68273, 9.19856 ], [ -10.6881267, 9.1965929 ], [ -10.7036352, 9.1927006 ], [ -10.7084213, 9.1919618 ], [ -10.71304, 9.1984 ], [ -10.7177463, 9.1976038 ], [ -10.71836, 9.1975 ], [ -10.72348, 9.18349 ], [ -10.7195983, 9.1750657 ], [ -10.71426, 9.16348 ], [ -10.7144377, 9.1510886 ], [ -10.71454, 9.14395 ], [ -10.7307998, 9.0899118 ], [ -10.73205, 9.08719 ], [ -10.72993, 9.07919 ], [ -10.7082, 9.07546 ], [ -10.7034791, 9.0763006 ], [ -10.67512, 9.08135 ], [ -10.6705602, 9.0814116 ], [ -10.66032, 9.08155 ], [ -10.6196911, 9.0687939 ], [ -10.61729, 9.06805 ], [ -10.61295, 9.06671 ], [ -10.5992452, 9.0581889 ], [ -10.594021, 9.0549407 ], [ -10.5859536, 9.0446689 ], [ -10.5874143, 9.0436576 ], [ -10.5888214, 9.0426834 ], [ -10.5944929, 9.0412278 ], [ -10.6219754, 9.0420203 ], [ -10.6730326, 9.0181494 ], [ -10.6942512, 8.9657661 ], [ -10.6736957, 8.9346013 ], [ -10.7997827, 8.9336904 ], [ -10.8742776, 8.948526 ], [ -10.9319656, 8.9876477 ], [ -10.9381543, 9.0249248 ], [ -11.0547063, 9.0768506 ], [ -11.1046485, 9.0669118 ], [ -11.1351999, 9.0154971 ], [ -11.1239275, 8.9783646 ], [ -11.16371, 8.922637 ], [ -11.2227828, 8.9355358 ], [ -11.2571362, 8.9081779 ], [ -11.2694737, 8.8623255 ], [ -11.2930569, 8.8593134 ], [ -11.3059431, 8.8013221 ], [ -11.3397603, 8.776125 ], [ -11.3528775, 8.6318265 ], [ -11.3392857, 8.5646671 ], [ -11.3800611, 8.5314428 ], [ -11.4079553, 8.5527632 ], [ -11.4923487, 8.5344632 ], [ -11.5327687, 8.5387272 ], [ -11.5817168, 8.5250466 ], [ -11.5922583, 8.4887794 ], [ -11.6243577, 8.4754766 ], [ -11.6861869, 8.4712125 ], [ -11.7267846, 8.4520242 ], [ -11.7570774, 8.4035202 ], [ -11.8207721, 8.3592803 ], [ -11.9311054, 8.3487977 ], [ -11.9962215, 8.376159 ], [ -12.0243822, 8.3702958 ], [ -12.0674673, 8.3189491 ], [ -12.0336211, 8.2723995 ], [ -12.037974, 8.2487694 ], [ -12.1318728, 8.3049132 ], [ -12.1746913, 8.3614123 ], [ -12.2270152, 8.3450667 ], [ -12.270189, 8.3487977 ], [ -12.2921313, 8.3269443 ], [ -12.352095, 8.3544832 ], [ -12.3974898, 8.3168171 ], [ -12.4357777, 8.3137967 ], [ -12.463672, 8.2915879 ], [ -12.5158182, 8.2871462 ], [ -12.5923941, 8.3097103 ], [ -12.6055417, 8.3413356 ], [ -12.6695484, 8.3755774 ], [ -12.7431591, 8.3494574 ], [ -12.7904521, 8.3918034 ], [ -12.8561477, 8.3486659 ], [ -12.8832571, 8.2798042 ], [ -12.9345857, 8.2622347 ], [ -12.9133346, 8.2988006 ], [ -12.9180837, 8.3637047 ], [ -12.987539, 8.3641004 ], [ -13.0410881, 8.3760338 ], [ -13.0801936, 8.4122099 ], [ -13.1329228, 8.43802 ], [ -13.1034855, 8.487343 ], [ -13.0605554, 8.5025728 ], [ -13.0276438, 8.5472902 ], [ -12.9684266, 8.5541797 ], [ -12.948706, 8.5268471 ], [ -12.9107234, 8.5542901 ], [ -12.9543811, 8.5778917 ], [ -13.0028849, 8.6288655 ], [ -13.057439, 8.5750527 ], [ -13.085854, 8.5852015 ], [ -13.1284643, 8.5689232 ], [ -13.1363631, 8.531285 ], [ -13.1688088, 8.5275208 ], [ -13.244277, 8.674348 ], [ -13.237772, 8.736417 ], [ -13.248019, 8.8143701 ], [ -13.205682, 8.8581122 ], [ -13.1645118, 8.8374467 ], [ -13.1295989, 8.8533315 ], [ -13.1479383, 8.8918258 ], [ -13.1106106, 8.9272961 ], [ -13.0419865, 8.9248811 ], [ -13.0564569, 8.9532617 ], [ -13.1425892, 8.924486 ], [ -13.1951475, 8.9829309 ], [ -13.235798, 8.960581 ], [ -13.2820341, 8.9545253 ], [ -13.3026563, 9.0404146 ], [ -13.30071, 9.04154 ], [ -13.28857, 9.05257 ], [ -13.2837844, 9.0552175 ], [ -13.24758, 9.07513 ], [ -13.20687, 9.07265 ], [ -13.17947, 9.09029 ], [ -13.174166, 9.0923976 ], [ -13.1191228, 9.0557314 ], [ -13.10751, 9.04963 ], [ -13.0951987, 9.0488501 ], [ -13.08762, 9.04837 ], [ -13.0559059, 9.0662443 ], [ -13.05085, 9.08261 ], [ -13.036084, 9.0882091 ], [ -13.01851, 9.08763 ], [ -13.01182, 9.09088 ], [ -13.00215, 9.09737 ], [ -12.9966341, 9.1054607 ], [ -12.9808607, 9.1324287 ], [ -12.97339, 9.1589 ], [ -12.97023, 9.17178 ], [ -12.95619, 9.1822 ], [ -12.95415, 9.1898 ], [ -12.9583513, 9.2306188 ], [ -12.95883, 9.23527 ], [ -12.95244, 9.24932 ], [ -12.9508913, 9.2540325 ], [ -12.94381, 9.27558 ], [ -12.93508, 9.28665 ], [ -12.9298857, 9.2865468 ], [ -12.90074, 9.27099 ], [ -12.8931, 9.27034 ], [ -12.88111, 9.27799 ], [ -12.8786606, 9.2876072 ], [ -12.87636, 9.29664 ], [ -12.86825, 9.2953 ], [ -12.860545, 9.295661 ], [ -12.8543914, 9.2938659 ], [ -12.8446, 9.28693 ], [ -12.8415833, 9.2856439 ], [ -12.8395087, 9.2861004 ], [ -12.83134, 9.2911 ], [ -12.8292045, 9.2910317 ], [ -12.82509, 9.2909 ], [ -12.81651, 9.28588 ], [ -12.81212, 9.28682 ], [ -12.8066, 9.29351 ], [ -12.79413, 9.29747 ], [ -12.78951, 9.30071 ], [ -12.78837, 9.30393 ], [ -12.7890835, 9.3091205 ], [ -12.78519, 9.31682 ], [ -12.78152, 9.32396 ], [ -12.7769808, 9.3425989 ], [ -12.75685, 9.34223 ], [ -12.7517518, 9.3479968 ], [ -12.75087, 9.34961 ], [ -12.75159, 9.35558 ], [ -12.7522205, 9.356946 ], [ -12.75651, 9.36624 ], [ -12.75224, 9.39649 ], [ -12.724, 9.39523 ], [ -12.71217, 9.38953 ], [ -12.7119363, 9.3927433 ], [ -12.7113, 9.40149 ], [ -12.709789, 9.407173 ], [ -12.7004948, 9.4159637 ], [ -12.6984, 9.41626 ], [ -12.6877571, 9.4083246 ], [ -12.6868, 9.40918 ], [ -12.6833804, 9.4211418 ], [ -12.6845439, 9.4264379 ], [ -12.67997, 9.43518 ], [ -12.6799765, 9.4375604 ], [ -12.67847, 9.46369 ], [ -12.6726941, 9.4669277 ], [ -12.67203, 9.47544 ], [ -12.65064, 9.50885 ], [ -12.6493854, 9.5161174 ], [ -12.64294, 9.54957 ], [ -12.6396384, 9.5490499 ], [ -12.63437, 9.54822 ], [ -12.6340403, 9.5491224 ], [ -12.6211502, 9.6011495 ], [ -12.61492, 9.60623 ], [ -12.60008, 9.60077 ], [ -12.59174, 9.59988 ], [ -12.5917357, 9.5999291 ], [ -12.59063, 9.61253 ], [ -12.58536, 9.62887 ], [ -12.5855626, 9.6338799 ], [ -12.58712, 9.66311 ], [ -12.5845898, 9.663419 ], [ -12.57853, 9.65809 ], [ -12.57553, 9.65994 ], [ -12.56666, 9.70273 ], [ -12.5567, 9.70346 ], [ -12.54745, 9.70901 ], [ -12.53614, 9.72054 ], [ -12.53359, 9.72009 ], [ -12.5335332, 9.7199562 ], [ -12.52891, 9.70907 ], [ -12.5222402, 9.7055247 ], [ -12.51941, 9.70727 ], [ -12.5192, 9.71416 ], [ -12.5230654, 9.7238432 ], [ -12.52809, 9.73643 ], [ -12.5251705, 9.7419784 ], [ -12.52302, 9.74335 ], [ -12.5091115, 9.74294 ], [ -12.50727, 9.74593 ], [ -12.51132, 9.77512 ], [ -12.5058324, 9.7828922 ], [ -12.5014, 9.78917 ], [ -12.50031, 9.80802 ], [ -12.4979254, 9.8098641 ], [ -12.4912834, 9.8112795 ], [ -12.49017, 9.826 ], [ -12.4994709, 9.8321719 ], [ -12.50064, 9.8347 ], [ -12.49887, 9.83932 ], [ -12.49901, 9.84365 ], [ -12.4801, 9.85547 ], [ -12.4675442, 9.8550208 ], [ -12.4569, 9.85464 ], [ -12.45251, 9.85719 ], [ -12.4435009, 9.8661891 ], [ -12.43174, 9.88163 ], [ -12.37126, 9.89267 ], [ -12.36593, 9.89568 ], [ -12.3198105, 9.9027736 ], [ -12.2892132, 9.9088194 ], [ -12.28736, 9.91089 ], [ -12.2793864, 9.9127147 ], [ -12.26455, 9.91611 ], [ -12.2294744, 9.9241107 ], [ -12.2179825, 9.9208031 ], [ -12.21526, 9.91871 ], [ -12.15296, 9.88005 ], [ -12.145249, 9.8760838 ], [ -12.1426648, 9.8747545 ], [ -12.1418232, 9.8743216 ], [ -12.1391402, 9.8738054 ], [ -12.12651, 9.87138 ], [ -12.1223288, 9.8716828 ], [ -12.1200233, 9.8718498 ], [ -12.0943285, 9.8797888 ], [ -12.0824815, 9.8834495 ], [ -12.07947, 9.88552 ], [ -12.0658522, 9.888331 ], [ -12.0614, 9.88925 ], [ -12.0475, 9.89526 ], [ -12.0311599, 9.8983777 ], [ -12.02919, 9.89876 ], [ -11.9143973, 9.9337032 ], [ -11.90977, 9.93495 ], [ -11.9043097, 9.9385082 ], [ -11.89825, 9.94571 ], [ -11.89139, 9.98619 ], [ -11.88585, 9.99746 ], [ -11.8008466, 9.9974407 ], [ -11.76868, 9.99743 ], [ -11.7358009, 9.9999248 ], [ -11.7348106, 10.0 ], [ -11.72553, 9.99795 ], [ -11.70146, 9.99836 ], [ -11.65337, 9.99918 ], [ -11.61439, 9.99807 ], [ -11.597528, 9.9988873 ], [ -11.58468, 9.99951 ], [ -11.57399, 9.99957 ], [ -11.5666385, 9.9988638 ], [ -11.56358, 9.99857 ], [ -11.5014, 10.0 ], [ -11.49839, 10.0 ], [ -11.4771631, 9.9996808 ], [ -11.44652, 9.99922 ], [ -11.31897, 9.99843 ], [ -11.31394, 9.9984 ], [ -11.277291, 9.9990984 ], [ -11.25149, 9.99959 ], [ -11.20595, 10.0 ] ] ] ] } },
{ "type": "Feature", "properties": { "POLYGON_ID": "SLE_GAUL2000_ADM1_2656", "ADM0_ISO3": "SLE", "ADM0_NAME": "Sierra Leone", "ADM0_CODE": 221, "ADM1_NAME": "Southern", "ADM1_CODE": 2656, "GEOSET": "GAUL", "GEOSET_YEAR": 2000.0, "GEOSET_VERSION": "GAUL_v1", "GEOSET_UNIT": "ADM1", "CENTROID_LONG": -12.029854065553398, "CENTROID_LAT": 7.7809634077073548 }, "geometry": { "type": "MultiPolygon", "coordinates": [ [ [ [ -11.1425108, 7.3405572 ], [ -11.1445113, 7.3382843 ], [ -11.141882, 7.3335373 ], [ -11.1775501, 7.2933839 ], [ -11.1798225, 7.2890413 ], [ -11.1751826, 7.2863288 ], [ -11.1777762, 7.2781315 ], [ -11.1835557, 7.2753388 ], [ -11.1791537, 7.2683194 ], [ -11.2289346, 7.248769 ], [ -11.234952, 7.2497001 ], [ -11.2418124, 7.2419553 ], [ -11.2440898, 7.2370171 ], [ -11.2722884, 7.2382161 ], [ -11.2743201, 7.2360384 ], [ -11.2727942, 7.2332471 ], [ -11.2718812, 7.2315769 ], [ -11.2721631, 7.2283289 ], [ -11.274763, 7.2239869 ], [ -11.2809972, 7.2191685 ], [ -11.2828843, 7.217146 ], [ -11.28647, 7.2133031 ], [ -11.2864583, 7.202361 ], [ -11.2864554, 7.1996921 ], [ -11.2938196, 7.1956897 ], [ -11.2962377, 7.1956713 ], [ -11.2974988, 7.1984196 ], [ -11.2952364, 7.1994696 ], [ -11.2908601, 7.201501 ], [ -11.2898131, 7.2035354 ], [ -11.2922769, 7.2046817 ], [ -11.2937511, 7.2053676 ], [ -11.2997088, 7.2037204 ], [ -11.3035069, 7.206474 ], [ -11.3023262, 7.2116321 ], [ -11.3039352, 7.2131484 ], [ -11.3102361, 7.2085895 ], [ -11.3108832, 7.2056412 ], [ -11.3083729, 7.2007276 ], [ -11.3281224, 7.1640839 ], [ -11.3349515, 7.1573858 ], [ -11.3343566, 7.1562317 ], [ -11.3307729, 7.156148 ], [ -11.3455996, 7.1468685 ], [ -11.3521431, 7.1394684 ], [ -11.3479645, 7.1321749 ], [ -11.3412095, 7.1265004 ], [ -11.3386991, 7.1187314 ], [ -11.3325125, 7.1126638 ], [ -11.3361531, 7.1049305 ], [ -11.3321708, 7.0984539 ], [ -11.3321559, 7.0780774 ], [ -11.3652156, 7.0799457 ], [ -11.3742007, 7.0699763 ], [ -11.3750903, 7.0626946 ], [ -11.3628956, 7.0506783 ], [ -11.3683353, 7.0432668 ], [ -11.3696321, 7.019615 ], [ -11.3765713, 7.0107548 ], [ -11.3850246, 7.0092757 ], [ -11.3935338, 7.0039462 ], [ -11.396175, 6.9996632 ], [ -11.3972185, 6.9904179 ], [ -11.4302343, 6.9703715 ], [ -11.4318958, 6.9686203 ], [ -11.4305885, 6.9643524 ], [ -11.4207667, 6.9498849 ], [ -11.4196207, 6.9451084 ], [ -11.4179, 6.9379373 ], [ -11.497478, 6.9234367 ], [ -11.598307, 6.9792204 ], [ -11.6541681, 7.0354158 ], [ -11.8306096, 7.133637 ], [ -11.954242, 7.189477 ], [ -12.328701, 7.335048 ], [ -12.4937424, 7.3818903 ], [ -12.4575571, 7.4234044 ], [ -12.4870848, 7.4537573 ], [ -12.4243111, 7.557001 ], [ -12.4667699, 7.5583777 ], [ -12.4758353, 7.6121065 ], [ -12.5476063, 7.6768166 ], [ -12.5155488, 7.695323 ], [ -12.5144383, 7.7391777 ], [ -12.5851656, 7.6860551 ], [ -12.6801527, 7.7091594 ], [ -12.708732, 7.7015421 ], [ -12.7883731, 7.7640928 ], [ -12.8054209, 7.7910426 ], [ -12.871962, 7.825903 ], [ -12.899927, 7.864688 ], [ -12.950879, 7.906548 ], [ -12.8844587, 7.9611147 ], [ -12.8999694, 8.0297875 ], [ -12.8966037, 8.0863265 ], [ -12.942253, 8.157058 ], [ -12.9911605, 8.2076525 ], [ -12.9894088, 8.2372764 ], [ -12.9345857, 8.2622347 ], [ -12.8832571, 8.2798042 ], [ -12.8561477, 8.3486659 ], [ -12.7904521, 8.3918034 ], [ -12.7431591, 8.3494574 ], [ -12.6695484, 8.3755774 ], [ -12.6055417, 8.3413356 ], [ -12.5923941, 8.3097103 ], [ -12.5158182, 8.2871462 ], [ -12.463672, 8.2915879 ], [ -12.4357777, 8.3137967 ], [ -12.3974898, 8.3168171 ], [ -12.352095, 8.3544832 ], [ -12.2921313, 8.3269443 ], [ -12.270189, 8.3487977 ], [ -12.2270152, 8.3450667 ], [ -12.1746913, 8.3614123 ], [ -12.1318728, 8.3049132 ], [ -12.037974, 8.2487694 ], [ -12.0336211, 8.2723995 ], [ -12.0674673, 8.3189491 ], [ -12.0243822, 8.3702958 ], [ -11.9962215, 8.376159 ], [ -11.9311054, 8.3487977 ], [ -11.8207721, 8.3592803 ], [ -11.7570774, 8.4035202 ], [ -11.7267846, 8.4520242 ], [ -11.6861869, 8.4712125 ], [ -11.6243577, 8.4754766 ], [ -11.5922583, 8.4887794 ], [ -11.5537392, 8.4305178 ], [ -11.5464386, 8.3702883 ], [ -11.5004451, 8.3502118 ], [ -11.4685052, 8.3140741 ], [ -11.4688703, 8.286332 ], [ -11.4378429, 8.2359582 ], [ -11.4002451, 8.2282926 ], [ -11.3821762, 8.194345 ], [ -11.4033478, 8.1374008 ], [ -11.3456735, 8.1286401 ], [ -11.3345401, 8.0943275 ], [ -11.3378254, 8.021687 ], [ -11.3776134, 8.0260674 ], [ -11.3595445, 7.955252 ], [ -11.3847314, 7.915099 ], [ -11.4469686, 7.9030531 ], [ -11.4531741, 7.8683755 ], [ -11.4845665, 7.8322378 ], [ -11.491867, 7.7906246 ], [ -11.4688703, 7.7814989 ], [ -11.425432, 7.8227471 ], [ -11.4011577, 7.768723 ], [ -11.4256145, 7.7019229 ], [ -11.4734331, 7.7139689 ], [ -11.5152288, 7.6643251 ], [ -11.4885453, 7.620332 ], [ -11.5044312, 7.540902 ], [ -11.4521009, 7.5425373 ], [ -11.3987193, 7.6280414 ], [ -11.3315542, 7.5883264 ], [ -11.3578362, 7.5642638 ], [ -11.3667137, 7.5264177 ], [ -11.3408989, 7.4311017 ], [ -11.2506057, 7.3762016 ], [ -11.1425108, 7.3405572 ] ] ], [ [ [ -12.6246387, 7.6408885 ], [ -12.5696196, 7.5484043 ], [ -12.5429431, 7.5433245 ], [ -12.5177373, 7.5601501 ], [ -12.4997328, 7.5175219 ], [ -12.5302871, 7.4674657 ], [ -12.5310873, 7.3932795 ], [ -12.5553454, 7.3881452 ], [ -12.586532, 7.456412 ], [ -12.6891531, 7.5007884 ], [ -12.904518, 7.561861 ], [ -12.9063302, 7.6055383 ], [ -12.7977649, 7.6296586 ], [ -12.742315, 7.624939 ], [ -12.6923239, 7.6387216 ], [ -12.6246387, 7.6408885 ] ] ], [ [ [ -12.5501185, 7.6104603 ], [ -12.5036776, 7.5846919 ], [ -12.5466353, 7.54565 ], [ -12.5687616, 7.5504548 ], [ -12.5836218, 7.6076596 ], [ -12.5501185, 7.6104603 ] ] ] ] } },
{ "type": "Feature", "properties": { "POLYGON_ID": "SLE_GAUL2000_ADM1_2657", "ADM0_ISO3": "SLE", "ADM0_NAME": "Sierra Leone", "ADM0_CODE": 221, "ADM1_NAME": "Western Area", "ADM1_CODE": 2657, "GEOSET": "GAUL", "GEOSET_YEAR": 2000.0, "GEOSET_VERSION": "GAUL_v1", "GEOSET_UNIT": "ADM1", "CENTROID_LONG": -13.107000589665226, "CENTROID_LAT": 8.3401471104983393 }, "geometry": { "type": "MultiPolygon", "coordinates": [ [ [ [ -13.0607142, 8.3629465 ], [ -13.0606961, 8.3629262 ], [ -13.0410881, 8.3760338 ], [ -12.987539, 8.3641004 ], [ -12.9180837, 8.3637047 ], [ -12.9133346, 8.2988006 ], [ -12.9345857, 8.2622347 ], [ -12.9894088, 8.2372764 ], [ -13.065329, 8.237923 ], [ -13.1294215, 8.1963924 ], [ -13.155831, 8.214774 ], [ -13.171179, 8.279776 ], [ -13.2065869, 8.3360276 ], [ -13.2342562, 8.3454641 ], [ -13.290923, 8.434401 ], [ -13.2787068, 8.4793295 ], [ -13.2099629, 8.4941057 ], [ -13.1423641, 8.426963 ], [ -13.0915418, 8.4105696 ], [ -13.0607142, 8.3629465 ] ] ] ] } }
]
}
