{
"type": "FeatureCollection",
"name": "SRB_GAUL2007_ADM2",
"crs": { "type": "name", "properties": { "name": "urn:ogc:def:crs:OGC:1.3:CRS84" } },
"features": [
{ "type": "Feature", "properties": { "POLYGON_ID": "SRB_GAUL2007_ADM2_47624", "ADM0_ISO3": "SRB", "ADM0_NAME": "Serbia", "ADM0_CODE": 2648, "ADM1_NAME": "Borski", "ADM1_CODE": 25371, "ADM2_NAME": "Administrative unit not available", "ADM2_CODE": 47624, "GEOSET": "GAUL", "GEOSET_YEAR": 2007.0, "GEOSET_VERSION": "GAUL_v1", "GEOSET_UNIT": "ADM2", "CENTROID_LONG": 22.253101056313564, "CENTROID_LAT": 44.314205682170332 }, "geometry": { "type": "MultiPolygon", "coordinates": [ [ [ [ 22.67614, 44.21545 ], [ 22.61735, 44.1375 ], [ 22.6091987, 44.0621398 ], [ 22.5313074, 44.0481228 ], [ 22.4723396, 44.0566216 ], [ 22.4922886, 44.1169052 ], [ 22.4060421, 44.1298866 ], [ 22.2902393, 44.1748428 ], [ 22.2142601, 44.1394234 ], [ 22.2380962, 44.0606575 ], [ 22.1846313, 43.9257851 ], [ 22.0817375, 43.9235115 ], [ 21.9383602, 43.9787369 ], [ 21.9038925, 44.0096855 ], [ 21.7942505, 44.0291939 ], [ 21.8145657, 44.0766449 ], [ 21.9606552, 44.128273 ], [ 21.9747372, 44.2013206 ], [ 21.9213467, 44.2403374 ], [ 21.8873901, 44.3189545 ], [ 21.8260078, 44.3254814 ], [ 21.8210201, 44.3782845 ], [ 21.8483028, 44.4232407 ], [ 21.9355011, 44.4569778 ], [ 21.9504623, 44.5317116 ], [ 22.0183449, 44.5976944 ], [ 22.0279538, 44.5847794 ], [ 22.04263, 44.53794 ], [ 22.13003, 44.47675 ], [ 22.1804, 44.4801 ], [ 22.27734, 44.62835 ], [ 22.3319, 44.67445 ], [ 22.37487, 44.67349 ], [ 22.46446, 44.71498 ], [ 22.58083, 44.63239 ], [ 22.71287, 44.6 ], [ 22.75162, 44.53319 ], [ 22.69317, 44.51636 ], [ 22.58217, 44.54817 ], [ 22.55823, 44.50113 ], [ 22.4655199, 44.4439601 ], [ 22.49934, 44.42235 ], [ 22.52521, 44.33916 ], [ 22.5664, 44.30317 ], [ 22.67008, 44.2848 ], [ 22.67614, 44.21545 ] ] ] ] } },
{ "type": "Feature", "properties": { "POLYGON_ID": "SRB_GAUL2007_ADM2_47625", "ADM0_ISO3": "SRB", "ADM0_NAME": "Serbia", "ADM0_CODE": 2648, "ADM1_NAME": "Branicevski", "ADM1_CODE": 25372, "ADM2_NAME": "Administrative unit not available", "ADM2_CODE": 47625, "GEOSET": "GAUL", "GEOSET_YEAR": 2007.0, "GEOSET_VERSION": "GAUL_v1", "GEOSET_UNIT": "ADM2", "CENTROID_LONG": 21.530391095792627, "CENTROID_LAT": 44.464578101728378 }, "geometry": { "type": "MultiPolygon", "coordinates": [ [ [ [ 21.356417, 44.8236845 ], [ 21.39719, 44.77827 ], [ 21.55227, 44.76986 ], [ 21.61227, 44.72672 ], [ 21.62942, 44.65983 ], [ 21.85098, 44.65361 ], [ 21.99003, 44.63356 ], [ 22.0183449, 44.5976944 ], [ 21.9504623, 44.5317116 ], [ 21.9355011, 44.4569778 ], [ 21.8483028, 44.4232407 ], [ 21.8210201, 44.3782845 ], [ 21.8260078, 44.3254814 ], [ 21.8873901, 44.3189545 ], [ 21.9213467, 44.2403374 ], [ 21.9747372, 44.2013206 ], [ 21.9606552, 44.128273 ], [ 21.8145657, 44.0766449 ], [ 21.7896309, 44.1015053 ], [ 21.5652885, 44.1537247 ], [ 21.5085239, 44.2116585 ], [ 21.4358444, 44.2220726 ], [ 21.3687401, 44.2095337 ], [ 21.3403587, 44.2787666 ], [ 21.271347, 44.2556648 ], [ 21.1963215, 44.3047981 ], [ 21.1485786, 44.3125 ], [ 21.119463, 44.4130478 ], [ 21.1721935, 44.4730377 ], [ 21.1416836, 44.4980469 ], [ 21.130022, 44.5922127 ], [ 21.0913734, 44.5939026 ], [ 21.034977, 44.7208519 ], [ 21.1619263, 44.7427788 ], [ 21.1930218, 44.7791557 ], [ 21.356417, 44.8236845 ] ] ] ] } },
{ "type": "Feature", "properties": { "POLYGON_ID": "SRB_GAUL2007_ADM2_47626", "ADM0_ISO3": "SRB", "ADM0_NAME": "Serbia", "ADM0_CODE": 2648, "ADM1_NAME": "Grad Beograd", "ADM1_CODE": 25373, "ADM2_NAME": "Administrative unit not available", "ADM2_CODE": 47626, "GEOSET": "GAUL", "GEOSET_YEAR": 2007.0, "GEOSET_VERSION": "GAUL_v1", "GEOSET_UNIT": "ADM2", "CENTROID_LONG": 20.428783625437962, "CENTROID_LAT": 44.655337300582673 }, "geometry": { "type": "MultiPolygon", "coordinates": [ [ [ [ 20.424139, 45.0941429 ], [ 20.4316921, 45.0377464 ], [ 20.5613556, 44.9480515 ], [ 20.6152592, 44.9491539 ], [ 20.6419544, 44.868042 ], [ 20.6230335, 44.7721863 ], [ 20.7549706, 44.6714211 ], [ 20.8211956, 44.6613731 ], [ 20.8103409, 44.5896454 ], [ 20.7584896, 44.5539322 ], [ 20.8458366, 44.4781723 ], [ 20.7917118, 44.3827591 ], [ 20.7814446, 44.3361168 ], [ 20.6731968, 44.3622971 ], [ 20.6168728, 44.4058609 ], [ 20.4855976, 44.4323349 ], [ 20.3969307, 44.324894 ], [ 20.2894897, 44.2760506 ], [ 20.2330189, 44.3069992 ], [ 20.2204056, 44.3518105 ], [ 20.255827, 44.4362946 ], [ 20.255827, 44.4941597 ], [ 20.2037563, 44.5685997 ], [ 20.1709747, 44.526062 ], [ 20.0735073, 44.5281906 ], [ 20.0004616, 44.5644188 ], [ 19.9964294, 44.5907478 ], [ 19.979414, 44.6372452 ], [ 20.0452728, 44.6835938 ], [ 20.1271915, 44.7133713 ], [ 20.1153107, 44.7691803 ], [ 20.1711216, 44.8780899 ], [ 20.236393, 44.9241447 ], [ 20.2853088, 44.9275169 ], [ 20.29389, 44.9844284 ], [ 20.3572559, 45.0208054 ], [ 20.3144245, 45.0936317 ], [ 20.424139, 45.0941429 ] ] ] ] } },
{ "type": "Feature", "properties": { "POLYGON_ID": "SRB_GAUL2007_ADM2_47627", "ADM0_ISO3": "SRB", "ADM0_NAME": "Serbia", "ADM0_CODE": 2648, "ADM1_NAME": "Jablanicki", "ADM1_CODE": 25374, "ADM2_NAME": "Administrative unit not available", "ADM2_CODE": 47627, "GEOSET": "GAUL", "GEOSET_YEAR": 2007.0, "GEOSET_VERSION": "GAUL_v1", "GEOSET_UNIT": "ADM2", "CENTROID_LONG": 21.894997668259361, "CENTROID_LAT": 42.913315169064305 }, "geometry": { "type": "MultiPolygon", "coordinates": [ [ [ [ 22.2334766, 43.0694122 ], [ 22.210228, 43.0106659 ], [ 22.3836727, 42.9560318 ], [ 22.3754597, 42.9230995 ], [ 22.4240093, 42.8817368 ], [ 22.518835, 42.8570442 ], [ 22.4394838, 42.8170624 ], [ 22.3821335, 42.8053207 ], [ 22.2857666, 42.7501678 ], [ 22.2244549, 42.7566223 ], [ 22.2103004, 42.7920456 ], [ 22.0972862, 42.7911644 ], [ 21.9905796, 42.8178597 ], [ 21.9567699, 42.7921181 ], [ 21.8232937, 42.7814827 ], [ 21.756115, 42.6931114 ], [ 21.6553478, 42.6713295 ], [ 21.5757751, 42.7295609 ], [ 21.5093308, 42.730587 ], [ 21.4146519, 42.7399025 ], [ 21.4310055, 42.8596611 ], [ 21.4813156, 42.9420204 ], [ 21.4586544, 42.9877129 ], [ 21.5482006, 43.0327415 ], [ 21.6701622, 43.0628853 ], [ 21.7831764, 43.1076927 ], [ 21.8172054, 43.1430435 ], [ 21.8994923, 43.1673927 ], [ 21.9298534, 43.1296234 ], [ 22.0242405, 43.1445847 ], [ 22.1429024, 43.0620041 ], [ 22.2334766, 43.0694122 ] ] ] ] } },
{ "type": "Feature", "properties": { "POLYGON_ID": "SRB_GAUL2007_ADM2_47628", "ADM0_ISO3": "SRB", "ADM0_NAME": "Serbia", "ADM0_CODE": 2648, "ADM1_NAME": "Juzno-backi", "ADM1_CODE": 25375, "ADM2_NAME": "Administrative unit not available", "ADM2_CODE": 47628, "GEOSET": "GAUL", "GEOSET_YEAR": 2007.0, "GEOSET_VERSION": "GAUL_v1", "GEOSET_UNIT": "ADM2", "CENTROID_LONG": 19.750697237536912, "CENTROID_LAT": 45.40089501070058 }, "geometry": { "type": "MultiPolygon", "coordinates": [ [ [ [ 20.0977821, 45.718914 ], [ 20.1119366, 45.6691933 ], [ 20.0808411, 45.6188812 ], [ 20.1202984, 45.5974655 ], [ 20.0678616, 45.5562515 ], [ 20.2241459, 45.447197 ], [ 20.2141705, 45.3699684 ], [ 20.2641888, 45.3436432 ], [ 20.2463665, 45.2883453 ], [ 20.2955761, 45.2611351 ], [ 20.3205853, 45.2133179 ], [ 20.2769489, 45.1388817 ], [ 20.1630535, 45.185524 ], [ 20.01161, 45.1694603 ], [ 19.9164162, 45.1414452 ], [ 19.7648258, 45.1553802 ], [ 19.6798992, 45.1427689 ], [ 19.4324832, 45.1689054 ], [ 19.42197, 45.23232 ], [ 19.24903, 45.24403 ], [ 19.11951, 45.29056 ], [ 19.09463, 45.33065 ], [ 19.02605, 45.34432 ], [ 19.0002991, 45.4364739 ], [ 19.0260943, 45.4894543 ], [ 19.1001587, 45.437809 ], [ 19.2778568, 45.434288 ], [ 19.3652763, 45.4207191 ], [ 19.4037056, 45.5187721 ], [ 19.4862118, 45.5240555 ], [ 19.5649033, 45.5799408 ], [ 19.6026001, 45.6511498 ], [ 19.7139282, 45.6157265 ], [ 19.7504501, 45.6408844 ], [ 19.7741394, 45.7307243 ], [ 19.8606052, 45.7559509 ], [ 19.9967213, 45.7745056 ], [ 20.0956554, 45.7578583 ], [ 20.0977821, 45.718914 ] ] ] ] } },
{ "type": "Feature", "properties": { "POLYGON_ID": "SRB_GAUL2007_ADM2_47629", "ADM0_ISO3": "SRB", "ADM0_NAME": "Serbia", "ADM0_CODE": 2648, "ADM1_NAME": "Juzno-banatski", "ADM1_CODE": 25376, "ADM2_NAME": "Administrative unit not available", "ADM2_CODE": 47629, "GEOSET": "GAUL", "GEOSET_YEAR": 2007.0, "GEOSET_VERSION": "GAUL_v1", "GEOSET_UNIT": "ADM2", "CENTROID_LONG": 20.985561035959144, "CENTROID_LAT": 45.006977814801715 }, "geometry": { "type": "MultiPolygon", "coordinates": [ [ [ [ 21.48235, 45.19176 ], [ 21.5266097, 45.1376899 ], [ 21.4788, 45.12237 ], [ 21.456, 45.04113 ], [ 21.35941, 45.02107 ], [ 21.40622, 44.97788 ], [ 21.5466497, 44.930598 ], [ 21.5597598, 44.88881 ], [ 21.48112, 44.86958 ], [ 21.36701, 44.86659 ], [ 21.356417, 44.8236845 ], [ 21.1930218, 44.7791557 ], [ 21.1619263, 44.7427788 ], [ 21.034977, 44.7208519 ], [ 20.9141884, 44.6736183 ], [ 20.8211956, 44.6613731 ], [ 20.7549706, 44.6714211 ], [ 20.6230335, 44.7721863 ], [ 20.6419544, 44.868042 ], [ 20.6152592, 44.9491539 ], [ 20.5613556, 44.9480515 ], [ 20.4316921, 45.0377464 ], [ 20.424139, 45.0941429 ], [ 20.4654293, 45.1502495 ], [ 20.6067524, 45.2286453 ], [ 20.6773033, 45.2233658 ], [ 20.713974, 45.1952057 ], [ 20.8347626, 45.2188911 ], [ 20.8461304, 45.2779312 ], [ 20.9397831, 45.3115921 ], [ 21.0638835, 45.3316706 ], [ 21.09616, 45.29602 ], [ 21.1760168, 45.3251477 ], [ 21.20245, 45.26488 ], [ 21.48235, 45.19176 ] ] ] ] } },
{ "type": "Feature", "properties": { "POLYGON_ID": "SRB_GAUL2007_ADM2_47630", "ADM0_ISO3": "SRB", "ADM0_NAME": "Serbia", "ADM0_CODE": 2648, "ADM1_NAME": "Kolubarski", "ADM1_CODE": 25377, "ADM2_NAME": "Administrative unit not available", "ADM2_CODE": 47630, "GEOSET": "GAUL", "GEOSET_YEAR": 2007.0, "GEOSET_VERSION": "GAUL_v1", "GEOSET_UNIT": "ADM2", "CENTROID_LONG": 19.931925812575749, "CENTROID_LAT": 44.313419695530733 }, "geometry": { "type": "MultiPolygon", "coordinates": [ [ [ [ 19.9964294, 44.5907478 ], [ 20.0004616, 44.5644188 ], [ 20.0735073, 44.5281906 ], [ 20.1709747, 44.526062 ], [ 20.2037563, 44.5685997 ], [ 20.255827, 44.4941597 ], [ 20.255827, 44.4362946 ], [ 20.2204056, 44.3518105 ], [ 20.2330189, 44.3069992 ], [ 20.2894897, 44.2760506 ], [ 20.3969307, 44.324894 ], [ 20.4272938, 44.2872734 ], [ 20.3964901, 44.2141533 ], [ 20.3102455, 44.1574631 ], [ 20.0856819, 44.117054 ], [ 20.0216579, 44.1298866 ], [ 19.9785347, 44.099453 ], [ 19.9132633, 44.1050262 ], [ 19.8619995, 44.1517448 ], [ 19.7880001, 44.0690155 ], [ 19.7356377, 44.1239471 ], [ 19.6159477, 44.1653099 ], [ 19.5277214, 44.2481842 ], [ 19.4334087, 44.2750244 ], [ 19.4602509, 44.3708038 ], [ 19.5810394, 44.4569778 ], [ 19.6879673, 44.4529457 ], [ 19.831564, 44.4071083 ], [ 19.8618526, 44.4612312 ], [ 19.8678665, 44.526062 ], [ 19.9003544, 44.5702858 ], [ 19.9964294, 44.5907478 ] ] ] ] } },
{ "type": "Feature", "properties": { "POLYGON_ID": "SRB_GAUL2007_ADM2_47631", "ADM0_ISO3": "SRB", "ADM0_NAME": "Serbia", "ADM0_CODE": 2648, "ADM1_NAME": "Kosovski", "ADM1_CODE": 25378, "ADM2_NAME": "Administrative unit not available", "ADM2_CODE": 47631, "GEOSET": "GAUL", "GEOSET_YEAR": 2007.0, "GEOSET_VERSION": "GAUL_v1", "GEOSET_UNIT": "ADM2", "CENTROID_LONG": 21.138592634219059, "CENTROID_LAT": 42.57150026686972 }, "geometry": { "type": "MultiPolygon", "coordinates": [ [ [ [ 21.4310055, 42.8596611 ], [ 21.4146519, 42.7399025 ], [ 21.5093308, 42.730587 ], [ 21.4801426, 42.6954575 ], [ 21.4275589, 42.6924515 ], [ 21.5024376, 42.5918312 ], [ 21.4516125, 42.57687 ], [ 21.4198589, 42.6194801 ], [ 21.3581791, 42.6199913 ], [ 21.2926159, 42.5441628 ], [ 21.3095551, 42.4958305 ], [ 21.2758217, 42.4437599 ], [ 21.2967949, 42.3699074 ], [ 21.2578526, 42.32341 ], [ 21.3005352, 42.2510262 ], [ 21.3770182, 42.233486 ], [ 21.29871, 42.1398 ], [ 21.3022213, 42.1132746 ], [ 21.2233418, 42.0946759 ], [ 21.21278, 42.1129651 ], [ 21.1661778, 42.1961013 ], [ 21.10462, 42.20575 ], [ 21.058422, 42.1764135 ], [ 20.9872362, 42.1422421 ], [ 20.9720516, 42.1722603 ], [ 20.8706245, 42.1980743 ], [ 20.8703308, 42.2263107 ], [ 20.9787998, 42.2930489 ], [ 20.9428635, 42.3732071 ], [ 20.9644241, 42.4119301 ], [ 20.8561764, 42.5060997 ], [ 20.8077736, 42.51754 ], [ 20.8167934, 42.5714417 ], [ 20.7700787, 42.617939 ], [ 20.7829857, 42.6666374 ], [ 20.9417629, 42.725235 ], [ 20.986866, 42.6862183 ], [ 21.0607185, 42.7118874 ], [ 21.091301, 42.8304024 ], [ 21.0661469, 42.8980179 ], [ 21.0848465, 42.9320488 ], [ 21.0615253, 42.9939461 ], [ 20.9896526, 43.0725632 ], [ 20.9695587, 43.1238289 ], [ 21.0515518, 43.0905342 ], [ 21.1296577, 43.0894318 ], [ 21.1693325, 42.9948998 ], [ 21.2225761, 43.0061951 ], [ 21.2396641, 42.9388695 ], [ 21.2758217, 42.893692 ], [ 21.3795204, 42.8599586 ], [ 21.4310055, 42.8596611 ] ] ] ] } },
{ "type": "Feature", "properties": { "POLYGON_ID": "SRB_GAUL2007_ADM2_47632", "ADM0_ISO3": "SRB", "ADM0_NAME": "Serbia", "ADM0_CODE": 2648, "ADM1_NAME": "Kosovsko-mitrovatski", "ADM1_CODE": 25379, "ADM2_NAME": "Administrative unit not available", "ADM2_CODE": 47632, "GEOSET": "GAUL", "GEOSET_YEAR": 2007.0, "GEOSET_VERSION": "GAUL_v1", "GEOSET_UNIT": "ADM2", "CENTROID_LONG": 20.819595870753538, "CENTROID_LAT": 42.935143716631117 }, "geometry": { "type": "MultiPolygon", "coordinates": [ [ [ [ 20.8177471, 43.2675743 ], [ 20.8849983, 43.2297287 ], [ 20.8486233, 43.1805916 ], [ 20.9183674, 43.1465645 ], [ 20.9695587, 43.1238289 ], [ 20.9896526, 43.0725632 ], [ 21.0615253, 42.9939461 ], [ 21.0848465, 42.9320488 ], [ 21.0661469, 42.8980179 ], [ 21.091301, 42.8304024 ], [ 21.0607185, 42.7118874 ], [ 20.986866, 42.6862183 ], [ 20.9417629, 42.725235 ], [ 20.7829857, 42.6666374 ], [ 20.7700787, 42.617939 ], [ 20.6969585, 42.6894455 ], [ 20.6229591, 42.7266998 ], [ 20.6508293, 42.7635155 ], [ 20.6517086, 42.8362694 ], [ 20.5834312, 42.8898048 ], [ 20.5194798, 42.8783646 ], [ 20.4685822, 42.9269142 ], [ 20.5150051, 42.9786186 ], [ 20.5496941, 42.9750252 ], [ 20.6566963, 43.0319366 ], [ 20.6899929, 43.1027794 ], [ 20.6144524, 43.1811066 ], [ 20.7891464, 43.2663994 ], [ 20.8177471, 43.2675743 ] ] ] ] } },
{ "type": "Feature", "properties": { "POLYGON_ID": "SRB_GAUL2007_ADM2_47633", "ADM0_ISO3": "SRB", "ADM0_NAME": "Serbia", "ADM0_CODE": 2648, "ADM1_NAME": "Kosovsko-pomoravski", "ADM1_CODE": 25380, "ADM2_NAME": "Administrative unit not available", "ADM2_CODE": 47633, "GEOSET": "GAUL", "GEOSET_YEAR": 2007.0, "GEOSET_VERSION": "GAUL_v1", "GEOSET_UNIT": "ADM2", "CENTROID_LONG": 21.497884151897175, "CENTROID_LAT": 42.484517195000151 }, "geometry": { "type": "MultiPolygon", "coordinates": [ [ [ [ 21.756115, 42.6931114 ], [ 21.7943974, 42.6494026 ], [ 21.7399063, 42.5982857 ], [ 21.7482681, 42.5569954 ], [ 21.6392136, 42.4538078 ], [ 21.6312199, 42.3812027 ], [ 21.537859, 42.348053 ], [ 21.5829389, 42.2600984 ], [ 21.52573, 42.241 ], [ 21.4556202, 42.2714233 ], [ 21.3770182, 42.233486 ], [ 21.3005352, 42.2510262 ], [ 21.2578526, 42.32341 ], [ 21.2967949, 42.3699074 ], [ 21.2758217, 42.4437599 ], [ 21.3095551, 42.4958305 ], [ 21.2926159, 42.5441628 ], [ 21.3581791, 42.6199913 ], [ 21.4198589, 42.6194801 ], [ 21.4516125, 42.57687 ], [ 21.5024376, 42.5918312 ], [ 21.4275589, 42.6924515 ], [ 21.4801426, 42.6954575 ], [ 21.5093308, 42.730587 ], [ 21.5757751, 42.7295609 ], [ 21.6553478, 42.6713295 ], [ 21.756115, 42.6931114 ] ] ] ] } },
{ "type": "Feature", "properties": { "POLYGON_ID": "SRB_GAUL2007_ADM2_47634", "ADM0_ISO3": "SRB", "ADM0_NAME": "Serbia", "ADM0_CODE": 2648, "ADM1_NAME": "Macvanski", "ADM1_CODE": 25381, "ADM2_NAME": "Administrative unit not available", "ADM2_CODE": 47634, "GEOSET": "GAUL", "GEOSET_YEAR": 2007.0, "GEOSET_VERSION": "GAUL_v1", "GEOSET_UNIT": "ADM2", "CENTROID_LONG": 19.513319165518368, "CENTROID_LAT": 44.567519867447636 }, "geometry": { "type": "MultiPolygon", "coordinates": [ [ [ [ 19.979414, 44.6372452 ], [ 19.9964294, 44.5907478 ], [ 19.9003544, 44.5702858 ], [ 19.8678665, 44.526062 ], [ 19.8618526, 44.4612312 ], [ 19.831564, 44.4071083 ], [ 19.6879673, 44.4529457 ], [ 19.5810394, 44.4569778 ], [ 19.4602509, 44.3708038 ], [ 19.4334087, 44.2750244 ], [ 19.5277214, 44.2481842 ], [ 19.6159477, 44.1653099 ], [ 19.4949448, 44.1037753 ], [ 19.35908, 44.18391 ], [ 19.32443, 44.27161 ], [ 19.2274266, 44.2649461 ], [ 19.16628, 44.28688 ], [ 19.10295, 44.3711 ], [ 19.14555, 44.41314 ], [ 19.12018, 44.50221 ], [ 19.17078, 44.52414 ], [ 19.1880245, 44.5774814 ], [ 19.22497, 44.59377 ], [ 19.2566, 44.65893 ], [ 19.32722, 44.72977 ], [ 19.37216, 44.87508 ], [ 19.3516599, 44.8901744 ], [ 19.4364147, 44.9319191 ], [ 19.5258141, 44.9391785 ], [ 19.6194687, 44.9141693 ], [ 19.6633244, 44.9402771 ], [ 19.759985, 44.9025116 ], [ 19.7091618, 44.825798 ], [ 19.7116547, 44.7674942 ], [ 19.8053074, 44.7438774 ], [ 19.9010887, 44.6972351 ], [ 20.0025158, 44.6905594 ], [ 19.979414, 44.6372452 ] ] ] ] } },
{ "type": "Feature", "properties": { "POLYGON_ID": "SRB_GAUL2007_ADM2_47635", "ADM0_ISO3": "SRB", "ADM0_NAME": "Serbia", "ADM0_CODE": 2648, "ADM1_NAME": "Moravicki", "ADM1_CODE": 25382, "ADM2_NAME": "Administrative unit not available", "ADM2_CODE": 47635, "GEOSET": "GAUL", "GEOSET_YEAR": 2007.0, "GEOSET_VERSION": "GAUL_v1", "GEOSET_UNIT": "ADM2", "CENTROID_LONG": 20.308615255480536, "CENTROID_LAT": 43.78539152031378 }, "geometry": { "type": "MultiPolygon", "coordinates": [ [ [ [ 20.6512699, 43.8789978 ], [ 20.4964504, 43.7617264 ], [ 20.4326477, 43.7360573 ], [ 20.4517879, 43.6765099 ], [ 20.3999386, 43.6685867 ], [ 20.3954639, 43.6092567 ], [ 20.3512402, 43.5604858 ], [ 20.4262657, 43.4631653 ], [ 20.4459209, 43.374279 ], [ 20.3393593, 43.2751999 ], [ 20.3020306, 43.2989616 ], [ 20.2677078, 43.3418655 ], [ 20.1530075, 43.3228683 ], [ 20.0506268, 43.4537773 ], [ 20.0338306, 43.5032082 ], [ 19.9660664, 43.5012283 ], [ 19.8957348, 43.5488243 ], [ 20.0721874, 43.6215782 ], [ 20.1244774, 43.668148 ], [ 20.1948833, 43.6616211 ], [ 20.1885757, 43.7097321 ], [ 20.1246243, 43.8356514 ], [ 20.1274109, 43.9572487 ], [ 20.0746803, 44.0047722 ], [ 20.0938225, 44.0408554 ], [ 20.0856819, 44.117054 ], [ 20.3102455, 44.1574631 ], [ 20.3964901, 44.2141533 ], [ 20.4272938, 44.2872734 ], [ 20.4679222, 44.2486954 ], [ 20.4718094, 44.205574 ], [ 20.5272541, 44.1687584 ], [ 20.6115208, 44.084343 ], [ 20.6612434, 44.0571365 ], [ 20.5660496, 43.9727211 ], [ 20.6512699, 43.8789978 ] ] ] ] } },
{ "type": "Feature", "properties": { "POLYGON_ID": "SRB_GAUL2007_ADM2_47636", "ADM0_ISO3": "SRB", "ADM0_NAME": "Serbia", "ADM0_CODE": 2648, "ADM1_NAME": "Nisavski", "ADM1_CODE": 25383, "ADM2_NAME": "Administrative unit not available", "ADM2_CODE": 47636, "GEOSET": "GAUL", "GEOSET_YEAR": 2007.0, "GEOSET_VERSION": "GAUL_v1", "GEOSET_UNIT": "ADM2", "CENTROID_LONG": 21.87421549980732, "CENTROID_LAT": 43.405532370627022 }, "geometry": { "type": "MultiPolygon", "coordinates": [ [ [ [ 22.3423843, 43.3718605 ], [ 22.2928791, 43.3182487 ], [ 22.1553707, 43.3413506 ], [ 22.1827984, 43.2687454 ], [ 22.1306553, 43.2043533 ], [ 22.271759, 43.1506691 ], [ 22.2933941, 43.104248 ], [ 22.2334766, 43.0694122 ], [ 22.1429024, 43.0620041 ], [ 22.0242405, 43.1445847 ], [ 21.9298534, 43.1296234 ], [ 21.8994923, 43.1673927 ], [ 21.8172054, 43.1430435 ], [ 21.7803898, 43.1893196 ], [ 21.7735691, 43.2496796 ], [ 21.729126, 43.2597237 ], [ 21.6557159, 43.2388954 ], [ 21.6110516, 43.2959557 ], [ 21.6044502, 43.3526459 ], [ 21.4818287, 43.3753815 ], [ 21.5801029, 43.4433632 ], [ 21.5608139, 43.4694748 ], [ 21.5779762, 43.5389252 ], [ 21.54776, 43.5945892 ], [ 21.4968624, 43.6006775 ], [ 21.4813156, 43.6984367 ], [ 21.4915829, 43.7655411 ], [ 21.5860424, 43.8051453 ], [ 21.6735363, 43.8125534 ], [ 21.7193718, 43.7768364 ], [ 21.6985435, 43.7067223 ], [ 21.723772, 43.6471748 ], [ 21.7712231, 43.5981827 ], [ 21.8686905, 43.574276 ], [ 21.8919373, 43.5069504 ], [ 21.9952717, 43.5142097 ], [ 22.1227341, 43.4897156 ], [ 22.1553707, 43.4632416 ], [ 22.220787, 43.4716759 ], [ 22.3542652, 43.4295044 ], [ 22.3423843, 43.3718605 ] ] ] ] } },
{ "type": "Feature", "properties": { "POLYGON_ID": "SRB_GAUL2007_ADM2_47637", "ADM0_ISO3": "SRB", "ADM0_NAME": "Serbia", "ADM0_CODE": 2648, "ADM1_NAME": "Pcinjski", "ADM1_CODE": 25384, "ADM2_NAME": "Administrative unit not available", "ADM2_CODE": 47637, "GEOSET": "GAUL", "GEOSET_YEAR": 2007.0, "GEOSET_VERSION": "GAUL_v1", "GEOSET_UNIT": "ADM2", "CENTROID_LONG": 22.078687757169238, "CENTROID_LAT": 42.532015099891559 }, "geometry": { "type": "MultiPolygon", "coordinates": [ [ [ [ 22.4394838, 42.8170624 ], [ 22.50052, 42.74297 ], [ 22.4664596, 42.6408187 ], [ 22.47033, 42.56093 ], [ 22.55155, 42.4912101 ], [ 22.53372, 42.42029 ], [ 22.461, 42.34089 ], [ 22.3599198, 42.3121728 ], [ 22.2693898, 42.3622402 ], [ 22.1425522, 42.3176598 ], [ 22.0640168, 42.2992649 ], [ 21.94432, 42.34463 ], [ 21.93102, 42.30954 ], [ 21.86104, 42.32313 ], [ 21.7854677, 42.2816093 ], [ 21.6915744, 42.238471 ], [ 21.5829389, 42.2600984 ], [ 21.537859, 42.348053 ], [ 21.6312199, 42.3812027 ], [ 21.6392136, 42.4538078 ], [ 21.7482681, 42.5569954 ], [ 21.7399063, 42.5982857 ], [ 21.7943974, 42.6494026 ], [ 21.756115, 42.6931114 ], [ 21.8232937, 42.7814827 ], [ 21.9567699, 42.7921181 ], [ 21.9905796, 42.8178597 ], [ 22.0972862, 42.7911644 ], [ 22.2103004, 42.7920456 ], [ 22.2244549, 42.7566223 ], [ 22.2857666, 42.7501678 ], [ 22.3821335, 42.8053207 ], [ 22.4394838, 42.8170624 ] ] ] ] } },
{ "type": "Feature", "properties": { "POLYGON_ID": "SRB_GAUL2007_ADM2_47638", "ADM0_ISO3": "SRB", "ADM0_NAME": "Serbia", "ADM0_CODE": 2648, "ADM1_NAME": "Pecki", "ADM1_CODE": 25385, "ADM2_NAME": "Administrative unit not available", "ADM2_CODE": 47638, "GEOSET": "GAUL", "GEOSET_YEAR": 2007.0, "GEOSET_VERSION": "GAUL_v1", "GEOSET_UNIT": "ADM2", "CENTROID_LONG": 20.404991134043293, "CENTROID_LAT": 42.600207306651157 }, "geometry": { "type": "MultiPolygon", "coordinates": [ [ [ [ 20.7700787, 42.617939 ], [ 20.8167934, 42.5714417 ], [ 20.8077736, 42.51754 ], [ 20.7523727, 42.4961548 ], [ 20.6392822, 42.5221062 ], [ 20.5431671, 42.511013 ], [ 20.5100193, 42.4633408 ], [ 20.5173531, 42.363308 ], [ 20.5928173, 42.3286934 ], [ 20.4818755, 42.250865 ], [ 20.3581509, 42.3089795 ], [ 20.24661, 42.32527 ], [ 20.2391098, 42.3505714 ], [ 20.2211, 42.43297 ], [ 20.16723, 42.50602 ], [ 20.0791267, 42.5553715 ], [ 20.07563, 42.62063 ], [ 20.1112063, 42.6548718 ], [ 19.9771441, 42.7059868 ], [ 19.9780136, 42.7067964 ], [ 19.98269, 42.73907 ], [ 20.0535143, 42.7782727 ], [ 20.20217, 42.75459 ], [ 20.25488, 42.81524 ], [ 20.3580527, 42.8323506 ], [ 20.4694633, 42.8516693 ], [ 20.5194798, 42.8783646 ], [ 20.5834312, 42.8898048 ], [ 20.6517086, 42.8362694 ], [ 20.6508293, 42.7635155 ], [ 20.6229591, 42.7266998 ], [ 20.6969585, 42.6894455 ], [ 20.7700787, 42.617939 ] ] ] ] } },
{ "type": "Feature", "properties": { "POLYGON_ID": "SRB_GAUL2007_ADM2_47639", "ADM0_ISO3": "SRB", "ADM0_NAME": "Serbia", "ADM0_CODE": 2648, "ADM1_NAME": "Pirotski", "ADM1_CODE": 25386, "ADM2_NAME": "Administrative unit not available", "ADM2_CODE": 47639, "GEOSET": "GAUL", "GEOSET_YEAR": 2007.0, "GEOSET_VERSION": "GAUL_v1", "GEOSET_UNIT": "ADM2", "CENTROID_LONG": 22.565179065294174, "CENTROID_LAT": 43.137902525134386 }, "geometry": { "type": "MultiPolygon", "coordinates": [ [ [ [ 22.7490081, 43.3852596 ], [ 22.8253735, 43.3313615 ], [ 22.8978696, 43.2249704 ], [ 22.98793, 43.19906 ], [ 22.98076, 43.11102 ], [ 22.91708, 43.08031 ], [ 22.8972855, 43.0382538 ], [ 22.8972786, 43.0382551 ], [ 22.78912, 42.98062 ], [ 22.7594663, 42.8989219 ], [ 22.69465, 42.87537 ], [ 22.58691, 42.8903 ], [ 22.518835, 42.8570442 ], [ 22.4240093, 42.8817368 ], [ 22.3754597, 42.9230995 ], [ 22.3836727, 42.9560318 ], [ 22.210228, 43.0106659 ], [ 22.2334766, 43.0694122 ], [ 22.2933941, 43.104248 ], [ 22.271759, 43.1506691 ], [ 22.1306553, 43.2043533 ], [ 22.1827984, 43.2687454 ], [ 22.1553707, 43.3413506 ], [ 22.2928791, 43.3182487 ], [ 22.3423843, 43.3718605 ], [ 22.4533443, 43.3357048 ], [ 22.5797806, 43.3343849 ], [ 22.6776849, 43.3947976 ], [ 22.7490081, 43.3852596 ] ] ] ] } },
{ "type": "Feature", "properties": { "POLYGON_ID": "SRB_GAUL2007_ADM2_47640", "ADM0_ISO3": "SRB", "ADM0_NAME": "Serbia", "ADM0_CODE": 2648, "ADM1_NAME": "Podunavski", "ADM1_CODE": 25387, "ADM2_NAME": "Administrative unit not available", "ADM2_CODE": 47640, "GEOSET": "GAUL", "GEOSET_YEAR": 2007.0, "GEOSET_VERSION": "GAUL_v1", "GEOSET_UNIT": "ADM2", "CENTROID_LONG": 20.976432040605943, "CENTROID_LAT": 44.461871855940487 }, "geometry": { "type": "MultiPolygon", "coordinates": [ [ [ [ 21.034977, 44.7208519 ], [ 21.0913734, 44.5939026 ], [ 21.130022, 44.5922127 ], [ 21.1416836, 44.4980469 ], [ 21.1721935, 44.4730377 ], [ 21.119463, 44.4130478 ], [ 21.1485786, 44.3125 ], [ 21.1508522, 44.2119522 ], [ 21.0624046, 44.2215614 ], [ 20.9999943, 44.25383 ], [ 20.9851055, 44.291378 ], [ 20.8976135, 44.2783241 ], [ 20.8371811, 44.2918205 ], [ 20.7814446, 44.3361168 ], [ 20.7917118, 44.3827591 ], [ 20.8458366, 44.4781723 ], [ 20.7584896, 44.5539322 ], [ 20.8103409, 44.5896454 ], [ 20.8211956, 44.6613731 ], [ 20.9141884, 44.6736183 ], [ 21.034977, 44.7208519 ] ] ] ] } },
{ "type": "Feature", "properties": { "POLYGON_ID": "SRB_GAUL2007_ADM2_47641", "ADM0_ISO3": "SRB", "ADM0_NAME": "Serbia", "ADM0_CODE": 2648, "ADM1_NAME": "Pomoravski", "ADM1_CODE": 25388, "ADM2_NAME": "Administrative unit not available", "ADM2_CODE": 47641, "GEOSET": "GAUL", "GEOSET_YEAR": 2007.0, "GEOSET_VERSION": "GAUL_v1", "GEOSET_UNIT": "ADM2", "CENTROID_LONG": 21.367766191014603, "CENTROID_LAT": 43.983489795193023 }, "geometry": { "type": "MultiPolygon", "coordinates": [ [ [ [ 21.8145657, 44.0766449 ], [ 21.7942505, 44.0291939 ], [ 21.7540627, 43.9178658 ], [ 21.7027988, 43.8998985 ], [ 21.6735363, 43.8125534 ], [ 21.5860424, 43.8051453 ], [ 21.4915829, 43.7655411 ], [ 21.423378, 43.7351074 ], [ 21.3625069, 43.7913551 ], [ 21.2200108, 43.7631226 ], [ 21.1339836, 43.7241783 ], [ 20.9483643, 43.7518997 ], [ 20.9377308, 43.8360214 ], [ 21.0077686, 43.8581696 ], [ 20.9956665, 43.8977699 ], [ 21.0790539, 43.9517479 ], [ 21.0689316, 43.986805 ], [ 21.1185093, 44.0494347 ], [ 21.1032543, 44.0817032 ], [ 21.1508522, 44.2119522 ], [ 21.1485786, 44.3125 ], [ 21.1963215, 44.3047981 ], [ 21.271347, 44.2556648 ], [ 21.3403587, 44.2787666 ], [ 21.3687401, 44.2095337 ], [ 21.4358444, 44.2220726 ], [ 21.5085239, 44.2116585 ], [ 21.5652885, 44.1537247 ], [ 21.7896309, 44.1015053 ], [ 21.8145657, 44.0766449 ] ] ] ] } },
{ "type": "Feature", "properties": { "POLYGON_ID": "SRB_GAUL2007_ADM2_47642", "ADM0_ISO3": "SRB", "ADM0_NAME": "Serbia", "ADM0_CODE": 2648, "ADM1_NAME": "Prizremski", "ADM1_CODE": 25389, "ADM2_NAME": "Administrative unit not available", "ADM2_CODE": 47642, "GEOSET": "GAUL", "GEOSET_YEAR": 2007.0, "GEOSET_VERSION": "GAUL_v1", "GEOSET_UNIT": "ADM2", "CENTROID_LONG": 20.720590151997616, "CENTROID_LAT": 42.244667756973364 }, "geometry": { "type": "MultiPolygon", "coordinates": [ [ [ [ 20.8077736, 42.51754 ], [ 20.8561764, 42.5060997 ], [ 20.9644241, 42.4119301 ], [ 20.9428635, 42.3732071 ], [ 20.9787998, 42.2930489 ], [ 20.8703308, 42.2263107 ], [ 20.8706245, 42.1980743 ], [ 20.9720516, 42.1722603 ], [ 20.9872362, 42.1422421 ], [ 20.9491277, 42.1375419 ], [ 20.88653, 42.09586 ], [ 20.79216, 42.08306 ], [ 20.74968, 42.0007029 ], [ 20.7606362, 41.9391533 ], [ 20.73517, 41.87703 ], [ 20.6844766, 41.8579001 ], [ 20.5935, 41.877 ], [ 20.5748353, 41.9168263 ], [ 20.62062, 41.94294 ], [ 20.5962377, 42.0245683 ], [ 20.5564826, 42.0856698 ], [ 20.5436359, 42.1670085 ], [ 20.5253504, 42.2072294 ], [ 20.4818755, 42.250865 ], [ 20.5928173, 42.3286934 ], [ 20.5173531, 42.363308 ], [ 20.5100193, 42.4633408 ], [ 20.5431671, 42.511013 ], [ 20.6392822, 42.5221062 ], [ 20.7523727, 42.4961548 ], [ 20.8077736, 42.51754 ] ] ] ] } },
{ "type": "Feature", "properties": { "POLYGON_ID": "SRB_GAUL2007_ADM2_47643", "ADM0_ISO3": "SRB", "ADM0_NAME": "Serbia", "ADM0_CODE": 2648, "ADM1_NAME": "Rasinski", "ADM1_CODE": 25390, "ADM2_NAME": "Administrative unit not available", "ADM2_CODE": 47643, "GEOSET": "GAUL", "GEOSET_YEAR": 2007.0, "GEOSET_VERSION": "GAUL_v1", "GEOSET_UNIT": "ADM2", "CENTROID_LONG": 21.167185680878575, "CENTROID_LAT": 43.507197169016187 }, "geometry": { "type": "MultiPolygon", "coordinates": [ [ [ [ 21.4915829, 43.7655411 ], [ 21.4813156, 43.6984367 ], [ 21.4968624, 43.6006775 ], [ 21.54776, 43.5945892 ], [ 21.5779762, 43.5389252 ], [ 21.5608139, 43.4694748 ], [ 21.5801029, 43.4433632 ], [ 21.4818287, 43.3753815 ], [ 21.3404312, 43.3948135 ], [ 21.2340183, 43.3661385 ], [ 21.1568642, 43.2553253 ], [ 21.0882931, 43.2444725 ], [ 20.9980869, 43.2672806 ], [ 20.9763794, 43.2050133 ], [ 20.9183674, 43.1465645 ], [ 20.8486233, 43.1805916 ], [ 20.8849983, 43.2297287 ], [ 20.8177471, 43.2675743 ], [ 20.8486977, 43.341423 ], [ 20.8440762, 43.4014893 ], [ 20.7799778, 43.4207764 ], [ 20.7997055, 43.4652214 ], [ 20.7812252, 43.5302696 ], [ 20.8885193, 43.5123787 ], [ 20.9438171, 43.5216904 ], [ 20.9155808, 43.5887222 ], [ 20.9515171, 43.6172524 ], [ 20.9020138, 43.6586151 ], [ 20.9483643, 43.7518997 ], [ 21.1339836, 43.7241783 ], [ 21.2200108, 43.7631226 ], [ 21.3625069, 43.7913551 ], [ 21.423378, 43.7351074 ], [ 21.4915829, 43.7655411 ] ] ] ] } },
{ "type": "Feature", "properties": { "POLYGON_ID": "SRB_GAUL2007_ADM2_47644", "ADM0_ISO3": "SRB", "ADM0_NAME": "Serbia", "ADM0_CODE": 2648, "ADM1_NAME": "Raski", "ADM1_CODE": 25391, "ADM2_NAME": "Administrative unit not available", "ADM2_CODE": 47644, "GEOSET": "GAUL", "GEOSET_YEAR": 2007.0, "GEOSET_VERSION": "GAUL_v1", "GEOSET_UNIT": "ADM2", "CENTROID_LONG": 20.560341377984614, "CENTROID_LAT": 43.374693494395657 }, "geometry": { "type": "MultiPolygon", "coordinates": [ [ [ [ 20.9377308, 43.8360214 ], [ 20.9483643, 43.7518997 ], [ 20.9020138, 43.6586151 ], [ 20.9515171, 43.6172524 ], [ 20.9155808, 43.5887222 ], [ 20.9438171, 43.5216904 ], [ 20.8885193, 43.5123787 ], [ 20.7812252, 43.5302696 ], [ 20.7997055, 43.4652214 ], [ 20.7799778, 43.4207764 ], [ 20.8440762, 43.4014893 ], [ 20.8486977, 43.341423 ], [ 20.8177471, 43.2675743 ], [ 20.7891464, 43.2663994 ], [ 20.6144524, 43.1811066 ], [ 20.6899929, 43.1027794 ], [ 20.6566963, 43.0319366 ], [ 20.5496941, 42.9750252 ], [ 20.5150051, 42.9786186 ], [ 20.4685822, 42.9269142 ], [ 20.5194798, 42.8783646 ], [ 20.4694633, 42.8516693 ], [ 20.3580527, 42.8323506 ], [ 20.34982, 42.89655 ], [ 20.1704, 42.97226 ], [ 20.1220672, 42.9633844 ], [ 20.0368193, 42.9899328 ], [ 20.0900327, 43.0201609 ], [ 20.1268978, 43.0806313 ], [ 20.2091103, 43.1370316 ], [ 20.2910309, 43.1591034 ], [ 20.2447529, 43.2158699 ], [ 20.3020306, 43.2989616 ], [ 20.3393593, 43.2751999 ], [ 20.4459209, 43.374279 ], [ 20.4262657, 43.4631653 ], [ 20.3512402, 43.5604858 ], [ 20.3954639, 43.6092567 ], [ 20.3999386, 43.6685867 ], [ 20.4517879, 43.6765099 ], [ 20.4326477, 43.7360573 ], [ 20.4964504, 43.7617264 ], [ 20.6512699, 43.8789978 ], [ 20.7230682, 43.8131371 ], [ 20.7848911, 43.8479004 ], [ 20.9215221, 43.8576546 ], [ 20.9377308, 43.8360214 ] ] ] ] } },
{ "type": "Feature", "properties": { "POLYGON_ID": "SRB_GAUL2007_ADM2_47645", "ADM0_ISO3": "SRB", "ADM0_NAME": "Serbia", "ADM0_CODE": 2648, "ADM1_NAME": "Severno-backi", "ADM1_CODE": 25392, "ADM2_NAME": "Administrative unit not available", "ADM2_CODE": 47645, "GEOSET": "GAUL", "GEOSET_YEAR": 2007.0, "GEOSET_VERSION": "GAUL_v1", "GEOSET_UNIT": "ADM2", "CENTROID_LONG": 19.612853380476185, "CENTROID_LAT": 45.926410131590238 }, "geometry": { "type": "MultiPolygon", "coordinates": [ [ [ [ 19.7065189, 46.1822011 ], [ 19.82112, 46.13026 ], [ 19.9017579, 46.1609143 ], [ 19.8603115, 46.0437317 ], [ 19.8108826, 45.9768486 ], [ 19.7983418, 45.9214745 ], [ 19.8270168, 45.8726349 ], [ 19.8160896, 45.8168945 ], [ 19.8606052, 45.7559509 ], [ 19.7741394, 45.7307243 ], [ 19.7504501, 45.6408844 ], [ 19.7139282, 45.6157265 ], [ 19.6026001, 45.6511498 ], [ 19.5747318, 45.7079124 ], [ 19.5801582, 45.7629166 ], [ 19.4856987, 45.7392311 ], [ 19.4359016, 45.7602043 ], [ 19.3465023, 45.8339119 ], [ 19.3253078, 45.9085693 ], [ 19.3489227, 45.9310837 ], [ 19.29898, 45.98944 ], [ 19.2816, 46.01429 ], [ 19.36408, 46.0521 ], [ 19.41564, 46.04558 ], [ 19.46816, 46.09572 ], [ 19.52691, 46.12112 ], [ 19.5678, 46.17824 ], [ 19.7065189, 46.1822011 ] ] ] ] } },
{ "type": "Feature", "properties": { "POLYGON_ID": "SRB_GAUL2007_ADM2_47646", "ADM0_ISO3": "SRB", "ADM0_NAME": "Serbia", "ADM0_CODE": 2648, "ADM1_NAME": "Severno-banatski", "ADM1_CODE": 25393, "ADM2_NAME": "Administrative unit not available", "ADM2_CODE": 47646, "GEOSET": "GAUL", "GEOSET_YEAR": 2007.0, "GEOSET_VERSION": "GAUL_v1", "GEOSET_UNIT": "ADM2", "CENTROID_LONG": 20.193417881936092, "CENTROID_LAT": 45.908128753577785 }, "geometry": { "type": "MultiPolygon", "coordinates": [ [ [ [ 20.2673, 46.1171 ], [ 20.3574, 46.00497 ], [ 20.40449, 45.96469 ], [ 20.48364, 45.95291 ], [ 20.51577, 45.89211 ], [ 20.66013, 45.82919 ], [ 20.6812284, 45.7972775 ], [ 20.6366749, 45.708355 ], [ 20.5375214, 45.6923676 ], [ 20.5317993, 45.6144829 ], [ 20.4188595, 45.6059723 ], [ 20.3647347, 45.6326675 ], [ 20.4298592, 45.6935387 ], [ 20.3817501, 45.7739906 ], [ 20.298584, 45.7918854 ], [ 20.1466999, 45.7716446 ], [ 20.1633472, 45.7372513 ], [ 20.0977821, 45.718914 ], [ 20.0956554, 45.7578583 ], [ 19.9967213, 45.7745056 ], [ 19.8606052, 45.7559509 ], [ 19.8160896, 45.8168945 ], [ 19.8270168, 45.8726349 ], [ 19.7983418, 45.9214745 ], [ 19.8108826, 45.9768486 ], [ 19.8603115, 46.0437317 ], [ 19.9017579, 46.1609143 ], [ 20.09416, 46.17598 ], [ 20.17952, 46.15729 ], [ 20.2673, 46.1171 ] ] ] ] } },
{ "type": "Feature", "properties": { "POLYGON_ID": "SRB_GAUL2007_ADM2_47647", "ADM0_ISO3": "SRB", "ADM0_NAME": "Serbia", "ADM0_CODE": 2648, "ADM1_NAME": "Srednje-banatski", "ADM1_CODE": 25394, "ADM2_NAME": "Administrative unit not available", "ADM2_CODE": 47647, "GEOSET": "GAUL", "GEOSET_YEAR": 2007.0, "GEOSET_VERSION": "GAUL_v1", "GEOSET_UNIT": "ADM2", "CENTROID_LONG": 20.505099275947693, "CENTROID_LAT": 45.460343557537108 }, "geometry": { "type": "MultiPolygon", "coordinates": [ [ [ [ 21.0638835, 45.3316706 ], [ 20.9397831, 45.3115921 ], [ 20.8461304, 45.2779312 ], [ 20.8347626, 45.2188911 ], [ 20.713974, 45.1952057 ], [ 20.6773033, 45.2233658 ], [ 20.6067524, 45.2286453 ], [ 20.4654293, 45.1502495 ], [ 20.424139, 45.0941429 ], [ 20.3144245, 45.0936317 ], [ 20.2769489, 45.1388817 ], [ 20.3205853, 45.2133179 ], [ 20.2955761, 45.2611351 ], [ 20.2463665, 45.2883453 ], [ 20.2641888, 45.3436432 ], [ 20.2141705, 45.3699684 ], [ 20.2241459, 45.447197 ], [ 20.0678616, 45.5562515 ], [ 20.1202984, 45.5974655 ], [ 20.0808411, 45.6188812 ], [ 20.1119366, 45.6691933 ], [ 20.0977821, 45.718914 ], [ 20.1633472, 45.7372513 ], [ 20.1466999, 45.7716446 ], [ 20.298584, 45.7918854 ], [ 20.3817501, 45.7739906 ], [ 20.4298592, 45.6935387 ], [ 20.3647347, 45.6326675 ], [ 20.4188595, 45.6059723 ], [ 20.5317993, 45.6144829 ], [ 20.5375214, 45.6923676 ], [ 20.6366749, 45.708355 ], [ 20.6812284, 45.7972775 ], [ 20.70054, 45.75007 ], [ 20.80291, 45.7381 ], [ 20.8065792, 45.6577094 ], [ 20.76608, 45.61216 ], [ 20.8329298, 45.5358399 ], [ 20.76878, 45.49986 ], [ 20.86796, 45.46376 ], [ 20.9506896, 45.3731331 ], [ 21.0638835, 45.3316706 ] ] ] ] } },
{ "type": "Feature", "properties": { "POLYGON_ID": "SRB_GAUL2007_ADM2_47648", "ADM0_ISO3": "SRB", "ADM0_NAME": "Serbia", "ADM0_CODE": 2648, "ADM1_NAME": "Sremski", "ADM1_CODE": 25395, "ADM2_NAME": "Administrative unit not available", "ADM2_CODE": 47648, "GEOSET": "GAUL", "GEOSET_YEAR": 2007.0, "GEOSET_VERSION": "GAUL_v1", "GEOSET_UNIT": "ADM2", "CENTROID_LONG": 19.761461946620511, "CENTROID_LAT": 44.985588869597322 }, "geometry": { "type": "MultiPolygon", "coordinates": [ [ [ [ 19.4324832, 45.1689054 ], [ 19.6798992, 45.1427689 ], [ 19.7648258, 45.1553802 ], [ 19.9164162, 45.1414452 ], [ 20.01161, 45.1694603 ], [ 20.1630535, 45.185524 ], [ 20.2769489, 45.1388817 ], [ 20.3144245, 45.0936317 ], [ 20.3572559, 45.0208054 ], [ 20.29389, 44.9844284 ], [ 20.2853088, 44.9275169 ], [ 20.236393, 44.9241447 ], [ 20.1711216, 44.8780899 ], [ 20.1153107, 44.7691803 ], [ 20.1271915, 44.7133713 ], [ 20.0452728, 44.6835938 ], [ 19.979414, 44.6372452 ], [ 20.0025158, 44.6905594 ], [ 19.9010887, 44.6972351 ], [ 19.8053074, 44.7438774 ], [ 19.7116547, 44.7674942 ], [ 19.7091618, 44.825798 ], [ 19.759985, 44.9025116 ], [ 19.6633244, 44.9402771 ], [ 19.6194687, 44.9141693 ], [ 19.5258141, 44.9391785 ], [ 19.4364147, 44.9319191 ], [ 19.3516599, 44.8901744 ], [ 19.17198, 44.92119 ], [ 19.06107, 44.8605 ], [ 19.0164096, 44.85792 ], [ 19.13952, 44.94019 ], [ 19.09213, 44.97135 ], [ 19.10569, 45.07898 ], [ 19.1881, 45.16692 ], [ 19.4324832, 45.1689054 ] ] ] ] } },
{ "type": "Feature", "properties": { "POLYGON_ID": "SRB_GAUL2007_ADM2_47649", "ADM0_ISO3": "SRB", "ADM0_NAME": "Serbia", "ADM0_CODE": 2648, "ADM1_NAME": "Sumadijski", "ADM1_CODE": 25396, "ADM2_NAME": "Administrative unit not available", "ADM2_CODE": 47649, "GEOSET": "GAUL", "GEOSET_YEAR": 2007.0, "GEOSET_VERSION": "GAUL_v1", "GEOSET_UNIT": "ADM2", "CENTROID_LONG": 20.784587023912316, "CENTROID_LAT": 44.122594127999569 }, "geometry": { "type": "MultiPolygon", "coordinates": [ [ [ [ 20.7814446, 44.3361168 ], [ 20.8371811, 44.2918205 ], [ 20.8976135, 44.2783241 ], [ 20.9851055, 44.291378 ], [ 20.9999943, 44.25383 ], [ 21.0624046, 44.2215614 ], [ 21.1508522, 44.2119522 ], [ 21.1032543, 44.0817032 ], [ 21.1185093, 44.0494347 ], [ 21.0689316, 43.986805 ], [ 21.0790539, 43.9517479 ], [ 20.9956665, 43.8977699 ], [ 21.0077686, 43.8581696 ], [ 20.9377308, 43.8360214 ], [ 20.9215221, 43.8576546 ], [ 20.7848911, 43.8479004 ], [ 20.7230682, 43.8131371 ], [ 20.6512699, 43.8789978 ], [ 20.5660496, 43.9727211 ], [ 20.6612434, 44.0571365 ], [ 20.6115208, 44.084343 ], [ 20.5272541, 44.1687584 ], [ 20.4718094, 44.205574 ], [ 20.4679222, 44.2486954 ], [ 20.4272938, 44.2872734 ], [ 20.3969307, 44.324894 ], [ 20.4855976, 44.4323349 ], [ 20.6168728, 44.4058609 ], [ 20.6731968, 44.3622971 ], [ 20.7814446, 44.3361168 ] ] ] ] } },
{ "type": "Feature", "properties": { "POLYGON_ID": "SRB_GAUL2007_ADM2_47650", "ADM0_ISO3": "SRB", "ADM0_NAME": "Serbia", "ADM0_CODE": 2648, "ADM1_NAME": "Toplicki", "ADM1_CODE": 25397, "ADM2_NAME": "Administrative unit not available", "ADM2_CODE": 47650, "GEOSET": "GAUL", "GEOSET_YEAR": 2007.0, "GEOSET_VERSION": "GAUL_v1", "GEOSET_UNIT": "ADM2", "CENTROID_LONG": 21.380869405085512, "CENTROID_LAT": 43.154969275770291 }, "geometry": { "type": "MultiPolygon", "coordinates": [ [ [ [ 21.4818287, 43.3753815 ], [ 21.6044502, 43.3526459 ], [ 21.6110516, 43.2959557 ], [ 21.6557159, 43.2388954 ], [ 21.729126, 43.2597237 ], [ 21.7735691, 43.2496796 ], [ 21.7803898, 43.1893196 ], [ 21.8172054, 43.1430435 ], [ 21.7831764, 43.1076927 ], [ 21.6701622, 43.0628853 ], [ 21.5482006, 43.0327415 ], [ 21.4586544, 42.9877129 ], [ 21.4813156, 42.9420204 ], [ 21.4310055, 42.8596611 ], [ 21.3795204, 42.8599586 ], [ 21.2758217, 42.893692 ], [ 21.2396641, 42.9388695 ], [ 21.2225761, 43.0061951 ], [ 21.1693325, 42.9948998 ], [ 21.1296577, 43.0894318 ], [ 21.0515518, 43.0905342 ], [ 20.9695587, 43.1238289 ], [ 20.9183674, 43.1465645 ], [ 20.9763794, 43.2050133 ], [ 20.9980869, 43.2672806 ], [ 21.0882931, 43.2444725 ], [ 21.1568642, 43.2553253 ], [ 21.2340183, 43.3661385 ], [ 21.3404312, 43.3948135 ], [ 21.4818287, 43.3753815 ] ] ] ] } },
{ "type": "Feature", "properties": { "POLYGON_ID": "SRB_GAUL2007_ADM2_47651", "ADM0_ISO3": "SRB", "ADM0_NAME": "Serbia", "ADM0_CODE": 2648, "ADM1_NAME": "Zajecarski", "ADM1_CODE": 25398, "ADM2_NAME": "Administrative unit not available", "ADM2_CODE": 47651, "GEOSET": "GAUL", "GEOSET_YEAR": 2007.0, "GEOSET_VERSION": "GAUL_v1", "GEOSET_UNIT": "ADM2", "CENTROID_LONG": 22.153355880018538, "CENTROID_LAT": 43.731975865808039 }, "geometry": { "type": "MultiPolygon", "coordinates": [ [ [ [ 22.5313074, 44.0481228 ], [ 22.40853, 44.00528 ], [ 22.3922794, 43.9301832 ], [ 22.3721271, 43.8357317 ], [ 22.4212895, 43.6836586 ], [ 22.48146, 43.65421 ], [ 22.4899991, 43.556123 ], [ 22.53489, 43.47041 ], [ 22.586358, 43.4532221 ], [ 22.65849, 43.42691 ], [ 22.6776849, 43.3947976 ], [ 22.5797806, 43.3343849 ], [ 22.4533443, 43.3357048 ], [ 22.3423843, 43.3718605 ], [ 22.3542652, 43.4295044 ], [ 22.220787, 43.4716759 ], [ 22.1553707, 43.4632416 ], [ 22.1227341, 43.4897156 ], [ 21.9952717, 43.5142097 ], [ 21.8919373, 43.5069504 ], [ 21.8686905, 43.574276 ], [ 21.7712231, 43.5981827 ], [ 21.723772, 43.6471748 ], [ 21.6985435, 43.7067223 ], [ 21.7193718, 43.7768364 ], [ 21.6735363, 43.8125534 ], [ 21.7027988, 43.8998985 ], [ 21.7540627, 43.9178658 ], [ 21.7942505, 44.0291939 ], [ 21.9038925, 44.0096855 ], [ 21.9383602, 43.9787369 ], [ 22.0817375, 43.9235115 ], [ 22.1846313, 43.9257851 ], [ 22.2380962, 44.0606575 ], [ 22.2142601, 44.1394234 ], [ 22.2902393, 44.1748428 ], [ 22.4060421, 44.1298866 ], [ 22.4922886, 44.1169052 ], [ 22.4723396, 44.0566216 ], [ 22.5313074, 44.0481228 ] ] ] ] } },
{ "type": "Feature", "properties": { "POLYGON_ID": "SRB_GAUL2007_ADM2_47652", "ADM0_ISO3": "SRB", "ADM0_NAME": "Serbia", "ADM0_CODE": 2648, "ADM1_NAME": "Zapadno-backi", "ADM1_CODE": 25399, "ADM2_NAME": "Administrative unit not available", "ADM2_CODE": 47652, "GEOSET": "GAUL", "GEOSET_YEAR": 2007.0, "GEOSET_VERSION": "GAUL_v1", "GEOSET_UNIT": "ADM2", "CENTROID_LONG": 19.211930232038508, "CENTROID_LAT": 45.708664448993318 }, "geometry": { "type": "MultiPolygon", "coordinates": [ [ [ [ 19.29898, 45.98944 ], [ 19.3489227, 45.9310837 ], [ 19.3253078, 45.9085693 ], [ 19.3465023, 45.8339119 ], [ 19.4359016, 45.7602043 ], [ 19.4856987, 45.7392311 ], [ 19.5801582, 45.7629166 ], [ 19.5747318, 45.7079124 ], [ 19.6026001, 45.6511498 ], [ 19.5649033, 45.5799408 ], [ 19.4862118, 45.5240555 ], [ 19.4037056, 45.5187721 ], [ 19.3652763, 45.4207191 ], [ 19.2778568, 45.434288 ], [ 19.1001587, 45.437809 ], [ 19.0260943, 45.4894543 ], [ 19.08607, 45.52625 ], [ 19.00351, 45.55608 ], [ 18.96365, 45.53417 ], [ 18.89846, 45.58059 ], [ 18.96822, 45.64812 ], [ 18.97618, 45.74808 ], [ 18.90869, 45.74438 ], [ 18.88988, 45.92089 ], [ 18.96195, 45.92552 ], [ 19.10464, 46.03987 ], [ 19.14733, 45.99618 ], [ 19.29898, 45.98944 ] ] ] ] } },
{ "type": "Feature", "properties": { "POLYGON_ID": "SRB_GAUL2007_ADM2_47653", "ADM0_ISO3": "SRB", "ADM0_NAME": "Serbia", "ADM0_CODE": 2648, "ADM1_NAME": "Zlatiborski", "ADM1_CODE": 25400, "ADM2_NAME": "Administrative unit not available", "ADM2_CODE": 47653, "GEOSET": "GAUL", "GEOSET_YEAR": 2007.0, "GEOSET_VERSION": "GAUL_v1", "GEOSET_UNIT": "ADM2", "CENTROID_LONG": 19.7865918152158, "CENTROID_LAT": 43.607301363150235 }, "geometry": { "type": "MultiPolygon", "coordinates": [ [ [ [ 20.0856819, 44.117054 ], [ 20.0938225, 44.0408554 ], [ 20.0746803, 44.0047722 ], [ 20.1274109, 43.9572487 ], [ 20.1246243, 43.8356514 ], [ 20.1885757, 43.7097321 ], [ 20.1948833, 43.6616211 ], [ 20.1244774, 43.668148 ], [ 20.0721874, 43.6215782 ], [ 19.8957348, 43.5488243 ], [ 19.9660664, 43.5012283 ], [ 20.0338306, 43.5032082 ], [ 20.0506268, 43.4537773 ], [ 20.1530075, 43.3228683 ], [ 20.2677078, 43.3418655 ], [ 20.3020306, 43.2989616 ], [ 20.2447529, 43.2158699 ], [ 20.2910309, 43.1591034 ], [ 20.2091103, 43.1370316 ], [ 20.1268978, 43.0806313 ], [ 20.0900327, 43.0201609 ], [ 20.0368193, 42.9899328 ], [ 20.04811, 43.02223 ], [ 19.96664, 43.07964 ], [ 19.84884, 43.1001 ], [ 19.77593, 43.15977 ], [ 19.63453, 43.17196 ], [ 19.57835, 43.24355 ], [ 19.5356099, 43.2516732 ], [ 19.50755, 43.3206 ], [ 19.44722, 43.38613 ], [ 19.2443364, 43.4696534 ], [ 19.2327562, 43.5261201 ], [ 19.24973, 43.58678 ], [ 19.2869594, 43.5960762 ], [ 19.35642, 43.60521 ], [ 19.50074, 43.56875 ], [ 19.48721, 43.63159 ], [ 19.5062983, 43.7181905 ], [ 19.39006, 43.81071 ], [ 19.2523413, 43.9531587 ], [ 19.2349, 44.01029 ], [ 19.38798, 43.96035 ], [ 19.52532, 43.95572 ], [ 19.6144184, 44.0379411 ], [ 19.5971796, 44.0699501 ], [ 19.4949448, 44.1037753 ], [ 19.6159477, 44.1653099 ], [ 19.7356377, 44.1239471 ], [ 19.7880001, 44.0690155 ], [ 19.8619995, 44.1517448 ], [ 19.9132633, 44.1050262 ], [ 19.9785347, 44.099453 ], [ 20.0216579, 44.1298866 ], [ 20.0856819, 44.117054 ] ] ] ] } }
]
}
