{
"type": "FeatureCollection",
"name": "STP_GAUL1997_ADM1",
"crs": { "type": "name", "properties": { "name": "urn:ogc:def:crs:OGC:1.3:CRS84" } },
"features": [
{ "type": "Feature", "properties": { "POLYGON_ID": "STP_GAUL1997_ADM1_2620", "ADM0_ISO3": "STP", "ADM0_NAME": "Sao Tome and Principe", "ADM0_CODE": 214, "ADM1_NAME": "Principe", "ADM1_CODE": 2620, "GEOSET": "GAUL", "GEOSET_YEAR": 1997.0, "GEOSET_VERSION": "GAUL_v1", "GEOSET_UNIT": "ADM1", "CENTROID_LONG": 7.3958416994527951, "CENTROID_LAT": 1.6167470704222089 }, "geometry": { "type": "MultiPolygon", "coordinates": [ [ [ [ 7.4042954, 1.691208 ], [ 7.4434853, 1.6899511 ], [ 7.4417312, 1.6404617 ], [ 7.4247558, 1.564928 ], [ 7.3826466, 1.5362862 ], [ 7.3413093, 1.5662569 ], [ 7.3358615, 1.59321 ], [ 7.3690102, 1.6166911 ], [ 7.3681899, 1.6803526 ], [ 7.4042954, 1.691208 ] ] ] ] } },
{ "type": "Feature", "properties": { "POLYGON_ID": "STP_GAUL1997_ADM1_2621", "ADM0_ISO3": "STP", "ADM0_NAME": "Sao Tome and Principe", "ADM0_CODE": 214, "ADM1_NAME": "Sao Tome", "ADM1_CODE": 2621, "GEOSET": "GAUL", "GEOSET_YEAR": 1997.0, "GEOSET_VERSION": "GAUL_v1", "GEOSET_UNIT": "ADM1", "CENTROID_LONG": 6.6018055032669993, "CENTROID_LAT": 0.24252707566080589 }, "geometry": { "type": "MultiPolygon", "coordinates": [ [ [ [ 6.6641521, 0.4123415 ], [ 6.6889784, 0.4046198 ], [ 6.7511953, 0.2885664 ], [ 6.748376, 0.2406645 ], [ 6.7053574, 0.2007377 ], [ 6.6586087, 0.1382297 ], [ 6.6532566, 0.1095526 ], [ 6.5981873, 0.077673 ], [ 6.5679917, 0.0830812 ], [ 6.5356355, 0.0416218 ], [ 6.5119512, 0.1075499 ], [ 6.4786836, 0.1456716 ], [ 6.464985, 0.2105839 ], [ 6.4667665, 0.263391 ], [ 6.4924704, 0.3185227 ], [ 6.5607818, 0.3585975 ], [ 6.6088773, 0.406915 ], [ 6.6641521, 0.4123415 ] ] ] ] } }
]
}
