{
"type": "FeatureCollection",
"name": "STP_GAUL2013_ADM0",
"crs": { "type": "name", "properties": { "name": "urn:ogc:def:crs:OGC:1.3:CRS84" } },
"features": [
{ "type": "Feature", "properties": { "POLYGON_ID": "STP_GAUL2013_ADM0_214", "ADM0_ISO3": "STP", "ADM0_NAME": "Sao Tome and Principe", "ADM0_CODE": 214, "GEOSET": "GAUL", "GEOSET_YEAR": 2013.0, "GEOSET_VERSION": "GAUL_v1", "GEOSET_UNIT": "ADM0", "CENTROID_LONG": 6.7137645182903718, "CENTROID_LAT": 0.43299791799310045 }, "geometry": { "type": "MultiPolygon", "coordinates": [ [ [ [ 7.4042954, 1.691208 ], [ 7.4434853, 1.6899511 ], [ 7.4506694, 1.6743626 ], [ 7.4417312, 1.6404617 ], [ 7.4618489, 1.6250122 ], [ 7.4242152, 1.6023012 ], [ 7.4247558, 1.564928 ], [ 7.3826466, 1.5362862 ], [ 7.3413093, 1.5662569 ], [ 7.3358615, 1.59321 ], [ 7.3690102, 1.6166911 ], [ 7.3681899, 1.6803526 ], [ 7.4042954, 1.691208 ] ] ], [ [ [ 6.6641521, 0.4123415 ], [ 6.6889784, 0.4046198 ], [ 6.7260869, 0.3419704 ], [ 6.7406651, 0.3427591 ], [ 6.7511953, 0.2885664 ], [ 6.748376, 0.2406645 ], [ 6.7205907, 0.2044862 ], [ 6.7053574, 0.2007377 ], [ 6.6586087, 0.1382297 ], [ 6.6532566, 0.1095526 ], [ 6.5981873, 0.077673 ], [ 6.5679917, 0.0830812 ], [ 6.5568181, 0.0394113 ], [ 6.5356355, 0.0416218 ], [ 6.5124582, 0.0221853 ], [ 6.5180944, 0.0774107 ], [ 6.5119512, 0.1075499 ], [ 6.4786836, 0.1456716 ], [ 6.4785516, 0.1745225 ], [ 6.464985, 0.2105839 ], [ 6.4667665, 0.263391 ], [ 6.4807104, 0.2718947 ], [ 6.4924704, 0.3185227 ], [ 6.5461955, 0.3607839 ], [ 6.5607818, 0.3585975 ], [ 6.6088773, 0.406915 ], [ 6.6641521, 0.4123415 ] ] ] ] } }
]
}
