{
"type": "FeatureCollection",
"name": "SUR_GAUL1994_ADM1",
"crs": { "type": "name", "properties": { "name": "urn:ogc:def:crs:OGC:1.3:CRS84" } },
"features": [
{ "type": "Feature", "properties": { "POLYGON_ID": "SUR_GAUL1994_ADM1_2771", "ADM0_ISO3": "SUR", "ADM0_NAME": "Suriname", "ADM0_CODE": 233, "ADM1_NAME": "Brokopondo", "ADM1_CODE": 2771, "GEOSET": "GAUL", "GEOSET_YEAR": 1994.0, "GEOSET_VERSION": "GAUL_v1", "GEOSET_UNIT": "ADM1", "CENTROID_LONG": -55.114596367743211, "CENTROID_LAT": 4.7672946392550788 }, "geometry": { "type": "MultiPolygon", "coordinates": [ [ [ [ -54.8517723, 5.0001917 ], [ -54.7641945, 4.9679627 ], [ -54.725708, 4.9019947 ], [ -54.7540474, 4.8818212 ], [ -54.7776833, 4.8268547 ], [ -54.7795906, 4.7896271 ], [ -54.7998161, 4.7568355 ], [ -54.7955856, 4.7214937 ], [ -54.8364487, 4.6956444 ], [ -54.8179817, 4.5850282 ], [ -54.8605652, 4.498961 ], [ -54.8977089, 4.4771404 ], [ -54.8955765, 4.3502102 ], [ -54.8832664, 4.289124 ], [ -54.8852386, 4.218493 ], [ -54.9205246, 4.2095943 ], [ -54.9627647, 4.1732273 ], [ -54.9959946, 4.2099772 ], [ -55.0395241, 4.1924229 ], [ -55.0556068, 4.1399026 ], [ -55.1110039, 4.1483178 ], [ -55.1575012, 4.1189132 ], [ -55.2260895, 4.0587769 ], [ -55.285984, 4.0345936 ], [ -55.3021698, 4.0739064 ], [ -55.3223648, 4.1852255 ], [ -55.2947731, 4.2443137 ], [ -55.3135414, 4.2819657 ], [ -55.2779694, 4.3072071 ], [ -55.2621689, 4.3438816 ], [ -55.280983, 4.3968763 ], [ -55.2461052, 4.5237646 ], [ -55.2731628, 4.5527601 ], [ -55.3192749, 4.5488424 ], [ -55.3633766, 4.5672631 ], [ -55.3729401, 4.6029015 ], [ -55.3141899, 4.6468039 ], [ -55.3136597, 4.6957374 ], [ -55.2960739, 4.7637544 ], [ -55.3644066, 4.7759476 ], [ -55.3877754, 4.7954836 ], [ -55.3642235, 4.8450785 ], [ -55.3711281, 4.8715458 ], [ -55.4090462, 4.9148908 ], [ -55.4849625, 4.9656429 ], [ -55.5206184, 5.0896888 ], [ -55.3981781, 5.1779418 ], [ -55.3895302, 5.2069187 ], [ -55.3542557, 5.2356081 ], [ -55.3418274, 5.2837005 ], [ -55.3529053, 5.3266673 ], [ -55.2981949, 5.324687 ], [ -55.0528259, 5.3665667 ], [ -54.9467735, 5.2997184 ], [ -54.9683189, 5.2785487 ], [ -54.987278, 5.2101531 ], [ -54.9252892, 5.1798697 ], [ -54.8900299, 5.1482015 ], [ -54.8981743, 5.0822353 ], [ -54.8679466, 5.0583172 ], [ -54.8517723, 5.0001917 ] ] ] ] } },
{ "type": "Feature", "properties": { "POLYGON_ID": "SUR_GAUL1994_ADM1_2772", "ADM0_ISO3": "SUR", "ADM0_NAME": "Suriname", "ADM0_CODE": 233, "ADM1_NAME": "Commewijne", "ADM1_CODE": 2772, "GEOSET": "GAUL", "GEOSET_YEAR": 1994.0, "GEOSET_VERSION": "GAUL_v1", "GEOSET_UNIT": "ADM1", "CENTROID_LONG": -54.894842300711936, "CENTROID_LAT": 5.7496370921240958 }, "geometry": { "type": "MultiPolygon", "coordinates": [ [ [ [ -54.7137912, 5.979867 ], [ -54.7002335, 5.8631001 ], [ -54.7241631, 5.8568592 ], [ -54.7373276, 5.8128743 ], [ -54.6902466, 5.7313862 ], [ -54.7062187, 5.7070088 ], [ -54.6695099, 5.6823125 ], [ -54.6527519, 5.6501117 ], [ -54.650238, 5.5847797 ], [ -54.6339302, 5.5475612 ], [ -54.8103027, 5.5011635 ], [ -54.9941711, 5.4866986 ], [ -55.0505905, 5.5234838 ], [ -55.0425339, 5.5575342 ], [ -55.0669212, 5.6541348 ], [ -55.035141, 5.6943054 ], [ -55.0786324, 5.7044101 ], [ -55.1017647, 5.7198577 ], [ -55.1579857, 5.7942219 ], [ -55.1225433, 5.8298755 ], [ -55.0906423, 5.8904366 ], [ -55.1561608, 5.9611616 ], [ -55.0876656, 5.9885595 ], [ -55.0212204, 5.9941875 ], [ -54.89096, 5.9905496 ], [ -54.849235, 5.9952981 ], [ -54.7137912, 5.979867 ] ] ] ] } },
{ "type": "Feature", "properties": { "POLYGON_ID": "SUR_GAUL1994_ADM1_2773", "ADM0_ISO3": "SUR", "ADM0_NAME": "Suriname", "ADM0_CODE": 233, "ADM1_NAME": "Coronie", "ADM1_CODE": 2773, "GEOSET": "GAUL", "GEOSET_YEAR": 1994.0, "GEOSET_VERSION": "GAUL_v1", "GEOSET_UNIT": "ADM1", "CENTROID_LONG": -56.276417307220285, "CENTROID_LAT": 5.6502711057618962 }, "geometry": { "type": "MultiPolygon", "coordinates": [ [ [ [ -55.9005181, 5.6692429 ], [ -55.9599495, 5.669589 ], [ -55.9764442, 5.6320376 ], [ -55.9570885, 5.5875421 ], [ -55.9135284, 5.5510592 ], [ -55.9797707, 5.521183 ], [ -55.9591675, 5.4937701 ], [ -56.0596619, 5.4423757 ], [ -56.0588188, 5.407547 ], [ -56.1090126, 5.3922925 ], [ -56.3342133, 5.4087381 ], [ -56.4119606, 5.334372 ], [ -56.4538422, 5.3484116 ], [ -56.4882889, 5.3606057 ], [ -56.4722481, 5.3968916 ], [ -56.5054131, 5.4178844 ], [ -56.537796, 5.4933491 ], [ -56.5704727, 5.5046206 ], [ -56.4925919, 5.5702348 ], [ -56.5610809, 5.6561484 ], [ -56.5623016, 5.7104459 ], [ -56.6034737, 5.7541351 ], [ -56.6029784, 5.9566703 ], [ -56.5731245, 5.9401683 ], [ -56.4931913, 5.9290547 ], [ -56.4518818, 5.9136129 ], [ -56.4039111, 5.9128649 ], [ -56.20715, 5.8590999 ], [ -56.1772801, 5.86022 ], [ -56.00661, 5.8061501 ], [ -55.9359975, 5.8050063 ], [ -55.8896358, 5.7402704 ], [ -55.9005181, 5.6692429 ] ] ] ] } },
{ "type": "Feature", "properties": { "POLYGON_ID": "SUR_GAUL1994_ADM1_2774", "ADM0_ISO3": "SUR", "ADM0_NAME": "Suriname", "ADM0_CODE": 233, "ADM1_NAME": "Marowijne", "ADM1_CODE": 2774, "GEOSET": "GAUL", "GEOSET_YEAR": 1994.0, "GEOSET_VERSION": "GAUL_v1", "GEOSET_UNIT": "ADM1", "CENTROID_LONG": -54.368609862973095, "CENTROID_LAT": 5.6272362796580984 }, "geometry": { "type": "MultiPolygon", "coordinates": [ [ [ [ -54.7137912, 5.979867 ], [ -54.6506639, 5.9723957 ], [ -54.5447999, 5.9492 ], [ -54.437798, 5.934916 ], [ -54.2792801, 5.9052101 ], [ -54.1983699, 5.88549 ], [ -54.1037, 5.8432272 ], [ -54.0181599, 5.8273999 ], [ -53.9861763, 5.7506969 ], [ -54.0377731, 5.6629901 ], [ -54.009662, 5.6224298 ], [ -54.0044437, 5.5623032 ], [ -54.012936, 5.5304571 ], [ -54.0447821, 5.5071033 ], [ -54.112332, 5.4243235 ], [ -54.1509359, 5.3563649 ], [ -54.2040128, 5.3096573 ], [ -54.2761973, 5.2650727 ], [ -54.3011567, 5.2344689 ], [ -54.3484268, 5.234911 ], [ -54.4279366, 5.2688823 ], [ -54.4929543, 5.306427 ], [ -54.5220795, 5.310946 ], [ -54.6299057, 5.3803391 ], [ -54.6339302, 5.5475612 ], [ -54.650238, 5.5847797 ], [ -54.6527519, 5.6501117 ], [ -54.6695099, 5.6823125 ], [ -54.7062187, 5.7070088 ], [ -54.6902466, 5.7313862 ], [ -54.7373276, 5.8128743 ], [ -54.7241631, 5.8568592 ], [ -54.7002335, 5.8631001 ], [ -54.7137912, 5.979867 ] ] ] ] } },
{ "type": "Feature", "properties": { "POLYGON_ID": "SUR_GAUL1994_ADM1_2775", "ADM0_ISO3": "SUR", "ADM0_NAME": "Suriname", "ADM0_CODE": 233, "ADM1_NAME": "Nickerie", "ADM1_CODE": 2775, "GEOSET": "GAUL", "GEOSET_YEAR": 1994.0, "GEOSET_VERSION": "GAUL_v1", "GEOSET_UNIT": "ADM1", "CENTROID_LONG": -56.876269658589507, "CENTROID_LAT": 5.6138814379298605 }, "geometry": { "type": "MultiPolygon", "coordinates": [ [ [ [ -56.6029784, 5.9566703 ], [ -56.6034737, 5.7541351 ], [ -56.5623016, 5.7104459 ], [ -56.5610809, 5.6561484 ], [ -56.4925919, 5.5702348 ], [ -56.5704727, 5.5046206 ], [ -56.537796, 5.4933491 ], [ -56.5054131, 5.4178844 ], [ -56.4722481, 5.3968916 ], [ -56.4882889, 5.3606057 ], [ -56.4538422, 5.3484116 ], [ -56.4934158, 5.3246408 ], [ -56.7325706, 5.3511686 ], [ -56.7703667, 5.3437037 ], [ -57.1441345, 5.289371 ], [ -57.2262625, 5.2657151 ], [ -57.2565194, 5.2788118 ], [ -57.3238041, 5.3479616 ], [ -57.2731949, 5.3818711 ], [ -57.2609531, 5.4826424 ], [ -57.223044, 5.5145284 ], [ -57.1615687, 5.6051236 ], [ -57.1373021, 5.7005721 ], [ -57.1437732, 5.7539585 ], [ -57.1340043, 5.8373791 ], [ -57.0821037, 5.884357 ], [ -57.0612977, 5.9491962 ], [ -57.0181557, 5.9605345 ], [ -56.961388, 6.009405 ], [ -56.8656953, 5.9829259 ], [ -56.7738707, 5.9871314 ], [ -56.6437107, 5.9757516 ], [ -56.6029784, 5.9566703 ] ] ] ] } },
{ "type": "Feature", "properties": { "POLYGON_ID": "SUR_GAUL1994_ADM1_2776", "ADM0_ISO3": "SUR", "ADM0_NAME": "Suriname", "ADM0_CODE": 233, "ADM1_NAME": "Para", "ADM1_CODE": 2776, "GEOSET": "GAUL", "GEOSET_YEAR": 1994.0, "GEOSET_VERSION": "GAUL_v1", "GEOSET_UNIT": "ADM1", "CENTROID_LONG": -55.338551255892995, "CENTROID_LAT": 5.3496803030518132 }, "geometry": { "type": "MultiPolygon", "coordinates": [ [ [ [ -54.6339302, 5.5475612 ], [ -54.6299057, 5.3803391 ], [ -54.6699562, 5.3796077 ], [ -54.6928062, 5.3039923 ], [ -54.7386665, 5.2579098 ], [ -54.7465477, 5.2124329 ], [ -54.7920303, 5.190835 ], [ -54.8129768, 5.1558151 ], [ -54.8040466, 5.0771785 ], [ -54.8225517, 5.0230436 ], [ -54.8517723, 5.0001917 ], [ -54.8679466, 5.0583172 ], [ -54.8981743, 5.0822353 ], [ -54.8900299, 5.1482015 ], [ -54.9252892, 5.1798697 ], [ -54.987278, 5.2101531 ], [ -54.9683189, 5.2785487 ], [ -54.9467735, 5.2997184 ], [ -55.0528259, 5.3665667 ], [ -55.2981949, 5.324687 ], [ -55.3529053, 5.3266673 ], [ -55.3418274, 5.2837005 ], [ -55.3542557, 5.2356081 ], [ -55.3895302, 5.2069187 ], [ -55.3981781, 5.1779418 ], [ -55.5206184, 5.0896888 ], [ -55.5529213, 5.1051507 ], [ -55.5925941, 5.0678978 ], [ -55.6726151, 5.0103111 ], [ -55.7107353, 5.024436 ], [ -55.7078056, 5.075386 ], [ -55.8156357, 5.1282616 ], [ -55.8494415, 5.1219578 ], [ -56.0420113, 5.123879 ], [ -56.0416718, 5.1417651 ], [ -55.9934807, 5.1800241 ], [ -55.9896469, 5.244256 ], [ -55.9624138, 5.3112435 ], [ -55.9774094, 5.3422985 ], [ -55.966465, 5.4380741 ], [ -55.9340668, 5.4747763 ], [ -55.9311333, 5.5193601 ], [ -55.8983955, 5.5531588 ], [ -55.8711395, 5.513299 ], [ -55.912632, 5.5073762 ], [ -55.891716, 5.4569488 ], [ -55.8642731, 5.4337482 ], [ -55.8013649, 5.4260392 ], [ -55.4649467, 5.4523368 ], [ -55.4348106, 5.4421735 ], [ -55.3933563, 5.4716997 ], [ -55.3701248, 5.5060987 ], [ -55.4105682, 5.5574126 ], [ -55.3746834, 5.6037536 ], [ -55.375309, 5.6643004 ], [ -55.3383636, 5.6593518 ], [ -55.2453575, 5.673594 ], [ -55.1962242, 5.6674538 ], [ -55.1335526, 5.6982512 ], [ -55.0797386, 5.6766567 ], [ -55.0786324, 5.7044101 ], [ -55.035141, 5.6943054 ], [ -55.0669212, 5.6541348 ], [ -55.0425339, 5.5575342 ], [ -55.0505905, 5.5234838 ], [ -54.9941711, 5.4866986 ], [ -54.8103027, 5.5011635 ], [ -54.6339302, 5.5475612 ] ] ] ] } },
{ "type": "Feature", "properties": { "POLYGON_ID": "SUR_GAUL1994_ADM1_2777", "ADM0_ISO3": "SUR", "ADM0_NAME": "Suriname", "ADM0_CODE": 233, "ADM1_NAME": "Paramaribo", "ADM1_CODE": 2777, "GEOSET": "GAUL", "GEOSET_YEAR": 1994.0, "GEOSET_VERSION": "GAUL_v1", "GEOSET_UNIT": "ADM1", "CENTROID_LONG": -55.181065421356784, "CENTROID_LAT": 5.8512460489971758 }, "geometry": { "type": "MultiPolygon", "coordinates": [ [ [ [ -55.0906423, 5.8904366 ], [ -55.1225433, 5.8298755 ], [ -55.1579857, 5.7942219 ], [ -55.1793175, 5.7738056 ], [ -55.2296944, 5.7996783 ], [ -55.2567595, 5.9162379 ], [ -55.1992104, 5.8964066 ], [ -55.1581958, 5.9086328 ], [ -55.1164965, 5.8865432 ], [ -55.0906423, 5.8904366 ] ] ] ] } },
{ "type": "Feature", "properties": { "POLYGON_ID": "SUR_GAUL1994_ADM1_2778", "ADM0_ISO3": "SUR", "ADM0_NAME": "Suriname", "ADM0_CODE": 233, "ADM1_NAME": "Saramacca", "ADM1_CODE": 2778, "GEOSET": "GAUL", "GEOSET_YEAR": 1994.0, "GEOSET_VERSION": "GAUL_v1", "GEOSET_UNIT": "ADM1", "CENTROID_LONG": -55.634465858445516, "CENTROID_LAT": 5.7220493245767345 }, "geometry": { "type": "MultiPolygon", "coordinates": [ [ [ [ -55.3056544, 5.942259 ], [ -55.306488, 5.8007822 ], [ -55.3568916, 5.7145891 ], [ -55.3383636, 5.6593518 ], [ -55.375309, 5.6643004 ], [ -55.3746834, 5.6037536 ], [ -55.4105682, 5.5574126 ], [ -55.3701248, 5.5060987 ], [ -55.3933563, 5.4716997 ], [ -55.4348106, 5.4421735 ], [ -55.4649467, 5.4523368 ], [ -55.8013649, 5.4260392 ], [ -55.8642731, 5.4337482 ], [ -55.891716, 5.4569488 ], [ -55.912632, 5.5073762 ], [ -55.8711395, 5.513299 ], [ -55.8983955, 5.5531588 ], [ -55.9135284, 5.5510592 ], [ -55.9570885, 5.5875421 ], [ -55.9764442, 5.6320376 ], [ -55.9599495, 5.669589 ], [ -55.9005181, 5.6692429 ], [ -55.8738936, 5.7311208 ], [ -55.9189255, 5.8320092 ], [ -55.9560486, 5.8706902 ], [ -55.9519395, 5.8921957 ], [ -55.8932077, 5.970044 ], [ -55.8173625, 5.9819558 ], [ -55.7706329, 5.979882 ], [ -55.6674948, 5.9970238 ], [ -55.6042466, 6.000414 ], [ -55.3981572, 5.976254 ], [ -55.3356441, 5.961837 ], [ -55.3056544, 5.942259 ] ] ] ] } },
{ "type": "Feature", "properties": { "POLYGON_ID": "SUR_GAUL1994_ADM1_2779", "ADM0_ISO3": "SUR", "ADM0_NAME": "Suriname", "ADM0_CODE": 233, "ADM1_NAME": "Sipaliwini", "ADM1_CODE": 2779, "GEOSET": "GAUL", "GEOSET_YEAR": 1994.0, "GEOSET_VERSION": "GAUL_v1", "GEOSET_UNIT": "ADM1", "CENTROID_LONG": -56.026235848910382, "CENTROID_LAT": 3.7608508504358209 }, "geometry": { "type": "MultiPolygon", "coordinates": [ [ [ [ -55.5206184, 5.0896888 ], [ -55.4849625, 4.9656429 ], [ -55.4090462, 4.9148908 ], [ -55.3711281, 4.8715458 ], [ -55.3642235, 4.8450785 ], [ -55.3877754, 4.7954836 ], [ -55.3644066, 4.7759476 ], [ -55.2960739, 4.7637544 ], [ -55.3136597, 4.6957374 ], [ -55.3141899, 4.6468039 ], [ -55.3729401, 4.6029015 ], [ -55.3633766, 4.5672631 ], [ -55.3192749, 4.5488424 ], [ -55.2731628, 4.5527601 ], [ -55.2461052, 4.5237646 ], [ -55.280983, 4.3968763 ], [ -55.2621689, 4.3438816 ], [ -55.2779694, 4.3072071 ], [ -55.3135414, 4.2819657 ], [ -55.2947731, 4.2443137 ], [ -55.3223648, 4.1852255 ], [ -55.3021698, 4.0739064 ], [ -55.285984, 4.0345936 ], [ -55.2260895, 4.0587769 ], [ -55.1575012, 4.1189132 ], [ -55.1110039, 4.1483178 ], [ -55.0556068, 4.1399026 ], [ -55.0395241, 4.1924229 ], [ -54.9959946, 4.2099772 ], [ -54.9627647, 4.1732273 ], [ -54.9205246, 4.2095943 ], [ -54.8852386, 4.218493 ], [ -54.8832664, 4.289124 ], [ -54.8955765, 4.3502102 ], [ -54.8977089, 4.4771404 ], [ -54.8605652, 4.498961 ], [ -54.8179817, 4.5850282 ], [ -54.8364487, 4.6956444 ], [ -54.7955856, 4.7214937 ], [ -54.7998161, 4.7568355 ], [ -54.7795906, 4.7896271 ], [ -54.7776833, 4.8268547 ], [ -54.7540474, 4.8818212 ], [ -54.725708, 4.9019947 ], [ -54.7641945, 4.9679627 ], [ -54.8517723, 5.0001917 ], [ -54.8225517, 5.0230436 ], [ -54.8040466, 5.0771785 ], [ -54.8129768, 5.1558151 ], [ -54.7920303, 5.190835 ], [ -54.7465477, 5.2124329 ], [ -54.7386665, 5.2579098 ], [ -54.6928062, 5.3039923 ], [ -54.6699562, 5.3796077 ], [ -54.6299057, 5.3803391 ], [ -54.5220795, 5.310946 ], [ -54.4929543, 5.306427 ], [ -54.4279366, 5.2688823 ], [ -54.3484268, 5.234911 ], [ -54.3011567, 5.2344689 ], [ -54.3483819, 5.1483035 ], [ -54.3823511, 5.1015959 ], [ -54.4178097, 5.0799951 ], [ -54.4252381, 5.0374503 ], [ -54.4475769, 5.0024729 ], [ -54.4414457, 4.9469583 ], [ -54.476562, 4.9057642 ], [ -54.4617051, 4.7281567 ], [ -54.4157837, 4.7078973 ], [ -54.4367185, 4.6329374 ], [ -54.3995762, 4.5789123 ], [ -54.4174921, 4.5401439 ], [ -54.4486054, 4.5355155 ], [ -54.4326666, 4.4627584 ], [ -54.4340172, 4.3986036 ], [ -54.3912643, 4.3609208 ], [ -54.3943499, 4.3028082 ], [ -54.3820074, 4.2639808 ], [ -54.3955243, 4.1987107 ], [ -54.3246164, 4.1338806 ], [ -54.3455511, 4.1115953 ], [ -54.3475771, 4.0454145 ], [ -54.2971889, 3.9945747 ], [ -54.2978598, 3.959017 ], [ -54.2534248, 3.9255229 ], [ -54.2364511, 3.8596249 ], [ -54.1917274, 3.8481933 ], [ -54.20047, 3.8145086 ], [ -54.1197296, 3.7895665 ], [ -54.0778165, 3.7121688 ], [ -54.0826888, 3.6749105 ], [ -54.0323036, 3.6293713 ], [ -54.0053044, 3.6473708 ], [ -53.9798195, 3.6080152 ], [ -54.0053548, 3.5588221 ], [ -54.0088031, 3.5021777 ], [ -53.9996506, 3.4379437 ], [ -54.0497953, 3.3851364 ], [ -54.0691931, 3.2953951 ], [ -54.1190434, 3.2843173 ], [ -54.1887023, 3.2016091 ], [ -54.2145192, 3.1358932 ], [ -54.1825062, 3.134485 ], [ -54.1744325, 3.0817245 ], [ -54.1946167, 3.0652955 ], [ -54.1707537, 3.0206865 ], [ -54.1814182, 2.9837005 ], [ -54.171937, 2.9414014 ], [ -54.1917583, 2.8973212 ], [ -54.186729, 2.8365261 ], [ -54.2095087, 2.7755831 ], [ -54.2658998, 2.7201982 ], [ -54.2757769, 2.6730745 ], [ -54.3023829, 2.6488186 ], [ -54.3528432, 2.5171669 ], [ -54.3700019, 2.5091792 ], [ -54.4194419, 2.4379221 ], [ -54.4769273, 2.4356864 ], [ -54.5014106, 2.4010514 ], [ -54.5079793, 2.3365587 ], [ -54.5444483, 2.3328081 ], [ -54.5948972, 2.3194307 ], [ -54.68442, 2.32864 ], [ -54.72393, 2.39515 ], [ -54.69281, 2.45423 ], [ -54.74377, 2.47705 ], [ -54.8265922, 2.4322699 ], [ -54.8672689, 2.4420828 ], [ -54.88096, 2.46521 ], [ -54.96026, 2.54278 ], [ -54.9725915, 2.6046693 ], [ -55.01421, 2.58836 ], [ -55.10271, 2.52239 ], [ -55.129, 2.56978 ], [ -55.18571, 2.55508 ], [ -55.212, 2.51208 ], [ -55.26641, 2.49806 ], [ -55.29933, 2.52199 ], [ -55.33591, 2.51648 ], [ -55.35832, 2.48658 ], [ -55.3653829, 2.4111384 ], [ -55.43946, 2.44174 ], [ -55.59171, 2.43345 ], [ -55.73892, 2.40121 ], [ -55.76844, 2.4456 ], [ -55.83178, 2.46397 ], [ -55.93883, 2.53155 ], [ -55.98729, 2.51703 ], [ -56.00049, 2.45975 ], [ -55.98788, 2.42594 ], [ -56.04427, 2.34494 ], [ -56.09022, 2.35204 ], [ -56.11623, 2.30855 ], [ -56.12783, 2.25195 ], [ -56.04826, 2.22648 ], [ -56.038362, 2.1664621 ], [ -56.00201, 2.14809 ], [ -55.91049, 2.03108 ], [ -55.92346, 1.97474 ], [ -55.90648, 1.88943 ], [ -55.93957, 1.85607 ], [ -55.99497, 1.83114 ], [ -56.02682, 1.83532 ], [ -56.17446, 1.88786 ], [ -56.25396, 1.88688 ], [ -56.36415, 1.93897 ], [ -56.39749, 1.92237 ], [ -56.4773672, 1.9459424 ], [ -56.5307492, 2.0147322 ], [ -56.6063844, 2.0280231 ], [ -56.6384252, 2.011923 ], [ -56.6830873, 2.0143702 ], [ -56.6859934, 2.0451136 ], [ -56.7554338, 2.1222016 ], [ -56.8069266, 2.1949441 ], [ -56.8044653, 2.2623218 ], [ -56.8736246, 2.2897277 ], [ -56.8668413, 2.3371036 ], [ -56.8824622, 2.3666288 ], [ -56.9318997, 2.3995871 ], [ -56.9427142, 2.507045 ], [ -56.9856287, 2.500007 ], [ -56.9870326, 2.5563231 ], [ -57.0194759, 2.5708895 ], [ -57.0178207, 2.6467011 ], [ -57.0519193, 2.6470321 ], [ -57.0522504, 2.6798065 ], [ -57.0899906, 2.7195331 ], [ -57.0856869, 2.7592597 ], [ -57.1330976, 2.7761552 ], [ -57.1144886, 2.8178564 ], [ -57.1512357, 2.8185185 ], [ -57.2032113, 2.8390439 ], [ -57.213474, 2.9072411 ], [ -57.1850033, 2.9155175 ], [ -57.1813617, 2.954582 ], [ -57.2224125, 2.9708037 ], [ -57.1912933, 3.0247656 ], [ -57.2197641, 3.0760791 ], [ -57.2598217, 3.0959423 ], [ -57.2343305, 3.1340136 ], [ -57.3018656, 3.1770508 ], [ -57.2790229, 3.257166 ], [ -57.2993021, 3.2842741 ], [ -57.2817547, 3.3286212 ], [ -57.3040878, 3.3895586 ], [ -57.3423731, 3.3685017 ], [ -57.4033105, 3.3675446 ], [ -57.4846667, 3.3410639 ], [ -57.5136997, 3.370416 ], [ -57.5669393, 3.3560736 ], [ -57.677318, 3.3937351 ], [ -57.641936, 3.4804558 ], [ -57.647833, 3.5515668 ], [ -57.7147813, 3.5768893 ], [ -57.7179033, 3.6074149 ], [ -57.760223, 3.6230247 ], [ -57.8365372, 3.6826885 ], [ -57.8538813, 3.7780813 ], [ -57.8535344, 3.8165852 ], [ -57.8913447, 3.8429483 ], [ -57.9322768, 3.9144062 ], [ -57.9895125, 3.9813546 ], [ -58.0280165, 3.9837827 ], [ -58.0231601, 4.1076199 ], [ -58.0498701, 4.1509802 ], [ -58.0144881, 4.2415166 ], [ -57.947572, 4.3133736 ], [ -57.9452217, 4.3572454 ], [ -57.9608903, 4.3956333 ], [ -57.9201521, 4.4449891 ], [ -57.8880316, 4.5358665 ], [ -57.834058, 4.6375139 ], [ -57.828132, 4.6701072 ], [ -57.8872482, 4.7779451 ], [ -57.9232858, 4.805365 ], [ -57.8840362, 4.8793988 ], [ -57.8376574, 4.9238974 ], [ -57.7618217, 4.9213904 ], [ -57.7342451, 4.9709029 ], [ -57.6721978, 5.0091341 ], [ -57.6251922, 4.9940923 ], [ -57.52178, 5.0091341 ], [ -57.4766547, 4.9884517 ], [ -57.4133539, 4.9890784 ], [ -57.3820075, 5.0149177 ], [ -57.2842006, 5.0333719 ], [ -57.3220316, 5.0665893 ], [ -57.2989639, 5.1348696 ], [ -57.2980412, 5.1671643 ], [ -57.2602624, 5.1822006 ], [ -57.2352972, 5.1514783 ], [ -57.1799348, 5.1607053 ], [ -57.1799348, 5.1948455 ], [ -57.2262625, 5.2657151 ], [ -57.1441345, 5.289371 ], [ -56.7703667, 5.3437037 ], [ -56.7325706, 5.3511686 ], [ -56.4934158, 5.3246408 ], [ -56.4538422, 5.3484116 ], [ -56.4119606, 5.334372 ], [ -56.3342133, 5.4087381 ], [ -56.1090126, 5.3922925 ], [ -56.0588188, 5.407547 ], [ -56.0596619, 5.4423757 ], [ -55.9591675, 5.4937701 ], [ -55.9797707, 5.521183 ], [ -55.9135284, 5.5510592 ], [ -55.8983955, 5.5531588 ], [ -55.9311333, 5.5193601 ], [ -55.9340668, 5.4747763 ], [ -55.966465, 5.4380741 ], [ -55.9774094, 5.3422985 ], [ -55.9624138, 5.3112435 ], [ -55.9896469, 5.244256 ], [ -55.9934807, 5.1800241 ], [ -56.0416718, 5.1417651 ], [ -56.0420113, 5.123879 ], [ -55.8494415, 5.1219578 ], [ -55.8156357, 5.1282616 ], [ -55.7078056, 5.075386 ], [ -55.7107353, 5.024436 ], [ -55.6726151, 5.0103111 ], [ -55.5925941, 5.0678978 ], [ -55.5529213, 5.1051507 ], [ -55.5206184, 5.0896888 ] ] ] ] } },
{ "type": "Feature", "properties": { "POLYGON_ID": "SUR_GAUL1994_ADM1_2780", "ADM0_ISO3": "SUR", "ADM0_NAME": "Suriname", "ADM0_CODE": 233, "ADM1_NAME": "Wanica", "ADM1_CODE": 2780, "GEOSET": "GAUL", "GEOSET_YEAR": 1994.0, "GEOSET_VERSION": "GAUL_v1", "GEOSET_UNIT": "ADM1", "CENTROID_LONG": -55.242656993736404, "CENTROID_LAT": 5.7583862451870962 }, "geometry": { "type": "MultiPolygon", "coordinates": [ [ [ [ -55.2567595, 5.9162379 ], [ -55.2296944, 5.7996783 ], [ -55.1793175, 5.7738056 ], [ -55.1579857, 5.7942219 ], [ -55.1017647, 5.7198577 ], [ -55.0786324, 5.7044101 ], [ -55.0797386, 5.6766567 ], [ -55.1335526, 5.6982512 ], [ -55.1962242, 5.6674538 ], [ -55.2453575, 5.673594 ], [ -55.3383636, 5.6593518 ], [ -55.3568916, 5.7145891 ], [ -55.306488, 5.8007822 ], [ -55.3056544, 5.942259 ], [ -55.2567595, 5.9162379 ] ] ] ] } }
]
}
