{
"type": "FeatureCollection",
"name": "SUR_GAUL2005_ADM0",
"crs": { "type": "name", "properties": { "name": "urn:ogc:def:crs:OGC:1.3:CRS84" } },
"features": [
{ "type": "Feature", "properties": { "POLYGON_ID": "SUR_GAUL2005_ADM0_233", "ADM0_ISO3": "SUR", "ADM0_NAME": "Suriname", "ADM0_CODE": 233, "GEOSET": "GAUL", "GEOSET_YEAR": 2005.0, "GEOSET_VERSION": "GAUL_v1", "GEOSET_UNIT": "ADM0", "CENTROID_LONG": -55.90522917011085, "CENTROID_LAT": 4.1356464539147586 }, "geometry": { "type": "MultiPolygon", "coordinates": [ [ [ [ -54.009662, 5.6224298 ], [ -54.0044437, 5.5623032 ], [ -54.012936, 5.5304571 ], [ -54.0447821, 5.5071033 ], [ -54.0930678, 5.4410529 ], [ -54.112332, 5.4243235 ], [ -54.1509359, 5.3563649 ], [ -54.1726592, 5.346253 ], [ -54.2040128, 5.3096573 ], [ -54.2761973, 5.2650727 ], [ -54.3144127, 5.2162419 ], [ -54.3483819, 5.1483035 ], [ -54.3653665, 5.1355651 ], [ -54.3823511, 5.1015959 ], [ -54.4178097, 5.0799951 ], [ -54.4252381, 5.0374503 ], [ -54.4475769, 5.0024729 ], [ -54.4414457, 4.9469583 ], [ -54.476562, 4.9057642 ], [ -54.4698088, 4.853765 ], [ -54.4617051, 4.7281567 ], [ -54.42929, 4.7241048 ], [ -54.4157837, 4.7078973 ], [ -54.4367185, 4.6329374 ], [ -54.4070047, 4.6079508 ], [ -54.3995762, 4.5789123 ], [ -54.4174921, 4.5401439 ], [ -54.4486054, 4.5355155 ], [ -54.4326666, 4.4627584 ], [ -54.4414457, 4.4357458 ], [ -54.4340172, 4.3986036 ], [ -54.3912643, 4.3609208 ], [ -54.3943499, 4.3028082 ], [ -54.3820074, 4.2639808 ], [ -54.3955243, 4.1987107 ], [ -54.3246164, 4.1338806 ], [ -54.3455511, 4.1115953 ], [ -54.3550055, 4.0683752 ], [ -54.3475771, 4.0454145 ], [ -54.2971889, 3.9945747 ], [ -54.2978598, 3.959017 ], [ -54.2534248, 3.9255229 ], [ -54.2514279, 3.8925739 ], [ -54.2364511, 3.8596249 ], [ -54.1917274, 3.8481933 ], [ -54.20047, 3.8145086 ], [ -54.1865283, 3.7997175 ], [ -54.1593284, 3.805766 ], [ -54.1197296, 3.7895665 ], [ -54.0965874, 3.7347967 ], [ -54.0778165, 3.7121688 ], [ -54.0826888, 3.6749105 ], [ -54.052103, 3.6550848 ], [ -54.0323036, 3.6293713 ], [ -54.0053044, 3.6473708 ], [ -53.9798195, 3.6080152 ], [ -54.0053548, 3.5588221 ], [ -53.9998159, 3.5243682 ], [ -54.0088031, 3.5021777 ], [ -53.9996506, 3.4379437 ], [ -54.0497953, 3.3851364 ], [ -54.0628093, 3.3448698 ], [ -54.0691931, 3.2953951 ], [ -54.1022233, 3.2963883 ], [ -54.1190434, 3.2843173 ], [ -54.1887023, 3.2016091 ], [ -54.2145192, 3.1358932 ], [ -54.1825062, 3.134485 ], [ -54.1744325, 3.0817245 ], [ -54.1946167, 3.0652955 ], [ -54.1707537, 3.0206865 ], [ -54.1814182, 2.9837005 ], [ -54.171937, 2.9414014 ], [ -54.1917583, 2.8973212 ], [ -54.186729, 2.8365261 ], [ -54.2077337, 2.8314968 ], [ -54.197971, 2.80354 ], [ -54.2095087, 2.7755831 ], [ -54.2451147, 2.7315965 ], [ -54.2658998, 2.7201982 ], [ -54.2757769, 2.6730745 ], [ -54.3023829, 2.6488186 ], [ -54.32178, 2.5911268 ], [ -54.3528432, 2.5171669 ], [ -54.3700019, 2.5091792 ], [ -54.4194419, 2.4379221 ], [ -54.4769273, 2.4356864 ], [ -54.5014106, 2.4010514 ], [ -54.5115622, 2.3610421 ], [ -54.5079793, 2.3365587 ], [ -54.5444483, 2.3328081 ], [ -54.5670976, 2.3347673 ], [ -54.5948972, 2.3194307 ], [ -54.68442, 2.32864 ], [ -54.70385, 2.3397 ], [ -54.70154, 2.36845 ], [ -54.72393, 2.39515 ], [ -54.69281, 2.45423 ], [ -54.74377, 2.47705 ], [ -54.76939, 2.4704 ], [ -54.7914, 2.44682 ], [ -54.8265922, 2.4322699 ], [ -54.85833, 2.43506 ], [ -54.88096, 2.46521 ], [ -54.96026, 2.54278 ], [ -54.9725915, 2.6046693 ], [ -55.01421, 2.58836 ], [ -55.08419, 2.53227 ], [ -55.10271, 2.52239 ], [ -55.12557, 2.53528 ], [ -55.129, 2.56978 ], [ -55.16284, 2.57118 ], [ -55.18571, 2.55508 ], [ -55.212, 2.51208 ], [ -55.2392, 2.49484 ], [ -55.26641, 2.49806 ], [ -55.29933, 2.52199 ], [ -55.33591, 2.51648 ], [ -55.35832, 2.48658 ], [ -55.35305, 2.45001 ], [ -55.3653829, 2.4111384 ], [ -55.43946, 2.44174 ], [ -55.48084, 2.44265 ], [ -55.53913, 2.43276 ], [ -55.59171, 2.43345 ], [ -55.67857, 2.41779 ], [ -55.73892, 2.40121 ], [ -55.76844, 2.4456 ], [ -55.83178, 2.46397 ], [ -55.89468, 2.4996 ], [ -55.93883, 2.53155 ], [ -55.98729, 2.51703 ], [ -55.98588, 2.48367 ], [ -56.00049, 2.45975 ], [ -55.98788, 2.42594 ], [ -55.99518, 2.40477 ], [ -56.02807, 2.37646 ], [ -56.04427, 2.34494 ], [ -56.09022, 2.35204 ], [ -56.11623, 2.30855 ], [ -56.13377, 2.26253 ], [ -56.12783, 2.25195 ], [ -56.0789, 2.24095 ], [ -56.04826, 2.22648 ], [ -56.05005, 2.19153 ], [ -56.038362, 2.1664621 ], [ -56.00201, 2.14809 ], [ -55.96242, 2.09476 ], [ -55.92239, 2.05614 ], [ -55.91049, 2.03108 ], [ -55.92346, 1.97474 ], [ -55.90648, 1.88943 ], [ -55.93957, 1.85607 ], [ -55.99497, 1.83114 ], [ -56.02682, 1.83532 ], [ -56.11023, 1.86262 ], [ -56.17446, 1.88786 ], [ -56.21308, 1.89542 ], [ -56.25396, 1.88688 ], [ -56.32414, 1.91532 ], [ -56.36415, 1.93897 ], [ -56.39749, 1.92237 ], [ -56.4651149, 1.9484337 ], [ -56.4773672, 1.9459424 ], [ -56.5197261, 1.9901729 ], [ -56.5307492, 2.0147322 ], [ -56.6063844, 2.0280231 ], [ -56.6384252, 2.011923 ], [ -56.6830873, 2.0143702 ], [ -56.6859934, 2.0451136 ], [ -56.7124542, 2.0818222 ], [ -56.7554338, 2.1222016 ], [ -56.8069266, 2.1949441 ], [ -56.8044653, 2.2623218 ], [ -56.847384, 2.2860117 ], [ -56.8736246, 2.2897277 ], [ -56.8776468, 2.3172645 ], [ -56.8668413, 2.3371036 ], [ -56.8824622, 2.3666288 ], [ -56.9188537, 2.381563 ], [ -56.9318997, 2.3995871 ], [ -56.9427142, 2.507045 ], [ -56.9856287, 2.500007 ], [ -56.9870326, 2.5563231 ], [ -57.0194759, 2.5708895 ], [ -57.0234486, 2.6049882 ], [ -57.0178207, 2.6467011 ], [ -57.0519193, 2.6470321 ], [ -57.0522504, 2.6798065 ], [ -57.0899906, 2.7195331 ], [ -57.1019086, 2.7433691 ], [ -57.0856869, 2.7592597 ], [ -57.1330976, 2.7761552 ], [ -57.1144886, 2.8178564 ], [ -57.1512357, 2.8185185 ], [ -57.2032113, 2.8390439 ], [ -57.213474, 2.9072411 ], [ -57.1850033, 2.9155175 ], [ -57.1813617, 2.954582 ], [ -57.2187709, 2.9472988 ], [ -57.2224125, 2.9708037 ], [ -57.1912933, 3.0247656 ], [ -57.2197641, 3.0760791 ], [ -57.2598217, 3.0959423 ], [ -57.2343305, 3.1340136 ], [ -57.2783607, 3.154208 ], [ -57.3018656, 3.1770508 ], [ -57.2790229, 3.257166 ], [ -57.2993021, 3.2842741 ], [ -57.2817547, 3.3286212 ], [ -57.3040878, 3.3895586 ], [ -57.3423731, 3.3685017 ], [ -57.4033105, 3.3675446 ], [ -57.4189436, 3.3879634 ], [ -57.4425529, 3.3531876 ], [ -57.4846667, 3.3410639 ], [ -57.5136997, 3.370416 ], [ -57.5669393, 3.3560736 ], [ -57.5869453, 3.3721895 ], [ -57.6173073, 3.3673721 ], [ -57.677318, 3.3937351 ], [ -57.6887651, 3.4086511 ], [ -57.6603207, 3.4402174 ], [ -57.621123, 3.459296 ], [ -57.641936, 3.4804558 ], [ -57.647833, 3.5515668 ], [ -57.6769711, 3.5536481 ], [ -57.7147813, 3.5768893 ], [ -57.7179033, 3.6074149 ], [ -57.7449601, 3.6285748 ], [ -57.760223, 3.6230247 ], [ -57.8365372, 3.6826885 ], [ -57.8354965, 3.7128673 ], [ -57.8538813, 3.7780813 ], [ -57.8535344, 3.8165852 ], [ -57.8913447, 3.8429483 ], [ -57.9322768, 3.9144062 ], [ -57.9624556, 3.9428506 ], [ -57.9895125, 3.9813546 ], [ -58.0280165, 3.9837827 ], [ -58.0231601, 4.1076199 ], [ -58.0498701, 4.1509802 ], [ -58.0373823, 4.1957281 ], [ -58.0144881, 4.2415166 ], [ -57.947572, 4.3133736 ], [ -57.9452217, 4.3572454 ], [ -57.9608903, 4.3956333 ], [ -57.9413046, 4.4293206 ], [ -57.9201521, 4.4449891 ], [ -57.8880316, 4.5358665 ], [ -57.834058, 4.6375139 ], [ -57.828132, 4.6701072 ], [ -57.8645289, 4.7254556 ], [ -57.862962, 4.7442578 ], [ -57.8872482, 4.7779451 ], [ -57.9076173, 4.7755949 ], [ -57.9232858, 4.805365 ], [ -57.8840362, 4.8793988 ], [ -57.8376574, 4.9238974 ], [ -57.7618217, 4.9213904 ], [ -57.7342451, 4.9709029 ], [ -57.6721978, 5.0091341 ], [ -57.6251922, 4.9940923 ], [ -57.52178, 5.0091341 ], [ -57.5117522, 4.9959726 ], [ -57.4766547, 4.9884517 ], [ -57.4471979, 4.9947191 ], [ -57.4133539, 4.9890784 ], [ -57.3820075, 5.0149177 ], [ -57.3404857, 5.0176858 ], [ -57.2842006, 5.0333719 ], [ -57.3220316, 5.0665893 ], [ -57.3229543, 5.0905796 ], [ -57.2989639, 5.1348696 ], [ -57.2980412, 5.1671643 ], [ -57.2602624, 5.1822006 ], [ -57.2352972, 5.1514783 ], [ -57.1799348, 5.1607053 ], [ -57.1799348, 5.1948455 ], [ -57.2131522, 5.2363673 ], [ -57.2177658, 5.2594349 ], [ -57.238988, 5.2751209 ], [ -57.2666692, 5.2723528 ], [ -57.2574422, 5.2345219 ], [ -57.276819, 5.2252948 ], [ -57.2906596, 5.2511306 ], [ -57.2851233, 5.3111065 ], [ -57.3238041, 5.3479616 ], [ -57.2731949, 5.3818711 ], [ -57.2644064, 5.4011432 ], [ -57.2667239, 5.4579063 ], [ -57.2609531, 5.4826424 ], [ -57.223044, 5.5145284 ], [ -57.1615687, 5.6051236 ], [ -57.1373021, 5.7005721 ], [ -57.1437732, 5.7539585 ], [ -57.1340043, 5.8373791 ], [ -57.102726, 5.8790421 ], [ -57.0821037, 5.884357 ], [ -57.0757828, 5.926208 ], [ -57.0612977, 5.9491962 ], [ -57.0181557, 5.9605345 ], [ -56.961388, 6.009405 ], [ -56.8656953, 5.9829259 ], [ -56.7738707, 5.9871314 ], [ -56.6437107, 5.9757516 ], [ -56.5731245, 5.9401683 ], [ -56.4931913, 5.9290547 ], [ -56.4518818, 5.9136129 ], [ -56.4039111, 5.9128649 ], [ -56.20715, 5.8590999 ], [ -56.1772801, 5.86022 ], [ -56.13792, 5.84069 ], [ -56.10575, 5.83845 ], [ -56.00661, 5.8061501 ], [ -55.9359975, 5.8050063 ], [ -55.88196, 5.7584 ], [ -55.9189255, 5.8320092 ], [ -55.9560486, 5.8706902 ], [ -55.9519395, 5.8921957 ], [ -55.8932077, 5.970044 ], [ -55.8173625, 5.9819558 ], [ -55.7706329, 5.979882 ], [ -55.6674948, 5.9970238 ], [ -55.6042466, 6.000414 ], [ -55.3981572, 5.976254 ], [ -55.3356441, 5.961837 ], [ -55.2724316, 5.9232957 ], [ -55.1992104, 5.8964066 ], [ -55.1581958, 5.9086328 ], [ -55.1164965, 5.8865432 ], [ -55.1002496, 5.903342 ], [ -55.16031, 5.9501596 ], [ -55.1561608, 5.9611616 ], [ -55.0876656, 5.9885595 ], [ -55.0212204, 5.9941875 ], [ -54.89096, 5.9905496 ], [ -54.849235, 5.9952981 ], [ -54.7663342, 5.9816986 ], [ -54.6506639, 5.9723957 ], [ -54.5447999, 5.9492 ], [ -54.437798, 5.934916 ], [ -54.3439142, 5.9140236 ], [ -54.2792801, 5.9052101 ], [ -54.2171397, 5.8853639 ], [ -54.1983699, 5.88549 ], [ -54.1037, 5.8432272 ], [ -54.0181599, 5.8273999 ], [ -54.01963, 5.81608 ], [ -53.9861763, 5.7506969 ], [ -54.0166435, 5.707973 ], [ -54.0377731, 5.6629901 ], [ -54.0271034, 5.6203809 ], [ -54.009662, 5.6224298 ] ] ] ] } }
]
}
