{
"type": "FeatureCollection",
"name": "SVK_GAUL1995_ADM2",
"crs": { "type": "name", "properties": { "name": "urn:ogc:def:crs:OGC:1.3:CRS84" } },
"features": [
{ "type": "Feature", "properties": { "POLYGON_ID": "SVK_GAUL1995_ADM2_25428", "ADM0_ISO3": "SVK", "ADM0_NAME": "Slovakia", "ADM0_CODE": 223, "ADM1_NAME": "Banska Bystrica", "ADM1_CODE": 2667, "ADM2_NAME": "Banska Bystrica", "ADM2_CODE": 25428, "GEOSET": "GAUL", "GEOSET_YEAR": 1995.0, "GEOSET_VERSION": "GAUL_v1", "GEOSET_UNIT": "ADM2", "CENTROID_LONG": 19.224818450881685, "CENTROID_LAT": 48.76559885443784 }, "geometry": { "type": "MultiPolygon", "coordinates": [ [ [ [ 19.4715996, 48.6707993 ], [ 19.4174004, 48.6531982 ], [ 19.2756004, 48.6455002 ], [ 19.1940002, 48.6604996 ], [ 19.1317005, 48.6421013 ], [ 19.0293007, 48.6862984 ], [ 18.9876003, 48.7467003 ], [ 19.0074005, 48.7925987 ], [ 18.9892006, 48.8493996 ], [ 19.0293999, 48.8819008 ], [ 19.0743008, 48.8790016 ], [ 19.2350006, 48.8988991 ], [ 19.2604008, 48.8684006 ], [ 19.3437996, 48.9029007 ], [ 19.3934002, 48.8642006 ], [ 19.3773994, 48.8101997 ], [ 19.4932995, 48.7317009 ], [ 19.4715996, 48.6707993 ] ] ] ] } },
{ "type": "Feature", "properties": { "POLYGON_ID": "SVK_GAUL1995_ADM2_25429", "ADM0_ISO3": "SVK", "ADM0_NAME": "Slovakia", "ADM0_CODE": 223, "ADM1_NAME": "Banska Bystrica", "ADM1_CODE": 2667, "ADM2_NAME": "Banska Stiavnica", "ADM2_CODE": 25429, "GEOSET": "GAUL", "GEOSET_YEAR": 1995.0, "GEOSET_VERSION": "GAUL_v1", "GEOSET_UNIT": "ADM2", "CENTROID_LONG": 18.897970238776772, "CENTROID_LAT": 48.433839234438743 }, "geometry": { "type": "MultiPolygon", "coordinates": [ [ [ [ 18.9624004, 48.5643997 ], [ 19.0058994, 48.5444984 ], [ 18.9841003, 48.4278984 ], [ 18.9284992, 48.3689003 ], [ 18.9421005, 48.3451996 ], [ 18.8463001, 48.3132019 ], [ 18.7472, 48.414299 ], [ 18.8104, 48.4272995 ], [ 18.8687, 48.472599 ], [ 18.9009991, 48.5401993 ], [ 18.9624004, 48.5643997 ] ] ] ] } },
{ "type": "Feature", "properties": { "POLYGON_ID": "SVK_GAUL1995_ADM2_25430", "ADM0_ISO3": "SVK", "ADM0_NAME": "Slovakia", "ADM0_CODE": 223, "ADM1_NAME": "Banska Bystrica", "ADM1_CODE": 2667, "ADM2_NAME": "Brezno", "ADM2_CODE": 25430, "GEOSET": "GAUL", "GEOSET_YEAR": 1995.0, "GEOSET_VERSION": "GAUL_v1", "GEOSET_UNIT": "ADM2", "CENTROID_LONG": 19.723572632592358, "CENTROID_LAT": 48.805301240753359 }, "geometry": { "type": "MultiPolygon", "coordinates": [ [ [ [ 19.9988003, 48.8950005 ], [ 20.2765999, 48.8633003 ], [ 20.2017002, 48.7929001 ], [ 20.0207996, 48.8070984 ], [ 19.8908005, 48.7729988 ], [ 19.7514992, 48.653801 ], [ 19.6683998, 48.6237984 ], [ 19.5816002, 48.6575012 ], [ 19.4829998, 48.657299 ], [ 19.4715996, 48.6707993 ], [ 19.4932995, 48.7317009 ], [ 19.3773994, 48.8101997 ], [ 19.3934002, 48.8642006 ], [ 19.3437996, 48.9029007 ], [ 19.382, 48.9289017 ], [ 19.4761009, 48.9331017 ], [ 19.6054993, 48.9210014 ], [ 19.7245998, 48.8839989 ], [ 19.8071003, 48.8983002 ], [ 19.9988003, 48.8950005 ] ] ] ] } },
{ "type": "Feature", "properties": { "POLYGON_ID": "SVK_GAUL1995_ADM2_25431", "ADM0_ISO3": "SVK", "ADM0_NAME": "Slovakia", "ADM0_CODE": 223, "ADM1_NAME": "Banska Bystrica", "ADM1_CODE": 2667, "ADM2_NAME": "Detva", "ADM2_CODE": 25431, "GEOSET": "GAUL", "GEOSET_YEAR": 1995.0, "GEOSET_VERSION": "GAUL_v1", "GEOSET_UNIT": "ADM2", "CENTROID_LONG": 19.454296310855831, "CENTROID_LAT": 48.55511831807982 }, "geometry": { "type": "MultiPolygon", "coordinates": [ [ [ [ 19.6683998, 48.6237984 ], [ 19.7173004, 48.6029015 ], [ 19.6187992, 48.5270004 ], [ 19.5776005, 48.5410004 ], [ 19.3822994, 48.4789009 ], [ 19.3813992, 48.4070015 ], [ 19.3463993, 48.3917999 ], [ 19.3153992, 48.4432983 ], [ 19.2303009, 48.4944 ], [ 19.3241005, 48.6069984 ], [ 19.4202003, 48.6128006 ], [ 19.4829998, 48.657299 ], [ 19.5816002, 48.6575012 ], [ 19.6683998, 48.6237984 ] ] ] ] } },
{ "type": "Feature", "properties": { "POLYGON_ID": "SVK_GAUL1995_ADM2_25432", "ADM0_ISO3": "SVK", "ADM0_NAME": "Slovakia", "ADM0_CODE": 223, "ADM1_NAME": "Banska Bystrica", "ADM1_CODE": 2667, "ADM2_NAME": "Krupina", "ADM2_CODE": 25432, "GEOSET": "GAUL", "GEOSET_YEAR": 1995.0, "GEOSET_VERSION": "GAUL_v1", "GEOSET_UNIT": "ADM2", "CENTROID_LONG": 19.01574136440383, "CENTROID_LAT": 48.294113518445364 }, "geometry": { "type": "MultiPolygon", "coordinates": [ [ [ [ 19.2609997, 48.3806 ], [ 19.2045002, 48.3446999 ], [ 19.2091999, 48.2499008 ], [ 19.0540009, 48.2122002 ], [ 18.9365997, 48.1671982 ], [ 18.8150005, 48.1711006 ], [ 18.8055, 48.2519989 ], [ 18.8463001, 48.3132019 ], [ 18.9421005, 48.3451996 ], [ 18.9284992, 48.3689003 ], [ 18.9841003, 48.4278984 ], [ 19.0102005, 48.4403992 ], [ 19.1242008, 48.3867989 ], [ 19.2010994, 48.3984985 ], [ 19.2609997, 48.3806 ] ] ] ] } },
{ "type": "Feature", "properties": { "POLYGON_ID": "SVK_GAUL1995_ADM2_25433", "ADM0_ISO3": "SVK", "ADM0_NAME": "Slovakia", "ADM0_CODE": 223, "ADM1_NAME": "Banska Bystrica", "ADM1_CODE": 2667, "ADM2_NAME": "Lucenec", "ADM2_CODE": 25433, "GEOSET": "GAUL", "GEOSET_YEAR": 1995.0, "GEOSET_VERSION": "GAUL_v1", "GEOSET_UNIT": "ADM2", "CENTROID_LONG": 19.639052303650821, "CENTROID_LAT": 48.335867348138159 }, "geometry": { "type": "MultiPolygon", "coordinates": [ [ [ [ 19.5776005, 48.5410004 ], [ 19.6373005, 48.3844986 ], [ 19.8498993, 48.3504982 ], [ 19.8754005, 48.2957993 ], [ 19.9305, 48.2443008 ], [ 19.8873679, 48.1673707 ], [ 19.80066, 48.15741 ], [ 19.76412, 48.2164 ], [ 19.70455, 48.21107 ], [ 19.63655, 48.24422 ], [ 19.5337009, 48.2047991 ], [ 19.5130997, 48.2803993 ], [ 19.4279995, 48.3762016 ], [ 19.3813992, 48.4070015 ], [ 19.3822994, 48.4789009 ], [ 19.5776005, 48.5410004 ] ] ] ] } },
{ "type": "Feature", "properties": { "POLYGON_ID": "SVK_GAUL1995_ADM2_25434", "ADM0_ISO3": "SVK", "ADM0_NAME": "Slovakia", "ADM0_CODE": 223, "ADM1_NAME": "Banska Bystrica", "ADM1_CODE": 2667, "ADM2_NAME": "Poltar", "ADM2_CODE": 25434, "GEOSET": "GAUL", "GEOSET_YEAR": 1995.0, "GEOSET_VERSION": "GAUL_v1", "GEOSET_UNIT": "ADM2", "CENTROID_LONG": 19.756078454501584, "CENTROID_LAT": 48.487481806389425 }, "geometry": { "type": "MultiPolygon", "coordinates": [ [ [ [ 19.8498993, 48.3504982 ], [ 19.6373005, 48.3844986 ], [ 19.5776005, 48.5410004 ], [ 19.6187992, 48.5270004 ], [ 19.7173004, 48.6029015 ], [ 19.6683998, 48.6237984 ], [ 19.7514992, 48.653801 ], [ 19.8122005, 48.6296997 ], [ 19.8794994, 48.5629997 ], [ 19.8342991, 48.5290985 ], [ 19.8917999, 48.4847984 ], [ 19.9155998, 48.4028015 ], [ 19.8498993, 48.3504982 ] ] ] ] } },
{ "type": "Feature", "properties": { "POLYGON_ID": "SVK_GAUL1995_ADM2_25435", "ADM0_ISO3": "SVK", "ADM0_NAME": "Slovakia", "ADM0_CODE": 223, "ADM1_NAME": "Banska Bystrica", "ADM1_CODE": 2667, "ADM2_NAME": "Revuca", "ADM2_CODE": 25435, "GEOSET": "GAUL", "GEOSET_YEAR": 1995.0, "GEOSET_VERSION": "GAUL_v1", "GEOSET_UNIT": "ADM2", "CENTROID_LONG": 20.173943115762473, "CENTROID_LAT": 48.625346073627753 }, "geometry": { "type": "MultiPolygon", "coordinates": [ [ [ [ 20.2017002, 48.7929001 ], [ 20.1837006, 48.7453003 ], [ 20.2723999, 48.6794014 ], [ 20.3008003, 48.610199 ], [ 20.3556004, 48.5862999 ], [ 20.302, 48.4939995 ], [ 20.3341007, 48.4592018 ], [ 20.4710533, 48.462078 ], [ 20.41908, 48.4206162 ], [ 20.2880993, 48.4068985 ], [ 20.1996002, 48.4850998 ], [ 20.1473999, 48.5018997 ], [ 20.1329002, 48.5465012 ], [ 19.9976997, 48.6697006 ], [ 19.9675007, 48.7501984 ], [ 19.8908005, 48.7729988 ], [ 20.0207996, 48.8070984 ], [ 20.2017002, 48.7929001 ] ] ] ] } },
{ "type": "Feature", "properties": { "POLYGON_ID": "SVK_GAUL1995_ADM2_25436", "ADM0_ISO3": "SVK", "ADM0_NAME": "Slovakia", "ADM0_CODE": 223, "ADM1_NAME": "Banska Bystrica", "ADM1_CODE": 2667, "ADM2_NAME": "Rimavska Sobota", "ADM2_CODE": 25436, "GEOSET": "GAUL", "GEOSET_YEAR": 1995.0, "GEOSET_VERSION": "GAUL_v1", "GEOSET_UNIT": "ADM2", "CENTROID_LONG": 20.046181923947792, "CENTROID_LAT": 48.42904660215325 }, "geometry": { "type": "MultiPolygon", "coordinates": [ [ [ [ 20.41908, 48.4206162 ], [ 20.40914, 48.36242 ], [ 20.3280392, 48.2797796 ], [ 20.26, 48.28797 ], [ 20.0620237, 48.1721269 ], [ 20.03204, 48.17791 ], [ 19.93207, 48.13028 ], [ 19.8873679, 48.1673707 ], [ 19.9305, 48.2443008 ], [ 19.8754005, 48.2957993 ], [ 19.8498993, 48.3504982 ], [ 19.9155998, 48.4028015 ], [ 19.8917999, 48.4847984 ], [ 19.8342991, 48.5290985 ], [ 19.8794994, 48.5629997 ], [ 19.8122005, 48.6296997 ], [ 19.7514992, 48.653801 ], [ 19.8908005, 48.7729988 ], [ 19.9675007, 48.7501984 ], [ 19.9976997, 48.6697006 ], [ 20.1329002, 48.5465012 ], [ 20.1473999, 48.5018997 ], [ 20.1996002, 48.4850998 ], [ 20.2880993, 48.4068985 ], [ 20.41908, 48.4206162 ] ] ] ] } },
{ "type": "Feature", "properties": { "POLYGON_ID": "SVK_GAUL1995_ADM2_25437", "ADM0_ISO3": "SVK", "ADM0_NAME": "Slovakia", "ADM0_CODE": 223, "ADM1_NAME": "Banska Bystrica", "ADM1_CODE": 2667, "ADM2_NAME": "Velky Krtis", "ADM2_CODE": 25437, "GEOSET": "GAUL", "GEOSET_YEAR": 1995.0, "GEOSET_VERSION": "GAUL_v1", "GEOSET_UNIT": "ADM2", "CENTROID_LONG": 19.302159242954616, "CENTROID_LAT": 48.202866379820087 }, "geometry": { "type": "MultiPolygon", "coordinates": [ [ [ [ 19.5337009, 48.2047991 ], [ 19.4957485, 48.1026079 ], [ 19.2743592, 48.0774191 ], [ 19.25347, 48.05601 ], [ 19.15875, 48.06967 ], [ 19.0155423, 48.0638575 ], [ 19.0604992, 48.1351013 ], [ 19.0540009, 48.2122002 ], [ 19.2091999, 48.2499008 ], [ 19.2045002, 48.3446999 ], [ 19.2609997, 48.3806 ], [ 19.2583008, 48.3317986 ], [ 19.3293991, 48.3143997 ], [ 19.3463993, 48.3917999 ], [ 19.3813992, 48.4070015 ], [ 19.4279995, 48.3762016 ], [ 19.5130997, 48.2803993 ], [ 19.5337009, 48.2047991 ] ] ] ] } },
{ "type": "Feature", "properties": { "POLYGON_ID": "SVK_GAUL1995_ADM2_25438", "ADM0_ISO3": "SVK", "ADM0_NAME": "Slovakia", "ADM0_CODE": 223, "ADM1_NAME": "Banska Bystrica", "ADM1_CODE": 2667, "ADM2_NAME": "Zarnovica", "ADM2_CODE": 25438, "GEOSET": "GAUL", "GEOSET_YEAR": 1995.0, "GEOSET_VERSION": "GAUL_v1", "GEOSET_UNIT": "ADM2", "CENTROID_LONG": 18.643058470647908, "CENTROID_LAT": 48.474977128595199 }, "geometry": { "type": "MultiPolygon", "coordinates": [ [ [ [ 18.8687, 48.472599 ], [ 18.8104, 48.4272995 ], [ 18.7472, 48.414299 ], [ 18.6504002, 48.3497009 ], [ 18.5273991, 48.3373985 ], [ 18.5688, 48.3806 ], [ 18.5198002, 48.4557991 ], [ 18.5375004, 48.4908981 ], [ 18.4827003, 48.5517006 ], [ 18.4939995, 48.5712013 ], [ 18.5928993, 48.5737991 ], [ 18.6457996, 48.6351013 ], [ 18.7087994, 48.5718994 ], [ 18.6959991, 48.5326004 ], [ 18.7364998, 48.4897003 ], [ 18.8687, 48.472599 ] ] ] ] } },
{ "type": "Feature", "properties": { "POLYGON_ID": "SVK_GAUL1995_ADM2_25439", "ADM0_ISO3": "SVK", "ADM0_NAME": "Slovakia", "ADM0_CODE": 223, "ADM1_NAME": "Banska Bystrica", "ADM1_CODE": 2667, "ADM2_NAME": "Ziar nad Hronom", "ADM2_CODE": 25439, "GEOSET": "GAUL", "GEOSET_YEAR": 1995.0, "GEOSET_VERSION": "GAUL_v1", "GEOSET_UNIT": "ADM2", "CENTROID_LONG": 18.848232981153316, "CENTROID_LAT": 48.618252286162544 }, "geometry": { "type": "MultiPolygon", "coordinates": [ [ [ [ 18.9876003, 48.7467003 ], [ 19.0293007, 48.6862984 ], [ 18.9845009, 48.6609001 ], [ 19.0013008, 48.5867004 ], [ 18.9624004, 48.5643997 ], [ 18.9009991, 48.5401993 ], [ 18.8687, 48.472599 ], [ 18.7364998, 48.4897003 ], [ 18.6959991, 48.5326004 ], [ 18.7087994, 48.5718994 ], [ 18.6457996, 48.6351013 ], [ 18.7213001, 48.6357994 ], [ 18.7605, 48.6968994 ], [ 18.8232002, 48.7426987 ], [ 18.9876003, 48.7467003 ] ] ] ] } },
{ "type": "Feature", "properties": { "POLYGON_ID": "SVK_GAUL1995_ADM2_25440", "ADM0_ISO3": "SVK", "ADM0_NAME": "Slovakia", "ADM0_CODE": 223, "ADM1_NAME": "Banska Bystrica", "ADM1_CODE": 2667, "ADM2_NAME": "Zvolen", "ADM2_CODE": 25440, "GEOSET": "GAUL", "GEOSET_YEAR": 1995.0, "GEOSET_VERSION": "GAUL_v1", "GEOSET_UNIT": "ADM2", "CENTROID_LONG": 19.17199231837499, "CENTROID_LAT": 48.526656401901597 }, "geometry": { "type": "MultiPolygon", "coordinates": [ [ [ [ 19.4715996, 48.6707993 ], [ 19.4829998, 48.657299 ], [ 19.4202003, 48.6128006 ], [ 19.3241005, 48.6069984 ], [ 19.2303009, 48.4944 ], [ 19.3153992, 48.4432983 ], [ 19.3463993, 48.3917999 ], [ 19.3293991, 48.3143997 ], [ 19.2583008, 48.3317986 ], [ 19.2609997, 48.3806 ], [ 19.2010994, 48.3984985 ], [ 19.1242008, 48.3867989 ], [ 19.0102005, 48.4403992 ], [ 18.9841003, 48.4278984 ], [ 19.0058994, 48.5444984 ], [ 18.9624004, 48.5643997 ], [ 19.0013008, 48.5867004 ], [ 18.9845009, 48.6609001 ], [ 19.0293007, 48.6862984 ], [ 19.1317005, 48.6421013 ], [ 19.1940002, 48.6604996 ], [ 19.2756004, 48.6455002 ], [ 19.4174004, 48.6531982 ], [ 19.4715996, 48.6707993 ] ] ] ] } },
{ "type": "Feature", "properties": { "POLYGON_ID": "SVK_GAUL1995_ADM2_25441", "ADM0_ISO3": "SVK", "ADM0_NAME": "Slovakia", "ADM0_CODE": 223, "ADM1_NAME": "Bratislava", "ADM1_CODE": 2668, "ADM2_NAME": "Malacky", "ADM2_CODE": 25441, "GEOSET": "GAUL", "GEOSET_YEAR": 1995.0, "GEOSET_VERSION": "GAUL_v1", "GEOSET_UNIT": "ADM2", "CENTROID_LONG": 17.089682660372219, "CENTROID_LAT": 48.431727281173316 }, "geometry": { "type": "MultiPolygon", "coordinates": [ [ [ [ 17.3470001, 48.5028 ], [ 17.3078995, 48.460701 ], [ 17.2416, 48.3858986 ], [ 17.1902008, 48.3745995 ], [ 17.1756001, 48.3144989 ], [ 17.1327, 48.2495995 ], [ 16.9608871, 48.2618507 ], [ 16.90956, 48.33205 ], [ 16.84774, 48.37205 ], [ 16.86747, 48.46241 ], [ 16.9507738, 48.5374622 ], [ 17.0018997, 48.5573006 ], [ 17.1142006, 48.5495987 ], [ 17.2360992, 48.5712013 ], [ 17.3258991, 48.6539001 ], [ 17.3672009, 48.6096992 ], [ 17.2728996, 48.5499001 ], [ 17.3470001, 48.5028 ] ] ] ] } },
{ "type": "Feature", "properties": { "POLYGON_ID": "SVK_GAUL1995_ADM2_25442", "ADM0_ISO3": "SVK", "ADM0_NAME": "Slovakia", "ADM0_CODE": 223, "ADM1_NAME": "Bratislava", "ADM1_CODE": 2668, "ADM2_NAME": "Okres Bratislava I", "ADM2_CODE": 25442, "GEOSET": "GAUL", "GEOSET_YEAR": 1995.0, "GEOSET_VERSION": "GAUL_v1", "GEOSET_UNIT": "ADM2", "CENTROID_LONG": 17.095260275359635, "CENTROID_LAT": 48.154020438404451 }, "geometry": { "type": "MultiPolygon", "coordinates": [ [ [ [ 17.1296997, 48.1613007 ], [ 17.1105995, 48.1361008 ], [ 17.0730991, 48.1413994 ], [ 17.0674992, 48.1724014 ], [ 17.1296997, 48.1613007 ] ] ] ] } },
{ "type": "Feature", "properties": { "POLYGON_ID": "SVK_GAUL1995_ADM2_25443", "ADM0_ISO3": "SVK", "ADM0_NAME": "Slovakia", "ADM0_CODE": 223, "ADM1_NAME": "Bratislava", "ADM1_CODE": 2668, "ADM2_NAME": "Okres Bratislava II", "ADM2_CODE": 25443, "GEOSET": "GAUL", "GEOSET_YEAR": 1995.0, "GEOSET_VERSION": "GAUL_v1", "GEOSET_UNIT": "ADM2", "CENTROID_LONG": 17.183434871902417, "CENTROID_LAT": 48.132616725409918 }, "geometry": { "type": "MultiPolygon", "coordinates": [ [ [ [ 17.1870995, 48.0522003 ], [ 17.1105995, 48.1361008 ], [ 17.1296997, 48.1613007 ], [ 17.2341995, 48.1996994 ], [ 17.2397995, 48.1358986 ], [ 17.1870995, 48.0522003 ] ] ] ] } },
{ "type": "Feature", "properties": { "POLYGON_ID": "SVK_GAUL1995_ADM2_25444", "ADM0_ISO3": "SVK", "ADM0_NAME": "Slovakia", "ADM0_CODE": 223, "ADM1_NAME": "Bratislava", "ADM1_CODE": 2668, "ADM2_NAME": "Okres Bratislava III", "ADM2_CODE": 25444, "GEOSET": "GAUL", "GEOSET_YEAR": 1995.0, "GEOSET_VERSION": "GAUL_v1", "GEOSET_UNIT": "ADM2", "CENTROID_LONG": 17.136433406404596, "CENTROID_LAT": 48.20292434955055 }, "geometry": { "type": "MultiPolygon", "coordinates": [ [ [ [ 17.2287998, 48.2104988 ], [ 17.2341995, 48.1996994 ], [ 17.1296997, 48.1613007 ], [ 17.0674992, 48.1724014 ], [ 17.0666008, 48.2257004 ], [ 17.1336994, 48.2462006 ], [ 17.2287998, 48.2104988 ] ] ] ] } },
{ "type": "Feature", "properties": { "POLYGON_ID": "SVK_GAUL1995_ADM2_25445", "ADM0_ISO3": "SVK", "ADM0_NAME": "Slovakia", "ADM0_CODE": 223, "ADM1_NAME": "Bratislava", "ADM1_CODE": 2668, "ADM2_NAME": "Okres Bratislava IV", "ADM2_CODE": 25445, "GEOSET": "GAUL", "GEOSET_YEAR": 1995.0, "GEOSET_VERSION": "GAUL_v1", "GEOSET_UNIT": "ADM2", "CENTROID_LONG": 17.031754551325882, "CENTROID_LAT": 48.21223394318632 }, "geometry": { "type": "MultiPolygon", "coordinates": [ [ [ [ 17.1327, 48.2495995 ], [ 17.1336994, 48.2462006 ], [ 17.0666008, 48.2257004 ], [ 17.0674992, 48.1724014 ], [ 17.0730991, 48.1413994 ], [ 17.0540474, 48.1418991 ], [ 16.9926442, 48.1727493 ], [ 16.9882718, 48.1882716 ], [ 16.9608871, 48.2618507 ], [ 17.1327, 48.2495995 ] ] ] ] } },
{ "type": "Feature", "properties": { "POLYGON_ID": "SVK_GAUL1995_ADM2_25446", "ADM0_ISO3": "SVK", "ADM0_NAME": "Slovakia", "ADM0_CODE": 223, "ADM1_NAME": "Bratislava", "ADM1_CODE": 2668, "ADM2_NAME": "Okres Bratislava V", "ADM2_CODE": 25446, "GEOSET": "GAUL", "GEOSET_YEAR": 1995.0, "GEOSET_VERSION": "GAUL_v1", "GEOSET_UNIT": "ADM2", "CENTROID_LONG": 17.135189331095127, "CENTROID_LAT": 48.067714400507882 }, "geometry": { "type": "MultiPolygon", "coordinates": [ [ [ [ 17.0730991, 48.1413994 ], [ 17.1105995, 48.1361008 ], [ 17.1870995, 48.0522003 ], [ 17.2457398, 48.0187258 ], [ 17.1627176, 48.0081368 ], [ 17.09066, 48.04524 ], [ 17.0704044, 48.122131 ], [ 17.0540474, 48.1418991 ], [ 17.0730991, 48.1413994 ] ] ] ] } },
{ "type": "Feature", "properties": { "POLYGON_ID": "SVK_GAUL1995_ADM2_25447", "ADM0_ISO3": "SVK", "ADM0_NAME": "Slovakia", "ADM0_CODE": 223, "ADM1_NAME": "Bratislava", "ADM1_CODE": 2668, "ADM2_NAME": "Pezinok", "ADM2_CODE": 25447, "GEOSET": "GAUL", "GEOSET_YEAR": 1995.0, "GEOSET_VERSION": "GAUL_v1", "GEOSET_UNIT": "ADM2", "CENTROID_LONG": 17.302632247519266, "CENTROID_LAT": 48.331944470930104 }, "geometry": { "type": "MultiPolygon", "coordinates": [ [ [ [ 17.4554996, 48.3027992 ], [ 17.3962002, 48.3003006 ], [ 17.3246994, 48.2403984 ], [ 17.2479992, 48.2417984 ], [ 17.2287998, 48.2104988 ], [ 17.1336994, 48.2462006 ], [ 17.1327, 48.2495995 ], [ 17.1756001, 48.3144989 ], [ 17.1902008, 48.3745995 ], [ 17.2416, 48.3858986 ], [ 17.3078995, 48.460701 ], [ 17.3777008, 48.4382019 ], [ 17.4768009, 48.3483009 ], [ 17.4554996, 48.3027992 ] ] ] ] } },
{ "type": "Feature", "properties": { "POLYGON_ID": "SVK_GAUL1995_ADM2_25448", "ADM0_ISO3": "SVK", "ADM0_NAME": "Slovakia", "ADM0_CODE": 223, "ADM1_NAME": "Bratislava", "ADM1_CODE": 2668, "ADM2_NAME": "Senec", "ADM2_CODE": 25448, "GEOSET": "GAUL", "GEOSET_YEAR": 1995.0, "GEOSET_VERSION": "GAUL_v1", "GEOSET_UNIT": "ADM2", "CENTROID_LONG": 17.359364428249414, "CENTROID_LAT": 48.1821741637849 }, "geometry": { "type": "MultiPolygon", "coordinates": [ [ [ [ 17.4554996, 48.3027992 ], [ 17.5090008, 48.273201 ], [ 17.5219994, 48.1734009 ], [ 17.4685993, 48.1464005 ], [ 17.3031998, 48.1038017 ], [ 17.2515442, 48.0193882 ], [ 17.2457398, 48.0187258 ], [ 17.1870995, 48.0522003 ], [ 17.2397995, 48.1358986 ], [ 17.2341995, 48.1996994 ], [ 17.2287998, 48.2104988 ], [ 17.2479992, 48.2417984 ], [ 17.3246994, 48.2403984 ], [ 17.3962002, 48.3003006 ], [ 17.4554996, 48.3027992 ] ] ] ] } },
{ "type": "Feature", "properties": { "POLYGON_ID": "SVK_GAUL1995_ADM2_25449", "ADM0_ISO3": "SVK", "ADM0_NAME": "Slovakia", "ADM0_CODE": 223, "ADM1_NAME": "Kosice", "ADM1_CODE": 2669, "ADM2_NAME": "Gelnica", "ADM2_CODE": 25449, "GEOSET": "GAUL", "GEOSET_YEAR": 1995.0, "GEOSET_VERSION": "GAUL_v1", "GEOSET_UNIT": "ADM2", "CENTROID_LONG": 20.806534293497691, "CENTROID_LAT": 48.819991703210668 }, "geometry": { "type": "MultiPolygon", "coordinates": [ [ [ [ 21.0522995, 48.8993988 ], [ 21.0725994, 48.8345985 ], [ 21.0300007, 48.7757988 ], [ 20.8481007, 48.7751007 ], [ 20.7499008, 48.7215004 ], [ 20.7418003, 48.6776009 ], [ 20.6583996, 48.6941986 ], [ 20.6478996, 48.7428017 ], [ 20.5753002, 48.7495995 ], [ 20.5293007, 48.8019981 ], [ 20.6117001, 48.8964005 ], [ 20.6560001, 48.8947983 ], [ 20.7502995, 48.8373985 ], [ 20.8745995, 48.8606987 ], [ 20.9139996, 48.9071007 ], [ 20.8843002, 48.9578018 ], [ 20.9782009, 48.9530983 ], [ 21.0522995, 48.8993988 ] ] ] ] } },
{ "type": "Feature", "properties": { "POLYGON_ID": "SVK_GAUL1995_ADM2_25450", "ADM0_ISO3": "SVK", "ADM0_NAME": "Slovakia", "ADM0_CODE": 223, "ADM1_NAME": "Kosice", "ADM1_CODE": 2669, "ADM2_NAME": "Kosice-okolie", "ADM2_CODE": 25450, "GEOSET": "GAUL", "GEOSET_YEAR": 1995.0, "GEOSET_VERSION": "GAUL_v1", "GEOSET_UNIT": "ADM2", "CENTROID_LONG": 21.179688045832439, "CENTROID_LAT": 48.693739999511934 }, "geometry": { "type": "MultiPolygon", "coordinates": [ [ [ [ 21.4778004, 48.8806992 ], [ 21.5459003, 48.7951012 ], [ 21.5536995, 48.7369003 ], [ 21.5223007, 48.5969009 ], [ 21.5254476, 48.5467628 ], [ 21.4293, 48.56382 ], [ 21.24192, 48.54112 ], [ 21.13854, 48.49971 ], [ 20.94169, 48.55393 ], [ 20.7915369, 48.5770348 ], [ 20.8078003, 48.6478004 ], [ 20.7418003, 48.6776009 ], [ 20.7499008, 48.7215004 ], [ 20.8481007, 48.7751007 ], [ 21.0300007, 48.7757988 ], [ 21.0725994, 48.8345985 ], [ 21.0522995, 48.8993988 ], [ 21.1473007, 48.8932991 ], [ 21.3575001, 48.8367004 ], [ 21.3729, 48.8787994 ], [ 21.4778004, 48.8806992 ] ], [ [ 21.1721001, 48.7243996 ], [ 21.1777992, 48.6604004 ], [ 21.1277008, 48.6183014 ], [ 21.2360001, 48.5778999 ], [ 21.2467995, 48.6437988 ], [ 21.3551006, 48.6664009 ], [ 21.3227005, 48.709301 ], [ 21.2991009, 48.7854004 ], [ 21.1457005, 48.7932014 ], [ 21.1245003, 48.7611008 ], [ 21.1721001, 48.7243996 ] ] ] ] } },
{ "type": "Feature", "properties": { "POLYGON_ID": "SVK_GAUL1995_ADM2_25451", "ADM0_ISO3": "SVK", "ADM0_NAME": "Slovakia", "ADM0_CODE": 223, "ADM1_NAME": "Kosice", "ADM1_CODE": 2669, "ADM2_NAME": "Michalovce", "ADM2_CODE": 25451, "GEOSET": "GAUL", "GEOSET_YEAR": 1995.0, "GEOSET_VERSION": "GAUL_v1", "GEOSET_UNIT": "ADM2", "CENTROID_LONG": 21.956893409960752, "CENTROID_LAT": 48.680795984762483 }, "geometry": { "type": "MultiPolygon", "coordinates": [ [ [ [ 22.1567993, 48.8922005 ], [ 22.1578999, 48.8204994 ], [ 22.1105995, 48.8041 ], [ 22.0613995, 48.7504005 ], [ 22.1727672, 48.5726026 ], [ 22.1604897, 48.4548554 ], [ 22.0373001, 48.5102997 ], [ 21.9067001, 48.5082016 ], [ 21.8281002, 48.4912987 ], [ 21.8150997, 48.600399 ], [ 21.7303009, 48.7322006 ], [ 21.7600994, 48.7737007 ], [ 21.7996998, 48.8000984 ], [ 21.7926006, 48.9014015 ], [ 21.9305, 48.8753014 ], [ 21.9585991, 48.8502007 ], [ 22.1287003, 48.8436012 ], [ 22.1567993, 48.8922005 ] ] ] ] } },
{ "type": "Feature", "properties": { "POLYGON_ID": "SVK_GAUL1995_ADM2_25452", "ADM0_ISO3": "SVK", "ADM0_NAME": "Slovakia", "ADM0_CODE": 223, "ADM1_NAME": "Kosice", "ADM1_CODE": 2669, "ADM2_NAME": "Okres Kosice I", "ADM2_CODE": 25452, "GEOSET": "GAUL", "GEOSET_YEAR": 1995.0, "GEOSET_VERSION": "GAUL_v1", "GEOSET_UNIT": "ADM2", "CENTROID_LONG": 21.215083868925021, "CENTROID_LAT": 48.756479869178911 }, "geometry": { "type": "MultiPolygon", "coordinates": [ [ [ [ 21.2991009, 48.7854004 ], [ 21.2793999, 48.7240982 ], [ 21.2483006, 48.7126007 ], [ 21.1721001, 48.7243996 ], [ 21.1245003, 48.7611008 ], [ 21.1457005, 48.7932014 ], [ 21.2991009, 48.7854004 ] ] ] ] } },
{ "type": "Feature", "properties": { "POLYGON_ID": "SVK_GAUL1995_ADM2_25453", "ADM0_ISO3": "SVK", "ADM0_NAME": "Slovakia", "ADM0_CODE": 223, "ADM1_NAME": "Kosice", "ADM1_CODE": 2669, "ADM2_NAME": "Okres Kosice II", "ADM2_CODE": 25453, "GEOSET": "GAUL", "GEOSET_YEAR": 1995.0, "GEOSET_VERSION": "GAUL_v1", "GEOSET_UNIT": "ADM2", "CENTROID_LONG": 21.199669507878237, "CENTROID_LAT": 48.648156776797848 }, "geometry": { "type": "MultiPolygon", "coordinates": [ [ [ [ 21.2483006, 48.7126007 ], [ 21.2124996, 48.6743011 ], [ 21.2467995, 48.6437988 ], [ 21.2360001, 48.5778999 ], [ 21.1277008, 48.6183014 ], [ 21.1777992, 48.6604004 ], [ 21.1721001, 48.7243996 ], [ 21.2483006, 48.7126007 ] ] ] ] } },
{ "type": "Feature", "properties": { "POLYGON_ID": "SVK_GAUL1995_ADM2_25454", "ADM0_ISO3": "SVK", "ADM0_NAME": "Slovakia", "ADM0_CODE": 223, "ADM1_NAME": "Kosice", "ADM1_CODE": 2669, "ADM2_NAME": "Okres Kosice III", "ADM2_CODE": 25454, "GEOSET": "GAUL", "GEOSET_YEAR": 1995.0, "GEOSET_VERSION": "GAUL_v1", "GEOSET_UNIT": "ADM2", "CENTROID_LONG": 21.30040043333333, "CENTROID_LAT": 48.739599866666666 }, "geometry": { "type": "MultiPolygon", "coordinates": [ [ [ [ 21.3227005, 48.709301 ], [ 21.2793999, 48.7240982 ], [ 21.2991009, 48.7854004 ], [ 21.3227005, 48.709301 ] ] ] ] } },
{ "type": "Feature", "properties": { "POLYGON_ID": "SVK_GAUL1995_ADM2_25455", "ADM0_ISO3": "SVK", "ADM0_NAME": "Slovakia", "ADM0_CODE": 223, "ADM1_NAME": "Kosice", "ADM1_CODE": 2669, "ADM2_NAME": "Okres Kosice IV", "ADM2_CODE": 25455, "GEOSET": "GAUL", "GEOSET_YEAR": 1995.0, "GEOSET_VERSION": "GAUL_v1", "GEOSET_UNIT": "ADM2", "CENTROID_LONG": 21.280786690945682, "CENTROID_LAT": 48.682418631977811 }, "geometry": { "type": "MultiPolygon", "coordinates": [ [ [ [ 21.3227005, 48.709301 ], [ 21.3551006, 48.6664009 ], [ 21.2467995, 48.6437988 ], [ 21.2124996, 48.6743011 ], [ 21.2483006, 48.7126007 ], [ 21.2793999, 48.7240982 ], [ 21.3227005, 48.709301 ] ] ] ] } },
{ "type": "Feature", "properties": { "POLYGON_ID": "SVK_GAUL1995_ADM2_25456", "ADM0_ISO3": "SVK", "ADM0_NAME": "Slovakia", "ADM0_CODE": 223, "ADM1_NAME": "Kosice", "ADM1_CODE": 2669, "ADM2_NAME": "Roznava", "ADM2_CODE": 25456, "GEOSET": "GAUL", "GEOSET_YEAR": 1995.0, "GEOSET_VERSION": "GAUL_v1", "GEOSET_UNIT": "ADM2", "CENTROID_LONG": 20.460173651114651, "CENTROID_LAT": 48.672627064741 }, "geometry": { "type": "MultiPolygon", "coordinates": [ [ [ [ 20.5293007, 48.8019981 ], [ 20.5753002, 48.7495995 ], [ 20.6478996, 48.7428017 ], [ 20.6583996, 48.6941986 ], [ 20.7418003, 48.6776009 ], [ 20.8078003, 48.6478004 ], [ 20.7915369, 48.5770348 ], [ 20.65394, 48.56653 ], [ 20.61423, 48.54515 ], [ 20.49778, 48.53753 ], [ 20.5119198, 48.5070714 ], [ 20.4710533, 48.462078 ], [ 20.3341007, 48.4592018 ], [ 20.302, 48.4939995 ], [ 20.3556004, 48.5862999 ], [ 20.3008003, 48.610199 ], [ 20.2723999, 48.6794014 ], [ 20.1837006, 48.7453003 ], [ 20.2017002, 48.7929001 ], [ 20.2765999, 48.8633003 ], [ 20.3353996, 48.9197006 ], [ 20.3917999, 48.8903999 ], [ 20.3852997, 48.853199 ], [ 20.5293007, 48.8019981 ] ] ] ] } },
{ "type": "Feature", "properties": { "POLYGON_ID": "SVK_GAUL1995_ADM2_25457", "ADM0_ISO3": "SVK", "ADM0_NAME": "Slovakia", "ADM0_CODE": 223, "ADM1_NAME": "Kosice", "ADM1_CODE": 2669, "ADM2_NAME": "Sobrance", "ADM2_CODE": 25457, "GEOSET": "GAUL", "GEOSET_YEAR": 1995.0, "GEOSET_VERSION": "GAUL_v1", "GEOSET_UNIT": "ADM2", "CENTROID_LONG": 22.227870381241608, "CENTROID_LAT": 48.75829675666364 }, "geometry": { "type": "MultiPolygon", "coordinates": [ [ [ [ 22.3945038, 48.8614857 ], [ 22.39222, 48.79509 ], [ 22.36065, 48.77075 ], [ 22.35705, 48.69934 ], [ 22.2594563, 48.6559761 ], [ 22.1727672, 48.5726026 ], [ 22.0613995, 48.7504005 ], [ 22.1105995, 48.8041 ], [ 22.1578999, 48.8204994 ], [ 22.1567993, 48.8922005 ], [ 22.1979008, 48.9264984 ], [ 22.2656002, 48.8672981 ], [ 22.3945038, 48.8614857 ] ] ] ] } },
{ "type": "Feature", "properties": { "POLYGON_ID": "SVK_GAUL1995_ADM2_25458", "ADM0_ISO3": "SVK", "ADM0_NAME": "Slovakia", "ADM0_CODE": 223, "ADM1_NAME": "Kosice", "ADM1_CODE": 2669, "ADM2_NAME": "Spisska Nova Ves", "ADM2_CODE": 25458, "GEOSET": "GAUL", "GEOSET_YEAR": 1995.0, "GEOSET_VERSION": "GAUL_v1", "GEOSET_UNIT": "ADM2", "CENTROID_LONG": 20.603188362332855, "CENTROID_LAT": 48.906836770857872 }, "geometry": { "type": "MultiPolygon", "coordinates": [ [ [ [ 20.8717995, 48.9631004 ], [ 20.8843002, 48.9578018 ], [ 20.9139996, 48.9071007 ], [ 20.8745995, 48.8606987 ], [ 20.7502995, 48.8373985 ], [ 20.6560001, 48.8947983 ], [ 20.6117001, 48.8964005 ], [ 20.5293007, 48.8019981 ], [ 20.3852997, 48.853199 ], [ 20.3917999, 48.8903999 ], [ 20.3353996, 48.9197006 ], [ 20.3211994, 48.9464989 ], [ 20.4309998, 48.9878998 ], [ 20.5254002, 48.9872017 ], [ 20.6306992, 48.9379005 ], [ 20.8717995, 48.9631004 ] ] ] ] } },
{ "type": "Feature", "properties": { "POLYGON_ID": "SVK_GAUL1995_ADM2_25459", "ADM0_ISO3": "SVK", "ADM0_NAME": "Slovakia", "ADM0_CODE": 223, "ADM1_NAME": "Kosice", "ADM1_CODE": 2669, "ADM2_NAME": "Trebisov", "ADM2_CODE": 25459, "GEOSET": "GAUL", "GEOSET_YEAR": 1995.0, "GEOSET_VERSION": "GAUL_v1", "GEOSET_UNIT": "ADM2", "CENTROID_LONG": 21.770507646831764, "CENTROID_LAT": 48.537277929748505 }, "geometry": { "type": "MultiPolygon", "coordinates": [ [ [ [ 21.7600994, 48.7737007 ], [ 21.7303009, 48.7322006 ], [ 21.8150997, 48.600399 ], [ 21.8281002, 48.4912987 ], [ 21.9067001, 48.5082016 ], [ 22.0373001, 48.5102997 ], [ 22.1604897, 48.4548554 ], [ 22.1303581, 48.3818996 ], [ 22.0388891, 48.3911399 ], [ 21.86084, 48.36723 ], [ 21.82722, 48.33876 ], [ 21.72957, 48.35518 ], [ 21.6783093, 48.3993525 ], [ 21.62706, 48.50986 ], [ 21.55299, 48.51366 ], [ 21.5254476, 48.5467628 ], [ 21.5223007, 48.5969009 ], [ 21.5536995, 48.7369003 ], [ 21.5459003, 48.7951012 ], [ 21.7068005, 48.767601 ], [ 21.7600994, 48.7737007 ] ] ] ] } },
{ "type": "Feature", "properties": { "POLYGON_ID": "SVK_GAUL1995_ADM2_25460", "ADM0_ISO3": "SVK", "ADM0_NAME": "Slovakia", "ADM0_CODE": 223, "ADM1_NAME": "Nitra", "ADM1_CODE": 2670, "ADM2_NAME": "Komarno", "ADM2_CODE": 25460, "GEOSET": "GAUL", "GEOSET_YEAR": 1995.0, "GEOSET_VERSION": "GAUL_v1", "GEOSET_UNIT": "ADM2", "CENTROID_LONG": 18.107806295853489, "CENTROID_LAT": 47.834669768008368 }, "geometry": { "type": "MultiPolygon", "coordinates": [ [ [ [ 17.9687996, 47.969101 ], [ 18.0172997, 47.9393997 ], [ 18.1292992, 47.9696999 ], [ 18.1644001, 47.9416008 ], [ 18.2367001, 47.9546013 ], [ 18.5126991, 47.8110008 ], [ 18.4990971, 47.748346 ], [ 18.29574, 47.72811 ], [ 18.0964, 47.75183 ], [ 17.9025892, 47.7336075 ], [ 17.71951, 47.75093 ], [ 17.7007108, 47.7725811 ], [ 17.7215996, 47.8078003 ], [ 17.7901001, 47.8319016 ], [ 17.8794003, 47.9160995 ], [ 17.8721008, 47.9588013 ], [ 17.8796005, 47.9886017 ], [ 17.9687996, 47.969101 ] ] ] ] } },
{ "type": "Feature", "properties": { "POLYGON_ID": "SVK_GAUL1995_ADM2_25461", "ADM0_ISO3": "SVK", "ADM0_NAME": "Slovakia", "ADM0_CODE": 223, "ADM1_NAME": "Nitra", "ADM1_CODE": 2670, "ADM2_NAME": "Levice", "ADM2_CODE": 25461, "GEOSET": "GAUL", "GEOSET_YEAR": 1995.0, "GEOSET_VERSION": "GAUL_v1", "GEOSET_UNIT": "ADM2", "CENTROID_LONG": 18.669900757276661, "CENTROID_LAT": 48.148414587250208 }, "geometry": { "type": "MultiPolygon", "coordinates": [ [ [ [ 18.7472, 48.414299 ], [ 18.8463001, 48.3132019 ], [ 18.8055, 48.2519989 ], [ 18.8150005, 48.1711006 ], [ 18.9365997, 48.1671982 ], [ 19.0540009, 48.2122002 ], [ 19.0604992, 48.1351013 ], [ 19.0155423, 48.0638575 ], [ 18.9852134, 48.0656782 ], [ 18.92949, 48.07638 ], [ 18.83232, 48.04373 ], [ 18.8279878, 47.9952396 ], [ 18.7877841, 47.9438692 ], [ 18.6210995, 47.9487991 ], [ 18.5221996, 47.9319 ], [ 18.4468002, 47.9544983 ], [ 18.4561996, 48.0177994 ], [ 18.4200001, 48.0796013 ], [ 18.4251003, 48.1282997 ], [ 18.3383999, 48.1777992 ], [ 18.4309998, 48.2412987 ], [ 18.4108009, 48.2667007 ], [ 18.5273991, 48.3373985 ], [ 18.6504002, 48.3497009 ], [ 18.7472, 48.414299 ] ] ] ] } },
{ "type": "Feature", "properties": { "POLYGON_ID": "SVK_GAUL1995_ADM2_25462", "ADM0_ISO3": "SVK", "ADM0_NAME": "Slovakia", "ADM0_CODE": 223, "ADM1_NAME": "Nitra", "ADM1_CODE": 2670, "ADM2_NAME": "Nitra", "ADM2_CODE": 25462, "GEOSET": "GAUL", "GEOSET_YEAR": 1995.0, "GEOSET_VERSION": "GAUL_v1", "GEOSET_UNIT": "ADM2", "CENTROID_LONG": 18.110491350432557, "CENTROID_LAT": 48.302374709018771 }, "geometry": { "type": "MultiPolygon", "coordinates": [ [ [ [ 18.1877003, 48.4378014 ], [ 18.2626991, 48.3753014 ], [ 18.2674999, 48.3116989 ], [ 18.4108009, 48.2667007 ], [ 18.4309998, 48.2412987 ], [ 18.3383999, 48.1777992 ], [ 18.1282997, 48.1864014 ], [ 18.0403004, 48.1431999 ], [ 17.9967995, 48.1697006 ], [ 17.9748001, 48.2514992 ], [ 17.8575001, 48.2790985 ], [ 17.8509007, 48.3470993 ], [ 17.9505005, 48.4592018 ], [ 18.0291004, 48.4603004 ], [ 18.0611, 48.4296989 ], [ 18.1877003, 48.4378014 ] ] ] ] } },
{ "type": "Feature", "properties": { "POLYGON_ID": "SVK_GAUL1995_ADM2_25463", "ADM0_ISO3": "SVK", "ADM0_NAME": "Slovakia", "ADM0_CODE": 223, "ADM1_NAME": "Nitra", "ADM1_CODE": 2670, "ADM2_NAME": "Nove Zamky", "ADM2_CODE": 25463, "GEOSET": "GAUL", "GEOSET_YEAR": 1995.0, "GEOSET_VERSION": "GAUL_v1", "GEOSET_UNIT": "ADM2", "CENTROID_LONG": 18.365374566700535, "CENTROID_LAT": 47.981258212746013 }, "geometry": { "type": "MultiPolygon", "coordinates": [ [ [ [ 18.3383999, 48.1777992 ], [ 18.4251003, 48.1282997 ], [ 18.4200001, 48.0796013 ], [ 18.4561996, 48.0177994 ], [ 18.4468002, 47.9544983 ], [ 18.5221996, 47.9319 ], [ 18.6210995, 47.9487991 ], [ 18.7877841, 47.9438692 ], [ 18.78919, 47.8794 ], [ 18.8710404, 47.8146552 ], [ 18.76144, 47.8137 ], [ 18.68, 47.75199 ], [ 18.56835, 47.76504 ], [ 18.4990971, 47.748346 ], [ 18.5126991, 47.8110008 ], [ 18.2367001, 47.9546013 ], [ 18.1644001, 47.9416008 ], [ 18.1292992, 47.9696999 ], [ 18.0172997, 47.9393997 ], [ 17.9687996, 47.969101 ], [ 18.0027008, 48.0145988 ], [ 17.9584007, 48.1334 ], [ 17.9967995, 48.1697006 ], [ 18.0403004, 48.1431999 ], [ 18.1282997, 48.1864014 ], [ 18.3383999, 48.1777992 ] ] ] ] } },
{ "type": "Feature", "properties": { "POLYGON_ID": "SVK_GAUL1995_ADM2_25464", "ADM0_ISO3": "SVK", "ADM0_NAME": "Slovakia", "ADM0_CODE": 223, "ADM1_NAME": "Nitra", "ADM1_CODE": 2670, "ADM2_NAME": "Sala", "ADM2_CODE": 25464, "GEOSET": "GAUL", "GEOSET_YEAR": 1995.0, "GEOSET_VERSION": "GAUL_v1", "GEOSET_UNIT": "ADM2", "CENTROID_LONG": 17.905354206486447, "CENTROID_LAT": 48.126992250224419 }, "geometry": { "type": "MultiPolygon", "coordinates": [ [ [ [ 17.9967995, 48.1697006 ], [ 17.9584007, 48.1334 ], [ 18.0027008, 48.0145988 ], [ 17.9687996, 47.969101 ], [ 17.8796005, 47.9886017 ], [ 17.8761997, 48.0498009 ], [ 17.8033009, 48.0728989 ], [ 17.8124008, 48.1161003 ], [ 17.7712994, 48.1646004 ], [ 17.8736, 48.203701 ], [ 17.8360004, 48.2436981 ], [ 17.8575001, 48.2790985 ], [ 17.9748001, 48.2514992 ], [ 17.9967995, 48.1697006 ] ] ] ] } },
{ "type": "Feature", "properties": { "POLYGON_ID": "SVK_GAUL1995_ADM2_25465", "ADM0_ISO3": "SVK", "ADM0_NAME": "Slovakia", "ADM0_CODE": 223, "ADM1_NAME": "Nitra", "ADM1_CODE": 2670, "ADM2_NAME": "Topolcany", "ADM2_CODE": 25465, "GEOSET": "GAUL", "GEOSET_YEAR": 1995.0, "GEOSET_VERSION": "GAUL_v1", "GEOSET_UNIT": "ADM2", "CENTROID_LONG": 18.075852246547221, "CENTROID_LAT": 48.5495747521014 }, "geometry": { "type": "MultiPolygon", "coordinates": [ [ [ [ 18.2138996, 48.6314011 ], [ 18.2192001, 48.5811996 ], [ 18.3106003, 48.4948006 ], [ 18.1877003, 48.4378014 ], [ 18.0611, 48.4296989 ], [ 18.0291004, 48.4603004 ], [ 17.9505005, 48.4592018 ], [ 17.8358002, 48.5205994 ], [ 17.8868008, 48.5914993 ], [ 17.9766006, 48.6172981 ], [ 18.0137997, 48.6319008 ], [ 18.0067005, 48.712101 ], [ 18.0951004, 48.6898994 ], [ 18.2138996, 48.6314011 ] ] ] ] } },
{ "type": "Feature", "properties": { "POLYGON_ID": "SVK_GAUL1995_ADM2_25466", "ADM0_ISO3": "SVK", "ADM0_NAME": "Slovakia", "ADM0_CODE": 223, "ADM1_NAME": "Nitra", "ADM1_CODE": 2670, "ADM2_NAME": "Zlate Moravce", "ADM2_CODE": 25466, "GEOSET": "GAUL", "GEOSET_YEAR": 1995.0, "GEOSET_VERSION": "GAUL_v1", "GEOSET_UNIT": "ADM2", "CENTROID_LONG": 18.395949103007407, "CENTROID_LAT": 48.404433971432191 }, "geometry": { "type": "MultiPolygon", "coordinates": [ [ [ [ 18.5273991, 48.3373985 ], [ 18.4108009, 48.2667007 ], [ 18.2674999, 48.3116989 ], [ 18.2626991, 48.3753014 ], [ 18.1877003, 48.4378014 ], [ 18.3106003, 48.4948006 ], [ 18.3563995, 48.4906998 ], [ 18.4827003, 48.5517006 ], [ 18.5375004, 48.4908981 ], [ 18.5198002, 48.4557991 ], [ 18.5688, 48.3806 ], [ 18.5273991, 48.3373985 ] ] ] ] } },
{ "type": "Feature", "properties": { "POLYGON_ID": "SVK_GAUL1995_ADM2_25467", "ADM0_ISO3": "SVK", "ADM0_NAME": "Slovakia", "ADM0_CODE": 223, "ADM1_NAME": "Presov", "ADM1_CODE": 2671, "ADM2_NAME": "Bardejov", "ADM2_CODE": 25467, "GEOSET": "GAUL", "GEOSET_YEAR": 1995.0, "GEOSET_VERSION": "GAUL_v1", "GEOSET_UNIT": "ADM2", "CENTROID_LONG": 21.263513368164592, "CENTROID_LAT": 49.286862898570512 }, "geometry": { "type": "MultiPolygon", "coordinates": [ [ [ [ 21.4478945, 49.4142086 ], [ 21.4099007, 49.3249016 ], [ 21.5067005, 49.2649002 ], [ 21.5242996, 49.2156982 ], [ 21.4300003, 49.1292992 ], [ 21.3785992, 49.1141014 ], [ 21.2180004, 49.1613007 ], [ 21.1676006, 49.1917 ], [ 21.1221008, 49.2187996 ], [ 21.0293999, 49.2128983 ], [ 20.9944992, 49.2312012 ], [ 20.9850727, 49.3085782 ], [ 21.01878, 49.34669 ], [ 21.10331, 49.37716 ], [ 21.064081, 49.4222018 ], [ 21.132, 49.43417 ], [ 21.19639, 49.40067 ], [ 21.282, 49.4564 ], [ 21.3980365, 49.4323757 ], [ 21.4478945, 49.4142086 ] ] ] ] } },
{ "type": "Feature", "properties": { "POLYGON_ID": "SVK_GAUL1995_ADM2_25468", "ADM0_ISO3": "SVK", "ADM0_NAME": "Slovakia", "ADM0_CODE": 223, "ADM1_NAME": "Presov", "ADM1_CODE": 2671, "ADM2_NAME": "Humenne", "ADM2_CODE": 25468, "GEOSET": "GAUL", "GEOSET_YEAR": 1995.0, "GEOSET_VERSION": "GAUL_v1", "GEOSET_UNIT": "ADM2", "CENTROID_LONG": 21.959175533640273, "CENTROID_LAT": 49.007198547640861 }, "geometry": { "type": "MultiPolygon", "coordinates": [ [ [ [ 22.1548892, 49.1867416 ], [ 22.1084003, 49.1302986 ], [ 22.1350002, 49.0774002 ], [ 22.1128006, 49.0200005 ], [ 22.0517998, 49.0023003 ], [ 22.0205002, 48.9626007 ], [ 22.1138992, 48.9304008 ], [ 22.1979008, 48.9264984 ], [ 22.1567993, 48.8922005 ], [ 22.1287003, 48.8436012 ], [ 21.9585991, 48.8502007 ], [ 21.9305, 48.8753014 ], [ 21.7926006, 48.9014015 ], [ 21.8027, 48.9696999 ], [ 21.7460003, 49.1302986 ], [ 21.7943001, 49.1958008 ], [ 21.8269005, 49.1383018 ], [ 21.8985004, 49.1007004 ], [ 22.0790005, 49.1507988 ], [ 22.1068171, 49.205267 ], [ 22.1548892, 49.1867416 ] ] ] ] } },
{ "type": "Feature", "properties": { "POLYGON_ID": "SVK_GAUL1995_ADM2_25469", "ADM0_ISO3": "SVK", "ADM0_NAME": "Slovakia", "ADM0_CODE": 223, "ADM1_NAME": "Presov", "ADM1_CODE": 2671, "ADM2_NAME": "Kezmarok", "ADM2_CODE": 25469, "GEOSET": "GAUL", "GEOSET_YEAR": 1995.0, "GEOSET_VERSION": "GAUL_v1", "GEOSET_UNIT": "ADM2", "CENTROID_LONG": 20.487878888510021, "CENTROID_LAT": 49.196588234273946 }, "geometry": { "type": "MultiPolygon", "coordinates": [ [ [ [ 20.4226296, 49.4034698 ], [ 20.4057007, 49.3217011 ], [ 20.5002003, 49.3158989 ], [ 20.5375996, 49.2372017 ], [ 20.6368008, 49.2556992 ], [ 20.7616997, 49.2084007 ], [ 20.8087006, 49.1650009 ], [ 20.7644997, 49.1212006 ], [ 20.6868, 49.1105003 ], [ 20.6303005, 49.0707016 ], [ 20.4848003, 49.0514984 ], [ 20.4535999, 49.0294991 ], [ 20.3703003, 49.0568008 ], [ 20.2784996, 49.1372986 ], [ 20.3453007, 49.1640015 ], [ 20.3686008, 49.2212982 ], [ 20.3197002, 49.2812996 ], [ 20.2085991, 49.287899 ], [ 20.1836556, 49.3293095 ], [ 20.2089104, 49.3440433 ], [ 20.3219, 49.34955 ], [ 20.33884, 49.40404 ], [ 20.4226296, 49.4034698 ] ] ] ] } },
{ "type": "Feature", "properties": { "POLYGON_ID": "SVK_GAUL1995_ADM2_25470", "ADM0_ISO3": "SVK", "ADM0_NAME": "Slovakia", "ADM0_CODE": 223, "ADM1_NAME": "Presov", "ADM1_CODE": 2671, "ADM2_NAME": "Levoca", "ADM2_CODE": 25470, "GEOSET": "GAUL", "GEOSET_YEAR": 1995.0, "GEOSET_VERSION": "GAUL_v1", "GEOSET_UNIT": "ADM2", "CENTROID_LONG": 20.69268929813536, "CENTROID_LAT": 49.022457355277162 }, "geometry": { "type": "MultiPolygon", "coordinates": [ [ [ [ 20.7644997, 49.1212006 ], [ 20.8234997, 49.0817986 ], [ 20.8938999, 49.0786018 ], [ 20.8717995, 48.9631004 ], [ 20.6306992, 48.9379005 ], [ 20.5254002, 48.9872017 ], [ 20.4309998, 48.9878998 ], [ 20.4535999, 49.0294991 ], [ 20.4848003, 49.0514984 ], [ 20.6303005, 49.0707016 ], [ 20.6868, 49.1105003 ], [ 20.7644997, 49.1212006 ] ] ] ] } },
{ "type": "Feature", "properties": { "POLYGON_ID": "SVK_GAUL1995_ADM2_25471", "ADM0_ISO3": "SVK", "ADM0_NAME": "Slovakia", "ADM0_CODE": 223, "ADM1_NAME": "Presov", "ADM1_CODE": 2671, "ADM2_NAME": "Medzilaborce", "ADM2_CODE": 25471, "GEOSET": "GAUL", "GEOSET_YEAR": 1995.0, "GEOSET_VERSION": "GAUL_v1", "GEOSET_UNIT": "ADM2", "CENTROID_LONG": 21.931534471510858, "CENTROID_LAT": 49.233248725480884 }, "geometry": { "type": "MultiPolygon", "coordinates": [ [ [ [ 22.1068171, 49.205267 ], [ 22.0790005, 49.1507988 ], [ 21.8985004, 49.1007004 ], [ 21.8269005, 49.1383018 ], [ 21.7943001, 49.1958008 ], [ 21.8738995, 49.2873993 ], [ 21.7872514, 49.3569741 ], [ 21.8457868, 49.3923489 ], [ 21.96171, 49.34987 ], [ 22.03226, 49.28574 ], [ 22.04516, 49.22177 ], [ 22.1068171, 49.205267 ] ] ] ] } },
{ "type": "Feature", "properties": { "POLYGON_ID": "SVK_GAUL1995_ADM2_25472", "ADM0_ISO3": "SVK", "ADM0_NAME": "Slovakia", "ADM0_CODE": 223, "ADM1_NAME": "Presov", "ADM1_CODE": 2671, "ADM2_NAME": "Poprad", "ADM2_CODE": 25472, "GEOSET": "GAUL", "GEOSET_YEAR": 1995.0, "GEOSET_VERSION": "GAUL_v1", "GEOSET_UNIT": "ADM2", "CENTROID_LONG": 20.17704757494387, "CENTROID_LAT": 49.083564614689799 }, "geometry": { "type": "MultiPolygon", "coordinates": [ [ [ [ 20.4535999, 49.0294991 ], [ 20.4309998, 48.9878998 ], [ 20.3211994, 48.9464989 ], [ 20.3353996, 48.9197006 ], [ 20.2765999, 48.8633003 ], [ 19.9988003, 48.8950005 ], [ 20.0578995, 48.9110985 ], [ 20.0118999, 49.0021019 ], [ 20.0436993, 49.0914001 ], [ 19.9575996, 49.1004982 ], [ 19.8683968, 49.1939633 ], [ 19.93043, 49.23209 ], [ 19.98742, 49.22788 ], [ 20.08117, 49.17627 ], [ 20.1404476, 49.3084159 ], [ 20.1836556, 49.3293095 ], [ 20.2085991, 49.287899 ], [ 20.3197002, 49.2812996 ], [ 20.3686008, 49.2212982 ], [ 20.3453007, 49.1640015 ], [ 20.2784996, 49.1372986 ], [ 20.3703003, 49.0568008 ], [ 20.4535999, 49.0294991 ] ] ] ] } },
{ "type": "Feature", "properties": { "POLYGON_ID": "SVK_GAUL1995_ADM2_25473", "ADM0_ISO3": "SVK", "ADM0_NAME": "Slovakia", "ADM0_CODE": 223, "ADM1_NAME": "Presov", "ADM1_CODE": 2671, "ADM2_NAME": "Presov", "ADM2_CODE": 25473, "GEOSET": "GAUL", "GEOSET_YEAR": 1995.0, "GEOSET_VERSION": "GAUL_v1", "GEOSET_UNIT": "ADM2", "CENTROID_LONG": 21.206377283005075, "CENTROID_LAT": 48.99383591343998 }, "geometry": { "type": "MultiPolygon", "coordinates": [ [ [ [ 21.3785992, 49.1141014 ], [ 21.4741001, 49.0719986 ], [ 21.4181004, 49.0303001 ], [ 21.4097996, 48.9914017 ], [ 21.4789009, 48.9166985 ], [ 21.4778004, 48.8806992 ], [ 21.3729, 48.8787994 ], [ 21.3575001, 48.8367004 ], [ 21.1473007, 48.8932991 ], [ 21.0522995, 48.8993988 ], [ 20.9782009, 48.9530983 ], [ 20.8843002, 48.9578018 ], [ 20.8717995, 48.9631004 ], [ 20.8938999, 49.0786018 ], [ 20.9801006, 49.0914001 ], [ 21.0548, 49.0427017 ], [ 21.1033993, 49.0382004 ], [ 21.2229996, 49.101799 ], [ 21.1676006, 49.1917 ], [ 21.2180004, 49.1613007 ], [ 21.3785992, 49.1141014 ] ] ] ] } },
{ "type": "Feature", "properties": { "POLYGON_ID": "SVK_GAUL1995_ADM2_25474", "ADM0_ISO3": "SVK", "ADM0_NAME": "Slovakia", "ADM0_CODE": 223, "ADM1_NAME": "Presov", "ADM1_CODE": 2671, "ADM2_NAME": "Sabinov", "ADM2_CODE": 25474, "GEOSET": "GAUL", "GEOSET_YEAR": 1995.0, "GEOSET_VERSION": "GAUL_v1", "GEOSET_UNIT": "ADM2", "CENTROID_LONG": 20.994840704284119, "CENTROID_LAT": 49.142188909730379 }, "geometry": { "type": "MultiPolygon", "coordinates": [ [ [ [ 20.9944992, 49.2312012 ], [ 21.0293999, 49.2128983 ], [ 21.1221008, 49.2187996 ], [ 21.1676006, 49.1917 ], [ 21.2229996, 49.101799 ], [ 21.1033993, 49.0382004 ], [ 21.0548, 49.0427017 ], [ 20.9801006, 49.0914001 ], [ 20.8938999, 49.0786018 ], [ 20.8234997, 49.0817986 ], [ 20.7644997, 49.1212006 ], [ 20.8087006, 49.1650009 ], [ 20.7616997, 49.2084007 ], [ 20.8257999, 49.2317009 ], [ 20.8934994, 49.2075005 ], [ 20.9944992, 49.2312012 ] ] ] ] } },
{ "type": "Feature", "properties": { "POLYGON_ID": "SVK_GAUL1995_ADM2_25475", "ADM0_ISO3": "SVK", "ADM0_NAME": "Slovakia", "ADM0_CODE": 223, "ADM1_NAME": "Presov", "ADM1_CODE": 2671, "ADM2_NAME": "Snina", "ADM2_CODE": 25475, "GEOSET": "GAUL", "GEOSET_YEAR": 1995.0, "GEOSET_VERSION": "GAUL_v1", "GEOSET_UNIT": "ADM2", "CENTROID_LONG": 22.295507737114576, "CENTROID_LAT": 49.02058580372006 }, "geometry": { "type": "MultiPolygon", "coordinates": [ [ [ [ 22.3945038, 48.8614857 ], [ 22.2656002, 48.8672981 ], [ 22.1979008, 48.9264984 ], [ 22.1138992, 48.9304008 ], [ 22.0205002, 48.9626007 ], [ 22.0517998, 49.0023003 ], [ 22.1128006, 49.0200005 ], [ 22.1350002, 49.0774002 ], [ 22.1084003, 49.1302986 ], [ 22.1548892, 49.1867416 ], [ 22.2329221, 49.181656 ], [ 22.23615, 49.15149 ], [ 22.32118, 49.13544 ], [ 22.3765986, 49.14661 ], [ 22.4159494, 49.1058806 ], [ 22.57044, 49.08673 ], [ 22.55997, 49.03687 ], [ 22.44261, 48.94123 ], [ 22.3945038, 48.8614857 ] ] ] ] } },
{ "type": "Feature", "properties": { "POLYGON_ID": "SVK_GAUL1995_ADM2_25476", "ADM0_ISO3": "SVK", "ADM0_NAME": "Slovakia", "ADM0_CODE": 223, "ADM1_NAME": "Presov", "ADM1_CODE": 2671, "ADM2_NAME": "Stara Lubovna", "ADM2_CODE": 25476, "GEOSET": "GAUL", "GEOSET_YEAR": 1995.0, "GEOSET_VERSION": "GAUL_v1", "GEOSET_UNIT": "ADM2", "CENTROID_LONG": 20.699064850831061, "CENTROID_LAT": 49.3107763339355 }, "geometry": { "type": "MultiPolygon", "coordinates": [ [ [ [ 20.9850727, 49.3085782 ], [ 20.9944992, 49.2312012 ], [ 20.8934994, 49.2075005 ], [ 20.8257999, 49.2317009 ], [ 20.7616997, 49.2084007 ], [ 20.6368008, 49.2556992 ], [ 20.5375996, 49.2372017 ], [ 20.5002003, 49.3158989 ], [ 20.4057007, 49.3217011 ], [ 20.4226296, 49.4034698 ], [ 20.48236, 49.41182 ], [ 20.57503, 49.37786 ], [ 20.6330761, 49.4126929 ], [ 20.72704, 49.42179 ], [ 20.76377, 49.366 ], [ 20.82684, 49.3301 ], [ 20.8964691, 49.3499696 ], [ 20.9375698, 49.2960215 ], [ 20.9850727, 49.3085782 ] ] ] ] } },
{ "type": "Feature", "properties": { "POLYGON_ID": "SVK_GAUL1995_ADM2_25477", "ADM0_ISO3": "SVK", "ADM0_NAME": "Slovakia", "ADM0_CODE": 223, "ADM1_NAME": "Presov", "ADM1_CODE": 2671, "ADM2_NAME": "Stropkov", "ADM2_CODE": 25477, "GEOSET": "GAUL", "GEOSET_YEAR": 1995.0, "GEOSET_VERSION": "GAUL_v1", "GEOSET_UNIT": "ADM2", "CENTROID_LONG": 21.712840768401581, "CENTROID_LAT": 49.211039016416713 }, "geometry": { "type": "MultiPolygon", "coordinates": [ [ [ [ 21.7872514, 49.3569741 ], [ 21.8738995, 49.2873993 ], [ 21.7943001, 49.1958008 ], [ 21.7460003, 49.1302986 ], [ 21.7234993, 49.0844002 ], [ 21.6546993, 49.0444984 ], [ 21.5865994, 49.1147995 ], [ 21.5793991, 49.1563988 ], [ 21.6285, 49.2536011 ], [ 21.7164001, 49.337101 ], [ 21.7729197, 49.3632443 ], [ 21.7872514, 49.3569741 ] ] ] ] } },
{ "type": "Feature", "properties": { "POLYGON_ID": "SVK_GAUL1995_ADM2_25478", "ADM0_ISO3": "SVK", "ADM0_NAME": "Slovakia", "ADM0_CODE": 223, "ADM1_NAME": "Presov", "ADM1_CODE": 2671, "ADM2_NAME": "Svidnik", "ADM2_CODE": 25478, "GEOSET": "GAUL", "GEOSET_YEAR": 1995.0, "GEOSET_VERSION": "GAUL_v1", "GEOSET_UNIT": "ADM2", "CENTROID_LONG": 21.560985060087809, "CENTROID_LAT": 49.284741837951614 }, "geometry": { "type": "MultiPolygon", "coordinates": [ [ [ [ 21.7729197, 49.3632443 ], [ 21.7164001, 49.337101 ], [ 21.6285, 49.2536011 ], [ 21.5793991, 49.1563988 ], [ 21.5865994, 49.1147995 ], [ 21.5680008, 49.0783005 ], [ 21.4741001, 49.0719986 ], [ 21.3785992, 49.1141014 ], [ 21.4300003, 49.1292992 ], [ 21.5242996, 49.2156982 ], [ 21.5067005, 49.2649002 ], [ 21.4099007, 49.3249016 ], [ 21.4478945, 49.4142086 ], [ 21.5885272, 49.4353283 ], [ 21.72792, 49.41307 ], [ 21.7729197, 49.3632443 ] ] ] ] } },
{ "type": "Feature", "properties": { "POLYGON_ID": "SVK_GAUL1995_ADM2_25479", "ADM0_ISO3": "SVK", "ADM0_NAME": "Slovakia", "ADM0_CODE": 223, "ADM1_NAME": "Presov", "ADM1_CODE": 2671, "ADM2_NAME": "Vranov nad Toplou", "ADM2_CODE": 25479, "GEOSET": "GAUL", "GEOSET_YEAR": 1995.0, "GEOSET_VERSION": "GAUL_v1", "GEOSET_UNIT": "ADM2", "CENTROID_LONG": 21.630019355147553, "CENTROID_LAT": 48.937578499513677 }, "geometry": { "type": "MultiPolygon", "coordinates": [ [ [ [ 21.7926006, 48.9014015 ], [ 21.7996998, 48.8000984 ], [ 21.7600994, 48.7737007 ], [ 21.7068005, 48.767601 ], [ 21.5459003, 48.7951012 ], [ 21.4778004, 48.8806992 ], [ 21.4789009, 48.9166985 ], [ 21.4097996, 48.9914017 ], [ 21.4181004, 49.0303001 ], [ 21.4741001, 49.0719986 ], [ 21.5680008, 49.0783005 ], [ 21.5865994, 49.1147995 ], [ 21.6546993, 49.0444984 ], [ 21.7234993, 49.0844002 ], [ 21.7460003, 49.1302986 ], [ 21.8027, 48.9696999 ], [ 21.7926006, 48.9014015 ] ] ] ] } },
{ "type": "Feature", "properties": { "POLYGON_ID": "SVK_GAUL1995_ADM2_25480", "ADM0_ISO3": "SVK", "ADM0_NAME": "Slovakia", "ADM0_CODE": 223, "ADM1_NAME": "Trencin", "ADM1_CODE": 2672, "ADM2_NAME": "Banovce nad Bebravou", "ADM2_CODE": 25480, "GEOSET": "GAUL", "GEOSET_YEAR": 1995.0, "GEOSET_VERSION": "GAUL_v1", "GEOSET_UNIT": "ADM2", "CENTROID_LONG": 18.263453818920244, "CENTROID_LAT": 48.748750169171146 }, "geometry": { "type": "MultiPolygon", "coordinates": [ [ [ [ 18.3764992, 48.7013016 ], [ 18.3390999, 48.6556015 ], [ 18.2138996, 48.6314011 ], [ 18.0951004, 48.6898994 ], [ 18.0067005, 48.712101 ], [ 18.0016994, 48.740799 ], [ 18.1063995, 48.7345009 ], [ 18.1511993, 48.7705002 ], [ 18.2243996, 48.7711983 ], [ 18.2338009, 48.8685989 ], [ 18.3260002, 48.8841019 ], [ 18.4144001, 48.8376999 ], [ 18.4321003, 48.7509995 ], [ 18.3764992, 48.7013016 ] ] ] ] } },
{ "type": "Feature", "properties": { "POLYGON_ID": "SVK_GAUL1995_ADM2_25481", "ADM0_ISO3": "SVK", "ADM0_NAME": "Slovakia", "ADM0_CODE": 223, "ADM1_NAME": "Trencin", "ADM1_CODE": 2672, "ADM2_NAME": "Ilava", "ADM2_CODE": 25481, "GEOSET": "GAUL", "GEOSET_YEAR": 1995.0, "GEOSET_VERSION": "GAUL_v1", "GEOSET_UNIT": "ADM2", "CENTROID_LONG": 18.248283762748073, "CENTROID_LAT": 48.997152690652356 }, "geometry": { "type": "MultiPolygon", "coordinates": [ [ [ [ 18.4358997, 48.9827995 ], [ 18.4645004, 48.9566002 ], [ 18.5074997, 48.9353981 ], [ 18.4438992, 48.8997993 ], [ 18.3801994, 48.9365005 ], [ 18.3271008, 48.9257011 ], [ 18.2513008, 48.9099007 ], [ 18.1287994, 48.9322014 ], [ 18.1424007, 48.9614983 ], [ 18.0942001, 49.0297012 ], [ 18.0919623, 49.0832015 ], [ 18.1130501, 49.1329985 ], [ 18.1160017, 49.1442986 ], [ 18.1432991, 49.1441994 ], [ 18.2226009, 49.0559998 ], [ 18.2880001, 49.0511017 ], [ 18.3740997, 48.9812012 ], [ 18.4358997, 48.9827995 ] ] ] ] } },
{ "type": "Feature", "properties": { "POLYGON_ID": "SVK_GAUL1995_ADM2_25482", "ADM0_ISO3": "SVK", "ADM0_NAME": "Slovakia", "ADM0_CODE": 223, "ADM1_NAME": "Trencin", "ADM1_CODE": 2672, "ADM2_NAME": "Myjava", "ADM2_CODE": 25482, "GEOSET": "GAUL", "GEOSET_YEAR": 1995.0, "GEOSET_VERSION": "GAUL_v1", "GEOSET_UNIT": "ADM2", "CENTROID_LONG": 17.547376693932662, "CENTROID_LAT": 48.743026880910158 }, "geometry": { "type": "MultiPolygon", "coordinates": [ [ [ [ 17.7113991, 48.6752014 ], [ 17.5739994, 48.6341019 ], [ 17.5266991, 48.6199989 ], [ 17.4612999, 48.6944008 ], [ 17.4668999, 48.7532997 ], [ 17.3523006, 48.7737007 ], [ 17.3806893, 48.8216922 ], [ 17.45316, 48.85152 ], [ 17.51279, 48.81555 ], [ 17.6183466, 48.8560311 ], [ 17.6401005, 48.7566986 ], [ 17.6905003, 48.7574005 ], [ 17.7113991, 48.6752014 ] ] ] ] } },
{ "type": "Feature", "properties": { "POLYGON_ID": "SVK_GAUL1995_ADM2_25483", "ADM0_ISO3": "SVK", "ADM0_NAME": "Slovakia", "ADM0_CODE": 223, "ADM1_NAME": "Trencin", "ADM1_CODE": 2672, "ADM2_NAME": "Nove Mesto nad Vahom", "ADM2_CODE": 25483, "GEOSET": "GAUL", "GEOSET_YEAR": 1995.0, "GEOSET_VERSION": "GAUL_v1", "GEOSET_UNIT": "ADM2", "CENTROID_LONG": 17.819898337402993, "CENTROID_LAT": 48.757491848342951 }, "geometry": { "type": "MultiPolygon", "coordinates": [ [ [ [ 17.834036, 48.9274334 ], [ 17.8225994, 48.8746986 ], [ 17.8722, 48.8266983 ], [ 17.9573002, 48.7896004 ], [ 18.0016994, 48.740799 ], [ 18.0067005, 48.712101 ], [ 18.0137997, 48.6319008 ], [ 17.9766006, 48.6172981 ], [ 17.8651009, 48.638401 ], [ 17.7784996, 48.6376991 ], [ 17.7113991, 48.6752014 ], [ 17.6905003, 48.7574005 ], [ 17.6401005, 48.7566986 ], [ 17.6183466, 48.8560311 ], [ 17.6428192, 48.8594613 ], [ 17.68657, 48.8659 ], [ 17.78401, 48.92681 ], [ 17.834036, 48.9274334 ] ] ] ] } },
{ "type": "Feature", "properties": { "POLYGON_ID": "SVK_GAUL1995_ADM2_25484", "ADM0_ISO3": "SVK", "ADM0_NAME": "Slovakia", "ADM0_CODE": 223, "ADM1_NAME": "Trencin", "ADM1_CODE": 2672, "ADM2_NAME": "Partizanske", "ADM2_CODE": 25484, "GEOSET": "GAUL", "GEOSET_YEAR": 1995.0, "GEOSET_VERSION": "GAUL_v1", "GEOSET_UNIT": "ADM2", "CENTROID_LONG": 18.359669119258683, "CENTROID_LAT": 48.591686914232461 }, "geometry": { "type": "MultiPolygon", "coordinates": [ [ [ [ 18.3764992, 48.7013016 ], [ 18.4473991, 48.6823006 ], [ 18.4939995, 48.5712013 ], [ 18.4827003, 48.5517006 ], [ 18.3563995, 48.4906998 ], [ 18.3106003, 48.4948006 ], [ 18.2192001, 48.5811996 ], [ 18.2138996, 48.6314011 ], [ 18.3390999, 48.6556015 ], [ 18.3764992, 48.7013016 ] ] ] ] } },
{ "type": "Feature", "properties": { "POLYGON_ID": "SVK_GAUL1995_ADM2_25485", "ADM0_ISO3": "SVK", "ADM0_NAME": "Slovakia", "ADM0_CODE": 223, "ADM1_NAME": "Trencin", "ADM1_CODE": 2672, "ADM2_NAME": "Povazska Bystrica", "ADM2_CODE": 25485, "GEOSET": "GAUL", "GEOSET_YEAR": 1995.0, "GEOSET_VERSION": "GAUL_v1", "GEOSET_UNIT": "ADM2", "CENTROID_LONG": 18.429235001725786, "CENTROID_LAT": 49.140584613610187 }, "geometry": { "type": "MultiPolygon", "coordinates": [ [ [ [ 18.3757992, 49.3153992 ], [ 18.4857998, 49.1787987 ], [ 18.5806999, 49.1175995 ], [ 18.5853004, 49.0293999 ], [ 18.4645004, 48.9566002 ], [ 18.4358997, 48.9827995 ], [ 18.3976002, 49.0093002 ], [ 18.3799, 49.1287003 ], [ 18.2800999, 49.2172012 ], [ 18.2453073, 49.2944294 ], [ 18.3602432, 49.316449 ], [ 18.3757992, 49.3153992 ] ] ] ] } },
{ "type": "Feature", "properties": { "POLYGON_ID": "SVK_GAUL1995_ADM2_25486", "ADM0_ISO3": "SVK", "ADM0_NAME": "Slovakia", "ADM0_CODE": 223, "ADM1_NAME": "Trencin", "ADM1_CODE": 2672, "ADM2_NAME": "Prievidza", "ADM2_CODE": 25486, "GEOSET": "GAUL", "GEOSET_YEAR": 1995.0, "GEOSET_VERSION": "GAUL_v1", "GEOSET_UNIT": "ADM2", "CENTROID_LONG": 18.573786833351548, "CENTROID_LAT": 48.776067362777496 }, "geometry": { "type": "MultiPolygon", "coordinates": [ [ [ [ 18.6273994, 48.9574013 ], [ 18.7061005, 48.9449005 ], [ 18.6809998, 48.9081993 ], [ 18.6903992, 48.843399 ], [ 18.7626991, 48.8100014 ], [ 18.8232002, 48.7426987 ], [ 18.7605, 48.6968994 ], [ 18.7213001, 48.6357994 ], [ 18.6457996, 48.6351013 ], [ 18.5928993, 48.5737991 ], [ 18.4939995, 48.5712013 ], [ 18.4473991, 48.6823006 ], [ 18.3764992, 48.7013016 ], [ 18.4321003, 48.7509995 ], [ 18.4144001, 48.8376999 ], [ 18.3260002, 48.8841019 ], [ 18.3271008, 48.9257011 ], [ 18.3801994, 48.9365005 ], [ 18.4438992, 48.8997993 ], [ 18.5074997, 48.9353981 ], [ 18.5650997, 48.9678001 ], [ 18.6273994, 48.9574013 ] ] ] ] } },
{ "type": "Feature", "properties": { "POLYGON_ID": "SVK_GAUL1995_ADM2_25487", "ADM0_ISO3": "SVK", "ADM0_NAME": "Slovakia", "ADM0_CODE": 223, "ADM1_NAME": "Trencin", "ADM1_CODE": 2672, "ADM2_NAME": "Puchov", "ADM2_CODE": 25487, "GEOSET": "GAUL", "GEOSET_YEAR": 1995.0, "GEOSET_VERSION": "GAUL_v1", "GEOSET_UNIT": "ADM2", "CENTROID_LONG": 18.265311908613331, "CENTROID_LAT": 49.137500376747084 }, "geometry": { "type": "MultiPolygon", "coordinates": [ [ [ [ 18.4358997, 48.9827995 ], [ 18.3740997, 48.9812012 ], [ 18.2880001, 49.0511017 ], [ 18.2226009, 49.0559998 ], [ 18.1432991, 49.1441994 ], [ 18.1160017, 49.1442986 ], [ 18.15485, 49.21357 ], [ 18.14976, 49.25577 ], [ 18.2453073, 49.2944294 ], [ 18.2800999, 49.2172012 ], [ 18.3799, 49.1287003 ], [ 18.3976002, 49.0093002 ], [ 18.4358997, 48.9827995 ] ] ] ] } },
{ "type": "Feature", "properties": { "POLYGON_ID": "SVK_GAUL1995_ADM2_25488", "ADM0_ISO3": "SVK", "ADM0_NAME": "Slovakia", "ADM0_CODE": 223, "ADM1_NAME": "Trencin", "ADM1_CODE": 2672, "ADM2_NAME": "Trencin", "ADM2_CODE": 25488, "GEOSET": "GAUL", "GEOSET_YEAR": 1995.0, "GEOSET_VERSION": "GAUL_v1", "GEOSET_UNIT": "ADM2", "CENTROID_LONG": 18.047260269330391, "CENTROID_LAT": 48.88592785125725 }, "geometry": { "type": "MultiPolygon", "coordinates": [ [ [ [ 18.3271008, 48.9257011 ], [ 18.3260002, 48.8841019 ], [ 18.2338009, 48.8685989 ], [ 18.2243996, 48.7711983 ], [ 18.1511993, 48.7705002 ], [ 18.1063995, 48.7345009 ], [ 18.0016994, 48.740799 ], [ 17.9573002, 48.7896004 ], [ 17.8722, 48.8266983 ], [ 17.8225994, 48.8746986 ], [ 17.834036, 48.9274334 ], [ 17.86763, 48.93208 ], [ 17.9136223, 49.0161142 ], [ 18.06614, 49.04717 ], [ 18.0919623, 49.0832015 ], [ 18.0942001, 49.0297012 ], [ 18.1424007, 48.9614983 ], [ 18.1287994, 48.9322014 ], [ 18.2513008, 48.9099007 ], [ 18.3271008, 48.9257011 ] ] ] ] } },
{ "type": "Feature", "properties": { "POLYGON_ID": "SVK_GAUL1995_ADM2_25489", "ADM0_ISO3": "SVK", "ADM0_NAME": "Slovakia", "ADM0_CODE": 223, "ADM1_NAME": "Trnava", "ADM1_CODE": 2673, "ADM2_NAME": "Dunajska Streda", "ADM2_CODE": 25489, "GEOSET": "GAUL", "GEOSET_YEAR": 1995.0, "GEOSET_VERSION": "GAUL_v1", "GEOSET_UNIT": "ADM2", "CENTROID_LONG": 17.582575771979172, "CENTROID_LAT": 47.973320249612662 }, "geometry": { "type": "MultiPolygon", "coordinates": [ [ [ [ 17.4685993, 48.1464005 ], [ 17.5979004, 48.0964012 ], [ 17.7598, 48.0535011 ], [ 17.8721008, 47.9588013 ], [ 17.8794003, 47.9160995 ], [ 17.7901001, 47.8319016 ], [ 17.7215996, 47.8078003 ], [ 17.7007108, 47.7725811 ], [ 17.57992, 47.81236 ], [ 17.37029, 47.97516 ], [ 17.27924, 47.98708 ], [ 17.2515442, 48.0193882 ], [ 17.3031998, 48.1038017 ], [ 17.4685993, 48.1464005 ] ] ] ] } },
{ "type": "Feature", "properties": { "POLYGON_ID": "SVK_GAUL1995_ADM2_25490", "ADM0_ISO3": "SVK", "ADM0_NAME": "Slovakia", "ADM0_CODE": 223, "ADM1_NAME": "Trnava", "ADM1_CODE": 2673, "ADM2_NAME": "Galanta", "ADM2_CODE": 25490, "GEOSET": "GAUL", "GEOSET_YEAR": 1995.0, "GEOSET_VERSION": "GAUL_v1", "GEOSET_UNIT": "ADM2", "CENTROID_LONG": 17.7067648288496, "CENTROID_LAT": 48.180969922583735 }, "geometry": { "type": "MultiPolygon", "coordinates": [ [ [ [ 17.8509007, 48.3470993 ], [ 17.8575001, 48.2790985 ], [ 17.8360004, 48.2436981 ], [ 17.8736, 48.203701 ], [ 17.7712994, 48.1646004 ], [ 17.8124008, 48.1161003 ], [ 17.8033009, 48.0728989 ], [ 17.8761997, 48.0498009 ], [ 17.8796005, 47.9886017 ], [ 17.8721008, 47.9588013 ], [ 17.7598, 48.0535011 ], [ 17.5979004, 48.0964012 ], [ 17.4685993, 48.1464005 ], [ 17.5219994, 48.1734009 ], [ 17.5090008, 48.273201 ], [ 17.5557003, 48.2416 ], [ 17.6012001, 48.270401 ], [ 17.6930008, 48.2851982 ], [ 17.7642002, 48.3423004 ], [ 17.8509007, 48.3470993 ] ] ] ] } },
{ "type": "Feature", "properties": { "POLYGON_ID": "SVK_GAUL1995_ADM2_25491", "ADM0_ISO3": "SVK", "ADM0_NAME": "Slovakia", "ADM0_CODE": 223, "ADM1_NAME": "Trnava", "ADM1_CODE": 2673, "ADM2_NAME": "Hlohovec", "ADM2_CODE": 25491, "GEOSET": "GAUL", "GEOSET_YEAR": 1995.0, "GEOSET_VERSION": "GAUL_v1", "GEOSET_UNIT": "ADM2", "CENTROID_LONG": 17.811281642658141, "CENTROID_LAT": 48.427863331233354 }, "geometry": { "type": "MultiPolygon", "coordinates": [ [ [ [ 17.8358002, 48.5205994 ], [ 17.9505005, 48.4592018 ], [ 17.8509007, 48.3470993 ], [ 17.7642002, 48.3423004 ], [ 17.7071991, 48.3620987 ], [ 17.7201004, 48.426899 ], [ 17.6739006, 48.4947014 ], [ 17.7577991, 48.4743996 ], [ 17.8358002, 48.5205994 ] ] ] ] } },
{ "type": "Feature", "properties": { "POLYGON_ID": "SVK_GAUL1995_ADM2_25492", "ADM0_ISO3": "SVK", "ADM0_NAME": "Slovakia", "ADM0_CODE": 223, "ADM1_NAME": "Trnava", "ADM1_CODE": 2673, "ADM2_NAME": "Piestany", "ADM2_CODE": 25492, "GEOSET": "GAUL", "GEOSET_YEAR": 1995.0, "GEOSET_VERSION": "GAUL_v1", "GEOSET_UNIT": "ADM2", "CENTROID_LONG": 17.737143449462103, "CENTROID_LAT": 48.580424990508725 }, "geometry": { "type": "MultiPolygon", "coordinates": [ [ [ [ 17.7113991, 48.6752014 ], [ 17.7784996, 48.6376991 ], [ 17.8651009, 48.638401 ], [ 17.9766006, 48.6172981 ], [ 17.8868008, 48.5914993 ], [ 17.8358002, 48.5205994 ], [ 17.7577991, 48.4743996 ], [ 17.6739006, 48.4947014 ], [ 17.5879002, 48.5602989 ], [ 17.5739994, 48.6341019 ], [ 17.7113991, 48.6752014 ] ] ] ] } },
{ "type": "Feature", "properties": { "POLYGON_ID": "SVK_GAUL1995_ADM2_25493", "ADM0_ISO3": "SVK", "ADM0_NAME": "Slovakia", "ADM0_CODE": 223, "ADM1_NAME": "Trnava", "ADM1_CODE": 2673, "ADM2_NAME": "Senica", "ADM2_CODE": 25493, "GEOSET": "GAUL", "GEOSET_YEAR": 1995.0, "GEOSET_VERSION": "GAUL_v1", "GEOSET_UNIT": "ADM2", "CENTROID_LONG": 17.24755482902091, "CENTROID_LAT": 48.635979708174176 }, "geometry": { "type": "MultiPolygon", "coordinates": [ [ [ [ 17.5266991, 48.6199989 ], [ 17.4580002, 48.5603981 ], [ 17.3889999, 48.5589981 ], [ 17.3470001, 48.5028 ], [ 17.2728996, 48.5499001 ], [ 17.3672009, 48.6096992 ], [ 17.3258991, 48.6539001 ], [ 17.2360992, 48.5712013 ], [ 17.1142006, 48.5495987 ], [ 17.0018997, 48.5573006 ], [ 16.9507738, 48.5374622 ], [ 16.9474894, 48.615216 ], [ 16.9767553, 48.6748561 ], [ 17.0797005, 48.6892014 ], [ 17.1753006, 48.6828003 ], [ 17.3195, 48.7346001 ], [ 17.3523006, 48.7737007 ], [ 17.4668999, 48.7532997 ], [ 17.4612999, 48.6944008 ], [ 17.5266991, 48.6199989 ] ] ] ] } },
{ "type": "Feature", "properties": { "POLYGON_ID": "SVK_GAUL1995_ADM2_25494", "ADM0_ISO3": "SVK", "ADM0_NAME": "Slovakia", "ADM0_CODE": 223, "ADM1_NAME": "Trnava", "ADM1_CODE": 2673, "ADM2_NAME": "Skalica", "ADM2_CODE": 25494, "GEOSET": "GAUL", "GEOSET_YEAR": 1995.0, "GEOSET_VERSION": "GAUL_v1", "GEOSET_UNIT": "ADM2", "CENTROID_LONG": 17.18402178936536, "CENTROID_LAT": 48.767949808450496 }, "geometry": { "type": "MultiPolygon", "coordinates": [ [ [ [ 17.3806893, 48.8216922 ], [ 17.3523006, 48.7737007 ], [ 17.3195, 48.7346001 ], [ 17.1753006, 48.6828003 ], [ 17.0797005, 48.6892014 ], [ 16.9767553, 48.6748561 ], [ 17.00379, 48.72828 ], [ 17.0772661, 48.7926565 ], [ 17.10123, 48.82658 ], [ 17.18485, 48.87022 ], [ 17.3806893, 48.8216922 ] ] ] ] } },
{ "type": "Feature", "properties": { "POLYGON_ID": "SVK_GAUL1995_ADM2_25495", "ADM0_ISO3": "SVK", "ADM0_NAME": "Slovakia", "ADM0_CODE": 223, "ADM1_NAME": "Trnava", "ADM1_CODE": 2673, "ADM2_NAME": "Trnava", "ADM2_CODE": 25495, "GEOSET": "GAUL", "GEOSET_YEAR": 1995.0, "GEOSET_VERSION": "GAUL_v1", "GEOSET_UNIT": "ADM2", "CENTROID_LONG": 17.546518797802602, "CENTROID_LAT": 48.42999685908115 }, "geometry": { "type": "MultiPolygon", "coordinates": [ [ [ [ 17.5739994, 48.6341019 ], [ 17.5879002, 48.5602989 ], [ 17.6739006, 48.4947014 ], [ 17.7201004, 48.426899 ], [ 17.7071991, 48.3620987 ], [ 17.7642002, 48.3423004 ], [ 17.6930008, 48.2851982 ], [ 17.6012001, 48.270401 ], [ 17.5557003, 48.2416 ], [ 17.5090008, 48.273201 ], [ 17.4554996, 48.3027992 ], [ 17.4768009, 48.3483009 ], [ 17.3777008, 48.4382019 ], [ 17.3078995, 48.460701 ], [ 17.3470001, 48.5028 ], [ 17.3889999, 48.5589981 ], [ 17.4580002, 48.5603981 ], [ 17.5266991, 48.6199989 ], [ 17.5739994, 48.6341019 ] ] ] ] } },
{ "type": "Feature", "properties": { "POLYGON_ID": "SVK_GAUL1995_ADM2_25496", "ADM0_ISO3": "SVK", "ADM0_NAME": "Slovakia", "ADM0_CODE": 223, "ADM1_NAME": "Zilna", "ADM1_CODE": 2674, "ADM2_NAME": "Bytca", "ADM2_CODE": 25496, "GEOSET": "GAUL", "GEOSET_YEAR": 1995.0, "GEOSET_VERSION": "GAUL_v1", "GEOSET_UNIT": "ADM2", "CENTROID_LONG": 18.522394544996089, "CENTROID_LAT": 49.256712540075881 }, "geometry": { "type": "MultiPolygon", "coordinates": [ [ [ [ 18.5981007, 49.3536987 ], [ 18.5979996, 49.2858009 ], [ 18.6376991, 49.2355003 ], [ 18.5960999, 49.214901 ], [ 18.6070995, 49.1435013 ], [ 18.5806999, 49.1175995 ], [ 18.4857998, 49.1787987 ], [ 18.3757992, 49.3153992 ], [ 18.5319996, 49.3600006 ], [ 18.5981007, 49.3536987 ] ] ] ] } },
{ "type": "Feature", "properties": { "POLYGON_ID": "SVK_GAUL1995_ADM2_25497", "ADM0_ISO3": "SVK", "ADM0_NAME": "Slovakia", "ADM0_CODE": 223, "ADM1_NAME": "Zilna", "ADM1_CODE": 2674, "ADM2_NAME": "Cadca", "ADM2_CODE": 25497, "GEOSET": "GAUL", "GEOSET_YEAR": 1995.0, "GEOSET_VERSION": "GAUL_v1", "GEOSET_UNIT": "ADM2", "CENTROID_LONG": 18.791947235167772, "CENTROID_LAT": 49.408751837204655 }, "geometry": { "type": "MultiPolygon", "coordinates": [ [ [ [ 19.1026009, 49.410568 ], [ 19.1541004, 49.3322983 ], [ 19.1266994, 49.3119011 ], [ 19.0701008, 49.3013992 ], [ 18.8964005, 49.3176003 ], [ 18.7441006, 49.3885994 ], [ 18.6648006, 49.3450012 ], [ 18.5981007, 49.3536987 ], [ 18.5319996, 49.3600006 ], [ 18.3757992, 49.3153992 ], [ 18.3602432, 49.316449 ], [ 18.40062, 49.33537 ], [ 18.419023, 49.3896499 ], [ 18.4617, 49.39676 ], [ 18.55041, 49.48355 ], [ 18.72493, 49.50465 ], [ 18.79473, 49.49938 ], [ 18.847068, 49.5258593 ], [ 18.9546953, 49.5164726 ], [ 18.99008, 49.42878 ], [ 19.02999, 49.3953 ], [ 19.1026009, 49.410568 ] ] ] ] } },
{ "type": "Feature", "properties": { "POLYGON_ID": "SVK_GAUL1995_ADM2_25498", "ADM0_ISO3": "SVK", "ADM0_NAME": "Slovakia", "ADM0_CODE": 223, "ADM1_NAME": "Zilna", "ADM1_CODE": 2674, "ADM2_NAME": "Dolny Kubin", "ADM2_CODE": 25498, "GEOSET": "GAUL", "GEOSET_YEAR": 1995.0, "GEOSET_VERSION": "GAUL_v1", "GEOSET_UNIT": "ADM2", "CENTROID_LONG": 19.287998315878355, "CENTROID_LAT": 49.234148729777473 }, "geometry": { "type": "MultiPolygon", "coordinates": [ [ [ [ 19.4134998, 49.3221016 ], [ 19.5338993, 49.2667999 ], [ 19.5396996, 49.243 ], [ 19.4666996, 49.1778984 ], [ 19.4227009, 49.1787987 ], [ 19.3355007, 49.1534996 ], [ 19.2472992, 49.1673012 ], [ 19.1303997, 49.137001 ], [ 19.0949993, 49.1408005 ], [ 19.0746002, 49.2174988 ], [ 19.1266994, 49.3119011 ], [ 19.1541004, 49.3322983 ], [ 19.2366009, 49.3179016 ], [ 19.2439995, 49.280899 ], [ 19.4134998, 49.3221016 ] ] ] ] } },
{ "type": "Feature", "properties": { "POLYGON_ID": "SVK_GAUL1995_ADM2_25499", "ADM0_ISO3": "SVK", "ADM0_NAME": "Slovakia", "ADM0_CODE": 223, "ADM1_NAME": "Zilna", "ADM1_CODE": 2674, "ADM2_NAME": "Kysucke Nove Mesto", "ADM2_CODE": 25499, "GEOSET": "GAUL", "GEOSET_YEAR": 1995.0, "GEOSET_VERSION": "GAUL_v1", "GEOSET_UNIT": "ADM2", "CENTROID_LONG": 18.788719711590691, "CENTROID_LAT": 49.310780500286228 }, "geometry": { "type": "MultiPolygon", "coordinates": [ [ [ [ 18.8964005, 49.3176003 ], [ 18.9197998, 49.2668991 ], [ 18.8673, 49.2494011 ], [ 18.7201996, 49.2640991 ], [ 18.6648006, 49.3450012 ], [ 18.7441006, 49.3885994 ], [ 18.8964005, 49.3176003 ] ] ] ] } },
{ "type": "Feature", "properties": { "POLYGON_ID": "SVK_GAUL1995_ADM2_25500", "ADM0_ISO3": "SVK", "ADM0_NAME": "Slovakia", "ADM0_CODE": 223, "ADM1_NAME": "Zilna", "ADM1_CODE": 2674, "ADM2_NAME": "Liptovsky Mikulas", "ADM2_CODE": 25500, "GEOSET": "GAUL", "GEOSET_YEAR": 1995.0, "GEOSET_VERSION": "GAUL_v1", "GEOSET_UNIT": "ADM2", "CENTROID_LONG": 19.70891585285575, "CENTROID_LAT": 49.045978868626484 }, "geometry": { "type": "MultiPolygon", "coordinates": [ [ [ [ 19.7650537, 49.2092185 ], [ 19.8683968, 49.1939633 ], [ 19.9575996, 49.1004982 ], [ 20.0436993, 49.0914001 ], [ 20.0118999, 49.0021019 ], [ 20.0578995, 48.9110985 ], [ 19.9988003, 48.8950005 ], [ 19.8071003, 48.8983002 ], [ 19.7245998, 48.8839989 ], [ 19.6054993, 48.9210014 ], [ 19.4761009, 48.9331017 ], [ 19.382, 48.9289017 ], [ 19.3628006, 48.9978981 ], [ 19.4591999, 49.1124001 ], [ 19.4227009, 49.1787987 ], [ 19.4666996, 49.1778984 ], [ 19.5396996, 49.243 ], [ 19.6993008, 49.1988983 ], [ 19.7650537, 49.2092185 ] ] ] ] } },
{ "type": "Feature", "properties": { "POLYGON_ID": "SVK_GAUL1995_ADM2_25501", "ADM0_ISO3": "SVK", "ADM0_NAME": "Slovakia", "ADM0_CODE": 223, "ADM1_NAME": "Zilna", "ADM1_CODE": 2674, "ADM2_NAME": "Martin", "ADM2_CODE": 25501, "GEOSET": "GAUL", "GEOSET_YEAR": 1995.0, "GEOSET_VERSION": "GAUL_v1", "GEOSET_UNIT": "ADM2", "CENTROID_LONG": 18.945306138769986, "CENTROID_LAT": 49.036380820892816 }, "geometry": { "type": "MultiPolygon", "coordinates": [ [ [ [ 19.0746002, 49.2174988 ], [ 19.0949993, 49.1408005 ], [ 19.1303997, 49.137001 ], [ 19.0932007, 49.0026016 ], [ 19.1271, 48.9539986 ], [ 19.0743008, 48.8790016 ], [ 19.0293999, 48.8819008 ], [ 18.9687004, 48.8782005 ], [ 18.9358006, 48.921299 ], [ 18.7551003, 48.969799 ], [ 18.7061005, 48.9449005 ], [ 18.6273994, 48.9574013 ], [ 18.6994991, 48.9906998 ], [ 18.7320004, 49.0483017 ], [ 18.8083, 49.0852013 ], [ 18.8470993, 49.1465988 ], [ 19.0746002, 49.2174988 ] ] ] ] } },
{ "type": "Feature", "properties": { "POLYGON_ID": "SVK_GAUL1995_ADM2_25502", "ADM0_ISO3": "SVK", "ADM0_NAME": "Slovakia", "ADM0_CODE": 223, "ADM1_NAME": "Zilna", "ADM1_CODE": 2674, "ADM2_NAME": "Namestovo", "ADM2_CODE": 25502, "GEOSET": "GAUL", "GEOSET_YEAR": 1995.0, "GEOSET_VERSION": "GAUL_v1", "GEOSET_UNIT": "ADM2", "CENTROID_LONG": 19.364592493421188, "CENTROID_LAT": 49.436723280351224 }, "geometry": { "type": "MultiPolygon", "coordinates": [ [ [ [ 19.5723137, 49.4771236 ], [ 19.5821991, 49.4352989 ], [ 19.4134998, 49.3221016 ], [ 19.2439995, 49.280899 ], [ 19.2366009, 49.3179016 ], [ 19.1541004, 49.3322983 ], [ 19.1026009, 49.410568 ], [ 19.1999, 49.4169 ], [ 19.23883, 49.51215 ], [ 19.27064, 49.53582 ], [ 19.37217, 49.54361 ], [ 19.38198, 49.57358 ], [ 19.4622618, 49.6028965 ], [ 19.5281119, 49.5704913 ], [ 19.5723137, 49.4771236 ] ] ] ] } },
{ "type": "Feature", "properties": { "POLYGON_ID": "SVK_GAUL1995_ADM2_25503", "ADM0_ISO3": "SVK", "ADM0_NAME": "Slovakia", "ADM0_CODE": 223, "ADM1_NAME": "Zilna", "ADM1_CODE": 2674, "ADM2_NAME": "Ruzomberok", "ADM2_CODE": 25503, "GEOSET": "GAUL", "GEOSET_YEAR": 1995.0, "GEOSET_VERSION": "GAUL_v1", "GEOSET_UNIT": "ADM2", "CENTROID_LONG": 19.259025103033089, "CENTROID_LAT": 49.030202793121894 }, "geometry": { "type": "MultiPolygon", "coordinates": [ [ [ [ 19.4227009, 49.1787987 ], [ 19.4591999, 49.1124001 ], [ 19.3628006, 48.9978981 ], [ 19.382, 48.9289017 ], [ 19.3437996, 48.9029007 ], [ 19.2604008, 48.8684006 ], [ 19.2350006, 48.8988991 ], [ 19.0743008, 48.8790016 ], [ 19.1271, 48.9539986 ], [ 19.0932007, 49.0026016 ], [ 19.1303997, 49.137001 ], [ 19.2472992, 49.1673012 ], [ 19.3355007, 49.1534996 ], [ 19.4227009, 49.1787987 ] ] ] ] } },
{ "type": "Feature", "properties": { "POLYGON_ID": "SVK_GAUL1995_ADM2_25504", "ADM0_ISO3": "SVK", "ADM0_NAME": "Slovakia", "ADM0_CODE": 223, "ADM1_NAME": "Zilna", "ADM1_CODE": 2674, "ADM2_NAME": "Turcianske Teplice", "ADM2_CODE": 25504, "GEOSET": "GAUL", "GEOSET_YEAR": 1995.0, "GEOSET_VERSION": "GAUL_v1", "GEOSET_UNIT": "ADM2", "CENTROID_LONG": 18.848374420688046, "CENTROID_LAT": 48.851838089387776 }, "geometry": { "type": "MultiPolygon", "coordinates": [ [ [ [ 19.0293999, 48.8819008 ], [ 18.9892006, 48.8493996 ], [ 19.0074005, 48.7925987 ], [ 18.9876003, 48.7467003 ], [ 18.8232002, 48.7426987 ], [ 18.7626991, 48.8100014 ], [ 18.6903992, 48.843399 ], [ 18.6809998, 48.9081993 ], [ 18.7061005, 48.9449005 ], [ 18.7551003, 48.969799 ], [ 18.9358006, 48.921299 ], [ 18.9687004, 48.8782005 ], [ 19.0293999, 48.8819008 ] ] ] ] } },
{ "type": "Feature", "properties": { "POLYGON_ID": "SVK_GAUL1995_ADM2_25505", "ADM0_ISO3": "SVK", "ADM0_NAME": "Slovakia", "ADM0_CODE": 223, "ADM1_NAME": "Zilna", "ADM1_CODE": 2674, "ADM2_NAME": "Tvrdosin", "ADM2_CODE": 25505, "GEOSET": "GAUL", "GEOSET_YEAR": 1995.0, "GEOSET_VERSION": "GAUL_v1", "GEOSET_UNIT": "ADM2", "CENTROID_LONG": 19.636299712967912, "CENTROID_LAT": 49.32080568083893 }, "geometry": { "type": "MultiPolygon", "coordinates": [ [ [ [ 19.7650537, 49.2092185 ], [ 19.6993008, 49.1988983 ], [ 19.5396996, 49.243 ], [ 19.5338993, 49.2667999 ], [ 19.4134998, 49.3221016 ], [ 19.5821991, 49.4352989 ], [ 19.5723137, 49.4771236 ], [ 19.73076, 49.38876 ], [ 19.8034295, 49.3604305 ], [ 19.79192, 49.25865 ], [ 19.7650537, 49.2092185 ] ] ] ] } },
{ "type": "Feature", "properties": { "POLYGON_ID": "SVK_GAUL1995_ADM2_25506", "ADM0_ISO3": "SVK", "ADM0_NAME": "Slovakia", "ADM0_CODE": 223, "ADM1_NAME": "Zilna", "ADM1_CODE": 2674, "ADM2_NAME": "Zilina", "ADM2_CODE": 25506, "GEOSET": "GAUL", "GEOSET_YEAR": 1995.0, "GEOSET_VERSION": "GAUL_v1", "GEOSET_UNIT": "ADM2", "CENTROID_LONG": 18.764181223218923, "CENTROID_LAT": 49.168563091409908 }, "geometry": { "type": "MultiPolygon", "coordinates": [ [ [ [ 18.6648006, 49.3450012 ], [ 18.7201996, 49.2640991 ], [ 18.8673, 49.2494011 ], [ 18.9197998, 49.2668991 ], [ 18.8964005, 49.3176003 ], [ 19.0701008, 49.3013992 ], [ 19.1266994, 49.3119011 ], [ 19.0746002, 49.2174988 ], [ 18.8470993, 49.1465988 ], [ 18.8083, 49.0852013 ], [ 18.7320004, 49.0483017 ], [ 18.6994991, 48.9906998 ], [ 18.6273994, 48.9574013 ], [ 18.5650997, 48.9678001 ], [ 18.5074997, 48.9353981 ], [ 18.4645004, 48.9566002 ], [ 18.5853004, 49.0293999 ], [ 18.5806999, 49.1175995 ], [ 18.6070995, 49.1435013 ], [ 18.5960999, 49.214901 ], [ 18.6376991, 49.2355003 ], [ 18.5979996, 49.2858009 ], [ 18.5981007, 49.3536987 ], [ 18.6648006, 49.3450012 ] ] ] ] } }
]
}
