{
"type": "FeatureCollection",
"name": "SVN_GAUL1992_ADM0",
"crs": { "type": "name", "properties": { "name": "urn:ogc:def:crs:OGC:1.3:CRS84" } },
"features": [
{ "type": "Feature", "properties": { "POLYGON_ID": "SVN_GAUL1992_ADM0_224", "ADM0_ISO3": "SVN", "ADM0_NAME": "Slovenia", "ADM0_CODE": 224, "GEOSET": "GAUL", "GEOSET_YEAR": 1992.0, "GEOSET_VERSION": "GAUL_v1", "GEOSET_UNIT": "ADM0", "CENTROID_LONG": 14.831020593016525, "CENTROID_LAT": 46.123711593857408 }, "geometry": { "type": "MultiPolygon", "coordinates": [ [ [ [ 16.60265, 46.47195 ], [ 16.58027, 46.46417 ], [ 16.5289491, 46.4778096 ], [ 16.46473, 46.51608 ], [ 16.34378, 46.53717 ], [ 16.29049, 46.52719 ], [ 16.2822, 46.45663 ], [ 16.29821, 46.43015 ], [ 16.30512, 46.37071 ], [ 16.24603, 46.38229 ], [ 16.1927685, 46.3779909 ], [ 16.15141, 46.40317 ], [ 16.11391, 46.38303 ], [ 16.06884, 46.37628 ], [ 16.07397, 46.32629 ], [ 16.01229, 46.29951 ], [ 15.90689, 46.27273 ], [ 15.87604, 46.25487 ], [ 15.81178, 46.2441599 ], [ 15.80407, 46.20845 ], [ 15.77836, 46.19417 ], [ 15.66783, 46.19952 ], [ 15.63522, 46.19202 ], [ 15.60075, 46.15213 ], [ 15.60528, 46.11415 ], [ 15.65519, 46.07668 ], [ 15.71286, 46.05857 ], [ 15.70255, 45.99666 ], [ 15.70695, 45.94584 ], [ 15.68021, 45.90726 ], [ 15.68582, 45.84421 ], [ 15.64983, 45.82636 ], [ 15.57014, 45.84957 ], [ 15.5290176, 45.8227895 ], [ 15.48274, 45.82279 ], [ 15.46989, 45.77637 ], [ 15.43647, 45.77637 ], [ 15.33622, 45.75316 ], [ 15.27967, 45.73352 ], [ 15.25396, 45.70673 ], [ 15.3259383, 45.694237 ], [ 15.39792, 45.66031 ], [ 15.38506, 45.64425 ], [ 15.34108, 45.64881 ], [ 15.27685, 45.60467 ], [ 15.29542, 45.5781 ], [ 15.29833, 45.54247 ], [ 15.32793, 45.51158 ], [ 15.3792, 45.48812 ], [ 15.32599, 45.45482 ], [ 15.2659378, 45.4645994 ], [ 15.22377, 45.42994 ], [ 15.15472, 45.42738 ], [ 15.09524, 45.46387 ], [ 15.08741, 45.48202 ], [ 14.99083, 45.49591 ], [ 14.94369, 45.52502 ], [ 14.91464, 45.51867 ], [ 14.91316, 45.48206 ], [ 14.85722, 45.46194 ], [ 14.8256, 45.46046 ], [ 14.79463, 45.49882 ], [ 14.72806, 45.53076 ], [ 14.69379, 45.52384 ], [ 14.70288, 45.56455 ], [ 14.68583, 45.58845 ], [ 14.65615, 45.59283 ], [ 14.61325, 45.62051 ], [ 14.6171796, 45.6459371 ], [ 14.5631687, 45.6459378 ], [ 14.54446, 45.61394 ], [ 14.51329, 45.59794 ], [ 14.47797, 45.53394 ], [ 14.29097, 45.50049 ], [ 14.23695, 45.52522 ], [ 14.2141, 45.51795 ], [ 14.19124, 45.48159 ], [ 14.1393, 45.49613 ], [ 14.09359, 45.4874 ], [ 14.0374883, 45.5266697 ], [ 13.98762, 45.50485 ], [ 14.0084, 45.48304 ], [ 13.98346, 45.46559 ], [ 13.90035, 45.4554 ], [ 13.88789, 45.44231 ], [ 13.82763, 45.44377 ], [ 13.81309, 45.46559 ], [ 13.74671, 45.47339 ], [ 13.68475, 45.44691 ], [ 13.5874853, 45.4807739 ], [ 13.5948172, 45.513073 ], [ 13.6164408, 45.5386887 ], [ 13.6493492, 45.5329056 ], [ 13.7040844, 45.5492706 ], [ 13.7595577, 45.5461311 ], [ 13.7210712, 45.594471 ], [ 13.75121, 45.59644 ], [ 13.79613, 45.58054 ], [ 13.86909, 45.59327 ], [ 13.90733, 45.62924 ], [ 13.8579894, 45.6622309 ], [ 13.79302, 45.7402 ], [ 13.73935, 45.7531 ], [ 13.66444, 45.7971 ], [ 13.59749, 45.80746 ], [ 13.57753, 45.84611 ], [ 13.59309, 45.89614 ], [ 13.648018, 45.9382382 ], [ 13.6376, 45.98784 ], [ 13.58584, 45.98763 ], [ 13.5292, 45.96752 ], [ 13.47853, 46.00448 ], [ 13.50461, 46.02363 ], [ 13.49736, 46.05514 ], [ 13.53765, 46.08338 ], [ 13.61994, 46.12332 ], [ 13.6592, 46.15568 ], [ 13.66695, 46.18206 ], [ 13.64547, 46.19533 ], [ 13.56276, 46.19502 ], [ 13.55464, 46.21326 ], [ 13.49166, 46.2285 ], [ 13.42316, 46.21338 ], [ 13.38716, 46.30355 ], [ 13.44243, 46.33176 ], [ 13.44875, 46.36551 ], [ 13.49926, 46.37252 ], [ 13.56767, 46.40361 ], [ 13.58483, 46.43369 ], [ 13.64128, 46.446 ], [ 13.67606, 46.43931 ], [ 13.71224, 46.48567 ], [ 13.71506, 46.52332 ], [ 13.79517, 46.51014 ], [ 13.87355, 46.52116 ], [ 13.92976, 46.51848 ], [ 14.0095, 46.48338 ], [ 14.04457, 46.4958 ], [ 14.12014, 46.47767 ], [ 14.15905, 46.43709 ], [ 14.19152, 46.44403 ], [ 14.24167, 46.43518 ], [ 14.27569, 46.44595 ], [ 14.33628, 46.43448 ], [ 14.42484, 46.44945 ], [ 14.48314, 46.41623 ], [ 14.51602, 46.42971 ], [ 14.5615687, 46.3780407 ], [ 14.591008, 46.4055675 ], [ 14.58712, 46.4343 ], [ 14.6571, 46.44734 ], [ 14.69748, 46.46834 ], [ 14.7138298, 46.496689 ], [ 14.78761, 46.50016 ], [ 14.81704, 46.50932 ], [ 14.83342, 46.56636 ], [ 14.8681891, 46.6068474 ], [ 14.91299, 46.60657 ], [ 14.95576, 46.63039 ], [ 14.98071, 46.60142 ], [ 15.00826, 46.63532 ], [ 15.03901, 46.65263 ], [ 15.1488, 46.65905 ], [ 15.20594, 46.64474 ], [ 15.27408, 46.64491 ], [ 15.29704, 46.65441 ], [ 15.37292, 46.65127 ], [ 15.41655, 46.65681 ], [ 15.4737, 46.61306 ], [ 15.50614, 46.61577 ], [ 15.54689, 46.63579 ], [ 15.54926, 46.67051 ], [ 15.6052, 46.68834 ], [ 15.62236, 46.68243 ], [ 15.67087, 46.7067 ], [ 15.76001, 46.69387 ], [ 15.8349484, 46.7188797 ], [ 15.90066, 46.71261 ], [ 15.95203, 46.68649 ], [ 15.98657, 46.68578 ], [ 16.03466, 46.6609 ], [ 16.03766, 46.6917 ], [ 15.98668, 46.74143 ], [ 15.99107, 46.83538 ], [ 16.06109, 46.84259 ], [ 16.111889, 46.8715095 ], [ 16.14366, 46.85564 ], [ 16.23446, 46.87792 ], [ 16.28144, 46.87315 ], [ 16.3387168, 46.8461604 ], [ 16.3445793, 46.8301086 ], [ 16.32091, 46.75393 ], [ 16.3727198, 46.6980509 ], [ 16.42015, 46.68908 ], [ 16.41842, 46.6635 ], [ 16.3849, 46.64275 ], [ 16.51774, 46.54951 ], [ 16.52608, 46.501 ], [ 16.60265, 46.47195 ] ] ] ] } }
]
}
