{
"type": "FeatureCollection",
"name": "SWE_GAUL1997_ADM1",
"crs": { "type": "name", "properties": { "name": "urn:ogc:def:crs:OGC:1.3:CRS84" } },
"features": [
{ "type": "Feature", "properties": { "POLYGON_ID": "SWE_GAUL1997_ADM1_2786", "ADM0_ISO3": "SWE", "ADM0_NAME": "Sweden", "ADM0_CODE": 236, "ADM1_NAME": "Blekinge Laen", "ADM1_CODE": 2786, "GEOSET": "GAUL", "GEOSET_YEAR": 1997.0, "GEOSET_VERSION": "GAUL_v1", "GEOSET_UNIT": "ADM1", "CENTROID_LONG": 15.187087793392276, "CENTROID_LAT": 56.275159464233866 }, "geometry": { "type": "MultiPolygon", "coordinates": [ [ [ [ 16.0588589, 56.3127785 ], [ 16.0641651, 56.2880478 ], [ 16.0250568, 56.2168541 ], [ 15.8427715, 56.0816879 ], [ 15.7966986, 56.1213112 ], [ 15.7020111, 56.1758728 ], [ 15.5834131, 56.174263 ], [ 15.5008259, 56.1618118 ], [ 15.4145632, 56.1734734 ], [ 15.3795214, 56.1218872 ], [ 15.1913118, 56.154438 ], [ 15.1144743, 56.144043 ], [ 15.0603266, 56.1886597 ], [ 15.0122633, 56.1521492 ], [ 14.9199619, 56.1580658 ], [ 14.7306452, 56.1469002 ], [ 14.7004404, 56.1031265 ], [ 14.783843, 56.0318108 ], [ 14.7664442, 56.0083466 ], [ 14.6218147, 56.0 ], [ 14.5683622, 56.0253487 ], [ 14.5525408, 56.0569115 ], [ 14.5803499, 56.0919952 ], [ 14.5749998, 56.1833344 ], [ 14.4775505, 56.2221909 ], [ 14.4333334, 56.2166672 ], [ 14.4220295, 56.2832108 ], [ 14.3916664, 56.2916679 ], [ 14.419157, 56.3880272 ], [ 14.4762583, 56.4026833 ], [ 14.5166664, 56.4500008 ], [ 14.6107187, 56.4290161 ], [ 14.666667, 56.375 ], [ 14.7662745, 56.3704453 ], [ 14.9012804, 56.3518028 ], [ 15.0143662, 56.4390221 ], [ 15.119957, 56.4431229 ], [ 15.1587658, 56.4214668 ], [ 15.2234507, 56.4527016 ], [ 15.3000584, 56.4407997 ], [ 15.3583336, 56.4666672 ], [ 15.3875341, 56.4884415 ], [ 15.5047035, 56.4702988 ], [ 15.5880365, 56.479702 ], [ 15.6547031, 56.4463692 ], [ 15.6809378, 56.4136124 ], [ 15.738677, 56.4004936 ], [ 15.8371906, 56.312191 ], [ 15.9544764, 56.3044777 ], [ 16.0112247, 56.283638 ], [ 16.0588589, 56.3127785 ] ] ] ] } },
{ "type": "Feature", "properties": { "POLYGON_ID": "SWE_GAUL1997_ADM1_2787", "ADM0_ISO3": "SWE", "ADM0_NAME": "Sweden", "ADM0_CODE": 236, "ADM1_NAME": "Dalarnas Laen", "ADM1_CODE": 2787, "GEOSET": "GAUL", "GEOSET_YEAR": 1997.0, "GEOSET_VERSION": "GAUL_v1", "GEOSET_UNIT": "ADM1", "CENTROID_LONG": 14.347455072892911, "CENTROID_LAT": 60.952239261571322 }, "geometry": { "type": "MultiPolygon", "coordinates": [ [ [ [ 14.4499998, 61.5916672 ], [ 14.6703672, 61.589138 ], [ 14.6787519, 61.5312538 ], [ 14.6483002, 61.488308 ], [ 14.7875004, 61.4891739 ], [ 15.0871906, 61.4788551 ], [ 15.1536436, 61.5902977 ], [ 15.2140493, 61.4850311 ], [ 15.3708763, 61.3702469 ], [ 15.4490757, 61.3214378 ], [ 15.6544695, 61.2128601 ], [ 15.6788569, 61.1038551 ], [ 15.75, 61.0416679 ], [ 15.9291182, 61.0035515 ], [ 16.1010036, 60.9866524 ], [ 16.1470871, 60.9673386 ], [ 16.2703724, 60.8453712 ], [ 16.3759212, 60.784256 ], [ 16.3779392, 60.7347107 ], [ 16.3221283, 60.7098084 ], [ 16.312809, 60.6788559 ], [ 16.2166672, 60.6083336 ], [ 16.1333332, 60.6083336 ], [ 16.1862164, 60.5330086 ], [ 16.2796268, 60.4712944 ], [ 16.3833332, 60.375 ], [ 16.5166664, 60.3499985 ], [ 16.6114903, 60.2769241 ], [ 16.6233921, 60.2341843 ], [ 16.7000008, 60.1916656 ], [ 16.545372, 60.1712952 ], [ 16.5367641, 60.1357498 ], [ 16.4285545, 60.1169167 ], [ 16.3990669, 60.0800934 ], [ 16.2037468, 60.0671539 ], [ 16.1419506, 60.0832787 ], [ 16.1634769, 60.1127434 ], [ 16.0577526, 60.1421356 ], [ 16.0166664, 60.1749992 ], [ 15.9109459, 60.1559563 ], [ 15.8078499, 60.1687813 ], [ 15.7212944, 60.1363564 ], [ 15.7629604, 60.1120377 ], [ 15.6797009, 60.0328026 ], [ 15.7137737, 59.9699478 ], [ 15.6657658, 59.9213676 ], [ 15.5229654, 59.9510612 ], [ 15.4250002, 59.8499985 ], [ 15.3705988, 59.8705978 ], [ 15.2250004, 59.9666672 ], [ 15.2104273, 59.9924431 ], [ 15.1203728, 60.0037041 ], [ 15.0667133, 60.0395126 ], [ 14.8972502, 60.0467224 ], [ 14.8142204, 60.1038551 ], [ 14.7415905, 60.0771866 ], [ 14.75, 59.9916649 ], [ 14.4333334, 60.0166664 ], [ 14.2117367, 60.0867386 ], [ 14.1827574, 60.1696434 ], [ 14.1416664, 60.2249985 ], [ 13.9623919, 60.2244339 ], [ 13.9989271, 60.181736 ], [ 13.9666662, 60.1666679 ], [ 13.8366385, 60.2394295 ], [ 13.6632681, 60.3983116 ], [ 13.5215254, 60.4231758 ], [ 13.462266, 60.4539337 ], [ 13.3960676, 60.537735 ], [ 13.2803335, 60.6258774 ], [ 13.244833, 60.6813431 ], [ 13.1958332, 60.678421 ], [ 13.1481237, 60.7530937 ], [ 13.0719509, 60.8015404 ], [ 12.6938028, 60.9896889 ], [ 12.68244, 61.0648 ], [ 12.70272, 61.14035 ], [ 12.7897387, 61.1925392 ], [ 12.8740384, 61.3602768 ], [ 12.57501, 61.57137 ], [ 12.423689, 61.5616306 ], [ 12.13189, 61.72578 ], [ 12.21952, 61.99986 ], [ 12.3105599, 62.2660098 ], [ 12.4796438, 62.2301331 ], [ 12.6416664, 62.2078133 ], [ 12.7979622, 62.2203712 ], [ 12.8955231, 62.1371918 ], [ 12.9490385, 62.12743 ], [ 12.9820938, 62.0632706 ], [ 13.0366907, 62.0641098 ], [ 13.1613388, 62.0138626 ], [ 13.2775955, 62.0503578 ], [ 13.2991343, 62.0020866 ], [ 13.3916302, 61.9955597 ], [ 13.2128096, 61.926033 ], [ 13.3675232, 61.8386192 ], [ 13.506175, 61.7053185 ], [ 13.4871416, 61.6788788 ], [ 13.5493956, 61.6431084 ], [ 13.6086912, 61.6478691 ], [ 14.0458279, 61.6122513 ], [ 14.1708584, 61.6137428 ], [ 14.3331194, 61.5952034 ], [ 14.3833332, 61.5583344 ], [ 14.4499998, 61.5916672 ] ] ] ] } },
{ "type": "Feature", "properties": { "POLYGON_ID": "SWE_GAUL1997_ADM1_2788", "ADM0_ISO3": "SWE", "ADM0_NAME": "Sweden", "ADM0_CODE": 236, "ADM1_NAME": "Gaevleborgs Laen", "ADM1_CODE": 2788, "GEOSET": "GAUL", "GEOSET_YEAR": 1997.0, "GEOSET_VERSION": "GAUL_v1", "GEOSET_UNIT": "ADM1", "CENTROID_LONG": 16.289276572267337, "CENTROID_LAT": 61.443229231654279 }, "geometry": { "type": "MultiPolygon", "coordinates": [ [ [ [ 17.5109272, 62.1417847 ], [ 17.4874668, 62.1254044 ], [ 17.4695168, 62.004776 ], [ 17.4009514, 61.9840088 ], [ 17.3436279, 61.9289665 ], [ 17.365202, 61.8717537 ], [ 17.3161621, 61.8594894 ], [ 17.3466511, 61.8202438 ], [ 17.3964844, 61.8198318 ], [ 17.3850193, 61.7337914 ], [ 17.5096378, 61.7168274 ], [ 17.5138683, 61.6571503 ], [ 17.4481831, 61.6183891 ], [ 17.3717251, 61.6866379 ], [ 17.2541733, 61.7072945 ], [ 17.2403927, 61.6491394 ], [ 17.1583824, 61.6286545 ], [ 17.1316299, 61.5568314 ], [ 17.087286, 61.5433884 ], [ 17.1741066, 61.4904594 ], [ 17.0945663, 61.414753 ], [ 17.1453304, 61.352375 ], [ 17.1932411, 61.3408356 ], [ 17.1699677, 61.2764359 ], [ 17.2062969, 61.2373924 ], [ 17.1710606, 61.1572227 ], [ 17.2079201, 61.0869141 ], [ 17.1610775, 61.0469933 ], [ 17.2384319, 61.0138893 ], [ 17.141798, 60.9571533 ], [ 17.2427349, 60.8931236 ], [ 17.3058071, 60.8369484 ], [ 17.2873344, 60.7748642 ], [ 17.3515587, 60.7601776 ], [ 17.2673588, 60.709404 ], [ 17.311327, 60.6579895 ], [ 17.3918972, 60.6494026 ], [ 17.3122406, 60.5293579 ], [ 17.291666, 60.4416656 ], [ 17.2142696, 60.4362259 ], [ 17.1834602, 60.3885498 ], [ 17.2052898, 60.3541679 ], [ 17.1916676, 60.2916679 ], [ 17.100769, 60.2572212 ], [ 16.9083328, 60.2750015 ], [ 16.89785, 60.2272491 ], [ 16.7787724, 60.1800957 ], [ 16.7000008, 60.1916656 ], [ 16.6233921, 60.2341843 ], [ 16.6114903, 60.2769241 ], [ 16.5166664, 60.3499985 ], [ 16.3833332, 60.375 ], [ 16.2796268, 60.4712944 ], [ 16.1862164, 60.5330086 ], [ 16.1333332, 60.6083336 ], [ 16.2166672, 60.6083336 ], [ 16.312809, 60.6788559 ], [ 16.3221283, 60.7098084 ], [ 16.3779392, 60.7347107 ], [ 16.3759212, 60.784256 ], [ 16.2703724, 60.8453712 ], [ 16.1470871, 60.9673386 ], [ 16.1010036, 60.9866524 ], [ 15.9291182, 61.0035515 ], [ 15.75, 61.0416679 ], [ 15.6788569, 61.1038551 ], [ 15.6544695, 61.2128601 ], [ 15.4490757, 61.3214378 ], [ 15.3708763, 61.3702469 ], [ 15.2140493, 61.4850311 ], [ 15.1536436, 61.5902977 ], [ 15.0871906, 61.4788551 ], [ 14.7875004, 61.4891739 ], [ 14.6483002, 61.488308 ], [ 14.6787519, 61.5312538 ], [ 14.6703672, 61.589138 ], [ 14.4499998, 61.5916672 ], [ 14.496273, 61.61763 ], [ 14.5195742, 61.7794647 ], [ 14.6678762, 61.8902092 ], [ 14.7604351, 61.8555679 ], [ 14.7982616, 61.8872643 ], [ 14.8718863, 61.8108253 ], [ 14.920599, 61.8289337 ], [ 14.9102993, 61.8731995 ], [ 15.046237, 61.865097 ], [ 15.1209774, 61.9306259 ], [ 15.0877342, 61.9967537 ], [ 15.1544008, 62.0122643 ], [ 15.4099712, 62.1069984 ], [ 15.4289322, 62.1431427 ], [ 15.3626633, 62.2030678 ], [ 15.333333, 62.2666664 ], [ 15.4918766, 62.3310547 ], [ 15.6247654, 62.3389778 ], [ 15.8328791, 62.2900772 ], [ 16.170372, 62.2370377 ], [ 16.4468937, 62.2304649 ], [ 16.8042507, 62.1959152 ], [ 16.9185352, 62.1660843 ], [ 17.0147343, 62.1537857 ], [ 17.2023373, 62.1552353 ], [ 17.5109272, 62.1417847 ] ] ] ] } },
{ "type": "Feature", "properties": { "POLYGON_ID": "SWE_GAUL1997_ADM1_2789", "ADM0_ISO3": "SWE", "ADM0_NAME": "Sweden", "ADM0_CODE": 236, "ADM1_NAME": "Gotlands Laen", "ADM1_CODE": 2789, "GEOSET": "GAUL", "GEOSET_YEAR": 1997.0, "GEOSET_VERSION": "GAUL_v1", "GEOSET_UNIT": "ADM1", "CENTROID_LONG": 18.542258936941742, "CENTROID_LAT": 57.503304974297365 }, "geometry": { "type": "MultiPolygon", "coordinates": [ [ [ [ 19.2895927, 58.3381729 ], [ 19.2291203, 58.3377495 ], [ 19.193409, 58.39468 ], [ 19.2871094, 58.3832779 ], [ 19.2895927, 58.3381729 ] ] ], [ [ [ 19.1995621, 57.9825439 ], [ 19.2503414, 57.945797 ], [ 19.1487675, 57.910305 ], [ 19.178587, 57.8915367 ], [ 19.1329861, 57.8413086 ], [ 19.0885773, 57.8679237 ], [ 19.0614929, 57.9217262 ], [ 19.1366806, 57.9802017 ], [ 19.1995621, 57.9825439 ] ] ], [ [ [ 18.7984047, 57.8626823 ], [ 18.8586082, 57.8853798 ], [ 18.872097, 57.9229813 ], [ 19.0380383, 57.9078102 ], [ 19.0490494, 57.8338318 ], [ 18.9664154, 57.76157 ], [ 18.9675713, 57.7320213 ], [ 18.8623466, 57.7244492 ], [ 18.7837219, 57.6453819 ], [ 18.816658, 57.6097031 ], [ 18.8134022, 57.5436172 ], [ 18.76478, 57.5123863 ], [ 18.7778492, 57.4701347 ], [ 18.8294888, 57.4369469 ], [ 18.9057217, 57.4445152 ], [ 18.9294167, 57.4010963 ], [ 18.7679691, 57.360981 ], [ 18.6751518, 57.2982368 ], [ 18.7323303, 57.2559967 ], [ 18.6746044, 57.2255669 ], [ 18.4279671, 57.1416245 ], [ 18.3513336, 57.0632477 ], [ 18.3672752, 56.987793 ], [ 18.3050938, 56.9248657 ], [ 18.2041683, 56.9003067 ], [ 18.1430397, 56.9222946 ], [ 18.203455, 56.9778061 ], [ 18.2107334, 57.0104752 ], [ 18.2991467, 57.0424652 ], [ 18.2789288, 57.080452 ], [ 18.211544, 57.067894 ], [ 18.22859, 57.1220589 ], [ 18.1544113, 57.1611214 ], [ 18.1661892, 57.2123871 ], [ 18.102026, 57.2563362 ], [ 18.1136303, 57.2853203 ], [ 18.1799183, 57.3161812 ], [ 18.2042255, 57.3830452 ], [ 18.1511726, 57.4134903 ], [ 18.1115494, 57.5321045 ], [ 18.2077522, 57.5992012 ], [ 18.2642803, 57.6186714 ], [ 18.3774529, 57.7051506 ], [ 18.4866104, 57.8251648 ], [ 18.6223812, 57.848011 ], [ 18.6485748, 57.8938179 ], [ 18.7055855, 57.9200058 ], [ 18.7724075, 57.9174805 ], [ 18.7984047, 57.8626823 ] ] ] ] } },
{ "type": "Feature", "properties": { "POLYGON_ID": "SWE_GAUL1997_ADM1_2790", "ADM0_ISO3": "SWE", "ADM0_NAME": "Sweden", "ADM0_CODE": 236, "ADM1_NAME": "Hallands Laen", "ADM1_CODE": 2790, "GEOSET": "GAUL", "GEOSET_YEAR": 1997.0, "GEOSET_VERSION": "GAUL_v1", "GEOSET_UNIT": "ADM1", "CENTROID_LONG": 12.848167439570725, "CENTROID_LAT": 56.947758444296262 }, "geometry": { "type": "MultiPolygon", "coordinates": [ [ [ [ 13.0916662, 57.1333351 ], [ 13.0749998, 57.0916672 ], [ 13.1210747, 57.0179138 ], [ 13.2421694, 57.0826454 ], [ 13.3648558, 57.1054306 ], [ 13.4541473, 57.0942764 ], [ 13.5984068, 57.0456886 ], [ 13.6056433, 56.9907722 ], [ 13.6833334, 56.9666672 ], [ 13.6789503, 56.9180031 ], [ 13.6129608, 56.8870392 ], [ 13.476819, 56.8612366 ], [ 13.3683376, 56.8518867 ], [ 13.291667, 56.8166656 ], [ 13.3213902, 56.6955223 ], [ 13.4036303, 56.5786324 ], [ 13.4613295, 56.5162544 ], [ 13.4522114, 56.4534378 ], [ 13.4666662, 56.4166679 ], [ 13.2827139, 56.3672867 ], [ 13.2283173, 56.3218308 ], [ 13.1555338, 56.3388672 ], [ 12.9944658, 56.3444672 ], [ 12.9536304, 56.3630371 ], [ 12.9612741, 56.4332962 ], [ 12.9046129, 56.4494895 ], [ 12.945694, 56.5138512 ], [ 12.9350843, 56.5828018 ], [ 12.8878584, 56.6406593 ], [ 12.8478794, 56.6620522 ], [ 12.7471714, 56.6429253 ], [ 12.6706953, 56.7141228 ], [ 12.6228151, 56.740345 ], [ 12.6125021, 56.8126946 ], [ 12.4938765, 56.8879662 ], [ 12.3631554, 56.9173126 ], [ 12.3668594, 56.9885826 ], [ 12.2580147, 57.0630569 ], [ 12.2593861, 57.1197319 ], [ 12.2194595, 57.1447983 ], [ 12.2214737, 57.2106133 ], [ 12.1462669, 57.2133522 ], [ 12.1073122, 57.2344856 ], [ 12.1714554, 57.283535 ], [ 12.1650705, 57.3247375 ], [ 12.1004591, 57.3687286 ], [ 12.1158476, 57.4360428 ], [ 12.0652781, 57.4602318 ], [ 12.0085764, 57.343174 ], [ 11.9349499, 57.4095459 ], [ 11.9120731, 57.4840012 ], [ 11.9526129, 57.5141258 ], [ 11.922226, 57.5397148 ], [ 11.9426222, 57.5775261 ], [ 12.0166769, 57.5364609 ], [ 12.1712942, 57.5537071 ], [ 12.2842836, 57.5812759 ], [ 12.3351908, 57.5562515 ], [ 12.3091774, 57.5083809 ], [ 12.34266, 57.4749985 ], [ 12.3130684, 57.4485588 ], [ 12.3922396, 57.4337845 ], [ 12.412878, 57.3958054 ], [ 12.3882589, 57.3248825 ], [ 12.4289808, 57.2614365 ], [ 12.5040836, 57.2748184 ], [ 12.528945, 57.3047485 ], [ 12.6048508, 57.3371162 ], [ 12.6601973, 57.3332253 ], [ 12.7372952, 57.2892456 ], [ 12.8083334, 57.2916679 ], [ 12.8284788, 57.2618141 ], [ 12.9279099, 57.2543755 ], [ 12.9416714, 57.2327003 ], [ 12.9048538, 57.1880875 ], [ 12.9224787, 57.1637497 ], [ 13.0305309, 57.1735725 ], [ 13.0244026, 57.1425591 ], [ 13.0916662, 57.1333351 ] ] ] ] } },
{ "type": "Feature", "properties": { "POLYGON_ID": "SWE_GAUL1997_ADM1_2791", "ADM0_ISO3": "SWE", "ADM0_NAME": "Sweden", "ADM0_CODE": 236, "ADM1_NAME": "Jaemtlands Laen", "ADM1_CODE": 2791, "GEOSET": "GAUL", "GEOSET_YEAR": 1997.0, "GEOSET_VERSION": "GAUL_v1", "GEOSET_UNIT": "ADM1", "CENTROID_LONG": 14.308822632374188, "CENTROID_LAT": 63.255832291037365 }, "geometry": { "type": "MultiPolygon", "coordinates": [ [ [ [ 16.7166672, 64.0166702 ], [ 16.6790085, 63.9876595 ], [ 16.5759964, 63.8578033 ], [ 16.5626583, 63.7864342 ], [ 16.6123409, 63.7071915 ], [ 16.3128128, 63.6879845 ], [ 16.2655334, 63.6602325 ], [ 16.2015648, 63.6627693 ], [ 16.0680141, 63.6955566 ], [ 15.9809093, 63.6512909 ], [ 15.8852987, 63.6735382 ], [ 15.7881517, 63.6566238 ], [ 15.991787, 63.5487404 ], [ 15.9664021, 63.4387321 ], [ 16.0534363, 63.4435387 ], [ 16.1406078, 63.4116859 ], [ 16.1030312, 63.3619308 ], [ 16.5911617, 63.1744957 ], [ 16.8877354, 63.0127335 ], [ 16.9916668, 62.9416656 ], [ 16.6588154, 62.90905 ], [ 16.4144516, 62.7594795 ], [ 16.375, 62.6916656 ], [ 16.2432804, 62.7045593 ], [ 16.1242046, 62.686451 ], [ 15.9772205, 62.7083664 ], [ 15.8952026, 62.6940842 ], [ 15.6686211, 62.6365089 ], [ 15.5707474, 62.6178246 ], [ 15.2557096, 62.5989304 ], [ 15.1358223, 62.5543251 ], [ 15.0915661, 62.5777435 ], [ 14.9715433, 62.5968628 ], [ 14.7854595, 62.5861893 ], [ 14.8017769, 62.5239182 ], [ 14.8469267, 62.4529686 ], [ 14.7947884, 62.4550323 ], [ 14.8000002, 62.4000015 ], [ 14.8703709, 62.3799973 ], [ 14.9490528, 62.3100166 ], [ 15.1358223, 62.2459908 ], [ 15.2743883, 62.2868996 ], [ 15.333333, 62.2666664 ], [ 15.3626633, 62.2030678 ], [ 15.4289322, 62.1431427 ], [ 15.4099712, 62.1069984 ], [ 15.1544008, 62.0122643 ], [ 15.0877342, 61.9967537 ], [ 15.1209774, 61.9306259 ], [ 15.046237, 61.865097 ], [ 14.9102993, 61.8731995 ], [ 14.920599, 61.8289337 ], [ 14.8718863, 61.8108253 ], [ 14.7982616, 61.8872643 ], [ 14.7604351, 61.8555679 ], [ 14.6678762, 61.8902092 ], [ 14.5195742, 61.7794647 ], [ 14.496273, 61.61763 ], [ 14.4499998, 61.5916672 ], [ 14.3833332, 61.5583344 ], [ 14.3331194, 61.5952034 ], [ 14.1708584, 61.6137428 ], [ 14.0458279, 61.6122513 ], [ 13.6086912, 61.6478691 ], [ 13.5493956, 61.6431084 ], [ 13.4871416, 61.6788788 ], [ 13.506175, 61.7053185 ], [ 13.3675232, 61.8386192 ], [ 13.2128096, 61.926033 ], [ 13.3916302, 61.9955597 ], [ 13.2991343, 62.0020866 ], [ 13.2775955, 62.0503578 ], [ 13.1613388, 62.0138626 ], [ 13.0366907, 62.0641098 ], [ 12.9820938, 62.0632706 ], [ 12.9490385, 62.12743 ], [ 12.8955231, 62.1371918 ], [ 12.7979622, 62.2203712 ], [ 12.6416664, 62.2078133 ], [ 12.4796438, 62.2301331 ], [ 12.3105599, 62.2660098 ], [ 12.2607438, 62.3352128 ], [ 12.12779, 62.51991 ], [ 12.05315, 62.61018 ], [ 12.1396586, 62.7626075 ], [ 12.07599, 62.90338 ], [ 12.22478, 63.00294 ], [ 12.064439, 63.1821021 ], [ 11.97954, 63.26993 ], [ 12.21496, 63.48351 ], [ 12.14849, 63.59637 ], [ 12.26286, 63.64915 ], [ 12.37243, 63.75006 ], [ 12.68735, 63.98003 ], [ 12.91983, 64.05699 ], [ 13.2003091, 64.0977799 ], [ 13.65516, 64.05433 ], [ 13.95622, 64.01196 ], [ 14.12345, 64.17315 ], [ 14.13239, 64.1923 ], [ 14.10011, 64.46725 ], [ 13.95536, 64.4934 ], [ 13.63731, 64.58576 ], [ 14.10839, 64.95753 ], [ 14.3286471, 65.1103218 ], [ 14.34058, 65.1186 ], [ 14.6158447, 64.9986191 ], [ 14.6878853, 64.9878845 ], [ 14.7142315, 64.9559021 ], [ 14.878932, 64.8622665 ], [ 14.9672251, 64.8485031 ], [ 15.0382338, 64.7873077 ], [ 15.0362968, 64.7548065 ], [ 15.1729116, 64.7419815 ], [ 15.2725821, 64.6860428 ], [ 15.337266, 64.666069 ], [ 15.287817, 64.6179428 ], [ 15.4315176, 64.5483017 ], [ 15.5016947, 64.5250931 ], [ 15.5767384, 64.4377365 ], [ 15.6392412, 64.4457932 ], [ 15.63482, 64.5199738 ], [ 15.6986275, 64.5336075 ], [ 15.7334661, 64.4046402 ], [ 16.0215836, 64.3292694 ], [ 16.036274, 64.2462692 ], [ 16.1365108, 64.2640839 ], [ 16.2294006, 64.2544022 ], [ 16.4539318, 64.1455994 ], [ 16.7127342, 64.0294037 ], [ 16.7166672, 64.0166702 ] ] ] ] } },
{ "type": "Feature", "properties": { "POLYGON_ID": "SWE_GAUL1997_ADM1_2792", "ADM0_ISO3": "SWE", "ADM0_NAME": "Sweden", "ADM0_CODE": 236, "ADM1_NAME": "Joenkoepings Laen", "ADM1_CODE": 2792, "GEOSET": "GAUL", "GEOSET_YEAR": 1997.0, "GEOSET_VERSION": "GAUL_v1", "GEOSET_UNIT": "ADM1", "CENTROID_LONG": 14.429474704126477, "CENTROID_LAT": 57.497363833510406 }, "geometry": { "type": "MultiPolygon", "coordinates": [ [ [ [ 15.416667, 57.6916656 ], [ 15.5795527, 57.6295509 ], [ 15.6194658, 57.5805321 ], [ 15.5873413, 57.5373421 ], [ 15.6521778, 57.4902611 ], [ 15.6075268, 57.4294662 ], [ 15.5417452, 57.4620285 ], [ 15.4893312, 57.4281807 ], [ 15.5263214, 57.3910561 ], [ 15.513279, 57.3136711 ], [ 15.4543257, 57.2588768 ], [ 15.5294237, 57.2209015 ], [ 15.5166664, 57.1916656 ], [ 15.3866062, 57.2196274 ], [ 15.1459055, 57.2062225 ], [ 15.0767298, 57.1871147 ], [ 14.9921227, 57.1289978 ], [ 14.9073334, 57.1213684 ], [ 14.8766413, 57.1819267 ], [ 14.7833338, 57.2166672 ], [ 14.7290668, 57.2155952 ], [ 14.5472593, 57.1761627 ], [ 14.4210539, 57.136837 ], [ 14.3412457, 57.1365242 ], [ 14.3586931, 57.0474052 ], [ 14.3211432, 57.0147362 ], [ 14.364151, 56.9955444 ], [ 14.3915119, 56.9521561 ], [ 14.3753223, 56.9231415 ], [ 14.291667, 56.8666649 ], [ 14.2381601, 56.8827553 ], [ 14.1928482, 56.9573555 ], [ 14.079627, 57.0296288 ], [ 14.0165396, 57.0406075 ], [ 13.8388519, 56.9879608 ], [ 13.7416668, 57.0250015 ], [ 13.6833334, 56.9666672 ], [ 13.6056433, 56.9907722 ], [ 13.5984068, 57.0456886 ], [ 13.4541473, 57.0942764 ], [ 13.3648558, 57.1054306 ], [ 13.2421694, 57.0826454 ], [ 13.1210747, 57.0179138 ], [ 13.0749998, 57.0916672 ], [ 13.0916662, 57.1333351 ], [ 13.1545343, 57.1698837 ], [ 13.1847754, 57.2351074 ], [ 13.2807455, 57.2559776 ], [ 13.2893953, 57.2992363 ], [ 13.3629608, 57.3120384 ], [ 13.5136395, 57.3908348 ], [ 13.5109453, 57.4124985 ], [ 13.6044731, 57.4972534 ], [ 13.6916666, 57.5499992 ], [ 13.6632633, 57.6093788 ], [ 13.7229624, 57.648838 ], [ 13.6999998, 57.6916656 ], [ 13.7467442, 57.7620697 ], [ 13.7333336, 57.8416672 ], [ 13.8452749, 57.8181572 ], [ 13.9208832, 57.8465958 ], [ 13.9703722, 57.8037071 ], [ 14.0137091, 57.8513832 ], [ 14.0841894, 57.842617 ], [ 14.1343117, 57.8792305 ], [ 14.1951389, 57.8880844 ], [ 14.2283087, 57.9426956 ], [ 14.2118092, 57.9707642 ], [ 14.2354755, 58.0255852 ], [ 14.3421297, 58.1555252 ], [ 14.416667, 58.1833344 ], [ 14.4668036, 58.1168022 ], [ 14.6357765, 58.0863571 ], [ 14.7418098, 58.0948753 ], [ 14.7843485, 58.0711441 ], [ 14.8794765, 58.0788574 ], [ 14.9075861, 58.1235046 ], [ 14.9782009, 58.1398697 ], [ 15.0666666, 58.0166664 ], [ 15.0565977, 57.9733047 ], [ 15.0154991, 57.9464302 ], [ 14.9950037, 57.895668 ], [ 15.0432196, 57.8459892 ], [ 15.1337824, 57.7060928 ], [ 15.416667, 57.6916656 ] ] ] ] } },
{ "type": "Feature", "properties": { "POLYGON_ID": "SWE_GAUL1997_ADM1_2793", "ADM0_ISO3": "SWE", "ADM0_NAME": "Sweden", "ADM0_CODE": 236, "ADM1_NAME": "Kalmar Laen", "ADM1_CODE": 2793, "GEOSET": "GAUL", "GEOSET_YEAR": 1997.0, "GEOSET_VERSION": "GAUL_v1", "GEOSET_UNIT": "ADM1", "CENTROID_LONG": 16.12796723553603, "CENTROID_LAT": 57.18646943138716 }, "geometry": { "type": "MultiPolygon", "coordinates": [ [ [ [ 17.1070328, 57.3328629 ], [ 17.1045876, 57.300621 ], [ 17.0570908, 57.2593536 ], [ 17.0928974, 57.2307396 ], [ 17.0825405, 57.173645 ], [ 16.9931355, 57.0990982 ], [ 16.9392223, 57.0053558 ], [ 16.8822498, 56.9693375 ], [ 16.9036827, 56.9173775 ], [ 16.8606873, 56.8813705 ], [ 16.8629074, 56.8321762 ], [ 16.7773552, 56.7819023 ], [ 16.7686577, 56.7341576 ], [ 16.7075977, 56.6217003 ], [ 16.6488075, 56.5490265 ], [ 16.6225472, 56.4711571 ], [ 16.5683479, 56.384964 ], [ 16.5763149, 56.3719902 ], [ 16.4959202, 56.2400169 ], [ 16.4145603, 56.1942177 ], [ 16.398077, 56.2852325 ], [ 16.4157143, 56.3419571 ], [ 16.3817806, 56.4585075 ], [ 16.3895435, 56.5152245 ], [ 16.4279938, 56.5946388 ], [ 16.4699974, 56.6349297 ], [ 16.5216045, 56.7419434 ], [ 16.6540737, 56.8839951 ], [ 16.7240314, 56.879364 ], [ 16.7410736, 56.932457 ], [ 16.8250141, 57.0395126 ], [ 16.8830948, 57.0952415 ], [ 16.9218082, 57.1603775 ], [ 16.9136333, 57.2036743 ], [ 16.9593697, 57.2253342 ], [ 16.9657345, 57.2927208 ], [ 17.0605888, 57.3541985 ], [ 17.1070328, 57.3328629 ] ] ], [ [ [ 16.6812782, 57.9875565 ], [ 16.7595291, 57.9725266 ], [ 16.8090477, 57.9215965 ], [ 16.7626839, 57.8688812 ], [ 16.7122612, 57.9005585 ], [ 16.5434933, 57.8608513 ], [ 16.6230278, 57.7841225 ], [ 16.7380753, 57.7041016 ], [ 16.6684265, 57.6829567 ], [ 16.6337585, 57.6443787 ], [ 16.6643867, 57.6081162 ], [ 16.5899944, 57.5878448 ], [ 16.6506882, 57.5477142 ], [ 16.6834126, 57.4494095 ], [ 16.6309586, 57.3795395 ], [ 16.5668983, 57.3709679 ], [ 16.5579033, 57.3092117 ], [ 16.4908943, 57.2743645 ], [ 16.5202847, 57.2310867 ], [ 16.4693718, 57.1870308 ], [ 16.4721031, 57.1488457 ], [ 16.5835686, 57.0842171 ], [ 16.566782, 57.0400314 ], [ 16.4955215, 57.0212288 ], [ 16.4511108, 56.9140739 ], [ 16.4495373, 56.8552246 ], [ 16.3688869, 56.7226372 ], [ 16.3911514, 56.6810837 ], [ 16.3089199, 56.6583443 ], [ 16.2334499, 56.6031799 ], [ 16.2318649, 56.5505447 ], [ 16.1760902, 56.4858055 ], [ 16.1416836, 56.470089 ], [ 16.1026669, 56.4142418 ], [ 16.1048698, 56.3758926 ], [ 16.0588589, 56.3127785 ], [ 16.0112247, 56.283638 ], [ 15.9544764, 56.3044777 ], [ 15.8371906, 56.312191 ], [ 15.738677, 56.4004936 ], [ 15.6809378, 56.4136124 ], [ 15.6547031, 56.4463692 ], [ 15.5880365, 56.479702 ], [ 15.5047035, 56.4702988 ], [ 15.3875341, 56.4884415 ], [ 15.3583336, 56.4666672 ], [ 15.3431568, 56.4797249 ], [ 15.3703728, 56.5962944 ], [ 15.4070396, 56.6185646 ], [ 15.4146242, 56.7004166 ], [ 15.3640251, 56.7622643 ], [ 15.5361776, 56.7909851 ], [ 15.5500002, 56.8250008 ], [ 15.5484285, 56.9169273 ], [ 15.6671171, 56.8951263 ], [ 15.8254938, 56.9146347 ], [ 15.8371906, 56.9808731 ], [ 15.7218227, 57.063488 ], [ 15.6450462, 57.089325 ], [ 15.6301565, 57.1134911 ], [ 15.5525875, 57.1365967 ], [ 15.5166664, 57.1916656 ], [ 15.5294237, 57.2209015 ], [ 15.4543257, 57.2588768 ], [ 15.513279, 57.3136711 ], [ 15.5263214, 57.3910561 ], [ 15.4893312, 57.4281807 ], [ 15.5417452, 57.4620285 ], [ 15.6075268, 57.4294662 ], [ 15.6521778, 57.4902611 ], [ 15.5873413, 57.5373421 ], [ 15.6194658, 57.5805321 ], [ 15.5795527, 57.6295509 ], [ 15.416667, 57.6916656 ], [ 15.4458876, 57.7394142 ], [ 15.5467129, 57.7623177 ], [ 15.5333338, 57.7833328 ], [ 15.605732, 57.8138542 ], [ 15.6235924, 57.8466148 ], [ 15.7585993, 57.8411255 ], [ 15.8128538, 57.8108559 ], [ 15.8827629, 57.8164711 ], [ 15.9505215, 57.7979279 ], [ 15.9755421, 57.8269691 ], [ 16.0544758, 57.8621902 ], [ 16.0645218, 57.8939133 ], [ 16.0129604, 57.9186745 ], [ 16.0787067, 57.9641571 ], [ 15.9938946, 58.0129356 ], [ 16.013361, 58.046051 ], [ 16.1983738, 58.0928612 ], [ 16.2583332, 58.1318474 ], [ 16.3379555, 58.1082916 ], [ 16.4036293, 58.1202965 ], [ 16.4805851, 58.0807571 ], [ 16.538765, 58.1036301 ], [ 16.5981216, 58.0488205 ], [ 16.5945416, 58.0245934 ], [ 16.6812782, 57.9875565 ] ] ] ] } },
{ "type": "Feature", "properties": { "POLYGON_ID": "SWE_GAUL1997_ADM1_2794", "ADM0_ISO3": "SWE", "ADM0_NAME": "Sweden", "ADM0_CODE": 236, "ADM1_NAME": "Kronobergs Laen", "ADM1_CODE": 2794, "GEOSET": "GAUL", "GEOSET_YEAR": 1997.0, "GEOSET_VERSION": "GAUL_v1", "GEOSET_UNIT": "ADM1", "CENTROID_LONG": 14.570460263151867, "CENTROID_LAT": 56.783754606616419 }, "geometry": { "type": "MultiPolygon", "coordinates": [ [ [ [ 15.5166664, 57.1916656 ], [ 15.5525875, 57.1365967 ], [ 15.6301565, 57.1134911 ], [ 15.6450462, 57.089325 ], [ 15.7218227, 57.063488 ], [ 15.8371906, 56.9808731 ], [ 15.8254938, 56.9146347 ], [ 15.6671171, 56.8951263 ], [ 15.5484285, 56.9169273 ], [ 15.5500002, 56.8250008 ], [ 15.5361776, 56.7909851 ], [ 15.3640251, 56.7622643 ], [ 15.4146242, 56.7004166 ], [ 15.4070396, 56.6185646 ], [ 15.3703728, 56.5962944 ], [ 15.3431568, 56.4797249 ], [ 15.3583336, 56.4666672 ], [ 15.3000584, 56.4407997 ], [ 15.2234507, 56.4527016 ], [ 15.1587658, 56.4214668 ], [ 15.119957, 56.4431229 ], [ 15.0143662, 56.4390221 ], [ 14.9012804, 56.3518028 ], [ 14.7662745, 56.3704453 ], [ 14.666667, 56.375 ], [ 14.6107187, 56.4290161 ], [ 14.5166664, 56.4500008 ], [ 14.3826475, 56.4657707 ], [ 14.2876501, 56.4878464 ], [ 14.0619907, 56.4936638 ], [ 14.0226383, 56.4597588 ], [ 13.9038563, 56.4461441 ], [ 13.8704796, 56.4275208 ], [ 13.7685308, 56.4357109 ], [ 13.6916666, 56.4083328 ], [ 13.4955082, 56.3951683 ], [ 13.4666662, 56.4166679 ], [ 13.4522114, 56.4534378 ], [ 13.4613295, 56.5162544 ], [ 13.4036303, 56.5786324 ], [ 13.3213902, 56.6955223 ], [ 13.291667, 56.8166656 ], [ 13.3683376, 56.8518867 ], [ 13.476819, 56.8612366 ], [ 13.6129608, 56.8870392 ], [ 13.6789503, 56.9180031 ], [ 13.6833334, 56.9666672 ], [ 13.7416668, 57.0250015 ], [ 13.8388519, 56.9879608 ], [ 14.0165396, 57.0406075 ], [ 14.079627, 57.0296288 ], [ 14.1928482, 56.9573555 ], [ 14.2381601, 56.8827553 ], [ 14.291667, 56.8666649 ], [ 14.3753223, 56.9231415 ], [ 14.3915119, 56.9521561 ], [ 14.364151, 56.9955444 ], [ 14.3211432, 57.0147362 ], [ 14.3586931, 57.0474052 ], [ 14.3412457, 57.1365242 ], [ 14.4210539, 57.136837 ], [ 14.5472593, 57.1761627 ], [ 14.7290668, 57.2155952 ], [ 14.7833338, 57.2166672 ], [ 14.8766413, 57.1819267 ], [ 14.9073334, 57.1213684 ], [ 14.9921227, 57.1289978 ], [ 15.0767298, 57.1871147 ], [ 15.1459055, 57.2062225 ], [ 15.3866062, 57.2196274 ], [ 15.5166664, 57.1916656 ] ] ] ] } },
{ "type": "Feature", "properties": { "POLYGON_ID": "SWE_GAUL1997_ADM1_2795", "ADM0_ISO3": "SWE", "ADM0_NAME": "Sweden", "ADM0_CODE": 236, "ADM1_NAME": "Norrbottens Laen", "ADM1_CODE": 2795, "GEOSET": "GAUL", "GEOSET_YEAR": 1997.0, "GEOSET_VERSION": "GAUL_v1", "GEOSET_UNIT": "ADM1", "CENTROID_LONG": 20.087564319772412, "CENTROID_LAT": 66.958531625768416 }, "geometry": { "type": "MultiPolygon", "coordinates": [ [ [ [ 24.1559467, 65.8181915 ], [ 24.0050144, 65.7966919 ], [ 23.8275032, 65.7953339 ], [ 23.7462997, 65.8330002 ], [ 23.5597878, 65.7902832 ], [ 23.4710617, 65.8472672 ], [ 23.3865223, 65.7792435 ], [ 23.2505989, 65.8114471 ], [ 23.1934299, 65.7934341 ], [ 23.1374016, 65.7182999 ], [ 22.8525715, 65.7951813 ], [ 22.8367271, 65.828331 ], [ 22.6731796, 65.9064255 ], [ 22.7192078, 65.8216553 ], [ 22.6801491, 65.7826386 ], [ 22.5360813, 65.8153534 ], [ 22.4589577, 65.8653336 ], [ 22.379158, 65.8712006 ], [ 22.3388081, 65.8382645 ], [ 22.3680382, 65.8118134 ], [ 22.3458614, 65.7528687 ], [ 22.2753162, 65.7148438 ], [ 22.2702312, 65.6814957 ], [ 22.3831024, 65.6296082 ], [ 22.2994671, 65.6020889 ], [ 22.381937, 65.5768585 ], [ 22.3911057, 65.5382767 ], [ 22.2434883, 65.5807419 ], [ 22.1863918, 65.565773 ], [ 22.0789757, 65.6152496 ], [ 21.8851223, 65.6736526 ], [ 22.0171089, 65.5926666 ], [ 22.1249447, 65.5797653 ], [ 22.1629028, 65.5232468 ], [ 22.0321064, 65.516449 ], [ 21.8676815, 65.533371 ], [ 21.9692307, 65.4796829 ], [ 21.9175816, 65.4000168 ], [ 21.7357178, 65.4016342 ], [ 21.5494499, 65.4162521 ], [ 21.4849396, 65.3879395 ], [ 21.472847, 65.3399048 ], [ 21.5178032, 65.323555 ], [ 21.6111851, 65.3371964 ], [ 21.6734219, 65.3085785 ], [ 21.6614723, 65.2336197 ], [ 21.5301533, 65.2638168 ], [ 21.3415413, 65.3653717 ], [ 21.2526531, 65.3397293 ], [ 21.4185371, 65.3093567 ], [ 21.5430622, 65.2155075 ], [ 21.5891838, 65.1496048 ], [ 21.5063763, 65.0949326 ], [ 21.396143, 65.1128082 ], [ 21.2667904, 65.1652374 ], [ 20.7354202, 65.2181091 ], [ 20.7044773, 65.2294769 ], [ 19.9038563, 65.3788605 ], [ 19.7178669, 65.2702408 ], [ 19.6000004, 65.1916656 ], [ 19.4083328, 65.1500015 ], [ 19.3568001, 65.187294 ], [ 19.2584, 65.2184448 ], [ 19.2879429, 65.2375259 ], [ 19.1709919, 65.2876587 ], [ 19.0373421, 65.3123398 ], [ 18.7620239, 65.4036865 ], [ 18.7266788, 65.4388886 ], [ 18.5963135, 65.4337235 ], [ 18.5137653, 65.4509888 ], [ 18.4327412, 65.4971313 ], [ 18.3356743, 65.4932861 ], [ 18.1358757, 65.5895844 ], [ 17.8442822, 65.625206 ], [ 17.6770554, 65.6562958 ], [ 16.9902172, 65.9495316 ], [ 16.7725163, 66.0291443 ], [ 16.5168152, 66.0543137 ], [ 16.1796112, 66.1536865 ], [ 16.1317558, 66.174118 ], [ 15.7685118, 66.2906265 ], [ 15.4655997, 66.3532404 ], [ 15.37616, 66.48485 ], [ 15.62548, 66.5902 ], [ 15.77264, 66.70577 ], [ 15.97802, 66.84692 ], [ 16.05609, 66.91088 ], [ 16.1594, 66.95785 ], [ 16.39754, 67.04539 ], [ 16.40931, 67.20416 ], [ 16.10075, 67.43378 ], [ 16.16926, 67.5179 ], [ 16.42086, 67.53571 ], [ 16.57712, 67.66335 ], [ 16.74116, 67.92086 ], [ 16.9163, 67.96474 ], [ 17.14155, 68.04733 ], [ 17.28318, 68.1202 ], [ 17.638, 68.04826 ], [ 17.90159, 67.96888 ], [ 18.15558, 68.20344 ], [ 18.10695, 68.40966 ], [ 18.1250586, 68.5383108 ], [ 18.1250553, 68.5383148 ], [ 18.41782, 68.58438 ], [ 18.61872, 68.50783 ], [ 18.9894, 68.52001 ], [ 19.95874, 68.35111 ], [ 20.01706, 68.39351 ], [ 20.2639, 68.49102 ], [ 20.07278, 68.52864 ], [ 19.97152, 68.56113 ], [ 20.06614, 68.59644 ], [ 20.20217, 68.67517 ], [ 20.34719, 68.81397 ], [ 20.33706, 68.9304 ], [ 20.06123, 69.05964 ], [ 20.5573196, 69.0625 ], [ 20.76468, 69.03792 ], [ 20.91083, 68.96488 ], [ 20.84878, 68.93126 ], [ 21.14214, 68.85598 ], [ 21.30185, 68.76329 ], [ 21.39353, 68.75533 ], [ 21.41859, 68.69938 ], [ 21.58133, 68.67075 ], [ 21.70928, 68.62324 ], [ 21.72017, 68.5881 ], [ 21.90454, 68.57627 ], [ 22.00349, 68.52527 ], [ 22.03763, 68.48077 ], [ 22.12354, 68.47241 ], [ 22.3405889, 68.4740402 ], [ 22.57193, 68.42375 ], [ 22.6501, 68.42101 ], [ 22.73875, 68.38726 ], [ 22.83416, 68.38831 ], [ 22.86933, 68.35714 ], [ 23.0567, 68.30737 ], [ 23.07605, 68.26945 ], [ 23.1508464, 68.2425611 ], [ 23.17183, 68.13301 ], [ 23.29587, 68.15262 ], [ 23.40711, 68.04613 ], [ 23.55347, 68.00823 ], [ 23.57161, 67.97947 ], [ 23.66198, 67.93673 ], [ 23.50636, 67.87086 ], [ 23.48264, 67.72407 ], [ 23.49819, 67.66409 ], [ 23.55627, 67.62753 ], [ 23.52426, 67.57906 ], [ 23.4142, 67.50867 ], [ 23.44128, 67.46446 ], [ 23.57786, 67.46326 ], [ 23.78639, 67.42785 ], [ 23.76509, 67.36315 ], [ 23.8129559, 67.3327617 ], [ 23.75868, 67.2827 ], [ 23.62447, 67.27 ], [ 23.5792, 67.16257 ], [ 23.65581, 67.1209 ], [ 23.7819, 66.99966 ], [ 23.8799, 66.94453 ], [ 23.89351, 66.91263 ], [ 24.01105, 66.83047 ], [ 24.00571, 66.80424 ], [ 23.89436, 66.75929 ], [ 23.91309, 66.71933 ], [ 23.87942, 66.6372 ], [ 23.88902, 66.57289 ], [ 23.72935, 66.49361 ], [ 23.64264, 66.43592 ], [ 23.68176, 66.38096 ], [ 23.65543, 66.30673 ], [ 23.71929, 66.22298 ], [ 23.80116, 66.18265 ], [ 23.93236, 66.14997 ], [ 23.94317, 66.08337 ], [ 24.039488, 66.0041415 ], [ 24.04293, 65.95727 ], [ 24.11577, 65.91915 ], [ 24.1576464, 65.8580927 ], [ 24.1559467, 65.8181915 ] ] ] ] } },
{ "type": "Feature", "properties": { "POLYGON_ID": "SWE_GAUL1997_ADM1_2796", "ADM0_ISO3": "SWE", "ADM0_NAME": "Sweden", "ADM0_CODE": 236, "ADM1_NAME": "Oerebro Laen", "ADM1_CODE": 2796, "GEOSET": "GAUL", "GEOSET_YEAR": 1997.0, "GEOSET_VERSION": "GAUL_v1", "GEOSET_UNIT": "ADM1", "CENTROID_LONG": 14.969518572382215, "CENTROID_LAT": 59.351192781444972 }, "geometry": { "type": "MultiPolygon", "coordinates": [ [ [ [ 15.4250002, 59.8499985 ], [ 15.4522934, 59.8270302 ], [ 15.4338799, 59.7801933 ], [ 15.5213699, 59.7713699 ], [ 15.5500002, 59.6916656 ], [ 15.5096045, 59.6421547 ], [ 15.6129608, 59.6129608 ], [ 15.6297216, 59.5156746 ], [ 15.7045069, 59.5297775 ], [ 15.7295647, 59.4039459 ], [ 15.6051397, 59.394207 ], [ 15.6309366, 59.3194885 ], [ 15.6053562, 59.2770805 ], [ 15.6880369, 59.2630348 ], [ 15.7666664, 59.1916656 ], [ 15.7974434, 59.1049614 ], [ 15.7032957, 59.0941696 ], [ 15.7051744, 59.0707893 ], [ 15.62988, 59.0422173 ], [ 15.6267805, 59.0036392 ], [ 15.6916666, 58.9749985 ], [ 15.6198568, 58.9728241 ], [ 15.5500002, 58.9500008 ], [ 15.5880699, 58.8954201 ], [ 15.5374784, 58.8630219 ], [ 15.3876534, 58.8432198 ], [ 15.3196106, 58.8474998 ], [ 15.2202969, 58.8297043 ], [ 15.1867065, 58.7999725 ], [ 15.1181231, 58.7933388 ], [ 15.0295954, 58.6951523 ], [ 14.9179382, 58.6851349 ], [ 14.7749996, 58.6416664 ], [ 14.7060452, 58.6814232 ], [ 14.6878099, 58.7294769 ], [ 14.6194344, 58.726963 ], [ 14.5540075, 58.7049446 ], [ 14.4703579, 58.7046814 ], [ 14.4702482, 58.7731056 ], [ 14.3999996, 58.7916679 ], [ 14.3884001, 58.8712196 ], [ 14.3202963, 58.895298 ], [ 14.2833529, 58.9391212 ], [ 14.291667, 59.0083351 ], [ 14.3366575, 59.0823326 ], [ 14.2860889, 59.1469879 ], [ 14.2869349, 59.2212105 ], [ 14.370141, 59.3782845 ], [ 14.4620714, 59.4317703 ], [ 14.3877344, 59.5026245 ], [ 14.4638672, 59.5638657 ], [ 14.3964748, 59.7413254 ], [ 14.4294281, 59.7622833 ], [ 14.4118156, 59.8218536 ], [ 14.4166994, 59.9037819 ], [ 14.3504438, 59.9380226 ], [ 14.4539318, 59.9698677 ], [ 14.4333334, 60.0166664 ], [ 14.75, 59.9916649 ], [ 14.7415905, 60.0771866 ], [ 14.8142204, 60.1038551 ], [ 14.8972502, 60.0467224 ], [ 15.0667133, 60.0395126 ], [ 15.1203728, 60.0037041 ], [ 15.2104273, 59.9924431 ], [ 15.2250004, 59.9666672 ], [ 15.3705988, 59.8705978 ], [ 15.4250002, 59.8499985 ] ] ] ] } },
{ "type": "Feature", "properties": { "POLYGON_ID": "SWE_GAUL1997_ADM1_2797", "ADM0_ISO3": "SWE", "ADM0_NAME": "Sweden", "ADM0_CODE": 236, "ADM1_NAME": "Oestergoetlands Laen", "ADM1_CODE": 2797, "GEOSET": "GAUL", "GEOSET_YEAR": 1997.0, "GEOSET_VERSION": "GAUL_v1", "GEOSET_UNIT": "ADM1", "CENTROID_LONG": 15.664167309997167, "CENTROID_LAT": 58.354187043576928 }, "geometry": { "type": "MultiPolygon", "coordinates": [ [ [ [ 16.7668285, 58.6284142 ], [ 16.6167126, 58.6375999 ], [ 16.4847431, 58.6563873 ], [ 16.2460938, 58.6654282 ], [ 16.2703953, 58.6075401 ], [ 16.446888, 58.6361961 ], [ 16.5433006, 58.6123352 ], [ 16.583807, 58.6296272 ], [ 16.7005558, 58.6017685 ], [ 16.7944622, 58.6014595 ], [ 16.7822685, 58.5673485 ], [ 16.8478413, 58.5554161 ], [ 16.8655758, 58.5249863 ], [ 16.9539528, 58.4775047 ], [ 16.8605022, 58.4444122 ], [ 16.7196445, 58.4221115 ], [ 16.744175, 58.3633995 ], [ 16.8068943, 58.3336945 ], [ 16.7466221, 58.2521973 ], [ 16.8084908, 58.2344589 ], [ 16.8591156, 58.1752014 ], [ 16.8372078, 58.1289291 ], [ 16.7678013, 58.1149025 ], [ 16.7704906, 58.0137939 ], [ 16.7170067, 58.0221977 ], [ 16.6812782, 57.9875565 ], [ 16.5945416, 58.0245934 ], [ 16.5981216, 58.0488205 ], [ 16.538765, 58.1036301 ], [ 16.4805851, 58.0807571 ], [ 16.4036293, 58.1202965 ], [ 16.3379555, 58.1082916 ], [ 16.2583332, 58.1318474 ], [ 16.1983738, 58.0928612 ], [ 16.013361, 58.046051 ], [ 15.9938946, 58.0129356 ], [ 16.0787067, 57.9641571 ], [ 16.0129604, 57.9186745 ], [ 16.0645218, 57.8939133 ], [ 16.0544758, 57.8621902 ], [ 15.9755421, 57.8269691 ], [ 15.9505215, 57.7979279 ], [ 15.8827629, 57.8164711 ], [ 15.8128538, 57.8108559 ], [ 15.7585993, 57.8411255 ], [ 15.6235924, 57.8466148 ], [ 15.605732, 57.8138542 ], [ 15.5333338, 57.7833328 ], [ 15.5467129, 57.7623177 ], [ 15.4458876, 57.7394142 ], [ 15.416667, 57.6916656 ], [ 15.1337824, 57.7060928 ], [ 15.0432196, 57.8459892 ], [ 14.9950037, 57.895668 ], [ 15.0154991, 57.9464302 ], [ 15.0565977, 57.9733047 ], [ 15.0666666, 58.0166664 ], [ 14.9782009, 58.1398697 ], [ 14.9075861, 58.1235046 ], [ 14.8794765, 58.0788574 ], [ 14.7843485, 58.0711441 ], [ 14.7418098, 58.0948753 ], [ 14.6357765, 58.0863571 ], [ 14.4668036, 58.1168022 ], [ 14.416667, 58.1833344 ], [ 14.4198437, 58.2134895 ], [ 14.5059366, 58.338253 ], [ 14.6453724, 58.4796257 ], [ 14.6916666, 58.5166664 ], [ 14.7056332, 58.5599251 ], [ 14.7749996, 58.6416664 ], [ 14.9179382, 58.6851349 ], [ 15.0295954, 58.6951523 ], [ 15.1181231, 58.7933388 ], [ 15.1867065, 58.7999725 ], [ 15.2202969, 58.8297043 ], [ 15.3196106, 58.8474998 ], [ 15.3876534, 58.8432198 ], [ 15.5374784, 58.8630219 ], [ 15.5880699, 58.8954201 ], [ 15.5500002, 58.9500008 ], [ 15.6198568, 58.9728241 ], [ 15.6916666, 58.9749985 ], [ 15.7547035, 58.9452972 ], [ 15.8175678, 59.0119629 ], [ 15.8955469, 58.9633598 ], [ 16.0747738, 58.9119835 ], [ 16.0955238, 58.8788567 ], [ 16.1579723, 58.8646698 ], [ 16.1901741, 58.8281441 ], [ 16.2638664, 58.8222008 ], [ 16.2956619, 58.7706757 ], [ 16.3626595, 58.7459908 ], [ 16.3744469, 58.6964989 ], [ 16.5590057, 58.6911583 ], [ 16.6976433, 58.6591606 ], [ 16.7668285, 58.6284142 ] ] ] ] } },
{ "type": "Feature", "properties": { "POLYGON_ID": "SWE_GAUL1997_ADM1_2798", "ADM0_ISO3": "SWE", "ADM0_NAME": "Sweden", "ADM0_CODE": 236, "ADM1_NAME": "Skaane Laen", "ADM1_CODE": 2798, "GEOSET": "GAUL", "GEOSET_YEAR": 1997.0, "GEOSET_VERSION": "GAUL_v1", "GEOSET_UNIT": "ADM1", "CENTROID_LONG": 13.598501236178215, "CENTROID_LAT": 55.947612321585822 }, "geometry": { "type": "MultiPolygon", "coordinates": [ [ [ [ 14.5166664, 56.4500008 ], [ 14.4762583, 56.4026833 ], [ 14.419157, 56.3880272 ], [ 14.3916664, 56.2916679 ], [ 14.4220295, 56.2832108 ], [ 14.4333334, 56.2166672 ], [ 14.4775505, 56.2221909 ], [ 14.5749998, 56.1833344 ], [ 14.5803499, 56.0919952 ], [ 14.5525408, 56.0569115 ], [ 14.4777956, 56.0065002 ], [ 14.3392601, 55.9561424 ], [ 14.3209515, 55.9145851 ], [ 14.2519646, 55.8739166 ], [ 14.2167244, 55.8168297 ], [ 14.1966534, 55.7331848 ], [ 14.2071915, 55.7018585 ], [ 14.2767286, 55.672123 ], [ 14.2888489, 55.6189079 ], [ 14.3615818, 55.5593414 ], [ 14.3526955, 55.5133133 ], [ 14.2413988, 55.4380188 ], [ 14.1741285, 55.377285 ], [ 14.0602198, 55.3811226 ], [ 13.9417009, 55.4325676 ], [ 13.842556, 55.4200096 ], [ 13.7135267, 55.427803 ], [ 13.6292105, 55.4142761 ], [ 13.5951405, 55.3881531 ], [ 13.4944601, 55.3843536 ], [ 13.3633099, 55.3378487 ], [ 13.2744732, 55.3444901 ], [ 13.1520538, 55.3729134 ], [ 13.0508604, 55.3754349 ], [ 12.9655581, 55.4036636 ], [ 12.9707127, 55.4595032 ], [ 12.914752, 55.5295143 ], [ 12.8989277, 55.5721626 ], [ 12.9347448, 55.5985947 ], [ 13.0460711, 55.6378174 ], [ 13.0564604, 55.6952209 ], [ 12.9986086, 55.732605 ], [ 12.921875, 55.7447739 ], [ 12.9315119, 55.8143349 ], [ 12.9110956, 55.8432274 ], [ 12.8380604, 55.8544693 ], [ 12.8078642, 55.9112511 ], [ 12.7137079, 56.0007172 ], [ 12.6537371, 56.0855827 ], [ 12.5620461, 56.1502686 ], [ 12.504859, 56.2921371 ], [ 12.6621628, 56.2485695 ], [ 12.6789455, 56.2289276 ], [ 12.7714949, 56.210968 ], [ 12.8335037, 56.268322 ], [ 12.7619715, 56.3004265 ], [ 12.7425985, 56.3541603 ], [ 12.6378164, 56.3834534 ], [ 12.6194773, 56.4177322 ], [ 12.6546307, 56.4513168 ], [ 12.7523975, 56.4636993 ], [ 12.8524179, 56.4263802 ], [ 12.9046129, 56.4494895 ], [ 12.9612741, 56.4332962 ], [ 12.9536304, 56.3630371 ], [ 12.9944658, 56.3444672 ], [ 13.1555338, 56.3388672 ], [ 13.2283173, 56.3218308 ], [ 13.2827139, 56.3672867 ], [ 13.4666662, 56.4166679 ], [ 13.4955082, 56.3951683 ], [ 13.6916666, 56.4083328 ], [ 13.7685308, 56.4357109 ], [ 13.8704796, 56.4275208 ], [ 13.9038563, 56.4461441 ], [ 14.0226383, 56.4597588 ], [ 14.0619907, 56.4936638 ], [ 14.2876501, 56.4878464 ], [ 14.3826475, 56.4657707 ], [ 14.5166664, 56.4500008 ] ] ] ] } },
{ "type": "Feature", "properties": { "POLYGON_ID": "SWE_GAUL1997_ADM1_2799", "ADM0_ISO3": "SWE", "ADM0_NAME": "Sweden", "ADM0_CODE": 236, "ADM1_NAME": "Soedermanlands Laen", "ADM1_CODE": 2799, "GEOSET": "GAUL", "GEOSET_YEAR": 1997.0, "GEOSET_VERSION": "GAUL_v1", "GEOSET_UNIT": "ADM1", "CENTROID_LONG": 16.683756446822716, "CENTROID_LAT": 59.077406683846874 }, "geometry": { "type": "MultiPolygon", "coordinates": [ [ [ [ 17.6049271, 58.9648361 ], [ 17.634058, 58.8941612 ], [ 17.5652256, 58.8935471 ], [ 17.5827103, 58.8384171 ], [ 17.5069847, 58.8523788 ], [ 17.4689522, 58.8097153 ], [ 17.4010944, 58.7869148 ], [ 17.3839893, 58.7489357 ], [ 17.3255596, 58.7552719 ], [ 17.272543, 58.7254829 ], [ 17.1426106, 58.7313004 ], [ 17.0848217, 58.7083282 ], [ 17.0303364, 58.6631355 ], [ 17.0413055, 58.6323051 ], [ 16.9152966, 58.6097145 ], [ 16.7668285, 58.6284142 ], [ 16.6976433, 58.6591606 ], [ 16.5590057, 58.6911583 ], [ 16.3744469, 58.6964989 ], [ 16.3626595, 58.7459908 ], [ 16.2956619, 58.7706757 ], [ 16.2638664, 58.8222008 ], [ 16.1901741, 58.8281441 ], [ 16.1579723, 58.8646698 ], [ 16.0955238, 58.8788567 ], [ 16.0747738, 58.9119835 ], [ 15.8955469, 58.9633598 ], [ 15.8175678, 59.0119629 ], [ 15.7547035, 58.9452972 ], [ 15.6916666, 58.9749985 ], [ 15.6267805, 59.0036392 ], [ 15.62988, 59.0422173 ], [ 15.7051744, 59.0707893 ], [ 15.7032957, 59.0941696 ], [ 15.7974434, 59.1049614 ], [ 15.7666664, 59.1916656 ], [ 15.8878098, 59.2205238 ], [ 15.8690596, 59.2716217 ], [ 15.9518776, 59.3397903 ], [ 16.0387192, 59.3602638 ], [ 16.09692, 59.3388901 ], [ 16.2617302, 59.3521309 ], [ 16.2788563, 59.3794785 ], [ 16.2461433, 59.4168053 ], [ 16.2583332, 59.4500008 ], [ 16.4264221, 59.4533806 ], [ 16.8266506, 59.4949684 ], [ 16.8915291, 59.4711418 ], [ 16.9666672, 59.5083351 ], [ 17.1453648, 59.505722 ], [ 17.2039452, 59.4537926 ], [ 17.3461437, 59.4294777 ], [ 17.416666, 59.375 ], [ 17.4249992, 59.3416672 ], [ 17.3465958, 59.3299294 ], [ 17.3534031, 59.2787132 ], [ 17.2752686, 59.2374573 ], [ 17.2583332, 59.1666679 ], [ 17.3111839, 59.1505775 ], [ 17.3290424, 59.0354843 ], [ 17.3833332, 58.9749985 ], [ 17.463892, 58.9806938 ], [ 17.6049271, 58.9648361 ] ] ] ] } },
{ "type": "Feature", "properties": { "POLYGON_ID": "SWE_GAUL1997_ADM1_2800", "ADM0_ISO3": "SWE", "ADM0_NAME": "Sweden", "ADM0_CODE": 236, "ADM1_NAME": "Stockholms Laen", "ADM1_CODE": 2800, "GEOSET": "GAUL", "GEOSET_YEAR": 1997.0, "GEOSET_VERSION": "GAUL_v1", "GEOSET_UNIT": "ADM1", "CENTROID_LONG": 18.130180011343796, "CENTROID_LAT": 59.481964368618577 }, "geometry": { "type": "MultiPolygon", "coordinates": [ [ [ [ 17.6288654, 58.9623026 ], [ 17.6049271, 58.9648361 ], [ 17.463892, 58.9806938 ], [ 17.3833332, 58.9749985 ], [ 17.3290424, 59.0354843 ], [ 17.3111839, 59.1505775 ], [ 17.2583332, 59.1666679 ], [ 17.2752686, 59.2374573 ], [ 17.3534031, 59.2787132 ], [ 17.3465958, 59.3299294 ], [ 17.4249992, 59.3416672 ], [ 17.416666, 59.375 ], [ 17.4262733, 59.427681 ], [ 17.5083332, 59.4333344 ], [ 17.4666672, 59.5 ], [ 17.5756397, 59.5512466 ], [ 17.5044765, 59.6182594 ], [ 17.6333332, 59.6833344 ], [ 17.7551575, 59.6533089 ], [ 17.9038563, 59.7044754 ], [ 18.0916672, 59.7333336 ], [ 18.1258812, 59.8016777 ], [ 18.2547035, 59.8286324 ], [ 18.405611, 59.8873367 ], [ 18.3778553, 59.9244614 ], [ 18.4315758, 59.9785652 ], [ 18.4839134, 60.0032158 ], [ 18.4093494, 60.0295525 ], [ 18.4875832, 60.0957489 ], [ 18.4927292, 60.159687 ], [ 18.5823174, 60.1359825 ], [ 18.6380157, 60.1417847 ], [ 18.7736759, 60.1028595 ], [ 18.8438129, 60.1054268 ], [ 18.8540993, 60.0336533 ], [ 18.913168, 59.9822388 ], [ 18.962677, 59.9163895 ], [ 19.0376263, 59.9061012 ], [ 19.0918331, 59.8802147 ], [ 19.0566921, 59.8233795 ], [ 18.9496346, 59.8980522 ], [ 18.9473305, 59.8438263 ], [ 18.8846149, 59.7985229 ], [ 18.9139996, 59.7817917 ], [ 19.0736942, 59.7704964 ], [ 19.0731277, 59.7205315 ], [ 18.9844913, 59.7077408 ], [ 18.9568653, 59.7315292 ], [ 18.7662354, 59.6828003 ], [ 18.6730747, 59.5807419 ], [ 18.4983273, 59.5178795 ], [ 18.4075966, 59.4604416 ], [ 18.3163853, 59.4476242 ], [ 18.2787056, 59.4232674 ], [ 18.336359, 59.3852959 ], [ 18.1880264, 59.3907852 ], [ 18.1817169, 59.4293213 ], [ 18.1029968, 59.4214287 ], [ 18.0885658, 59.3801193 ], [ 18.168005, 59.3192902 ], [ 18.2252998, 59.3008423 ], [ 18.3044701, 59.3056259 ], [ 18.3534336, 59.2407379 ], [ 18.4072952, 59.2181168 ], [ 18.3818645, 59.1811333 ], [ 18.4516144, 59.1518288 ], [ 18.1175919, 59.0719109 ], [ 18.0393181, 59.0470276 ], [ 18.0353527, 59.0178108 ], [ 17.9773846, 58.9629478 ], [ 17.9851303, 58.9418297 ], [ 17.9419594, 58.8726463 ], [ 17.8884697, 58.871151 ], [ 17.7482071, 58.933979 ], [ 17.7682266, 59.0115547 ], [ 17.7535534, 59.066349 ], [ 17.7083683, 59.0585823 ], [ 17.6505871, 59.0847778 ], [ 17.6288654, 58.9623026 ] ] ], [ [ [ 18.9848022, 59.8072433 ], [ 18.9125462, 59.8125153 ], [ 18.96735, 59.8608208 ], [ 19.0109978, 59.8309975 ], [ 18.9848022, 59.8072433 ] ] ], [ [ [ 18.7394352, 60.2153778 ], [ 18.8062763, 60.1753349 ], [ 18.737133, 60.153801 ], [ 18.7394352, 60.2153778 ] ] ], [ [ [ 18.4543839, 59.4225655 ], [ 18.5298557, 59.4090309 ], [ 18.5894547, 59.3669014 ], [ 18.6813545, 59.3810883 ], [ 18.7315388, 59.3719063 ], [ 18.7569542, 59.3330917 ], [ 18.631403, 59.2936783 ], [ 18.5074196, 59.2927017 ], [ 18.4522209, 59.3135948 ], [ 18.3596172, 59.2988396 ], [ 18.294136, 59.3625832 ], [ 18.4199028, 59.3614693 ], [ 18.4887733, 59.3409615 ], [ 18.4543839, 59.4225655 ] ] ], [ [ [ 18.6550655, 59.5571594 ], [ 18.6607056, 59.5179176 ], [ 18.5943127, 59.4596252 ], [ 18.5721092, 59.5262947 ], [ 18.6550655, 59.5571594 ] ] ], [ [ [ 18.3655949, 59.2932091 ], [ 18.5055866, 59.2884331 ], [ 18.5830708, 59.2570038 ], [ 18.496479, 59.2222061 ], [ 18.3655949, 59.2932091 ] ] ], [ [ [ 18.4920025, 59.1195793 ], [ 18.4961052, 59.0871162 ], [ 18.4233036, 59.0123749 ], [ 18.3575134, 59.0527306 ], [ 18.4920025, 59.1195793 ] ] ], [ [ [ 18.359499, 58.9637947 ], [ 18.2466869, 58.915657 ], [ 18.258358, 58.9607849 ], [ 18.359499, 58.9637947 ] ] ], [ [ [ 18.1500645, 59.39011 ], [ 18.270174, 59.374733 ], [ 18.2381973, 59.3491325 ], [ 18.1362629, 59.3563576 ], [ 18.1500645, 59.39011 ] ] ], [ [ [ 18.171793, 59.0344086 ], [ 18.1483994, 58.9816475 ], [ 18.0742226, 58.9887238 ], [ 18.1153431, 59.0285606 ], [ 18.171793, 59.0344086 ] ] ], [ [ [ 17.6796932, 59.0646629 ], [ 17.7215748, 59.0119209 ], [ 17.6902847, 58.9236641 ], [ 17.6425323, 58.9941673 ], [ 17.6796932, 59.0646629 ] ] ] ] } },
{ "type": "Feature", "properties": { "POLYGON_ID": "SWE_GAUL1997_ADM1_2801", "ADM0_ISO3": "SWE", "ADM0_NAME": "Sweden", "ADM0_CODE": 236, "ADM1_NAME": "Uppsala Laen", "ADM1_CODE": 2801, "GEOSET": "GAUL", "GEOSET_YEAR": 1997.0, "GEOSET_VERSION": "GAUL_v1", "GEOSET_UNIT": "ADM1", "CENTROID_LONG": 17.678938310938602, "CENTROID_LAT": 60.040964261928742 }, "geometry": { "type": "MultiPolygon", "coordinates": [ [ [ [ 18.4927292, 60.159687 ], [ 18.4875832, 60.0957489 ], [ 18.4093494, 60.0295525 ], [ 18.4839134, 60.0032158 ], [ 18.4315758, 59.9785652 ], [ 18.3778553, 59.9244614 ], [ 18.405611, 59.8873367 ], [ 18.2547035, 59.8286324 ], [ 18.1258812, 59.8016777 ], [ 18.0916672, 59.7333336 ], [ 17.9038563, 59.7044754 ], [ 17.7551575, 59.6533089 ], [ 17.6333332, 59.6833344 ], [ 17.5044765, 59.6182594 ], [ 17.5756397, 59.5512466 ], [ 17.4666672, 59.5 ], [ 17.5083332, 59.4333344 ], [ 17.4262733, 59.427681 ], [ 17.416666, 59.375 ], [ 17.3461437, 59.4294777 ], [ 17.2039452, 59.4537926 ], [ 17.1453648, 59.505722 ], [ 16.9666672, 59.5083351 ], [ 16.9120388, 59.545372 ], [ 16.8379612, 59.6712952 ], [ 16.7333336, 59.7666664 ], [ 16.8029766, 59.8089104 ], [ 16.8325081, 59.8622208 ], [ 16.9630375, 59.854702 ], [ 17.0042801, 59.8213692 ], [ 17.125, 59.875 ], [ 17.1276932, 59.9618454 ], [ 17.2045441, 60.0390091 ], [ 17.2710056, 60.0307426 ], [ 17.3788567, 60.2262573 ], [ 17.1916676, 60.2916679 ], [ 17.2052898, 60.3541679 ], [ 17.1834602, 60.3885498 ], [ 17.2142696, 60.4362259 ], [ 17.291666, 60.4416656 ], [ 17.3122406, 60.5293579 ], [ 17.3918972, 60.6494026 ], [ 17.4806538, 60.6422119 ], [ 17.6086903, 60.6493721 ], [ 17.6452255, 60.610363 ], [ 17.5932217, 60.5837135 ], [ 17.6470909, 60.5176506 ], [ 17.7414494, 60.4964294 ], [ 17.7444973, 60.5388031 ], [ 17.9432201, 60.6021004 ], [ 18.0187492, 60.5906219 ], [ 18.0167179, 60.5240402 ], [ 18.109827, 60.4609833 ], [ 18.1482277, 60.4127235 ], [ 18.2732353, 60.3814125 ], [ 18.3897724, 60.3380089 ], [ 18.4435921, 60.3424034 ], [ 18.5175724, 60.2719955 ], [ 18.6140366, 60.2467499 ], [ 18.6014786, 60.2221413 ], [ 18.4796524, 60.2103653 ], [ 18.4927292, 60.159687 ] ] ], [ [ [ 18.4123383, 60.4888763 ], [ 18.4873047, 60.4313431 ], [ 18.4909287, 60.3816605 ], [ 18.5618191, 60.3668709 ], [ 18.5047264, 60.33601 ], [ 18.4304142, 60.3560219 ], [ 18.3870831, 60.4154778 ], [ 18.4123383, 60.4888763 ] ] ] ] } },
{ "type": "Feature", "properties": { "POLYGON_ID": "SWE_GAUL1997_ADM1_2802", "ADM0_ISO3": "SWE", "ADM0_NAME": "Sweden", "ADM0_CODE": 236, "ADM1_NAME": "Vaermlands Laen", "ADM1_CODE": 2802, "GEOSET": "GAUL", "GEOSET_YEAR": 1997.0, "GEOSET_VERSION": "GAUL_v1", "GEOSET_UNIT": "ADM1", "CENTROID_LONG": 13.150782850954537, "CENTROID_LAT": 59.767138110641248 }, "geometry": { "type": "MultiPolygon", "coordinates": [ [ [ [ 14.4333334, 60.0166664 ], [ 14.4539318, 59.9698677 ], [ 14.3504438, 59.9380226 ], [ 14.4166994, 59.9037819 ], [ 14.4118156, 59.8218536 ], [ 14.4294281, 59.7622833 ], [ 14.3964748, 59.7413254 ], [ 14.4638672, 59.5638657 ], [ 14.3877344, 59.5026245 ], [ 14.4620714, 59.4317703 ], [ 14.370141, 59.3782845 ], [ 14.2869349, 59.2212105 ], [ 14.2860889, 59.1469879 ], [ 14.3366575, 59.0823326 ], [ 14.291667, 59.0083351 ], [ 14.1875, 59.0357628 ], [ 14.0626631, 59.0432014 ], [ 14.0184469, 59.0191727 ], [ 13.6000004, 59.0499992 ], [ 13.4184093, 58.9477081 ], [ 13.3356647, 58.8101463 ], [ 13.404355, 58.7372131 ], [ 13.2474728, 58.7163544 ], [ 13.1377344, 58.7544022 ], [ 12.8916664, 58.8083344 ], [ 12.8334713, 58.9688568 ], [ 12.7675495, 59.0302658 ], [ 12.7470522, 59.120491 ], [ 12.6680746, 59.1716156 ], [ 12.5544767, 59.112812 ], [ 12.4705229, 59.1205215 ], [ 12.4089632, 59.162426 ], [ 12.3463917, 59.1680069 ], [ 12.2520895, 59.1974754 ], [ 12.1918097, 59.2384567 ], [ 12.0773468, 59.247654 ], [ 12.083971, 59.1683693 ], [ 11.9438353, 59.2371902 ], [ 11.9239378, 59.2140923 ], [ 11.8318399, 59.2421357 ], [ 11.828, 59.33188 ], [ 11.76684, 59.42405 ], [ 11.7643, 59.47579 ], [ 11.73167, 59.51217 ], [ 11.69946, 59.59178 ], [ 11.76258, 59.6403 ], [ 11.85939, 59.65078 ], [ 11.89933, 59.69182 ], [ 11.94171, 59.69688 ], [ 11.9334673, 59.7979422 ], [ 11.84861, 59.839 ], [ 11.95374, 59.901 ], [ 12.05625, 59.88815 ], [ 12.17675, 59.89322 ], [ 12.23248, 59.92884 ], [ 12.34532, 59.97004 ], [ 12.45889, 60.05256 ], [ 12.51836, 60.12783 ], [ 12.53865, 60.18693 ], [ 12.49429, 60.27705 ], [ 12.49703, 60.32345 ], [ 12.60536, 60.40689 ], [ 12.61219, 60.50629 ], [ 12.51581, 60.61759 ], [ 12.51251, 60.65198 ], [ 12.40624, 60.72996 ], [ 12.3322398, 60.8580627 ], [ 12.32266, 60.91177 ], [ 12.22046, 61.01215 ], [ 12.39495, 61.04521 ], [ 12.50508, 61.05413 ], [ 12.64174, 61.05236 ], [ 12.68244, 61.0648 ], [ 12.6938028, 60.9896889 ], [ 13.0719509, 60.8015404 ], [ 13.1481237, 60.7530937 ], [ 13.1958332, 60.678421 ], [ 13.244833, 60.6813431 ], [ 13.2803335, 60.6258774 ], [ 13.3960676, 60.537735 ], [ 13.462266, 60.4539337 ], [ 13.5215254, 60.4231758 ], [ 13.6632681, 60.3983116 ], [ 13.8366385, 60.2394295 ], [ 13.9666662, 60.1666679 ], [ 13.9989271, 60.181736 ], [ 13.9623919, 60.2244339 ], [ 14.1416664, 60.2249985 ], [ 14.1827574, 60.1696434 ], [ 14.2117367, 60.0867386 ], [ 14.4333334, 60.0166664 ] ] ] ] } },
{ "type": "Feature", "properties": { "POLYGON_ID": "SWE_GAUL1997_ADM1_2803", "ADM0_ISO3": "SWE", "ADM0_NAME": "Sweden", "ADM0_CODE": 236, "ADM1_NAME": "Vaesterbottens Laen", "ADM1_CODE": 2803, "GEOSET": "GAUL", "GEOSET_YEAR": 1997.0, "GEOSET_VERSION": "GAUL_v1", "GEOSET_UNIT": "ADM1", "CENTROID_LONG": 17.82807926198425, "CENTROID_LAT": 64.864742000853056 }, "geometry": { "type": "MultiPolygon", "coordinates": [ [ [ [ 15.4655997, 66.3532404 ], [ 15.7685118, 66.2906265 ], [ 16.1317558, 66.174118 ], [ 16.1796112, 66.1536865 ], [ 16.5168152, 66.0543137 ], [ 16.7725163, 66.0291443 ], [ 16.9902172, 65.9495316 ], [ 17.6770554, 65.6562958 ], [ 17.8442822, 65.625206 ], [ 18.1358757, 65.5895844 ], [ 18.3356743, 65.4932861 ], [ 18.4327412, 65.4971313 ], [ 18.5137653, 65.4509888 ], [ 18.5963135, 65.4337235 ], [ 18.7266788, 65.4388886 ], [ 18.7620239, 65.4036865 ], [ 19.0373421, 65.3123398 ], [ 19.1709919, 65.2876587 ], [ 19.2879429, 65.2375259 ], [ 19.2584, 65.2184448 ], [ 19.3568001, 65.187294 ], [ 19.4083328, 65.1500015 ], [ 19.6000004, 65.1916656 ], [ 19.7178669, 65.2702408 ], [ 19.9038563, 65.3788605 ], [ 20.7044773, 65.2294769 ], [ 20.7354202, 65.2181091 ], [ 21.2667904, 65.1652374 ], [ 21.396143, 65.1128082 ], [ 21.5063763, 65.0949326 ], [ 21.5305233, 65.0610886 ], [ 21.4529076, 65.0440903 ], [ 21.3410969, 64.9667282 ], [ 21.2343616, 64.947998 ], [ 21.1922112, 64.9017258 ], [ 21.1389599, 64.7790833 ], [ 21.2803955, 64.774231 ], [ 21.2257729, 64.7353973 ], [ 21.2850227, 64.6934738 ], [ 21.1832829, 64.6724625 ], [ 21.2422562, 64.6447067 ], [ 21.2446594, 64.6086655 ], [ 21.3738136, 64.6079559 ], [ 21.4753666, 64.5078888 ], [ 21.6156139, 64.4522858 ], [ 21.50811, 64.4110184 ], [ 21.4605999, 64.3487396 ], [ 21.3934765, 64.3208313 ], [ 21.2504215, 64.2915268 ], [ 21.1268444, 64.2004471 ], [ 20.9711952, 64.15271 ], [ 20.9476757, 64.0602722 ], [ 20.895874, 64.0316086 ], [ 20.906683, 63.9833641 ], [ 20.8047104, 63.9215698 ], [ 20.7819939, 63.8739471 ], [ 20.7009792, 63.8593788 ], [ 20.6645432, 63.8326912 ], [ 20.424551, 63.7357597 ], [ 20.4140015, 63.6832047 ], [ 20.3440285, 63.7044182 ], [ 20.2420712, 63.6552505 ], [ 20.0058727, 63.6492004 ], [ 20.0107651, 63.6159821 ], [ 19.9040852, 63.6184807 ], [ 19.8688068, 63.5816841 ], [ 19.7383251, 63.5097733 ], [ 19.7812595, 63.4669609 ], [ 19.6369686, 63.4475861 ], [ 19.5802708, 63.5360069 ], [ 19.4473267, 63.5735092 ], [ 19.436758, 63.5253525 ], [ 19.4877987, 63.4950752 ], [ 19.456419, 63.4605217 ], [ 19.3417951, 63.4625341 ], [ 19.3147564, 63.4807129 ], [ 19.1963596, 63.5603142 ], [ 19.178793, 63.5996857 ], [ 18.9262047, 63.7708092 ], [ 18.8038559, 63.7788582 ], [ 18.6475563, 63.8266296 ], [ 18.5874004, 63.8177414 ], [ 18.4921436, 63.8416977 ], [ 18.4965229, 63.8713264 ], [ 18.4245987, 63.896595 ], [ 18.470068, 63.9631844 ], [ 18.4083328, 63.9916649 ], [ 18.1395149, 63.951889 ], [ 17.7292156, 63.8768463 ], [ 17.4888783, 63.8966599 ], [ 17.2583332, 63.9083328 ], [ 16.8955994, 63.9455986 ], [ 16.7166672, 64.0166702 ], [ 16.7127342, 64.0294037 ], [ 16.4539318, 64.1455994 ], [ 16.2294006, 64.2544022 ], [ 16.1365108, 64.2640839 ], [ 16.036274, 64.2462692 ], [ 16.0215836, 64.3292694 ], [ 15.7334661, 64.4046402 ], [ 15.6986275, 64.5336075 ], [ 15.63482, 64.5199738 ], [ 15.6392412, 64.4457932 ], [ 15.5767384, 64.4377365 ], [ 15.5016947, 64.5250931 ], [ 15.4315176, 64.5483017 ], [ 15.287817, 64.6179428 ], [ 15.337266, 64.666069 ], [ 15.2725821, 64.6860428 ], [ 15.1729116, 64.7419815 ], [ 15.0362968, 64.7548065 ], [ 15.0382338, 64.7873077 ], [ 14.9672251, 64.8485031 ], [ 14.878932, 64.8622665 ], [ 14.7142315, 64.9559021 ], [ 14.6878853, 64.9878845 ], [ 14.6158447, 64.9986191 ], [ 14.34058, 65.1186 ], [ 14.39195, 65.25116 ], [ 14.511939, 65.3047195 ], [ 14.50398, 65.4801 ], [ 14.53583, 65.69276 ], [ 14.62343, 65.80933 ], [ 14.59829, 65.86787 ], [ 14.51744, 66.13349 ], [ 15.02172, 66.14549 ], [ 15.49497, 66.2817 ], [ 15.4655997, 66.3532404 ] ] ] ] } },
{ "type": "Feature", "properties": { "POLYGON_ID": "SWE_GAUL1997_ADM1_2804", "ADM0_ISO3": "SWE", "ADM0_NAME": "Sweden", "ADM0_CODE": 236, "ADM1_NAME": "Vaesternorrlands Laen", "ADM1_CODE": 2804, "GEOSET": "GAUL", "GEOSET_YEAR": 1997.0, "GEOSET_VERSION": "GAUL_v1", "GEOSET_UNIT": "ADM1", "CENTROID_LONG": 17.260031641042005, "CENTROID_LAT": 63.095340021914481 }, "geometry": { "type": "MultiPolygon", "coordinates": [ [ [ [ 19.3147564, 63.4807129 ], [ 19.2745361, 63.4634132 ], [ 19.2556705, 63.3320045 ], [ 19.1407242, 63.3319435 ], [ 19.1254616, 63.2661057 ], [ 19.0214252, 63.1950073 ], [ 18.8980713, 63.2713203 ], [ 18.8282223, 63.282856 ], [ 18.7912712, 63.2503395 ], [ 18.903511, 63.2377014 ], [ 18.791151, 63.1947327 ], [ 18.6486912, 63.1918564 ], [ 18.4737492, 63.0285454 ], [ 18.5454788, 62.9920158 ], [ 18.5179977, 62.9277153 ], [ 18.4716415, 62.8802376 ], [ 18.3432808, 62.8352966 ], [ 18.2615223, 62.9030228 ], [ 18.2148075, 62.8754768 ], [ 18.2861595, 62.8271408 ], [ 18.2467499, 62.7983246 ], [ 18.1297302, 62.7689667 ], [ 18.1133728, 62.8365974 ], [ 18.0330029, 62.8512878 ], [ 17.8775215, 62.8178406 ], [ 17.9423943, 62.7945595 ], [ 17.9647655, 62.7342529 ], [ 18.0012779, 62.7058601 ], [ 17.9473763, 62.650589 ], [ 17.9302311, 62.5609322 ], [ 17.8912563, 62.508606 ], [ 17.8313084, 62.4818382 ], [ 17.7362442, 62.507206 ], [ 17.671545, 62.4668236 ], [ 17.6661358, 62.4392929 ], [ 17.5572338, 62.4459038 ], [ 17.4707127, 62.5317421 ], [ 17.4378166, 62.5022354 ], [ 17.3527031, 62.4906273 ], [ 17.4023647, 62.4384079 ], [ 17.3876514, 62.3738899 ], [ 17.4814548, 62.3028984 ], [ 17.4721012, 62.2624626 ], [ 17.5756073, 62.2542992 ], [ 17.6695385, 62.2313538 ], [ 17.5620861, 62.1874237 ], [ 17.5109272, 62.1417847 ], [ 17.2023373, 62.1552353 ], [ 17.0147343, 62.1537857 ], [ 16.9185352, 62.1660843 ], [ 16.8042507, 62.1959152 ], [ 16.4468937, 62.2304649 ], [ 16.170372, 62.2370377 ], [ 15.8328791, 62.2900772 ], [ 15.6247654, 62.3389778 ], [ 15.4918766, 62.3310547 ], [ 15.333333, 62.2666664 ], [ 15.2743883, 62.2868996 ], [ 15.1358223, 62.2459908 ], [ 14.9490528, 62.3100166 ], [ 14.8703709, 62.3799973 ], [ 14.8000002, 62.4000015 ], [ 14.7947884, 62.4550323 ], [ 14.8469267, 62.4529686 ], [ 14.8017769, 62.5239182 ], [ 14.7854595, 62.5861893 ], [ 14.9715433, 62.5968628 ], [ 15.0915661, 62.5777435 ], [ 15.1358223, 62.5543251 ], [ 15.2557096, 62.5989304 ], [ 15.5707474, 62.6178246 ], [ 15.6686211, 62.6365089 ], [ 15.8952026, 62.6940842 ], [ 15.9772205, 62.7083664 ], [ 16.1242046, 62.686451 ], [ 16.2432804, 62.7045593 ], [ 16.375, 62.6916656 ], [ 16.4144516, 62.7594795 ], [ 16.6588154, 62.90905 ], [ 16.9916668, 62.9416656 ], [ 16.8877354, 63.0127335 ], [ 16.5911617, 63.1744957 ], [ 16.1030312, 63.3619308 ], [ 16.1406078, 63.4116859 ], [ 16.0534363, 63.4435387 ], [ 15.9664021, 63.4387321 ], [ 15.991787, 63.5487404 ], [ 15.7881517, 63.6566238 ], [ 15.8852987, 63.6735382 ], [ 15.9809093, 63.6512909 ], [ 16.0680141, 63.6955566 ], [ 16.2015648, 63.6627693 ], [ 16.2655334, 63.6602325 ], [ 16.3128128, 63.6879845 ], [ 16.6123409, 63.7071915 ], [ 16.5626583, 63.7864342 ], [ 16.5759964, 63.8578033 ], [ 16.6790085, 63.9876595 ], [ 16.7166672, 64.0166702 ], [ 16.8955994, 63.9455986 ], [ 17.2583332, 63.9083328 ], [ 17.4888783, 63.8966599 ], [ 17.7292156, 63.8768463 ], [ 18.1395149, 63.951889 ], [ 18.4083328, 63.9916649 ], [ 18.470068, 63.9631844 ], [ 18.4245987, 63.896595 ], [ 18.4965229, 63.8713264 ], [ 18.4921436, 63.8416977 ], [ 18.5874004, 63.8177414 ], [ 18.6475563, 63.8266296 ], [ 18.8038559, 63.7788582 ], [ 18.9262047, 63.7708092 ], [ 19.178793, 63.5996857 ], [ 19.1963596, 63.5603142 ], [ 19.3147564, 63.4807129 ] ] ], [ [ [ 18.0942001, 62.7472801 ], [ 18.1749687, 62.727005 ], [ 18.1081619, 62.6779289 ], [ 18.0086269, 62.6855278 ], [ 18.0413189, 62.7521515 ], [ 18.0942001, 62.7472801 ] ] ], [ [ [ 18.0668488, 62.5956573 ], [ 17.9931812, 62.5624962 ], [ 17.948679, 62.5745163 ], [ 17.9726601, 62.6434021 ], [ 18.0736485, 62.616684 ], [ 18.0668488, 62.5956573 ] ] ], [ [ [ 17.3890667, 62.4796181 ], [ 17.5018349, 62.4601173 ], [ 17.5393066, 62.3629341 ], [ 17.4138165, 62.3715744 ], [ 17.4251671, 62.4027405 ], [ 17.3890667, 62.4796181 ] ] ] ] } },
{ "type": "Feature", "properties": { "POLYGON_ID": "SWE_GAUL1997_ADM1_2805", "ADM0_ISO3": "SWE", "ADM0_NAME": "Sweden", "ADM0_CODE": 236, "ADM1_NAME": "Vaestmanlands Laen", "ADM1_CODE": 2805, "GEOSET": "GAUL", "GEOSET_YEAR": 1997.0, "GEOSET_VERSION": "GAUL_v1", "GEOSET_UNIT": "ADM1", "CENTROID_LONG": 16.314243129188466, "CENTROID_LAT": 59.800765693307127 }, "geometry": { "type": "MultiPolygon", "coordinates": [ [ [ [ 16.9666672, 59.5083351 ], [ 16.8915291, 59.4711418 ], [ 16.8266506, 59.4949684 ], [ 16.4264221, 59.4533806 ], [ 16.2583332, 59.4500008 ], [ 16.2461433, 59.4168053 ], [ 16.2788563, 59.3794785 ], [ 16.2617302, 59.3521309 ], [ 16.09692, 59.3388901 ], [ 16.0387192, 59.3602638 ], [ 15.9518776, 59.3397903 ], [ 15.8690596, 59.2716217 ], [ 15.8878098, 59.2205238 ], [ 15.7666664, 59.1916656 ], [ 15.6880369, 59.2630348 ], [ 15.6053562, 59.2770805 ], [ 15.6309366, 59.3194885 ], [ 15.6051397, 59.394207 ], [ 15.7295647, 59.4039459 ], [ 15.7045069, 59.5297775 ], [ 15.6297216, 59.5156746 ], [ 15.6129608, 59.6129608 ], [ 15.5096045, 59.6421547 ], [ 15.5500002, 59.6916656 ], [ 15.5213699, 59.7713699 ], [ 15.4338799, 59.7801933 ], [ 15.4522934, 59.8270302 ], [ 15.4250002, 59.8499985 ], [ 15.5229654, 59.9510612 ], [ 15.6657658, 59.9213676 ], [ 15.7137737, 59.9699478 ], [ 15.6797009, 60.0328026 ], [ 15.7629604, 60.1120377 ], [ 15.7212944, 60.1363564 ], [ 15.8078499, 60.1687813 ], [ 15.9109459, 60.1559563 ], [ 16.0166664, 60.1749992 ], [ 16.0577526, 60.1421356 ], [ 16.1634769, 60.1127434 ], [ 16.1419506, 60.0832787 ], [ 16.2037468, 60.0671539 ], [ 16.3990669, 60.0800934 ], [ 16.4285545, 60.1169167 ], [ 16.5367641, 60.1357498 ], [ 16.545372, 60.1712952 ], [ 16.7000008, 60.1916656 ], [ 16.7787724, 60.1800957 ], [ 16.89785, 60.2272491 ], [ 16.9083328, 60.2750015 ], [ 17.100769, 60.2572212 ], [ 17.1916676, 60.2916679 ], [ 17.3788567, 60.2262573 ], [ 17.2710056, 60.0307426 ], [ 17.2045441, 60.0390091 ], [ 17.1276932, 59.9618454 ], [ 17.125, 59.875 ], [ 17.0042801, 59.8213692 ], [ 16.9630375, 59.854702 ], [ 16.8325081, 59.8622208 ], [ 16.8029766, 59.8089104 ], [ 16.7333336, 59.7666664 ], [ 16.8379612, 59.6712952 ], [ 16.9120388, 59.545372 ], [ 16.9666672, 59.5083351 ] ] ] ] } },
{ "type": "Feature", "properties": { "POLYGON_ID": "SWE_GAUL1997_ADM1_2806", "ADM0_ISO3": "SWE", "ADM0_NAME": "Sweden", "ADM0_CODE": 236, "ADM1_NAME": "Vaestra Goetalands Laen", "ADM1_CODE": 2806, "GEOSET": "GAUL", "GEOSET_YEAR": 1997.0, "GEOSET_VERSION": "GAUL_v1", "GEOSET_UNIT": "ADM1", "CENTROID_LONG": 12.875356040397699, "CENTROID_LAT": 58.2986914852141 }, "geometry": { "type": "MultiPolygon", "coordinates": [ [ [ [ 14.291667, 59.0083351 ], [ 14.2833529, 58.9391212 ], [ 14.3202963, 58.895298 ], [ 14.3884001, 58.8712196 ], [ 14.3999996, 58.7916679 ], [ 14.4702482, 58.7731056 ], [ 14.4703579, 58.7046814 ], [ 14.5540075, 58.7049446 ], [ 14.6194344, 58.726963 ], [ 14.6878099, 58.7294769 ], [ 14.7060452, 58.6814232 ], [ 14.7749996, 58.6416664 ], [ 14.7056332, 58.5599251 ], [ 14.6916666, 58.5166664 ], [ 14.6453724, 58.4796257 ], [ 14.5059366, 58.338253 ], [ 14.4198437, 58.2134895 ], [ 14.416667, 58.1833344 ], [ 14.3421297, 58.1555252 ], [ 14.2354755, 58.0255852 ], [ 14.2118092, 57.9707642 ], [ 14.2283087, 57.9426956 ], [ 14.1951389, 57.8880844 ], [ 14.1343117, 57.8792305 ], [ 14.0841894, 57.842617 ], [ 14.0137091, 57.8513832 ], [ 13.9703722, 57.8037071 ], [ 13.9208832, 57.8465958 ], [ 13.8452749, 57.8181572 ], [ 13.7333336, 57.8416672 ], [ 13.7467442, 57.7620697 ], [ 13.6999998, 57.6916656 ], [ 13.7229624, 57.648838 ], [ 13.6632633, 57.6093788 ], [ 13.6916666, 57.5499992 ], [ 13.6044731, 57.4972534 ], [ 13.5109453, 57.4124985 ], [ 13.5136395, 57.3908348 ], [ 13.3629608, 57.3120384 ], [ 13.2893953, 57.2992363 ], [ 13.2807455, 57.2559776 ], [ 13.1847754, 57.2351074 ], [ 13.1545343, 57.1698837 ], [ 13.0916662, 57.1333351 ], [ 13.0244026, 57.1425591 ], [ 13.0305309, 57.1735725 ], [ 12.9224787, 57.1637497 ], [ 12.9048538, 57.1880875 ], [ 12.9416714, 57.2327003 ], [ 12.9279099, 57.2543755 ], [ 12.8284788, 57.2618141 ], [ 12.8083334, 57.2916679 ], [ 12.7372952, 57.2892456 ], [ 12.6601973, 57.3332253 ], [ 12.6048508, 57.3371162 ], [ 12.528945, 57.3047485 ], [ 12.5040836, 57.2748184 ], [ 12.4289808, 57.2614365 ], [ 12.3882589, 57.3248825 ], [ 12.412878, 57.3958054 ], [ 12.3922396, 57.4337845 ], [ 12.3130684, 57.4485588 ], [ 12.34266, 57.4749985 ], [ 12.3091774, 57.5083809 ], [ 12.3351908, 57.5562515 ], [ 12.2842836, 57.5812759 ], [ 12.1712942, 57.5537071 ], [ 12.0166769, 57.5364609 ], [ 11.9426222, 57.5775261 ], [ 11.8835554, 57.6167908 ], [ 11.8181944, 57.7107124 ], [ 11.728447, 57.7000122 ], [ 11.7299538, 57.737957 ], [ 11.8093987, 57.7628937 ], [ 11.815589, 57.7985611 ], [ 11.7472696, 57.8000565 ], [ 11.6831827, 57.8566322 ], [ 11.7203913, 57.904007 ], [ 11.7874098, 57.9104996 ], [ 11.7657967, 57.9716759 ], [ 11.8213205, 57.9981079 ], [ 11.8138847, 58.0788727 ], [ 11.8592501, 58.1252518 ], [ 11.8637638, 58.1954308 ], [ 11.9041023, 58.2011147 ], [ 11.8258286, 58.3084068 ], [ 11.7570047, 58.3405838 ], [ 11.6770802, 58.2842751 ], [ 11.589529, 58.2533302 ], [ 11.5197744, 58.2513084 ], [ 11.5455694, 58.3067856 ], [ 11.5765171, 58.3183327 ], [ 11.6402512, 58.4019928 ], [ 11.5846224, 58.4054298 ], [ 11.5740004, 58.3583603 ], [ 11.5282421, 58.3089066 ], [ 11.4145842, 58.3085785 ], [ 11.4144716, 58.3467674 ], [ 11.3573046, 58.3697777 ], [ 11.2573767, 58.3754463 ], [ 11.2362747, 58.4342461 ], [ 11.3131351, 58.4766655 ], [ 11.2579517, 58.5215797 ], [ 11.2603378, 58.6802979 ], [ 11.1705055, 58.7201881 ], [ 11.1749878, 58.7775917 ], [ 11.2375298, 58.8081779 ], [ 11.1399193, 58.9786568 ], [ 11.1262159, 59.0234909 ], [ 11.2077217, 59.0866203 ], [ 11.33563, 59.10589 ], [ 11.4718, 58.99335 ], [ 11.4597, 58.89286 ], [ 11.5465, 58.87895 ], [ 11.61307, 58.89455 ], [ 11.68721, 58.94408 ], [ 11.71724, 59.0267 ], [ 11.77966, 59.08917 ], [ 11.76971, 59.1186 ], [ 11.79537, 59.21225 ], [ 11.8318399, 59.2421357 ], [ 11.9239378, 59.2140923 ], [ 11.9438353, 59.2371902 ], [ 12.083971, 59.1683693 ], [ 12.0773468, 59.247654 ], [ 12.1918097, 59.2384567 ], [ 12.2520895, 59.1974754 ], [ 12.3463917, 59.1680069 ], [ 12.4089632, 59.162426 ], [ 12.4705229, 59.1205215 ], [ 12.5544767, 59.112812 ], [ 12.6680746, 59.1716156 ], [ 12.7470522, 59.120491 ], [ 12.7675495, 59.0302658 ], [ 12.8334713, 58.9688568 ], [ 12.8916664, 58.8083344 ], [ 13.1377344, 58.7544022 ], [ 13.2474728, 58.7163544 ], [ 13.404355, 58.7372131 ], [ 13.3356647, 58.8101463 ], [ 13.4184093, 58.9477081 ], [ 13.6000004, 59.0499992 ], [ 14.0184469, 59.0191727 ], [ 14.0626631, 59.0432014 ], [ 14.1875, 59.0357628 ], [ 14.291667, 59.0083351 ] ] ], [ [ [ 11.7107124, 58.299202 ], [ 11.8395863, 58.2394867 ], [ 11.8535452, 58.1618767 ], [ 11.702343, 58.1096687 ], [ 11.6055422, 58.1277199 ], [ 11.5670404, 58.0867157 ], [ 11.436326, 58.1230583 ], [ 11.4194803, 58.142952 ], [ 11.5196333, 58.2010002 ], [ 11.643157, 58.2480698 ], [ 11.6886005, 58.2464867 ], [ 11.7107124, 58.299202 ] ] ], [ [ [ 11.7435703, 58.0751534 ], [ 11.7699471, 58.0336189 ], [ 11.7194166, 58.0233727 ], [ 11.6885033, 57.9743614 ], [ 11.5968819, 57.9352188 ], [ 11.5439987, 57.9633255 ], [ 11.5526867, 58.006279 ], [ 11.5122395, 58.0427856 ], [ 11.7435703, 58.0751534 ] ] ] ] } }
]
}
