{
"type": "FeatureCollection",
"name": "SWE_GAUL2002_ADM0",
"crs": { "type": "name", "properties": { "name": "urn:ogc:def:crs:OGC:1.3:CRS84" } },
"features": [
{ "type": "Feature", "properties": { "POLYGON_ID": "SWE_GAUL2002_ADM0_236", "ADM0_ISO3": "SWE", "ADM0_NAME": "Sweden", "ADM0_CODE": 236, "GEOSET": "GAUL", "GEOSET_YEAR": 2002.0, "GEOSET_VERSION": "GAUL_v1", "GEOSET_UNIT": "ADM0", "CENTROID_LONG": 16.756267663904271, "CENTROID_LAT": 62.779976724636214 }, "geometry": { "type": "MultiPolygon", "coordinates": [ [ [ [ 24.1559467, 65.8181915 ], [ 24.0830822, 65.8192215 ], [ 24.0050144, 65.7966919 ], [ 23.8275032, 65.7953339 ], [ 23.7766628, 65.8026047 ], [ 23.7462997, 65.8330002 ], [ 23.6976395, 65.8413696 ], [ 23.6734905, 65.8100357 ], [ 23.5597878, 65.7902832 ], [ 23.5483437, 65.8118286 ], [ 23.4710617, 65.8472672 ], [ 23.4159603, 65.8140183 ], [ 23.4360752, 65.781929 ], [ 23.3865223, 65.7792435 ], [ 23.340395, 65.8185425 ], [ 23.306303, 65.7929077 ], [ 23.2505989, 65.8114471 ], [ 23.1934299, 65.7934341 ], [ 23.1374016, 65.7182999 ], [ 23.0692272, 65.7509766 ], [ 23.0154095, 65.7529831 ], [ 22.8525715, 65.7951813 ], [ 22.8367271, 65.828331 ], [ 22.6731796, 65.9064255 ], [ 22.7192078, 65.8216553 ], [ 22.6801491, 65.7826386 ], [ 22.5360813, 65.8153534 ], [ 22.4713726, 65.8404465 ], [ 22.4589577, 65.8653336 ], [ 22.379158, 65.8712006 ], [ 22.3388081, 65.8382645 ], [ 22.3680382, 65.8118134 ], [ 22.3458614, 65.7528687 ], [ 22.3233585, 65.7306824 ], [ 22.2477798, 65.7401428 ], [ 22.2753162, 65.7148438 ], [ 22.2702312, 65.6814957 ], [ 22.3831024, 65.6296082 ], [ 22.2994671, 65.6020889 ], [ 22.381937, 65.5768585 ], [ 22.3911057, 65.5382767 ], [ 22.2434883, 65.5807419 ], [ 22.1863918, 65.565773 ], [ 22.0789757, 65.6152496 ], [ 22.010807, 65.6024628 ], [ 22.0127678, 65.6360321 ], [ 21.8851223, 65.6736526 ], [ 22.0171089, 65.5926666 ], [ 22.1249447, 65.5797653 ], [ 22.1629028, 65.5232468 ], [ 22.080801, 65.5289459 ], [ 22.0321064, 65.516449 ], [ 21.8676815, 65.533371 ], [ 21.9692307, 65.4796829 ], [ 22.0162067, 65.4675293 ], [ 22.0088978, 65.428688 ], [ 21.9403725, 65.441246 ], [ 21.9175816, 65.4000168 ], [ 21.7357178, 65.4016342 ], [ 21.5494499, 65.4162521 ], [ 21.4849396, 65.3879395 ], [ 21.472847, 65.3399048 ], [ 21.5178032, 65.323555 ], [ 21.6111851, 65.3371964 ], [ 21.6734219, 65.3085785 ], [ 21.6614723, 65.2336197 ], [ 21.5301533, 65.2638168 ], [ 21.4829807, 65.283577 ], [ 21.4870548, 65.3025589 ], [ 21.4281902, 65.3130798 ], [ 21.3415413, 65.3653717 ], [ 21.2526531, 65.3397293 ], [ 21.3473358, 65.3144989 ], [ 21.4185371, 65.3093567 ], [ 21.5430622, 65.2155075 ], [ 21.5891838, 65.1496048 ], [ 21.5359993, 65.1243668 ], [ 21.5305233, 65.0610886 ], [ 21.4431019, 65.069809 ], [ 21.4529076, 65.0440903 ], [ 21.3410969, 64.9667282 ], [ 21.2343616, 64.947998 ], [ 21.2411461, 64.9316177 ], [ 21.1922112, 64.9017258 ], [ 21.1599998, 64.824028 ], [ 21.1125298, 64.8110123 ], [ 21.1389599, 64.7790833 ], [ 21.2478065, 64.783989 ], [ 21.2803955, 64.774231 ], [ 21.2257729, 64.7353973 ], [ 21.2850227, 64.6934738 ], [ 21.2010841, 64.6881485 ], [ 21.1832829, 64.6724625 ], [ 21.2422562, 64.6447067 ], [ 21.2446594, 64.6086655 ], [ 21.3738136, 64.6079559 ], [ 21.424551, 64.5668335 ], [ 21.4794064, 64.5494537 ], [ 21.4318752, 64.5335693 ], [ 21.4753666, 64.5078888 ], [ 21.4661446, 64.4642334 ], [ 21.5060863, 64.4442291 ], [ 21.5445004, 64.4737091 ], [ 21.6156139, 64.4522858 ], [ 21.50811, 64.4110184 ], [ 21.4605999, 64.3487396 ], [ 21.4174805, 64.348175 ], [ 21.3934765, 64.3208313 ], [ 21.2504215, 64.2915268 ], [ 21.1268444, 64.2004471 ], [ 21.0910683, 64.2222137 ], [ 21.0501652, 64.1782074 ], [ 20.9711952, 64.15271 ], [ 20.9438877, 64.1213684 ], [ 20.9655113, 64.1006241 ], [ 20.9476757, 64.0602722 ], [ 20.895874, 64.0316086 ], [ 20.9176102, 64.0168076 ], [ 20.906683, 63.9833641 ], [ 20.8637543, 63.9679718 ], [ 20.8047104, 63.9215698 ], [ 20.7819939, 63.8739471 ], [ 20.7009792, 63.8593788 ], [ 20.6645432, 63.8326912 ], [ 20.5305157, 63.7807198 ], [ 20.4929466, 63.7821274 ], [ 20.424551, 63.7357597 ], [ 20.4492817, 63.7206039 ], [ 20.4140015, 63.6832047 ], [ 20.3599358, 63.7022705 ], [ 20.3829098, 63.7337723 ], [ 20.3280621, 63.7818909 ], [ 20.3058434, 63.737896 ], [ 20.3440285, 63.7044182 ], [ 20.2420712, 63.6552505 ], [ 20.108511, 63.6533318 ], [ 20.0686455, 63.6734886 ], [ 20.0058727, 63.6492004 ], [ 20.0107651, 63.6159821 ], [ 19.9040852, 63.6184807 ], [ 19.8688068, 63.5816841 ], [ 19.8003159, 63.5454712 ], [ 19.7630367, 63.5430717 ], [ 19.7383251, 63.5097733 ], [ 19.7812595, 63.4669609 ], [ 19.6827202, 63.4460678 ], [ 19.6369686, 63.4475861 ], [ 19.5802708, 63.5360069 ], [ 19.5258484, 63.5598373 ], [ 19.4473267, 63.5735092 ], [ 19.4594917, 63.5420036 ], [ 19.436758, 63.5253525 ], [ 19.4877987, 63.4950752 ], [ 19.456419, 63.4605217 ], [ 19.3826771, 63.4702225 ], [ 19.3506966, 63.4513283 ], [ 19.2745361, 63.4634132 ], [ 19.2556705, 63.3320045 ], [ 19.1407242, 63.3319435 ], [ 19.1254616, 63.2661057 ], [ 19.0592518, 63.2681236 ], [ 19.0314598, 63.2365341 ], [ 19.0975761, 63.238205 ], [ 19.0214252, 63.1950073 ], [ 18.8980713, 63.2713203 ], [ 18.8282223, 63.282856 ], [ 18.778307, 63.2730827 ], [ 18.7912712, 63.2503395 ], [ 18.903511, 63.2377014 ], [ 18.791151, 63.1947327 ], [ 18.7304001, 63.1995392 ], [ 18.7123623, 63.1667061 ], [ 18.6486912, 63.1918564 ], [ 18.60079, 63.166996 ], [ 18.6110687, 63.1453247 ], [ 18.549263, 63.1048622 ], [ 18.4737492, 63.0285454 ], [ 18.4307461, 63.0654182 ], [ 18.4045334, 63.0221825 ], [ 18.3406219, 63.0313721 ], [ 18.2966022, 63.0099144 ], [ 18.3554459, 62.9986992 ], [ 18.4165058, 63.0071068 ], [ 18.5454788, 62.9920158 ], [ 18.5251198, 62.9606667 ], [ 18.43433, 62.9664574 ], [ 18.4655399, 62.9375305 ], [ 18.5179977, 62.9277153 ], [ 18.4716415, 62.8802376 ], [ 18.3432808, 62.8352966 ], [ 18.2615223, 62.9030228 ], [ 18.2148075, 62.8754768 ], [ 18.2861595, 62.8271408 ], [ 18.2467499, 62.7983246 ], [ 18.1841431, 62.7940788 ], [ 18.1297302, 62.7689667 ], [ 18.1057739, 62.8103294 ], [ 18.1133728, 62.8365974 ], [ 18.0330029, 62.8512878 ], [ 17.9910469, 62.8301201 ], [ 17.9245796, 62.8309937 ], [ 17.9178696, 62.9123497 ], [ 17.7980251, 62.9859009 ], [ 17.7920551, 62.9409676 ], [ 17.8325424, 62.9420662 ], [ 17.9038486, 62.8613625 ], [ 17.8775215, 62.8178406 ], [ 17.9423943, 62.7945595 ], [ 17.9647655, 62.7342529 ], [ 18.0012779, 62.7058601 ], [ 17.9777737, 62.6528015 ], [ 17.9473763, 62.650589 ], [ 17.9302311, 62.5609322 ], [ 17.8912563, 62.508606 ], [ 17.8313084, 62.4818382 ], [ 17.7962608, 62.5027809 ], [ 17.7362442, 62.507206 ], [ 17.671545, 62.4668236 ], [ 17.6661358, 62.4392929 ], [ 17.5572338, 62.4459038 ], [ 17.4707127, 62.5317421 ], [ 17.4378166, 62.5022354 ], [ 17.3527031, 62.4906273 ], [ 17.4023647, 62.4384079 ], [ 17.4082031, 62.4067078 ], [ 17.3876514, 62.3738899 ], [ 17.4814548, 62.3028984 ], [ 17.4721012, 62.2624626 ], [ 17.5756073, 62.2542992 ], [ 17.6695385, 62.2313538 ], [ 17.6395683, 62.2104759 ], [ 17.5620861, 62.1874237 ], [ 17.4874668, 62.1254044 ], [ 17.4698067, 62.0561905 ], [ 17.4695168, 62.004776 ], [ 17.4009514, 61.9840088 ], [ 17.3436279, 61.9289665 ], [ 17.365202, 61.8717537 ], [ 17.3161621, 61.8594894 ], [ 17.3466511, 61.8202438 ], [ 17.3964844, 61.8198318 ], [ 17.3811722, 61.777359 ], [ 17.3850193, 61.7337914 ], [ 17.4643574, 61.7317772 ], [ 17.5096378, 61.7168274 ], [ 17.5138683, 61.6571503 ], [ 17.4920616, 61.61866 ], [ 17.4481831, 61.6183891 ], [ 17.3962708, 61.6549797 ], [ 17.3717251, 61.6866379 ], [ 17.2541733, 61.7072945 ], [ 17.2403927, 61.6491394 ], [ 17.1942177, 61.6495743 ], [ 17.1583824, 61.6286545 ], [ 17.1316299, 61.5568314 ], [ 17.087286, 61.5433884 ], [ 17.1143818, 61.5167274 ], [ 17.1741066, 61.4904594 ], [ 17.1429882, 61.4505081 ], [ 17.1662312, 61.4143562 ], [ 17.0945663, 61.414753 ], [ 17.1453304, 61.352375 ], [ 17.1932411, 61.3408356 ], [ 17.1841297, 61.3107071 ], [ 17.2475357, 61.2835312 ], [ 17.1699677, 61.2764359 ], [ 17.2062969, 61.2373924 ], [ 17.1361141, 61.2058449 ], [ 17.1865845, 61.191433 ], [ 17.1710606, 61.1572227 ], [ 17.2079201, 61.0869141 ], [ 17.1610775, 61.0469933 ], [ 17.2384319, 61.0138893 ], [ 17.141798, 60.9571533 ], [ 17.1808205, 60.9216461 ], [ 17.109026, 60.9179726 ], [ 17.0874691, 60.8982658 ], [ 17.143631, 60.8865776 ], [ 17.2427349, 60.8931236 ], [ 17.3058071, 60.8369484 ], [ 17.2873344, 60.7748642 ], [ 17.3515587, 60.7601776 ], [ 17.2673588, 60.709404 ], [ 17.311327, 60.6579895 ], [ 17.4806538, 60.6422119 ], [ 17.5308857, 60.6529045 ], [ 17.6086903, 60.6493721 ], [ 17.6452255, 60.610363 ], [ 17.5932217, 60.5837135 ], [ 17.6389122, 60.5511436 ], [ 17.6470909, 60.5176506 ], [ 17.7414494, 60.4964294 ], [ 17.7444973, 60.5388031 ], [ 17.7805347, 60.5668869 ], [ 17.8236485, 60.5679398 ], [ 17.9432201, 60.6021004 ], [ 18.0187492, 60.5906219 ], [ 18.0167179, 60.5240402 ], [ 17.9942226, 60.5189972 ], [ 18.109827, 60.4609833 ], [ 18.1161461, 60.4298325 ], [ 18.1482277, 60.4127235 ], [ 18.2732353, 60.3814125 ], [ 18.2333107, 60.3451462 ], [ 18.3300476, 60.3571587 ], [ 18.3897724, 60.3380089 ], [ 18.4435921, 60.3424034 ], [ 18.5175724, 60.2719955 ], [ 18.6140366, 60.2467499 ], [ 18.6014786, 60.2221413 ], [ 18.5544796, 60.2206612 ], [ 18.4684887, 60.2367668 ], [ 18.4796524, 60.2103653 ], [ 18.4544926, 60.1763268 ], [ 18.5823174, 60.1359825 ], [ 18.6380157, 60.1417847 ], [ 18.7354259, 60.1225853 ], [ 18.7736759, 60.1028595 ], [ 18.8089466, 60.1217537 ], [ 18.8438129, 60.1054268 ], [ 18.8540993, 60.0336533 ], [ 18.913168, 59.9822388 ], [ 18.9125977, 59.960392 ], [ 18.962677, 59.9163895 ], [ 19.0376263, 59.9061012 ], [ 19.0918331, 59.8802147 ], [ 19.0851231, 59.8276291 ], [ 19.0566921, 59.8233795 ], [ 19.0027637, 59.8674355 ], [ 18.9496346, 59.8980522 ], [ 18.9473305, 59.8438263 ], [ 18.8846149, 59.7985229 ], [ 18.9139996, 59.7817917 ], [ 19.0736942, 59.7704964 ], [ 19.0941906, 59.7551842 ], [ 19.0731277, 59.7205315 ], [ 18.9844913, 59.7077408 ], [ 18.9568653, 59.7315292 ], [ 18.9010563, 59.7051735 ], [ 18.8678455, 59.7071648 ], [ 18.7662354, 59.6828003 ], [ 18.7365208, 59.6403389 ], [ 18.6991272, 59.6176682 ], [ 18.6730747, 59.5807419 ], [ 18.5884266, 59.5548172 ], [ 18.4983273, 59.5178795 ], [ 18.4075966, 59.4604416 ], [ 18.3163853, 59.4476242 ], [ 18.2787056, 59.4232674 ], [ 18.336359, 59.3852959 ], [ 18.1880264, 59.3907852 ], [ 18.1817169, 59.4293213 ], [ 18.1490765, 59.4499741 ], [ 18.1029968, 59.4214287 ], [ 18.0885658, 59.3801193 ], [ 18.168005, 59.3192902 ], [ 18.2252998, 59.3008423 ], [ 18.2785645, 59.2978745 ], [ 18.3044701, 59.3056259 ], [ 18.3501892, 59.2611732 ], [ 18.3534336, 59.2407379 ], [ 18.4072952, 59.2181168 ], [ 18.3818645, 59.1811333 ], [ 18.4516144, 59.1518288 ], [ 18.3592815, 59.1237373 ], [ 18.3365135, 59.1259499 ], [ 18.2718201, 59.1137199 ], [ 18.2546673, 59.1213531 ], [ 18.2316704, 59.1033134 ], [ 18.1175919, 59.0719109 ], [ 18.1119537, 59.0539246 ], [ 18.0393181, 59.0470276 ], [ 18.0353527, 59.0178108 ], [ 17.9773846, 58.9629478 ], [ 17.9851303, 58.9418297 ], [ 17.9419594, 58.8726463 ], [ 17.8884697, 58.871151 ], [ 17.7482071, 58.933979 ], [ 17.7647457, 58.9641495 ], [ 17.7682266, 59.0115547 ], [ 17.7535534, 59.066349 ], [ 17.7083683, 59.0585823 ], [ 17.7017059, 59.1046715 ], [ 17.6505871, 59.0847778 ], [ 17.6348534, 59.0469704 ], [ 17.6441345, 59.0094872 ], [ 17.625555, 58.9867668 ], [ 17.6315174, 58.9552002 ], [ 17.6026382, 58.9201355 ], [ 17.634058, 58.8941612 ], [ 17.5652256, 58.8935471 ], [ 17.5827103, 58.8384171 ], [ 17.5069847, 58.8523788 ], [ 17.4689522, 58.8097153 ], [ 17.4010944, 58.7869148 ], [ 17.3839893, 58.7489357 ], [ 17.3255596, 58.7552719 ], [ 17.272543, 58.7254829 ], [ 17.1426106, 58.7313004 ], [ 17.1308937, 58.7500038 ], [ 17.0728226, 58.7509232 ], [ 17.0848217, 58.7083282 ], [ 17.1393662, 58.6625557 ], [ 17.0591621, 58.6771622 ], [ 17.0303364, 58.6631355 ], [ 17.0413055, 58.6323051 ], [ 16.9152966, 58.6097145 ], [ 16.7668285, 58.6284142 ], [ 16.6167126, 58.6375999 ], [ 16.4847431, 58.6563873 ], [ 16.2460938, 58.6654282 ], [ 16.2789154, 58.643898 ], [ 16.2703953, 58.6075401 ], [ 16.3152561, 58.6052322 ], [ 16.3725872, 58.6214294 ], [ 16.4291248, 58.5837173 ], [ 16.446888, 58.6361961 ], [ 16.5046577, 58.6291428 ], [ 16.5433006, 58.6123352 ], [ 16.583807, 58.6296272 ], [ 16.6750431, 58.6178207 ], [ 16.7005558, 58.6017685 ], [ 16.7944622, 58.6014595 ], [ 16.7822685, 58.5673485 ], [ 16.8478413, 58.5554161 ], [ 16.8655758, 58.5249863 ], [ 16.9539528, 58.4775047 ], [ 16.8776646, 58.4661217 ], [ 16.8605022, 58.4444122 ], [ 16.7820034, 58.4401894 ], [ 16.7196445, 58.4221115 ], [ 16.6414166, 58.4437294 ], [ 16.6011658, 58.4461899 ], [ 16.5085621, 58.4772949 ], [ 16.4891663, 58.4650497 ], [ 16.726635, 58.3951721 ], [ 16.744175, 58.3633995 ], [ 16.7948704, 58.3640823 ], [ 16.8068943, 58.3336945 ], [ 16.7821064, 58.3153114 ], [ 16.7774181, 58.2838516 ], [ 16.7466221, 58.2521973 ], [ 16.8084908, 58.2344589 ], [ 16.821846, 58.2019424 ], [ 16.8591156, 58.1752014 ], [ 16.8306732, 58.1551704 ], [ 16.8372078, 58.1289291 ], [ 16.7678013, 58.1149025 ], [ 16.7887535, 58.078598 ], [ 16.7578926, 58.066925 ], [ 16.7704906, 58.0137939 ], [ 16.7170067, 58.0221977 ], [ 16.6878624, 57.9773903 ], [ 16.7595291, 57.9725266 ], [ 16.8090477, 57.9215965 ], [ 16.7958183, 57.885025 ], [ 16.7626839, 57.8688812 ], [ 16.7122612, 57.9005585 ], [ 16.6600704, 57.8834152 ], [ 16.5942116, 57.9265709 ], [ 16.5879402, 57.8758621 ], [ 16.5434933, 57.8608513 ], [ 16.6613197, 57.7849236 ], [ 16.6230278, 57.7841225 ], [ 16.5320625, 57.8508034 ], [ 16.4653969, 57.8333054 ], [ 16.5506763, 57.8210754 ], [ 16.5876751, 57.7939644 ], [ 16.6671238, 57.753685 ], [ 16.7380753, 57.7041016 ], [ 16.6684265, 57.6829567 ], [ 16.6337585, 57.6443787 ], [ 16.6643867, 57.6081162 ], [ 16.5899944, 57.5878448 ], [ 16.6005592, 57.5541077 ], [ 16.6506882, 57.5477142 ], [ 16.6542072, 57.5129128 ], [ 16.6834126, 57.4494095 ], [ 16.6498528, 57.4275398 ], [ 16.6309586, 57.3795395 ], [ 16.5668983, 57.3709679 ], [ 16.5579033, 57.3092117 ], [ 16.4908943, 57.2743645 ], [ 16.5202847, 57.2310867 ], [ 16.4693718, 57.1870308 ], [ 16.4721031, 57.1488457 ], [ 16.5070858, 57.1433868 ], [ 16.5168877, 57.113369 ], [ 16.5835686, 57.0842171 ], [ 16.5436821, 57.0679054 ], [ 16.566782, 57.0400314 ], [ 16.4955215, 57.0212288 ], [ 16.4751568, 56.9859085 ], [ 16.4431553, 56.9793091 ], [ 16.47575, 56.9475937 ], [ 16.4511108, 56.9140739 ], [ 16.4495373, 56.8552246 ], [ 16.430975, 56.8397751 ], [ 16.414978, 56.7875328 ], [ 16.3789272, 56.7632217 ], [ 16.3688869, 56.7226372 ], [ 16.3911514, 56.6810837 ], [ 16.3806992, 56.657711 ], [ 16.3428192, 56.6456299 ], [ 16.3089199, 56.6583443 ], [ 16.2334499, 56.6031799 ], [ 16.2318649, 56.5505447 ], [ 16.1966476, 56.5296059 ], [ 16.1760902, 56.4858055 ], [ 16.1416836, 56.470089 ], [ 16.1026669, 56.4142418 ], [ 16.1048698, 56.3758926 ], [ 16.0560265, 56.3039627 ], [ 16.0641651, 56.2880478 ], [ 16.0250568, 56.2168541 ], [ 15.9078579, 56.1328468 ], [ 15.8871527, 56.09935 ], [ 15.8427715, 56.0816879 ], [ 15.7966986, 56.1213112 ], [ 15.764142, 56.1324501 ], [ 15.7020111, 56.1758728 ], [ 15.6530924, 56.1812058 ], [ 15.5834131, 56.174263 ], [ 15.5567856, 56.1878624 ], [ 15.5008259, 56.1618118 ], [ 15.4145632, 56.1734734 ], [ 15.3848238, 56.1571655 ], [ 15.3795214, 56.1218872 ], [ 15.321517, 56.1189499 ], [ 15.2957315, 56.1368065 ], [ 15.3062754, 56.1648026 ], [ 15.2659063, 56.169899 ], [ 15.2468872, 56.1499748 ], [ 15.1913118, 56.154438 ], [ 15.1144743, 56.144043 ], [ 15.0603266, 56.1886597 ], [ 15.021843, 56.1846313 ], [ 15.0122633, 56.1521492 ], [ 14.9199619, 56.1580658 ], [ 14.8555031, 56.139782 ], [ 14.826417, 56.1555748 ], [ 14.7306452, 56.1469002 ], [ 14.7004404, 56.1031265 ], [ 14.7258425, 56.0935364 ], [ 14.7467155, 56.0524101 ], [ 14.783843, 56.0318108 ], [ 14.7664442, 56.0083466 ], [ 14.6218147, 56.0 ], [ 14.5950012, 56.0224991 ], [ 14.5388861, 56.0371895 ], [ 14.4818411, 56.0331306 ], [ 14.4777956, 56.0065002 ], [ 14.4134207, 55.9861488 ], [ 14.3783512, 55.9579659 ], [ 14.3392601, 55.9561424 ], [ 14.3209515, 55.9145851 ], [ 14.2519646, 55.8739166 ], [ 14.2167244, 55.8168297 ], [ 14.1966534, 55.7331848 ], [ 14.2071915, 55.7018585 ], [ 14.2767286, 55.672123 ], [ 14.2888489, 55.6189079 ], [ 14.3615818, 55.5593414 ], [ 14.3526955, 55.5133133 ], [ 14.2866735, 55.4743385 ], [ 14.2413988, 55.4380188 ], [ 14.2024317, 55.3871002 ], [ 14.1741285, 55.377285 ], [ 14.0972481, 55.3858719 ], [ 14.0602198, 55.3811226 ], [ 13.9417009, 55.4325676 ], [ 13.8862534, 55.4354515 ], [ 13.842556, 55.4200096 ], [ 13.7135267, 55.427803 ], [ 13.6292105, 55.4142761 ], [ 13.5951405, 55.3881531 ], [ 13.4944601, 55.3843536 ], [ 13.3633099, 55.3378487 ], [ 13.2744732, 55.3444901 ], [ 13.1520538, 55.3729134 ], [ 13.0508604, 55.3754349 ], [ 12.9655581, 55.4036636 ], [ 12.9244642, 55.3866539 ], [ 12.8876696, 55.3985024 ], [ 12.8136921, 55.3786888 ], [ 12.8401213, 55.4248161 ], [ 12.8946371, 55.4103012 ], [ 12.9535179, 55.4225616 ], [ 12.9707127, 55.4595032 ], [ 12.914752, 55.5295143 ], [ 12.8989277, 55.5721626 ], [ 12.9347448, 55.5985947 ], [ 13.0460711, 55.6378174 ], [ 13.0672073, 55.6729469 ], [ 13.0564604, 55.6952209 ], [ 12.9986086, 55.732605 ], [ 12.921875, 55.7447739 ], [ 12.9315119, 55.8143349 ], [ 12.9110956, 55.8432274 ], [ 12.8663349, 55.8643456 ], [ 12.8380604, 55.8544693 ], [ 12.8078642, 55.9112511 ], [ 12.761158, 55.9532318 ], [ 12.7573099, 55.9797134 ], [ 12.7137079, 56.0007172 ], [ 12.6865664, 56.051796 ], [ 12.6537371, 56.0855827 ], [ 12.5946894, 56.1185608 ], [ 12.5620461, 56.1502686 ], [ 12.5337477, 56.2328491 ], [ 12.4911871, 56.2774506 ], [ 12.504859, 56.2921371 ], [ 12.6621628, 56.2485695 ], [ 12.6789455, 56.2289276 ], [ 12.7714949, 56.210968 ], [ 12.8297844, 56.2500992 ], [ 12.8335037, 56.268322 ], [ 12.7619715, 56.3004265 ], [ 12.7425985, 56.3541603 ], [ 12.684866, 56.3780289 ], [ 12.6378164, 56.3834534 ], [ 12.6194773, 56.4177322 ], [ 12.6546307, 56.4513168 ], [ 12.708107, 56.4686508 ], [ 12.7523975, 56.4636993 ], [ 12.8524179, 56.4263802 ], [ 12.8776302, 56.4285164 ], [ 12.9259348, 56.4730225 ], [ 12.945694, 56.5138512 ], [ 12.9350843, 56.5828018 ], [ 12.8878584, 56.6406593 ], [ 12.8478794, 56.6620522 ], [ 12.7471714, 56.6429253 ], [ 12.7098122, 56.6788635 ], [ 12.6825294, 56.6805992 ], [ 12.6706953, 56.7141228 ], [ 12.6228151, 56.740345 ], [ 12.6294518, 56.7601433 ], [ 12.6125021, 56.8126946 ], [ 12.4938765, 56.8879662 ], [ 12.4365044, 56.8922844 ], [ 12.3631554, 56.9173126 ], [ 12.3553991, 56.9589882 ], [ 12.3668594, 56.9885826 ], [ 12.3467913, 57.0130196 ], [ 12.2580147, 57.0630569 ], [ 12.2433071, 57.1018295 ], [ 12.2593861, 57.1197319 ], [ 12.2194595, 57.1447983 ], [ 12.2101917, 57.1853447 ], [ 12.2214737, 57.2106133 ], [ 12.1462669, 57.2133522 ], [ 12.1073122, 57.2344856 ], [ 12.132863, 57.2749558 ], [ 12.1714554, 57.283535 ], [ 12.1650705, 57.3247375 ], [ 12.1004591, 57.3687286 ], [ 12.1181087, 57.3957863 ], [ 12.1158476, 57.4360428 ], [ 12.0652781, 57.4602318 ], [ 12.0085764, 57.343174 ], [ 11.9349499, 57.4095459 ], [ 11.9120731, 57.4840012 ], [ 11.9526129, 57.5141258 ], [ 11.922226, 57.5397148 ], [ 11.9426222, 57.5775261 ], [ 11.9239912, 57.6178932 ], [ 11.8835554, 57.6167908 ], [ 11.8552828, 57.6688728 ], [ 11.8794622, 57.6813087 ], [ 11.8181944, 57.7107124 ], [ 11.728447, 57.7000122 ], [ 11.7299538, 57.737957 ], [ 11.8093987, 57.7628937 ], [ 11.815589, 57.7985611 ], [ 11.7472696, 57.8000565 ], [ 11.736145, 57.8241234 ], [ 11.6831827, 57.8566322 ], [ 11.716444, 57.8736153 ], [ 11.7203913, 57.904007 ], [ 11.7874098, 57.9104996 ], [ 11.7585087, 57.9488487 ], [ 11.7657967, 57.9716759 ], [ 11.8213205, 57.9981079 ], [ 11.8287783, 58.0268784 ], [ 11.8138847, 58.0788727 ], [ 11.8592501, 58.1252518 ], [ 11.8637638, 58.1954308 ], [ 11.9041023, 58.2011147 ], [ 11.8752718, 58.2479553 ], [ 11.8249741, 58.2875977 ], [ 11.8258286, 58.3084068 ], [ 11.7570047, 58.3405838 ], [ 11.7138577, 58.3055916 ], [ 11.6808558, 58.3034668 ], [ 11.6770802, 58.2842751 ], [ 11.589529, 58.2533302 ], [ 11.5197744, 58.2513084 ], [ 11.5455694, 58.3067856 ], [ 11.5765171, 58.3183327 ], [ 11.6402512, 58.4019928 ], [ 11.5846224, 58.4054298 ], [ 11.5740004, 58.3583603 ], [ 11.5282421, 58.3089066 ], [ 11.4475985, 58.2673225 ], [ 11.4505587, 58.3055038 ], [ 11.4145842, 58.3085785 ], [ 11.4144716, 58.3467674 ], [ 11.3573046, 58.3697777 ], [ 11.2573767, 58.3754463 ], [ 11.2270508, 58.4075012 ], [ 11.2362747, 58.4342461 ], [ 11.2964344, 58.449707 ], [ 11.3131351, 58.4766655 ], [ 11.2579517, 58.5215797 ], [ 11.275485, 58.53825 ], [ 11.2546339, 58.5666389 ], [ 11.2942066, 58.6143761 ], [ 11.2644777, 58.6217422 ], [ 11.2603378, 58.6802979 ], [ 11.2305346, 58.6844521 ], [ 11.1705055, 58.7201881 ], [ 11.1749878, 58.7775917 ], [ 11.2375298, 58.8081779 ], [ 11.1967287, 58.86586 ], [ 11.1981039, 58.8901024 ], [ 11.1399193, 58.9786568 ], [ 11.1262159, 59.0234909 ], [ 11.2077217, 59.0866203 ], [ 11.33563, 59.10589 ], [ 11.37246, 59.09426 ], [ 11.40543, 59.04585 ], [ 11.4718, 58.99335 ], [ 11.4597, 58.89286 ], [ 11.5465, 58.87895 ], [ 11.61307, 58.89455 ], [ 11.68721, 58.94408 ], [ 11.71724, 59.0267 ], [ 11.77966, 59.08917 ], [ 11.76971, 59.1186 ], [ 11.79537, 59.21225 ], [ 11.83184, 59.24213 ], [ 11.828, 59.33188 ], [ 11.76684, 59.42405 ], [ 11.7643, 59.47579 ], [ 11.73167, 59.51217 ], [ 11.69946, 59.59178 ], [ 11.72142, 59.62259 ], [ 11.76258, 59.6403 ], [ 11.85939, 59.65078 ], [ 11.89933, 59.69182 ], [ 11.94171, 59.69688 ], [ 11.9334673, 59.7979422 ], [ 11.90054, 59.824 ], [ 11.84861, 59.839 ], [ 11.95374, 59.901 ], [ 12.05625, 59.88815 ], [ 12.13775, 59.89779 ], [ 12.17675, 59.89322 ], [ 12.23248, 59.92884 ], [ 12.34532, 59.97004 ], [ 12.38689, 60.00725 ], [ 12.45889, 60.05256 ], [ 12.51836, 60.12783 ], [ 12.53865, 60.18693 ], [ 12.49429, 60.27705 ], [ 12.49703, 60.32345 ], [ 12.5532497, 60.3571299 ], [ 12.60536, 60.40689 ], [ 12.61219, 60.50629 ], [ 12.5814, 60.55498 ], [ 12.51581, 60.61759 ], [ 12.51251, 60.65198 ], [ 12.40624, 60.72996 ], [ 12.3322398, 60.8580627 ], [ 12.32266, 60.91177 ], [ 12.22046, 61.01215 ], [ 12.39495, 61.04521 ], [ 12.50508, 61.05413 ], [ 12.57264, 61.04962 ], [ 12.6764184, 61.0605795 ], [ 12.70975, 61.11801 ], [ 12.70272, 61.14035 ], [ 12.7897387, 61.1925392 ], [ 12.8740384, 61.3602768 ], [ 12.57501, 61.57137 ], [ 12.423689, 61.5616306 ], [ 12.13189, 61.72578 ], [ 12.21952, 61.99986 ], [ 12.3105599, 62.2660098 ], [ 12.12779, 62.51991 ], [ 12.05315, 62.61018 ], [ 12.1396586, 62.7626075 ], [ 12.07599, 62.90338 ], [ 12.22478, 63.00294 ], [ 12.07379, 63.17243 ], [ 11.97954, 63.26993 ], [ 12.0568, 63.33661 ], [ 12.21496, 63.48351 ], [ 12.14849, 63.59637 ], [ 12.26286, 63.64915 ], [ 12.34096, 63.73073 ], [ 12.37243, 63.75006 ], [ 12.68735, 63.98003 ], [ 12.91983, 64.05699 ], [ 13.2003091, 64.0977799 ], [ 13.65516, 64.05433 ], [ 13.95622, 64.01196 ], [ 14.12345, 64.17315 ], [ 14.13239, 64.1923 ], [ 14.10011, 64.46725 ], [ 13.95536, 64.4934 ], [ 13.63731, 64.58576 ], [ 13.8946, 64.79311 ], [ 14.10839, 64.95753 ], [ 14.34058, 65.1186 ], [ 14.39195, 65.25116 ], [ 14.511939, 65.3047195 ], [ 14.50398, 65.4801 ], [ 14.53583, 65.69276 ], [ 14.57641, 65.73559 ], [ 14.62343, 65.80933 ], [ 14.59829, 65.86787 ], [ 14.51744, 66.13349 ], [ 15.02172, 66.14549 ], [ 15.49497, 66.2817 ], [ 15.4655997, 66.3532404 ], [ 15.37616, 66.48485 ], [ 15.62548, 66.5902 ], [ 15.77264, 66.70577 ], [ 15.97802, 66.84692 ], [ 16.05609, 66.91088 ], [ 16.1594, 66.95785 ], [ 16.39754, 67.04539 ], [ 16.40931, 67.20416 ], [ 16.10075, 67.43378 ], [ 16.16926, 67.5179 ], [ 16.42086, 67.53571 ], [ 16.48012, 67.57525 ], [ 16.57712, 67.66335 ], [ 16.74116, 67.92086 ], [ 16.9163, 67.96474 ], [ 17.14155, 68.04733 ], [ 17.28318, 68.1202 ], [ 17.638, 68.04826 ], [ 17.78165, 68.01168 ], [ 17.90159, 67.96888 ], [ 18.08697, 68.14747 ], [ 18.15558, 68.20344 ], [ 18.10695, 68.40966 ], [ 18.12506, 68.53832 ], [ 18.41782, 68.58438 ], [ 18.61872, 68.50783 ], [ 18.9894, 68.52001 ], [ 19.95874, 68.35111 ], [ 20.01706, 68.39351 ], [ 20.1624, 68.4443 ], [ 20.2639, 68.49102 ], [ 20.07278, 68.52864 ], [ 19.97152, 68.56113 ], [ 20.06614, 68.59644 ], [ 20.20217, 68.67517 ], [ 20.24936, 68.72967 ], [ 20.34719, 68.81397 ], [ 20.33706, 68.9304 ], [ 20.06123, 69.05964 ], [ 20.5573196, 69.0625 ], [ 20.67331, 69.03984 ], [ 20.76468, 69.03792 ], [ 20.8333, 69.01292 ], [ 20.91083, 68.96488 ], [ 20.84878, 68.93126 ], [ 20.92385, 68.89759 ], [ 20.99193, 68.89331 ], [ 21.14214, 68.85598 ], [ 21.2599, 68.79876 ], [ 21.30185, 68.76329 ], [ 21.39353, 68.75533 ], [ 21.41859, 68.69938 ], [ 21.45266, 68.6839 ], [ 21.58133, 68.67075 ], [ 21.66158, 68.65003 ], [ 21.70928, 68.62324 ], [ 21.72017, 68.5881 ], [ 21.85459, 68.5871 ], [ 21.90454, 68.57627 ], [ 22.00349, 68.52527 ], [ 22.03763, 68.48077 ], [ 22.12354, 68.47241 ], [ 22.3405889, 68.4740402 ], [ 22.42829, 68.46039 ], [ 22.57193, 68.42375 ], [ 22.6501, 68.42101 ], [ 22.73875, 68.38726 ], [ 22.83416, 68.38831 ], [ 22.86933, 68.35714 ], [ 23.0567, 68.30737 ], [ 23.07605, 68.26945 ], [ 23.15085, 68.24256 ], [ 23.14608, 68.21425 ], [ 23.17183, 68.13301 ], [ 23.29587, 68.15262 ], [ 23.40711, 68.04613 ], [ 23.55347, 68.00823 ], [ 23.57161, 67.97947 ], [ 23.65582, 67.96259 ], [ 23.66198, 67.93673 ], [ 23.50636, 67.87086 ], [ 23.48634, 67.82427 ], [ 23.50129, 67.79683 ], [ 23.48264, 67.72407 ], [ 23.49819, 67.66409 ], [ 23.55627, 67.62753 ], [ 23.52426, 67.57906 ], [ 23.46004, 67.565 ], [ 23.4810891, 67.5443715 ], [ 23.4142, 67.50867 ], [ 23.44128, 67.46446 ], [ 23.53646, 67.44739 ], [ 23.57786, 67.46326 ], [ 23.78639, 67.42785 ], [ 23.76509, 67.36315 ], [ 23.81296, 67.33276 ], [ 23.75868, 67.2827 ], [ 23.62447, 67.27 ], [ 23.58425, 67.22308 ], [ 23.61384, 67.21461 ], [ 23.5792, 67.16257 ], [ 23.65581, 67.1209 ], [ 23.7167287, 67.053062 ], [ 23.7819, 66.99966 ], [ 23.8799, 66.94453 ], [ 23.89351, 66.91263 ], [ 23.96068, 66.87398 ], [ 24.01105, 66.83047 ], [ 24.00571, 66.80424 ], [ 23.9353888, 66.7842179 ], [ 23.89436, 66.75929 ], [ 23.91309, 66.71933 ], [ 23.87942, 66.6372 ], [ 23.88902, 66.57289 ], [ 23.79924, 66.532 ], [ 23.80285, 66.51619 ], [ 23.72935, 66.49361 ], [ 23.72254, 66.47494 ], [ 23.6528197, 66.4547897 ], [ 23.64264, 66.43592 ], [ 23.68176, 66.38096 ], [ 23.65543, 66.30673 ], [ 23.71929, 66.22298 ], [ 23.80116, 66.18265 ], [ 23.89614, 66.1659 ], [ 23.93236, 66.14997 ], [ 23.94317, 66.08337 ], [ 24.039488, 66.0041415 ], [ 24.04293, 65.95727 ], [ 24.11577, 65.91915 ], [ 24.15765, 65.85809 ], [ 24.1559467, 65.8181915 ] ] ], [ [ [ 23.7477112, 65.7395706 ], [ 23.7884274, 65.7198334 ], [ 23.7465572, 65.7009811 ], [ 23.693285, 65.7123642 ], [ 23.6845512, 65.7421188 ], [ 23.7477112, 65.7395706 ] ] ], [ [ [ 22.9392147, 65.7422333 ], [ 22.9891968, 65.7064743 ], [ 22.931879, 65.6869888 ], [ 22.8828354, 65.7103958 ], [ 22.8808708, 65.7350693 ], [ 22.9392147, 65.7422333 ] ] ], [ [ [ 22.8097115, 65.7153397 ], [ 22.7393112, 65.7161255 ], [ 22.7600689, 65.7610855 ], [ 22.8016415, 65.7498322 ], [ 22.8097115, 65.7153397 ] ] ], [ [ [ 22.6557198, 65.5905762 ], [ 22.6019459, 65.5543442 ], [ 22.5473843, 65.5634842 ], [ 22.5903339, 65.5897369 ], [ 22.6557198, 65.5905762 ] ] ], [ [ [ 22.2845631, 65.7281113 ], [ 22.3374348, 65.7119827 ], [ 22.372736, 65.6729813 ], [ 22.3202305, 65.6669693 ], [ 22.2845631, 65.7281113 ] ] ], [ [ [ 22.2320881, 65.459938 ], [ 22.2363167, 65.4341431 ], [ 22.166214, 65.4296417 ], [ 22.1493034, 65.4549408 ], [ 22.2320881, 65.459938 ] ] ], [ [ [ 21.859333, 65.2586594 ], [ 21.7633076, 65.2638855 ], [ 21.7953014, 65.2855148 ], [ 21.859333, 65.2586594 ] ] ], [ [ [ 20.9148998, 63.8084908 ], [ 20.9483547, 63.7857475 ], [ 20.8921623, 63.754879 ], [ 20.8496952, 63.7616043 ], [ 20.8601875, 63.7975769 ], [ 20.9148998, 63.8084908 ] ] ], [ [ [ 20.9381619, 63.7047729 ], [ 20.8730545, 63.7010231 ], [ 20.9039345, 63.7543297 ], [ 20.940733, 63.7493477 ], [ 20.9381619, 63.7047729 ] ] ], [ [ [ 19.1995621, 57.9825439 ], [ 19.2661648, 57.9691734 ], [ 19.3391609, 57.9740028 ], [ 19.3623276, 57.9528694 ], [ 19.2908192, 57.9357452 ], [ 19.2503414, 57.945797 ], [ 19.1487675, 57.910305 ], [ 19.178587, 57.8915367 ], [ 19.1329861, 57.8413086 ], [ 19.0885773, 57.8679237 ], [ 19.0921021, 57.8891144 ], [ 19.0614929, 57.9217262 ], [ 19.1055222, 57.9347725 ], [ 19.0965099, 57.9616165 ], [ 19.1366806, 57.9802017 ], [ 19.1995621, 57.9825439 ] ] ], [ [ [ 19.2895927, 58.3381729 ], [ 19.2291203, 58.3377495 ], [ 19.193409, 58.39468 ], [ 19.2871094, 58.3832779 ], [ 19.3277111, 58.3660889 ], [ 19.2895927, 58.3381729 ] ] ], [ [ [ 18.7984047, 57.8626823 ], [ 18.8586082, 57.8853798 ], [ 18.872097, 57.9229813 ], [ 19.0380383, 57.9078102 ], [ 19.0410156, 57.8693848 ], [ 19.1012058, 57.8380814 ], [ 19.0490494, 57.8338318 ], [ 18.9664154, 57.76157 ], [ 18.9675713, 57.7320213 ], [ 18.8623466, 57.7244492 ], [ 18.8141804, 57.7399178 ], [ 18.8219585, 57.6811867 ], [ 18.7837219, 57.6453819 ], [ 18.7771511, 57.6131096 ], [ 18.816658, 57.6097031 ], [ 18.8134022, 57.5436172 ], [ 18.76478, 57.5123863 ], [ 18.7778492, 57.4701347 ], [ 18.8294888, 57.4369469 ], [ 18.9057217, 57.4445152 ], [ 18.9451504, 57.4203415 ], [ 18.9294167, 57.4010963 ], [ 18.7679691, 57.360981 ], [ 18.7255287, 57.3215408 ], [ 18.6751518, 57.2982368 ], [ 18.7323303, 57.2559967 ], [ 18.6995506, 57.2194023 ], [ 18.6746044, 57.2255669 ], [ 18.5642891, 57.2061958 ], [ 18.5740204, 57.1899529 ], [ 18.4279671, 57.1416245 ], [ 18.394453, 57.0951347 ], [ 18.3513336, 57.0632477 ], [ 18.3532028, 57.0097923 ], [ 18.3672752, 56.987793 ], [ 18.3050938, 56.9248657 ], [ 18.2041683, 56.9003067 ], [ 18.1430397, 56.9222946 ], [ 18.203455, 56.9778061 ], [ 18.2107334, 57.0104752 ], [ 18.2991467, 57.0424652 ], [ 18.3080101, 57.0741196 ], [ 18.2789288, 57.080452 ], [ 18.211544, 57.067894 ], [ 18.22859, 57.1220589 ], [ 18.1544113, 57.1611214 ], [ 18.1661892, 57.2123871 ], [ 18.102026, 57.2563362 ], [ 18.1136303, 57.2853203 ], [ 18.1799183, 57.3161812 ], [ 18.1777363, 57.3480339 ], [ 18.2042255, 57.3830452 ], [ 18.1511726, 57.4134903 ], [ 18.1253414, 57.4637184 ], [ 18.1352768, 57.4838371 ], [ 18.1115494, 57.5321045 ], [ 18.2077522, 57.5992012 ], [ 18.2642803, 57.6186714 ], [ 18.3774529, 57.7051506 ], [ 18.4866104, 57.8251648 ], [ 18.5453529, 57.8301392 ], [ 18.6223812, 57.848011 ], [ 18.6485748, 57.8938179 ], [ 18.7055855, 57.9200058 ], [ 18.7724075, 57.9174805 ], [ 18.7984047, 57.8626823 ] ] ], [ [ [ 18.9848022, 59.8072433 ], [ 18.9264908, 59.7941742 ], [ 18.9125462, 59.8125153 ], [ 18.96735, 59.8608208 ], [ 19.0109978, 59.8309975 ], [ 18.9848022, 59.8072433 ] ] ], [ [ [ 18.9987946, 59.63937 ], [ 18.9449558, 59.6364174 ], [ 18.9295959, 59.6018715 ], [ 18.8863945, 59.6150703 ], [ 18.9617825, 59.6577454 ], [ 18.9987946, 59.63937 ] ] ], [ [ [ 18.824194, 59.2926788 ], [ 18.7758198, 59.2578125 ], [ 18.7433414, 59.2710381 ], [ 18.7832909, 59.2985878 ], [ 18.824194, 59.2926788 ] ] ], [ [ [ 18.7394352, 60.2153778 ], [ 18.8062763, 60.1753349 ], [ 18.7824745, 60.1504745 ], [ 18.737133, 60.153801 ], [ 18.7229004, 60.1799545 ], [ 18.7394352, 60.2153778 ] ] ], [ [ [ 18.6550655, 59.5571594 ], [ 18.7573338, 59.5389404 ], [ 18.6607056, 59.5179176 ], [ 18.5943127, 59.4596252 ], [ 18.5677986, 59.4927025 ], [ 18.5721092, 59.5262947 ], [ 18.6550655, 59.5571594 ] ] ], [ [ [ 18.4543839, 59.4225655 ], [ 18.5298557, 59.4090309 ], [ 18.5399742, 59.3874969 ], [ 18.5894547, 59.3669014 ], [ 18.6813545, 59.3810883 ], [ 18.7315388, 59.3719063 ], [ 18.7569542, 59.3330917 ], [ 18.7324009, 59.3140564 ], [ 18.677927, 59.3518219 ], [ 18.6638775, 59.3132744 ], [ 18.631403, 59.2936783 ], [ 18.5074196, 59.2927017 ], [ 18.4522209, 59.3135948 ], [ 18.4117851, 59.29496 ], [ 18.3596172, 59.2988396 ], [ 18.3218727, 59.3239784 ], [ 18.2794342, 59.3019676 ], [ 18.2376575, 59.3040657 ], [ 18.2324867, 59.3370247 ], [ 18.294136, 59.3625832 ], [ 18.4199028, 59.3614693 ], [ 18.4887733, 59.3409615 ], [ 18.4517975, 59.4066048 ], [ 18.4543839, 59.4225655 ] ] ], [ [ [ 18.7168522, 59.2920303 ], [ 18.6608868, 59.2657928 ], [ 18.5662441, 59.2667274 ], [ 18.5576744, 59.286335 ], [ 18.7168522, 59.2920303 ] ] ], [ [ [ 18.698534, 63.0784988 ], [ 18.6715889, 63.0279732 ], [ 18.6245213, 63.0256042 ], [ 18.6537972, 63.0716476 ], [ 18.698534, 63.0784988 ] ] ], [ [ [ 18.595253, 59.4496727 ], [ 18.5575314, 59.4403496 ], [ 18.5188122, 59.4959869 ], [ 18.5591946, 59.4987259 ], [ 18.595253, 59.4496727 ] ] ], [ [ [ 18.3655949, 59.2932091 ], [ 18.5055866, 59.2884331 ], [ 18.5830708, 59.2570038 ], [ 18.5512466, 59.2266274 ], [ 18.496479, 59.2222061 ], [ 18.4473476, 59.2416039 ], [ 18.4015903, 59.2789688 ], [ 18.3655949, 59.2932091 ] ] ], [ [ [ 18.4123383, 60.4888763 ], [ 18.4873047, 60.4313431 ], [ 18.4554062, 60.4156227 ], [ 18.4909287, 60.3816605 ], [ 18.5618191, 60.3668709 ], [ 18.5754128, 60.2984314 ], [ 18.5047264, 60.33601 ], [ 18.4304142, 60.3560219 ], [ 18.3870831, 60.4154778 ], [ 18.4123383, 60.4888763 ] ] ], [ [ [ 18.4920025, 59.1195793 ], [ 18.4961052, 59.0871162 ], [ 18.4233036, 59.0123749 ], [ 18.3832169, 59.0123749 ], [ 18.3575134, 59.0527306 ], [ 18.4702263, 59.1180725 ], [ 18.4920025, 59.1195793 ] ] ], [ [ [ 18.359499, 58.9637947 ], [ 18.3040047, 58.9326668 ], [ 18.2466869, 58.915657 ], [ 18.2310734, 58.9429893 ], [ 18.258358, 58.9607849 ], [ 18.359499, 58.9637947 ] ] ], [ [ [ 18.2600536, 59.112999 ], [ 18.3301411, 59.108593 ], [ 18.3292027, 59.093689 ], [ 18.2413235, 59.0770073 ], [ 18.2600536, 59.112999 ] ] ], [ [ [ 18.1500645, 59.39011 ], [ 18.270174, 59.374733 ], [ 18.2381973, 59.3491325 ], [ 18.183588, 59.3417969 ], [ 18.1362629, 59.3563576 ], [ 18.1105595, 59.3798447 ], [ 18.1500645, 59.39011 ] ] ], [ [ [ 18.171793, 59.0344086 ], [ 18.1863937, 59.0103645 ], [ 18.1483994, 58.9816475 ], [ 18.0742226, 58.9887238 ], [ 18.1153431, 59.0285606 ], [ 18.171793, 59.0344086 ] ] ], [ [ [ 18.0942001, 62.7472801 ], [ 18.1667786, 62.7476196 ], [ 18.1749687, 62.727005 ], [ 18.1081619, 62.6779289 ], [ 18.0370731, 62.6724396 ], [ 18.0086269, 62.6855278 ], [ 18.0413189, 62.7521515 ], [ 18.0942001, 62.7472801 ] ] ], [ [ [ 18.0668488, 62.5956573 ], [ 17.9931812, 62.5624962 ], [ 17.948679, 62.5745163 ], [ 17.9433098, 62.6170273 ], [ 17.9726601, 62.6434021 ], [ 18.0736485, 62.616684 ], [ 18.0668488, 62.5956573 ] ] ], [ [ [ 17.8427048, 58.8593369 ], [ 17.8851452, 58.8320084 ], [ 17.8300705, 58.7995415 ], [ 17.8172627, 58.8448219 ], [ 17.8427048, 58.8593369 ] ] ], [ [ [ 17.6796932, 59.0646629 ], [ 17.7066898, 59.0499344 ], [ 17.7215748, 59.0119209 ], [ 17.6902847, 58.9236641 ], [ 17.6425323, 58.9941673 ], [ 17.6719666, 59.0154076 ], [ 17.6584339, 59.0583992 ], [ 17.6796932, 59.0646629 ] ] ], [ [ [ 17.3890667, 62.4796181 ], [ 17.5018349, 62.4601173 ], [ 17.4915733, 62.4346466 ], [ 17.5371056, 62.3995323 ], [ 17.5393066, 62.3629341 ], [ 17.4138165, 62.3715744 ], [ 17.4251671, 62.4027405 ], [ 17.3890667, 62.4796181 ] ] ], [ [ [ 17.4562912, 61.5511894 ], [ 17.3776379, 61.5350456 ], [ 17.371006, 61.5596886 ], [ 17.4562912, 61.5511894 ] ] ], [ [ [ 17.1070328, 57.3328629 ], [ 17.1045876, 57.300621 ], [ 17.0570908, 57.2593536 ], [ 17.0928974, 57.2307396 ], [ 17.0825405, 57.173645 ], [ 17.050869, 57.1683235 ], [ 17.032032, 57.1206017 ], [ 16.9931355, 57.0990982 ], [ 16.9392223, 57.0053558 ], [ 16.8822498, 56.9693375 ], [ 16.9036827, 56.9173775 ], [ 16.8606873, 56.8813705 ], [ 16.8629074, 56.8321762 ], [ 16.8030224, 56.8072891 ], [ 16.7773552, 56.7819023 ], [ 16.7686577, 56.7341576 ], [ 16.7075977, 56.6217003 ], [ 16.7072639, 56.6006241 ], [ 16.6488075, 56.5490265 ], [ 16.6225472, 56.4711571 ], [ 16.5683479, 56.384964 ], [ 16.5763149, 56.3719902 ], [ 16.4959202, 56.2400169 ], [ 16.4145603, 56.1942177 ], [ 16.398077, 56.2852325 ], [ 16.4157143, 56.3419571 ], [ 16.3817806, 56.4585075 ], [ 16.3895435, 56.5152245 ], [ 16.4279938, 56.5946388 ], [ 16.4699974, 56.6349297 ], [ 16.4874153, 56.6882439 ], [ 16.5216045, 56.7419434 ], [ 16.5815334, 56.7997398 ], [ 16.6261711, 56.8655624 ], [ 16.6540737, 56.8839951 ], [ 16.7240314, 56.879364 ], [ 16.7410736, 56.932457 ], [ 16.7935696, 56.9999428 ], [ 16.8213367, 57.011013 ], [ 16.8250141, 57.0395126 ], [ 16.8830948, 57.0952415 ], [ 16.9218082, 57.1603775 ], [ 16.9136333, 57.2036743 ], [ 16.9593697, 57.2253342 ], [ 16.9657345, 57.2927208 ], [ 17.0158043, 57.3345833 ], [ 17.0605888, 57.3541985 ], [ 17.1070328, 57.3328629 ] ] ], [ [ [ 15.6806335, 56.1190186 ], [ 15.7185345, 56.0948753 ], [ 15.6942158, 56.0701904 ], [ 15.6503792, 56.092495 ], [ 15.6806335, 56.1190186 ] ] ], [ [ [ 11.7107124, 58.299202 ], [ 11.7613649, 58.2943649 ], [ 11.7656517, 58.2682724 ], [ 11.8395863, 58.2394867 ], [ 11.8535452, 58.1618767 ], [ 11.8337803, 58.1247215 ], [ 11.7877531, 58.1325378 ], [ 11.702343, 58.1096687 ], [ 11.6603384, 58.127018 ], [ 11.6055422, 58.1277199 ], [ 11.5670404, 58.0867157 ], [ 11.436326, 58.1230583 ], [ 11.4194803, 58.142952 ], [ 11.5196333, 58.2010002 ], [ 11.5468845, 58.2015877 ], [ 11.5983505, 58.2333984 ], [ 11.643157, 58.2480698 ], [ 11.6886005, 58.2464867 ], [ 11.6920195, 58.2963257 ], [ 11.7107124, 58.299202 ] ] ], [ [ [ 11.7435703, 58.0751534 ], [ 11.7699471, 58.0336189 ], [ 11.7194166, 58.0233727 ], [ 11.6885033, 57.9743614 ], [ 11.5968819, 57.9352188 ], [ 11.5439987, 57.9633255 ], [ 11.5526867, 58.006279 ], [ 11.5122395, 58.0427856 ], [ 11.5659094, 58.0654526 ], [ 11.6049395, 58.052948 ], [ 11.7435703, 58.0751534 ] ] ], [ [ [ 11.5093994, 58.2531738 ], [ 11.4677639, 58.2036858 ], [ 11.4220667, 58.2209702 ], [ 11.4504528, 58.248333 ], [ 11.5093994, 58.2531738 ] ] ], [ [ [ 11.2024393, 58.8576202 ], [ 11.1851912, 58.8263016 ], [ 11.1394091, 58.8524055 ], [ 11.2024393, 58.8576202 ] ] ] ] } }
]
}
