{
"type": "FeatureCollection",
"name": "SYC_GAUL2005_ADM2",
"crs": { "type": "name", "properties": { "name": "urn:ogc:def:crs:OGC:1.3:CRS84" } },
"features": [
{ "type": "Feature", "properties": { "POLYGON_ID": "SYC_GAUL2005_ADM2_61211", "ADM0_ISO3": "SYC", "ADM0_NAME": "Seychelles", "ADM0_CODE": 220, "ADM1_NAME": "Aldabra", "ADM1_CODE": 61135, "ADM2_NAME": "Administrative unit not available", "ADM2_CODE": 61211, "GEOSET": "GAUL", "GEOSET_YEAR": 2005.0, "GEOSET_VERSION": "GAUL_v1", "GEOSET_UNIT": "ADM2", "CENTROID_LONG": 46.42418795996786, "CENTROID_LAT": -9.4348651712130103 }, "geometry": { "type": "MultiPolygon", "coordinates": [ [ [ [ 46.443852, -9.3740175 ], [ 46.52139, -9.3977307 ], [ 46.5066908, -9.4396943 ], [ 46.4588748, -9.4551518 ], [ 46.3992174, -9.4492887 ], [ 46.2907995, -9.4930621 ], [ 46.2785278, -9.4695912 ], [ 46.4575119, -9.4151426 ], [ 46.443852, -9.3740175 ] ] ] ] } },
{ "type": "Feature", "properties": { "POLYGON_ID": "SYC_GAUL2005_ADM2_61212", "ADM0_ISO3": "SYC", "ADM0_NAME": "Seychelles", "ADM0_CODE": 220, "ADM1_NAME": "Alphonse", "ADM1_CODE": 61136, "ADM2_NAME": "Administrative unit not available", "ADM2_CODE": 61212, "GEOSET": "GAUL", "GEOSET_YEAR": 2005.0, "GEOSET_VERSION": "GAUL_v1", "GEOSET_UNIT": "ADM2", "CENTROID_LONG": 52.727250666666663, "CENTROID_LAT": -7.0075495333333331 }, "geometry": { "type": "MultiPolygon", "coordinates": [ [ [ [ 52.7362379, -7.0073855 ], [ 52.7241225, -7.0151684 ], [ 52.7213916, -7.0000947 ], [ 52.7362379, -7.0073855 ] ] ] ] } },
{ "type": "Feature", "properties": { "POLYGON_ID": "SYC_GAUL2005_ADM2_61213", "ADM0_ISO3": "SYC", "ADM0_NAME": "Seychelles", "ADM0_CODE": 220, "ADM1_NAME": "Anse Aux Pins", "ADM1_CODE": 61137, "ADM2_NAME": "Administrative unit not available", "ADM2_CODE": 61213, "GEOSET": "GAUL", "GEOSET_YEAR": 2005.0, "GEOSET_VERSION": "GAUL_v1", "GEOSET_UNIT": "ADM2", "CENTROID_LONG": 55.516902081142895, "CENTROID_LAT": -4.6891255891119137 }, "geometry": { "type": "MultiPolygon", "coordinates": [ [ [ [ 55.5290859, -4.6862421 ], [ 55.5234865, -4.6959095 ], [ 55.5028534, -4.6882782 ], [ 55.5060234, -4.6846128 ], [ 55.5290859, -4.6862421 ] ] ] ] } },
{ "type": "Feature", "properties": { "POLYGON_ID": "SYC_GAUL2005_ADM2_61214", "ADM0_ISO3": "SYC", "ADM0_NAME": "Seychelles", "ADM0_CODE": 220, "ADM1_NAME": "Anse Boileau", "ADM1_CODE": 61138, "ADM2_NAME": "Administrative unit not available", "ADM2_CODE": 61214, "GEOSET": "GAUL", "GEOSET_YEAR": 2005.0, "GEOSET_VERSION": "GAUL_v1", "GEOSET_UNIT": "ADM2", "CENTROID_LONG": 55.491708705781228, "CENTROID_LAT": -4.7097703489713991 }, "geometry": { "type": "MultiPolygon", "coordinates": [ [ [ [ 55.4834061, -4.6829357 ], [ 55.49897, -4.6906028 ], [ 55.5053177, -4.7162127 ], [ 55.5022621, -4.7373748 ], [ 55.4910459, -4.7344894 ], [ 55.4755453, -4.7041054 ], [ 55.4834061, -4.6829357 ] ] ] ] } },
{ "type": "Feature", "properties": { "POLYGON_ID": "SYC_GAUL2005_ADM2_61215", "ADM0_ISO3": "SYC", "ADM0_NAME": "Seychelles", "ADM0_CODE": 220, "ADM1_NAME": "Anse Etoile", "ADM1_CODE": 61139, "ADM2_NAME": "Administrative unit not available", "ADM2_CODE": 61215, "GEOSET": "GAUL", "GEOSET_YEAR": 2005.0, "GEOSET_VERSION": "GAUL_v1", "GEOSET_UNIT": "ADM2", "CENTROID_LONG": 55.453855105403164, "CENTROID_LAT": -4.5950558850799208 }, "geometry": { "type": "MultiPolygon", "coordinates": [ [ [ [ 55.4647915, -4.5795598 ], [ 55.460369, -4.6055033 ], [ 55.447506, -4.6076651 ], [ 55.4411392, -4.5924067 ], [ 55.4647915, -4.5795598 ] ] ] ] } },
{ "type": "Feature", "properties": { "POLYGON_ID": "SYC_GAUL2005_ADM2_61216", "ADM0_ISO3": "SYC", "ADM0_NAME": "Seychelles", "ADM0_CODE": 220, "ADM1_NAME": "Anse Royale", "ADM1_CODE": 61140, "ADM2_NAME": "Administrative unit not available", "ADM2_CODE": 61216, "GEOSET": "GAUL", "GEOSET_YEAR": 2005.0, "GEOSET_VERSION": "GAUL_v1", "GEOSET_UNIT": "ADM2", "CENTROID_LONG": 55.513248444623301, "CENTROID_LAT": -4.7405035450103199 }, "geometry": { "type": "MultiPolygon", "coordinates": [ [ [ [ 55.5263748, -4.7345954 ], [ 55.5193637, -4.7612505 ], [ 55.5090179, -4.7611933 ], [ 55.5022621, -4.7373748 ], [ 55.5053177, -4.7162127 ], [ 55.5263748, -4.7345954 ] ] ] ] } },
{ "type": "Feature", "properties": { "POLYGON_ID": "SYC_GAUL2005_ADM2_61217", "ADM0_ISO3": "SYC", "ADM0_NAME": "Seychelles", "ADM0_CODE": 220, "ADM1_NAME": "Aride", "ADM1_CODE": 61141, "ADM2_NAME": "Administrative unit not available", "ADM2_CODE": 61217, "GEOSET": "GAUL", "GEOSET_YEAR": 2005.0, "GEOSET_VERSION": "GAUL_v1", "GEOSET_UNIT": "ADM2", "CENTROID_LONG": 55.667378466666655, "CENTROID_LAT": -4.2114843666666664 }, "geometry": { "type": "MultiPolygon", "coordinates": [ [ [ [ 55.6643102, -4.210043 ], [ 55.6701878, -4.2099386 ], [ 55.6676374, -4.2144715 ], [ 55.6643102, -4.210043 ] ] ] ] } },
{ "type": "Feature", "properties": { "POLYGON_ID": "SYC_GAUL2005_ADM2_61218", "ADM0_ISO3": "SYC", "ADM0_NAME": "Seychelles", "ADM0_CODE": 220, "ADM1_NAME": "Assumption", "ADM1_CODE": 61142, "ADM2_NAME": "Administrative unit not available", "ADM2_CODE": 61218, "GEOSET": "GAUL", "GEOSET_YEAR": 2005.0, "GEOSET_VERSION": "GAUL_v1", "GEOSET_UNIT": "ADM2", "CENTROID_LONG": 46.515837979077922, "CENTROID_LAT": -9.727523675849346 }, "geometry": { "type": "MultiPolygon", "coordinates": [ [ [ [ 46.5099758, -9.7532165 ], [ 46.504715, -9.7319871 ], [ 46.522507, -9.7004281 ], [ 46.5261119, -9.7256389 ], [ 46.5099758, -9.7532165 ] ] ] ] } },
{ "type": "Feature", "properties": { "POLYGON_ID": "SYC_GAUL2005_ADM2_61219", "ADM0_ISO3": "SYC", "ADM0_NAME": "Seychelles", "ADM0_CODE": 220, "ADM1_NAME": "Astove", "ADM1_CODE": 61143, "ADM2_NAME": "Administrative unit not available", "ADM2_CODE": 61219, "GEOSET": "GAUL", "GEOSET_YEAR": 2005.0, "GEOSET_VERSION": "GAUL_v1", "GEOSET_UNIT": "ADM2", "CENTROID_LONG": 47.734069766666671, "CENTROID_LAT": -10.083474366666666 }, "geometry": { "type": "MultiPolygon", "coordinates": [ [ [ [ 47.751992, -10.0616775 ], [ 47.7306123, -10.0969573 ], [ 47.719605, -10.0917883 ], [ 47.751992, -10.0616775 ] ] ] ] } },
{ "type": "Feature", "properties": { "POLYGON_ID": "SYC_GAUL2005_ADM2_61220", "ADM0_ISO3": "SYC", "ADM0_NAME": "Seychelles", "ADM0_CODE": 220, "ADM1_NAME": "Au Cap", "ADM1_CODE": 61144, "ADM2_NAME": "Administrative unit not available", "ADM2_CODE": 61220, "GEOSET": "GAUL", "GEOSET_YEAR": 2005.0, "GEOSET_VERSION": "GAUL_v1", "GEOSET_UNIT": "ADM2", "CENTROID_LONG": 55.514067031450935, "CENTROID_LAT": -4.7081953715912483 }, "geometry": { "type": "MultiPolygon", "coordinates": [ [ [ [ 55.5234865, -4.6959095 ], [ 55.5263748, -4.7345954 ], [ 55.5053177, -4.7162127 ], [ 55.49897, -4.6906028 ], [ 55.5028534, -4.6882782 ], [ 55.5234865, -4.6959095 ] ] ] ] } },
{ "type": "Feature", "properties": { "POLYGON_ID": "SYC_GAUL2005_ADM2_61221", "ADM0_ISO3": "SYC", "ADM0_NAME": "Seychelles", "ADM0_CODE": 220, "ADM1_NAME": "Baie Lazare", "ADM1_CODE": 61145, "ADM2_NAME": "Administrative unit not available", "ADM2_CODE": 61221, "GEOSET": "GAUL", "GEOSET_YEAR": 2005.0, "GEOSET_VERSION": "GAUL_v1", "GEOSET_UNIT": "ADM2", "CENTROID_LONG": 55.495727284530162, "CENTROID_LAT": -4.7518605772686282 }, "geometry": { "type": "MultiPolygon", "coordinates": [ [ [ [ 55.5022621, -4.7373748 ], [ 55.5090179, -4.7611933 ], [ 55.4824832, -4.7667926 ], [ 55.4910459, -4.7344894 ], [ 55.5022621, -4.7373748 ] ] ] ] } },
{ "type": "Feature", "properties": { "POLYGON_ID": "SYC_GAUL2005_ADM2_61222", "ADM0_ISO3": "SYC", "ADM0_NAME": "Seychelles", "ADM0_CODE": 220, "ADM1_NAME": "Beau Vallon", "ADM1_CODE": 61146, "ADM2_NAME": "Administrative unit not available", "ADM2_CODE": 61222, "GEOSET": "GAUL", "GEOSET_YEAR": 2005.0, "GEOSET_VERSION": "GAUL_v1", "GEOSET_UNIT": "ADM2", "CENTROID_LONG": 55.435110057451098, "CENTROID_LAT": -4.6085588335293908 }, "geometry": { "type": "MultiPolygon", "coordinates": [ [ [ [ 55.4411392, -4.5924067 ], [ 55.447506, -4.6076651 ], [ 55.4387665, -4.6184554 ], [ 55.4318542, -4.626771 ], [ 55.4308472, -4.626873 ], [ 55.4233162, -4.6155087 ], [ 55.4320746, -4.5935301 ], [ 55.4411392, -4.5924067 ] ] ] ] } },
{ "type": "Feature", "properties": { "POLYGON_ID": "SYC_GAUL2005_ADM2_61223", "ADM0_ISO3": "SYC", "ADM0_NAME": "Seychelles", "ADM0_CODE": 220, "ADM1_NAME": "Bel Air", "ADM1_CODE": 61147, "ADM2_NAME": "Administrative unit not available", "ADM2_CODE": 61223, "GEOSET": "GAUL", "GEOSET_YEAR": 2005.0, "GEOSET_VERSION": "GAUL_v1", "GEOSET_UNIT": "ADM2", "CENTROID_LONG": 55.451437794976194, "CENTROID_LAT": -4.6362960872353627 }, "geometry": { "type": "MultiPolygon", "coordinates": [ [ [ [ 55.4557387, -4.6238208 ], [ 55.4648218, -4.6309086 ], [ 55.4571152, -4.6425438 ], [ 55.4505043, -4.6555777 ], [ 55.4384117, -4.6295128 ], [ 55.4557387, -4.6238208 ] ] ] ] } },
{ "type": "Feature", "properties": { "POLYGON_ID": "SYC_GAUL2005_ADM2_61224", "ADM0_ISO3": "SYC", "ADM0_NAME": "Seychelles", "ADM0_CODE": 220, "ADM1_NAME": "Belombre", "ADM1_CODE": 61148, "ADM2_NAME": "Administrative unit not available", "ADM2_CODE": 61224, "GEOSET": "GAUL", "GEOSET_YEAR": 2005.0, "GEOSET_VERSION": "GAUL_v1", "GEOSET_UNIT": "ADM2", "CENTROID_LONG": 55.4132547, "CENTROID_LAT": -4.6228690333333331 }, "geometry": { "type": "MultiPolygon", "coordinates": [ [ [ [ 55.4233162, -4.6155087 ], [ 55.4308472, -4.626873 ], [ 55.3856007, -4.6262254 ], [ 55.4233162, -4.6155087 ] ] ] ] } },
{ "type": "Feature", "properties": { "POLYGON_ID": "SYC_GAUL2005_ADM2_61225", "ADM0_ISO3": "SYC", "ADM0_NAME": "Seychelles", "ADM0_CODE": 220, "ADM1_NAME": "Bijoutier", "ADM1_CODE": 61149, "ADM2_NAME": "Administrative unit not available", "ADM2_CODE": 61225, "GEOSET": "GAUL", "GEOSET_YEAR": 2005.0, "GEOSET_VERSION": "GAUL_v1", "GEOSET_UNIT": "ADM2", "CENTROID_LONG": 52.73494312326546, "CENTROID_LAT": -7.0679831436873588 }, "geometry": { "type": "MultiPolygon", "coordinates": [ [ [ [ 52.7353717, -7.0690643 ], [ 52.7342589, -7.06819 ], [ 52.7343955, -7.0667991 ], [ 52.7357593, -7.0679958 ], [ 52.7353717, -7.0690643 ] ] ] ] } },
{ "type": "Feature", "properties": { "POLYGON_ID": "SYC_GAUL2005_ADM2_61226", "ADM0_ISO3": "SYC", "ADM0_NAME": "Seychelles", "ADM0_CODE": 220, "ADM1_NAME": "Bird", "ADM1_CODE": 61150, "ADM2_NAME": "Administrative unit not available", "ADM2_CODE": 61226, "GEOSET": "GAUL", "GEOSET_YEAR": 2005.0, "GEOSET_VERSION": "GAUL_v1", "GEOSET_UNIT": "ADM2", "CENTROID_LONG": 55.206089666666664, "CENTROID_LAT": -3.7200748666666668 }, "geometry": { "type": "MultiPolygon", "coordinates": [ [ [ [ 55.2051268, -3.726426 ], [ 55.2023919, -3.7142029 ], [ 55.2107503, -3.7195957 ], [ 55.2051268, -3.726426 ] ] ] ] } },
{ "type": "Feature", "properties": { "POLYGON_ID": "SYC_GAUL2005_ADM2_61229", "ADM0_ISO3": "SYC", "ADM0_NAME": "Seychelles", "ADM0_CODE": 220, "ADM1_NAME": "Cascade", "ADM1_CODE": 61153, "ADM2_NAME": "Administrative unit not available", "ADM2_CODE": 61229, "GEOSET": "GAUL", "GEOSET_YEAR": 2005.0, "GEOSET_VERSION": "GAUL_v1", "GEOSET_UNIT": "ADM2", "CENTROID_LONG": 55.491619501121072, "CENTROID_LAT": -4.6715969409115052 }, "geometry": { "type": "MultiPolygon", "coordinates": [ [ [ [ 55.4851986, -4.6558191 ], [ 55.4951612, -4.662063 ], [ 55.5107584, -4.6657124 ], [ 55.5060234, -4.6846128 ], [ 55.5028534, -4.6882782 ], [ 55.49897, -4.6906028 ], [ 55.4834061, -4.6829357 ], [ 55.470787, -4.6574345 ], [ 55.4800715, -4.6533498 ], [ 55.4851986, -4.6558191 ] ] ] ] } },
{ "type": "Feature", "properties": { "POLYGON_ID": "SYC_GAUL2005_ADM2_61230", "ADM0_ISO3": "SYC", "ADM0_NAME": "Seychelles", "ADM0_CODE": 220, "ADM1_NAME": "Cerf Island", "ADM1_CODE": 61154, "ADM2_NAME": "Administrative unit not available", "ADM2_CODE": 61230, "GEOSET": "GAUL", "GEOSET_YEAR": 2005.0, "GEOSET_VERSION": "GAUL_v1", "GEOSET_UNIT": "ADM2", "CENTROID_LONG": 55.50039493333334, "CENTROID_LAT": -4.6344625 }, "geometry": { "type": "MultiPolygon", "coordinates": [ [ [ [ 55.497734, -4.6289442 ], [ 55.5058453, -4.6359426 ], [ 55.4976055, -4.6385007 ], [ 55.497734, -4.6289442 ] ] ] ] } },
{ "type": "Feature", "properties": { "POLYGON_ID": "SYC_GAUL2005_ADM2_61231", "ADM0_ISO3": "SYC", "ADM0_NAME": "Seychelles", "ADM0_CODE": 220, "ADM1_NAME": "Conception", "ADM1_CODE": 61155, "ADM2_NAME": "Administrative unit not available", "ADM2_CODE": 61231, "GEOSET": "GAUL", "GEOSET_YEAR": 2005.0, "GEOSET_VERSION": "GAUL_v1", "GEOSET_UNIT": "ADM2", "CENTROID_LONG": 55.3683818, "CENTROID_LAT": -4.6646537 }, "geometry": { "type": "MultiPolygon", "coordinates": [ [ [ [ 55.3735316, -4.6665357 ], [ 55.3635753, -4.6655092 ], [ 55.3680385, -4.6619162 ], [ 55.3735316, -4.6665357 ] ] ] ] } },
{ "type": "Feature", "properties": { "POLYGON_ID": "SYC_GAUL2005_ADM2_61232", "ADM0_ISO3": "SYC", "ADM0_NAME": "Seychelles", "ADM0_CODE": 220, "ADM1_NAME": "Cosmoledo", "ADM1_CODE": 61156, "ADM2_NAME": "Administrative unit not available", "ADM2_CODE": 61232, "GEOSET": "GAUL", "GEOSET_YEAR": 2005.0, "GEOSET_VERSION": "GAUL_v1", "GEOSET_UNIT": "ADM2", "CENTROID_LONG": 47.607590966666663, "CENTROID_LAT": -9.6813517 }, "geometry": { "type": "MultiPolygon", "coordinates": [ [ [ [ 47.5783352, -9.6571517 ], [ 47.6321026, -9.6844328 ], [ 47.6123351, -9.7024706 ], [ 47.5783352, -9.6571517 ] ] ] ] } },
{ "type": "Feature", "properties": { "POLYGON_ID": "SYC_GAUL2005_ADM2_61233", "ADM0_ISO3": "SYC", "ADM0_NAME": "Seychelles", "ADM0_CODE": 220, "ADM1_NAME": "Cousin", "ADM1_CODE": 61157, "ADM2_NAME": "Administrative unit not available", "ADM2_CODE": 61233, "GEOSET": "GAUL", "GEOSET_YEAR": 2005.0, "GEOSET_VERSION": "GAUL_v1", "GEOSET_UNIT": "ADM2", "CENTROID_LONG": 55.6624527, "CENTROID_LAT": -4.3313061333333325 }, "geometry": { "type": "MultiPolygon", "coordinates": [ [ [ [ 55.664986, -4.3280828 ], [ 55.6628242, -4.3347408 ], [ 55.6595479, -4.3310948 ], [ 55.664986, -4.3280828 ] ] ] ] } },
{ "type": "Feature", "properties": { "POLYGON_ID": "SYC_GAUL2005_ADM2_61234", "ADM0_ISO3": "SYC", "ADM0_NAME": "Seychelles", "ADM0_CODE": 220, "ADM1_NAME": "Cousine", "ADM1_CODE": 61158, "ADM2_NAME": "Administrative unit not available", "ADM2_CODE": 61234, "GEOSET": "GAUL", "GEOSET_YEAR": 2005.0, "GEOSET_VERSION": "GAUL_v1", "GEOSET_UNIT": "ADM2", "CENTROID_LONG": 55.647314166666661, "CENTROID_LAT": -4.3493007666666657 }, "geometry": { "type": "MultiPolygon", "coordinates": [ [ [ [ 55.6497233, -4.3516091 ], [ 55.6446955, -4.3492494 ], [ 55.6475237, -4.3470438 ], [ 55.6497233, -4.3516091 ] ] ] ] } },
{ "type": "Feature", "properties": { "POLYGON_ID": "SYC_GAUL2005_ADM2_61235", "ADM0_ISO3": "SYC", "ADM0_NAME": "Seychelles", "ADM0_CODE": 220, "ADM1_NAME": "Curieuse", "ADM1_CODE": 61159, "ADM2_NAME": "Administrative unit not available", "ADM2_CODE": 61235, "GEOSET": "GAUL", "GEOSET_YEAR": 2005.0, "GEOSET_VERSION": "GAUL_v1", "GEOSET_UNIT": "ADM2", "CENTROID_LONG": 55.726093066666678, "CENTROID_LAT": -4.2825475 }, "geometry": { "type": "MultiPolygon", "coordinates": [ [ [ [ 55.7192352, -4.2767216 ], [ 55.739929, -4.2825247 ], [ 55.719115, -4.2883962 ], [ 55.7192352, -4.2767216 ] ] ] ] } },
{ "type": "Feature", "properties": { "POLYGON_ID": "SYC_GAUL2005_ADM2_61236", "ADM0_ISO3": "SYC", "ADM0_NAME": "Seychelles", "ADM0_CODE": 220, "ADM1_NAME": "Darros", "ADM1_CODE": 61160, "ADM2_NAME": "Administrative unit not available", "ADM2_CODE": 61236, "GEOSET": "GAUL", "GEOSET_YEAR": 2005.0, "GEOSET_VERSION": "GAUL_v1", "GEOSET_UNIT": "ADM2", "CENTROID_LONG": 53.298191168417326, "CENTROID_LAT": -5.4158925487865188 }, "geometry": { "type": "MultiPolygon", "coordinates": [ [ [ [ 53.3020189, -5.4097552 ], [ 53.3053988, -5.4171585 ], [ 53.2931394, -5.4214499 ], [ 53.2911349, -5.4155233 ], [ 53.3020189, -5.4097552 ] ] ] ] } },
{ "type": "Feature", "properties": { "POLYGON_ID": "SYC_GAUL2005_ADM2_61237", "ADM0_ISO3": "SYC", "ADM0_NAME": "Seychelles", "ADM0_CODE": 220, "ADM1_NAME": "Denis", "ADM1_CODE": 61161, "ADM2_NAME": "Administrative unit not available", "ADM2_CODE": 61237, "GEOSET": "GAUL", "GEOSET_YEAR": 2005.0, "GEOSET_VERSION": "GAUL_v1", "GEOSET_UNIT": "ADM2", "CENTROID_LONG": 55.6661175, "CENTROID_LAT": -3.8050343666666668 }, "geometry": { "type": "MultiPolygon", "coordinates": [ [ [ [ 55.6662701, -3.8141243 ], [ 55.6608542, -3.8005466 ], [ 55.6712282, -3.8004322 ], [ 55.6662701, -3.8141243 ] ] ] ] } },
{ "type": "Feature", "properties": { "POLYGON_ID": "SYC_GAUL2005_ADM2_61238", "ADM0_ISO3": "SYC", "ADM0_NAME": "Seychelles", "ADM0_CODE": 220, "ADM1_NAME": "Desnoeufs", "ADM1_CODE": 61162, "ADM2_NAME": "Administrative unit not available", "ADM2_CODE": 61238, "GEOSET": "GAUL", "GEOSET_YEAR": 2005.0, "GEOSET_VERSION": "GAUL_v1", "GEOSET_UNIT": "ADM2", "CENTROID_LONG": 53.043376827758415, "CENTROID_LAT": -6.2344313134837863 }, "geometry": { "type": "MultiPolygon", "coordinates": [ [ [ [ 53.0439823, -6.2374659 ], [ 53.0399621, -6.235535 ], [ 53.0430789, -6.2314487 ], [ 53.0466023, -6.2330653 ], [ 53.0439823, -6.2374659 ] ] ] ] } },
{ "type": "Feature", "properties": { "POLYGON_ID": "SYC_GAUL2005_ADM2_61239", "ADM0_ISO3": "SYC", "ADM0_NAME": "Seychelles", "ADM0_CODE": 220, "ADM1_NAME": "Desroches", "ADM1_CODE": 61163, "ADM2_NAME": "Administrative unit not available", "ADM2_CODE": 61239, "GEOSET": "GAUL", "GEOSET_YEAR": 2005.0, "GEOSET_VERSION": "GAUL_v1", "GEOSET_UNIT": "ADM2", "CENTROID_LONG": 53.668417001727313, "CENTROID_LAT": -5.6902590118750993 }, "geometry": { "type": "MultiPolygon", "coordinates": [ [ [ [ 53.6788141, -5.6876554 ], [ 53.6680488, -5.6916564 ], [ 53.6626013, -5.6994001 ], [ 53.6520954, -5.7021749 ], [ 53.6500201, -5.6941086 ], [ 53.6684379, -5.6882362 ], [ 53.6858829, -5.675975 ], [ 53.6876987, -5.6858485 ], [ 53.6788141, -5.6876554 ] ] ] ] } },
{ "type": "Feature", "properties": { "POLYGON_ID": "SYC_GAUL2005_ADM2_61240", "ADM0_ISO3": "SYC", "ADM0_NAME": "Seychelles", "ADM0_CODE": 220, "ADM1_NAME": "English River", "ADM1_CODE": 61164, "ADM2_NAME": "Administrative unit not available", "ADM2_CODE": 61240, "GEOSET": "GAUL", "GEOSET_YEAR": 2005.0, "GEOSET_VERSION": "GAUL_v1", "GEOSET_UNIT": "ADM2", "CENTROID_LONG": 55.453866934588142, "CENTROID_LAT": -4.6124307183853892 }, "geometry": { "type": "MultiPolygon", "coordinates": [ [ [ [ 55.460369, -4.6055033 ], [ 55.4564905, -4.6200284 ], [ 55.4506531, -4.6198955 ], [ 55.447506, -4.6076651 ], [ 55.460369, -4.6055033 ] ] ] ] } },
{ "type": "Feature", "properties": { "POLYGON_ID": "SYC_GAUL2005_ADM2_61241", "ADM0_ISO3": "SYC", "ADM0_NAME": "Seychelles", "ADM0_CODE": 220, "ADM1_NAME": "Farquhar", "ADM1_CODE": 61165, "ADM2_NAME": "Administrative unit not available", "ADM2_CODE": 61241, "GEOSET": "GAUL", "GEOSET_YEAR": 2005.0, "GEOSET_VERSION": "GAUL_v1", "GEOSET_UNIT": "ADM2", "CENTROID_LONG": 51.170925536717945, "CENTROID_LAT": -10.113202393102529 }, "geometry": { "type": "MultiPolygon", "coordinates": [ [ [ [ 51.1738089, -10.1064935 ], [ 51.1777069, -10.1153213 ], [ 51.1662422, -10.1188753 ], [ 51.1645225, -10.1124551 ], [ 51.1738089, -10.1064935 ] ] ] ] } },
{ "type": "Feature", "properties": { "POLYGON_ID": "SYC_GAUL2005_ADM2_61242", "ADM0_ISO3": "SYC", "ADM0_NAME": "Seychelles", "ADM0_CODE": 220, "ADM1_NAME": "Felicite", "ADM1_CODE": 61166, "ADM2_NAME": "Administrative unit not available", "ADM2_CODE": 61242, "GEOSET": "GAUL", "GEOSET_YEAR": 2005.0, "GEOSET_VERSION": "GAUL_v1", "GEOSET_UNIT": "ADM2", "CENTROID_LONG": 55.8744688, "CENTROID_LAT": -4.325249433333334 }, "geometry": { "type": "MultiPolygon", "coordinates": [ [ [ [ 55.8719854, -4.316745 ], [ 55.8819418, -4.3278541 ], [ 55.8694792, -4.3311492 ], [ 55.8719854, -4.316745 ] ] ] ] } },
{ "type": "Feature", "properties": { "POLYGON_ID": "SYC_GAUL2005_ADM2_61243", "ADM0_ISO3": "SYC", "ADM0_NAME": "Seychelles", "ADM0_CODE": 220, "ADM1_NAME": "Fregate", "ADM1_CODE": 61167, "ADM2_NAME": "Administrative unit not available", "ADM2_CODE": 61243, "GEOSET": "GAUL", "GEOSET_YEAR": 2005.0, "GEOSET_VERSION": "GAUL_v1", "GEOSET_UNIT": "ADM2", "CENTROID_LONG": 55.940520853848817, "CENTROID_LAT": -4.5848148247535283 }, "geometry": { "type": "MultiPolygon", "coordinates": [ [ [ [ 55.941294, -4.5783078 ], [ 55.9493883, -4.5867725 ], [ 55.9377608, -4.590795 ], [ 55.9326013, -4.5832816 ], [ 55.941294, -4.5783078 ] ] ] ] } },
{ "type": "Feature", "properties": { "POLYGON_ID": "SYC_GAUL2005_ADM2_61244", "ADM0_ISO3": "SYC", "ADM0_NAME": "Seychelles", "ADM0_CODE": 220, "ADM1_NAME": "Glacis", "ADM1_CODE": 61168, "ADM2_NAME": "Administrative unit not available", "ADM2_CODE": 61244, "GEOSET": "GAUL", "GEOSET_YEAR": 2005.0, "GEOSET_VERSION": "GAUL_v1", "GEOSET_UNIT": "ADM2", "CENTROID_LONG": 55.446001766666662, "CENTROID_LAT": -4.5884988666666668 }, "geometry": { "type": "MultiPolygon", "coordinates": [ [ [ [ 55.4647915, -4.5795598 ], [ 55.4411392, -4.5924067 ], [ 55.4320746, -4.5935301 ], [ 55.4647915, -4.5795598 ] ] ] ] } },
{ "type": "Feature", "properties": { "POLYGON_ID": "SYC_GAUL2005_ADM2_61245", "ADM0_ISO3": "SYC", "ADM0_NAME": "Seychelles", "ADM0_CODE": 220, "ADM1_NAME": "Grand Anse Mahe", "ADM1_CODE": 61169, "ADM2_NAME": "Administrative unit not available", "ADM2_CODE": 61245, "GEOSET": "GAUL", "GEOSET_YEAR": 2005.0, "GEOSET_VERSION": "GAUL_v1", "GEOSET_UNIT": "ADM2", "CENTROID_LONG": 55.464597638962324, "CENTROID_LAT": -4.6768154535021926 }, "geometry": { "type": "MultiPolygon", "coordinates": [ [ [ [ 55.4672699, -4.6578298 ], [ 55.470787, -4.6574345 ], [ 55.4834061, -4.6829357 ], [ 55.4755453, -4.7041054 ], [ 55.4441922, -4.6768151 ], [ 55.4505043, -4.6555777 ], [ 55.4672699, -4.6578298 ] ] ] ] } },
{ "type": "Feature", "properties": { "POLYGON_ID": "SYC_GAUL2005_ADM2_61246", "ADM0_ISO3": "SYC", "ADM0_NAME": "Seychelles", "ADM0_CODE": 220, "ADM1_NAME": "Grande Soeur", "ADM1_CODE": 61170, "ADM2_NAME": "Administrative unit not available", "ADM2_CODE": 61246, "GEOSET": "GAUL", "GEOSET_YEAR": 2005.0, "GEOSET_VERSION": "GAUL_v1", "GEOSET_UNIT": "ADM2", "CENTROID_LONG": 55.868525633333334, "CENTROID_LAT": -4.2871399 }, "geometry": { "type": "MultiPolygon", "coordinates": [ [ [ [ 55.8675286, -4.2824669 ], [ 55.8720882, -4.2887652 ], [ 55.8659601, -4.2901876 ], [ 55.8675286, -4.2824669 ] ] ] ] } },
{ "type": "Feature", "properties": { "POLYGON_ID": "SYC_GAUL2005_ADM2_61250", "ADM0_ISO3": "SYC", "ADM0_NAME": "Seychelles", "ADM0_CODE": 220, "ADM1_NAME": "Ile du Sud", "ADM1_CODE": 61174, "ADM2_NAME": "Administrative unit not available", "ADM2_CODE": 61250, "GEOSET": "GAUL", "GEOSET_YEAR": 2005.0, "GEOSET_VERSION": "GAUL_v1", "GEOSET_UNIT": "ADM2", "CENTROID_LONG": 53.307717733333334, "CENTROID_LAT": -5.7721247 }, "geometry": { "type": "MultiPolygon", "coordinates": [ [ [ [ 53.3125201, -5.769453 ], [ 53.307275, -5.7785333 ], [ 53.3033581, -5.7683878 ], [ 53.3125201, -5.769453 ] ] ] ] } },
{ "type": "Feature", "properties": { "POLYGON_ID": "SYC_GAUL2005_ADM2_61254", "ADM0_ISO3": "SYC", "ADM0_NAME": "Seychelles", "ADM0_CODE": 220, "ADM1_NAME": "La Digue", "ADM1_CODE": 61178, "ADM2_NAME": "Administrative unit not available", "ADM2_CODE": 61254, "GEOSET": "GAUL", "GEOSET_YEAR": 2005.0, "GEOSET_VERSION": "GAUL_v1", "GEOSET_UNIT": "ADM2", "CENTROID_LONG": 55.837192542492147, "CENTROID_LAT": -4.3595583460728706 }, "geometry": { "type": "MultiPolygon", "coordinates": [ [ [ [ 55.8335992, -4.3377147 ], [ 55.8546551, -4.3616307 ], [ 55.8315463, -4.3790505 ], [ 55.8241509, -4.3626662 ], [ 55.8335992, -4.3377147 ] ] ] ] } },
{ "type": "Feature", "properties": { "POLYGON_ID": "SYC_GAUL2005_ADM2_61255", "ADM0_ISO3": "SYC", "ADM0_NAME": "Seychelles", "ADM0_CODE": 220, "ADM1_NAME": "Les Mamelles", "ADM1_CODE": 61179, "ADM2_NAME": "Administrative unit not available", "ADM2_CODE": 61255, "GEOSET": "GAUL", "GEOSET_YEAR": 2005.0, "GEOSET_VERSION": "GAUL_v1", "GEOSET_UNIT": "ADM2", "CENTROID_LONG": 55.470924743192782, "CENTROID_LAT": -4.650638904893369 }, "geometry": { "type": "MultiPolygon", "coordinates": [ [ [ [ 55.4699321, -4.6443582 ], [ 55.4800715, -4.6533498 ], [ 55.470787, -4.6574345 ], [ 55.4672699, -4.6578298 ], [ 55.4652519, -4.6396685 ], [ 55.4699321, -4.6443582 ] ] ] ] } },
{ "type": "Feature", "properties": { "POLYGON_ID": "SYC_GAUL2005_ADM2_61258", "ADM0_ISO3": "SYC", "ADM0_NAME": "Seychelles", "ADM0_CODE": 220, "ADM1_NAME": "Marie-Louise", "ADM1_CODE": 61182, "ADM2_NAME": "Administrative unit not available", "ADM2_CODE": 61258, "GEOSET": "GAUL", "GEOSET_YEAR": 2005.0, "GEOSET_VERSION": "GAUL_v1", "GEOSET_UNIT": "ADM2", "CENTROID_LONG": 53.144246874358032, "CENTROID_LAT": -6.1788952697986517 }, "geometry": { "type": "MultiPolygon", "coordinates": [ [ [ [ 53.1445397, -6.1846386 ], [ 53.14099, -6.176515 ], [ 53.1455443, -6.174584 ], [ 53.1467834, -6.1798111 ], [ 53.1445397, -6.1846386 ] ] ] ] } },
{ "type": "Feature", "properties": { "POLYGON_ID": "SYC_GAUL2005_ADM2_61259", "ADM0_ISO3": "SYC", "ADM0_NAME": "Seychelles", "ADM0_CODE": 220, "ADM1_NAME": "Mont Buxton", "ADM1_CODE": 61183, "ADM2_NAME": "Administrative unit not available", "ADM2_CODE": 61259, "GEOSET": "GAUL", "GEOSET_YEAR": 2005.0, "GEOSET_VERSION": "GAUL_v1", "GEOSET_UNIT": "ADM2", "CENTROID_LONG": 55.445641866666669, "CENTROID_LAT": -4.6153386666666671 }, "geometry": { "type": "MultiPolygon", "coordinates": [ [ [ [ 55.4506531, -4.6198955 ], [ 55.4387665, -4.6184554 ], [ 55.447506, -4.6076651 ], [ 55.4506531, -4.6198955 ] ] ] ] } },
{ "type": "Feature", "properties": { "POLYGON_ID": "SYC_GAUL2005_ADM2_61260", "ADM0_ISO3": "SYC", "ADM0_NAME": "Seychelles", "ADM0_CODE": 220, "ADM1_NAME": "Mont Fleuri", "ADM1_CODE": 61184, "ADM2_NAME": "Administrative unit not available", "ADM2_CODE": 61260, "GEOSET": "GAUL", "GEOSET_YEAR": 2005.0, "GEOSET_VERSION": "GAUL_v1", "GEOSET_UNIT": "ADM2", "CENTROID_LONG": 55.46220863333334, "CENTROID_LAT": -4.6350347 }, "geometry": { "type": "MultiPolygon", "coordinates": [ [ [ [ 55.4648218, -4.6309086 ], [ 55.4646889, -4.6316517 ], [ 55.4571152, -4.6425438 ], [ 55.4648218, -4.6309086 ] ] ] ] } },
{ "type": "Feature", "properties": { "POLYGON_ID": "SYC_GAUL2005_ADM2_61262", "ADM0_ISO3": "SYC", "ADM0_NAME": "Seychelles", "ADM0_CODE": 220, "ADM1_NAME": "North Island", "ADM1_CODE": 61186, "ADM2_NAME": "Administrative unit not available", "ADM2_CODE": 61262, "GEOSET": "GAUL", "GEOSET_YEAR": 2005.0, "GEOSET_VERSION": "GAUL_v1", "GEOSET_UNIT": "ADM2", "CENTROID_LONG": 55.243712802256269, "CENTROID_LAT": -4.3927690866068385 }, "geometry": { "type": "MultiPolygon", "coordinates": [ [ [ [ 55.2405434, -4.3828783 ], [ 55.2502305, -4.3940738 ], [ 55.2441986, -4.4015176 ], [ 55.238842, -4.3935913 ], [ 55.2405434, -4.3828783 ] ] ] ] } },
{ "type": "Feature", "properties": { "POLYGON_ID": "SYC_GAUL2005_ADM2_61263", "ADM0_ISO3": "SYC", "ADM0_NAME": "Seychelles", "ADM0_CODE": 220, "ADM1_NAME": "Petite Soeur", "ADM1_CODE": 61187, "ADM2_NAME": "Administrative unit not available", "ADM2_CODE": 61263, "GEOSET": "GAUL", "GEOSET_YEAR": 2005.0, "GEOSET_VERSION": "GAUL_v1", "GEOSET_UNIT": "ADM2", "CENTROID_LONG": 55.8561495, "CENTROID_LAT": -4.2877086 }, "geometry": { "type": "MultiPolygon", "coordinates": [ [ [ [ 55.8542326, -4.2854262 ], [ 55.8586958, -4.2874804 ], [ 55.8555201, -4.2902192 ], [ 55.8542326, -4.2854262 ] ] ] ] } },
{ "type": "Feature", "properties": { "POLYGON_ID": "SYC_GAUL2005_ADM2_61264", "ADM0_ISO3": "SYC", "ADM0_NAME": "Seychelles", "ADM0_CODE": 220, "ADM1_NAME": "Plaisance", "ADM1_CODE": 61188, "ADM2_NAME": "Administrative unit not available", "ADM2_CODE": 61264, "GEOSET": "GAUL", "GEOSET_YEAR": 2005.0, "GEOSET_VERSION": "GAUL_v1", "GEOSET_UNIT": "ADM2", "CENTROID_LONG": 55.460785042947045, "CENTROID_LAT": -4.6475311028439599 }, "geometry": { "type": "MultiPolygon", "coordinates": [ [ [ [ 55.4652519, -4.6396685 ], [ 55.4672699, -4.6578298 ], [ 55.4505043, -4.6555777 ], [ 55.4571152, -4.6425438 ], [ 55.4646889, -4.6316517 ], [ 55.4673389, -4.6324917 ], [ 55.4652519, -4.6396685 ] ] ] ] } },
{ "type": "Feature", "properties": { "POLYGON_ID": "SYC_GAUL2005_ADM2_61265", "ADM0_ISO3": "SYC", "ADM0_NAME": "Seychelles", "ADM0_CODE": 220, "ADM1_NAME": "Platte", "ADM1_CODE": 61189, "ADM2_NAME": "Administrative unit not available", "ADM2_CODE": 61265, "GEOSET": "GAUL", "GEOSET_YEAR": 2005.0, "GEOSET_VERSION": "GAUL_v1", "GEOSET_UNIT": "ADM2", "CENTROID_LONG": 55.3849809, "CENTROID_LAT": -5.8637159333333342 }, "geometry": { "type": "MultiPolygon", "coordinates": [ [ [ [ 55.3850483, -5.8690722 ], [ 55.3822808, -5.8614906 ], [ 55.3876136, -5.860585 ], [ 55.3850483, -5.8690722 ] ] ] ] } },
{ "type": "Feature", "properties": { "POLYGON_ID": "SYC_GAUL2005_ADM2_61266", "ADM0_ISO3": "SYC", "ADM0_NAME": "Seychelles", "ADM0_CODE": 220, "ADM1_NAME": "Pointe Larue", "ADM1_CODE": 61190, "ADM2_NAME": "Administrative unit not available", "ADM2_CODE": 61266, "GEOSET": "GAUL", "GEOSET_YEAR": 2005.0, "GEOSET_VERSION": "GAUL_v1", "GEOSET_UNIT": "ADM2", "CENTROID_LONG": 55.516023021877501, "CENTROID_LAT": -4.6789186650693919 }, "geometry": { "type": "MultiPolygon", "coordinates": [ [ [ [ 55.5316232, -4.6868071 ], [ 55.5291432, -4.6862549 ], [ 55.5290859, -4.6862421 ], [ 55.5060234, -4.6846128 ], [ 55.5107584, -4.6657124 ], [ 55.5316232, -4.6868071 ] ] ] ] } },
{ "type": "Feature", "properties": { "POLYGON_ID": "SYC_GAUL2005_ADM2_61267", "ADM0_ISO3": "SYC", "ADM0_NAME": "Seychelles", "ADM0_CODE": 220, "ADM1_NAME": "Poivre", "ADM1_CODE": 61191, "ADM2_NAME": "Administrative unit not available", "ADM2_CODE": 61267, "GEOSET": "GAUL", "GEOSET_YEAR": 2005.0, "GEOSET_VERSION": "GAUL_v1", "GEOSET_UNIT": "ADM2", "CENTROID_LONG": 53.303607037028627, "CENTROID_LAT": -5.7477823100080485 }, "geometry": { "type": "MultiPolygon", "coordinates": [ [ [ [ 53.3096096, -5.7444946 ], [ 53.3014675, -5.7534541 ], [ 53.2987714, -5.7493767 ], [ 53.3038939, -5.7435289 ], [ 53.3096096, -5.7444946 ] ] ] ] } },
{ "type": "Feature", "properties": { "POLYGON_ID": "SYC_GAUL2005_ADM2_61268", "ADM0_ISO3": "SYC", "ADM0_NAME": "Seychelles", "ADM0_CODE": 220, "ADM1_NAME": "Port Glaud", "ADM1_CODE": 61192, "ADM2_NAME": "Administrative unit not available", "ADM2_CODE": 61268, "GEOSET": "GAUL", "GEOSET_YEAR": 2005.0, "GEOSET_VERSION": "GAUL_v1", "GEOSET_UNIT": "ADM2", "CENTROID_LONG": 55.425598506265054, "CENTROID_LAT": -4.6448997535920951 }, "geometry": { "type": "MultiPolygon", "coordinates": [ [ [ [ 55.3856007, -4.6262254 ], [ 55.4308472, -4.626873 ], [ 55.4318542, -4.626771 ], [ 55.4384117, -4.6295128 ], [ 55.4505043, -4.6555777 ], [ 55.4441922, -4.6768151 ], [ 55.3856007, -4.6262254 ] ] ] ] } },
{ "type": "Feature", "properties": { "POLYGON_ID": "SYC_GAUL2005_ADM2_61269", "ADM0_ISO3": "SYC", "ADM0_NAME": "Seychelles", "ADM0_CODE": 220, "ADM1_NAME": "Praslin", "ADM1_CODE": 61193, "ADM2_NAME": "Administrative unit not available", "ADM2_CODE": 61269, "GEOSET": "GAUL", "GEOSET_YEAR": 2005.0, "GEOSET_VERSION": "GAUL_v1", "GEOSET_UNIT": "ADM2", "CENTROID_LONG": 55.734594525717412, "CENTROID_LAT": -4.3264066674125257 }, "geometry": { "type": "MultiPolygon", "coordinates": [ [ [ [ 55.7001121, -4.2886359 ], [ 55.7628457, -4.3294871 ], [ 55.7548463, -4.3613756 ], [ 55.7163451, -4.3285631 ], [ 55.7001121, -4.2886359 ] ] ] ] } },
{ "type": "Feature", "properties": { "POLYGON_ID": "SYC_GAUL2005_ADM2_61270", "ADM0_ISO3": "SYC", "ADM0_NAME": "Seychelles", "ADM0_CODE": 220, "ADM1_NAME": "Providence", "ADM1_CODE": 61194, "ADM2_NAME": "Administrative unit not available", "ADM2_CODE": 61270, "GEOSET": "GAUL", "GEOSET_YEAR": 2005.0, "GEOSET_VERSION": "GAUL_v1", "GEOSET_UNIT": "ADM2", "CENTROID_LONG": 51.032163366666659, "CENTROID_LAT": -9.2290574 }, "geometry": { "type": "MultiPolygon", "coordinates": [ [ [ [ 51.0339561, -9.2416622 ], [ 51.0281132, -9.2233776 ], [ 51.0344208, -9.2221324 ], [ 51.0339561, -9.2416622 ] ] ] ] } },
{ "type": "Feature", "properties": { "POLYGON_ID": "SYC_GAUL2005_ADM2_61271", "ADM0_ISO3": "SYC", "ADM0_NAME": "Seychelles", "ADM0_CODE": 220, "ADM1_NAME": "Remire", "ADM1_CODE": 61195, "ADM2_NAME": "Administrative unit not available", "ADM2_CODE": 61271, "GEOSET": "GAUL", "GEOSET_YEAR": 2005.0, "GEOSET_VERSION": "GAUL_v1", "GEOSET_UNIT": "ADM2", "CENTROID_LONG": 53.311977212549813, "CENTROID_LAT": -5.1176327430291764 }, "geometry": { "type": "MultiPolygon", "coordinates": [ [ [ [ 53.3124495, -5.1199035 ], [ 53.3097039, -5.118221 ], [ 53.3108159, -5.1151614 ], [ 53.3147388, -5.1175621 ], [ 53.3124495, -5.1199035 ] ] ] ] } },
{ "type": "Feature", "properties": { "POLYGON_ID": "SYC_GAUL2005_ADM2_61272", "ADM0_ISO3": "SYC", "ADM0_NAME": "Seychelles", "ADM0_CODE": 220, "ADM1_NAME": "Roche Caiman", "ADM1_CODE": 61196, "ADM2_NAME": "Administrative unit not available", "ADM2_CODE": 61272, "GEOSET": "GAUL", "GEOSET_YEAR": 2005.0, "GEOSET_VERSION": "GAUL_v1", "GEOSET_UNIT": "ADM2", "CENTROID_LONG": 55.481676332251446, "CENTROID_LAT": -4.6498997087727361 }, "geometry": { "type": "MultiPolygon", "coordinates": [ [ [ [ 55.4951612, -4.662063 ], [ 55.4851986, -4.6558191 ], [ 55.4905307, -4.6520048 ], [ 55.4951612, -4.662063 ] ] ], [ [ [ 55.4699321, -4.6443582 ], [ 55.4652519, -4.6396685 ], [ 55.4673389, -4.6324917 ], [ 55.4699321, -4.6443582 ] ] ] ] } },
{ "type": "Feature", "properties": { "POLYGON_ID": "SYC_GAUL2005_ADM2_61275", "ADM0_ISO3": "SYC", "ADM0_NAME": "Seychelles", "ADM0_CODE": 220, "ADM1_NAME": "Silhouette", "ADM1_CODE": 61199, "ADM2_NAME": "Administrative unit not available", "ADM2_CODE": 61275, "GEOSET": "GAUL", "GEOSET_YEAR": 2005.0, "GEOSET_VERSION": "GAUL_v1", "GEOSET_UNIT": "ADM2", "CENTROID_LONG": 55.229294158874673, "CENTROID_LAT": -4.4868296469568287 }, "geometry": { "type": "MultiPolygon", "coordinates": [ [ [ [ 55.2309724, -4.464706 ], [ 55.2554422, -4.4886531 ], [ 55.2245907, -4.5111148 ], [ 55.2051993, -4.4799943 ], [ 55.2309724, -4.464706 ] ] ] ] } },
{ "type": "Feature", "properties": { "POLYGON_ID": "SYC_GAUL2005_ADM2_61276", "ADM0_ISO3": "SYC", "ADM0_NAME": "Seychelles", "ADM0_CODE": 220, "ADM1_NAME": "St Louis", "ADM1_CODE": 61200, "ADM2_NAME": "Administrative unit not available", "ADM2_CODE": 61276, "GEOSET": "GAUL", "GEOSET_YEAR": 2005.0, "GEOSET_VERSION": "GAUL_v1", "GEOSET_UNIT": "ADM2", "CENTROID_LONG": 55.443682145794575, "CENTROID_LAT": -4.6235801421003853 }, "geometry": { "type": "MultiPolygon", "coordinates": [ [ [ [ 55.4506531, -4.6198955 ], [ 55.4564905, -4.6200284 ], [ 55.4557387, -4.6238208 ], [ 55.4384117, -4.6295128 ], [ 55.4318542, -4.626771 ], [ 55.4387665, -4.6184554 ], [ 55.4506531, -4.6198955 ] ] ] ] } },
{ "type": "Feature", "properties": { "POLYGON_ID": "SYC_GAUL2005_ADM2_61277", "ADM0_ISO3": "SYC", "ADM0_NAME": "Seychelles", "ADM0_CODE": 220, "ADM1_NAME": "St. Francois", "ADM1_CODE": 61201, "ADM2_NAME": "Administrative unit not available", "ADM2_CODE": 61277, "GEOSET": "GAUL", "GEOSET_YEAR": 2005.0, "GEOSET_VERSION": "GAUL_v1", "GEOSET_UNIT": "ADM2", "CENTROID_LONG": 52.737607777763728, "CENTROID_LAT": -7.1580957197892134 }, "geometry": { "type": "MultiPolygon", "coordinates": [ [ [ [ 52.7366126, -7.1561039 ], [ 52.7403538, -7.1581234 ], [ 52.7387449, -7.159989 ], [ 52.734868, -7.158258 ], [ 52.7366126, -7.1561039 ] ] ] ] } },
{ "type": "Feature", "properties": { "POLYGON_ID": "SYC_GAUL2005_ADM2_61278", "ADM0_ISO3": "SYC", "ADM0_NAME": "Seychelles", "ADM0_CODE": 220, "ADM1_NAME": "St. Joseph Atoll", "ADM1_CODE": 61202, "ADM2_NAME": "Administrative unit not available", "ADM2_CODE": 61278, "GEOSET": "GAUL", "GEOSET_YEAR": 2005.0, "GEOSET_VERSION": "GAUL_v1", "GEOSET_UNIT": "ADM2", "CENTROID_LONG": 53.362303879707447, "CENTROID_LAT": -5.4385562367970568 }, "geometry": { "type": "MultiPolygon", "coordinates": [ [ [ [ 53.3647728, -5.4401311 ], [ 53.3602103, -5.4434313 ], [ 53.3605556, -5.4352336 ], [ 53.3640835, -5.4346089 ], [ 53.3647728, -5.4401311 ] ] ] ] } },
{ "type": "Feature", "properties": { "POLYGON_ID": "SYC_GAUL2005_ADM2_61279", "ADM0_ISO3": "SYC", "ADM0_NAME": "Seychelles", "ADM0_CODE": 220, "ADM1_NAME": "St. Pierre", "ADM1_CODE": 61203, "ADM2_NAME": "Administrative unit not available", "ADM2_CODE": 61279, "GEOSET": "GAUL", "GEOSET_YEAR": 2005.0, "GEOSET_VERSION": "GAUL_v1", "GEOSET_UNIT": "ADM2", "CENTROID_LONG": 50.727792379634529, "CENTROID_LAT": -9.3325781516483719 }, "geometry": { "type": "MultiPolygon", "coordinates": [ [ [ [ 50.7288642, -9.3375423 ], [ 50.7215025, -9.335538 ], [ 50.7251641, -9.3263263 ], [ 50.7356092, -9.3325317 ], [ 50.7288642, -9.3375423 ] ] ] ] } },
{ "type": "Feature", "properties": { "POLYGON_ID": "SYC_GAUL2005_ADM2_61280", "ADM0_ISO3": "SYC", "ADM0_NAME": "Seychelles", "ADM0_CODE": 220, "ADM1_NAME": "Ste Anne", "ADM1_CODE": 61204, "ADM2_NAME": "Administrative unit not available", "ADM2_CODE": 61280, "GEOSET": "GAUL", "GEOSET_YEAR": 2005.0, "GEOSET_VERSION": "GAUL_v1", "GEOSET_UNIT": "ADM2", "CENTROID_LONG": 55.504427386761222, "CENTROID_LAT": -4.6054571293243667 }, "geometry": { "type": "MultiPolygon", "coordinates": [ [ [ [ 55.4996343, -4.6137607 ], [ 55.5005875, -4.5991735 ], [ 55.5106891, -4.5996354 ], [ 55.5075992, -4.6104152 ], [ 55.4996343, -4.6137607 ] ] ] ] } },
{ "type": "Feature", "properties": { "POLYGON_ID": "SYC_GAUL2005_ADM2_61281", "ADM0_ISO3": "SYC", "ADM0_NAME": "Seychelles", "ADM0_CODE": 220, "ADM1_NAME": "Takamaka", "ADM1_CODE": 61205, "ADM2_NAME": "Administrative unit not available", "ADM2_CODE": 61281, "GEOSET": "GAUL", "GEOSET_YEAR": 2005.0, "GEOSET_VERSION": "GAUL_v1", "GEOSET_UNIT": "ADM2", "CENTROID_LONG": 55.5036216, "CENTROID_LAT": -4.7630788 }, "geometry": { "type": "MultiPolygon", "coordinates": [ [ [ [ 55.5193637, -4.7612505 ], [ 55.4824832, -4.7667926 ], [ 55.5090179, -4.7611933 ], [ 55.5193637, -4.7612505 ] ] ] ] } },
{ "type": "Feature", "properties": { "POLYGON_ID": "SYC_GAUL2005_ADM2_61282", "ADM0_ISO3": "SYC", "ADM0_NAME": "Seychelles", "ADM0_CODE": 220, "ADM1_NAME": "Therese", "ADM1_CODE": 61206, "ADM2_NAME": "Administrative unit not available", "ADM2_CODE": 61282, "GEOSET": "GAUL", "GEOSET_YEAR": 2005.0, "GEOSET_VERSION": "GAUL_v1", "GEOSET_UNIT": "ADM2", "CENTROID_LONG": 55.402170421787645, "CENTROID_LAT": -4.6738054104541913 }, "geometry": { "type": "MultiPolygon", "coordinates": [ [ [ [ 55.4017041, -4.6702787 ], [ 55.405103, -4.6717914 ], [ 55.4048993, -4.6789131 ], [ 55.3971537, -4.672454 ], [ 55.4017041, -4.6702787 ] ] ] ] } },
{ "type": "Feature", "properties": { "POLYGON_ID": "SYC_GAUL2005_ADM2_61283", "ADM0_ISO3": "SYC", "ADM0_NAME": "Seychelles", "ADM0_CODE": 220, "ADM1_NAME": "Coetivy", "ADM1_CODE": 61207, "ADM2_NAME": "Administrative unit not available", "ADM2_CODE": 61283, "GEOSET": "GAUL", "GEOSET_YEAR": 2005.0, "GEOSET_VERSION": "GAUL_v1", "GEOSET_UNIT": "ADM2", "CENTROID_LONG": 56.27716923122312, "CENTROID_LAT": -7.1364284469603039 }, "geometry": { "type": "MultiPolygon", "coordinates": [ [ [ [ 56.2604086, -7.1738005 ], [ 56.2603162, -7.164066 ], [ 56.2867587, -7.0993316 ], [ 56.2903464, -7.1291751 ], [ 56.2604086, -7.1738005 ] ] ] ] } }
]
}
