{
"type": "FeatureCollection",
"name": "TCA_GAUL1996_ADM0",
"crs": { "type": "name", "properties": { "name": "urn:ogc:def:crs:OGC:1.3:CRS84" } },
"features": [
{ "type": "Feature", "properties": { "POLYGON_ID": "TCA_GAUL1996_ADM0_251", "ADM0_ISO3": "TCA", "ADM0_NAME": "Turks and Caicos islands", "ADM0_CODE": 251, "GEOSET": "GAUL", "GEOSET_YEAR": 1996.0, "GEOSET_VERSION": "GAUL_v1", "GEOSET_UNIT": "ADM0", "CENTROID_LONG": -71.910357957454934, "CENTROID_LAT": 21.793723998243205 }, "geometry": { "type": "MultiPolygon", "coordinates": [ [ [ [ -71.1308209, 21.5107873 ], [ -71.1282522, 21.4337957 ], [ -71.1537597, 21.4451226 ], [ -71.1437203, 21.5061538 ], [ -71.1308209, 21.5107873 ] ] ], [ [ [ -71.5780185, 21.7553118 ], [ -71.5314423, 21.7242719 ], [ -71.4768923, 21.7170425 ], [ -71.4614734, 21.702252 ], [ -71.4665574, 21.6531038 ], [ -71.5198546, 21.6994908 ], [ -71.5380539, 21.6991545 ], [ -71.57884, 21.7203778 ], [ -71.5780185, 21.7553118 ] ] ], [ [ [ -71.4926026, 21.5627984 ], [ -71.4934943, 21.4999273 ], [ -71.5349107, 21.4912331 ], [ -71.5331128, 21.5269449 ], [ -71.5016082, 21.5180006 ], [ -71.5052969, 21.5511872 ], [ -71.4926026, 21.5627984 ] ] ], [ [ [ -71.8349635, 21.8539734 ], [ -71.8048899, 21.8325571 ], [ -71.7644631, 21.8374081 ], [ -71.711977, 21.8277436 ], [ -71.6729851, 21.8333495 ], [ -71.6589576, 21.8197537 ], [ -71.6900549, 21.7747001 ], [ -71.72241, 21.7795415 ], [ -71.8002539, 21.7749678 ], [ -71.8335661, 21.780714 ], [ -71.8339231, 21.8098389 ], [ -71.8501688, 21.830926 ], [ -71.8349635, 21.8539734 ] ] ], [ [ [ -71.9901806, 21.9625607 ], [ -71.9197689, 21.9466615 ], [ -71.9141024, 21.8766131 ], [ -71.8744773, 21.8311051 ], [ -71.8983464, 21.7977014 ], [ -71.9231562, 21.7954087 ], [ -71.926331, 21.8251017 ], [ -71.968092, 21.8655653 ], [ -71.9793332, 21.8934435 ], [ -72.0370924, 21.9053466 ], [ -72.0496954, 21.930164 ], [ -72.0366287, 21.9536999 ], [ -71.9901806, 21.9625607 ] ] ], [ [ [ -72.327, 21.8615 ], [ -72.257, 21.791 ], [ -72.2063855, 21.7843902 ], [ -72.1442866, 21.8148818 ], [ -72.1691359, 21.7628796 ], [ -72.2085561, 21.7649266 ], [ -72.2663431, 21.741264 ], [ -72.3123996, 21.7607268 ], [ -72.3510298, 21.7976996 ], [ -72.327, 21.8615 ] ] ], [ [ [ -72.4207562, 21.7098338 ], [ -72.4329302, 21.703689 ], [ -72.448, 21.6435 ], [ -72.468, 21.663 ], [ -72.4675, 21.6885 ], [ -72.4440678, 21.7092053 ], [ -72.4207562, 21.7098338 ] ] ] ] } }
]
}
