{
"type": "FeatureCollection",
"name": "TCD_GAUL2011_ADM1",
"crs": { "type": "name", "properties": { "name": "urn:ogc:def:crs:OGC:1.3:CRS84" } },
"features": [
{ "type": "Feature", "properties": { "POLYGON_ID": "TCD_GAUL2011_ADM1_870", "ADM0_ISO3": "TCD", "ADM0_NAME": "Chad", "ADM0_CODE": 50, "ADM1_NAME": "Biltine", "ADM1_CODE": 870, "GEOSET": "GAUL", "GEOSET_YEAR": 2011.0, "GEOSET_VERSION": "GAUL_v1", "GEOSET_UNIT": "ADM1", "CENTROID_LONG": 21.503112985742305, "CENTROID_LAT": 15.026555550662113 }, "geometry": { "type": "MultiPolygon", "coordinates": [ [ [ [ 23.1227257, 15.7197097 ], [ 23.0990194, 15.7046994 ], [ 23.0322403, 15.6273697 ], [ 22.9272065, 15.553553 ], [ 22.926408, 15.4682679 ], [ 22.98866, 15.414909 ], [ 22.9931066, 15.3341296 ], [ 23.004223, 15.3148611 ], [ 22.9854486, 15.259526 ], [ 23.0029878, 15.2424808 ], [ 22.9787787, 15.1967799 ], [ 22.9336056, 15.1691677 ], [ 22.9387596, 15.1061192 ], [ 22.8849066, 15.0910502 ], [ 22.8436523, 15.0460904 ], [ 22.8127305, 15.0351731 ], [ 22.7629524, 14.9801584 ], [ 22.7468158, 14.9519713 ], [ 22.7600244, 14.9070355 ], [ 22.6777573, 14.8745101 ], [ 22.6624541, 14.845448 ], [ 22.7116506, 14.7248998 ], [ 22.7110577, 14.6937706 ], [ 22.5785363, 14.6463357 ], [ 22.4777371, 14.6309193 ], [ 22.4113282, 14.600976 ], [ 22.3938115, 14.5203094 ], [ 22.4427538, 14.4835746 ], [ 22.4329704, 14.4130151 ], [ 22.4566878, 14.3311898 ], [ 22.425, 14.2925 ], [ 22.4654833, 14.2416237 ], [ 22.5401778, 14.2372854 ], [ 22.56828, 14.1842855 ], [ 22.5348964, 14.1101537 ], [ 22.4852886, 14.1050609 ], [ 22.4405851, 14.0528125 ], [ 22.3949384, 14.0539442 ], [ 22.3583456, 14.0224442 ], [ 22.3217529, 14.0116927 ], [ 22.2945912, 13.9645371 ], [ 22.2278355, 13.95323 ], [ 22.197082, 13.9166595 ], [ 22.1720009, 13.9180002 ], [ 22.0890007, 13.9680004 ], [ 21.9829998, 14.0019999 ], [ 21.6709995, 14.092 ], [ 21.5550003, 14.1009998 ], [ 21.4370003, 14.1260004 ], [ 21.382, 14.1110001 ], [ 21.2530003, 14.0389996 ], [ 21.1739998, 14.0439997 ], [ 21.1420002, 14.0959997 ], [ 21.1079998, 14.1289997 ], [ 21.0049992, 14.1529999 ], [ 20.9230003, 14.25 ], [ 20.8460007, 14.3199997 ], [ 20.7670002, 14.3669996 ], [ 20.6060009, 14.4139996 ], [ 20.5330009, 14.3979998 ], [ 20.4860001, 14.3760004 ], [ 20.3570004, 14.3859997 ], [ 20.2880001, 14.3249998 ], [ 20.2409992, 14.2989998 ], [ 20.1359997, 14.158 ], [ 20.0620003, 14.0819998 ], [ 20.0440006, 15.6610003 ], [ 20.0429993, 15.7419996 ], [ 20.1119995, 15.7189999 ], [ 20.2509995, 15.6300001 ], [ 20.3190002, 15.6169996 ], [ 20.3990002, 15.6400003 ], [ 20.4969997, 15.6549997 ], [ 20.5489998, 15.6280003 ], [ 20.6019993, 15.618 ], [ 20.6580009, 15.6389999 ], [ 20.7919998, 15.7379999 ], [ 20.8339996, 15.7440004 ], [ 20.9220009, 15.7919998 ], [ 21.0090008, 15.8760004 ], [ 21.0359993, 15.8789997 ], [ 21.1340008, 15.9350004 ], [ 21.2110004, 15.9139996 ], [ 21.2759991, 15.8739996 ], [ 21.3589993, 15.8579998 ], [ 21.4220009, 15.8710003 ], [ 21.493, 15.8979998 ], [ 21.6720009, 15.9309998 ], [ 21.7460003, 15.9619999 ], [ 21.8969994, 15.9289999 ], [ 21.9710007, 15.9180002 ], [ 22.125, 15.9659996 ], [ 22.1830006, 15.934 ], [ 22.2129993, 15.948 ], [ 22.2770004, 15.9029999 ], [ 22.3239994, 15.8889999 ], [ 22.3700008, 15.8959999 ], [ 22.4139996, 15.9189997 ], [ 22.5240002, 15.8900003 ], [ 22.5429993, 15.8719997 ], [ 22.5489998, 15.8120003 ], [ 22.6019993, 15.7969999 ], [ 22.7339993, 15.8179998 ], [ 22.7980003, 15.842 ], [ 22.8540001, 15.8059998 ], [ 22.8999996, 15.7989998 ], [ 22.9920006, 15.8210001 ], [ 23.0429993, 15.7989998 ], [ 23.1227257, 15.7197097 ] ] ] ] } },
{ "type": "Feature", "properties": { "POLYGON_ID": "TCD_GAUL2011_ADM1_873", "ADM0_ISO3": "TCD", "ADM0_NAME": "Chad", "ADM0_CODE": 50, "ADM1_NAME": "Guera", "ADM1_CODE": 873, "GEOSET": "GAUL", "GEOSET_YEAR": 2011.0, "GEOSET_VERSION": "GAUL_v1", "GEOSET_UNIT": "ADM1", "CENTROID_LONG": 18.632197785601925, "CENTROID_LAT": 11.489260149452271 }, "geometry": { "type": "MultiPolygon", "coordinates": [ [ [ [ 20.0450001, 12.9350004 ], [ 20.1170006, 12.882 ], [ 20.1630001, 12.8380003 ], [ 20.2299995, 12.8000002 ], [ 20.2439995, 12.7639999 ], [ 20.2040005, 12.7290001 ], [ 20.1739998, 12.7270002 ], [ 20.1140003, 12.6140003 ], [ 20.1539993, 12.5310001 ], [ 20.0820007, 12.4940004 ], [ 20.0009995, 12.3850002 ], [ 19.9400005, 12.2460003 ], [ 19.9050007, 12.118 ], [ 19.8889999, 12.0790005 ], [ 19.9060001, 12.04 ], [ 19.7509995, 12.0530005 ], [ 19.5799999, 12.0830002 ], [ 19.4650002, 12.1230001 ], [ 19.3129997, 11.9820004 ], [ 19.3409996, 11.8549995 ], [ 19.2560005, 11.7259998 ], [ 19.2150002, 11.6379995 ], [ 19.0879993, 11.6000004 ], [ 19.0550003, 11.6890001 ], [ 18.9020004, 11.6920004 ], [ 18.8740005, 11.4770002 ], [ 18.8829994, 11.4020004 ], [ 18.9020004, 11.3310003 ], [ 18.9669991, 11.3129997 ], [ 19.0009995, 11.2729998 ], [ 19.1919994, 11.1870003 ], [ 19.2380009, 11.1789999 ], [ 19.2609997, 11.1540003 ], [ 19.4050007, 11.1040001 ], [ 19.4790001, 11.0480003 ], [ 19.5699997, 11.0340004 ], [ 19.6569996, 11.0030003 ], [ 19.6940002, 11.0010004 ], [ 19.7059994, 10.9420004 ], [ 19.7369995, 10.9110003 ], [ 19.7070007, 10.8730001 ], [ 19.7259998, 10.717 ], [ 19.7029991, 10.5880003 ], [ 19.6189995, 10.526 ], [ 19.5839996, 10.4779997 ], [ 19.5330009, 10.4750004 ], [ 19.4960003, 10.4960003 ], [ 19.4300003, 10.4689999 ], [ 19.3910007, 10.4250002 ], [ 19.382, 10.382 ], [ 19.3439999, 10.3439999 ], [ 19.3549995, 10.2989998 ], [ 19.2840004, 10.224 ], [ 19.2150002, 10.1870003 ], [ 19.2080002, 10.1459999 ], [ 19.1609993, 10.1549997 ], [ 19.1380005, 10.1289997 ], [ 19.1259995, 10.0839996 ], [ 19.0839996, 10.0150003 ], [ 19.0779991, 9.9879999 ], [ 18.8250008, 9.9879999 ], [ 18.7940006, 9.8789997 ], [ 18.7369995, 9.8769999 ], [ 18.632, 9.9189997 ], [ 18.6420002, 10.0249996 ], [ 18.4960003, 10.1859999 ], [ 18.3810005, 10.2469997 ], [ 18.3409996, 10.2399998 ], [ 18.2889996, 10.2620001 ], [ 18.2089996, 10.3219996 ], [ 18.1040001, 10.3649998 ], [ 18.0669994, 10.3500004 ], [ 18.0130005, 10.3809996 ], [ 17.9619999, 10.3970003 ], [ 17.8640003, 10.4969997 ], [ 17.5429993, 10.4510002 ], [ 17.4489994, 10.5220003 ], [ 17.3829994, 10.5369997 ], [ 17.3269997, 10.5740004 ], [ 17.3519993, 10.6709995 ], [ 17.3630009, 10.7950001 ], [ 17.3600006, 10.9350004 ], [ 17.3449993, 11.0290003 ], [ 17.3290005, 11.0749998 ], [ 17.3050003, 11.2299995 ], [ 17.3349991, 11.4720001 ], [ 17.3780003, 11.5389996 ], [ 17.4249992, 11.5860004 ], [ 17.5450001, 11.6719999 ], [ 17.6800003, 11.6800003 ], [ 17.6340008, 11.7959995 ], [ 17.5450001, 11.9110003 ], [ 17.5419998, 11.9499998 ], [ 17.5760002, 12.04 ], [ 17.5979996, 12.125 ], [ 17.5669994, 12.1990004 ], [ 17.6079998, 12.2390003 ], [ 17.6650009, 12.2559996 ], [ 17.6709995, 12.2790003 ], [ 17.882, 12.4460001 ], [ 18.0650005, 12.4519997 ], [ 18.0949993, 12.4860001 ], [ 18.3299999, 12.618 ], [ 18.4750004, 12.6920004 ], [ 18.9899998, 12.6890001 ], [ 19.1030006, 12.6940002 ], [ 19.184, 12.6870003 ], [ 19.2150002, 12.7130003 ], [ 19.6009998, 12.9390001 ], [ 19.7770004, 13.0310001 ], [ 19.993, 12.9569998 ], [ 20.0450001, 12.9350004 ] ] ] ] } },
{ "type": "Feature", "properties": { "POLYGON_ID": "TCD_GAUL2011_ADM1_875", "ADM0_ISO3": "TCD", "ADM0_NAME": "Chad", "ADM0_CODE": 50, "ADM1_NAME": "Lac", "ADM1_CODE": 875, "GEOSET": "GAUL", "GEOSET_YEAR": 2011.0, "GEOSET_VERSION": "GAUL_v1", "GEOSET_UNIT": "ADM1", "CENTROID_LONG": 14.209974549864027, "CENTROID_LAT": 13.703546533364744 }, "geometry": { "type": "MultiPolygon", "coordinates": [ [ [ [ 15.0089998, 13.2440004 ], [ 15.0010004, 13.2270002 ], [ 15.0419998, 13.1709995 ], [ 15.0419998, 13.1110001 ], [ 15.0190001, 12.9960003 ], [ 14.835, 12.993 ], [ 14.5151431, 12.9949055 ], [ 14.51272, 12.99836 ], [ 14.4598799, 13.0745 ], [ 14.08543, 13.07806 ], [ 14.08295, 13.07944 ], [ 14.0766513, 13.0877219 ], [ 14.07212, 13.09368 ], [ 14.0676758, 13.0973388 ], [ 14.06765, 13.09736 ], [ 14.0662768, 13.1009969 ], [ 14.04835, 13.12378 ], [ 14.04599, 13.12815 ], [ 14.03021, 13.15066 ], [ 14.02503, 13.15985 ], [ 14.0210733, 13.1647497 ], [ 14.01538, 13.1718 ], [ 14.0051477, 13.1865773 ], [ 13.9988367, 13.1953988 ], [ 13.97981, 13.22142 ], [ 13.97697, 13.22762 ], [ 13.9761354, 13.2280664 ], [ 13.96685, 13.2391 ], [ 13.96143, 13.24668 ], [ 13.8807384, 13.3600567 ], [ 13.87019, 13.37345 ], [ 13.85674, 13.39412 ], [ 13.84967, 13.40284 ], [ 13.8437524, 13.4122475 ], [ 13.84187, 13.41524 ], [ 13.79937, 13.47908 ], [ 13.79371, 13.48711 ], [ 13.7830963, 13.5002713 ], [ 13.78096, 13.50594 ], [ 13.77436, 13.51167 ], [ 13.76255, 13.52843 ], [ 13.76113, 13.53325 ], [ 13.75547, 13.53784 ], [ 13.75192, 13.54496 ], [ 13.7001973, 13.6175111 ], [ 13.69309, 13.62643 ], [ 13.68316, 13.64135 ], [ 13.67065, 13.65649 ], [ 13.66734, 13.66062 ], [ 13.66214, 13.66658 ], [ 13.66213, 13.66934 ], [ 13.63873, 13.70146 ], [ 13.6377894, 13.7014618 ], [ 13.6345466, 13.71068 ], [ 13.56769, 13.99947 ], [ 13.48563, 14.35827 ], [ 13.47348, 14.44281 ], [ 13.49339, 14.47461 ], [ 13.57207, 14.50568 ], [ 13.6442334, 14.5158193 ], [ 13.776, 14.5059996 ], [ 13.8059998, 14.467 ], [ 13.9989996, 14.4659996 ], [ 14.0270004, 14.4200001 ], [ 14.0769997, 14.4160004 ], [ 14.1440001, 14.3540001 ], [ 14.1590004, 14.2849998 ], [ 14.2159996, 14.2670002 ], [ 14.25, 14.1999998 ], [ 14.3249998, 14.1829996 ], [ 14.3549995, 14.125 ], [ 14.4890003, 14.0930004 ], [ 14.5539999, 13.9960003 ], [ 14.6599998, 13.8760004 ], [ 14.7930298, 13.6350203 ], [ 14.8269997, 13.5089998 ], [ 14.8719997, 13.4139996 ], [ 14.9519997, 13.3070002 ], [ 15.0089998, 13.2440004 ] ] ] ] } },
{ "type": "Feature", "properties": { "POLYGON_ID": "TCD_GAUL2011_ADM1_876", "ADM0_ISO3": "TCD", "ADM0_NAME": "Chad", "ADM0_CODE": 50, "ADM1_NAME": "Logone Occidental", "ADM1_CODE": 876, "GEOSET": "GAUL", "GEOSET_YEAR": 2011.0, "GEOSET_VERSION": "GAUL_v1", "GEOSET_UNIT": "ADM1", "CENTROID_LONG": 15.867669979785294, "CENTROID_LAT": 8.7669272505502285 }, "geometry": { "type": "MultiPolygon", "coordinates": [ [ [ [ 16.427, 9.118 ], [ 16.5039997, 8.9949999 ], [ 16.5669994, 8.9589996 ], [ 16.5939999, 8.8990002 ], [ 16.5580006, 8.8299999 ], [ 16.493, 8.7460003 ], [ 16.4060001, 8.717 ], [ 16.3509998, 8.6549997 ], [ 16.2730007, 8.6599998 ], [ 16.1170006, 8.6079998 ], [ 16.0769997, 8.5690002 ], [ 15.9960003, 8.5360003 ], [ 15.9899998, 8.5120001 ], [ 15.9180002, 8.4619999 ], [ 15.8620005, 8.4350004 ], [ 15.8339996, 8.4029999 ], [ 15.8030005, 8.3339996 ], [ 15.6850004, 8.3299999 ], [ 15.6070004, 8.2860003 ], [ 15.5530005, 8.2709999 ], [ 15.4879999, 8.3280001 ], [ 15.4460001, 8.3760004 ], [ 15.3830004, 8.3780003 ], [ 15.2950001, 8.4449997 ], [ 15.2723904, 8.4820375 ], [ 15.2629995, 8.6110001 ], [ 15.2919998, 8.7010002 ], [ 15.3570004, 8.7589998 ], [ 15.3570004, 8.8699999 ], [ 15.3649998, 8.9370003 ], [ 15.3940001, 8.9879999 ], [ 15.3870001, 9.033 ], [ 15.441, 9.0609999 ], [ 15.573, 9.0229998 ], [ 15.6520004, 9.0609999 ], [ 15.7779999, 9.0509996 ], [ 15.8190002, 9.0389996 ], [ 15.9289999, 9.0609999 ], [ 15.9589996, 9.1129999 ], [ 15.9840002, 9.1289997 ], [ 16.0440006, 9.1280003 ], [ 16.0879993, 9.1020002 ], [ 16.1569996, 9.0790014 ], [ 16.1870003, 9.0979996 ], [ 16.2140007, 9.1540003 ], [ 16.2889996, 9.1809998 ], [ 16.3640003, 9.2449999 ], [ 16.4109993, 9.1809998 ], [ 16.427, 9.118 ] ] ] ] } },
{ "type": "Feature", "properties": { "POLYGON_ID": "TCD_GAUL2011_ADM1_881", "ADM0_ISO3": "TCD", "ADM0_NAME": "Chad", "ADM0_CODE": 50, "ADM1_NAME": "Salamat", "ADM1_CODE": 881, "GEOSET": "GAUL", "GEOSET_YEAR": 2011.0, "GEOSET_VERSION": "GAUL_v1", "GEOSET_UNIT": "ADM1", "CENTROID_LONG": 20.583308379861574, "CENTROID_LAT": 10.810041724421461 }, "geometry": { "type": "MultiPolygon", "coordinates": [ [ [ [ 19.9060001, 12.04 ], [ 19.9210701, 11.9600077 ], [ 20.0109997, 11.9820004 ], [ 20.0189991, 12.0270004 ], [ 20.2369995, 12.0419998 ], [ 20.3029995, 12.0349998 ], [ 20.9740009, 11.7150002 ], [ 21.0559998, 11.6639996 ], [ 21.0990009, 11.6400003 ], [ 21.0960007, 11.5459995 ], [ 21.1669998, 11.5600004 ], [ 21.5610008, 11.6269999 ], [ 21.9489994, 11.7040005 ], [ 22.0200005, 11.658 ], [ 22.1630001, 11.6339998 ], [ 22.4649788, 10.9951304 ], [ 22.461428, 10.9911187 ], [ 22.4565581, 10.9878701 ], [ 22.40244, 10.97075 ], [ 22.384348, 10.9619019 ], [ 22.3834463, 10.9627799 ], [ 22.37715, 10.96891 ], [ 22.3768043, 10.9692557 ], [ 22.3766182, 10.9694369 ], [ 22.37018, 10.95836 ], [ 22.35599, 10.95643 ], [ 22.3246233, 10.9547962 ], [ 22.32366, 10.95438 ], [ 22.31302, 10.94419 ], [ 22.2964982, 10.9349225 ], [ 22.2898384, 10.9313898 ], [ 22.28217, 10.93065 ], [ 22.2732384, 10.9265348 ], [ 22.2274013, 10.9145381 ], [ 22.22237, 10.91282 ], [ 22.20494, 10.91104 ], [ 22.18275, 10.90008 ], [ 22.175198, 10.8848543 ], [ 22.1746797, 10.8838099 ], [ 22.161066, 10.881147 ], [ 22.0986996, 10.8829103 ], [ 22.0741577, 10.8958288 ], [ 22.0600276, 10.8886001 ], [ 22.04168, 10.88432 ], [ 22.0375733, 10.8834442 ], [ 22.01654, 10.88505 ], [ 22.0046047, 10.8756809 ], [ 21.998333, 10.8735397 ], [ 21.98941, 10.8738 ], [ 21.987352, 10.8707623 ], [ 21.98252, 10.86363 ], [ 21.97833, 10.86314 ], [ 21.96221, 10.87129 ], [ 21.9626728, 10.8672386 ], [ 21.96347, 10.86026 ], [ 21.96023, 10.85817 ], [ 21.94152, 10.86929 ], [ 21.9416545, 10.8680866 ], [ 21.92102, 10.87188 ], [ 21.91264, 10.8725 ], [ 21.90851, 10.86603 ], [ 21.90435, 10.86324 ], [ 21.9030167, 10.8631098 ], [ 21.8793997, 10.8688006 ], [ 21.87825, 10.86785 ], [ 21.87162, 10.85447 ], [ 21.86517, 10.8466 ], [ 21.8462919, 10.847097 ], [ 21.84443, 10.84753 ], [ 21.83262, 10.83948 ], [ 21.8245837, 10.8303758 ], [ 21.8193, 10.82439 ], [ 21.8188159, 10.8230639 ], [ 21.8151765, 10.8131754 ], [ 21.81412, 10.81031 ], [ 21.80259, 10.80213 ], [ 21.79124, 10.79809 ], [ 21.78849, 10.79461 ], [ 21.78811, 10.78748 ], [ 21.790673, 10.7772183 ], [ 21.7907999, 10.7767096 ], [ 21.78585, 10.76286 ], [ 21.78435, 10.75204 ], [ 21.78844, 10.74036 ], [ 21.7890835, 10.7360582 ], [ 21.78792, 10.71327 ], [ 21.78684, 10.70823 ], [ 21.7865148, 10.6677712 ], [ 21.78236, 10.66451 ], [ 21.7807779, 10.6592189 ], [ 21.7747381, 10.6560975 ], [ 21.76462, 10.64666 ], [ 21.75861, 10.64224 ], [ 21.75303, 10.64265 ], [ 21.7352929, 10.6553483 ], [ 21.73363, 10.65398 ], [ 21.7298, 10.53924 ], [ 21.7218628, 10.52951 ], [ 21.71754, 10.50787 ], [ 21.75085, 10.46386 ], [ 21.7519219, 10.4603922 ], [ 21.7520193, 10.4555857 ], [ 21.75145, 10.45261 ], [ 21.77099, 10.41169 ], [ 21.76663, 10.40402 ], [ 21.7505808, 10.3888989 ], [ 21.7429398, 10.3816987 ], [ 21.7408, 10.35433 ], [ 21.728, 10.35671 ], [ 21.7236883, 10.3481486 ], [ 21.7242, 10.34116 ], [ 21.72962, 10.33006 ], [ 21.7329619, 10.3258352 ], [ 21.7373778, 10.3202444 ], [ 21.7348565, 10.3137317 ], [ 21.7282594, 10.3017694 ], [ 21.72459, 10.29784 ], [ 21.67647, 10.2781 ], [ 21.67465, 10.27441 ], [ 21.6650916, 10.2573079 ], [ 21.6636697, 10.2570696 ], [ 21.6634991, 10.2568446 ], [ 21.66069, 10.25314 ], [ 21.67569, 10.23764 ], [ 21.6746964, 10.2363297 ], [ 21.6446786, 10.2301481 ], [ 21.64097, 10.22721 ], [ 21.638283, 10.2268943 ], [ 21.6279391, 10.2310001 ], [ 21.62236, 10.23141 ], [ 21.61088, 10.2182 ], [ 21.6105362, 10.2180727 ], [ 21.589137, 10.2121318 ], [ 21.5886637, 10.2113363 ], [ 21.5818917, 10.2149506 ], [ 21.57911, 10.21515 ], [ 21.52294, 10.21555 ], [ 21.51151, 10.19456 ], [ 21.50451, 10.18714 ], [ 21.5034787, 10.1871274 ], [ 21.49384, 10.18701 ], [ 21.49103, 10.17088 ], [ 21.4876323, 10.1646343 ], [ 21.48115, 10.1634 ], [ 21.47585, 10.15887 ], [ 21.47166, 10.14375 ], [ 21.46898, 10.13613 ], [ 21.462117, 10.1284593 ], [ 21.45012, 10.12371 ], [ 21.44833, 10.11863 ], [ 21.45377, 10.1106599 ], [ 21.45475, 10.10676 ], [ 21.45252, 10.09984 ], [ 21.4550099, 10.0869998 ], [ 21.4534396, 10.08308 ], [ 21.44509, 10.08297 ], [ 21.4414, 10.08085 ], [ 21.4379806, 10.0669409 ], [ 21.4381, 10.06279 ], [ 21.43749, 10.05935 ], [ 21.4328407, 10.0527617 ], [ 21.43203, 10.04873 ], [ 21.4303742, 10.0477149 ], [ 21.4297256, 10.0473214 ], [ 21.41603, 10.04834 ], [ 21.4105994, 10.0436055 ], [ 21.40365, 10.03442 ], [ 21.403, 10.0300503 ], [ 21.39379, 10.00123 ], [ 21.3927166, 10.0000616 ], [ 21.3925167, 9.9998434 ], [ 21.38508, 9.99172 ], [ 21.3772568, 9.9852088 ], [ 21.3594, 9.98503 ], [ 21.3579122, 9.9803676 ], [ 21.34755, 9.9656 ], [ 21.3437876, 9.96457 ], [ 21.3300895, 9.9718599 ], [ 21.3243, 9.97088 ], [ 21.320808, 9.9722219 ], [ 21.3194, 9.97359 ], [ 21.3182482, 9.9791129 ], [ 21.30948, 9.99004 ], [ 21.30479, 9.97344 ], [ 21.3018228, 9.969274 ], [ 21.29438, 9.97127 ], [ 21.29271, 9.97538 ], [ 21.2611239, 9.9930468 ], [ 21.25405, 9.99038 ], [ 21.25131, 9.98644 ], [ 21.2493485, 9.9749287 ], [ 21.2424985, 9.9654384 ], [ 21.23745, 9.96033 ], [ 21.2148285, 9.9513575 ], [ 21.21255, 9.94766 ], [ 21.2133198, 9.9407693 ], [ 21.21175, 9.9357 ], [ 21.2057467, 9.9324079 ], [ 21.20276, 9.93077 ], [ 21.20253, 9.93028 ], [ 21.2015877, 9.9282436 ], [ 21.20073, 9.92639 ], [ 21.2004253, 9.897457 ], [ 21.19898, 9.89534 ], [ 21.192617, 9.8911387 ], [ 21.1838271, 9.8917567 ], [ 21.1828935, 9.890675 ], [ 21.1522, 9.86628 ], [ 21.1360985, 9.8508098 ], [ 21.13307, 9.8479 ], [ 21.12233, 9.83208 ], [ 21.11531, 9.79194 ], [ 21.10774, 9.7852 ], [ 21.0909582, 9.7766917 ], [ 21.08513, 9.77644 ], [ 21.0807702, 9.778217 ], [ 21.06324, 9.7654 ], [ 21.05813, 9.76649 ], [ 21.0304669, 9.7739972 ], [ 21.02542, 9.76934 ], [ 21.03854, 9.73755 ], [ 21.0375524, 9.7351291 ], [ 20.9949883, 9.7470439 ], [ 20.9927666, 9.7392745 ], [ 21.00439, 9.70568 ], [ 21.0033167, 9.7040978 ], [ 20.9809828, 9.6947194 ], [ 20.98761, 9.694 ], [ 20.9912616, 9.6920467 ], [ 20.9986086, 9.6849377 ], [ 20.99497, 9.67892 ], [ 20.9808391, 9.6452711 ], [ 20.97519, 9.6479 ], [ 20.9719923, 9.6474131 ], [ 20.97033, 9.64716 ], [ 20.9699123, 9.6465468 ], [ 20.9887508, 9.6223281 ], [ 20.98802, 9.62071 ], [ 20.97833, 9.61715 ], [ 20.96094, 9.61924 ], [ 20.9528063, 9.5715488 ], [ 20.95159, 9.5679 ], [ 20.92747, 9.57107 ], [ 20.9258639, 9.5675365 ], [ 20.9194169, 9.5284677 ], [ 20.9173184, 9.5269231 ], [ 20.91529, 9.52543 ], [ 20.9117073, 9.5266026 ], [ 20.8991715, 9.5279531 ], [ 20.89491, 9.52611 ], [ 20.87732, 9.52521 ], [ 20.8645231, 9.4857987 ], [ 20.86255, 9.48414 ], [ 20.856324, 9.4826705 ], [ 20.82693, 9.46281 ], [ 20.82476, 9.45107 ], [ 20.8275969, 9.4383573 ], [ 20.82733, 9.43042 ], [ 20.82043, 9.42874 ], [ 20.819599, 9.4285364 ], [ 20.811386, 9.4347579 ], [ 20.804442, 9.4425478 ], [ 20.78036, 9.42939 ], [ 20.76811, 9.42809 ], [ 20.7677613, 9.4075313 ], [ 20.76081, 9.40113 ], [ 20.7542013, 9.3993436 ], [ 20.73356, 9.39734 ], [ 20.7329344, 9.3972414 ], [ 20.66689, 9.39835 ], [ 20.6655361, 9.3973477 ], [ 20.6542919, 9.3732726 ], [ 20.65202, 9.36737 ], [ 20.6509361, 9.3551177 ], [ 20.64965, 9.34587 ], [ 20.64772, 9.34228 ], [ 20.6412763, 9.3399003 ], [ 20.6303896, 9.3409098 ], [ 20.62625, 9.33902 ], [ 20.6258897, 9.3384371 ], [ 20.6401301, 9.3222565 ], [ 20.63786, 9.3178 ], [ 20.60433, 9.31646 ], [ 20.5751487, 9.3402046 ], [ 20.57148, 9.33349 ], [ 20.5693366, 9.3317847 ], [ 20.56737, 9.33022 ], [ 20.56066, 9.32967 ], [ 20.49622, 9.30494 ], [ 20.4957918, 9.304244 ], [ 20.49123, 9.29683 ], [ 20.49153, 9.29224 ], [ 20.49773, 9.27854 ], [ 20.49805, 9.27211 ], [ 20.4829054, 9.2414447 ], [ 20.4827499, 9.2411298 ], [ 20.4703, 9.22121 ], [ 20.46805, 9.21374 ], [ 20.4628359, 9.1964156 ], [ 20.45593, 9.17347 ], [ 20.4552324, 9.172501 ], [ 20.45025, 9.16558 ], [ 20.44386, 9.15952 ], [ 20.43423, 9.15388 ], [ 20.38176, 9.14324 ], [ 20.3798642, 9.1416122 ], [ 20.37801, 9.14002 ], [ 20.3647858, 9.1337197 ], [ 20.27364, 9.1221 ], [ 20.23869, 9.1459 ], [ 20.187854, 9.1386436 ], [ 20.17989, 9.13753 ], [ 20.15276, 9.13897 ], [ 20.1474795, 9.1406799 ], [ 20.13919, 9.13803 ], [ 20.1331766, 9.1381074 ], [ 20.08808, 9.13889 ], [ 20.08146, 9.13328 ], [ 20.05775, 9.14166 ], [ 20.05265, 9.1425 ], [ 20.04832, 9.14088 ], [ 20.04691, 9.14035 ], [ 20.0365404, 9.1290876 ], [ 20.01244, 9.12606 ], [ 20.0109722, 9.1241705 ], [ 20.0112784, 9.1115652 ], [ 20.00907, 9.10487 ], [ 20.0086939, 9.1044958 ], [ 20.00709, 9.1029 ], [ 19.9978879, 9.1163961 ], [ 19.98716, 9.09645 ], [ 19.9853597, 9.0952726 ], [ 19.8338413, 9.5243196 ], [ 19.6809998, 9.9619999 ], [ 19.6130009, 10.0670004 ], [ 19.6539993, 10.0970001 ], [ 19.6480007, 10.1560001 ], [ 19.6809998, 10.2130003 ], [ 19.6919994, 10.2670002 ], [ 19.6350002, 10.2889996 ], [ 19.7029991, 10.5880003 ], [ 19.7259998, 10.717 ], [ 19.7070007, 10.8730001 ], [ 19.7369995, 10.9110003 ], [ 19.7059994, 10.9420004 ], [ 19.6940002, 11.0010004 ], [ 19.6569996, 11.0030003 ], [ 19.5699997, 11.0340004 ], [ 19.4790001, 11.0480003 ], [ 19.4050007, 11.1040001 ], [ 19.2609997, 11.1540003 ], [ 19.2380009, 11.1789999 ], [ 19.1919994, 11.1870003 ], [ 19.0009995, 11.2729998 ], [ 18.9669991, 11.3129997 ], [ 18.9020004, 11.3310003 ], [ 18.8829994, 11.4020004 ], [ 18.8740005, 11.4770002 ], [ 18.9020004, 11.6920004 ], [ 19.0550003, 11.6890001 ], [ 19.0879993, 11.6000004 ], [ 19.2150002, 11.6379995 ], [ 19.2560005, 11.7259998 ], [ 19.3409996, 11.8549995 ], [ 19.3129997, 11.9820004 ], [ 19.4650002, 12.1230001 ], [ 19.5799999, 12.0830002 ], [ 19.7509995, 12.0530005 ], [ 19.9060001, 12.04 ] ] ] ] } },
{ "type": "Feature", "properties": { "POLYGON_ID": "TCD_GAUL2011_ADM1_12904", "ADM0_ISO3": "TCD", "ADM0_NAME": "Chad", "ADM0_CODE": 50, "ADM1_NAME": "Batha Est", "ADM1_CODE": 12904, "GEOSET": "GAUL", "GEOSET_YEAR": 2011.0, "GEOSET_VERSION": "GAUL_v1", "GEOSET_UNIT": "ADM1", "CENTROID_LONG": 19.60680824820113, "CENTROID_LAT": 13.820728521788439 }, "geometry": { "type": "MultiPolygon", "coordinates": [ [ [ [ 20.0620003, 14.0819998 ], [ 20.0559998, 13.9560003 ], [ 20.2679996, 13.8290005 ], [ 20.2950001, 13.7550001 ], [ 20.2670002, 13.6129999 ], [ 20.3139992, 13.5290003 ], [ 20.3640003, 13.4209995 ], [ 20.3689995, 13.3310003 ], [ 20.3570004, 13.0200005 ], [ 20.3309994, 13.0010004 ], [ 20.0450001, 12.9350004 ], [ 19.993, 12.9569998 ], [ 19.7770004, 13.0310001 ], [ 19.6009998, 12.9390001 ], [ 19.2150002, 12.7130003 ], [ 19.184, 12.6870003 ], [ 19.1030006, 12.6940002 ], [ 19.1210003, 12.8409996 ], [ 19.1200008, 12.8809996 ], [ 19.0879993, 12.9099998 ], [ 19.0610008, 12.9960003 ], [ 19.0359993, 13.0410004 ], [ 19.0310001, 13.1020002 ], [ 18.9979992, 13.1210003 ], [ 18.8439999, 13.1149998 ], [ 18.7740002, 13.1630001 ], [ 18.7360001, 13.1789999 ], [ 18.7059994, 13.2290001 ], [ 18.7220001, 13.2969999 ], [ 18.7660007, 13.3310003 ], [ 18.8460007, 13.4230003 ], [ 18.8959999, 13.5509996 ], [ 18.9090004, 13.6739998 ], [ 18.9740009, 14.0640001 ], [ 18.9899998, 14.2150002 ], [ 19.3719997, 14.6219997 ], [ 19.5039997, 14.7399998 ], [ 19.6620007, 14.9289999 ], [ 19.8040009, 15.1370001 ], [ 19.8990002, 15.316 ], [ 20.0279999, 15.5719996 ], [ 20.0440006, 15.6610003 ], [ 20.0620003, 14.0819998 ] ] ] ] } },
{ "type": "Feature", "properties": { "POLYGON_ID": "TCD_GAUL2011_ADM1_12905", "ADM0_ISO3": "TCD", "ADM0_NAME": "Chad", "ADM0_CODE": 50, "ADM1_NAME": "Batha Ouest", "ADM1_CODE": 12905, "GEOSET": "GAUL", "GEOSET_YEAR": 2011.0, "GEOSET_VERSION": "GAUL_v1", "GEOSET_UNIT": "ADM1", "CENTROID_LONG": 18.426552814161301, "CENTROID_LAT": 14.046678844776691 }, "geometry": { "type": "MultiPolygon", "coordinates": [ [ [ [ 20.0429993, 15.7419996 ], [ 20.0440006, 15.6610003 ], [ 20.0279999, 15.5719996 ], [ 19.8990002, 15.316 ], [ 19.8040009, 15.1370001 ], [ 19.6620007, 14.9289999 ], [ 19.5039997, 14.7399998 ], [ 19.3719997, 14.6219997 ], [ 18.9899998, 14.2150002 ], [ 18.9740009, 14.0640001 ], [ 18.9090004, 13.6739998 ], [ 18.8959999, 13.5509996 ], [ 18.8460007, 13.4230003 ], [ 18.7660007, 13.3310003 ], [ 18.7220001, 13.2969999 ], [ 18.7059994, 13.2290001 ], [ 18.7360001, 13.1789999 ], [ 18.7740002, 13.1630001 ], [ 18.8439999, 13.1149998 ], [ 18.9979992, 13.1210003 ], [ 19.0310001, 13.1020002 ], [ 19.0359993, 13.0410004 ], [ 19.0610008, 12.9960003 ], [ 19.0879993, 12.9099998 ], [ 19.1200008, 12.8809996 ], [ 19.1210003, 12.8409996 ], [ 19.1030006, 12.6940002 ], [ 18.9899998, 12.6890001 ], [ 18.4750004, 12.6920004 ], [ 18.3299999, 12.618 ], [ 18.0949993, 12.4860001 ], [ 18.0650005, 12.4519997 ], [ 17.882, 12.4460001 ], [ 17.6709995, 12.2790003 ], [ 17.6650009, 12.2559996 ], [ 17.6079998, 12.2390003 ], [ 17.5669994, 12.1990004 ], [ 17.5979996, 12.125 ], [ 17.552, 12.1330004 ], [ 17.5039997, 12.158 ], [ 17.4459991, 12.1549997 ], [ 17.4109993, 12.184 ], [ 17.4080009, 12.2290001 ], [ 17.3880005, 12.2700005 ], [ 17.3400002, 12.3000002 ], [ 17.3099995, 12.3459997 ], [ 17.2950001, 12.4060001 ], [ 17.2929993, 12.4870005 ], [ 17.2539997, 12.5010004 ], [ 17.1499996, 12.6090002 ], [ 17.1130009, 12.7349997 ], [ 17.0919991, 12.783 ], [ 17.0540009, 12.816 ], [ 16.9740009, 12.8570004 ], [ 16.9580002, 12.8800001 ], [ 16.9969997, 12.9370003 ], [ 17.1299992, 13.0459995 ], [ 17.1609993, 13.099 ], [ 17.2409992, 13.21 ], [ 17.2339993, 13.427 ], [ 17.2709999, 13.6619997 ], [ 17.5860004, 13.7600002 ], [ 17.8729095, 14.8187904 ], [ 18.0510006, 15.4759998 ], [ 18.1429996, 15.4139996 ], [ 18.2380009, 15.3629999 ], [ 18.3409996, 15.3280001 ], [ 18.4969997, 15.309 ], [ 18.6509991, 15.3140001 ], [ 18.8010006, 15.3540001 ], [ 18.9260006, 15.415 ], [ 19.0270004, 15.4879999 ], [ 19.0900002, 15.5450001 ], [ 19.1560001, 15.6289997 ], [ 19.2189999, 15.7360001 ], [ 19.2530003, 15.8290005 ], [ 19.2810001, 16.0090008 ], [ 19.2740002, 16.0970001 ], [ 19.3549995, 16.1089993 ], [ 19.4020004, 16.0809994 ], [ 19.4330006, 16.007 ], [ 19.4829998, 15.9200001 ], [ 19.559, 15.8430004 ], [ 19.6259995, 15.8269997 ], [ 19.7490005, 15.8129997 ], [ 19.8649998, 15.7729998 ], [ 20.0429993, 15.7419996 ] ] ] ] } },
{ "type": "Feature", "properties": { "POLYGON_ID": "TCD_GAUL2011_ADM1_12907", "ADM0_ISO3": "TCD", "ADM0_NAME": "Chad", "ADM0_CODE": 50, "ADM1_NAME": "Borkou", "ADM1_CODE": 12907, "GEOSET": "GAUL", "GEOSET_YEAR": 2011.0, "GEOSET_VERSION": "GAUL_v1", "GEOSET_UNIT": "ADM1", "CENTROID_LONG": 18.543244939042417, "CENTROID_LAT": 18.323399203456372 }, "geometry": { "type": "MultiPolygon", "coordinates": [ [ [ [ 19.1863499, 21.8703881 ], [ 20.9800259, 20.9871274 ], [ 20.0930004, 19.1739998 ], [ 20.2070007, 18.7450008 ], [ 20.5230007, 17.934 ], [ 20.3850002, 16.7089996 ], [ 20.8339996, 15.7440004 ], [ 20.7919998, 15.7379999 ], [ 20.6580009, 15.6389999 ], [ 20.6019993, 15.618 ], [ 20.5489998, 15.6280003 ], [ 20.4969997, 15.6549997 ], [ 20.3990002, 15.6400003 ], [ 20.3190002, 15.6169996 ], [ 20.2509995, 15.6300001 ], [ 20.1119995, 15.7189999 ], [ 20.0429993, 15.7419996 ], [ 19.8649998, 15.7729998 ], [ 19.7490005, 15.8129997 ], [ 19.6259995, 15.8269997 ], [ 19.559, 15.8430004 ], [ 19.4829998, 15.9200001 ], [ 19.4330006, 16.007 ], [ 19.4020004, 16.0809994 ], [ 19.3549995, 16.1089993 ], [ 19.2740002, 16.0970001 ], [ 19.2810001, 16.0090008 ], [ 19.2530003, 15.8290005 ], [ 19.2189999, 15.7360001 ], [ 19.1560001, 15.6289997 ], [ 19.0900002, 15.5450001 ], [ 19.0270004, 15.4879999 ], [ 18.9260006, 15.415 ], [ 18.8010006, 15.3540001 ], [ 18.6509991, 15.3140001 ], [ 18.4969997, 15.309 ], [ 18.3409996, 15.3280001 ], [ 18.2380009, 15.3629999 ], [ 18.1429996, 15.4139996 ], [ 18.0510006, 15.4759998 ], [ 17.9669991, 15.5579996 ], [ 17.8649998, 15.7019997 ], [ 17.8419991, 15.7460003 ], [ 16.6870003, 16.2420006 ], [ 15.4532262, 16.843276 ], [ 15.50555, 16.89787 ], [ 15.5137574, 17.087545 ], [ 15.5135042, 17.0754875 ], [ 17.2409992, 20.0529995 ], [ 17.3889999, 20.3349991 ], [ 17.4060001, 20.4890003 ], [ 17.4419994, 20.5550003 ], [ 17.4820004, 20.573 ], [ 17.5930004, 20.5090008 ], [ 17.5930004, 20.4540005 ], [ 17.5219994, 20.3840008 ], [ 17.5179996, 20.3260002 ], [ 17.5410004, 20.2479992 ], [ 17.5820007, 20.2049999 ], [ 17.6240005, 20.1919994 ], [ 17.6539993, 20.1280003 ], [ 17.7240009, 20.0830002 ], [ 17.7490005, 20.0049992 ], [ 17.8220005, 19.9400005 ], [ 17.8649998, 19.8789997 ], [ 17.9230003, 19.9090004 ], [ 17.9769993, 20.0030003 ], [ 17.9790001, 20.0620003 ], [ 17.9559994, 20.1259995 ], [ 17.9470005, 20.2010002 ], [ 17.9169998, 20.2549992 ], [ 17.927, 20.3299999 ], [ 17.9529991, 20.3649998 ], [ 17.9360008, 20.4260006 ], [ 17.8939991, 20.5340004 ], [ 17.8519993, 20.5639992 ], [ 17.816, 20.6089993 ], [ 17.7970009, 20.698 ], [ 17.8050003, 20.7409992 ], [ 17.8490009, 20.7980003 ], [ 17.9589996, 20.8700008 ], [ 17.9839993, 20.8999996 ], [ 18.0259991, 20.9839993 ], [ 18.059, 21.0259991 ], [ 18.1170006, 21.0620003 ], [ 18.1760006, 21.0860004 ], [ 18.2530003, 21.1040001 ], [ 18.3759995, 21.1100006 ], [ 18.4080009, 21.1380005 ], [ 18.5039997, 21.1669998 ], [ 18.5750008, 21.2269993 ], [ 18.618, 21.2950001 ], [ 18.75, 21.3899994 ], [ 18.7639999, 21.4459991 ], [ 18.7679996, 21.6049995 ], [ 18.7910004, 21.6669998 ], [ 18.7819996, 21.7119999 ], [ 18.8640003, 21.8390007 ], [ 18.8880005, 21.8390007 ], [ 18.9160004, 21.8850002 ], [ 18.9169998, 21.9360008 ], [ 18.9731262, 21.975386 ], [ 19.1863499, 21.8703881 ] ] ] ] } },
{ "type": "Feature", "properties": { "POLYGON_ID": "TCD_GAUL2011_ADM1_12908", "ADM0_ISO3": "TCD", "ADM0_NAME": "Chad", "ADM0_CODE": 50, "ADM1_NAME": "Ennedi", "ADM1_CODE": 12908, "GEOSET": "GAUL", "GEOSET_YEAR": 2011.0, "GEOSET_VERSION": "GAUL_v1", "GEOSET_UNIT": "ADM1", "CENTROID_LONG": 22.130315593826026, "CENTROID_LAT": 18.10901497460479 }, "geometry": { "type": "MultiPolygon", "coordinates": [ [ [ [ 24.0, 19.5 ], [ 24.0, 16.4970553 ], [ 24.0, 16.0 ], [ 24.0, 15.7111131 ], [ 23.9706634, 15.7102241 ], [ 23.8619644, 15.7323734 ], [ 23.8176467, 15.7507007 ], [ 23.733064, 15.7517842 ], [ 23.6742764, 15.7633733 ], [ 23.5899187, 15.7631842 ], [ 23.5242861, 15.749755 ], [ 23.4432436, 15.7102298 ], [ 23.3508064, 15.6941169 ], [ 23.2080009, 15.7146294 ], [ 23.1227257, 15.7197097 ], [ 23.0429993, 15.7989998 ], [ 22.9920006, 15.8210001 ], [ 22.8999996, 15.7989998 ], [ 22.8540001, 15.8059998 ], [ 22.7980003, 15.842 ], [ 22.7339993, 15.8179998 ], [ 22.6019993, 15.7969999 ], [ 22.5489998, 15.8120003 ], [ 22.5429993, 15.8719997 ], [ 22.5240002, 15.8900003 ], [ 22.4139996, 15.9189997 ], [ 22.3700008, 15.8959999 ], [ 22.3239994, 15.8889999 ], [ 22.2770004, 15.9029999 ], [ 22.2129993, 15.948 ], [ 22.1830006, 15.934 ], [ 22.125, 15.9659996 ], [ 21.9710007, 15.9180002 ], [ 21.8969994, 15.9289999 ], [ 21.7460003, 15.9619999 ], [ 21.6720009, 15.9309998 ], [ 21.493, 15.8979998 ], [ 21.4220009, 15.8710003 ], [ 21.3589993, 15.8579998 ], [ 21.2759991, 15.8739996 ], [ 21.2110004, 15.9139996 ], [ 21.1340008, 15.9350004 ], [ 21.0359993, 15.8789997 ], [ 21.0090008, 15.8760004 ], [ 20.9220009, 15.7919998 ], [ 20.8339996, 15.7440004 ], [ 20.3850002, 16.7089996 ], [ 20.5230007, 17.934 ], [ 20.2070007, 18.7450008 ], [ 20.0930004, 19.1739998 ], [ 20.9800259, 20.9871274 ], [ 24.0, 19.5 ] ] ] ] } },
{ "type": "Feature", "properties": { "POLYGON_ID": "TCD_GAUL2011_ADM1_12909", "ADM0_ISO3": "TCD", "ADM0_NAME": "Chad", "ADM0_CODE": 50, "ADM1_NAME": "Tibesti", "ADM1_CODE": 12909, "GEOSET": "GAUL", "GEOSET_YEAR": 2011.0, "GEOSET_VERSION": "GAUL_v1", "GEOSET_UNIT": "ADM1", "CENTROID_LONG": 16.633687820783802, "CENTROID_LAT": 21.129799147058968 }, "geometry": { "type": "MultiPolygon", "coordinates": [ [ [ [ 18.9731262, 21.975386 ], [ 18.9169998, 21.9360008 ], [ 18.9160004, 21.8850002 ], [ 18.8880005, 21.8390007 ], [ 18.8640003, 21.8390007 ], [ 18.7819996, 21.7119999 ], [ 18.7910004, 21.6669998 ], [ 18.7679996, 21.6049995 ], [ 18.7639999, 21.4459991 ], [ 18.75, 21.3899994 ], [ 18.618, 21.2950001 ], [ 18.5750008, 21.2269993 ], [ 18.5039997, 21.1669998 ], [ 18.4080009, 21.1380005 ], [ 18.3759995, 21.1100006 ], [ 18.2530003, 21.1040001 ], [ 18.1760006, 21.0860004 ], [ 18.1170006, 21.0620003 ], [ 18.059, 21.0259991 ], [ 18.0259991, 20.9839993 ], [ 17.9839993, 20.8999996 ], [ 17.9589996, 20.8700008 ], [ 17.8490009, 20.7980003 ], [ 17.8050003, 20.7409992 ], [ 17.7970009, 20.698 ], [ 17.816, 20.6089993 ], [ 17.8519993, 20.5639992 ], [ 17.8939991, 20.5340004 ], [ 17.9360008, 20.4260006 ], [ 17.9529991, 20.3649998 ], [ 17.927, 20.3299999 ], [ 17.9169998, 20.2549992 ], [ 17.9470005, 20.2010002 ], [ 17.9559994, 20.1259995 ], [ 17.9790001, 20.0620003 ], [ 17.9769993, 20.0030003 ], [ 17.9230003, 19.9090004 ], [ 17.8649998, 19.8789997 ], [ 17.8220005, 19.9400005 ], [ 17.7490005, 20.0049992 ], [ 17.7240009, 20.0830002 ], [ 17.6539993, 20.1280003 ], [ 17.6240005, 20.1919994 ], [ 17.5820007, 20.2049999 ], [ 17.5410004, 20.2479992 ], [ 17.5179996, 20.3260002 ], [ 17.5219994, 20.3840008 ], [ 17.5930004, 20.4540005 ], [ 17.5930004, 20.5090008 ], [ 17.4820004, 20.573 ], [ 17.4419994, 20.5550003 ], [ 17.4060001, 20.4890003 ], [ 17.3889999, 20.3349991 ], [ 17.2409992, 20.0529995 ], [ 15.5135042, 17.0754875 ], [ 15.5137574, 17.087545 ], [ 15.53932, 17.59987 ], [ 15.5594198, 18.0062468 ], [ 15.58388, 18.51288 ], [ 15.5938, 18.73187 ], [ 15.63128, 19.03162 ], [ 15.67623, 19.35904 ], [ 15.70807, 19.61762 ], [ 15.75355, 19.94778 ], [ 15.83727, 20.08204 ], [ 15.99564, 20.34847 ], [ 15.8651586, 20.4624621 ], [ 15.74567, 20.62955 ], [ 15.69683, 20.68013 ], [ 15.61796, 20.7427 ], [ 15.5901, 20.77447 ], [ 15.54616, 20.88042 ], [ 15.5611, 20.91002 ], [ 15.62559, 20.96324 ], [ 15.33013, 21.37096 ], [ 15.2885799, 21.4323201 ], [ 15.19843, 21.49131 ], [ 15.19187, 21.98975 ], [ 15.13808, 22.28812 ], [ 15.05044, 22.72898 ], [ 14.9984189, 22.9971833 ], [ 16.0, 23.439444 ], [ 18.9731262, 21.975386 ] ] ] ] } },
{ "type": "Feature", "properties": { "POLYGON_ID": "TCD_GAUL2011_ADM1_12910", "ADM0_ISO3": "TCD", "ADM0_NAME": "Chad", "ADM0_CODE": 50, "ADM1_NAME": "Baguirmi", "ADM1_CODE": 12910, "GEOSET": "GAUL", "GEOSET_YEAR": 2011.0, "GEOSET_VERSION": "GAUL_v1", "GEOSET_UNIT": "ADM1", "CENTROID_LONG": 16.443527600997459, "CENTROID_LAT": 11.18571269136414 }, "geometry": { "type": "MultiPolygon", "coordinates": [ [ [ [ 17.3349991, 11.4720001 ], [ 17.3050003, 11.2299995 ], [ 17.3290005, 11.0749998 ], [ 17.3449993, 11.0290003 ], [ 17.3600006, 10.9350004 ], [ 17.3630009, 10.7950001 ], [ 17.3519993, 10.6709995 ], [ 17.3269997, 10.5740004 ], [ 17.3829994, 10.5369997 ], [ 17.4489994, 10.5220003 ], [ 17.5429993, 10.4510002 ], [ 17.4890003, 10.1719999 ], [ 17.3810005, 9.8260002 ], [ 17.3220005, 9.8269997 ], [ 17.2560005, 9.8400002 ], [ 17.1879997, 9.8710003 ], [ 17.1639996, 9.9200001 ], [ 17.0400009, 9.9449997 ], [ 16.9419994, 9.9449997 ], [ 16.8969994, 9.9899998 ], [ 16.7679996, 10.0310001 ], [ 16.7129993, 10.066 ], [ 16.6620007, 10.0710001 ], [ 16.6259995, 10.1459999 ], [ 16.6229992, 10.2340002 ], [ 16.5839996, 10.2650003 ], [ 16.4829998, 10.1999998 ], [ 16.2299995, 10.2019997 ], [ 16.1939392, 10.2091599 ], [ 16.1739998, 10.2650003 ], [ 16.1289997, 10.3140001 ], [ 16.1210003, 10.4650002 ], [ 16.1490002, 10.7069998 ], [ 16.1170006, 10.7670002 ], [ 16.0480003, 10.7519999 ], [ 15.9960003, 10.7790003 ], [ 15.9069996, 10.7779999 ], [ 15.7449999, 10.8249998 ], [ 15.6490002, 10.8990002 ], [ 15.6129999, 10.9020004 ], [ 15.5439997, 10.9399996 ], [ 15.5389996, 10.967 ], [ 15.5050001, 11.0059996 ], [ 15.4379997, 11.0609999 ], [ 15.3970003, 11.2119999 ], [ 15.3900003, 11.2290001 ], [ 15.4230003, 11.2819996 ], [ 15.3970003, 11.3549995 ], [ 15.3690004, 11.3990002 ], [ 15.382, 11.4870005 ], [ 15.4289999, 11.6020002 ], [ 15.408, 11.6689997 ], [ 15.3760004, 11.7309999 ], [ 15.4209995, 11.7270002 ], [ 15.4490004, 11.7589998 ], [ 15.4650002, 11.8140001 ], [ 15.4429998, 11.8719997 ], [ 15.3999996, 11.9379997 ], [ 15.4029999, 12.0059996 ], [ 15.4289999, 12.1190004 ], [ 15.4580002, 12.1759996 ], [ 15.5640001, 12.2729998 ], [ 15.684, 12.3380003 ], [ 15.8310003, 12.3430004 ], [ 15.9759998, 12.3380003 ], [ 16.0480003, 12.382 ], [ 16.0900002, 12.4320002 ], [ 16.302, 12.3540001 ], [ 16.4500008, 12.3050003 ], [ 16.493, 12.2959995 ], [ 16.6660004, 12.2290001 ], [ 16.6949997, 12.198 ], [ 16.7250004, 12.1330004 ], [ 16.7080002, 11.9949999 ], [ 16.7439995, 11.9320002 ], [ 16.7900009, 11.9040003 ], [ 16.8120003, 11.823 ], [ 16.8260002, 11.7259998 ], [ 16.8579998, 11.6759996 ], [ 16.9060001, 11.684 ], [ 17.0189991, 11.6680002 ], [ 17.0879993, 11.6269999 ], [ 17.1389999, 11.566 ], [ 17.3349991, 11.4720001 ] ] ] ] } },
{ "type": "Feature", "properties": { "POLYGON_ID": "TCD_GAUL2011_ADM1_12911", "ADM0_ISO3": "TCD", "ADM0_NAME": "Chad", "ADM0_CODE": 50, "ADM1_NAME": "Daraba", "ADM1_CODE": 12911, "GEOSET": "GAUL", "GEOSET_YEAR": 2011.0, "GEOSET_VERSION": "GAUL_v1", "GEOSET_UNIT": "ADM1", "CENTROID_LONG": 16.880144576101682, "CENTROID_LAT": 12.371128892629809 }, "geometry": { "type": "MultiPolygon", "coordinates": [ [ [ [ 17.1609993, 13.099 ], [ 17.1299992, 13.0459995 ], [ 16.9969997, 12.9370003 ], [ 16.9580002, 12.8800001 ], [ 16.9740009, 12.8570004 ], [ 17.0540009, 12.816 ], [ 17.0919991, 12.783 ], [ 17.1130009, 12.7349997 ], [ 17.1499996, 12.6090002 ], [ 17.2539997, 12.5010004 ], [ 17.2929993, 12.4870005 ], [ 17.2950001, 12.4060001 ], [ 17.3099995, 12.3459997 ], [ 17.3400002, 12.3000002 ], [ 17.3880005, 12.2700005 ], [ 17.4080009, 12.2290001 ], [ 17.4109993, 12.184 ], [ 17.4459991, 12.1549997 ], [ 17.5039997, 12.158 ], [ 17.552, 12.1330004 ], [ 17.5979996, 12.125 ], [ 17.5760002, 12.04 ], [ 17.5419998, 11.9499998 ], [ 17.5450001, 11.9110003 ], [ 17.6340008, 11.7959995 ], [ 17.6800003, 11.6800003 ], [ 17.5450001, 11.6719999 ], [ 17.4249992, 11.5860004 ], [ 17.3780003, 11.5389996 ], [ 17.3349991, 11.4720001 ], [ 17.1389999, 11.566 ], [ 17.0879993, 11.6269999 ], [ 17.0189991, 11.6680002 ], [ 16.9060001, 11.684 ], [ 16.8579998, 11.6759996 ], [ 16.8260002, 11.7259998 ], [ 16.8120003, 11.823 ], [ 16.7900009, 11.9040003 ], [ 16.7439995, 11.9320002 ], [ 16.7080002, 11.9949999 ], [ 16.7250004, 12.1330004 ], [ 16.6949997, 12.198 ], [ 16.6660004, 12.2290001 ], [ 16.493, 12.2959995 ], [ 16.4500008, 12.3050003 ], [ 16.302, 12.3540001 ], [ 16.0900002, 12.4320002 ], [ 16.1590004, 12.5369997 ], [ 16.1949997, 12.6190004 ], [ 16.1439991, 12.7189999 ], [ 16.1459999, 12.7709999 ], [ 16.1749992, 12.8479996 ], [ 16.1429996, 12.915 ], [ 16.1060009, 12.9589996 ], [ 16.1079998, 13.0360003 ], [ 16.1790009, 13.0229998 ], [ 16.2150002, 13.04 ], [ 16.2609997, 13.0360003 ], [ 16.3610001, 13.0509996 ], [ 16.4680004, 13.0340004 ], [ 16.493, 13.0550003 ], [ 16.5470009, 13.0699997 ], [ 16.7619991, 13.0900002 ], [ 16.8460007, 13.1359997 ], [ 16.8999996, 13.1090002 ], [ 16.9969997, 13.1370001 ], [ 17.0240002, 13.1569996 ], [ 17.1009998, 13.1330004 ], [ 17.1609993, 13.099 ] ] ] ] } },
{ "type": "Feature", "properties": { "POLYGON_ID": "TCD_GAUL2011_ADM1_12912", "ADM0_ISO3": "TCD", "ADM0_NAME": "Chad", "ADM0_CODE": 50, "ADM1_NAME": "Hadjer Lamis", "ADM1_CODE": 12912, "GEOSET": "GAUL", "GEOSET_YEAR": 2011.0, "GEOSET_VERSION": "GAUL_v1", "GEOSET_UNIT": "ADM1", "CENTROID_LONG": 15.370380069890576, "CENTROID_LAT": 12.455796104676038 }, "geometry": { "type": "MultiPolygon", "coordinates": [ [ [ [ 15.9099998, 13.1730003 ], [ 15.9659996, 13.1219997 ], [ 15.9980001, 13.0439997 ], [ 16.1079998, 13.0360003 ], [ 16.1060009, 12.9589996 ], [ 16.1429996, 12.915 ], [ 16.1749992, 12.8479996 ], [ 16.1459999, 12.7709999 ], [ 16.1439991, 12.7189999 ], [ 16.1949997, 12.6190004 ], [ 16.1590004, 12.5369997 ], [ 16.0900002, 12.4320002 ], [ 16.0480003, 12.382 ], [ 15.9759998, 12.3380003 ], [ 15.8310003, 12.3430004 ], [ 15.684, 12.3380003 ], [ 15.5640001, 12.2729998 ], [ 15.4580002, 12.1759996 ], [ 15.4289999, 12.1190004 ], [ 15.4029999, 12.0059996 ], [ 15.3999996, 11.9379997 ], [ 15.4429998, 11.8719997 ], [ 15.4650002, 11.8140001 ], [ 15.4490004, 11.7589998 ], [ 15.4209995, 11.7270002 ], [ 15.3760004, 11.7309999 ], [ 15.408, 11.6689997 ], [ 15.4289999, 11.6020002 ], [ 15.382, 11.4870005 ], [ 15.3690004, 11.3990002 ], [ 15.3970003, 11.3549995 ], [ 15.4230003, 11.2819996 ], [ 15.3900003, 11.2290001 ], [ 15.3970003, 11.2119999 ], [ 15.2309999, 11.2089996 ], [ 15.0816517, 11.1206675 ], [ 15.1518497, 11.0522499 ], [ 15.2080097, 11.0107698 ], [ 15.2779703, 10.9324903 ], [ 15.3107996, 10.8381205 ], [ 15.2698498, 10.8468704 ], [ 15.20049, 10.8361998 ], [ 15.17097, 10.8213902 ], [ 15.1169799, 10.7268301 ], [ 15.06941, 10.80538 ], [ 15.09348, 10.86607 ], [ 15.08292, 10.94799 ], [ 15.05157, 10.9928 ], [ 15.05171, 11.04233 ], [ 15.03706, 11.07146 ], [ 15.0368094, 11.1478594 ], [ 15.02654, 11.27843 ], [ 15.06859, 11.36458 ], [ 15.05874, 11.41005 ], [ 15.1074, 11.49509 ], [ 15.12959, 11.50701 ], [ 15.14229, 11.55783 ], [ 15.09777, 11.58899 ], [ 15.06564, 11.71073 ], [ 15.08171, 11.75753 ], [ 15.11642, 11.79795 ], [ 15.07821, 11.86112 ], [ 15.04209, 11.89872 ], [ 15.06432, 11.92775 ], [ 15.05204, 11.96584 ], [ 15.0611, 12.04159 ], [ 15.0093473, 12.1123997 ], [ 14.98055, 12.09036 ], [ 14.93357, 12.1139 ], [ 14.89247, 12.1678 ], [ 14.9061, 12.2253 ], [ 14.9049682, 12.2324948 ], [ 14.91047, 12.37923 ], [ 14.88175, 12.45841 ], [ 14.84897, 12.45638 ], [ 14.85186, 12.56359 ], [ 14.83153, 12.6285 ], [ 14.77155, 12.63132 ], [ 14.7526, 12.68333 ], [ 14.70621, 12.72477 ], [ 14.66285, 12.7202 ], [ 14.63659, 12.73953 ], [ 14.58573, 12.74737 ], [ 14.55173, 12.7858 ], [ 14.56788, 12.83631 ], [ 14.56875, 12.89176 ], [ 14.5331665, 12.9692102 ], [ 14.5151431, 12.9949055 ], [ 14.835, 12.993 ], [ 15.0190001, 12.9960003 ], [ 15.0419998, 13.1110001 ], [ 15.0419998, 13.1709995 ], [ 15.0010004, 13.2270002 ], [ 15.0089998, 13.2440004 ], [ 15.0270004, 13.2519999 ], [ 15.1009998, 13.2189999 ], [ 15.1450005, 13.2229996 ], [ 15.1899996, 13.1990004 ], [ 15.2080002, 13.1560001 ], [ 15.2600002, 13.0950003 ], [ 15.29, 13.1400003 ], [ 15.3319998, 13.1359997 ], [ 15.3990002, 13.1890001 ], [ 15.3780003, 13.2150002 ], [ 15.3129997, 13.2390003 ], [ 15.2580004, 13.2989998 ], [ 15.2309999, 13.3719997 ], [ 15.3800001, 13.3929996 ], [ 15.4280005, 13.3170004 ], [ 15.5760002, 13.2469997 ], [ 15.7360001, 13.1789999 ], [ 15.7550001, 13.1630001 ], [ 15.8620005, 13.1540003 ], [ 15.9099998, 13.1730003 ] ] ] ] } },
{ "type": "Feature", "properties": { "POLYGON_ID": "TCD_GAUL2011_ADM1_12914", "ADM0_ISO3": "TCD", "ADM0_NAME": "Chad", "ADM0_CODE": 50, "ADM1_NAME": "Barl El Gazal", "ADM1_CODE": 12914, "GEOSET": "GAUL", "GEOSET_YEAR": 2011.0, "GEOSET_VERSION": "GAUL_v1", "GEOSET_UNIT": "ADM1", "CENTROID_LONG": 16.879339724302543, "CENTROID_LAT": 14.549976734268961 }, "geometry": { "type": "MultiPolygon", "coordinates": [ [ [ [ 18.0510006, 15.4759998 ], [ 17.8729095, 14.8187904 ], [ 17.5860004, 13.7600002 ], [ 17.2709999, 13.6619997 ], [ 17.2339993, 13.427 ], [ 17.2409992, 13.21 ], [ 17.1609993, 13.099 ], [ 17.1009998, 13.1330004 ], [ 17.0240002, 13.1569996 ], [ 16.9969997, 13.1370001 ], [ 16.8999996, 13.1090002 ], [ 16.8460007, 13.1359997 ], [ 16.7619991, 13.0900002 ], [ 16.5470009, 13.0699997 ], [ 16.493, 13.0550003 ], [ 16.4680004, 13.0340004 ], [ 16.3610001, 13.0509996 ], [ 16.2609997, 13.0360003 ], [ 16.2150002, 13.04 ], [ 16.1790009, 13.0229998 ], [ 16.1079998, 13.0360003 ], [ 15.9980001, 13.0439997 ], [ 15.9659996, 13.1219997 ], [ 15.9099998, 13.1730003 ], [ 15.9289999, 13.2069998 ], [ 15.9350004, 13.3389997 ], [ 15.934, 13.4499998 ], [ 15.9200001, 13.4989996 ], [ 15.8920002, 13.5459995 ], [ 15.8760004, 13.6140003 ], [ 15.8940001, 13.6850004 ], [ 15.8839998, 13.7469997 ], [ 15.7740002, 13.7580004 ], [ 15.7620001, 13.7390003 ], [ 15.6470003, 13.7349997 ], [ 15.6020002, 13.7489996 ], [ 15.6070004, 13.8780003 ], [ 15.6190004, 14.0319996 ], [ 15.7110004, 14.066 ], [ 15.8039999, 14.1450005 ], [ 15.9619999, 14.3149996 ], [ 16.1019993, 14.4700003 ], [ 16.1429996, 14.5450001 ], [ 16.1819992, 14.8339996 ], [ 16.5230007, 15.974 ], [ 16.6870003, 16.2420006 ], [ 17.8419991, 15.7460003 ], [ 17.8649998, 15.7019997 ], [ 17.9669991, 15.5579996 ], [ 18.0510006, 15.4759998 ] ] ] ] } },
{ "type": "Feature", "properties": { "POLYGON_ID": "TCD_GAUL2011_ADM1_12915", "ADM0_ISO3": "TCD", "ADM0_NAME": "Chad", "ADM0_CODE": 50, "ADM1_NAME": "Kanem", "ADM1_CODE": 12915, "GEOSET": "GAUL", "GEOSET_YEAR": 2011.0, "GEOSET_VERSION": "GAUL_v1", "GEOSET_UNIT": "ADM1", "CENTROID_LONG": 15.261108613423659, "CENTROID_LAT": 15.054129806001987 }, "geometry": { "type": "MultiPolygon", "coordinates": [ [ [ [ 16.6870003, 16.2420006 ], [ 16.5230007, 15.974 ], [ 16.1819992, 14.8339996 ], [ 16.1429996, 14.5450001 ], [ 16.1019993, 14.4700003 ], [ 15.9619999, 14.3149996 ], [ 15.8039999, 14.1450005 ], [ 15.7110004, 14.066 ], [ 15.6190004, 14.0319996 ], [ 15.6070004, 13.8780003 ], [ 15.6020002, 13.7489996 ], [ 15.6470003, 13.7349997 ], [ 15.7620001, 13.7390003 ], [ 15.7740002, 13.7580004 ], [ 15.8839998, 13.7469997 ], [ 15.8940001, 13.6850004 ], [ 15.8760004, 13.6140003 ], [ 15.8920002, 13.5459995 ], [ 15.9200001, 13.4989996 ], [ 15.934, 13.4499998 ], [ 15.9350004, 13.3389997 ], [ 15.9289999, 13.2069998 ], [ 15.9099998, 13.1730003 ], [ 15.8620005, 13.1540003 ], [ 15.7550001, 13.1630001 ], [ 15.7360001, 13.1789999 ], [ 15.5760002, 13.2469997 ], [ 15.4280005, 13.3170004 ], [ 15.3800001, 13.3929996 ], [ 15.2309999, 13.3719997 ], [ 15.2580004, 13.2989998 ], [ 15.3129997, 13.2390003 ], [ 15.3780003, 13.2150002 ], [ 15.3990002, 13.1890001 ], [ 15.3319998, 13.1359997 ], [ 15.29, 13.1400003 ], [ 15.2600002, 13.0950003 ], [ 15.2080002, 13.1560001 ], [ 15.1899996, 13.1990004 ], [ 15.1450005, 13.2229996 ], [ 15.1009998, 13.2189999 ], [ 15.0270004, 13.2519999 ], [ 15.0089998, 13.2440004 ], [ 14.9519997, 13.3070002 ], [ 14.8719997, 13.4139996 ], [ 14.8269997, 13.5089998 ], [ 14.7930298, 13.6350203 ], [ 14.6599998, 13.8760004 ], [ 14.5539999, 13.9960003 ], [ 14.4890003, 14.0930004 ], [ 14.3549995, 14.125 ], [ 14.3249998, 14.1829996 ], [ 14.25, 14.1999998 ], [ 14.2159996, 14.2670002 ], [ 14.1590004, 14.2849998 ], [ 14.1440001, 14.3540001 ], [ 14.0769997, 14.4160004 ], [ 14.0270004, 14.4200001 ], [ 13.9989996, 14.4659996 ], [ 13.8059998, 14.467 ], [ 13.776, 14.5059996 ], [ 13.6442334, 14.5158193 ], [ 13.6960196, 14.5511226 ], [ 13.69251, 14.61293 ], [ 13.67731, 14.63656 ], [ 13.74557, 14.69834 ], [ 13.76873, 14.69197 ], [ 13.80996, 14.72172 ], [ 13.79223, 14.80233 ], [ 13.78968, 14.86321 ], [ 13.86951, 15.04284 ], [ 13.97018, 15.15653 ], [ 14.27592, 15.58823 ], [ 14.38476, 15.73155 ], [ 14.61041, 15.95604 ], [ 14.91362, 16.27664 ], [ 14.95665, 16.32533 ], [ 15.25835, 16.63929 ], [ 15.4532262, 16.843276 ], [ 16.6870003, 16.2420006 ] ] ] ] } },
{ "type": "Feature", "properties": { "POLYGON_ID": "TCD_GAUL2011_ADM1_12918", "ADM0_ISO3": "TCD", "ADM0_NAME": "Chad", "ADM0_CODE": 50, "ADM1_NAME": "Logone Oriental", "ADM1_CODE": 12918, "GEOSET": "GAUL", "GEOSET_YEAR": 2011.0, "GEOSET_VERSION": "GAUL_v1", "GEOSET_UNIT": "ADM1", "CENTROID_LONG": 16.709272956571315, "CENTROID_LAT": 8.3436681006507207 }, "geometry": { "type": "MultiPolygon", "coordinates": [ [ [ [ 17.1340008, 9.0780001 ], [ 17.1499996, 8.9709997 ], [ 17.1520004, 8.8850002 ], [ 17.1420002, 8.7620001 ], [ 17.0459995, 8.6309996 ], [ 17.1299992, 8.5450001 ], [ 17.1590004, 8.4949999 ], [ 17.2950001, 8.2959995 ], [ 17.2129993, 8.1569996 ], [ 17.1079998, 8.1309996 ], [ 17.2839322, 7.8035403 ], [ 17.28156, 7.79139 ], [ 17.2771215, 7.7911431 ], [ 17.2741882, 7.7909771 ], [ 17.2728723, 7.7888203 ], [ 17.234448, 7.7635916 ], [ 17.23258, 7.76344 ], [ 17.21857, 7.72656 ], [ 17.2137284, 7.7258983 ], [ 17.2117876, 7.7237985 ], [ 17.20909, 7.72088 ], [ 17.1982695, 7.7195598 ], [ 17.1734195, 7.7087194 ], [ 17.16918, 7.70687 ], [ 17.1657, 7.70276 ], [ 17.1604482, 7.6667495 ], [ 17.12591, 7.6674 ], [ 17.09657, 7.69189 ], [ 17.09127, 7.69215 ], [ 17.08827, 7.69033 ], [ 17.09064, 7.66048 ], [ 17.04617, 7.65361 ], [ 17.0446063, 7.6512083 ], [ 17.0403157, 7.63504 ], [ 16.9696229, 7.6314018 ], [ 16.96341, 7.63545 ], [ 16.9586823, 7.6358171 ], [ 16.9551771, 7.6353122 ], [ 16.94359, 7.63119 ], [ 16.9400831, 7.6299235 ], [ 16.9320197, 7.6252889 ], [ 16.92835, 7.62278 ], [ 16.92689, 7.60603 ], [ 16.9241432, 7.6057603 ], [ 16.90092, 7.6165 ], [ 16.89861, 7.61399 ], [ 16.90175, 7.5529 ], [ 16.8995802, 7.5518772 ], [ 16.86974, 7.55147 ], [ 16.86992, 7.54136 ], [ 16.866809, 7.5380845 ], [ 16.86345, 7.53634 ], [ 16.85078, 7.53526 ], [ 16.8463992, 7.532989 ], [ 16.8453495, 7.5316717 ], [ 16.84385, 7.52979 ], [ 16.82226, 7.5326835 ], [ 16.8194845, 7.5338089 ], [ 16.8121857, 7.5393984 ], [ 16.81121, 7.54075 ], [ 16.79393, 7.58538 ], [ 16.7494929, 7.6260003 ], [ 16.74809, 7.62854 ], [ 16.7304454, 7.6461757 ], [ 16.72678, 7.65023 ], [ 16.7070198, 7.65149 ], [ 16.702982, 7.6512305 ], [ 16.6724152, 7.6650363 ], [ 16.6672291, 7.6686639 ], [ 16.66803, 7.73822 ], [ 16.59681, 7.77484 ], [ 16.59528, 7.79298 ], [ 16.5963782, 7.7950504 ], [ 16.59807, 7.79824 ], [ 16.59145, 7.81205 ], [ 16.5913921, 7.8167798 ], [ 16.5846447, 7.8358134 ], [ 16.58558, 7.83778 ], [ 16.5867996, 7.8515458 ], [ 16.59445, 7.86207 ], [ 16.5959189, 7.8801856 ], [ 16.5954484, 7.8783592 ], [ 16.5851376, 7.8735445 ], [ 16.5618702, 7.8623546 ], [ 16.56311, 7.85946 ], [ 16.5613811, 7.8562056 ], [ 16.5605593, 7.85466 ], [ 16.54214, 7.8559 ], [ 16.53497, 7.84836 ], [ 16.5323969, 7.8472183 ], [ 16.5303492, 7.84631 ], [ 16.51605, 7.84294 ], [ 16.5141377, 7.8273364 ], [ 16.5116611, 7.8235077 ], [ 16.50881, 7.8191 ], [ 16.5021344, 7.8137869 ], [ 16.4946592, 7.797138 ], [ 16.49256, 7.7921 ], [ 16.4788428, 7.7883947 ], [ 16.45983, 7.7849 ], [ 16.457686, 7.7866584 ], [ 16.4553, 7.80237 ], [ 16.4500718, 7.8028565 ], [ 16.4410207, 7.8056338 ], [ 16.43896, 7.8052 ], [ 16.42388, 7.77934 ], [ 16.41254, 7.76791 ], [ 16.41391, 7.76423 ], [ 16.4162135, 7.7320484 ], [ 16.41743, 7.72772 ], [ 16.4258836, 7.721084 ], [ 16.4277685, 7.7212399 ], [ 16.4236625, 7.7074176 ], [ 16.41894, 7.70384 ], [ 16.4082761, 7.6894588 ], [ 16.40665, 7.68577 ], [ 16.4049443, 7.6840757 ], [ 16.3939133, 7.6754579 ], [ 16.39277, 7.67114 ], [ 16.3754797, 7.6659401 ], [ 16.3636799, 7.701611 ], [ 16.3311195, 7.912909 ], [ 16.2912998, 8.0271053 ], [ 16.3033791, 8.0914593 ], [ 16.3270798, 8.1337414 ], [ 16.3014107, 8.2277117 ], [ 16.2166309, 8.2628031 ], [ 16.1486797, 8.2813568 ], [ 16.0271091, 8.2598629 ], [ 15.9458904, 8.2748404 ], [ 15.85993, 8.3475227 ], [ 15.8339996, 8.4029999 ], [ 15.8620005, 8.4350004 ], [ 15.9180002, 8.4619999 ], [ 15.9899998, 8.5120001 ], [ 15.9960003, 8.5360003 ], [ 16.0769997, 8.5690002 ], [ 16.1170006, 8.6079998 ], [ 16.2730007, 8.6599998 ], [ 16.3509998, 8.6549997 ], [ 16.4060001, 8.717 ], [ 16.493, 8.7460003 ], [ 16.5580006, 8.8299999 ], [ 16.5939999, 8.8990002 ], [ 16.5669994, 8.9589996 ], [ 16.5039997, 8.9949999 ], [ 16.427, 9.118 ], [ 16.5429993, 9.1529999 ], [ 16.5960007, 9.1490002 ], [ 16.6539993, 9.1059999 ], [ 16.684, 9.1129999 ], [ 16.7719994, 9.0710001 ], [ 16.9860001, 9.0500002 ], [ 17.1340008, 9.0780001 ] ] ] ] } },
{ "type": "Feature", "properties": { "POLYGON_ID": "TCD_GAUL2011_ADM1_12919", "ADM0_ISO3": "TCD", "ADM0_NAME": "Chad", "ADM0_CODE": 50, "ADM1_NAME": "Mont De Lam", "ADM1_CODE": 12919, "GEOSET": "GAUL", "GEOSET_YEAR": 2011.0, "GEOSET_VERSION": "GAUL_v1", "GEOSET_UNIT": "ADM1", "CENTROID_LONG": 15.852999512607125, "CENTROID_LAT": 7.9456662291421329 }, "geometry": { "type": "MultiPolygon", "coordinates": [ [ [ [ 15.8339996, 8.4029999 ], [ 15.85993, 8.3475227 ], [ 15.9458904, 8.2748404 ], [ 16.0271091, 8.2598629 ], [ 16.1486797, 8.2813568 ], [ 16.2166309, 8.2628031 ], [ 16.3014107, 8.2277117 ], [ 16.3270798, 8.1337414 ], [ 16.3033791, 8.0914593 ], [ 16.2912998, 8.0271053 ], [ 16.3311195, 7.912909 ], [ 16.3636799, 7.701611 ], [ 16.3754797, 7.6659401 ], [ 16.341872, 7.6618884 ], [ 16.34138, 7.66196 ], [ 16.3340224, 7.6592482 ], [ 16.31186, 7.65108 ], [ 16.3089746, 7.6512835 ], [ 16.30151, 7.65181 ], [ 16.2970051, 7.6482135 ], [ 16.26178, 7.62353 ], [ 16.2561791, 7.6181082 ], [ 16.2461969, 7.6111596 ], [ 16.23546, 7.60665 ], [ 16.18553, 7.61445 ], [ 16.18069, 7.61195 ], [ 16.17282, 7.60234 ], [ 16.1678625, 7.5981766 ], [ 16.137736, 7.5939744 ], [ 16.13133, 7.59081 ], [ 16.0995007, 7.5908708 ], [ 16.08781, 7.58916 ], [ 16.06614, 7.58191 ], [ 16.05668, 7.57759 ], [ 16.04928, 7.57073 ], [ 16.0471143, 7.5668591 ], [ 16.03901, 7.53381 ], [ 16.0363047, 7.5313302 ], [ 16.0270072, 7.529935 ], [ 16.0230772, 7.5228585 ], [ 16.017538, 7.5198961 ], [ 15.9940968, 7.4946534 ], [ 15.9900277, 7.4903897 ], [ 15.9810497, 7.4892797 ], [ 15.97481, 7.48334 ], [ 15.9676162, 7.4834371 ], [ 15.9511, 7.48366 ], [ 15.9394374, 7.4807749 ], [ 15.93105, 7.4787 ], [ 15.92394, 7.47414 ], [ 15.91859, 7.47071 ], [ 15.90937, 7.46707 ], [ 15.88356, 7.46029 ], [ 15.86396, 7.45302 ], [ 15.8307001, 7.4448442 ], [ 15.8298565, 7.4446613 ], [ 15.8213642, 7.4458699 ], [ 15.81675, 7.4454 ], [ 15.81305, 7.44174 ], [ 15.8109028, 7.4413242 ], [ 15.806668, 7.4452674 ], [ 15.79997, 7.45488 ], [ 15.787544, 7.4608137 ], [ 15.7812354, 7.4622003 ], [ 15.77353, 7.46279 ], [ 15.76914, 7.45799 ], [ 15.75539, 7.47457 ], [ 15.7478873, 7.4759141 ], [ 15.72795, 7.51913 ], [ 15.66004, 7.51757 ], [ 15.54655, 7.5112 ], [ 15.53347, 7.51664 ], [ 15.514949, 7.5243577 ], [ 15.50748, 7.52747 ], [ 15.57092, 7.58663 ], [ 15.59493, 7.67538 ], [ 15.5920375, 7.7505556 ], [ 15.59585, 7.75776 ], [ 15.59111, 7.77618 ], [ 15.51076, 7.7962 ], [ 15.45323, 7.89471 ], [ 15.41651, 8.0 ], [ 15.39095, 8.04092 ], [ 15.39823, 8.0882 ], [ 15.38654, 8.11165 ], [ 15.3750382, 8.134728 ], [ 15.2863, 8.30922 ], [ 15.25135, 8.45241 ], [ 15.2458487, 8.4701547 ], [ 15.2723904, 8.4820375 ], [ 15.2950001, 8.4449997 ], [ 15.3830004, 8.3780003 ], [ 15.4460001, 8.3760004 ], [ 15.4879999, 8.3280001 ], [ 15.5530005, 8.2709999 ], [ 15.6070004, 8.2860003 ], [ 15.6850004, 8.3299999 ], [ 15.8030005, 8.3339996 ], [ 15.8339996, 8.4029999 ] ] ] ] } },
{ "type": "Feature", "properties": { "POLYGON_ID": "TCD_GAUL2011_ADM1_12920", "ADM0_ISO3": "TCD", "ADM0_NAME": "Chad", "ADM0_CODE": 50, "ADM1_NAME": "Kabia", "ADM1_CODE": 12920, "GEOSET": "GAUL", "GEOSET_YEAR": 2011.0, "GEOSET_VERSION": "GAUL_v1", "GEOSET_UNIT": "ADM1", "CENTROID_LONG": 15.295001506235636, "CENTROID_LAT": 9.6847472188971366 }, "geometry": { "type": "MultiPolygon", "coordinates": [ [ [ [ 15.6581279, 9.9761994 ], [ 15.7162704, 9.89538 ], [ 15.81565, 9.8193197 ], [ 15.7854204, 9.7970152 ], [ 15.7938499, 9.7246761 ], [ 15.7550001, 9.7080002 ], [ 15.7270002, 9.6759996 ], [ 15.7139997, 9.6020002 ], [ 15.6820002, 9.5860004 ], [ 15.665, 9.5039997 ], [ 15.566, 9.4189997 ], [ 15.4840002, 9.3190002 ], [ 15.4750004, 9.2889996 ], [ 15.4209995, 9.21 ], [ 15.4110298, 9.2075138 ], [ 15.2700005, 9.2713461 ], [ 15.2445002, 9.2946758 ], [ 15.1818104, 9.324564 ], [ 15.1377602, 9.3574219 ], [ 15.0893097, 9.4385014 ], [ 15.0880699, 9.5212317 ], [ 15.0707998, 9.5604286 ], [ 15.0271902, 9.5965366 ], [ 15.0465803, 9.6291952 ], [ 15.0340405, 9.6615009 ], [ 14.95014, 9.6984406 ], [ 14.8605204, 9.6739101 ], [ 14.7672596, 9.664135 ], [ 14.7489901, 9.6697941 ], [ 14.7486, 9.7235947 ], [ 14.7350302, 9.8196611 ], [ 14.7212, 9.8389053 ], [ 14.74156, 9.9160147 ], [ 14.7281188, 9.9510401 ], [ 14.83598, 9.92449 ], [ 14.9191, 9.97981 ], [ 15.00289, 10.00131 ], [ 15.06688, 9.96669 ], [ 15.10145, 9.96386 ], [ 15.13283, 9.99462 ], [ 15.21259, 9.96453 ], [ 15.2361, 9.99644 ], [ 15.3379, 9.9711 ], [ 15.43501, 9.93331 ], [ 15.60052, 9.96032 ], [ 15.6581279, 9.9761994 ] ] ] ] } },
{ "type": "Feature", "properties": { "POLYGON_ID": "TCD_GAUL2011_ADM1_12921", "ADM0_ISO3": "TCD", "ADM0_NAME": "Chad", "ADM0_CODE": 50, "ADM1_NAME": "Mayo-Boneye", "ADM1_CODE": 12921, "GEOSET": "GAUL", "GEOSET_YEAR": 2011.0, "GEOSET_VERSION": "GAUL_v1", "GEOSET_UNIT": "ADM1", "CENTROID_LONG": 15.70093104091025, "CENTROID_LAT": 10.432240036162149 }, "geometry": { "type": "MultiPolygon", "coordinates": [ [ [ [ 16.1939392, 10.2091599 ], [ 16.2380009, 10.1800003 ], [ 16.243, 10.0860004 ], [ 16.2630005, 10.0310001 ], [ 16.2290802, 9.98349 ], [ 16.2016697, 9.9109612 ], [ 16.1380005, 9.8104391 ], [ 16.0325298, 9.7018852 ], [ 15.9735308, 9.668251 ], [ 15.9328003, 9.6542292 ], [ 15.8891802, 9.6761198 ], [ 15.8809299, 9.7013931 ], [ 15.7938499, 9.7246761 ], [ 15.7854204, 9.7970152 ], [ 15.81565, 9.8193197 ], [ 15.7162704, 9.89538 ], [ 15.6581279, 9.9761994 ], [ 15.67519, 10.00741 ], [ 15.57233, 10.06025 ], [ 15.48617, 10.11898 ], [ 15.45156, 10.18787 ], [ 15.41657, 10.2142 ], [ 15.355699, 10.2907503 ], [ 15.31021, 10.30745 ], [ 15.2827, 10.36526 ], [ 15.28117, 10.40621 ], [ 15.24111, 10.47072 ], [ 15.20864, 10.50232 ], [ 15.14593, 10.53835 ], [ 15.15452, 10.64646 ], [ 15.1169799, 10.7268301 ], [ 15.17097, 10.8213902 ], [ 15.20049, 10.8361998 ], [ 15.2698498, 10.8468704 ], [ 15.3107996, 10.8381205 ], [ 15.2779703, 10.9324903 ], [ 15.2080097, 11.0107698 ], [ 15.1518497, 11.0522499 ], [ 15.0816517, 11.1206675 ], [ 15.2309999, 11.2089996 ], [ 15.3970003, 11.2119999 ], [ 15.4379997, 11.0609999 ], [ 15.5050001, 11.0059996 ], [ 15.5389996, 10.967 ], [ 15.5439997, 10.9399996 ], [ 15.6129999, 10.9020004 ], [ 15.6490002, 10.8990002 ], [ 15.7449999, 10.8249998 ], [ 15.9069996, 10.7779999 ], [ 15.9960003, 10.7790003 ], [ 16.0480003, 10.7519999 ], [ 16.1170006, 10.7670002 ], [ 16.1490002, 10.7069998 ], [ 16.1210003, 10.4650002 ], [ 16.1289997, 10.3140001 ], [ 16.1739998, 10.2650003 ], [ 16.1939392, 10.2091599 ] ] ] ] } },
{ "type": "Feature", "properties": { "POLYGON_ID": "TCD_GAUL2011_ADM1_12922", "ADM0_ISO3": "TCD", "ADM0_NAME": "Chad", "ADM0_CODE": 50, "ADM1_NAME": "Mayo-Dala", "ADM1_CODE": 12922, "GEOSET": "GAUL", "GEOSET_YEAR": 2011.0, "GEOSET_VERSION": "GAUL_v1", "GEOSET_UNIT": "ADM1", "CENTROID_LONG": 14.751867244249631, "CENTROID_LAT": 9.337889018413664 }, "geometry": { "type": "MultiPolygon", "coordinates": [ [ [ [ 14.7281188, 9.9510401 ], [ 14.74156, 9.9160147 ], [ 14.7212, 9.8389053 ], [ 14.7350302, 9.8196611 ], [ 14.7486, 9.7235947 ], [ 14.7489901, 9.6697941 ], [ 14.7672596, 9.664135 ], [ 14.8605204, 9.6739101 ], [ 14.95014, 9.6984406 ], [ 15.0340405, 9.6615009 ], [ 15.0465803, 9.6291952 ], [ 15.0271902, 9.5965366 ], [ 15.0707998, 9.5604286 ], [ 15.0880699, 9.5212317 ], [ 15.0893097, 9.4385014 ], [ 15.1377602, 9.3574219 ], [ 15.1818104, 9.324564 ], [ 15.2445002, 9.2946758 ], [ 15.2700005, 9.2713461 ], [ 15.4110298, 9.2075138 ], [ 15.4209995, 9.21 ], [ 15.4320002, 9.1789999 ], [ 15.4320002, 9.092 ], [ 15.441, 9.0609999 ], [ 15.3870001, 9.033 ], [ 15.3940001, 8.9879999 ], [ 15.3649998, 8.9370003 ], [ 15.3570004, 8.8699999 ], [ 15.3570004, 8.7589998 ], [ 15.2919998, 8.7010002 ], [ 15.2629995, 8.6110001 ], [ 15.2723904, 8.4820375 ], [ 15.2458487, 8.4701547 ], [ 15.24173, 8.48344 ], [ 15.21192, 8.57334 ], [ 15.20761, 8.6108 ], [ 15.1069382, 8.67342 ], [ 15.03454, 8.67068 ], [ 14.98329, 8.68776 ], [ 14.98727, 8.72269 ], [ 14.9252873, 8.7690121 ], [ 14.90042, 8.80668 ], [ 14.85013, 8.80284 ], [ 14.75357, 8.82017 ], [ 14.71754, 8.86317 ], [ 14.55966, 9.01192 ], [ 14.50994, 9.03237 ], [ 14.4784722, 9.1059726 ], [ 14.47498, 9.10868 ], [ 14.38076, 9.19691 ], [ 14.38577, 9.28863 ], [ 14.35451, 9.30769 ], [ 14.31741, 9.36674 ], [ 14.25046, 9.39151 ], [ 14.22493, 9.4354 ], [ 14.19666, 9.45008 ], [ 14.10849, 9.53755 ], [ 14.1074331, 9.5392556 ], [ 14.0620483, 9.589214 ], [ 14.04668, 9.62529 ], [ 14.02207, 9.64709 ], [ 14.0249498, 9.7057286 ], [ 14.04966, 9.75153 ], [ 14.07883, 9.7709 ], [ 14.1489374, 9.8610724 ], [ 14.16235, 9.87934 ], [ 14.17763, 9.90028 ], [ 14.2039354, 9.9847178 ], [ 14.23641, 9.99741 ], [ 14.4847, 10.01021 ], [ 14.54411, 9.9994 ], [ 14.70538, 9.9499 ], [ 14.7281188, 9.9510401 ] ] ] ] } },
{ "type": "Feature", "properties": { "POLYGON_ID": "TCD_GAUL2011_ADM1_12923", "ADM0_ISO3": "TCD", "ADM0_NAME": "Chad", "ADM0_CODE": 50, "ADM1_NAME": "Barh Koh", "ADM1_CODE": 12923, "GEOSET": "GAUL", "GEOSET_YEAR": 2011.0, "GEOSET_VERSION": "GAUL_v1", "GEOSET_UNIT": "ADM1", "CENTROID_LONG": 18.236963733184712, "CENTROID_LAT": 9.2999062766350935 }, "geometry": { "type": "MultiPolygon", "coordinates": [ [ [ [ 18.632, 9.9189997 ], [ 18.5326309, 9.8938942 ], [ 18.4821701, 9.818306 ], [ 18.4434204, 9.8381329 ], [ 18.4133492, 9.8116112 ], [ 18.3783093, 9.8202763 ], [ 18.3298893, 9.674078 ], [ 18.29533, 9.5358152 ], [ 18.3205509, 9.4475555 ], [ 18.3622494, 9.3617973 ], [ 18.46735, 9.3021975 ], [ 18.5170994, 9.2077084 ], [ 18.6581497, 9.2075558 ], [ 18.6971493, 9.2531319 ], [ 18.77314, 9.2811193 ], [ 18.7817097, 9.3371172 ], [ 18.8473797, 9.3465357 ], [ 18.8351994, 9.2403955 ], [ 18.8425694, 9.1273241 ], [ 18.8718796, 9.1005964 ], [ 18.9758301, 9.051074 ], [ 19.0232792, 8.9950743 ], [ 19.00974, 8.97806 ], [ 19.0065862, 8.9774726 ], [ 19.0042094, 8.9770303 ], [ 18.991111, 8.9779637 ], [ 18.98758, 8.97518 ], [ 18.98377, 8.96835 ], [ 18.98144, 8.95365 ], [ 18.97748, 8.94837 ], [ 18.97594, 8.94151 ], [ 18.968509, 8.9402981 ], [ 18.9661, 8.93599 ], [ 18.961451, 8.9310109 ], [ 18.96035, 8.92762 ], [ 18.9226274, 8.9259481 ], [ 18.9197547, 8.9238726 ], [ 18.89266, 8.88963 ], [ 18.8823, 8.88113 ], [ 18.8683, 8.8757 ], [ 18.86566, 8.87139 ], [ 18.86553, 8.86588 ], [ 18.8667594, 8.8629602 ], [ 18.86357, 8.85052 ], [ 18.86587, 8.85001 ], [ 18.86862, 8.84926 ], [ 18.8686222, 8.849255 ], [ 18.87148, 8.84275 ], [ 18.8813663, 8.8404612 ], [ 18.88075, 8.84369 ], [ 18.88386, 8.84822 ], [ 18.8881544, 8.8510676 ], [ 18.90712, 8.81459 ], [ 18.90972, 8.80694 ], [ 18.93591, 8.81002 ], [ 18.94267, 8.81262 ], [ 18.9466, 8.81276 ], [ 18.9523, 8.80918 ], [ 18.95656, 8.79345 ], [ 18.958668, 8.7904655 ], [ 18.96036, 8.78807 ], [ 18.96286, 8.78641 ], [ 18.97037, 8.78141 ], [ 19.01963, 8.76144 ], [ 19.0301527, 8.7414654 ], [ 19.0332891, 8.7355117 ], [ 19.04175, 8.7274 ], [ 19.0594438, 8.7158398 ], [ 19.0595189, 8.7157907 ], [ 19.07128, 8.71262 ], [ 19.08126, 8.71066 ], [ 19.0818162, 8.7105522 ], [ 19.08224, 8.71047 ], [ 19.09976, 8.69954 ], [ 19.10509, 8.69872 ], [ 19.10495, 8.69389 ], [ 19.1055408, 8.6927012 ], [ 19.10902, 8.6857 ], [ 19.1125077, 8.6819013 ], [ 19.11586, 8.67825 ], [ 19.1182485, 8.6770152 ], [ 19.12145, 8.67536 ], [ 19.0998758, 8.6604566 ], [ 19.09662, 8.65769 ], [ 19.0942728, 8.6525809 ], [ 19.08362, 8.64918 ], [ 19.07778, 8.64081 ], [ 19.07031, 8.6401 ], [ 19.0492, 8.60249 ], [ 19.04606, 8.59706 ], [ 19.04647, 8.57549 ], [ 19.0447513, 8.5701132 ], [ 19.04211, 8.56185 ], [ 19.0422046, 8.5570766 ], [ 19.0363284, 8.5508951 ], [ 19.03313, 8.54907 ], [ 19.0320762, 8.5404061 ], [ 19.03173, 8.53756 ], [ 19.0299083, 8.5340804 ], [ 19.0112581, 8.5236102 ], [ 19.00822, 8.52403 ], [ 19.0076446, 8.5233436 ], [ 19.00236, 8.51704 ], [ 19.0, 8.51581 ], [ 18.98955, 8.51297 ], [ 18.9890486, 8.5107186 ], [ 18.9942787, 8.5036634 ], [ 18.99733, 8.49992 ], [ 18.98854, 8.48932 ], [ 18.9872593, 8.4889942 ], [ 18.9783374, 8.4844781 ], [ 18.97709, 8.48315 ], [ 18.9729, 8.48164 ], [ 18.97094, 8.47663 ], [ 18.97258, 8.4678602 ], [ 18.9412756, 8.4449073 ], [ 18.93713, 8.44225 ], [ 18.9323882, 8.4366128 ], [ 18.932073, 8.4353395 ], [ 18.9314929, 8.4309296 ], [ 18.93173, 8.4279 ], [ 18.9308916, 8.4267122 ], [ 18.92431, 8.42669 ], [ 18.9232341, 8.4256639 ], [ 18.9215718, 8.4106551 ], [ 18.92068, 8.40931 ], [ 18.92739, 8.39973 ], [ 18.9254396, 8.3978828 ], [ 18.92361, 8.39615 ], [ 18.92376, 8.39269 ], [ 18.9239399, 8.3903918 ], [ 18.9194991, 8.3877399 ], [ 18.9070765, 8.3757399 ], [ 18.90327, 8.37432 ], [ 18.9011936, 8.3716991 ], [ 18.90041, 8.37071 ], [ 18.90077, 8.36634 ], [ 18.899568, 8.3640705 ], [ 18.88508, 8.36624 ], [ 18.88365, 8.3642 ], [ 18.887639, 8.3569888 ], [ 18.8859758, 8.3549609 ], [ 18.87673, 8.35425 ], [ 18.8742845, 8.3499559 ], [ 18.8761993, 8.3411701 ], [ 18.8689616, 8.341966 ], [ 18.8571188, 8.3239058 ], [ 18.855328, 8.3173844 ], [ 18.85094, 8.30544 ], [ 18.84317, 8.29849 ], [ 18.8420574, 8.2976792 ], [ 18.84011, 8.29626 ], [ 18.837182, 8.288975 ], [ 18.8303561, 8.2842781 ], [ 18.82387, 8.28108 ], [ 18.8140829, 8.271249 ], [ 18.80982, 8.26752 ], [ 18.8076877, 8.264831 ], [ 18.758513, 8.2435599 ], [ 18.74808, 8.24067 ], [ 18.74806, 8.23976 ], [ 18.7451832, 8.2398004 ], [ 18.74022, 8.23987 ], [ 18.73488, 8.2372 ], [ 18.68969, 8.22227 ], [ 18.6810376, 8.2138994 ], [ 18.6736368, 8.2121671 ], [ 18.6704429, 8.2092917 ], [ 18.6577, 8.19495 ], [ 18.65779, 8.18554 ], [ 18.6549547, 8.1805897 ], [ 18.65283, 8.17688 ], [ 18.6335182, 8.1517901 ], [ 18.63002, 8.14645 ], [ 18.6290366, 8.1437559 ], [ 18.6350886, 8.083219 ], [ 18.6284686, 8.0786804 ], [ 18.6272794, 8.0774697 ], [ 18.62435, 8.0735 ], [ 18.6246, 8.05972 ], [ 18.61805, 8.05247 ], [ 18.6151552, 8.0510787 ], [ 18.45677, 8.03781 ], [ 18.4539785, 8.0362401 ], [ 18.4232711, 8.0349366 ], [ 18.42123, 8.03372 ], [ 18.4174282, 8.0332354 ], [ 18.3797003, 8.0316417 ], [ 18.34212, 8.02839 ], [ 18.336483, 8.0284716 ], [ 18.2984335, 8.0256968 ], [ 18.27432, 8.02403 ], [ 18.2139889, 8.0194011 ], [ 18.1951694, 8.0781479 ], [ 18.1697998, 8.2082663 ], [ 18.1775093, 8.2972441 ], [ 18.1678104, 8.3777599 ], [ 18.1279392, 8.4688253 ], [ 18.1169205, 8.5458536 ], [ 18.07827, 8.5655165 ], [ 18.0489407, 8.6604538 ], [ 18.0585194, 8.7951946 ], [ 18.0190392, 8.8440018 ], [ 17.9977303, 8.9170694 ], [ 17.9958305, 8.9590054 ], [ 18.0256805, 8.9975624 ], [ 18.1005402, 9.0199976 ], [ 18.1491508, 9.0789185 ], [ 18.1999207, 9.1761541 ], [ 18.0557098, 9.1907492 ], [ 17.8257008, 9.2958946 ], [ 17.8110008, 9.3469992 ], [ 17.76301, 9.4359951 ], [ 17.6658001, 9.4487457 ], [ 17.6205292, 9.5428038 ], [ 17.5540009, 9.5970001 ], [ 17.5909996, 9.6730003 ], [ 17.5209999, 9.7399998 ], [ 17.4610004, 9.7849998 ], [ 17.3810005, 9.8260002 ], [ 17.4890003, 10.1719999 ], [ 17.5429993, 10.4510002 ], [ 17.8640003, 10.4969997 ], [ 17.9619999, 10.3970003 ], [ 18.0130005, 10.3809996 ], [ 18.0669994, 10.3500004 ], [ 18.1040001, 10.3649998 ], [ 18.2089996, 10.3219996 ], [ 18.2889996, 10.2620001 ], [ 18.3409996, 10.2399998 ], [ 18.3810005, 10.2469997 ], [ 18.4960003, 10.1859999 ], [ 18.6420002, 10.0249996 ], [ 18.632, 9.9189997 ] ] ] ] } },
{ "type": "Feature", "properties": { "POLYGON_ID": "TCD_GAUL2011_ADM1_12924", "ADM0_ISO3": "TCD", "ADM0_NAME": "Chad", "ADM0_CODE": 50, "ADM1_NAME": "Lac Iro", "ADM1_CODE": 12924, "GEOSET": "GAUL", "GEOSET_YEAR": 2011.0, "GEOSET_VERSION": "GAUL_v1", "GEOSET_UNIT": "ADM1", "CENTROID_LONG": 19.199651911556327, "CENTROID_LAT": 9.6032621407601315 }, "geometry": { "type": "MultiPolygon", "coordinates": [ [ [ [ 19.9853597, 9.0952726 ], [ 19.98031, 9.09196 ], [ 19.95748, 9.08879 ], [ 19.9476207, 9.0884697 ], [ 19.94178, 9.08828 ], [ 19.9408098, 9.0877846 ], [ 19.93943, 9.08708 ], [ 19.93542, 9.08438 ], [ 19.93066, 9.06793 ], [ 19.92714, 9.0608 ], [ 19.86453, 9.06454 ], [ 19.85651, 9.06005 ], [ 19.852431, 9.0564043 ], [ 19.84945, 9.05374 ], [ 19.8446462, 9.0474655 ], [ 19.8419692, 9.0439699 ], [ 19.835506, 9.0434123 ], [ 19.82871, 9.04951 ], [ 19.82246, 9.06434 ], [ 19.77288, 9.05736 ], [ 19.7717141, 9.0565029 ], [ 19.76329, 9.05031 ], [ 19.7609261, 9.0496886 ], [ 19.74366, 9.04886 ], [ 19.7349512, 9.0443506 ], [ 19.72146, 9.04447 ], [ 19.7199069, 9.0405778 ], [ 19.7091991, 9.0328179 ], [ 19.6692061, 9.0205817 ], [ 19.6666776, 9.0204211 ], [ 19.6437199, 9.0227854 ], [ 19.63137, 9.01836 ], [ 19.61444, 9.02148 ], [ 19.602, 9.0194 ], [ 19.57762, 9.03995 ], [ 19.57278, 9.03918 ], [ 19.5711012, 9.0380281 ], [ 19.56867, 9.03636 ], [ 19.5543593, 9.0351993 ], [ 19.54255, 9.02306 ], [ 19.5107406, 9.032106 ], [ 19.50676, 9.03417 ], [ 19.502092, 9.0339111 ], [ 19.49894, 9.03197 ], [ 19.49728, 9.02115 ], [ 19.4941, 9.01834 ], [ 19.49328, 9.01827 ], [ 19.4882764, 9.0205366 ], [ 19.4864853, 9.0188463 ], [ 19.4697455, 9.0180976 ], [ 19.4592095, 9.0177537 ], [ 19.4581458, 9.0255397 ], [ 19.451394, 9.0250098 ], [ 19.4390978, 9.0311884 ], [ 19.4327375, 9.0266248 ], [ 19.40106, 9.02599 ], [ 19.3986285, 9.0225116 ], [ 19.39567, 9.01829 ], [ 19.3904224, 9.0171416 ], [ 19.3188455, 9.0104957 ], [ 19.3092371, 9.0078 ], [ 19.272351, 9.0127134 ], [ 19.27046, 9.01333 ], [ 19.2675676, 9.0152412 ], [ 19.25267, 9.02588 ], [ 19.24088, 9.0259 ], [ 19.1733749, 9.0221082 ], [ 19.1698591, 9.0170498 ], [ 19.14115, 9.00711 ], [ 19.1372731, 9.0053992 ], [ 19.12729, 9.00686 ], [ 19.12455, 9.00543 ], [ 19.1240569, 9.0056484 ], [ 19.0956161, 9.0196008 ], [ 19.09167, 9.02045 ], [ 19.07768, 9.01491 ], [ 19.06655, 9.0046 ], [ 19.05922, 8.99639 ], [ 19.0253537, 8.9959629 ], [ 19.0232792, 8.9950743 ], [ 18.9758301, 9.051074 ], [ 18.8718796, 9.1005964 ], [ 18.8425694, 9.1273241 ], [ 18.8351994, 9.2403955 ], [ 18.8473797, 9.3465357 ], [ 18.7817097, 9.3371172 ], [ 18.77314, 9.2811193 ], [ 18.6971493, 9.2531319 ], [ 18.6581497, 9.2075558 ], [ 18.5170994, 9.2077084 ], [ 18.46735, 9.3021975 ], [ 18.3622494, 9.3617973 ], [ 18.3205509, 9.4475555 ], [ 18.29533, 9.5358152 ], [ 18.3298893, 9.674078 ], [ 18.3783093, 9.8202763 ], [ 18.4133492, 9.8116112 ], [ 18.4434204, 9.8381329 ], [ 18.4821701, 9.818306 ], [ 18.5326309, 9.8938942 ], [ 18.632, 9.9189997 ], [ 18.7369995, 9.8769999 ], [ 18.7940006, 9.8789997 ], [ 18.8250008, 9.9879999 ], [ 19.0779991, 9.9879999 ], [ 19.0839996, 10.0150003 ], [ 19.1259995, 10.0839996 ], [ 19.1380005, 10.1289997 ], [ 19.1609993, 10.1549997 ], [ 19.2080002, 10.1459999 ], [ 19.2150002, 10.1870003 ], [ 19.2840004, 10.224 ], [ 19.3549995, 10.2989998 ], [ 19.3439999, 10.3439999 ], [ 19.382, 10.382 ], [ 19.3910007, 10.4250002 ], [ 19.4300003, 10.4689999 ], [ 19.4960003, 10.4960003 ], [ 19.5330009, 10.4750004 ], [ 19.5839996, 10.4779997 ], [ 19.6189995, 10.526 ], [ 19.7029991, 10.5880003 ], [ 19.6350002, 10.2889996 ], [ 19.6919994, 10.2670002 ], [ 19.6809998, 10.2130003 ], [ 19.6480007, 10.1560001 ], [ 19.6539993, 10.0970001 ], [ 19.6130009, 10.0670004 ], [ 19.6809998, 9.9619999 ], [ 19.8338413, 9.5243196 ], [ 19.9853597, 9.0952726 ] ] ] ] } },
{ "type": "Feature", "properties": { "POLYGON_ID": "TCD_GAUL2011_ADM1_12925", "ADM0_ISO3": "TCD", "ADM0_NAME": "Chad", "ADM0_CODE": 50, "ADM1_NAME": "Mandoul", "ADM1_CODE": 12925, "GEOSET": "GAUL", "GEOSET_YEAR": 2011.0, "GEOSET_VERSION": "GAUL_v1", "GEOSET_UNIT": "ADM1", "CENTROID_LONG": 17.607548528019759, "CENTROID_LAT": 8.6886488050455277 }, "geometry": { "type": "MultiPolygon", "coordinates": [ [ [ [ 17.5540009, 9.5970001 ], [ 17.6205292, 9.5428038 ], [ 17.6658001, 9.4487457 ], [ 17.76301, 9.4359951 ], [ 17.8110008, 9.3469992 ], [ 17.8257008, 9.2958946 ], [ 18.0557098, 9.1907492 ], [ 18.1999207, 9.1761541 ], [ 18.1491508, 9.0789185 ], [ 18.1005402, 9.0199976 ], [ 18.0256805, 8.9975624 ], [ 17.9958305, 8.9590054 ], [ 17.9977303, 8.9170694 ], [ 18.0190392, 8.8440018 ], [ 18.0585194, 8.7951946 ], [ 18.0489407, 8.6604538 ], [ 18.07827, 8.5655165 ], [ 18.1169205, 8.5458536 ], [ 18.1279392, 8.4688253 ], [ 18.1678104, 8.3777599 ], [ 18.1775093, 8.2972441 ], [ 18.1697998, 8.2082663 ], [ 18.1951694, 8.0781479 ], [ 18.2139889, 8.0194011 ], [ 18.1616357, 8.0146819 ], [ 18.15577, 8.01459 ], [ 18.1346202, 8.0135651 ], [ 18.03198, 8.0093 ], [ 17.99565, 7.99278 ], [ 17.94491, 7.9628 ], [ 17.93495, 7.9604442 ], [ 17.73317, 7.97838 ], [ 17.7218498, 7.9785213 ], [ 17.71634, 7.97859 ], [ 17.7131, 7.97746 ], [ 17.708328, 7.9714457 ], [ 17.7073, 7.97015 ], [ 17.7037602, 7.969554 ], [ 17.6942655, 7.9815005 ], [ 17.69401, 7.98171 ], [ 17.6701809, 7.9820141 ], [ 17.6684, 7.98111 ], [ 17.66405, 7.97891 ], [ 17.6589015, 7.9746596 ], [ 17.6582593, 7.9741272 ], [ 17.65708, 7.96955 ], [ 17.65888, 7.96242 ], [ 17.64888, 7.94573 ], [ 17.6463872, 7.9440993 ], [ 17.6297383, 7.9428667 ], [ 17.6272381, 7.937947 ], [ 17.6244129, 7.9348259 ], [ 17.61652, 7.92688 ], [ 17.6134105, 7.9264606 ], [ 17.5956206, 7.9320429 ], [ 17.58518, 7.92386 ], [ 17.57866, 7.91243 ], [ 17.5778332, 7.9117503 ], [ 17.5745, 7.90901 ], [ 17.56942, 7.90812 ], [ 17.5503685, 7.9227394 ], [ 17.54716, 7.92134 ], [ 17.5412604, 7.9117845 ], [ 17.53853, 7.90395 ], [ 17.52349, 7.89096 ], [ 17.5150664, 7.868749 ], [ 17.5138238, 7.8683917 ], [ 17.4677689, 7.8940486 ], [ 17.45965, 7.88377 ], [ 17.4594149, 7.8836807 ], [ 17.45549, 7.88219 ], [ 17.44919, 7.86822 ], [ 17.4482991, 7.8676962 ], [ 17.4211379, 7.8754972 ], [ 17.4192774, 7.8729735 ], [ 17.41811, 7.87139 ], [ 17.41925, 7.86817 ], [ 17.4029868, 7.8430205 ], [ 17.39838, 7.84374 ], [ 17.36525, 7.84875 ], [ 17.35921, 7.84029 ], [ 17.3454, 7.84106 ], [ 17.34123, 7.83741 ], [ 17.3382933, 7.8291622 ], [ 17.33585, 7.8223 ], [ 17.30454, 7.82363 ], [ 17.303643, 7.8189642 ], [ 17.30423, 7.8094 ], [ 17.30098, 7.80551 ], [ 17.2839322, 7.8035403 ], [ 17.1079998, 8.1309996 ], [ 17.2129993, 8.1569996 ], [ 17.2950001, 8.2959995 ], [ 17.1590004, 8.4949999 ], [ 17.1299992, 8.5450001 ], [ 17.0459995, 8.6309996 ], [ 17.1420002, 8.7620001 ], [ 17.1520004, 8.8850002 ], [ 17.1499996, 8.9709997 ], [ 17.1340008, 9.0780001 ], [ 17.2220001, 9.1660004 ], [ 17.0750008, 9.2609997 ], [ 17.2280006, 9.3710003 ], [ 17.2280006, 9.4700003 ], [ 17.257, 9.4919996 ], [ 17.2159996, 9.5450001 ], [ 17.2089996, 9.5760002 ], [ 17.2509995, 9.5959997 ], [ 17.3169994, 9.5939999 ], [ 17.427, 9.6199999 ], [ 17.4839993, 9.6409998 ], [ 17.507, 9.6160002 ], [ 17.5540009, 9.5970001 ] ] ] ] } },
{ "type": "Feature", "properties": { "POLYGON_ID": "TCD_GAUL2011_ADM1_12926", "ADM0_ISO3": "TCD", "ADM0_NAME": "Chad", "ADM0_CODE": 50, "ADM1_NAME": "Assongha", "ADM1_CODE": 12926, "GEOSET": "GAUL", "GEOSET_YEAR": 2011.0, "GEOSET_VERSION": "GAUL_v1", "GEOSET_UNIT": "ADM1", "CENTROID_LONG": 21.817772531135791, "CENTROID_LAT": 13.563473413731812 }, "geometry": { "type": "MultiPolygon", "coordinates": [ [ [ [ 22.197082, 13.9166595 ], [ 22.0719455, 13.7786371 ], [ 22.1237539, 13.7357979 ], [ 22.1147563, 13.6833113 ], [ 22.1670531, 13.5944647 ], [ 22.2251284, 13.5486689 ], [ 22.2176162, 13.4669011 ], [ 22.2751137, 13.4033361 ], [ 22.2904271, 13.3537842 ], [ 22.1812107, 13.2487574 ], [ 22.1796216, 13.22911 ], [ 22.135415, 13.1710346 ], [ 22.0881746, 13.1658338 ], [ 22.0688161, 13.1437305 ], [ 22.007418, 13.13983 ], [ 22.0026507, 13.1105033 ], [ 21.9713015, 13.0733756 ], [ 21.926517, 13.0482385 ], [ 21.8418599, 12.8315394 ], [ 21.815038, 12.8081922 ], [ 21.743, 12.8260002 ], [ 21.6809998, 12.8610001 ], [ 21.6569996, 12.8859997 ], [ 21.625, 12.9790001 ], [ 21.6299992, 13.059 ], [ 21.6219997, 13.0939999 ], [ 21.632, 13.2089996 ], [ 21.6459999, 13.2539997 ], [ 21.6809998, 13.2770004 ], [ 21.6989994, 13.3360004 ], [ 21.6499996, 13.5270004 ], [ 21.5799999, 13.5970001 ], [ 21.5319996, 13.6599998 ], [ 21.4950008, 13.7399998 ], [ 21.3729992, 13.8149996 ], [ 21.3369999, 13.9099998 ], [ 21.3409996, 13.967 ], [ 21.3180008, 14.0039997 ], [ 21.2530003, 14.0389996 ], [ 21.382, 14.1110001 ], [ 21.4370003, 14.1260004 ], [ 21.5550003, 14.1009998 ], [ 21.6709995, 14.092 ], [ 21.9829998, 14.0019999 ], [ 22.0890007, 13.9680004 ], [ 22.1720009, 13.9180002 ], [ 22.197082, 13.9166595 ] ] ] ] } },
{ "type": "Feature", "properties": { "POLYGON_ID": "TCD_GAUL2011_ADM1_12927", "ADM0_ISO3": "TCD", "ADM0_NAME": "Chad", "ADM0_CODE": 50, "ADM1_NAME": "Ouaddai", "ADM1_CODE": 12927, "GEOSET": "GAUL", "GEOSET_YEAR": 2011.0, "GEOSET_VERSION": "GAUL_v1", "GEOSET_UNIT": "ADM1", "CENTROID_LONG": 20.802779481551219, "CENTROID_LAT": 13.067797328456425 }, "geometry": { "type": "MultiPolygon", "coordinates": [ [ [ [ 21.2530003, 14.0389996 ], [ 21.3180008, 14.0039997 ], [ 21.3409996, 13.967 ], [ 21.3369999, 13.9099998 ], [ 21.3729992, 13.8149996 ], [ 21.4950008, 13.7399998 ], [ 21.5319996, 13.6599998 ], [ 21.5799999, 13.5970001 ], [ 21.6499996, 13.5270004 ], [ 21.6989994, 13.3360004 ], [ 21.6809998, 13.2770004 ], [ 21.6459999, 13.2539997 ], [ 21.632, 13.2089996 ], [ 21.6219997, 13.0939999 ], [ 21.6299992, 13.059 ], [ 21.625, 12.9790001 ], [ 21.6569996, 12.8859997 ], [ 21.6809998, 12.8610001 ], [ 21.5389996, 12.8079996 ], [ 21.4839993, 12.7779999 ], [ 21.4200001, 12.7209997 ], [ 21.3579998, 12.6470003 ], [ 21.3530006, 12.5559998 ], [ 21.3099995, 12.4899998 ], [ 21.3029995, 12.4429998 ], [ 21.2810001, 12.4020004 ], [ 21.2290001, 12.3730001 ], [ 21.2010002, 12.2650003 ], [ 21.2369995, 12.1940002 ], [ 21.2730007, 12.0909996 ], [ 21.2159996, 11.9420004 ], [ 21.1359997, 11.8570004 ], [ 21.1140003, 11.7609997 ], [ 21.0650005, 11.6929998 ], [ 21.0559998, 11.6639996 ], [ 20.9740009, 11.7150002 ], [ 20.3029995, 12.0349998 ], [ 20.2369995, 12.0419998 ], [ 20.0189991, 12.0270004 ], [ 20.0109997, 11.9820004 ], [ 19.9210701, 11.9600077 ], [ 19.9060001, 12.04 ], [ 19.8889999, 12.0790005 ], [ 19.9050007, 12.118 ], [ 19.9400005, 12.2460003 ], [ 20.0009995, 12.3850002 ], [ 20.0820007, 12.4940004 ], [ 20.1539993, 12.5310001 ], [ 20.1140003, 12.6140003 ], [ 20.1739998, 12.7270002 ], [ 20.2040005, 12.7290001 ], [ 20.2439995, 12.7639999 ], [ 20.2299995, 12.8000002 ], [ 20.1630001, 12.8380003 ], [ 20.1170006, 12.882 ], [ 20.0450001, 12.9350004 ], [ 20.3309994, 13.0010004 ], [ 20.3570004, 13.0200005 ], [ 20.3689995, 13.3310003 ], [ 20.3640003, 13.4209995 ], [ 20.3139992, 13.5290003 ], [ 20.2670002, 13.6129999 ], [ 20.2950001, 13.7550001 ], [ 20.2679996, 13.8290005 ], [ 20.0559998, 13.9560003 ], [ 20.0620003, 14.0819998 ], [ 20.1359997, 14.158 ], [ 20.2409992, 14.2989998 ], [ 20.2880001, 14.3249998 ], [ 20.3570004, 14.3859997 ], [ 20.4860001, 14.3760004 ], [ 20.5330009, 14.3979998 ], [ 20.6060009, 14.4139996 ], [ 20.7670002, 14.3669996 ], [ 20.8460007, 14.3199997 ], [ 20.9230003, 14.25 ], [ 21.0049992, 14.1529999 ], [ 21.1079998, 14.1289997 ], [ 21.1420002, 14.0959997 ], [ 21.1739998, 14.0439997 ], [ 21.2530003, 14.0389996 ] ] ] ] } },
{ "type": "Feature", "properties": { "POLYGON_ID": "TCD_GAUL2011_ADM1_12928", "ADM0_ISO3": "TCD", "ADM0_NAME": "Chad", "ADM0_CODE": 50, "ADM1_NAME": "Sila", "ADM1_CODE": 12928, "GEOSET": "GAUL", "GEOSET_YEAR": 2011.0, "GEOSET_VERSION": "GAUL_v1", "GEOSET_UNIT": "ADM1", "CENTROID_LONG": 21.998732275676073, "CENTROID_LAT": 11.973968498477516 }, "geometry": { "type": "MultiPolygon", "coordinates": [ [ [ [ 21.815038, 12.8081922 ], [ 21.8609294, 12.7616178 ], [ 21.862663, 12.7260791 ], [ 21.9256502, 12.6613583 ], [ 21.9469899, 12.6238831 ], [ 22.1510842, 12.6737041 ], [ 22.1954471, 12.7109501 ], [ 22.1944982, 12.7557875 ], [ 22.3097945, 12.6891244 ], [ 22.3999438, 12.6499806 ], [ 22.4585409, 12.6333742 ], [ 22.4253767, 12.5395669 ], [ 22.3716012, 12.4314194 ], [ 22.4193872, 12.3957583 ], [ 22.4487656, 12.2645673 ], [ 22.473225, 12.238262 ], [ 22.4962998, 12.163038 ], [ 22.4778399, 12.0324344 ], [ 22.543834, 12.0587397 ], [ 22.6342874, 12.0550477 ], [ 22.5828969, 11.8513985 ], [ 22.5552595, 11.7047887 ], [ 22.5618398, 11.6305625 ], [ 22.6084286, 11.5618638 ], [ 22.6600184, 11.5147486 ], [ 22.7400353, 11.4884272 ], [ 22.7847816, 11.4410488 ], [ 22.7876769, 11.4052518 ], [ 22.8279486, 11.4149907 ], [ 22.94192, 11.4247296 ], [ 22.9342868, 11.3186546 ], [ 22.9790331, 11.3023354 ], [ 22.9882455, 11.2212656 ], [ 22.9306047, 11.0995253 ], [ 22.8755096, 10.9313664 ], [ 22.7714214, 10.9445546 ], [ 22.7686966, 10.9440925 ], [ 22.7343164, 10.9744896 ], [ 22.69475, 10.97524 ], [ 22.6860646, 10.9788785 ], [ 22.63205, 10.99039 ], [ 22.61227, 10.99704 ], [ 22.6094144, 10.9969233 ], [ 22.574724, 10.9857582 ], [ 22.5730298, 10.98435 ], [ 22.5084232, 11.0070507 ], [ 22.4972, 11.00306 ], [ 22.49398, 10.99729 ], [ 22.4912093, 10.9978381 ], [ 22.47696, 11.00064 ], [ 22.46859, 10.99921 ], [ 22.4649788, 10.9951304 ], [ 22.1630001, 11.6339998 ], [ 22.0200005, 11.658 ], [ 21.9489994, 11.7040005 ], [ 21.5610008, 11.6269999 ], [ 21.1669998, 11.5600004 ], [ 21.0960007, 11.5459995 ], [ 21.0990009, 11.6400003 ], [ 21.0559998, 11.6639996 ], [ 21.0650005, 11.6929998 ], [ 21.1140003, 11.7609997 ], [ 21.1359997, 11.8570004 ], [ 21.2159996, 11.9420004 ], [ 21.2730007, 12.0909996 ], [ 21.2369995, 12.1940002 ], [ 21.2010002, 12.2650003 ], [ 21.2290001, 12.3730001 ], [ 21.2810001, 12.4020004 ], [ 21.3029995, 12.4429998 ], [ 21.3099995, 12.4899998 ], [ 21.3530006, 12.5559998 ], [ 21.3579998, 12.6470003 ], [ 21.4200001, 12.7209997 ], [ 21.4839993, 12.7779999 ], [ 21.5389996, 12.8079996 ], [ 21.6809998, 12.8610001 ], [ 21.743, 12.8260002 ], [ 21.815038, 12.8081922 ] ] ] ] } },
{ "type": "Feature", "properties": { "POLYGON_ID": "TCD_GAUL2011_ADM1_12930", "ADM0_ISO3": "TCD", "ADM0_NAME": "Chad", "ADM0_CODE": 50, "ADM1_NAME": "Tandjile Est", "ADM1_CODE": 12930, "GEOSET": "GAUL", "GEOSET_YEAR": 2011.0, "GEOSET_VERSION": "GAUL_v1", "GEOSET_UNIT": "ADM1", "CENTROID_LONG": 16.724487704335186, "CENTROID_LAT": 9.6233878764687297 }, "geometry": { "type": "MultiPolygon", "coordinates": [ [ [ [ 17.3810005, 9.8260002 ], [ 17.4610004, 9.7849998 ], [ 17.5209999, 9.7399998 ], [ 17.5909996, 9.6730003 ], [ 17.5540009, 9.5970001 ], [ 17.507, 9.6160002 ], [ 17.4839993, 9.6409998 ], [ 17.427, 9.6199999 ], [ 17.3169994, 9.5939999 ], [ 17.2509995, 9.5959997 ], [ 17.2089996, 9.5760002 ], [ 17.2159996, 9.5450001 ], [ 17.257, 9.4919996 ], [ 17.2280006, 9.4700003 ], [ 17.2280006, 9.3710003 ], [ 17.0750008, 9.2609997 ], [ 17.2220001, 9.1660004 ], [ 17.1340008, 9.0780001 ], [ 16.9860001, 9.0500002 ], [ 16.7719994, 9.0710001 ], [ 16.684, 9.1129999 ], [ 16.6539993, 9.1059999 ], [ 16.5960007, 9.1490002 ], [ 16.5429993, 9.1529999 ], [ 16.427, 9.118 ], [ 16.4109993, 9.1809998 ], [ 16.3640003, 9.2449999 ], [ 16.3474407, 9.2836409 ], [ 16.2811203, 9.3646479 ], [ 16.2717991, 9.4051733 ], [ 16.2390709, 9.4678211 ], [ 16.2248001, 9.5183401 ], [ 16.1861496, 9.5607691 ], [ 16.1347904, 9.5856171 ], [ 16.0472298, 9.613945 ], [ 16.0160694, 9.6473084 ], [ 15.9735308, 9.668251 ], [ 16.0325298, 9.7018852 ], [ 16.1380005, 9.8104391 ], [ 16.2016697, 9.9109612 ], [ 16.2290802, 9.98349 ], [ 16.2630005, 10.0310001 ], [ 16.243, 10.0860004 ], [ 16.2380009, 10.1800003 ], [ 16.1939392, 10.2091599 ], [ 16.2299995, 10.2019997 ], [ 16.4829998, 10.1999998 ], [ 16.5839996, 10.2650003 ], [ 16.6229992, 10.2340002 ], [ 16.6259995, 10.1459999 ], [ 16.6620007, 10.0710001 ], [ 16.7129993, 10.066 ], [ 16.7679996, 10.0310001 ], [ 16.8969994, 9.9899998 ], [ 16.9419994, 9.9449997 ], [ 17.0400009, 9.9449997 ], [ 17.1639996, 9.9200001 ], [ 17.1879997, 9.8710003 ], [ 17.2560005, 9.8400002 ], [ 17.3220005, 9.8269997 ], [ 17.3810005, 9.8260002 ] ] ] ] } },
{ "type": "Feature", "properties": { "POLYGON_ID": "TCD_GAUL2011_ADM1_12931", "ADM0_ISO3": "TCD", "ADM0_NAME": "Chad", "ADM0_CODE": 50, "ADM1_NAME": "Tandjile Ouest", "ADM1_CODE": 12931, "GEOSET": "GAUL", "GEOSET_YEAR": 2011.0, "GEOSET_VERSION": "GAUL_v1", "GEOSET_UNIT": "ADM1", "CENTROID_LONG": 15.878112817158611, "CENTROID_LAT": 9.3321364301288785 }, "geometry": { "type": "MultiPolygon", "coordinates": [ [ [ [ 15.9735308, 9.668251 ], [ 16.0160694, 9.6473084 ], [ 16.0472298, 9.613945 ], [ 16.1347904, 9.5856171 ], [ 16.1861496, 9.5607691 ], [ 16.2248001, 9.5183401 ], [ 16.2390709, 9.4678211 ], [ 16.2717991, 9.4051733 ], [ 16.2811203, 9.3646479 ], [ 16.3474407, 9.2836409 ], [ 16.3640003, 9.2449999 ], [ 16.2889996, 9.1809998 ], [ 16.2140007, 9.1540003 ], [ 16.1870003, 9.0979996 ], [ 16.1569996, 9.0790014 ], [ 16.0879993, 9.1020002 ], [ 16.0440006, 9.1280003 ], [ 15.9840002, 9.1289997 ], [ 15.9589996, 9.1129999 ], [ 15.9289999, 9.0609999 ], [ 15.8190002, 9.0389996 ], [ 15.7779999, 9.0509996 ], [ 15.6520004, 9.0609999 ], [ 15.573, 9.0229998 ], [ 15.441, 9.0609999 ], [ 15.4320002, 9.092 ], [ 15.4320002, 9.1789999 ], [ 15.4209995, 9.21 ], [ 15.4750004, 9.2889996 ], [ 15.4840002, 9.3190002 ], [ 15.566, 9.4189997 ], [ 15.665, 9.5039997 ], [ 15.6820002, 9.5860004 ], [ 15.7139997, 9.6020002 ], [ 15.7270002, 9.6759996 ], [ 15.7550001, 9.7080002 ], [ 15.7938499, 9.7246761 ], [ 15.8809299, 9.7013931 ], [ 15.8891802, 9.6761198 ], [ 15.9328003, 9.6542292 ], [ 15.9735308, 9.668251 ] ] ] ] } }
]
}
