{
"type": "FeatureCollection",
"name": "THA_GAUL2011_ADM0",
"crs": { "type": "name", "properties": { "name": "urn:ogc:def:crs:OGC:1.3:CRS84" } },
"features": [
{ "type": "Feature", "properties": { "POLYGON_ID": "THA_GAUL2011_ADM0_240", "ADM0_ISO3": "THA", "ADM0_NAME": "Thailand", "ADM0_CODE": 240, "GEOSET": "GAUL", "GEOSET_YEAR": 2011.0, "GEOSET_VERSION": "GAUL_v1", "GEOSET_UNIT": "ADM0", "CENTROID_LONG": 101.01503087896631, "CENTROID_LAT": 15.108969676857823 }, "geometry": { "type": "MultiPolygon", "coordinates": [ [ [ [ 100.0853162, 20.3527318 ], [ 100.0961732, 20.3173159 ], [ 100.0933062, 20.2657105 ], [ 100.1082145, 20.2523313 ], [ 100.1747281, 20.2485087 ], [ 100.1680385, 20.299923 ], [ 100.2133366, 20.313111 ], [ 100.2288182, 20.3326064 ], [ 100.2309206, 20.3608938 ], [ 100.2624572, 20.3972087 ], [ 100.3144449, 20.4027515 ], [ 100.3563382, 20.3785403 ], [ 100.3749529, 20.3515658 ], [ 100.3830489, 20.3142828 ], [ 100.4202207, 20.2492499 ], [ 100.4525223, 20.2319174 ], [ 100.4526656, 20.2042712 ], [ 100.4860632, 20.1819428 ], [ 100.5098704, 20.1489911 ], [ 100.5281594, 20.1437882 ], [ 100.551336, 20.1762669 ], [ 100.5770913, 20.1686477 ], [ 100.5697155, 20.1007931 ], [ 100.5433987, 20.0139127 ], [ 100.5173322, 19.9443044 ], [ 100.5200734, 19.9043603 ], [ 100.4997098, 19.8691154 ], [ 100.4617237, 19.8581504 ], [ 100.44136, 19.8366119 ], [ 100.4386188, 19.7915768 ], [ 100.4170803, 19.7841363 ], [ 100.4037656, 19.7539824 ], [ 100.4542831, 19.6944578 ], [ 100.4648566, 19.6674368 ], [ 100.4905374, 19.6520421 ], [ 100.4814551, 19.6092257 ], [ 100.4892399, 19.5709504 ], [ 100.4730216, 19.5586245 ], [ 100.5236228, 19.5190517 ], [ 100.5755215, 19.5008872 ], [ 100.5975784, 19.5041309 ], [ 100.6079581, 19.5527859 ], [ 100.6313125, 19.5579757 ], [ 100.6734802, 19.5501909 ], [ 100.731097, 19.5257922 ], [ 100.7647704, 19.4994579 ], [ 100.8167915, 19.5273032 ], [ 100.8929193, 19.6343504 ], [ 100.9173825, 19.6251767 ], [ 100.9966331, 19.6251767 ], [ 101.0233897, 19.6307829 ], [ 101.0618683, 19.6177868 ], [ 101.0720613, 19.5920495 ], [ 101.1225167, 19.5721731 ], [ 101.1617598, 19.5833854 ], [ 101.1979449, 19.5775244 ], [ 101.2071186, 19.6050455 ], [ 101.2494016, 19.5942028 ], [ 101.2879766, 19.5692872 ], [ 101.2848403, 19.5339493 ], [ 101.2675122, 19.5041348 ], [ 101.2642857, 19.4625972 ], [ 101.2305046, 19.4749836 ], [ 101.212488, 19.4676644 ], [ 101.2079031, 19.4380737 ], [ 101.2211209, 19.4184941 ], [ 101.1956095, 19.4017053 ], [ 101.2046057, 19.3501812 ], [ 101.2355635, 19.323334 ], [ 101.2260004, 19.3077671 ], [ 101.2588527, 19.227611 ], [ 101.2442715, 19.1783725 ], [ 101.2540039, 19.1332962 ], [ 101.2980557, 19.0928299 ], [ 101.3551327, 19.0502947 ], [ 101.3456213, 19.006323 ], [ 101.3077881, 19.0016528 ], [ 101.291909, 18.975529 ], [ 101.2944701, 18.942234 ], [ 101.2452959, 18.8899864 ], [ 101.2548669, 18.8486186 ], [ 101.2459087, 18.8079496 ], [ 101.2506514, 18.7801706 ], [ 101.2228724, 18.7293554 ], [ 101.2347819, 18.6916581 ], [ 101.2574268, 18.6792177 ], [ 101.2357456, 18.6345004 ], [ 101.1795101, 18.6128192 ], [ 101.1815427, 18.5674243 ], [ 101.1462591, 18.5532948 ], [ 101.1320826, 18.5281272 ], [ 101.1015935, 18.5213518 ], [ 101.0897236, 18.4796498 ], [ 101.0528109, 18.4447903 ], [ 101.0541659, 18.4271743 ], [ 101.0805899, 18.4034606 ], [ 101.0882358, 18.3799687 ], [ 101.1828978, 18.3309642 ], [ 101.1901485, 18.3092993 ], [ 101.1463109, 18.2632106 ], [ 101.1639268, 18.2164606 ], [ 101.1919821, 18.1968465 ], [ 101.168044, 18.1577711 ], [ 101.160941, 18.1198045 ], [ 101.1874057, 18.0672992 ], [ 101.160393, 18.0310848 ], [ 101.1191118, 17.996893 ], [ 101.1127752, 17.928247 ], [ 101.1226321, 17.8990284 ], [ 101.0846127, 17.8409433 ], [ 101.0560982, 17.8476319 ], [ 101.0384967, 17.8240459 ], [ 100.9997733, 17.8187654 ], [ 101.0054058, 17.7849704 ], [ 100.9839319, 17.7701851 ], [ 101.0016744, 17.7116357 ], [ 101.0313599, 17.6825561 ], [ 101.0095502, 17.6334842 ], [ 100.9937987, 17.6256085 ], [ 100.9673133, 17.5722114 ], [ 101.03729, 17.5466937 ], [ 101.0805224, 17.5026622 ], [ 101.1470973, 17.4765726 ], [ 101.1832099, 17.4980928 ], [ 101.1751522, 17.5241332 ], [ 101.2295422, 17.5360725 ], [ 101.2615276, 17.5991099 ], [ 101.3125275, 17.6398409 ], [ 101.345551, 17.6588472 ], [ 101.3807902, 17.6970375 ], [ 101.4060479, 17.7007697 ], [ 101.4036176, 17.7354882 ], [ 101.436687, 17.7316691 ], [ 101.4558689, 17.7467717 ], [ 101.4870287, 17.7462509 ], [ 101.5676624, 17.8029288 ], [ 101.5516919, 17.8096989 ], [ 101.5658217, 17.843808 ], [ 101.6015733, 17.855893 ], [ 101.6181903, 17.8939106 ], [ 101.6917076, 17.9125417 ], [ 101.7085763, 17.9037297 ], [ 101.7314875, 17.9203466 ], [ 101.7284906, 17.9484649 ], [ 101.7457423, 17.9700491 ], [ 101.7742494, 18.0598612 ], [ 101.7892522, 18.0703632 ], [ 101.8155535, 18.0540564 ], [ 101.8843627, 18.0270004 ], [ 101.9082454, 18.0313427 ], [ 101.9445319, 18.0883666 ], [ 101.9932913, 18.1206228 ], [ 102.0350408, 18.1562379 ], [ 102.0433082, 18.1929969 ], [ 102.0690317, 18.2109854 ], [ 102.0976908, 18.2150526 ], [ 102.1642552, 18.2018646 ], [ 102.1827259, 18.1531687 ], [ 102.2197628, 18.1166044 ], [ 102.2461062, 18.1016564 ], [ 102.2857655, 18.0570851 ], [ 102.3461007, 18.0450939 ], [ 102.4271931, 17.9862778 ], [ 102.4689429, 17.9678115 ], [ 102.5525955, 17.9696658 ], [ 102.5933895, 17.9608532 ], [ 102.6094472, 17.9464014 ], [ 102.6097148, 17.897158 ], [ 102.5876939, 17.8743065 ], [ 102.5968687, 17.8353361 ], [ 102.6774245, 17.8037561 ], [ 102.696426, 17.8251663 ], [ 102.6782273, 17.8449707 ], [ 102.6996375, 17.8765507 ], [ 102.7488809, 17.8893968 ], [ 102.7941635, 17.9381998 ], [ 102.8173377, 17.9406652 ], [ 102.8535231, 17.9702202 ], [ 102.8984845, 17.9819958 ], [ 102.9528128, 18.0050117 ], [ 102.9914797, 17.9938273 ], [ 103.0181138, 17.9723612 ], [ 103.0408621, 17.9806576 ], [ 103.0759213, 18.0309715 ], [ 103.0719069, 18.0743271 ], [ 103.0822866, 18.131123 ], [ 103.1436537, 18.1680764 ], [ 103.1548661, 18.1993107 ], [ 103.1496603, 18.230545 ], [ 103.1704832, 18.260578 ], [ 103.2814051, 18.2946155 ], [ 103.2906153, 18.3238476 ], [ 103.2545756, 18.3362612 ], [ 103.2435068, 18.3663073 ], [ 103.2719145, 18.4034828 ], [ 103.305832, 18.4327673 ], [ 103.4207583, 18.4459818 ], [ 103.4608023, 18.4255594 ], [ 103.5308793, 18.4251589 ], [ 103.5705229, 18.4055374 ], [ 103.6241818, 18.3959268 ], [ 103.6620902, 18.3644945 ], [ 103.7030685, 18.3418674 ], [ 103.8023777, 18.3422678 ], [ 103.8318489, 18.3293054 ], [ 103.8567957, 18.2834066 ], [ 103.8878258, 18.2954739 ], [ 103.9393282, 18.3354603 ], [ 103.9853788, 18.3262502 ], [ 104.0154118, 18.2769961 ], [ 104.0607561, 18.2211614 ], [ 104.1100242, 18.1091007 ], [ 104.2170011, 17.9930684 ], [ 104.2765842, 17.8607313 ], [ 104.299163, 17.8450516 ], [ 104.3436935, 17.8343894 ], [ 104.3625092, 17.8124377 ], [ 104.397392, 17.7481077 ], [ 104.4779121, 17.6462324 ], [ 104.5326211, 17.6147485 ], [ 104.5732696, 17.5983678 ], [ 104.698683, 17.5302022 ], [ 104.7187531, 17.509505 ], [ 104.7526213, 17.4492947 ], [ 104.7971518, 17.397238 ], [ 104.7959705, 17.3621304 ], [ 104.8078311, 17.2970884 ], [ 104.8034237, 17.2009275 ], [ 104.7572181, 17.056569 ], [ 104.7290997, 17.0075672 ], [ 104.7345927, 16.9076732 ], [ 104.7626318, 16.8439703 ], [ 104.7419591, 16.8177144 ], [ 104.7432135, 16.773184 ], [ 104.7595204, 16.6947852 ], [ 104.7432135, 16.6239128 ], [ 104.7338056, 16.5593122 ], [ 104.7400775, 16.5298343 ], [ 104.7971518, 16.4796591 ], [ 104.837292, 16.4608434 ], [ 104.8636791, 16.4230161 ], [ 104.8889203, 16.3573891 ], [ 104.9304216, 16.3304173 ], [ 104.957716, 16.2920891 ], [ 104.9881075, 16.272925 ], [ 105.0177248, 16.2336289 ], [ 105.0109496, 16.2073024 ], [ 105.0483916, 16.1020501 ], [ 105.0862157, 16.0861506 ], [ 105.1299362, 16.0795115 ], [ 105.2036886, 16.0520209 ], [ 105.2860293, 16.0399524 ], [ 105.3193322, 16.0297171 ], [ 105.4171021, 16.0133712 ], [ 105.4193936, 15.9866372 ], [ 105.3887426, 15.9921114 ], [ 105.3688586, 15.9757624 ], [ 105.3388862, 15.918351 ], [ 105.3562547, 15.896499 ], [ 105.3896043, 15.8260806 ], [ 105.388535, 15.8079015 ], [ 105.4403225, 15.75092 ], [ 105.4672092, 15.7452677 ], [ 105.5067755, 15.7668076 ], [ 105.531218, 15.7493923 ], [ 105.5993514, 15.7225056 ], [ 105.612031, 15.689661 ], [ 105.6358624, 15.6565109 ], [ 105.6247105, 15.5708094 ], [ 105.6025595, 15.5422422 ], [ 105.592477, 15.5107725 ], [ 105.602254, 15.4806777 ], [ 105.5926298, 15.4288902 ], [ 105.5681873, 15.4030728 ], [ 105.5020398, 15.3926847 ], [ 105.4754586, 15.3693116 ], [ 105.4681258, 15.3369253 ], [ 105.5075365, 15.3181959 ], [ 105.5734763, 15.3270273 ], [ 105.5775748, 15.2978208 ], [ 105.5957396, 15.2738717 ], [ 105.5848984, 15.2575407 ], [ 105.5345566, 15.2453292 ], [ 105.4879152, 15.1965817 ], [ 105.4707396, 15.1646161 ], [ 105.4898236, 15.149826 ], [ 105.4781825, 15.1272845 ], [ 105.4860068, 15.0987764 ], [ 105.5257104, 15.0695027 ], [ 105.5516026, 15.0695027 ], [ 105.5442129, 15.0338909 ], [ 105.5685449, 15.014807 ], [ 105.5716906, 14.991836 ], [ 105.5975922, 14.9940172 ], [ 105.6278562, 14.9738412 ], [ 105.5847778, 14.9394875 ], [ 105.5547865, 14.9343072 ], [ 105.581506, 14.8964091 ], [ 105.5471523, 14.8685989 ], [ 105.5716906, 14.8102522 ], [ 105.5299754, 14.8023454 ], [ 105.5207054, 14.7589943 ], [ 105.5275216, 14.7268218 ], [ 105.5328814, 14.6430428 ], [ 105.5437255, 14.585083 ], [ 105.5287682, 14.5379672 ], [ 105.5122533, 14.5291517 ], [ 105.4465213, 14.4373518 ], [ 105.3556365, 14.37381 ], [ 105.3193649, 14.3876456 ], [ 105.3103905, 14.3734361 ], [ 105.2357416, 14.3366745 ], [ 105.2000703, 14.3427087 ], [ 105.13495, 14.22445 ], [ 105.09841, 14.20767 ], [ 105.0519, 14.21422 ], [ 105.03071, 14.23097 ], [ 105.02414, 14.26332 ], [ 104.99788, 14.30576 ], [ 105.00081, 14.36812 ], [ 104.97887, 14.386 ], [ 104.94901, 14.38033 ], [ 104.87706, 14.41573 ], [ 104.8494281, 14.402261 ], [ 104.80534, 14.43433 ], [ 104.75905, 14.40634 ], [ 104.72932, 14.40732 ], [ 104.71348, 14.42688 ], [ 104.67412, 14.39322 ], [ 104.64611, 14.42135 ], [ 104.59879, 14.38481 ], [ 104.57803, 14.35439 ], [ 104.54864, 14.34868 ], [ 104.51744, 14.36916 ], [ 104.48737, 14.36183 ], [ 104.47679, 14.34466 ], [ 104.42817, 14.36304 ], [ 104.35569, 14.36886 ], [ 104.33619, 14.36489 ], [ 104.30065, 14.38965 ], [ 104.26028, 14.39294 ], [ 104.23801, 14.36789 ], [ 104.20568, 14.40061 ], [ 104.17528, 14.37094 ], [ 104.11234, 14.37017 ], [ 104.09291, 14.34756 ], [ 104.02385, 14.33288 ], [ 104.00487, 14.3535 ], [ 103.94366, 14.34836 ], [ 103.9256369, 14.326912 ], [ 103.88248, 14.34114 ], [ 103.8542, 14.36666 ], [ 103.82973, 14.35107 ], [ 103.797868, 14.3654797 ], [ 103.71395, 14.37762 ], [ 103.70615, 14.42946 ], [ 103.66257, 14.43951 ], [ 103.66047, 14.41279 ], [ 103.62162, 14.39671 ], [ 103.58842, 14.41958 ], [ 103.53272, 14.40893 ], [ 103.469, 14.36225 ], [ 103.44025, 14.38611 ], [ 103.39986, 14.35248 ], [ 103.34045, 14.35253 ], [ 103.2722092, 14.3455095 ], [ 103.23583, 14.32527 ], [ 103.18694, 14.32963 ], [ 103.1475691, 14.3182996 ], [ 103.09269, 14.29263 ], [ 103.05042, 14.26236 ], [ 103.02265, 14.22617 ], [ 102.98752, 14.20327 ], [ 102.96131, 14.20128 ], [ 102.94219, 14.17775 ], [ 102.94485, 14.14832 ], [ 102.92278, 14.09887 ], [ 102.9081598, 14.0872187 ], [ 102.90249, 14.05444 ], [ 102.9103196, 14.0146998 ], [ 102.86694, 13.99783 ], [ 102.79501, 13.9323 ], [ 102.76572, 13.84775 ], [ 102.7465, 13.81685 ], [ 102.72752, 13.76362 ], [ 102.60907, 13.69969 ], [ 102.590158, 13.6954578 ], [ 102.55812, 13.65345 ], [ 102.59652, 13.62477 ], [ 102.56755, 13.57703 ], [ 102.53292, 13.56231 ], [ 102.48079, 13.56565 ], [ 102.45314, 13.55792 ], [ 102.40317, 13.56282 ], [ 102.3712, 13.57495 ], [ 102.34, 13.54311 ], [ 102.36573, 13.50118 ], [ 102.36091, 13.4536 ], [ 102.36502, 13.39806 ], [ 102.35065, 13.33389 ], [ 102.35158, 13.29777 ], [ 102.39355, 13.18946 ], [ 102.40653, 13.14639 ], [ 102.44162, 13.0824 ], [ 102.46555, 13.07928 ], [ 102.49997, 13.01665 ], [ 102.51675, 13.00216 ], [ 102.49078, 12.973 ], [ 102.48968, 12.94688 ], [ 102.51544, 12.88376 ], [ 102.50377, 12.85038 ], [ 102.52104, 12.81958 ], [ 102.54329, 12.81378 ], [ 102.53448, 12.766 ], [ 102.51303, 12.73626 ], [ 102.50632, 12.69265 ], [ 102.53017, 12.6542 ], [ 102.57481, 12.64827 ], [ 102.61264, 12.61783 ], [ 102.64328, 12.60341 ], [ 102.6501, 12.58141 ], [ 102.68122, 12.54441 ], [ 102.71922, 12.52386 ], [ 102.74107, 12.46978 ], [ 102.78043, 12.45908 ], [ 102.79262, 12.43673 ], [ 102.79222, 12.40612 ], [ 102.74464, 12.36886 ], [ 102.73862, 12.29163 ], [ 102.72461, 12.24678 ], [ 102.7274, 12.22324 ], [ 102.71561, 12.1726 ], [ 102.72902, 12.12974 ], [ 102.7813795, 12.048321 ], [ 102.78373, 11.98036 ], [ 102.80179, 11.96042 ], [ 102.82687, 11.90695 ], [ 102.82977, 11.87811 ], [ 102.85305, 11.82882 ], [ 102.90407, 11.77688 ], [ 102.91697, 11.74599 ], [ 102.9206057, 11.669859 ], [ 102.910947, 11.6472083 ], [ 102.9007933, 11.6869658 ], [ 102.9068893, 11.7121335 ], [ 102.871651, 11.7869322 ], [ 102.7824878, 11.8996849 ], [ 102.7729925, 11.9222095 ], [ 102.7845749, 11.9458952 ], [ 102.7670933, 11.9794848 ], [ 102.7662007, 12.0226866 ], [ 102.7539075, 12.0416458 ], [ 102.6622679, 12.1217291 ], [ 102.6244219, 12.1501788 ], [ 102.6475586, 12.1639795 ], [ 102.6358827, 12.183866 ], [ 102.5928243, 12.2112495 ], [ 102.5620348, 12.185088 ], [ 102.5557665, 12.1623123 ], [ 102.5863811, 12.0459938 ], [ 102.5475518, 12.0586468 ], [ 102.5511836, 12.0829531 ], [ 102.525019, 12.118899 ], [ 102.4753203, 12.1407035 ], [ 102.4694915, 12.1648158 ], [ 102.3984775, 12.1677681 ], [ 102.3689315, 12.1928849 ], [ 102.3335461, 12.1961777 ], [ 102.3249324, 12.1801475 ], [ 102.2954265, 12.1868208 ], [ 102.2790331, 12.2060224 ], [ 102.2889896, 12.2297347 ], [ 102.2649823, 12.2686937 ], [ 102.2552623, 12.3058118 ], [ 102.2235823, 12.3282741 ], [ 102.1646674, 12.3941686 ], [ 102.1246689, 12.4225227 ], [ 102.1014523, 12.4550052 ], [ 102.0713005, 12.4769097 ], [ 102.0526855, 12.4725807 ], [ 102.0221029, 12.5209722 ], [ 101.9812121, 12.5418043 ], [ 101.9450236, 12.5317908 ], [ 101.8966172, 12.5708708 ], [ 101.9052304, 12.5960463 ], [ 101.8672987, 12.6134468 ], [ 101.8628118, 12.6422246 ], [ 101.8106088, 12.6809802 ], [ 101.7507324, 12.7076738 ], [ 101.72315, 12.7051666 ], [ 101.6731807, 12.6840394 ], [ 101.6415598, 12.6434091 ], [ 101.5930289, 12.653125 ], [ 101.564692, 12.6462456 ], [ 101.5565349, 12.626907 ], [ 101.4519569, 12.6310666 ], [ 101.4263927, 12.6184449 ], [ 101.4202158, 12.5871564 ], [ 101.3598358, 12.6235699 ], [ 101.2846314, 12.6545104 ], [ 101.2325494, 12.6653054 ], [ 101.1085341, 12.6787421 ], [ 101.0686256, 12.6746251 ], [ 100.969822, 12.6462581 ], [ 100.9637815, 12.5947906 ], [ 100.9243568, 12.6122792 ], [ 100.9297234, 12.6460031 ], [ 100.9171655, 12.6582967 ], [ 100.8596756, 12.6517953 ], [ 100.8558085, 12.6761787 ], [ 100.8337637, 12.7126863 ], [ 100.8337767, 12.7329379 ], [ 100.854701, 12.7613612 ], [ 100.8839536, 12.7612027 ], [ 100.9078464, 12.7896963 ], [ 100.9114357, 12.8208047 ], [ 100.8899911, 12.870603 ], [ 100.8566346, 12.9086261 ], [ 100.8838626, 12.9409425 ], [ 100.9276739, 13.0080708 ], [ 100.9146243, 13.0448695 ], [ 100.8926975, 13.0384941 ], [ 100.8718098, 13.0831431 ], [ 100.8787561, 13.1081152 ], [ 100.9244617, 13.1683122 ], [ 100.9362134, 13.2029196 ], [ 100.927779, 13.2574423 ], [ 100.9016514, 13.2982624 ], [ 100.9184393, 13.3308607 ], [ 100.9762695, 13.3587382 ], [ 100.9838811, 13.3935901 ], [ 100.968786, 13.4290377 ], [ 100.9746652, 13.479818 ], [ 100.9409757, 13.4625754 ], [ 100.8760407, 13.4713997 ], [ 100.7910759, 13.4928723 ], [ 100.6811137, 13.5061946 ], [ 100.6377215, 13.5182582 ], [ 100.6163821, 13.5334824 ], [ 100.5877181, 13.5324177 ], [ 100.5728089, 13.514945 ], [ 100.4644022, 13.499209 ], [ 100.3302187, 13.4861017 ], [ 100.2748119, 13.5050081 ], [ 100.2660788, 13.484686 ], [ 100.22781, 13.4682034 ], [ 100.141222, 13.4449429 ], [ 100.0612787, 13.418103 ], [ 100.0225341, 13.3613798 ], [ 99.9988514, 13.3678547 ], [ 99.9992144, 13.3342335 ], [ 99.9551696, 13.304467 ], [ 99.9446847, 13.269901 ], [ 99.9978055, 13.220692 ], [ 100.0062733, 13.1983514 ], [ 100.0693366, 13.1517155 ], [ 100.0641615, 13.0896508 ], [ 100.1019045, 13.0537625 ], [ 100.0422256, 12.9686584 ], [ 100.0287675, 12.9330791 ], [ 100.0236753, 12.8867663 ], [ 100.0001551, 12.8378432 ], [ 99.9737296, 12.7654781 ], [ 99.964226, 12.725167 ], [ 99.9547358, 12.6203107 ], [ 99.9571787, 12.5782866 ], [ 99.9777401, 12.518429 ], [ 99.9815823, 12.424371 ], [ 99.9925325, 12.4114335 ], [ 99.9979491, 12.3419981 ], [ 99.9743939, 12.263156 ], [ 100.0052831, 12.222403 ], [ 100.0190214, 12.1873066 ], [ 99.9778637, 12.1478443 ], [ 99.9452592, 12.0832633 ], [ 99.8715067, 12.0029346 ], [ 99.8379198, 11.952791 ], [ 99.8128982, 11.887431 ], [ 99.8257758, 11.8492804 ], [ 99.8064489, 11.8298204 ], [ 99.7963459, 11.7651509 ], [ 99.7869145, 11.7421547 ], [ 99.7327771, 11.6902153 ], [ 99.6773051, 11.5928592 ], [ 99.6392461, 11.5185248 ], [ 99.6279898, 11.4705877 ], [ 99.5814384, 11.3644503 ], [ 99.5571346, 11.3257638 ], [ 99.5506641, 11.2716766 ], [ 99.5596952, 11.2351843 ], [ 99.5823758, 11.2087256 ], [ 99.5396017, 11.2067969 ], [ 99.4964165, 11.1632774 ], [ 99.4867895, 11.1143475 ], [ 99.5019328, 11.0454941 ], [ 99.499908, 10.9942441 ], [ 99.4897702, 10.9632335 ], [ 99.4956211, 10.9263057 ], [ 99.5197108, 10.8955823 ], [ 99.5004915, 10.8680727 ], [ 99.4420371, 10.871157 ], [ 99.423205, 10.7948909 ], [ 99.3798946, 10.7073618 ], [ 99.3190926, 10.6689392 ], [ 99.2852352, 10.6095171 ], [ 99.273835, 10.5421818 ], [ 99.243927, 10.5419753 ], [ 99.229589, 10.4909679 ], [ 99.2396, 10.4497678 ], [ 99.2754364, 10.4230342 ], [ 99.2857068, 10.3679457 ], [ 99.2751582, 10.3537207 ], [ 99.2407625, 10.346471 ], [ 99.2050483, 10.3726853 ], [ 99.1673915, 10.3627622 ], [ 99.1462324, 10.3428473 ], [ 99.1528937, 10.2994737 ], [ 99.1641444, 10.2805879 ], [ 99.1934166, 10.2650249 ], [ 99.2104413, 10.2376011 ], [ 99.212921, 10.2093613 ], [ 99.1901794, 10.2084235 ], [ 99.1824094, 10.1753669 ], [ 99.1476036, 10.1203672 ], [ 99.1515269, 10.0713264 ], [ 99.1798309, 10.0305591 ], [ 99.1518428, 9.9962681 ], [ 99.1655508, 9.8596531 ], [ 99.14638, 9.8413768 ], [ 99.1383107, 9.8129151 ], [ 99.1459908, 9.7428999 ], [ 99.1632575, 9.6752016 ], [ 99.1781051, 9.6429649 ], [ 99.2098773, 9.5999812 ], [ 99.2136691, 9.5539407 ], [ 99.2414379, 9.4866958 ], [ 99.2625604, 9.4498636 ], [ 99.3023994, 9.4088062 ], [ 99.2764898, 9.3871536 ], [ 99.2622975, 9.360949 ], [ 99.2384114, 9.3527718 ], [ 99.2162091, 9.3288034 ], [ 99.2240493, 9.2559094 ], [ 99.2473986, 9.2272149 ], [ 99.2737821, 9.2169077 ], [ 99.3066515, 9.2384588 ], [ 99.3344098, 9.2254193 ], [ 99.3726732, 9.1909437 ], [ 99.4140601, 9.2057574 ], [ 99.4608272, 9.1981896 ], [ 99.4916346, 9.2131254 ], [ 99.5094331, 9.2603973 ], [ 99.5353617, 9.2864885 ], [ 99.588808, 9.2679686 ], [ 99.6141044, 9.2695649 ], [ 99.6483508, 9.3040542 ], [ 99.6668635, 9.3035649 ], [ 99.6887241, 9.3278308 ], [ 99.7232473, 9.3124678 ], [ 99.7413321, 9.326314 ], [ 99.8064838, 9.2996351 ], [ 99.8367366, 9.30348 ], [ 99.8445212, 9.262905 ], [ 99.8787292, 9.2184884 ], [ 99.8733595, 9.1628634 ], [ 99.8814773, 9.1253975 ], [ 99.9089363, 9.098884 ], [ 99.9168455, 8.9982342 ], [ 99.9127344, 8.9519426 ], [ 99.9181464, 8.8827416 ], [ 99.9332872, 8.799229 ], [ 99.9520667, 8.6328988 ], [ 99.9736342, 8.5888741 ], [ 99.9913438, 8.5930622 ], [ 100.0423764, 8.5238321 ], [ 100.0830564, 8.4205793 ], [ 100.1385036, 8.3890618 ], [ 100.1689866, 8.3947436 ], [ 100.14834, 8.438828 ], [ 100.1696503, 8.5020773 ], [ 100.211088, 8.4486525 ], [ 100.251793, 8.3402371 ], [ 100.2810136, 8.23877 ], [ 100.2985315, 8.1553992 ], [ 100.3332457, 7.9457863 ], [ 100.3598108, 7.8183984 ], [ 100.4338724, 7.5157667 ], [ 100.4516456, 7.4567693 ], [ 100.4887485, 7.3574294 ], [ 100.5186363, 7.2983914 ], [ 100.563984, 7.2309715 ], [ 100.5803905, 7.231006 ], [ 100.6227991, 7.1822782 ], [ 100.6844441, 7.0854158 ], [ 100.7457373, 7.0057519 ], [ 100.777141, 6.9754 ], [ 100.8129909, 6.9536485 ], [ 100.849137, 6.9620181 ], [ 100.8965994, 6.9190111 ], [ 100.9456316, 6.8835032 ], [ 101.0041508, 6.855916 ], [ 101.0555068, 6.8549248 ], [ 101.1061319, 6.8622964 ], [ 101.1644221, 6.8602242 ], [ 101.2219087, 6.8766224 ], [ 101.2627674, 6.9030347 ], [ 101.2888214, 6.8781753 ], [ 101.3285596, 6.8735276 ], [ 101.3464797, 6.8910414 ], [ 101.3848222, 6.8952575 ], [ 101.4559952, 6.8836171 ], [ 101.5569671, 6.8461441 ], [ 101.6288178, 6.7227513 ], [ 101.6599154, 6.6787755 ], [ 101.7450332, 6.546336 ], [ 101.7862857, 6.4888801 ], [ 101.8222891, 6.4484869 ], [ 101.8745104, 6.4245409 ], [ 101.9474357, 6.3430952 ], [ 101.988022, 6.3111431 ], [ 102.0910223, 6.2408725 ], [ 102.0826164, 6.2293153 ], [ 102.0784519, 6.1714064 ], [ 102.0931963, 6.1484873 ], [ 102.0612872, 6.1030047 ], [ 102.0537866, 6.0799364 ], [ 102.0032546, 6.0502679 ], [ 101.9457767, 5.9873564 ], [ 101.9446857, 5.9577433 ], [ 101.9231927, 5.9233883 ], [ 101.9439064, 5.8729563 ], [ 101.9167396, 5.8427478 ], [ 101.884071, 5.837697 ], [ 101.8667665, 5.7913103 ], [ 101.8390809, 5.7908567 ], [ 101.8195678, 5.7302493 ], [ 101.7774349, 5.7650548 ], [ 101.755689, 5.7958031 ], [ 101.7170566, 5.779685 ], [ 101.7139865, 5.7561474 ], [ 101.6894255, 5.7569149 ], [ 101.6587243, 5.8144797 ], [ 101.6569334, 5.8756262 ], [ 101.6221387, 5.874347 ], [ 101.6139518, 5.9099092 ], [ 101.5909259, 5.9178404 ], [ 101.5430831, 5.9186079 ], [ 101.5164754, 5.9017223 ], [ 101.4883327, 5.8684626 ], [ 101.4553289, 5.8656483 ], [ 101.3941823, 5.8725561 ], [ 101.3729473, 5.8288069 ], [ 101.3483864, 5.8085953 ], [ 101.2808437, 5.8114096 ], [ 101.2629347, 5.7981057 ], [ 101.2511659, 5.7604967 ], [ 101.2611438, 5.7116307 ], [ 101.244514, 5.689884 ], [ 101.2219997, 5.6837437 ], [ 101.2163712, 5.6586711 ], [ 101.1746687, 5.6453672 ], [ 101.148061, 5.613131 ], [ 101.126826, 5.6330867 ], [ 101.1224767, 5.6689048 ], [ 101.084356, 5.7090722 ], [ 101.0851235, 5.7198176 ], [ 101.0395834, 5.7364475 ], [ 101.0219302, 5.7638227 ], [ 100.9919966, 5.7863369 ], [ 100.9876472, 5.8065485 ], [ 101.0145108, 5.8364822 ], [ 101.0155342, 5.8838132 ], [ 101.0406068, 5.9186079 ], [ 101.0881937, 5.9104209 ], [ 101.1224767, 5.9810337 ], [ 101.1002183, 6.0485763 ], [ 101.1211975, 6.1143281 ], [ 101.0889612, 6.1355631 ], [ 101.0626093, 6.1414475 ], [ 101.0769366, 6.1713812 ], [ 101.1227325, 6.189546 ], [ 101.1117313, 6.2506926 ], [ 101.0833326, 6.2604146 ], [ 101.0201393, 6.2463433 ], [ 100.9873914, 6.2767886 ], [ 100.9469681, 6.2637406 ], [ 100.9449214, 6.2427614 ], [ 100.8858216, 6.2552978 ], [ 100.8533295, 6.2317602 ], [ 100.8346529, 6.2954652 ], [ 100.849236, 6.315421 ], [ 100.8216049, 6.3568676 ], [ 100.824675, 6.4026635 ], [ 100.8123945, 6.444366 ], [ 100.7768323, 6.4632984 ], [ 100.7543181, 6.4579257 ], [ 100.7412701, 6.4883711 ], [ 100.7128715, 6.4806958 ], [ 100.6537717, 6.4420634 ], [ 100.6110458, 6.4714854 ], [ 100.5114342, 6.4922794 ], [ 100.4890233, 6.5260297 ], [ 100.460066, 6.5315609 ], [ 100.4232568, 6.5175372 ], [ 100.3736001, 6.5452746 ], [ 100.3531557, 6.571776 ], [ 100.3253697, 6.586067 ], [ 100.3242137, 6.6600596 ], [ 100.294033, 6.6805132 ], [ 100.2907677, 6.7100169 ], [ 100.2431389, 6.6924472 ], [ 100.2168902, 6.7172142 ], [ 100.1923349, 6.7203894 ], [ 100.1785755, 6.6971042 ], [ 100.1806923, 6.6575194 ], [ 100.1597356, 6.5739044 ], [ 100.1565604, 6.518655 ], [ 100.1629109, 6.5000269 ], [ 100.1470346, 6.4498579 ], [ 100.1212535, 6.4217143 ], [ 100.102022, 6.4958605 ], [ 100.0971139, 6.5386135 ], [ 100.0775259, 6.5520909 ], [ 100.0646927, 6.5157819 ], [ 100.0479493, 6.5228115 ], [ 100.0087469, 6.5609882 ], [ 99.9927924, 6.5901953 ], [ 99.9507357, 6.6128805 ], [ 99.9745215, 6.6285012 ], [ 99.9337063, 6.657697 ], [ 99.9075525, 6.6953594 ], [ 99.9034198, 6.7211467 ], [ 99.8768841, 6.720667 ], [ 99.8697932, 6.7419723 ], [ 99.8382588, 6.7782779 ], [ 99.806082, 6.7752529 ], [ 99.7843298, 6.8331389 ], [ 99.7636175, 6.8347134 ], [ 99.7048039, 6.8597039 ], [ 99.6927648, 6.8750755 ], [ 99.6813719, 6.9424476 ], [ 99.6934787, 6.9553262 ], [ 99.6754602, 6.9831035 ], [ 99.6700677, 7.0427273 ], [ 99.7138023, 7.0880808 ], [ 99.7361223, 7.1261281 ], [ 99.7053477, 7.134095 ], [ 99.6731699, 7.1170293 ], [ 99.6548923, 7.1792636 ], [ 99.6122855, 7.1383193 ], [ 99.5851196, 7.1467576 ], [ 99.5601402, 7.2039627 ], [ 99.522289, 7.2493415 ], [ 99.532153, 7.2820662 ], [ 99.5597461, 7.288277 ], [ 99.5594303, 7.3177539 ], [ 99.5252112, 7.2960616 ], [ 99.4909152, 7.3221014 ], [ 99.4718391, 7.2838897 ], [ 99.4043938, 7.3135001 ], [ 99.3385798, 7.3779847 ], [ 99.3493301, 7.4016209 ], [ 99.3452846, 7.4422136 ], [ 99.3246427, 7.4982904 ], [ 99.3040801, 7.5176528 ], [ 99.3134839, 7.5366524 ], [ 99.2790052, 7.6013496 ], [ 99.251777, 7.6386747 ], [ 99.2614266, 7.6534204 ], [ 99.2399824, 7.6809174 ], [ 99.1771469, 7.7056296 ], [ 99.1525495, 7.7420237 ], [ 99.1250273, 7.7477961 ], [ 99.1075936, 7.7062247 ], [ 99.0843471, 7.6903033 ], [ 99.0402448, 7.7035525 ], [ 99.0204446, 7.7629486 ], [ 99.0291667, 7.7937846 ], [ 99.0175766, 7.8227684 ], [ 99.0433605, 7.8334798 ], [ 99.0646012, 7.8611322 ], [ 99.0488148, 7.8999012 ], [ 99.0265749, 7.8893395 ], [ 99.0165313, 7.9235724 ], [ 98.9925722, 7.9408077 ], [ 98.9737488, 7.9358797 ], [ 98.9460154, 7.9777391 ], [ 98.956249, 7.9963302 ], [ 98.9346504, 8.0229759 ], [ 98.903252, 8.0406588 ], [ 98.8853599, 8.0217692 ], [ 98.859313, 8.0271426 ], [ 98.8374229, 8.0118372 ], [ 98.7995642, 8.0463516 ], [ 98.7719714, 8.0400589 ], [ 98.7496168, 8.0531008 ], [ 98.7398528, 8.0768129 ], [ 98.7572672, 8.1343749 ], [ 98.7387015, 8.1562378 ], [ 98.7522349, 8.1842233 ], [ 98.737222, 8.2286416 ], [ 98.7231467, 8.2325135 ], [ 98.7162636, 8.2758088 ], [ 98.6829277, 8.3027403 ], [ 98.6474336, 8.2764516 ], [ 98.6265158, 8.2858 ], [ 98.6394634, 8.3495904 ], [ 98.6299382, 8.3802875 ], [ 98.4865717, 8.3164093 ], [ 98.4685217, 8.3043056 ], [ 98.4566204, 8.2646781 ], [ 98.4682358, 8.2189534 ], [ 98.4433707, 8.1893232 ], [ 98.4353571, 8.1624061 ], [ 98.4074179, 8.1529491 ], [ 98.3884567, 8.1263141 ], [ 98.3737372, 8.138748 ], [ 98.3586077, 8.1882009 ], [ 98.2885935, 8.2080466 ], [ 98.2701189, 8.3027948 ], [ 98.2207053, 8.5038607 ], [ 98.2055323, 8.5528631 ], [ 98.2134842, 8.5790111 ], [ 98.2383532, 8.5865991 ], [ 98.2473112, 8.6525208 ], [ 98.2340417, 8.7213417 ], [ 98.2617388, 8.7633224 ], [ 98.2640168, 8.8883859 ], [ 98.2488804, 8.9124772 ], [ 98.2620275, 8.9434925 ], [ 98.2606581, 8.9789066 ], [ 98.2474394, 9.0071921 ], [ 98.267301, 9.0148148 ], [ 98.3092855, 8.9978891 ], [ 98.3302338, 8.9773229 ], [ 98.3587231, 8.9835305 ], [ 98.3198594, 9.0310373 ], [ 98.3332183, 9.0600578 ], [ 98.3758023, 9.0716807 ], [ 98.3429278, 9.1174865 ], [ 98.3409263, 9.1479711 ], [ 98.3184675, 9.1839375 ], [ 98.3282987, 9.2225469 ], [ 98.3775226, 9.2912513 ], [ 98.3904574, 9.3338693 ], [ 98.3964049, 9.4007988 ], [ 98.4173172, 9.4085765 ], [ 98.4297949, 9.4411419 ], [ 98.4364401, 9.5043281 ], [ 98.4570758, 9.564186 ], [ 98.4754089, 9.5247638 ], [ 98.5124326, 9.5596604 ], [ 98.4669247, 9.5870897 ], [ 98.4649692, 9.62032 ], [ 98.4894274, 9.6240652 ], [ 98.507593, 9.6422738 ], [ 98.5091678, 9.6728594 ], [ 98.5569679, 9.732115 ], [ 98.5127179, 9.7534639 ], [ 98.5065376, 9.7835398 ], [ 98.5332606, 9.790644 ], [ 98.5212912, 9.8447413 ], [ 98.5283854, 9.8710964 ], [ 98.5719433, 9.9055772 ], [ 98.6059074, 9.9997924 ], [ 98.6431445, 10.0693564 ], [ 98.6711122, 10.1110236 ], [ 98.7164103, 10.2283225 ], [ 98.7496871, 10.3461831 ], [ 98.7536844, 10.3893152 ], [ 98.7812614, 10.4413912 ], [ 98.796033, 10.445234 ], [ 98.8148941, 10.4937088 ], [ 98.8178555, 10.5465552 ], [ 98.8075612, 10.5784957 ], [ 98.7744459, 10.6163429 ], [ 98.7832688, 10.6468686 ], [ 98.7799205, 10.6787141 ], [ 98.8191714, 10.7197003 ], [ 98.8470576, 10.7603687 ], [ 98.8787828, 10.7887785 ], [ 98.8899185, 10.7790977 ], [ 98.9247549, 10.8201861 ], [ 98.9619704, 10.8146194 ], [ 98.9718529, 10.831257 ], [ 99.0112576, 10.8566511 ], [ 98.999874, 10.9136941 ], [ 99.0238921, 10.9707371 ], [ 99.0631717, 10.9459684 ], [ 99.0936947, 10.9734892 ], [ 99.1043277, 11.0138946 ], [ 99.1295968, 11.0306573 ], [ 99.1584936, 11.0337846 ], [ 99.1780083, 11.051548 ], [ 99.1806352, 11.083447 ], [ 99.2284213, 11.1118434 ], [ 99.2332999, 11.1437425 ], [ 99.2653241, 11.1780183 ], [ 99.2659495, 11.2190492 ], [ 99.2818365, 11.2428172 ], [ 99.3257446, 11.2814713 ], [ 99.3136105, 11.3164977 ], [ 99.3653995, 11.3715392 ], [ 99.3947966, 11.3824224 ], [ 99.4021772, 11.4248293 ], [ 99.3966731, 11.4579793 ], [ 99.4209413, 11.4817472 ], [ 99.4422074, 11.4802461 ], [ 99.4484621, 11.5058904 ], [ 99.4739813, 11.5330359 ], [ 99.4607213, 11.5786953 ], [ 99.4681019, 11.615473 ], [ 99.5060055, 11.6361136 ], [ 99.5315722, 11.6192313 ], [ 99.5647998, 11.6269817 ], [ 99.5873167, 11.6615077 ], [ 99.5825632, 11.6787707 ], [ 99.6015775, 11.7072922 ], [ 99.6378548, 11.7304346 ], [ 99.644735, 11.789229 ], [ 99.6235941, 11.854278 ], [ 99.5795609, 11.9041906 ], [ 99.5925707, 11.9539781 ], [ 99.590319, 11.9972607 ], [ 99.5360281, 12.0155245 ], [ 99.5340266, 12.0658124 ], [ 99.554542, 12.0949594 ], [ 99.5714298, 12.1433709 ], [ 99.5480371, 12.1493754 ], [ 99.4995006, 12.143621 ], [ 99.476233, 12.1626354 ], [ 99.4997507, 12.1924078 ], [ 99.4703536, 12.2359406 ], [ 99.4846143, 12.2734689 ], [ 99.4467108, 12.3155006 ], [ 99.4445842, 12.4180779 ], [ 99.4016768, 12.459359 ], [ 99.4225662, 12.5385713 ], [ 99.4413907, 12.5603779 ], [ 99.4188386, 12.6090232 ], [ 99.3763438, 12.6179695 ], [ 99.3360856, 12.6640055 ], [ 99.3066374, 12.6701561 ], [ 99.2997414, 12.6917762 ], [ 99.2708524, 12.7258839 ], [ 99.245691, 12.719547 ], [ 99.231526, 12.7404216 ], [ 99.2326443, 12.7722927 ], [ 99.2210887, 12.8213108 ], [ 99.187913, 12.8460994 ], [ 99.1718842, 12.9417127 ], [ 99.1964865, 12.9579278 ], [ 99.1711387, 13.0140284 ], [ 99.1228661, 13.0421719 ], [ 99.1040417, 13.0643512 ], [ 99.1359127, 13.1327529 ], [ 99.1323715, 13.1638785 ], [ 99.1169019, 13.1752477 ], [ 99.1306941, 13.2033912 ], [ 99.160515, 13.2089826 ], [ 99.1791531, 13.195936 ], [ 99.2153109, 13.1976134 ], [ 99.1858628, 13.2909901 ], [ 99.1897768, 13.3189472 ], [ 99.2071102, 13.3329258 ], [ 99.2013324, 13.3759797 ], [ 99.208974, 13.4110193 ], [ 99.1970456, 13.4516503 ], [ 99.2035689, 13.4777436 ], [ 99.1867947, 13.505887 ], [ 99.1907087, 13.545027 ], [ 99.1664792, 13.6126832 ], [ 99.1718842, 13.7342034 ], [ 99.1450454, 13.7416586 ], [ 99.1219342, 13.772225 ], [ 99.1051599, 13.8937452 ], [ 99.0766437, 13.8928133 ], [ 99.0429088, 13.9418314 ], [ 99.0194248, 13.9461182 ], [ 98.997991, 14.0219751 ], [ 98.969102, 14.0368856 ], [ 98.9666791, 14.083108 ], [ 98.9232524, 14.1090149 ], [ 98.8747934, 14.1257892 ], [ 98.8669654, 14.1475957 ], [ 98.8145925, 14.1748073 ], [ 98.7346351, 14.2344491 ], [ 98.7161835, 14.2788077 ], [ 98.6846851, 14.2722844 ], [ 98.6323122, 14.3125426 ], [ 98.5931722, 14.3295033 ], [ 98.5952224, 14.3718117 ], [ 98.5605556, 14.386163 ], [ 98.5477466, 14.4389536 ], [ 98.5326256, 14.4439436 ], [ 98.5023835, 14.4961111 ], [ 98.4917988, 14.5410206 ], [ 98.4608007, 14.532704 ], [ 98.4562644, 14.5824522 ], [ 98.4360022, 14.6126942 ], [ 98.3782399, 14.6557892 ], [ 98.3623628, 14.6920796 ], [ 98.3309111, 14.7078055 ], [ 98.3073222, 14.7310919 ], [ 98.2816165, 14.7734308 ], [ 98.2781387, 14.7989853 ], [ 98.2451748, 14.8313443 ], [ 98.2583301, 14.8614352 ], [ 98.2324732, 14.8819998 ], [ 98.250316, 14.9158709 ], [ 98.2285417, 14.9449032 ], [ 98.2324732, 14.9666775 ], [ 98.2082795, 14.9802864 ], [ 98.2105477, 15.0161233 ], [ 98.2268784, 15.0567989 ], [ 98.1921, 15.0782707 ], [ 98.1831786, 15.0991377 ], [ 98.191344, 15.1528174 ], [ 98.2123622, 15.176255 ], [ 98.1973924, 15.2340173 ], [ 98.261808, 15.2374951 ], [ 98.304298, 15.2805901 ], [ 98.3053565, 15.3138563 ], [ 98.3916976, 15.2677372 ], [ 98.4166473, 15.2899651 ], [ 98.3997117, 15.3152172 ], [ 98.4167985, 15.3643606 ], [ 98.4376655, 15.3616388 ], [ 98.4887746, 15.3862861 ], [ 98.5485027, 15.3598243 ], [ 98.5646822, 15.3368403 ], [ 98.5823738, 15.3735844 ], [ 98.589027, 15.4553892 ], [ 98.5695209, 15.5485347 ], [ 98.5528878, 15.6014583 ], [ 98.5646822, 15.6392609 ], [ 98.5497123, 15.6797852 ], [ 98.5622403, 15.7433069 ], [ 98.5865189, 15.8197334 ], [ 98.6097717, 15.8718812 ], [ 98.5952696, 15.8771185 ], [ 98.5843442, 15.9126261 ], [ 98.6046776, 15.9894073 ], [ 98.5904139, 16.0142929 ], [ 98.5606725, 16.0331088 ], [ 98.5664387, 16.0555666 ], [ 98.633812, 16.0409994 ], [ 98.6283493, 16.057691 ], [ 98.6593045, 16.0725616 ], [ 98.6729613, 16.0956264 ], [ 98.660822, 16.1241538 ], [ 98.7108967, 16.1356861 ], [ 98.7315335, 16.1153528 ], [ 98.7849465, 16.1162632 ], [ 98.8077078, 16.0980542 ], [ 98.8599069, 16.129313 ], [ 98.865673, 16.1727111 ], [ 98.8571755, 16.219144 ], [ 98.8808472, 16.2400843 ], [ 98.9130164, 16.2510097 ], [ 98.9218174, 16.3062436 ], [ 98.9093746, 16.3129203 ], [ 98.9254592, 16.3611741 ], [ 98.9136234, 16.3948607 ], [ 98.8814542, 16.4176219 ], [ 98.8344143, 16.4188359 ], [ 98.8125237, 16.383043 ], [ 98.7818545, 16.3640785 ], [ 98.7657543, 16.3420519 ], [ 98.7262696, 16.3292306 ], [ 98.7038172, 16.2711839 ], [ 98.6689424, 16.2836382 ], [ 98.6722541, 16.3174829 ], [ 98.6648238, 16.3648278 ], [ 98.6372723, 16.4250483 ], [ 98.6573855, 16.4570033 ], [ 98.5765756, 16.5617347 ], [ 98.5869893, 16.5891077 ], [ 98.571101, 16.6323689 ], [ 98.524686, 16.6420685 ], [ 98.5101069, 16.7010394 ], [ 98.4639299, 16.7284124 ], [ 98.4901722, 16.7725662 ], [ 98.4851142, 16.7892281 ], [ 98.5412288, 16.8125546 ], [ 98.5380749, 16.8290974 ], [ 98.4925525, 16.8415938 ], [ 98.5079647, 16.8783688 ], [ 98.5327789, 16.9006242 ], [ 98.519866, 16.9184166 ], [ 98.4828529, 16.9369232 ], [ 98.4887706, 16.9575321 ], [ 98.4692456, 16.9971777 ], [ 98.4377409, 17.03636 ], [ 98.3906162, 17.0607166 ], [ 98.3454617, 17.0478588 ], [ 98.312341, 17.07896 ], [ 98.3197675, 17.1127284 ], [ 98.279991, 17.1158252 ], [ 98.2876298, 17.1564275 ], [ 98.2804727, 17.1728749 ], [ 98.2494361, 17.1830599 ], [ 98.2451451, 17.2241329 ], [ 98.2131782, 17.2285676 ], [ 98.2050941, 17.2499096 ], [ 98.1747903, 17.2583632 ], [ 98.1051747, 17.337495 ], [ 98.1179245, 17.3753748 ], [ 98.0830474, 17.3902957 ], [ 97.9890013, 17.5126959 ], [ 97.92342, 17.539389 ], [ 97.9066189, 17.5835252 ], [ 97.8489663, 17.6261511 ], [ 97.7627706, 17.7249949 ], [ 97.7743237, 17.7494226 ], [ 97.7421492, 17.7866376 ], [ 97.7035433, 17.8155491 ], [ 97.6718864, 17.8801496 ], [ 97.6875004, 17.925104 ], [ 97.7355433, 17.9577903 ], [ 97.7235325, 18.0238493 ], [ 97.6777202, 18.1153882 ], [ 97.6760044, 18.1611147 ], [ 97.6500098, 18.1799887 ], [ 97.6155218, 18.222112 ], [ 97.6116613, 18.2509377 ], [ 97.6392001, 18.2880852 ], [ 97.6198114, 18.3180262 ], [ 97.5749428, 18.3385302 ], [ 97.5516934, 18.334498 ], [ 97.5367658, 18.2866267 ], [ 97.5066532, 18.2659511 ], [ 97.4666747, 18.3031844 ], [ 97.4441117, 18.3394739 ], [ 97.4519187, 18.3898332 ], [ 97.4301278, 18.4056187 ], [ 97.4040474, 18.4482567 ], [ 97.3855165, 18.5073666 ], [ 97.3465675, 18.5451146 ], [ 97.3645009, 18.5578536 ], [ 97.4064355, 18.5626876 ], [ 97.4250463, 18.5470981 ], [ 97.4438988, 18.4951329 ], [ 97.4906674, 18.5093931 ], [ 97.5370735, 18.4922326 ], [ 97.5449287, 18.527158 ], [ 97.60632, 18.5365842 ], [ 97.6119999, 18.5609957 ], [ 97.6725454, 18.5785188 ], [ 97.693694, 18.5699386 ], [ 97.768983, 18.5782771 ], [ 97.774542, 18.6892167 ], [ 97.7517015, 18.7370729 ], [ 97.7628197, 18.7573756 ], [ 97.7393749, 18.8296434 ], [ 97.7492846, 18.8448704 ], [ 97.7375622, 18.8871676 ], [ 97.6971986, 18.9050532 ], [ 97.6684365, 18.9320026 ], [ 97.7355078, 18.9762334 ], [ 97.7383169, 19.0352347 ], [ 97.769317, 19.0451237 ], [ 97.7696504, 19.067346 ], [ 97.8118728, 19.091235 ], [ 97.8360951, 19.0933461 ], [ 97.8340951, 19.1372351 ], [ 97.8428729, 19.1513463 ], [ 97.8378729, 19.1907909 ], [ 97.8443173, 19.2183466 ], [ 97.7908727, 19.2620134 ], [ 97.8252061, 19.3122358 ], [ 97.8007616, 19.3551249 ], [ 97.8123172, 19.4126807 ], [ 97.8295395, 19.4467919 ], [ 97.886762, 19.4981255 ], [ 97.8530951, 19.5271256 ], [ 97.8692063, 19.5759036 ], [ 97.9573178, 19.589237 ], [ 97.9718734, 19.5979037 ], [ 97.9767623, 19.6343483 ], [ 98.027207, 19.6377927 ], [ 98.0367626, 19.6942374 ], [ 98.0293181, 19.7351264 ], [ 98.0429848, 19.7477932 ], [ 98.0406515, 19.7947933 ], [ 98.0845405, 19.8097934 ], [ 98.0995406, 19.7727933 ], [ 98.1364296, 19.7865711 ], [ 98.1634297, 19.7733488 ], [ 98.2020966, 19.731682 ], [ 98.2269855, 19.7273486 ], [ 98.2490537, 19.6763389 ], [ 98.327013, 19.6989097 ], [ 98.3871096, 19.6879705 ], [ 98.433082, 19.6857549 ], [ 98.4749004, 19.6947555 ], [ 98.5157494, 19.7131722 ], [ 98.5352739, 19.6896321 ], [ 98.5687839, 19.6756465 ], [ 98.5759844, 19.7040331 ], [ 98.6122639, 19.7099874 ], [ 98.6251417, 19.7266039 ], [ 98.7105785, 19.7666221 ], [ 98.7385497, 19.7423897 ], [ 98.7497659, 19.7596986 ], [ 98.7852145, 19.7595601 ], [ 98.8289544, 19.7954692 ], [ 98.8339322, 19.8124767 ], [ 98.8984362, 19.7732765 ], [ 98.9229104, 19.7469357 ], [ 98.9409549, 19.7639432 ], [ 98.9787032, 19.7726543 ], [ 99.0135478, 19.7904914 ], [ 99.0282737, 19.8124767 ], [ 99.0363627, 19.8639139 ], [ 99.0280663, 19.9138993 ], [ 99.0450738, 19.9485365 ], [ 99.0280663, 19.970107 ], [ 99.0477701, 20.0070256 ], [ 99.0444516, 20.0397961 ], [ 99.0683035, 20.0713222 ], [ 99.0730739, 20.0987001 ], [ 99.1307334, 20.1049223 ], [ 99.1265853, 20.1190261 ], [ 99.1684817, 20.1331298 ], [ 99.2128671, 20.1304335 ], [ 99.2568376, 20.1140483 ], [ 99.3134601, 20.0711148 ], [ 99.3775492, 20.0887445 ], [ 99.4401865, 20.0887445 ], [ 99.48872, 20.1119742 ], [ 99.4982608, 20.1323002 ], [ 99.5376684, 20.1584336 ], [ 99.5640092, 20.2075894 ], [ 99.5154757, 20.2494859 ], [ 99.503446, 20.294286 ], [ 99.5098757, 20.3164787 ], [ 99.487683, 20.3467603 ], [ 99.4551199, 20.3621085 ], [ 99.4586459, 20.3905235 ], [ 99.4984682, 20.3826419 ], [ 99.5177793, 20.3631954 ], [ 99.5620476, 20.3527794 ], [ 99.6056813, 20.333609 ], [ 99.6434908, 20.3443733 ], [ 99.6815695, 20.3155788 ], [ 99.7109022, 20.3228447 ], [ 99.7312197, 20.3493517 ], [ 99.7769679, 20.3352236 ], [ 99.8112791, 20.3356273 ], [ 99.8418227, 20.3746478 ], [ 99.8410154, 20.402904 ], [ 99.8701913, 20.4462683 ], [ 99.9162134, 20.4500812 ], [ 99.9561459, 20.4650231 ], [ 100.0001671, 20.4160955 ], [ 100.0398051, 20.3933754 ], [ 100.0585955, 20.3968821 ], [ 100.0853162, 20.3527318 ] ] ], [ [ [ 102.5589566, 11.7521631 ], [ 102.5643045, 11.7013506 ], [ 102.598328, 11.694492 ], [ 102.6086214, 11.6561337 ], [ 102.592686, 11.5615872 ], [ 102.5285175, 11.6098685 ], [ 102.545598, 11.6222297 ], [ 102.5276413, 11.6860669 ], [ 102.5346125, 11.7243696 ], [ 102.5589566, 11.7521631 ] ] ], [ [ [ 102.2515584, 12.1567561 ], [ 102.2686486, 12.1450702 ], [ 102.3259717, 12.1338977 ], [ 102.3828947, 12.0678362 ], [ 102.38523, 12.0489559 ], [ 102.4174886, 12.0156964 ], [ 102.4293314, 11.9898738 ], [ 102.428087, 11.9604142 ], [ 102.3810363, 12.000091 ], [ 102.3772787, 11.9638336 ], [ 102.3622185, 11.9620254 ], [ 102.2976629, 11.987071 ], [ 102.2880394, 12.0152613 ], [ 102.2944765, 12.0422224 ], [ 102.2746258, 12.0718901 ], [ 102.274026, 12.1018734 ], [ 102.2515584, 12.1567561 ] ] ], [ [ [ 100.7810516, 12.7171656 ], [ 100.8058949, 12.6956296 ], [ 100.7885498, 12.6753781 ], [ 100.7672922, 12.7003091 ], [ 100.7810516, 12.7171656 ] ] ], [ [ [ 100.0712514, 9.5893963 ], [ 100.0883906, 9.5712616 ], [ 100.0771643, 9.5395655 ], [ 100.0583447, 9.5215858 ], [ 100.0755422, 9.4712862 ], [ 100.0509518, 9.4684894 ], [ 100.0114599, 9.4211593 ], [ 99.9655379, 9.4095687 ], [ 99.9374471, 9.426127 ], [ 99.9226385, 9.4913888 ], [ 99.9353648, 9.5032733 ], [ 99.9331575, 9.5779349 ], [ 99.9829489, 9.5852656 ], [ 99.9939276, 9.5731797 ], [ 100.0539862, 9.557776 ], [ 100.0712514, 9.5893963 ] ] ], [ [ [ 100.0257367, 9.8043449 ], [ 100.0542027, 9.7915425 ], [ 100.072378, 9.7666456 ], [ 100.0796865, 9.7014912 ], [ 100.0683338, 9.673946 ], [ 100.0391876, 9.6937298 ], [ 99.9847259, 9.7092349 ], [ 99.9606146, 9.7685352 ], [ 99.9826652, 9.7995902 ], [ 100.0040742, 9.7868122 ], [ 100.0257367, 9.8043449 ] ] ], [ [ [ 99.8280099, 10.1236141 ], [ 99.8551839, 10.0892085 ], [ 99.8326338, 10.0662591 ], [ 99.8280099, 10.1236141 ] ] ], [ [ [ 99.6903835, 9.5514813 ], [ 99.7073728, 9.5463742 ], [ 99.6971123, 9.5137682 ], [ 99.6632284, 9.5161837 ], [ 99.6903835, 9.5514813 ] ] ], [ [ [ 99.6674677, 6.7027423 ], [ 99.6854506, 6.6653625 ], [ 99.6797173, 6.6201113 ], [ 99.6936649, 6.6064962 ], [ 99.6935998, 6.5595879 ], [ 99.662419, 6.5064987 ], [ 99.646157, 6.5141784 ], [ 99.6365044, 6.5459207 ], [ 99.5990669, 6.5930474 ], [ 99.6188347, 6.6458843 ], [ 99.6406701, 6.6739033 ], [ 99.6411554, 6.7180945 ], [ 99.6674677, 6.7027423 ] ] ], [ [ [ 99.3984692, 7.2674881 ], [ 99.4250857, 7.2663266 ], [ 99.3821193, 7.2062327 ], [ 99.3648783, 7.2234788 ], [ 99.3674058, 7.2589214 ], [ 99.3984692, 7.2674881 ] ] ], [ [ [ 99.2779948, 6.5769019 ], [ 99.3219082, 6.5457367 ], [ 99.3195071, 6.513919 ], [ 99.2844713, 6.5081832 ], [ 99.2747645, 6.5554466 ], [ 99.2779948, 6.5769019 ] ] ], [ [ [ 99.2483809, 6.5826074 ], [ 99.2586126, 6.5572338 ], [ 99.2214323, 6.5386155 ], [ 99.1895792, 6.5462034 ], [ 99.1930081, 6.5770703 ], [ 99.2483809, 6.5826074 ] ] ], [ [ [ 99.077025, 7.6856411 ], [ 99.1156263, 7.6795034 ], [ 99.1301782, 7.6404194 ], [ 99.0765903, 7.5809964 ], [ 99.0812559, 7.5478202 ], [ 99.1106087, 7.4966208 ], [ 99.1025337, 7.4692832 ], [ 99.0681833, 7.4983697 ], [ 99.0312736, 7.5795258 ], [ 99.0274467, 7.6411914 ], [ 99.038602, 7.6821588 ], [ 99.077025, 7.6856411 ] ] ], [ [ [ 99.021777, 7.8841077 ], [ 99.0390154, 7.8562521 ], [ 99.0154286, 7.8361725 ], [ 99.0031116, 7.8659705 ], [ 99.021777, 7.8841077 ] ] ], [ [ [ 98.9917183, 7.8501248 ], [ 98.9675022, 7.9232227 ], [ 98.9901675, 7.925516 ], [ 99.0009629, 7.8973129 ], [ 98.9917183, 7.8501248 ] ] ], [ [ [ 98.9507173, 7.8566496 ], [ 98.9947417, 7.833183 ], [ 98.9825754, 7.8139985 ], [ 98.9367779, 7.8401544 ], [ 98.9507173, 7.8566496 ] ] ], [ [ [ 98.6357936, 8.1855862 ], [ 98.6242232, 8.1032556 ], [ 98.6106157, 8.0935323 ], [ 98.5733121, 8.1074383 ], [ 98.594, 8.1258222 ], [ 98.6015925, 8.1544633 ], [ 98.6357936, 8.1855862 ] ] ], [ [ [ 98.5378167, 8.1043962 ], [ 98.592614, 8.069947 ], [ 98.6103035, 8.0440961 ], [ 98.6002972, 8.0211818 ], [ 98.6136841, 7.9594623 ], [ 98.600326, 7.91359 ], [ 98.5772121, 7.9281338 ], [ 98.5651388, 7.9587613 ], [ 98.5904425, 7.9988703 ], [ 98.5874793, 8.0141371 ], [ 98.5537473, 8.0324356 ], [ 98.526194, 8.0870539 ], [ 98.5378167, 8.1043962 ] ] ], [ [ [ 98.4559296, 9.8620902 ], [ 98.4681959, 9.8240494 ], [ 98.4405867, 9.7979784 ], [ 98.4309199, 9.8204906 ], [ 98.4559296, 9.8620902 ] ] ], [ [ [ 98.3304278, 8.1734568 ], [ 98.3461116, 8.1230096 ], [ 98.3736689, 8.1183195 ], [ 98.3757241, 8.0992243 ], [ 98.4054265, 8.0790047 ], [ 98.4262485, 8.0973704 ], [ 98.4361915, 8.0660436 ], [ 98.4127967, 8.0306735 ], [ 98.4069558, 7.9898184 ], [ 98.3935769, 7.9783888 ], [ 98.3992315, 7.9423715 ], [ 98.4394501, 7.8819199 ], [ 98.3985161, 7.8701092 ], [ 98.3942864, 7.8534431 ], [ 98.408288, 7.8096154 ], [ 98.3867264, 7.8099589 ], [ 98.37709, 7.8387582 ], [ 98.3478319, 7.8260458 ], [ 98.326776, 7.7741528 ], [ 98.3052666, 7.7597676 ], [ 98.2891323, 7.8576431 ], [ 98.2962489, 7.9069539 ], [ 98.2582782, 7.9332125 ], [ 98.2822487, 7.9523996 ], [ 98.2773982, 7.9806301 ], [ 98.2956612, 8.0001519 ], [ 98.277961, 8.0335772 ], [ 98.274482, 8.0765527 ], [ 98.2987206, 8.0881446 ], [ 98.3006776, 8.1247365 ], [ 98.2859261, 8.1995883 ], [ 98.3304278, 8.1734568 ] ] ], [ [ [ 98.4149534, 9.7707177 ], [ 98.426667, 9.723091 ], [ 98.4036471, 9.7111855 ], [ 98.3825869, 9.7318592 ], [ 98.4149534, 9.7707177 ] ] ], [ [ [ 98.2890386, 9.167725 ], [ 98.2965006, 9.1325383 ], [ 98.3244067, 9.1158169 ], [ 98.3331468, 9.0862637 ], [ 98.3018593, 9.0374128 ], [ 98.2864493, 9.0287511 ], [ 98.2465667, 9.032467 ], [ 98.249328, 9.1260771 ], [ 98.2604049, 9.1612396 ], [ 98.2890386, 9.167725 ] ] ], [ [ [ 97.8890579, 9.4613255 ], [ 97.9009826, 9.4454787 ], [ 97.8684566, 9.4239773 ], [ 97.8543869, 9.4554118 ], [ 97.8890579, 9.4613255 ] ] ] ] } }
]
}
