{
"type": "FeatureCollection",
"name": "TKM_GAUL1995_ADM1",
"crs": { "type": "name", "properties": { "name": "urn:ogc:def:crs:OGC:1.3:CRS84" } },
"features": [
{ "type": "Feature", "properties": { "POLYGON_ID": "TKM_GAUL1995_ADM1_3097", "ADM0_ISO3": "TKM", "ADM0_NAME": "Turkmenistan", "ADM0_CODE": 250, "ADM1_NAME": "Chardzhou", "ADM1_CODE": 3097, "GEOSET": "GAUL", "GEOSET_YEAR": 1995.0, "GEOSET_VERSION": "GAUL_v1", "GEOSET_UNIT": "ADM1", "CENTROID_LONG": 63.159611434641953, "CENTROID_LAT": 38.897687247862542 }, "geometry": { "type": "MultiPolygon", "coordinates": [ [ [ [ 62.1388067, 40.5617623 ], [ 62.20772, 40.50851 ], [ 62.29747, 40.45646 ], [ 62.34946, 40.4383 ], [ 62.33325, 40.38345 ], [ 62.39317, 40.31078 ], [ 62.38974, 40.24455 ], [ 62.41378, 40.17351 ], [ 62.39649, 40.09928 ], [ 62.42701, 40.06486 ], [ 62.44266, 39.9911 ], [ 62.48795, 39.95139 ], [ 62.79797, 39.77576 ], [ 63.17042, 39.57411 ], [ 63.35847, 39.47477 ], [ 63.53913, 39.38358 ], [ 63.66013, 39.28929 ], [ 63.74538, 39.20674 ], [ 63.88582, 39.12907 ], [ 64.17711, 38.95919 ], [ 64.22965, 38.95656 ], [ 64.33103, 38.98588 ], [ 64.3971969, 38.9298923 ], [ 64.52283, 38.83823 ], [ 64.77599, 38.71197 ], [ 64.82664, 38.67949 ], [ 65.02504, 38.61246 ], [ 65.20211, 38.4767 ], [ 65.30055, 38.40849 ], [ 65.48137, 38.319 ], [ 65.69631, 38.2521 ], [ 65.79745, 38.23585 ], [ 65.85149, 38.27408 ], [ 65.91504, 38.27474 ], [ 65.95625, 38.24121 ], [ 66.094116, 38.2019807 ], [ 66.11863, 38.17864 ], [ 66.24552, 38.15404 ], [ 66.31305, 38.0788 ], [ 66.40001, 38.03249 ], [ 66.49654, 38.04185 ], [ 66.56563, 38.0359 ], [ 66.6201863, 38.014032 ], [ 66.6570146, 37.9793873 ], [ 66.68371, 37.94827 ], [ 66.67916, 37.91869 ], [ 66.62433, 37.8922 ], [ 66.54823, 37.79178 ], [ 66.53272, 37.6051 ], [ 66.53828, 37.57946 ], [ 66.63706, 37.48395 ], [ 66.63959, 37.43952 ], [ 66.53076, 37.40298 ], [ 66.52128, 37.36942 ], [ 66.553732, 37.354753 ], [ 66.550331, 37.35033 ], [ 66.545041, 37.34727 ], [ 66.521012, 37.337212 ], [ 66.4998204, 37.3315743 ], [ 66.4875896, 37.3314262 ], [ 66.47627, 37.328702 ], [ 66.4642572, 37.3335181 ], [ 66.460022, 37.335216 ], [ 66.43434, 37.338514 ], [ 66.425735, 37.344381 ], [ 66.416617, 37.34735 ], [ 66.4088, 37.344532 ], [ 66.396325, 37.333323 ], [ 66.3937095, 37.3318349 ], [ 66.38724, 37.328154 ], [ 66.3808439, 37.3301781 ], [ 66.373551, 37.332486 ], [ 66.365964, 37.332992 ], [ 66.354459, 37.329286 ], [ 66.341835, 37.333731 ], [ 66.32204, 37.322207 ], [ 66.316183, 37.321427 ], [ 66.302456, 37.326364 ], [ 66.29069, 37.335414 ], [ 66.2828, 37.335981 ], [ 66.270139, 37.344476 ], [ 66.2650078, 37.3444159 ], [ 66.262116, 37.344382 ], [ 66.2595153, 37.3473524 ], [ 66.254849, 37.352682 ], [ 66.250064, 37.361817 ], [ 66.247363, 37.363499 ], [ 66.230415, 37.367808 ], [ 66.2298351, 37.367541 ], [ 66.222317, 37.36408 ], [ 66.21277, 37.367828 ], [ 66.195818, 37.370483 ], [ 66.179003, 37.367089 ], [ 66.1689835, 37.3687946 ], [ 66.1685068, 37.3689852 ], [ 66.163432, 37.374631 ], [ 66.154913, 37.399096 ], [ 66.147644, 37.401958 ], [ 66.1271945, 37.4033556 ], [ 66.112058, 37.40439 ], [ 66.106303, 37.412966 ], [ 66.075725, 37.446004 ], [ 66.069763, 37.449522 ], [ 66.06249, 37.449081 ], [ 66.042114, 37.453803 ], [ 66.0228826, 37.4499263 ], [ 66.005757, 37.446474 ], [ 65.9989, 37.44625 ], [ 65.995797, 37.450726 ], [ 65.990338, 37.453949 ], [ 65.987735, 37.4548281 ], [ 65.979554, 37.457591 ], [ 65.977082, 37.463675 ], [ 65.968315, 37.46503 ], [ 65.954374, 37.472622 ], [ 65.923203, 37.473518 ], [ 65.889604, 37.477136 ], [ 65.855553, 37.490586 ], [ 65.8513189, 37.4895203 ], [ 65.8460646, 37.4881977 ], [ 65.84425, 37.487741 ], [ 65.839609, 37.487924 ], [ 65.827327, 37.493223 ], [ 65.822088, 37.497314 ], [ 65.807321, 37.51318 ], [ 65.783367, 37.526925 ], [ 65.765969, 37.533508 ], [ 65.763659, 37.537418 ], [ 65.767185, 37.542647 ], [ 65.767657, 37.549723 ], [ 65.76062, 37.550763 ], [ 65.75948, 37.5419465 ], [ 65.758657, 37.535581 ], [ 65.7514743, 37.5377598 ], [ 65.743588, 37.540152 ], [ 65.734866, 37.539296 ], [ 65.725956, 37.541167 ], [ 65.71599, 37.537171 ], [ 65.706428, 37.53863 ], [ 65.699843, 37.533031 ], [ 65.646318, 37.441878 ], [ 65.642958, 37.34292 ], [ 65.5747911, 37.2789563 ], [ 65.531184, 37.238038 ], [ 65.4908935, 37.237236 ], [ 65.268056, 37.2328 ], [ 65.228522, 37.250934 ], [ 65.2257638, 37.2498451 ], [ 65.1991521, 37.2393392 ], [ 65.191236, 37.236214 ], [ 65.132608, 37.246059 ], [ 64.990285, 37.218514 ], [ 64.9660568, 37.2076014 ], [ 64.755751, 37.112878 ], [ 64.757105, 37.1068116 ], [ 64.7947526, 36.9381318 ], [ 64.7952739, 36.9357962 ], [ 64.798198, 36.922695 ], [ 64.7591193, 36.8684798 ], [ 63.4379082, 36.8609848 ], [ 63.4059334, 37.3725128 ], [ 63.6369095, 37.5870361 ], [ 63.1069756, 38.0798988 ], [ 62.6862831, 38.2017517 ], [ 62.3290863, 38.5620079 ], [ 61.1389198, 39.5147057 ], [ 60.9631538, 39.5074501 ], [ 60.7897301, 39.495739 ], [ 60.4523506, 39.4940605 ], [ 60.4011765, 40.3251228 ], [ 60.1855583, 40.3529282 ], [ 60.1856728, 40.9908104 ], [ 60.943573, 41.0133553 ], [ 60.9386979, 41.2378255 ], [ 61.04605, 41.23469 ], [ 61.07453, 41.20916 ], [ 61.11795, 41.21214 ], [ 61.17133, 41.17324 ], [ 61.23853, 41.14912 ], [ 61.29981, 41.14522 ], [ 61.3799, 41.16488 ], [ 61.42154, 41.28588 ], [ 61.62689, 41.26499 ], [ 61.6606, 41.22589 ], [ 61.71283, 41.21514 ], [ 61.75675, 41.17574 ], [ 61.81323, 41.1536 ], [ 61.88041, 41.10939 ], [ 61.90095, 41.05342 ], [ 61.97088, 41.01914 ], [ 62.00012, 40.89241 ], [ 62.0001, 40.82032 ], [ 62.04207, 40.75774 ], [ 62.04546, 40.71211 ], [ 62.09101, 40.65696 ], [ 62.1388067, 40.5617623 ] ] ] ] } },
{ "type": "Feature", "properties": { "POLYGON_ID": "TKM_GAUL1995_ADM1_3098", "ADM0_ISO3": "TKM", "ADM0_NAME": "Turkmenistan", "ADM0_CODE": 250, "ADM1_NAME": "Administrative unit not available", "ADM1_CODE": 3098, "GEOSET": "GAUL", "GEOSET_YEAR": 1995.0, "GEOSET_VERSION": "GAUL_v1", "GEOSET_UNIT": "ADM1", "CENTROID_LONG": 52.78501827897378, "CENTROID_LAT": 39.765604547879953 }, "geometry": { "type": "MultiPolygon", "coordinates": [ [ [ [ 53.89781, 37.34081 ], [ 53.6114973, 37.3301313 ], [ 53.5271, 37.32344 ], [ 53.07026, 37.56508 ], [ 53.00034, 37.61259 ], [ 52.73814, 37.71886 ], [ 52.65501, 37.77763 ], [ 52.5452, 37.797 ], [ 52.14178, 37.85232 ], [ 51.97159, 37.92782 ], [ 51.78828, 38.10128 ], [ 51.63261, 38.25587 ], [ 51.29271, 38.71485 ], [ 51.29456, 38.9537095 ], [ 51.4782, 39.15104 ], [ 51.65331, 39.40817 ], [ 51.63191, 39.47577 ], [ 51.63543, 39.52705 ], [ 51.67018, 39.7075 ], [ 51.67584, 40.3311 ], [ 51.67122, 40.47007 ], [ 51.63828, 40.67203 ], [ 51.53362, 40.92519 ], [ 51.25018, 41.23121 ], [ 51.54538, 41.34852 ], [ 51.90618, 41.502 ], [ 52.17235, 41.59915 ], [ 52.44143, 41.76545 ], [ 52.5810776, 41.6870308 ], [ 52.5974808, 41.6368752 ], [ 52.5551491, 41.5405808 ], [ 52.7118568, 41.4428368 ], [ 52.7275963, 41.407505 ], [ 52.7672844, 41.3892517 ], [ 52.8146133, 41.2987251 ], [ 52.8205566, 41.2428894 ], [ 52.8565712, 41.1674843 ], [ 52.8463249, 41.0838318 ], [ 52.8727264, 41.0556221 ], [ 52.9111099, 41.1088905 ], [ 52.8419418, 41.2402763 ], [ 52.8169441, 41.3594437 ], [ 52.828331, 41.4188881 ], [ 52.903614, 41.5808334 ], [ 52.896389, 41.628891 ], [ 52.9172249, 41.6719437 ], [ 52.8724976, 41.7011108 ], [ 52.815834, 41.6958313 ], [ 52.7761078, 41.7197227 ], [ 52.8388901, 41.7786102 ], [ 52.8672218, 41.8397255 ], [ 52.9344406, 41.9349976 ], [ 52.9466667, 41.973053 ], [ 53.0588875, 42.0341682 ], [ 53.0883331, 42.0705566 ], [ 53.1566658, 42.0961113 ], [ 53.2780533, 42.0705566 ], [ 53.3619461, 42.1047211 ], [ 53.4730568, 42.1094437 ], [ 53.6308327, 42.1408348 ], [ 53.8119469, 42.1219482 ], [ 53.8925018, 42.0752831 ], [ 53.9138908, 42.0399971 ], [ 53.896389, 41.8997231 ], [ 53.9294434, 41.8827782 ], [ 53.9888878, 41.8033371 ], [ 54.0252762, 41.7180557 ], [ 54.019722, 41.5972214 ], [ 54.0400009, 41.5277786 ], [ 54.0772209, 41.4719429 ], [ 54.1377792, 41.4580574 ], [ 54.2011108, 41.3977776 ], [ 54.3027802, 41.3333321 ], [ 54.4469452, 41.2836113 ], [ 54.5141678, 41.2475014 ], [ 54.6408348, 41.1547241 ], [ 54.6380539, 41.1311111 ], [ 54.7338905, 41.1022224 ], [ 54.6919441, 41.0541649 ], [ 54.7611122, 40.9683342 ], [ 54.711113, 40.878334 ], [ 54.6591682, 40.8602829 ], [ 54.6319427, 40.830555 ], [ 54.4869461, 40.7994461 ], [ 54.4402809, 40.8141632 ], [ 54.471386, 40.8447227 ], [ 54.4569397, 40.8705559 ], [ 54.339447, 40.9236107 ], [ 54.3016701, 40.9188881 ], [ 54.2663879, 40.8455544 ], [ 54.3072205, 40.7574997 ], [ 54.3116684, 40.7200012 ], [ 54.371666, 40.723053 ], [ 54.3577805, 40.6725006 ], [ 54.2794418, 40.6683311 ], [ 54.2161102, 40.6816635 ], [ 54.2386093, 40.7152786 ], [ 54.1888886, 40.7261124 ], [ 54.0919418, 40.6947212 ], [ 54.0311127, 40.6538887 ], [ 53.9427757, 40.6686096 ], [ 53.8663902, 40.6266708 ], [ 53.7977791, 40.6336098 ], [ 53.7530556, 40.6161079 ], [ 53.7050018, 40.6391678 ], [ 53.7252769, 40.6886101 ], [ 53.678894, 40.7169456 ], [ 53.6522217, 40.7775002 ], [ 53.6697235, 40.8008308 ], [ 53.6572227, 40.8572235 ], [ 53.5966644, 40.8944435 ], [ 53.5524979, 40.830555 ], [ 53.5577774, 40.7705536 ], [ 53.4736099, 40.7288857 ], [ 53.4075012, 40.7552795 ], [ 53.3724976, 40.7897224 ], [ 53.3341675, 40.773056 ], [ 53.2480583, 40.7597237 ], [ 53.1183319, 40.7652779 ], [ 53.0613899, 40.833889 ], [ 53.023056, 40.9380569 ], [ 52.9561119, 41.0105553 ], [ 52.9552765, 41.0622215 ], [ 52.9163284, 41.0698624 ], [ 52.9445305, 41.0021629 ], [ 52.9401932, 40.9472923 ], [ 52.9137688, 40.9061966 ], [ 52.8496742, 40.7475357 ], [ 52.8627777, 40.6735115 ], [ 52.7658157, 40.552372 ], [ 52.7367134, 40.4956322 ], [ 52.7295609, 40.4074135 ], [ 52.7060356, 40.2880554 ], [ 52.7471581, 40.2297249 ], [ 52.7685318, 40.1596718 ], [ 52.7358475, 40.0813217 ], [ 52.7720451, 40.0 ], [ 52.7974472, 40.0 ], [ 52.8351059, 39.9579811 ], [ 52.8859787, 39.9335289 ], [ 52.9140167, 39.8757744 ], [ 52.9396896, 39.8607903 ], [ 52.9036179, 40.0 ], [ 53.0684776, 40.0 ], [ 53.1328316, 39.9864006 ], [ 53.1745033, 40.0056381 ], [ 53.2892265, 39.9555893 ], [ 53.4247322, 39.9862747 ], [ 53.450798, 39.9421425 ], [ 53.4950943, 39.9280243 ], [ 53.4868736, 39.8759575 ], [ 53.437809, 39.8061829 ], [ 53.4306412, 39.721386 ], [ 53.4601517, 39.6765175 ], [ 53.5245667, 39.6731796 ], [ 53.6155853, 39.6521568 ], [ 53.5987473, 39.6177788 ], [ 53.5496178, 39.5949287 ], [ 53.5730667, 39.5658722 ], [ 53.6097603, 39.5703125 ], [ 53.632679, 39.5977592 ], [ 53.6717033, 39.5660057 ], [ 53.6359253, 39.5271912 ], [ 53.6022682, 39.5637512 ], [ 53.5829659, 39.5573082 ], [ 53.5572739, 39.5207253 ], [ 53.5314941, 39.5326424 ], [ 53.5622482, 39.5543098 ], [ 53.5620117, 39.5760498 ], [ 53.5282021, 39.5857544 ], [ 53.4836464, 39.5694695 ], [ 53.3781586, 39.5648994 ], [ 53.2361832, 39.5451813 ], [ 53.2137718, 39.5725632 ], [ 53.0962982, 39.4330788 ], [ 53.1589432, 39.3395462 ], [ 53.177597, 39.2703056 ], [ 53.2302361, 39.3930626 ], [ 53.3319855, 39.3565941 ], [ 53.3907013, 39.3648071 ], [ 53.4047775, 39.3399735 ], [ 53.4647751, 39.3357811 ], [ 53.5144959, 39.2959595 ], [ 53.5374794, 39.2980309 ], [ 53.5718689, 39.1880569 ], [ 53.6296997, 39.1677856 ], [ 53.653141, 39.1137466 ], [ 53.6948013, 39.1451187 ], [ 53.7081642, 39.072403 ], [ 53.7413406, 39.0514259 ], [ 53.8782272, 39.0241661 ], [ 53.8864746, 38.9830818 ], [ 53.9390831, 38.9347878 ], [ 53.981514, 38.9333191 ], [ 53.973114, 38.8832817 ], [ 53.9216957, 38.7896004 ], [ 53.9183044, 38.7390327 ], [ 53.860424, 38.6495171 ], [ 53.8333282, 38.5625839 ], [ 53.8337097, 38.4929428 ], [ 53.8697853, 38.3756638 ], [ 53.8666039, 38.2457962 ], [ 53.8523407, 38.1410294 ], [ 53.8221512, 38.034153 ], [ 53.812233, 37.9247246 ], [ 53.8141632, 37.8146896 ], [ 53.8310966, 37.7056084 ], [ 53.8639374, 37.5594101 ], [ 53.8852425, 37.5029755 ], [ 53.8835602, 37.4333 ], [ 53.89781, 37.34081 ] ], [ [ 53.1021004, 39.1064529 ], [ 53.055645, 39.0978012 ], [ 53.0355186, 39.0477867 ], [ 53.0413132, 39.0090637 ], [ 53.0290146, 38.9148064 ], [ 53.0717316, 38.8220558 ], [ 53.0541039, 38.9670944 ], [ 53.0635109, 39.0918045 ], [ 53.1021004, 39.1064529 ] ] ] ] } },
{ "type": "Feature", "properties": { "POLYGON_ID": "TKM_GAUL1995_ADM1_3099", "ADM0_ISO3": "TKM", "ADM0_NAME": "Turkmenistan", "ADM0_CODE": 250, "ADM1_NAME": "Mary", "ADM1_CODE": 3099, "GEOSET": "GAUL", "GEOSET_YEAR": 1995.0, "GEOSET_VERSION": "GAUL_v1", "GEOSET_UNIT": "ADM1", "CENTROID_LONG": 62.27667020848267, "CENTROID_LAT": 37.191838428273066 }, "geometry": { "type": "MultiPolygon", "coordinates": [ [ [ [ 64.7591193, 36.8684798 ], [ 64.706414, 36.795203 ], [ 64.618141, 36.635968 ], [ 64.622326, 36.604148 ], [ 64.636311, 36.442278 ], [ 64.5903293, 36.3791173 ], [ 64.588766, 36.37697 ], [ 64.579957, 36.351645 ], [ 64.526068, 36.304513 ], [ 64.445229, 36.242727 ], [ 64.439565, 36.241186 ], [ 64.431891, 36.243168 ], [ 64.404139, 36.231506 ], [ 64.3979986, 36.2327974 ], [ 64.376867, 36.22986 ], [ 64.373873, 36.228394 ], [ 64.367205, 36.228632 ], [ 64.358868, 36.22549 ], [ 64.354485, 36.223507 ], [ 64.343025, 36.212691 ], [ 64.3390444, 36.2113634 ], [ 64.324705, 36.206581 ], [ 64.320491, 36.206462 ], [ 64.318578, 36.208377 ], [ 64.309657, 36.189913 ], [ 64.306226, 36.184801 ], [ 64.304037, 36.183982 ], [ 64.300553, 36.178653 ], [ 64.294482, 36.166659 ], [ 64.285889, 36.156146 ], [ 64.283844, 36.151517 ], [ 64.27743, 36.151755 ], [ 64.2727352, 36.153459 ], [ 64.269385, 36.154675 ], [ 64.266468, 36.156683 ], [ 64.266534, 36.16133 ], [ 64.264705, 36.162499 ], [ 64.25609, 36.159514 ], [ 64.2501564, 36.1585628 ], [ 64.249181, 36.158927 ], [ 64.2478975, 36.1578376 ], [ 64.244929, 36.155318 ], [ 64.240779, 36.151201 ], [ 64.237931, 36.150255 ], [ 64.229122, 36.154667 ], [ 64.226532, 36.156423 ], [ 64.221032, 36.163173 ], [ 64.214652, 36.162818 ], [ 64.212104, 36.166622 ], [ 64.206774, 36.166571 ], [ 64.2038833, 36.165483 ], [ 64.201795, 36.164697 ], [ 64.195067, 36.164531 ], [ 64.189548, 36.158578 ], [ 64.184654, 36.160977 ], [ 64.1758176, 36.1620895 ], [ 64.169888, 36.162836 ], [ 64.160174, 36.160908 ], [ 64.157751, 36.147094 ], [ 64.146162, 36.146656 ], [ 64.128822, 36.135971 ], [ 64.124976, 36.1305382 ], [ 64.1108, 36.122843 ], [ 64.105358, 36.123262 ], [ 64.1050954, 36.1236348 ], [ 64.101136, 36.129256 ], [ 64.093548, 36.129542 ], [ 64.084243, 36.117988 ], [ 64.082127, 36.1126707 ], [ 64.081049, 36.109962 ], [ 64.077935, 36.10727 ], [ 64.0758924, 36.1074032 ], [ 64.071634, 36.107681 ], [ 64.057961, 36.102696 ], [ 64.059574, 36.088102 ], [ 64.059594, 36.075002 ], [ 64.055225, 36.069864 ], [ 64.056536, 36.056543 ], [ 64.060469, 36.050664 ], [ 64.060406, 36.044287 ], [ 64.060104, 36.034082 ], [ 64.06538, 36.023578 ], [ 64.069336, 36.027321 ], [ 64.07135, 36.026295 ], [ 64.070618, 36.016086 ], [ 64.067869, 36.007252 ], [ 64.0712, 36.003687 ], [ 64.0712252, 36.0036086 ], [ 64.072091, 36.000912 ], [ 64.070713, 35.999955 ], [ 64.068541, 35.997294 ], [ 63.989234, 36.036302 ], [ 63.9039687, 36.0142208 ], [ 63.843433, 35.999909 ], [ 63.703341, 35.967624 ], [ 63.5707801, 35.9514489 ], [ 63.5651994, 35.9439476 ], [ 63.5590909, 35.9356156 ], [ 63.535379, 35.903273 ], [ 63.5093685, 35.8981369 ], [ 63.305833, 35.857946 ], [ 63.1220993, 35.863139 ], [ 63.120703, 35.863179 ], [ 63.1204482, 35.8614944 ], [ 63.119319, 35.854027 ], [ 63.124865, 35.853457 ], [ 63.128522, 35.850425 ], [ 63.127164, 35.849749 ], [ 63.119819, 35.848081 ], [ 63.1143415, 35.848316 ], [ 63.113549, 35.84835 ], [ 63.109508, 35.842308 ], [ 63.113161, 35.839797 ], [ 63.117723, 35.837066 ], [ 63.1127553, 35.8332473 ], [ 63.1109328, 35.8293208 ], [ 63.109714, 35.826695 ], [ 63.100507, 35.821251 ], [ 63.099691, 35.817278 ], [ 63.10663, 35.810853 ], [ 63.116018, 35.810591 ], [ 63.121299, 35.810064 ], [ 63.130655, 35.801017 ], [ 63.1330573, 35.793931 ], [ 63.130996, 35.791688 ], [ 63.1404095, 35.7797487 ], [ 63.142653, 35.779125 ], [ 63.1420681, 35.7742296 ], [ 63.141692, 35.771082 ], [ 63.13668, 35.769575 ], [ 63.136324, 35.768383 ], [ 63.136955, 35.766698 ], [ 63.139537, 35.765963 ], [ 63.14559, 35.767671 ], [ 63.145915, 35.765836 ], [ 63.148427, 35.75984 ], [ 63.159625, 35.755759 ], [ 63.159756, 35.748713 ], [ 63.165197, 35.75022 ], [ 63.171488, 35.746221 ], [ 63.171881, 35.743691 ], [ 63.169585, 35.740309 ], [ 63.174862, 35.733329 ], [ 63.177387, 35.732097 ], [ 63.189954, 35.73164 ], [ 63.191466, 35.727327 ], [ 63.189975, 35.723055 ], [ 63.19056, 35.719533 ], [ 63.194844, 35.713591 ], [ 63.209175, 35.70758 ], [ 63.213458, 35.708138 ], [ 63.211527, 35.711656 ], [ 63.218744, 35.712967 ], [ 63.225445, 35.710505 ], [ 63.233416, 35.702935 ], [ 63.238556, 35.703594 ], [ 63.242794, 35.702365 ], [ 63.245498, 35.6982835 ], [ 63.247947, 35.694587 ], [ 63.2472629, 35.6940451 ], [ 63.246061, 35.693093 ], [ 63.240788, 35.693724 ], [ 63.244072, 35.689465 ], [ 63.2452831, 35.6881938 ], [ 63.246854, 35.686545 ], [ 63.24819, 35.68094 ], [ 63.205332, 35.666527 ], [ 63.111747, 35.633599 ], [ 63.11169, 35.62644 ], [ 63.106815, 35.621402 ], [ 63.10012, 35.619685 ], [ 63.098721, 35.621288 ], [ 63.0951791, 35.6186418 ], [ 63.094889, 35.618425 ], [ 63.096017, 35.612698 ], [ 63.0969186, 35.6115604 ], [ 63.100284, 35.607314 ], [ 63.099943, 35.60342 ], [ 63.100313, 35.59271 ], [ 63.106046, 35.585493 ], [ 63.109115, 35.585492 ], [ 63.109546, 35.578677 ], [ 63.10321, 35.573295 ], [ 63.105245, 35.566994 ], [ 63.1051155, 35.566681 ], [ 63.10233, 35.559951 ], [ 63.10289, 35.558633 ], [ 63.107142, 35.559091 ], [ 63.106185, 35.549355 ], [ 63.12195, 35.543509 ], [ 63.125919, 35.546142 ], [ 63.130105, 35.543964 ], [ 63.127056, 35.532568 ], [ 63.12922, 35.53062 ], [ 63.12374, 35.515159 ], [ 63.121862, 35.513327 ], [ 63.116334, 35.5124258 ], [ 63.115391, 35.50806 ], [ 63.119094, 35.502102 ], [ 63.117566, 35.499698 ], [ 63.116874, 35.498167 ], [ 63.1175133, 35.4964784 ], [ 63.11966, 35.490808 ], [ 63.1158001, 35.4909503 ], [ 63.113775, 35.491025 ], [ 63.112241, 35.489276 ], [ 63.1142207, 35.4846045 ], [ 63.1153905, 35.4818442 ], [ 63.108084, 35.461609 ], [ 63.1085989, 35.4595895 ], [ 63.109828, 35.454769 ], [ 63.108815, 35.446774 ], [ 63.103899, 35.442604 ], [ 63.1008, 35.436094 ], [ 63.102502, 35.4284 ], [ 63.099102, 35.417985 ], [ 63.093346, 35.421324 ], [ 63.088015, 35.419607 ], [ 63.081558, 35.41666 ], [ 63.075866, 35.414868 ], [ 63.064784, 35.415186 ], [ 63.056468, 35.413686 ], [ 63.051817, 35.412117 ], [ 63.048786, 35.412223 ], [ 63.045017, 35.415749 ], [ 63.032311, 35.415021 ], [ 63.031508, 35.412602 ], [ 63.02477, 35.412479 ], [ 63.018789, 35.414772 ], [ 63.016645, 35.418635 ], [ 63.015108, 35.418558 ], [ 63.013215, 35.416993 ], [ 63.0194351, 35.4096424 ], [ 63.023214, 35.406415 ], [ 63.023329, 35.401247 ], [ 63.01318, 35.405318 ], [ 63.006153, 35.40891 ], [ 62.993669, 35.403736 ], [ 62.991762, 35.400643 ], [ 62.973341, 35.393443 ], [ 62.962483, 35.386981 ], [ 62.959629, 35.388504 ], [ 62.954333, 35.388317 ], [ 62.949467, 35.383432 ], [ 62.935826, 35.380841 ], [ 62.927613, 35.371002 ], [ 62.922873, 35.367774 ], [ 62.919156, 35.370176 ], [ 62.917227, 35.369316 ], [ 62.913484, 35.365786 ], [ 62.913856, 35.362283 ], [ 62.911341, 35.358914 ], [ 62.906996, 35.358423 ], [ 62.90441, 35.361218 ], [ 62.893752, 35.358719 ], [ 62.895417, 35.349831 ], [ 62.892125, 35.344339 ], [ 62.88341, 35.341659 ], [ 62.879711, 35.346603 ], [ 62.877626, 35.347012 ], [ 62.873282, 35.338584 ], [ 62.868382, 35.337201 ], [ 62.866575, 35.333185 ], [ 62.863551, 35.330521 ], [ 62.86268, 35.32581 ], [ 62.858331, 35.320284 ], [ 62.854528, 35.315966 ], [ 62.853211, 35.314888 ], [ 62.849043, 35.315285 ], [ 62.840302, 35.311749 ], [ 62.837048, 35.309084 ], [ 62.823188, 35.299513 ], [ 62.8160268, 35.3007489 ], [ 62.805133, 35.302629 ], [ 62.8041196, 35.3029517 ], [ 62.800271, 35.303218 ], [ 62.79053, 35.299681 ], [ 62.786367, 35.301477 ], [ 62.781087, 35.292894 ], [ 62.777603, 35.289974 ], [ 62.774905, 35.290937 ], [ 62.762772, 35.286959 ], [ 62.761909, 35.282821 ], [ 62.754867, 35.276917 ], [ 62.751984, 35.268197 ], [ 62.748289, 35.263853 ], [ 62.747758, 35.254863 ], [ 62.743714, 35.251786 ], [ 62.734161, 35.249971 ], [ 62.724701, 35.251712 ], [ 62.713077, 35.239517 ], [ 62.70294, 35.236216 ], [ 62.698515, 35.236296 ], [ 62.69263, 35.239531 ], [ 62.682034, 35.234053 ], [ 62.67441, 35.230662 ], [ 62.669497, 35.231924 ], [ 62.660546, 35.230106 ], [ 62.652077, 35.227895 ], [ 62.641237, 35.223301 ], [ 62.636772, 35.21449 ], [ 62.627865, 35.20793 ], [ 62.617313, 35.224965 ], [ 62.608839, 35.236578 ], [ 62.6079235, 35.2363916 ], [ 62.602872, 35.235363 ], [ 62.600421, 35.228832 ], [ 62.587184, 35.225308 ], [ 62.577663, 35.220716 ], [ 62.575291, 35.23137 ], [ 62.562842, 35.232885 ], [ 62.553507, 35.233823 ], [ 62.550988, 35.234599 ], [ 62.542994, 35.245025 ], [ 62.5422799, 35.2485261 ], [ 62.541988, 35.249957 ], [ 62.543342, 35.258063 ], [ 62.5356767, 35.2593948 ], [ 62.53232, 35.259978 ], [ 62.52811, 35.262325 ], [ 62.5260048, 35.2700135 ], [ 62.5207345, 35.2733827 ], [ 62.520104, 35.273341 ], [ 62.513962, 35.265701 ], [ 62.502544, 35.271067 ], [ 62.499057, 35.272726 ], [ 62.497375, 35.277053 ], [ 62.494903, 35.274264 ], [ 62.490231, 35.273723 ], [ 62.4802138, 35.2778347 ], [ 62.47756, 35.278924 ], [ 62.330026, 35.14839 ], [ 62.305345, 35.12876 ], [ 62.29882, 35.134119 ], [ 62.301382, 35.140611 ], [ 62.3011395, 35.1425029 ], [ 62.299988, 35.151487 ], [ 62.2985803, 35.1533771 ], [ 62.298179, 35.1560027 ], [ 62.301278, 35.169414 ], [ 62.2950305, 35.1766058 ], [ 62.294248, 35.221804 ], [ 62.290655, 35.227719 ], [ 62.29447, 35.231716 ], [ 62.292284, 35.23691 ], [ 62.288872, 35.241593 ], [ 62.291935, 35.247778 ], [ 62.291054, 35.256222 ], [ 62.2780512, 35.2668961 ], [ 62.274381, 35.269909 ], [ 62.272168, 35.277203 ], [ 62.271499, 35.28647 ], [ 62.2680776, 35.2871594 ], [ 62.266447, 35.287488 ], [ 62.2663509, 35.2903335 ], [ 62.266188, 35.29516 ], [ 62.153722, 35.340903 ], [ 62.107796, 35.382439 ], [ 62.093425, 35.3996056 ], [ 62.06428, 35.43442 ], [ 62.059321, 35.4354272 ], [ 61.998811, 35.447717 ], [ 61.968227, 35.454013 ], [ 61.779568, 35.411173 ], [ 61.749281, 35.41515 ], [ 61.587758, 35.43695 ], [ 61.499241, 35.490846 ], [ 61.484487, 35.499894 ], [ 61.4503138, 35.524552 ], [ 61.445899, 35.530385 ], [ 61.444354, 35.532216 ], [ 61.432878, 35.538594 ], [ 61.385701, 35.56743 ], [ 61.388605, 35.572965 ], [ 61.398154, 35.577032 ], [ 61.400552, 35.582313 ], [ 61.3996015, 35.5862588 ], [ 61.3949774, 35.5902225 ], [ 61.4288902, 35.6104584 ], [ 61.4764786, 35.7225761 ], [ 61.3832932, 35.8508606 ], [ 61.5002708, 35.9150658 ], [ 61.5087891, 36.0066109 ], [ 61.3985176, 36.0310555 ], [ 61.4397964, 36.6958275 ], [ 60.9530067, 37.3151703 ], [ 61.1222687, 37.2766113 ], [ 61.210022, 37.1352348 ], [ 61.3722878, 37.2218132 ], [ 61.2692604, 37.3074417 ], [ 61.0934143, 37.3754539 ], [ 60.8663216, 37.4135132 ], [ 60.7743797, 37.6773376 ], [ 60.8846626, 37.7104568 ], [ 60.8380737, 37.8350677 ], [ 60.9523697, 37.8839226 ], [ 60.7554512, 38.1368523 ], [ 60.5255775, 38.3009415 ], [ 60.3881073, 38.7240067 ], [ 60.5064621, 38.7745209 ], [ 60.5153656, 38.8922806 ], [ 60.6515923, 38.9339485 ], [ 60.7287064, 39.2895737 ], [ 60.940033, 39.3338318 ], [ 60.9631538, 39.5074501 ], [ 61.1389198, 39.5147057 ], [ 62.3290863, 38.5620079 ], [ 62.6862831, 38.2017517 ], [ 63.1069756, 38.0798988 ], [ 63.6369095, 37.5870361 ], [ 63.4059334, 37.3725128 ], [ 63.4379082, 36.8609848 ], [ 64.7591193, 36.8684798 ] ] ] ] } },
{ "type": "Feature", "properties": { "POLYGON_ID": "TKM_GAUL1995_ADM1_3100", "ADM0_ISO3": "TKM", "ADM0_NAME": "Turkmenistan", "ADM0_CODE": 250, "ADM1_NAME": "Tashauz", "ADM1_CODE": 3100, "GEOSET": "GAUL", "GEOSET_YEAR": 1995.0, "GEOSET_VERSION": "GAUL_v1", "GEOSET_UNIT": "ADM1", "CENTROID_LONG": 58.668411283953638, "CENTROID_LAT": 41.15860989658286 }, "geometry": { "type": "MultiPolygon", "coordinates": [ [ [ [ 60.1064766, 41.8973504 ], [ 60.16573, 41.84474 ], [ 60.25838, 41.81541 ], [ 60.31934, 41.76837 ], [ 60.29146, 41.75228 ], [ 60.23128, 41.76634 ], [ 60.13673, 41.80367 ], [ 60.08363, 41.80933 ], [ 60.0602, 41.75284 ], [ 60.06857, 41.72849 ], [ 60.16376, 41.60952 ], [ 60.15827, 41.58075 ], [ 60.1119, 41.54813 ], [ 60.09373, 41.4321 ], [ 60.13125, 41.39482 ], [ 60.33633, 41.29538 ], [ 60.39926, 41.25308 ], [ 60.505578, 41.2164801 ], [ 60.68372, 41.22753 ], [ 60.86107, 41.23076 ], [ 60.9386979, 41.2378255 ], [ 60.943573, 41.0133553 ], [ 60.1856728, 40.9908104 ], [ 60.1855583, 40.3529282 ], [ 60.4011765, 40.3251228 ], [ 60.4523506, 39.4940605 ], [ 60.2808189, 39.4672699 ], [ 60.1939278, 39.618866 ], [ 59.9959183, 39.5874138 ], [ 59.9337463, 39.6616859 ], [ 59.9465904, 40.0128288 ], [ 59.3834, 40.003952 ], [ 59.0278358, 40.0114212 ], [ 58.8769836, 40.111042 ], [ 58.6491814, 40.1605797 ], [ 58.2999382, 40.2002563 ], [ 58.0726471, 40.1267471 ], [ 57.8182144, 40.1172218 ], [ 57.613636, 40.10569 ], [ 57.3383064, 40.0768814 ], [ 57.2057266, 40.0039139 ], [ 57.0948067, 40.0944481 ], [ 57.0137024, 40.1939392 ], [ 57.046711, 40.3195877 ], [ 56.9757271, 40.4583473 ], [ 56.9202461, 40.5881004 ], [ 56.8089752, 40.6714325 ], [ 56.7542, 40.7991676 ], [ 56.6551514, 40.9479141 ], [ 56.4939957, 41.1134453 ], [ 56.4293763, 41.3000784 ], [ 56.55974, 41.28887 ], [ 56.78748, 41.28075 ], [ 57.04242, 41.26322 ], [ 57.0889, 41.33466 ], [ 57.1517, 41.35783 ], [ 57.14855, 41.38432 ], [ 57.08655, 41.3749 ], [ 57.03163, 41.44587 ], [ 57.0199, 41.58641 ], [ 56.9722, 41.67236 ], [ 56.96758, 41.80457 ], [ 57.00154, 41.896 ], [ 57.03826, 41.91811 ], [ 57.12997, 41.94359 ], [ 57.167527, 41.9750469 ], [ 57.21411, 42.06843 ], [ 57.3128, 42.1378 ], [ 57.40983, 42.16951 ], [ 57.5217, 42.17408 ], [ 57.67562, 42.15197 ], [ 57.7692, 42.18127 ], [ 57.83548, 42.17295 ], [ 57.8338, 42.21871 ], [ 57.85673, 42.24798 ], [ 57.92852, 42.24514 ], [ 57.94731, 42.37163 ], [ 57.90419, 42.42622 ], [ 57.91515, 42.45721 ], [ 57.96864, 42.45488 ], [ 57.97719, 42.48424 ], [ 58.05328, 42.50448 ], [ 58.13472, 42.44252 ], [ 58.20119, 42.46739 ], [ 58.32343, 42.44809 ], [ 58.3697, 42.41876 ], [ 58.39692, 42.37102 ], [ 58.40638, 42.29118 ], [ 58.49242, 42.28918 ], [ 58.51783, 42.32175 ], [ 58.42904, 42.36634 ], [ 58.36421, 42.44894 ], [ 58.30648, 42.54826 ], [ 58.22762, 42.57374 ], [ 58.15477, 42.60973 ], [ 58.15172, 42.63283 ], [ 58.22447, 42.67031 ], [ 58.29717, 42.68945 ], [ 58.39221, 42.67337 ], [ 58.47267, 42.6503 ], [ 58.59536, 42.66594 ], [ 58.63976, 42.74041 ], [ 58.7025, 42.72653 ], [ 58.90965, 42.55877 ], [ 59.04784, 42.51073 ], [ 59.10412, 42.50808 ], [ 59.16948, 42.52804 ], [ 59.20372, 42.51006 ], [ 59.27743, 42.43883 ], [ 59.27063, 42.39285 ], [ 59.4192475, 42.2765615 ], [ 59.64113, 42.28063 ], [ 59.71763, 42.28598 ], [ 59.79286, 42.26864 ], [ 59.8279671, 42.3063163 ], [ 59.90693, 42.27353 ], [ 59.93949, 42.2336 ], [ 60.03914, 42.19593 ], [ 60.04933, 42.16652 ], [ 59.99684, 42.1561 ], [ 59.97019, 42.12823 ], [ 60.03, 42.00972 ], [ 59.96139, 41.99924 ], [ 59.94927, 41.97351 ], [ 60.0065, 41.95185 ], [ 60.04504, 41.91641 ], [ 60.1064766, 41.8973504 ] ] ] ] } },
{ "type": "Feature", "properties": { "POLYGON_ID": "TKM_GAUL1995_ADM1_147322", "ADM0_ISO3": "TKM", "ADM0_NAME": "Turkmenistan", "ADM0_CODE": 250, "ADM1_NAME": "Balkan", "ADM1_CODE": 147322, "GEOSET": "GAUL", "GEOSET_YEAR": 1995.0, "GEOSET_VERSION": "GAUL_v1", "GEOSET_UNIT": "ADM1", "CENTROID_LONG": 54.982912071130585, "CENTROID_LAT": 39.800264839658823 }, "geometry": { "type": "MultiPolygon", "coordinates": [ [ [ [ 56.0005984, 41.3180499 ], [ 56.4293763, 41.3000784 ], [ 56.4939957, 41.1134453 ], [ 56.6551514, 40.9479141 ], [ 56.7542, 40.7991676 ], [ 56.8089752, 40.6714325 ], [ 56.9202461, 40.5881004 ], [ 56.9757271, 40.4583473 ], [ 57.046711, 40.3195877 ], [ 57.0137024, 40.1939392 ], [ 57.0948067, 40.0944481 ], [ 57.1291199, 40.0664406 ], [ 57.0616913, 40.0074425 ], [ 56.9668846, 39.9846878 ], [ 56.9213753, 39.9126358 ], [ 56.9327545, 39.7761116 ], [ 56.9896355, 39.6888924 ], [ 56.9934311, 39.5827065 ], [ 56.9706764, 39.5296173 ], [ 56.8872452, 39.4727325 ], [ 56.8493233, 39.3475876 ], [ 56.7924385, 39.199688 ], [ 56.6635017, 38.8470078 ], [ 56.5762825, 38.7066956 ], [ 56.5004349, 38.5587959 ], [ 56.4966431, 38.4601974 ], [ 56.5269814, 38.4260674 ], [ 56.6369553, 38.3919373 ], [ 56.8227768, 38.3653908 ], [ 57.0048065, 38.2592087 ], [ 57.0729113, 38.1898207 ], [ 57.0650322, 38.1855428 ], [ 57.0112433, 38.1889608 ], [ 57.0010694, 38.218029 ], [ 56.9155233, 38.2159025 ], [ 56.8356224, 38.2336771 ], [ 56.7688143, 38.2681717 ], [ 56.6736159, 38.2688984 ], [ 56.6363579, 38.2455408 ], [ 56.5508026, 38.2688984 ], [ 56.5171586, 38.257453 ], [ 56.4506285, 38.2620213 ], [ 56.4105484, 38.2463705 ], [ 56.3233009, 38.1777809 ], [ 56.3548828, 38.1216678 ], [ 56.3388952, 38.0780655 ], [ 56.2936208, 38.0808715 ], [ 56.1993678, 38.0700717 ], [ 56.1710262, 38.0904195 ], [ 56.0024305, 38.0729785 ], [ 55.9610083, 38.0911462 ], [ 55.8706061, 38.0933263 ], [ 55.808586, 38.1245162 ], [ 55.7330026, 38.118562 ], [ 55.6803647, 38.1027835 ], [ 55.5843402, 38.1048471 ], [ 55.4995502, 38.0838791 ], [ 55.4570461, 38.0865991 ], [ 55.4028983, 38.0359166 ], [ 55.3420492, 38.0096851 ], [ 55.170352, 37.9605481 ], [ 55.1106183, 37.9369244 ], [ 55.0410929, 37.8804902 ], [ 55.0391494, 37.8612715 ], [ 54.9533056, 37.7989425 ], [ 54.8661668, 37.7675304 ], [ 54.7886154, 37.6497223 ], [ 54.8180689, 37.6130413 ], [ 54.7976856, 37.5368014 ], [ 54.7697578, 37.4980089 ], [ 54.7302207, 37.4914151 ], [ 54.6683195, 37.4354787 ], [ 54.5960813, 37.4598628 ], [ 54.4889211, 37.4188669 ], [ 54.4143581, 37.3698852 ], [ 54.2998395, 37.3435481 ], [ 54.247154, 37.3152705 ], [ 53.9999187, 37.3393809 ], [ 53.89781, 37.34081 ], [ 53.8835602, 37.4333 ], [ 53.8852425, 37.5029755 ], [ 53.8639374, 37.5594101 ], [ 53.8310966, 37.7056084 ], [ 53.8141632, 37.8146896 ], [ 53.812233, 37.9247246 ], [ 53.8221512, 38.034153 ], [ 53.8523407, 38.1410294 ], [ 53.8666039, 38.2457962 ], [ 53.8697853, 38.3756638 ], [ 53.8337097, 38.4929428 ], [ 53.8333282, 38.5625839 ], [ 53.860424, 38.6495171 ], [ 53.9183044, 38.7390327 ], [ 53.9216957, 38.7896004 ], [ 53.973114, 38.8832817 ], [ 53.981514, 38.9333191 ], [ 53.9390831, 38.9347878 ], [ 53.8864746, 38.9830818 ], [ 53.8782272, 39.0241661 ], [ 53.7413406, 39.0514259 ], [ 53.7081642, 39.072403 ], [ 53.6948013, 39.1451187 ], [ 53.653141, 39.1137466 ], [ 53.6296997, 39.1677856 ], [ 53.5718689, 39.1880569 ], [ 53.5374794, 39.2980309 ], [ 53.5144959, 39.2959595 ], [ 53.4647751, 39.3357811 ], [ 53.4047775, 39.3399735 ], [ 53.3907013, 39.3648071 ], [ 53.3319855, 39.3565941 ], [ 53.2302361, 39.3930626 ], [ 53.177597, 39.2703056 ], [ 53.1589432, 39.3395462 ], [ 53.0962982, 39.4330788 ], [ 53.2137718, 39.5725632 ], [ 53.2361832, 39.5451813 ], [ 53.3781586, 39.5648994 ], [ 53.4836464, 39.5694695 ], [ 53.5282021, 39.5857544 ], [ 53.5620117, 39.5760498 ], [ 53.5622482, 39.5543098 ], [ 53.5314941, 39.5326424 ], [ 53.5572739, 39.5207253 ], [ 53.5829659, 39.5573082 ], [ 53.6022682, 39.5637512 ], [ 53.6359253, 39.5271912 ], [ 53.6717033, 39.5660057 ], [ 53.632679, 39.5977592 ], [ 53.6097603, 39.5703125 ], [ 53.5730667, 39.5658722 ], [ 53.5496178, 39.5949287 ], [ 53.5987473, 39.6177788 ], [ 53.6155853, 39.6521568 ], [ 53.5245667, 39.6731796 ], [ 53.4601517, 39.6765175 ], [ 53.4306412, 39.721386 ], [ 53.437809, 39.8061829 ], [ 53.4868736, 39.8759575 ], [ 53.4950943, 39.9280243 ], [ 53.450798, 39.9421425 ], [ 53.4247322, 39.9862747 ], [ 53.2892265, 39.9555893 ], [ 53.1745033, 40.0056381 ], [ 53.1328316, 39.9864006 ], [ 53.0684776, 40.0 ], [ 52.9036179, 40.0 ], [ 52.9396896, 39.8607903 ], [ 52.9140167, 39.8757744 ], [ 52.8859787, 39.9335289 ], [ 52.8351059, 39.9579811 ], [ 52.7974472, 40.0 ], [ 52.7720451, 40.0 ], [ 52.7358475, 40.0813217 ], [ 52.7685318, 40.1596718 ], [ 52.7471581, 40.2297249 ], [ 52.7060356, 40.2880554 ], [ 52.7295609, 40.4074135 ], [ 52.7367134, 40.4956322 ], [ 52.7658157, 40.552372 ], [ 52.8627777, 40.6735115 ], [ 52.8496742, 40.7475357 ], [ 52.9137688, 40.9061966 ], [ 52.9401932, 40.9472923 ], [ 52.9445305, 41.0021629 ], [ 52.9163284, 41.0698624 ], [ 52.9552765, 41.0622215 ], [ 52.9561119, 41.0105553 ], [ 53.023056, 40.9380569 ], [ 53.0613899, 40.833889 ], [ 53.1183319, 40.7652779 ], [ 53.2480583, 40.7597237 ], [ 53.3341675, 40.773056 ], [ 53.3724976, 40.7897224 ], [ 53.4075012, 40.7552795 ], [ 53.4736099, 40.7288857 ], [ 53.5577774, 40.7705536 ], [ 53.5524979, 40.830555 ], [ 53.5966644, 40.8944435 ], [ 53.6572227, 40.8572235 ], [ 53.6697235, 40.8008308 ], [ 53.6522217, 40.7775002 ], [ 53.678894, 40.7169456 ], [ 53.7252769, 40.6886101 ], [ 53.7050018, 40.6391678 ], [ 53.7530556, 40.6161079 ], [ 53.7977791, 40.6336098 ], [ 53.8663902, 40.6266708 ], [ 53.9427757, 40.6686096 ], [ 54.0311127, 40.6538887 ], [ 54.0919418, 40.6947212 ], [ 54.1888886, 40.7261124 ], [ 54.2386093, 40.7152786 ], [ 54.2161102, 40.6816635 ], [ 54.2794418, 40.6683311 ], [ 54.3577805, 40.6725006 ], [ 54.371666, 40.723053 ], [ 54.3116684, 40.7200012 ], [ 54.3072205, 40.7574997 ], [ 54.2663879, 40.8455544 ], [ 54.3016701, 40.9188881 ], [ 54.339447, 40.9236107 ], [ 54.4569397, 40.8705559 ], [ 54.471386, 40.8447227 ], [ 54.4402809, 40.8141632 ], [ 54.4869461, 40.7994461 ], [ 54.6319427, 40.830555 ], [ 54.6591682, 40.8602829 ], [ 54.711113, 40.878334 ], [ 54.7611122, 40.9683342 ], [ 54.6919441, 41.0541649 ], [ 54.7338905, 41.1022224 ], [ 54.6380539, 41.1311111 ], [ 54.6408348, 41.1547241 ], [ 54.5141678, 41.2475014 ], [ 54.4469452, 41.2836113 ], [ 54.3027802, 41.3333321 ], [ 54.2011108, 41.3977776 ], [ 54.1377792, 41.4580574 ], [ 54.0772209, 41.4719429 ], [ 54.0400009, 41.5277786 ], [ 54.019722, 41.5972214 ], [ 54.0252762, 41.7180557 ], [ 53.9888878, 41.8033371 ], [ 53.9294434, 41.8827782 ], [ 53.896389, 41.8997231 ], [ 53.9138908, 42.0399971 ], [ 53.8925018, 42.0752831 ], [ 53.8119469, 42.1219482 ], [ 53.6308327, 42.1408348 ], [ 53.4730568, 42.1094437 ], [ 53.3619461, 42.1047211 ], [ 53.2780533, 42.0705566 ], [ 53.1566658, 42.0961113 ], [ 53.0883331, 42.0705566 ], [ 53.0588875, 42.0341682 ], [ 52.9466667, 41.973053 ], [ 52.9344406, 41.9349976 ], [ 52.8672218, 41.8397255 ], [ 52.8388901, 41.7786102 ], [ 52.7761078, 41.7197227 ], [ 52.815834, 41.6958313 ], [ 52.8724976, 41.7011108 ], [ 52.9172249, 41.6719437 ], [ 52.896389, 41.628891 ], [ 52.903614, 41.5808334 ], [ 52.828331, 41.4188881 ], [ 52.8169441, 41.3594437 ], [ 52.8419418, 41.2402763 ], [ 52.9111099, 41.1088905 ], [ 52.8727264, 41.0556221 ], [ 52.8463249, 41.0838318 ], [ 52.8565712, 41.1674843 ], [ 52.8205566, 41.2428894 ], [ 52.8146133, 41.2987251 ], [ 52.7672844, 41.3892517 ], [ 52.7275963, 41.407505 ], [ 52.7118568, 41.4428368 ], [ 52.5551491, 41.5405808 ], [ 52.5974808, 41.6368752 ], [ 52.5810776, 41.6870308 ], [ 52.44143, 41.76545 ], [ 52.62854, 41.88168 ], [ 52.9594, 42.10326 ], [ 53.03273, 42.13878 ], [ 53.13144, 42.16409 ], [ 53.42019, 42.25881 ], [ 53.58611, 42.29268 ], [ 53.92246, 42.33347 ], [ 54.02938, 42.34089 ], [ 54.18905, 42.34147 ], [ 54.23801, 42.32722 ], [ 54.48362, 42.20873 ], [ 54.83601, 42.02238 ], [ 54.95772, 41.90964 ], [ 54.9486, 41.84059 ], [ 54.96852, 41.80143 ], [ 55.02431, 41.76053 ], [ 55.07121, 41.70877 ], [ 55.14605, 41.57663 ], [ 55.23809, 41.46218 ], [ 55.28337, 41.4158 ], [ 55.34069, 41.38077 ], [ 55.40748, 41.31624 ], [ 55.46615, 41.2757 ], [ 55.52576, 41.25027 ], [ 55.55681, 41.25944 ], [ 55.61505, 41.24193 ], [ 55.6501, 41.27958 ], [ 55.77981, 41.29471 ], [ 55.8162997, 41.2806099 ], [ 55.8674, 41.32206 ], [ 56.0005984, 41.3180499 ] ] ], [ [ [ 53.1021004, 39.1064529 ], [ 53.0635109, 39.0918045 ], [ 53.0541039, 38.9670944 ], [ 53.0717316, 38.8220558 ], [ 53.0290146, 38.9148064 ], [ 53.0413132, 39.0090637 ], [ 53.0355186, 39.0477867 ], [ 53.055645, 39.0978012 ], [ 53.1021004, 39.1064529 ] ] ] ] } },
{ "type": "Feature", "properties": { "POLYGON_ID": "TKM_GAUL1995_ADM1_147323", "ADM0_ISO3": "TKM", "ADM0_NAME": "Turkmenistan", "ADM0_CODE": 250, "ADM1_NAME": "Ahal", "ADM1_CODE": 147323, "GEOSET": "GAUL", "GEOSET_YEAR": 1995.0, "GEOSET_VERSION": "GAUL_v1", "GEOSET_UNIT": "ADM1", "CENTROID_LONG": 59.036211525116741, "CENTROID_LAT": 38.565097347534838 }, "geometry": { "type": "MultiPolygon", "coordinates": [ [ [ [ 57.0729113, 38.1898207 ], [ 57.0048065, 38.2592087 ], [ 56.8227768, 38.3653908 ], [ 56.6369553, 38.3919373 ], [ 56.5269814, 38.4260674 ], [ 56.4966431, 38.4601974 ], [ 56.5004349, 38.5587959 ], [ 56.5762825, 38.7066956 ], [ 56.6635017, 38.8470078 ], [ 56.7924385, 39.199688 ], [ 56.8493233, 39.3475876 ], [ 56.8872452, 39.4727325 ], [ 56.9706764, 39.5296173 ], [ 56.9934311, 39.5827065 ], [ 56.9896355, 39.6888924 ], [ 56.9327545, 39.7761116 ], [ 56.9213753, 39.9126358 ], [ 56.9668846, 39.9846878 ], [ 57.0616913, 40.0074425 ], [ 57.1291199, 40.0664406 ], [ 57.2057266, 40.0039139 ], [ 57.3383064, 40.0768814 ], [ 57.613636, 40.10569 ], [ 57.8182144, 40.1172218 ], [ 58.0726471, 40.1267471 ], [ 58.2999382, 40.2002563 ], [ 58.6491814, 40.1605797 ], [ 58.8769836, 40.111042 ], [ 59.0278358, 40.0114212 ], [ 59.3834, 40.003952 ], [ 59.9465904, 40.0128288 ], [ 59.9337463, 39.6616859 ], [ 59.9959183, 39.5874138 ], [ 60.1939278, 39.618866 ], [ 60.2808189, 39.4672699 ], [ 60.4523506, 39.4940605 ], [ 60.7897301, 39.495739 ], [ 60.9631538, 39.5074501 ], [ 60.940033, 39.3338318 ], [ 60.7287064, 39.2895737 ], [ 60.6515923, 38.9339485 ], [ 60.5153656, 38.8922806 ], [ 60.5064621, 38.7745209 ], [ 60.3881073, 38.7240067 ], [ 60.5255775, 38.3009415 ], [ 60.7554512, 38.1368523 ], [ 60.9523697, 37.8839226 ], [ 60.8380737, 37.8350677 ], [ 60.8846626, 37.7104568 ], [ 60.7743797, 37.6773376 ], [ 60.8663216, 37.4135132 ], [ 61.0934143, 37.3754539 ], [ 61.2692604, 37.3074417 ], [ 61.3722878, 37.2218132 ], [ 61.210022, 37.1352348 ], [ 61.1222687, 37.2766113 ], [ 60.9530067, 37.3151703 ], [ 61.4397964, 36.6958275 ], [ 61.3985176, 36.0310555 ], [ 61.5087891, 36.0066109 ], [ 61.5002708, 35.9150658 ], [ 61.3832932, 35.8508606 ], [ 61.4764786, 35.7225761 ], [ 61.4288902, 35.6104584 ], [ 61.3949774, 35.5902225 ], [ 61.393424, 35.591554 ], [ 61.383856, 35.589409 ], [ 61.375382, 35.590112 ], [ 61.374512, 35.5957238 ], [ 61.374074, 35.598549 ], [ 61.3727949, 35.5996936 ], [ 61.369339, 35.602786 ], [ 61.370739, 35.6162617 ], [ 61.37469, 35.618871 ], [ 61.374663, 35.621546 ], [ 61.277587, 35.60522 ], [ 61.2757604, 35.6051831 ], [ 61.274126, 35.60515 ], [ 61.2157084, 35.675793 ], [ 61.2500089, 35.7293082 ], [ 61.2435064, 35.7683555 ], [ 61.2633423, 35.8187412 ], [ 61.1911292, 35.9426049 ], [ 61.1279684, 35.9591656 ], [ 61.1691218, 35.9906608 ], [ 61.1645811, 36.0364302 ], [ 61.220818, 36.1203665 ], [ 61.2266325, 36.1623553 ], [ 61.1864474, 36.2385478 ], [ 61.1877479, 36.2691093 ], [ 61.1567558, 36.2965304 ], [ 61.1573164, 36.3555431 ], [ 61.1400524, 36.3925096 ], [ 61.1669188, 36.4153023 ], [ 61.1567358, 36.5067866 ], [ 61.1856043, 36.5660801 ], [ 61.1491776, 36.6397406 ], [ 61.105077, 36.6439355 ], [ 60.6549007, 36.6219219 ], [ 60.5816635, 36.6265786 ], [ 60.3517069, 36.6278487 ], [ 60.3051399, 36.6862691 ], [ 60.2682249, 36.7566277 ], [ 60.1802369, 36.8369684 ], [ 60.0967269, 36.9342029 ], [ 60.0889842, 36.9747308 ], [ 60.0445223, 37.0204348 ], [ 59.9890767, 37.0450047 ], [ 59.9357363, 37.0395013 ], [ 59.8730824, 37.0670182 ], [ 59.8406353, 37.0967493 ], [ 59.7677409, 37.1256136 ], [ 59.6558775, 37.142688 ], [ 59.6394852, 37.1201469 ], [ 59.5551498, 37.1318872 ], [ 59.5514312, 37.171794 ], [ 59.4754846, 37.2131964 ], [ 59.4805646, 37.2483333 ], [ 59.4071813, 37.3058988 ], [ 59.3980942, 37.3516338 ], [ 59.4237528, 37.3617029 ], [ 59.3873459, 37.4112333 ], [ 59.4127461, 37.4349401 ], [ 59.3936959, 37.4789672 ], [ 59.3348521, 37.540605 ], [ 59.2671182, 37.5092781 ], [ 59.2222445, 37.5097014 ], [ 59.0536982, 37.61469 ], [ 58.9463983, 37.6501645 ], [ 58.8884012, 37.6569379 ], [ 58.822276, 37.6954616 ], [ 58.7912031, 37.6374644 ], [ 58.7412493, 37.630691 ], [ 58.6231455, 37.6603669 ], [ 58.5657339, 37.7041823 ], [ 58.5216451, 37.6827307 ], [ 58.4698665, 37.6345629 ], [ 58.4096828, 37.636717 ], [ 58.3433314, 37.6598688 ], [ 58.2582217, 37.6713707 ], [ 58.2168129, 37.7518878 ], [ 58.1838292, 37.7766565 ], [ 58.1070911, 37.8018281 ], [ 57.938454, 37.804799 ], [ 57.8861387, 37.8665297 ], [ 57.7108579, 37.915486 ], [ 57.5757297, 37.9185807 ], [ 57.525916, 37.9128586 ], [ 57.4627541, 37.9262534 ], [ 57.3676984, 37.9879674 ], [ 57.3573135, 38.042491 ], [ 57.3639681, 38.10137 ], [ 57.292433, 38.153602 ], [ 57.2958394, 38.1967501 ], [ 57.2550968, 38.2274637 ], [ 57.2375758, 38.2750724 ], [ 57.1558577, 38.2754387 ], [ 57.139247, 38.2398381 ], [ 57.0818712, 38.1946855 ], [ 57.0729113, 38.1898207 ] ] ] ] } }
]
}
