{
"type": "FeatureCollection",
"name": "TON_GAUL2011_ADM0",
"crs": { "type": "name", "properties": { "name": "urn:ogc:def:crs:OGC:1.3:CRS84" } },
"features": [
{ "type": "Feature", "properties": { "POLYGON_ID": "TON_GAUL2011_ADM0_245", "ADM0_ISO3": "TON", "ADM0_NAME": "Tonga", "ADM0_CODE": 245, "GEOSET": "GAUL", "GEOSET_YEAR": 2011.0, "GEOSET_VERSION": "GAUL_v1", "GEOSET_UNIT": "ADM0", "CENTROID_LONG": -174.96761620085289, "CENTROID_LAT": -20.140158765084411 }, "geometry": { "type": "MultiPolygon", "coordinates": [ [ [ [ -173.747002, -15.9416714 ], [ -173.7812157, -15.9822862 ], [ -173.797152399999987, -15.9501627 ], [ -173.747002, -15.9416714 ] ] ], [ [ [ -173.9708871, -18.5683885 ], [ -173.9321538, -18.572475 ], [ -173.9233245, -18.6113319 ], [ -173.9383163, -18.6356713 ], [ -173.9713975, -18.6536516 ], [ -173.991428899999988, -18.6385304 ], [ -174.0252444, -18.6390868 ], [ -174.0561361, -18.6555266 ], [ -174.06211780000001, -18.6216551 ], [ -174.0269968, -18.6236761 ], [ -174.0020279, -18.5777372 ], [ -173.9708871, -18.5683885 ] ] ], [ [ [ -174.914006699999987, -21.2831204 ], [ -174.90187370000001, -21.3928699 ], [ -174.9011942, -21.4499989 ], [ -174.9148829, -21.4540307 ], [ -174.9676998, -21.4058263 ], [ -174.9743554, -21.378061 ], [ -174.9306221, -21.2928486 ], [ -174.914006699999987, -21.2831204 ] ] ], [ [ [ -175.081739700000014, -19.7075085 ], [ -175.0495847, -19.7139842 ], [ -175.027562100000011, -19.758537 ], [ -175.045975199999987, -19.7871852 ], [ -175.0775363, -19.7861119 ], [ -175.107143900000011, -19.7547625 ], [ -175.081739700000014, -19.7075085 ] ] ], [ [ [ -175.3158526, -21.1188302 ], [ -175.288486, -21.1270971 ], [ -175.2353982, -21.1153549 ], [ -175.186453, -21.1376439 ], [ -175.2293309, -21.1642014 ], [ -175.2066025, -21.1828818 ], [ -175.1733985, -21.1599389 ], [ -175.141478400000011, -21.1671201 ], [ -175.1224709, -21.1293285 ], [ -175.0920988, -21.1196672 ], [ -175.0489157, -21.1315859 ], [ -175.0392066, -21.1605598 ], [ -175.0690119, -21.1686248 ], [ -175.1041464, -21.2109793 ], [ -175.098382500000014, -21.24309 ], [ -175.1195807, -21.2709983 ], [ -175.149103599999989, -21.2681668 ], [ -175.179968800000012, -21.2509405 ], [ -175.193516, -21.2226011 ], [ -175.2434422, -21.2009024 ], [ -175.2725613, -21.1990141 ], [ -175.3421524, -21.1493844 ], [ -175.356359700000013, -21.0927585 ], [ -175.3375235, -21.0887622 ], [ -175.3158526, -21.1188302 ] ] ], [ [ [ -175.6337709, -15.6388392 ], [ -175.656585400000012, -15.6354453 ], [ -175.678174899999988, -15.6120765 ], [ -175.6704642, -15.5824237 ], [ -175.6273554, -15.5664452 ], [ -175.60303780000001, -15.5836706 ], [ -175.6058212, -15.6182601 ], [ -175.6337709, -15.6388392 ] ] ] ] } }
]
}
