{
"type": "FeatureCollection",
"name": "TTO_GAUL2008_ADM1",
"crs": { "type": "name", "properties": { "name": "urn:ogc:def:crs:OGC:1.3:CRS84" } },
"features": [
{ "type": "Feature", "properties": { "POLYGON_ID": "TTO_GAUL2008_ADM1_2977", "ADM0_ISO3": "TTO", "ADM0_NAME": "Trinidad and Tobago", "ADM0_CODE": 246, "ADM1_NAME": "Arima", "ADM1_CODE": 2977, "GEOSET": "GAUL", "GEOSET_YEAR": 2008.0, "GEOSET_VERSION": "GAUL_v1", "GEOSET_UNIT": "ADM1", "CENTROID_LONG": -61.282521956199901, "CENTROID_LAT": 10.62532935589709 }, "geometry": { "type": "MultiPolygon", "coordinates": [ [ [ [ -61.2983284, 10.6540556 ], [ -61.2748222, 10.6464472 ], [ -61.2620888, 10.6053705 ], [ -61.2935104, 10.6011381 ], [ -61.2983284, 10.6540556 ] ] ] ] } },
{ "type": "Feature", "properties": { "POLYGON_ID": "TTO_GAUL2008_ADM1_2978", "ADM0_ISO3": "TTO", "ADM0_NAME": "Trinidad and Tobago", "ADM0_CODE": 246, "ADM1_NAME": "Chaguanas", "ADM1_CODE": 2978, "GEOSET": "GAUL", "GEOSET_YEAR": 2008.0, "GEOSET_VERSION": "GAUL_v1", "GEOSET_UNIT": "ADM1", "CENTROID_LONG": -61.413782570106171, "CENTROID_LAT": 10.532203926337097 }, "geometry": { "type": "MultiPolygon", "coordinates": [ [ [ [ -61.4211273, 10.5656948 ], [ -61.3705559, 10.5632963 ], [ -61.3788795, 10.4971685 ], [ -61.4223442, 10.5000401 ], [ -61.4681157, 10.522202 ], [ -61.4637858, 10.5413469 ], [ -61.4211273, 10.5656948 ] ] ] ] } },
{ "type": "Feature", "properties": { "POLYGON_ID": "TTO_GAUL2008_ADM1_2979", "ADM0_ISO3": "TTO", "ADM0_NAME": "Trinidad and Tobago", "ADM0_CODE": 246, "ADM1_NAME": "Couva\/Tabaquite\/Talparo", "ADM1_CODE": 2979, "GEOSET": "GAUL", "GEOSET_YEAR": 2008.0, "GEOSET_VERSION": "GAUL_v1", "GEOSET_UNIT": "ADM1", "CENTROID_LONG": -61.332070441033537, "CENTROID_LAT": 10.437269661989374 }, "geometry": { "type": "MultiPolygon", "coordinates": [ [ [ [ -61.1962585, 10.4579325 ], [ -61.2042847, 10.4421673 ], [ -61.1942825, 10.3359947 ], [ -61.2258301, 10.3086729 ], [ -61.2903671, 10.3347454 ], [ -61.3360291, 10.3381701 ], [ -61.4168701, 10.3119926 ], [ -61.4648318, 10.3156924 ], [ -61.4669947, 10.3612823 ], [ -61.4912034, 10.3804055 ], [ -61.4924087, 10.4283016 ], [ -61.4681157, 10.522202 ], [ -61.4223442, 10.5000401 ], [ -61.3788795, 10.4971685 ], [ -61.3705559, 10.5632963 ], [ -61.2344742, 10.5875587 ], [ -61.1960106, 10.4980135 ], [ -61.1962585, 10.4579325 ] ] ] ] } },
{ "type": "Feature", "properties": { "POLYGON_ID": "TTO_GAUL2008_ADM1_2980", "ADM0_ISO3": "TTO", "ADM0_NAME": "Trinidad and Tobago", "ADM0_CODE": 246, "ADM1_NAME": "Diego Martin", "ADM1_CODE": 2980, "GEOSET": "GAUL", "GEOSET_YEAR": 2008.0, "GEOSET_VERSION": "GAUL_v1", "GEOSET_UNIT": "ADM1", "CENTROID_LONG": -61.575049512652654, "CENTROID_LAT": 10.715174277412759 }, "geometry": { "type": "MultiPolygon", "coordinates": [ [ [ [ -61.5000458, 10.7550342 ], [ -61.4971886, 10.7204113 ], [ -61.5241318, 10.6784916 ], [ -61.5619889, 10.6746034 ], [ -61.60226, 10.6912948 ], [ -61.6539542, 10.6787871 ], [ -61.6672069, 10.7139209 ], [ -61.6145672, 10.746398 ], [ -61.5000458, 10.7550342 ] ] ] ] } },
{ "type": "Feature", "properties": { "POLYGON_ID": "TTO_GAUL2008_ADM1_2981", "ADM0_ISO3": "TTO", "ADM0_NAME": "Trinidad and Tobago", "ADM0_CODE": 246, "ADM1_NAME": "Penal\/Debe", "ADM1_CODE": 2981, "GEOSET": "GAUL", "GEOSET_YEAR": 2008.0, "GEOSET_VERSION": "GAUL_v1", "GEOSET_UNIT": "ADM1", "CENTROID_LONG": -61.434719587240338, "CENTROID_LAT": 10.164604613723897 }, "geometry": { "type": "MultiPolygon", "coordinates": [ [ [ [ -61.3759474, 10.07244 ], [ -61.5070952, 10.0726598 ], [ -61.481884, 10.1704807 ], [ -61.5163346, 10.2389643 ], [ -61.500359, 10.2479738 ], [ -61.4304314, 10.260746 ], [ -61.3617859, 10.2356787 ], [ -61.3701591, 10.1887188 ], [ -61.3759474, 10.07244 ] ] ] ] } },
{ "type": "Feature", "properties": { "POLYGON_ID": "TTO_GAUL2008_ADM1_2982", "ADM0_ISO3": "TTO", "ADM0_NAME": "Trinidad and Tobago", "ADM0_CODE": 246, "ADM1_NAME": "Point Fortin", "ADM1_CODE": 2982, "GEOSET": "GAUL", "GEOSET_YEAR": 2008.0, "GEOSET_VERSION": "GAUL_v1", "GEOSET_UNIT": "ADM1", "CENTROID_LONG": -61.665726474865636, "CENTROID_LAT": 10.179068266511422 }, "geometry": { "type": "MultiPolygon", "coordinates": [ [ [ [ -61.7067294, 10.1625899 ], [ -61.6988864, 10.1835599 ], [ -61.6319128, 10.2201872 ], [ -61.6266212, 10.1904392 ], [ -61.676899, 10.1388788 ], [ -61.7067294, 10.1625899 ] ] ] ] } },
{ "type": "Feature", "properties": { "POLYGON_ID": "TTO_GAUL2008_ADM1_2983", "ADM0_ISO3": "TTO", "ADM0_NAME": "Trinidad and Tobago", "ADM0_CODE": 246, "ADM1_NAME": "Port Of Spain", "ADM1_CODE": 2983, "GEOSET": "GAUL", "GEOSET_YEAR": 2008.0, "GEOSET_VERSION": "GAUL_v1", "GEOSET_UNIT": "ADM1", "CENTROID_LONG": -61.528251766666656, "CENTROID_LAT": 10.665009566666665 }, "geometry": { "type": "MultiPolygon", "coordinates": [ [ [ [ -61.5241318, 10.6784916 ], [ -61.4986346, 10.6419337 ], [ -61.5619889, 10.6746034 ], [ -61.5241318, 10.6784916 ] ] ] ] } },
{ "type": "Feature", "properties": { "POLYGON_ID": "TTO_GAUL2008_ADM1_2984", "ADM0_ISO3": "TTO", "ADM0_NAME": "Trinidad and Tobago", "ADM0_CODE": 246, "ADM1_NAME": "Princes Town", "ADM1_CODE": 2984, "GEOSET": "GAUL", "GEOSET_YEAR": 2008.0, "GEOSET_VERSION": "GAUL_v1", "GEOSET_UNIT": "ADM1", "CENTROID_LONG": -61.282634753780847, "CENTROID_LAT": 10.203384915893766 }, "geometry": { "type": "MultiPolygon", "coordinates": [ [ [ [ -61.2258301, 10.3086729 ], [ -61.2048111, 10.2700005 ], [ -61.1616478, 10.2682753 ], [ -61.1710879, 10.0751032 ], [ -61.21085, 10.0721299 ], [ -61.2802683, 10.0861258 ], [ -61.3759474, 10.07244 ], [ -61.3701591, 10.1887188 ], [ -61.3617859, 10.2356787 ], [ -61.4304314, 10.260746 ], [ -61.4168701, 10.3119926 ], [ -61.3360291, 10.3381701 ], [ -61.2903671, 10.3347454 ], [ -61.2258301, 10.3086729 ] ] ] ] } },
{ "type": "Feature", "properties": { "POLYGON_ID": "TTO_GAUL2008_ADM1_2985", "ADM0_ISO3": "TTO", "ADM0_NAME": "Trinidad and Tobago", "ADM0_CODE": 246, "ADM1_NAME": "Rio Claro\/Mayaro", "ADM1_CODE": 2985, "GEOSET": "GAUL", "GEOSET_YEAR": 2008.0, "GEOSET_VERSION": "GAUL_v1", "GEOSET_UNIT": "ADM1", "CENTROID_LONG": -61.099803247740063, "CENTROID_LAT": 10.288421597932887 }, "geometry": { "type": "MultiPolygon", "coordinates": [ [ [ [ -61.1710879, 10.0751032 ], [ -61.1616478, 10.2682753 ], [ -61.2048111, 10.2700005 ], [ -61.2258301, 10.3086729 ], [ -61.1942825, 10.3359947 ], [ -61.2042847, 10.4421673 ], [ -61.1962585, 10.4579325 ], [ -61.0391326, 10.4623005 ], [ -61.0048583, 10.3565126 ], [ -60.9843599, 10.32934 ], [ -60.99729, 10.3005701 ], [ -61.0034848, 10.2127971 ], [ -60.9980101, 10.1658399 ], [ -61.0621501, 10.1139299 ], [ -61.1710879, 10.0751032 ] ] ] ] } },
{ "type": "Feature", "properties": { "POLYGON_ID": "TTO_GAUL2008_ADM1_2986", "ADM0_ISO3": "TTO", "ADM0_NAME": "Trinidad and Tobago", "ADM0_CODE": 246, "ADM1_NAME": "San Fernando", "ADM1_CODE": 2986, "GEOSET": "GAUL", "GEOSET_YEAR": 2008.0, "GEOSET_VERSION": "GAUL_v1", "GEOSET_UNIT": "ADM1", "CENTROID_LONG": -61.45017428578155, "CENTROID_LAT": 10.284177072067866 }, "geometry": { "type": "MultiPolygon", "coordinates": [ [ [ [ -61.4168701, 10.3119926 ], [ -61.4304314, 10.260746 ], [ -61.500359, 10.2479738 ], [ -61.4790762, 10.2594712 ], [ -61.4648318, 10.3156924 ], [ -61.4168701, 10.3119926 ] ] ] ] } },
{ "type": "Feature", "properties": { "POLYGON_ID": "TTO_GAUL2008_ADM1_2987", "ADM0_ISO3": "TTO", "ADM0_NAME": "Trinidad and Tobago", "ADM0_CODE": 246, "ADM1_NAME": "San Juan\/Laventille", "ADM1_CODE": 2987, "GEOSET": "GAUL", "GEOSET_YEAR": 2008.0, "GEOSET_VERSION": "GAUL_v1", "GEOSET_UNIT": "ADM1", "CENTROID_LONG": -61.446024982067058, "CENTROID_LAT": 10.687744187549079 }, "geometry": { "type": "MultiPolygon", "coordinates": [ [ [ [ -61.3438653, 10.8056192 ], [ -61.3548737, 10.786972 ], [ -61.3345757, 10.7439671 ], [ -61.4397583, 10.7283945 ], [ -61.4319801, 10.6150627 ], [ -61.4211273, 10.5656948 ], [ -61.4637858, 10.5413469 ], [ -61.4986346, 10.6419337 ], [ -61.5241318, 10.6784916 ], [ -61.4971886, 10.7204113 ], [ -61.5000458, 10.7550342 ], [ -61.4270103, 10.7722499 ], [ -61.3438653, 10.8056192 ] ] ] ] } },
{ "type": "Feature", "properties": { "POLYGON_ID": "TTO_GAUL2008_ADM1_2988", "ADM0_ISO3": "TTO", "ADM0_NAME": "Trinidad and Tobago", "ADM0_CODE": 246, "ADM1_NAME": "Sangre Grande", "ADM1_CODE": 2988, "GEOSET": "GAUL", "GEOSET_YEAR": 2008.0, "GEOSET_VERSION": "GAUL_v1", "GEOSET_UNIT": "ADM1", "CENTROID_LONG": -61.096382851871923, "CENTROID_LAT": 10.657230625208404 }, "geometry": { "type": "MultiPolygon", "coordinates": [ [ [ [ -61.0391326, 10.4623005 ], [ -61.1962585, 10.4579325 ], [ -61.1960106, 10.4980135 ], [ -61.2344742, 10.5875587 ], [ -61.1993217, 10.6121521 ], [ -61.21381, 10.710248 ], [ -61.1695251, 10.7630825 ], [ -61.1702491, 10.8089681 ], [ -61.0430301, 10.84082 ], [ -60.9243031, 10.8358174 ], [ -60.9480604, 10.7653276 ], [ -60.99833, 10.7041301 ], [ -61.038228, 10.6774821 ], [ -61.0119652, 10.5248917 ], [ -61.0434901, 10.50489 ], [ -61.0391326, 10.4623005 ] ] ] ] } },
{ "type": "Feature", "properties": { "POLYGON_ID": "TTO_GAUL2008_ADM1_2989", "ADM0_ISO3": "TTO", "ADM0_NAME": "Trinidad and Tobago", "ADM0_CODE": 246, "ADM1_NAME": "Siparia", "ADM1_CODE": 2989, "GEOSET": "GAUL", "GEOSET_YEAR": 2008.0, "GEOSET_VERSION": "GAUL_v1", "GEOSET_UNIT": "ADM1", "CENTROID_LONG": -61.64160890983041, "CENTROID_LAT": 10.134859183691747 }, "geometry": { "type": "MultiPolygon", "coordinates": [ [ [ [ -61.5163346, 10.2389643 ], [ -61.481884, 10.1704807 ], [ -61.5070952, 10.0726598 ], [ -61.5715959, 10.0739599 ], [ -61.6271899, 10.0555599 ], [ -61.69415, 10.08663 ], [ -61.8218499, 10.08363 ], [ -61.9036601, 10.0424201 ], [ -61.9078764, 10.087744 ], [ -61.8520217, 10.0958076 ], [ -61.8262226, 10.1346568 ], [ -61.7067294, 10.1625899 ], [ -61.676899, 10.1388788 ], [ -61.6266212, 10.1904392 ], [ -61.6319128, 10.2201872 ], [ -61.6179669, 10.2502116 ], [ -61.5708895, 10.231823 ], [ -61.5163346, 10.2389643 ] ] ] ] } },
{ "type": "Feature", "properties": { "POLYGON_ID": "TTO_GAUL2008_ADM1_2990", "ADM0_ISO3": "TTO", "ADM0_NAME": "Trinidad and Tobago", "ADM0_CODE": 246, "ADM1_NAME": "Tobago", "ADM1_CODE": 2990, "GEOSET": "GAUL", "GEOSET_YEAR": 2008.0, "GEOSET_VERSION": "GAUL_v1", "GEOSET_UNIT": "ADM1", "CENTROID_LONG": -60.663973673066799, "CENTROID_LAT": 11.244109105306592 }, "geometry": { "type": "MultiPolygon", "coordinates": [ [ [ [ -60.5284186, 11.3464806 ], [ -60.5253302, 11.2743941 ], [ -60.5785661, 11.248755 ], [ -60.6409978, 11.1925448 ], [ -60.7414725, 11.1807358 ], [ -60.7739159, 11.1413273 ], [ -60.8316415, 11.147897 ], [ -60.7812253, 11.2216077 ], [ -60.69881, 11.2751301 ], [ -60.6098697, 11.3236155 ], [ -60.5284186, 11.3464806 ] ] ] ] } },
{ "type": "Feature", "properties": { "POLYGON_ID": "TTO_GAUL2008_ADM1_2991", "ADM0_ISO3": "TTO", "ADM0_NAME": "Trinidad and Tobago", "ADM0_CODE": 246, "ADM1_NAME": "Tunapuna\/Piarco", "ADM1_CODE": 2991, "GEOSET": "GAUL", "GEOSET_YEAR": 2008.0, "GEOSET_VERSION": "GAUL_v1", "GEOSET_UNIT": "ADM1", "CENTROID_LONG": -61.309417604424794, "CENTROID_LAT": 10.683815418417714 }, "geometry": { "type": "MultiPolygon", "coordinates": [ [ [ [ -61.1702491, 10.8089681 ], [ -61.1695251, 10.7630825 ], [ -61.21381, 10.710248 ], [ -61.1993217, 10.6121521 ], [ -61.2344742, 10.5875587 ], [ -61.3705559, 10.5632963 ], [ -61.4211273, 10.5656948 ], [ -61.4319801, 10.6150627 ], [ -61.4397583, 10.7283945 ], [ -61.3345757, 10.7439671 ], [ -61.3548737, 10.786972 ], [ -61.3438653, 10.8056192 ], [ -61.25155, 10.7928601 ], [ -61.1702491, 10.8089681 ] ], [ [ -61.2983284, 10.6540556 ], [ -61.2935104, 10.6011381 ], [ -61.2620888, 10.6053705 ], [ -61.2748222, 10.6464472 ], [ -61.2983284, 10.6540556 ] ] ] ] } }
]
}
