{
"type": "FeatureCollection",
"name": "TTO_GAUL1994_ADM2",
"crs": { "type": "name", "properties": { "name": "urn:ogc:def:crs:OGC:1.3:CRS84" } },
"features": [
{ "type": "Feature", "properties": { "POLYGON_ID": "TTO_GAUL1994_ADM2_27408", "ADM0_ISO3": "TTO", "ADM0_NAME": "Trinidad and Tobago", "ADM0_CODE": 246, "ADM1_NAME": "Arima", "ADM1_CODE": 2977, "ADM2_NAME": "Administrative unit not available", "ADM2_CODE": 27408, "GEOSET": "GAUL", "GEOSET_YEAR": 1994.0, "GEOSET_VERSION": "GAUL_v1", "GEOSET_UNIT": "ADM2", "CENTROID_LONG": -61.282521956199901, "CENTROID_LAT": 10.62532935589709 }, "geometry": { "type": "MultiPolygon", "coordinates": [ [ [ [ -61.2983284, 10.6540556 ], [ -61.2748222, 10.6464472 ], [ -61.2620888, 10.6053705 ], [ -61.2935104, 10.6011381 ], [ -61.2983284, 10.6540556 ] ] ] ] } },
{ "type": "Feature", "properties": { "POLYGON_ID": "TTO_GAUL1994_ADM2_27409", "ADM0_ISO3": "TTO", "ADM0_NAME": "Trinidad and Tobago", "ADM0_CODE": 246, "ADM1_NAME": "Chaguanas", "ADM1_CODE": 2978, "ADM2_NAME": "Administrative unit not available", "ADM2_CODE": 27409, "GEOSET": "GAUL", "GEOSET_YEAR": 1994.0, "GEOSET_VERSION": "GAUL_v1", "GEOSET_UNIT": "ADM2", "CENTROID_LONG": -61.412932737066456, "CENTROID_LAT": 10.534547768862344 }, "geometry": { "type": "MultiPolygon", "coordinates": [ [ [ [ -61.4211273, 10.5656948 ], [ -61.3705559, 10.5632963 ], [ -61.3788795, 10.4971685 ], [ -61.4681157, 10.522202 ], [ -61.4637858, 10.5413469 ], [ -61.4211273, 10.5656948 ] ] ] ] } },
{ "type": "Feature", "properties": { "POLYGON_ID": "TTO_GAUL1994_ADM2_27410", "ADM0_ISO3": "TTO", "ADM0_NAME": "Trinidad and Tobago", "ADM0_CODE": 246, "ADM1_NAME": "Couva\/Tabaquite\/Talparo", "ADM1_CODE": 2979, "ADM2_NAME": "Administrative unit not available", "ADM2_CODE": 27410, "GEOSET": "GAUL", "GEOSET_YEAR": 1994.0, "GEOSET_VERSION": "GAUL_v1", "GEOSET_UNIT": "ADM2", "CENTROID_LONG": -61.332421122139692, "CENTROID_LAT": 10.435992287149714 }, "geometry": { "type": "MultiPolygon", "coordinates": [ [ [ [ -61.1962585, 10.4579325 ], [ -61.1942825, 10.3359947 ], [ -61.2258301, 10.3086729 ], [ -61.3360291, 10.3381701 ], [ -61.4168701, 10.3119926 ], [ -61.4648318, 10.3156924 ], [ -61.4912034, 10.3804055 ], [ -61.4924087, 10.4283016 ], [ -61.4681157, 10.522202 ], [ -61.3788795, 10.4971685 ], [ -61.3705559, 10.5632963 ], [ -61.2344742, 10.5875587 ], [ -61.1960106, 10.4980135 ], [ -61.1962585, 10.4579325 ] ] ] ] } },
{ "type": "Feature", "properties": { "POLYGON_ID": "TTO_GAUL1994_ADM2_27411", "ADM0_ISO3": "TTO", "ADM0_NAME": "Trinidad and Tobago", "ADM0_CODE": 246, "ADM1_NAME": "Diego Martin", "ADM1_CODE": 2980, "ADM2_NAME": "Administrative unit not available", "ADM2_CODE": 27411, "GEOSET": "GAUL", "GEOSET_YEAR": 1994.0, "GEOSET_VERSION": "GAUL_v1", "GEOSET_UNIT": "ADM2", "CENTROID_LONG": -61.578857665683401, "CENTROID_LAT": 10.715017036998306 }, "geometry": { "type": "MultiPolygon", "coordinates": [ [ [ [ -61.5000458, 10.7550342 ], [ -61.5241318, 10.6784916 ], [ -61.5619889, 10.6746034 ], [ -61.60226, 10.6912948 ], [ -61.6539542, 10.6787871 ], [ -61.6672069, 10.7139209 ], [ -61.6145672, 10.746398 ], [ -61.5000458, 10.7550342 ] ] ] ] } },
{ "type": "Feature", "properties": { "POLYGON_ID": "TTO_GAUL1994_ADM2_27412", "ADM0_ISO3": "TTO", "ADM0_NAME": "Trinidad and Tobago", "ADM0_CODE": 246, "ADM1_NAME": "Penal\/Debe", "ADM1_CODE": 2981, "ADM2_NAME": "Administrative unit not available", "ADM2_CODE": 27412, "GEOSET": "GAUL", "GEOSET_YEAR": 1994.0, "GEOSET_VERSION": "GAUL_v1", "GEOSET_UNIT": "ADM2", "CENTROID_LONG": -61.433722790684257, "CENTROID_LAT": 10.164619970266306 }, "geometry": { "type": "MultiPolygon", "coordinates": [ [ [ [ -61.3759474, 10.07244 ], [ -61.5070952, 10.0726598 ], [ -61.481884, 10.1704807 ], [ -61.5163346, 10.2389643 ], [ -61.500359, 10.2479738 ], [ -61.4304314, 10.260746 ], [ -61.3617859, 10.2356787 ], [ -61.3759474, 10.07244 ] ] ] ] } },
{ "type": "Feature", "properties": { "POLYGON_ID": "TTO_GAUL1994_ADM2_27414", "ADM0_ISO3": "TTO", "ADM0_NAME": "Trinidad and Tobago", "ADM0_CODE": 246, "ADM1_NAME": "Port Of Spain", "ADM1_CODE": 2983, "ADM2_NAME": "Administrative unit not available", "ADM2_CODE": 27414, "GEOSET": "GAUL", "GEOSET_YEAR": 1994.0, "GEOSET_VERSION": "GAUL_v1", "GEOSET_UNIT": "ADM2", "CENTROID_LONG": -61.528251766666656, "CENTROID_LAT": 10.665009566666665 }, "geometry": { "type": "MultiPolygon", "coordinates": [ [ [ [ -61.5241318, 10.6784916 ], [ -61.4986346, 10.6419337 ], [ -61.5619889, 10.6746034 ], [ -61.5241318, 10.6784916 ] ] ] ] } },
{ "type": "Feature", "properties": { "POLYGON_ID": "TTO_GAUL1994_ADM2_27415", "ADM0_ISO3": "TTO", "ADM0_NAME": "Trinidad and Tobago", "ADM0_CODE": 246, "ADM1_NAME": "Princes Town", "ADM1_CODE": 2984, "ADM2_NAME": "Administrative unit not available", "ADM2_CODE": 27415, "GEOSET": "GAUL", "GEOSET_YEAR": 1994.0, "GEOSET_VERSION": "GAUL_v1", "GEOSET_UNIT": "ADM2", "CENTROID_LONG": -61.28248670391698, "CENTROID_LAT": 10.203407565382161 }, "geometry": { "type": "MultiPolygon", "coordinates": [ [ [ [ -61.2258301, 10.3086729 ], [ -61.2048111, 10.2700005 ], [ -61.1616478, 10.2682753 ], [ -61.1710879, 10.0751032 ], [ -61.2802683, 10.0861258 ], [ -61.3759474, 10.07244 ], [ -61.3617859, 10.2356787 ], [ -61.4304314, 10.260746 ], [ -61.4168701, 10.3119926 ], [ -61.3360291, 10.3381701 ], [ -61.2258301, 10.3086729 ] ] ] ] } },
{ "type": "Feature", "properties": { "POLYGON_ID": "TTO_GAUL1994_ADM2_27416", "ADM0_ISO3": "TTO", "ADM0_NAME": "Trinidad and Tobago", "ADM0_CODE": 246, "ADM1_NAME": "Rio Claro\/Mayaro", "ADM1_CODE": 2985, "ADM2_NAME": "Administrative unit not available", "ADM2_CODE": 27416, "GEOSET": "GAUL", "GEOSET_YEAR": 1994.0, "GEOSET_VERSION": "GAUL_v1", "GEOSET_UNIT": "ADM2", "CENTROID_LONG": -61.100021591752046, "CENTROID_LAT": 10.286847177311254 }, "geometry": { "type": "MultiPolygon", "coordinates": [ [ [ [ -61.1710879, 10.0751032 ], [ -61.1616478, 10.2682753 ], [ -61.2048111, 10.2700005 ], [ -61.2258301, 10.3086729 ], [ -61.1942825, 10.3359947 ], [ -61.1962585, 10.4579325 ], [ -61.0391326, 10.4623005 ], [ -61.0048583, 10.3565126 ], [ -60.9980101, 10.1658399 ], [ -61.0621501, 10.1139299 ], [ -61.1710879, 10.0751032 ] ] ] ] } },
{ "type": "Feature", "properties": { "POLYGON_ID": "TTO_GAUL1994_ADM2_27417", "ADM0_ISO3": "TTO", "ADM0_NAME": "Trinidad and Tobago", "ADM0_CODE": 246, "ADM1_NAME": "San Fernando", "ADM1_CODE": 2986, "ADM2_NAME": "Administrative unit not available", "ADM2_CODE": 27417, "GEOSET": "GAUL", "GEOSET_YEAR": 1994.0, "GEOSET_VERSION": "GAUL_v1", "GEOSET_UNIT": "ADM2", "CENTROID_LONG": -61.454927388225656, "CENTROID_LAT": 10.282686719543632 }, "geometry": { "type": "MultiPolygon", "coordinates": [ [ [ [ -61.4168701, 10.3119926 ], [ -61.4304314, 10.260746 ], [ -61.500359, 10.2479738 ], [ -61.4648318, 10.3156924 ], [ -61.4168701, 10.3119926 ] ] ] ] } },
{ "type": "Feature", "properties": { "POLYGON_ID": "TTO_GAUL1994_ADM2_27418", "ADM0_ISO3": "TTO", "ADM0_NAME": "Trinidad and Tobago", "ADM0_CODE": 246, "ADM1_NAME": "San Juan\/Laventille", "ADM1_CODE": 2987, "ADM2_NAME": "Administrative unit not available", "ADM2_CODE": 27418, "GEOSET": "GAUL", "GEOSET_YEAR": 1994.0, "GEOSET_VERSION": "GAUL_v1", "GEOSET_UNIT": "ADM2", "CENTROID_LONG": -61.444579790733862, "CENTROID_LAT": 10.691675601290068 }, "geometry": { "type": "MultiPolygon", "coordinates": [ [ [ [ -61.3438653, 10.8056192 ], [ -61.3345757, 10.7439671 ], [ -61.4397583, 10.7283945 ], [ -61.4211273, 10.5656948 ], [ -61.4637858, 10.5413469 ], [ -61.4986346, 10.6419337 ], [ -61.5241318, 10.6784916 ], [ -61.5000458, 10.7550342 ], [ -61.3438653, 10.8056192 ] ] ] ] } },
{ "type": "Feature", "properties": { "POLYGON_ID": "TTO_GAUL1994_ADM2_27419", "ADM0_ISO3": "TTO", "ADM0_NAME": "Trinidad and Tobago", "ADM0_CODE": 246, "ADM1_NAME": "Sangre Grande", "ADM1_CODE": 2988, "ADM2_NAME": "Administrative unit not available", "ADM2_CODE": 27419, "GEOSET": "GAUL", "GEOSET_YEAR": 1994.0, "GEOSET_VERSION": "GAUL_v1", "GEOSET_UNIT": "ADM2", "CENTROID_LONG": -61.097153568749484, "CENTROID_LAT": 10.656787100878937 }, "geometry": { "type": "MultiPolygon", "coordinates": [ [ [ [ -61.0391326, 10.4623005 ], [ -61.1962585, 10.4579325 ], [ -61.1960106, 10.4980135 ], [ -61.2344742, 10.5875587 ], [ -61.1993217, 10.6121521 ], [ -61.21381, 10.710248 ], [ -61.1695251, 10.7630825 ], [ -61.1702491, 10.8089681 ], [ -61.0430301, 10.84082 ], [ -60.9243031, 10.8358174 ], [ -60.9480604, 10.7653276 ], [ -61.038228, 10.6774821 ], [ -61.0119652, 10.5248917 ], [ -61.0434901, 10.50489 ], [ -61.0391326, 10.4623005 ] ] ] ] } },
{ "type": "Feature", "properties": { "POLYGON_ID": "TTO_GAUL1994_ADM2_27420", "ADM0_ISO3": "TTO", "ADM0_NAME": "Trinidad and Tobago", "ADM0_CODE": 246, "ADM1_NAME": "Siparia", "ADM1_CODE": 2989, "ADM2_NAME": "Administrative unit not available", "ADM2_CODE": 27420, "GEOSET": "GAUL", "GEOSET_YEAR": 1994.0, "GEOSET_VERSION": "GAUL_v1", "GEOSET_UNIT": "ADM2", "CENTROID_LONG": -61.642534069019817, "CENTROID_LAT": 10.132471808153134 }, "geometry": { "type": "MultiPolygon", "coordinates": [ [ [ [ -61.5163346, 10.2389643 ], [ -61.481884, 10.1704807 ], [ -61.5070952, 10.0726598 ], [ -61.5715959, 10.0739599 ], [ -61.6271899, 10.0555599 ], [ -61.69415, 10.08663 ], [ -61.8218499, 10.08363 ], [ -61.9036601, 10.0424201 ], [ -61.9078764, 10.087744 ], [ -61.8520217, 10.0958076 ], [ -61.8262226, 10.1346568 ], [ -61.7067294, 10.1625899 ], [ -61.676899, 10.1388788 ], [ -61.6266212, 10.1904392 ], [ -61.6319128, 10.2201872 ], [ -61.5163346, 10.2389643 ] ] ] ] } },
{ "type": "Feature", "properties": { "POLYGON_ID": "TTO_GAUL1994_ADM2_27421", "ADM0_ISO3": "TTO", "ADM0_NAME": "Trinidad and Tobago", "ADM0_CODE": 246, "ADM1_NAME": "Tobago", "ADM1_CODE": 2990, "ADM2_NAME": "Administrative unit not available", "ADM2_CODE": 27421, "GEOSET": "GAUL", "GEOSET_YEAR": 1994.0, "GEOSET_VERSION": "GAUL_v1", "GEOSET_UNIT": "ADM2", "CENTROID_LONG": -60.663458957520589, "CENTROID_LAT": 11.24364669969593 }, "geometry": { "type": "MultiPolygon", "coordinates": [ [ [ [ -60.5284186, 11.3464806 ], [ -60.5253302, 11.2743941 ], [ -60.5785661, 11.248755 ], [ -60.6409978, 11.1925448 ], [ -60.7414725, 11.1807358 ], [ -60.7739159, 11.1413273 ], [ -60.8316415, 11.147897 ], [ -60.7812253, 11.2216077 ], [ -60.6098697, 11.3236155 ], [ -60.5284186, 11.3464806 ] ] ] ] } },
{ "type": "Feature", "properties": { "POLYGON_ID": "TTO_GAUL1994_ADM2_27422", "ADM0_ISO3": "TTO", "ADM0_NAME": "Trinidad and Tobago", "ADM0_CODE": 246, "ADM1_NAME": "Tunapuna\/Piarco", "ADM1_CODE": 2991, "ADM2_NAME": "Administrative unit not available", "ADM2_CODE": 27422, "GEOSET": "GAUL", "GEOSET_YEAR": 1994.0, "GEOSET_VERSION": "GAUL_v1", "GEOSET_UNIT": "ADM2", "CENTROID_LONG": -61.307956311572326, "CENTROID_LAT": 10.683365547496443 }, "geometry": { "type": "MultiPolygon", "coordinates": [ [ [ [ -61.1702491, 10.8089681 ], [ -61.1695251, 10.7630825 ], [ -61.21381, 10.710248 ], [ -61.1993217, 10.6121521 ], [ -61.2344742, 10.5875587 ], [ -61.3705559, 10.5632963 ], [ -61.4211273, 10.5656948 ], [ -61.4397583, 10.7283945 ], [ -61.3345757, 10.7439671 ], [ -61.3438653, 10.8056192 ], [ -61.25155, 10.7928601 ], [ -61.1702491, 10.8089681 ] ], [ [ -61.2983284, 10.6540556 ], [ -61.2935104, 10.6011381 ], [ -61.2620888, 10.6053705 ], [ -61.2748222, 10.6464472 ], [ -61.2983284, 10.6540556 ] ] ] ] } },
{ "type": "Feature", "properties": { "POLYGON_ID": "TTO_GAUL1994_ADM2_27413", "ADM0_ISO3": "TTO", "ADM0_NAME": "Trinidad and Tobago", "ADM0_CODE": 246, "ADM1_NAME": "Point Fortin", "ADM1_CODE": 2982, "ADM2_NAME": "Administrative unit not available", "ADM2_CODE": 27413, "GEOSET": "GAUL", "GEOSET_YEAR": 1994.0, "GEOSET_VERSION": "GAUL_v1", "GEOSET_UNIT": "ADM2", "CENTROID_LONG": -61.66287024023854, "CENTROID_LAT": 10.177006058327423 }, "geometry": { "type": "MultiPolygon", "coordinates": [ [ [ [ -61.7067294, 10.1625899 ], [ -61.6319128, 10.2201872 ], [ -61.6266212, 10.1904392 ], [ -61.676899, 10.1388788 ], [ -61.7067294, 10.1625899 ] ] ] ] } }
]
}
