{
"type": "FeatureCollection",
"name": "TUR_GAUL2011_ADM0",
"crs": { "type": "name", "properties": { "name": "urn:ogc:def:crs:OGC:1.3:CRS84" } },
"features": [
{ "type": "Feature", "properties": { "POLYGON_ID": "TUR_GAUL2011_ADM0_249", "ADM0_ISO3": "TUR", "ADM0_NAME": "Turkey", "ADM0_CODE": 249, "GEOSET": "GAUL", "GEOSET_YEAR": 2011.0, "GEOSET_VERSION": "GAUL_v1", "GEOSET_UNIT": "ADM0", "CENTROID_LONG": 35.175165098544397, "CENTROID_LAT": 39.061296175046991 }, "geometry": { "type": "MultiPolygon", "coordinates": [ [ [ [ 41.5470001, 41.5264899 ], [ 41.57873, 41.52001 ], [ 41.65495, 41.48361 ], [ 41.70883, 41.49772 ], [ 41.72847, 41.47299 ], [ 41.754, 41.47372 ], [ 41.81101, 41.44868 ], [ 41.82311, 41.43462 ], [ 41.87861, 41.46101 ], [ 41.90748, 41.50042 ], [ 41.95519, 41.52465 ], [ 41.99258, 41.50666 ], [ 42.05359, 41.49549 ], [ 42.07897, 41.50941 ], [ 42.1204, 41.50583 ], [ 42.1839, 41.51452 ], [ 42.20936, 41.49569 ], [ 42.28879, 41.49411 ], [ 42.33402, 41.47102 ], [ 42.40765, 41.46658 ], [ 42.44707, 41.44044 ], [ 42.52332, 41.44693 ], [ 42.51012, 41.46862 ], [ 42.56516, 41.52533 ], [ 42.58411, 41.57024 ], [ 42.67783, 41.59726 ], [ 42.74, 41.59417 ], [ 42.78361, 41.57822 ], [ 42.82929, 41.58788 ], [ 42.82083, 41.53592 ], [ 42.79438, 41.51233 ], [ 42.84706, 41.47255 ], [ 42.8662, 41.49911 ], [ 42.96959, 41.45151 ], [ 42.99354, 41.40711 ], [ 43.02477, 41.37825 ], [ 43.10152, 41.35458 ], [ 43.12961, 41.31792 ], [ 43.19901, 41.30358 ], [ 43.15328, 41.24557 ], [ 43.19813, 41.24752 ], [ 43.23178, 41.19275 ], [ 43.2744, 41.18164 ], [ 43.35536, 41.20125 ], [ 43.38412, 41.19952 ], [ 43.43723, 41.17938 ], [ 43.4712797, 41.1297996 ], [ 43.44978, 41.09215 ], [ 43.47064, 41.05979 ], [ 43.47216, 41.02799 ], [ 43.55154, 40.99598 ], [ 43.59942, 40.98563 ], [ 43.67179, 40.93345 ], [ 43.68046, 40.90342 ], [ 43.67611, 40.84444 ], [ 43.71302, 40.81192 ], [ 43.7487, 40.73594 ], [ 43.7363, 40.7079 ], [ 43.75005, 40.68058 ], [ 43.72642, 40.66475 ], [ 43.68649, 40.593 ], [ 43.64201, 40.559 ], [ 43.64797, 40.53152 ], [ 43.61523, 40.52373 ], [ 43.55617, 40.49071 ], [ 43.54666, 40.46813 ], [ 43.60852, 40.43391 ], [ 43.62098, 40.3993 ], [ 43.59641, 40.36653 ], [ 43.59369, 40.33728 ], [ 43.63986, 40.27662 ], [ 43.68171, 40.2585 ], [ 43.68195, 40.22992 ], [ 43.6592, 40.22185 ], [ 43.71401, 40.17253 ], [ 43.66346, 40.15598 ], [ 43.64648, 40.12981 ], [ 43.65548, 40.11077 ], [ 43.71876, 40.07968 ], [ 43.76992, 40.07952 ], [ 43.80561, 40.05866 ], [ 43.90548, 40.01847 ], [ 43.96937, 40.01877 ], [ 44.00287, 40.03101 ], [ 44.07607, 40.03527 ], [ 44.12825, 40.02807 ], [ 44.22295, 40.03656 ], [ 44.26277, 40.05001 ], [ 44.31932, 40.03923 ], [ 44.37977, 40.00528 ], [ 44.41918, 40.0 ], [ 44.48871, 39.96506 ], [ 44.52299, 39.92641 ], [ 44.55755, 39.90379 ], [ 44.56419, 39.87736 ], [ 44.5969, 39.85045 ], [ 44.59854, 39.82883 ], [ 44.72221, 39.76197 ], [ 44.72718, 39.7457 ], [ 44.77192, 39.71372 ], [ 44.81273, 39.67701 ], [ 44.82169, 39.64526 ], [ 44.8092397, 39.6278168 ], [ 44.72193, 39.70728 ], [ 44.66913, 39.72353 ], [ 44.6349495, 39.7719205 ], [ 44.60655, 39.77336 ], [ 44.48705, 39.68656 ], [ 44.48961, 39.63013 ], [ 44.43619, 39.56066 ], [ 44.45304, 39.49676 ], [ 44.43336, 39.47307 ], [ 44.44113, 39.43588 ], [ 44.42366, 39.4098 ], [ 44.39626, 39.40657 ], [ 44.31371, 39.37397 ], [ 44.22432, 39.41029 ], [ 44.15791, 39.39298 ], [ 44.0698199, 39.4053197 ], [ 44.04926, 39.37954 ], [ 44.05078, 39.35727 ], [ 44.09098, 39.3216 ], [ 44.087, 39.30114 ], [ 44.1116996, 39.2864485 ], [ 44.09809, 39.25834 ], [ 44.11509, 39.23867 ], [ 44.10733, 39.21447 ], [ 44.12662, 39.18944 ], [ 44.17644, 39.17237 ], [ 44.21838, 39.13864 ], [ 44.23233, 39.1094483 ], [ 44.18689, 39.11629 ], [ 44.1544595, 39.0882409 ], [ 44.20054, 39.06901 ], [ 44.21881, 39.02957 ], [ 44.18742, 39.01248 ], [ 44.18464, 38.98808 ], [ 44.20262, 38.931 ], [ 44.25598, 38.85508 ], [ 44.2903, 38.8553 ], [ 44.31613, 38.83386 ], [ 44.31857, 38.8003 ], [ 44.30001, 38.78134 ], [ 44.29549, 38.74439 ], [ 44.2772, 38.71603 ], [ 44.29843, 38.67895 ], [ 44.28822, 38.6443 ], [ 44.33252, 38.62897 ], [ 44.32693, 38.55011 ], [ 44.33953, 38.50283 ], [ 44.31666, 38.4359 ], [ 44.323, 38.38245 ], [ 44.38671, 38.36355 ], [ 44.45696, 38.38515 ], [ 44.5011199, 38.3537 ], [ 44.50538, 38.31844 ], [ 44.46163, 38.28773 ], [ 44.42693, 38.27817 ], [ 44.40821, 38.25121 ], [ 44.41707, 38.21025 ], [ 44.40133, 38.14096 ], [ 44.36409, 38.12715 ], [ 44.35263, 38.09918 ], [ 44.3211, 38.06609 ], [ 44.31347, 38.02993 ], [ 44.28154, 38.00326 ], [ 44.25637, 37.95544 ], [ 44.26598, 37.93853 ], [ 44.23886, 37.88711 ], [ 44.27629, 37.86632 ], [ 44.3143267, 37.8636109 ], [ 44.33904, 37.87406 ], [ 44.41644, 37.85408 ], [ 44.41213, 37.82445 ], [ 44.45933, 37.77405 ], [ 44.47667, 37.76551 ], [ 44.53266, 37.77665 ], [ 44.59711, 37.76376 ], [ 44.6383, 37.71631 ], [ 44.58086, 37.64654 ], [ 44.63847, 37.60364 ], [ 44.63881, 37.57563 ], [ 44.61782, 37.5559 ], [ 44.61156, 37.51166 ], [ 44.62445, 37.48172 ], [ 44.60118, 37.44534 ], [ 44.66241, 37.42749 ], [ 44.68934, 37.38499 ], [ 44.7403, 37.3733 ], [ 44.75664, 37.34823 ], [ 44.8233, 37.30757 ], [ 44.83384, 37.27449 ], [ 44.77821, 37.22401 ], [ 44.78766, 37.18364 ], [ 44.80709, 37.15452 ], [ 44.784167, 37.1447642 ], [ 44.7202911, 37.1733884 ], [ 44.6749624, 37.1689983 ], [ 44.6509417, 37.1873082 ], [ 44.5803063, 37.1604352 ], [ 44.5179348, 37.1119037 ], [ 44.5190413, 37.0996971 ], [ 44.470768, 37.0722857 ], [ 44.3983491, 37.0479795 ], [ 44.338458, 37.0027221 ], [ 44.3089497, 36.9709296 ], [ 44.2704382, 36.973428 ], [ 44.2278934, 37.0301782 ], [ 44.2326047, 37.0509508 ], [ 44.1889178, 37.0938882 ], [ 44.2267428, 37.1568114 ], [ 44.2806019, 37.1630932 ], [ 44.2832185, 37.1884713 ], [ 44.271102, 37.242763 ], [ 44.2311271, 37.2806321 ], [ 44.2134953, 37.2788118 ], [ 44.1284771, 37.3196791 ], [ 44.0708777, 37.3110619 ], [ 44.0231576, 37.3260525 ], [ 43.9961745, 37.2953931 ], [ 43.95777, 37.2897181 ], [ 43.9613392, 37.2690168 ], [ 43.922897, 37.2216791 ], [ 43.8594101, 37.2222872 ], [ 43.8446938, 37.2115844 ], [ 43.7534412, 37.2327766 ], [ 43.6981901, 37.2325268 ], [ 43.6412258, 37.2174291 ], [ 43.598681, 37.2304567 ], [ 43.5810838, 37.2484207 ], [ 43.5162851, 37.2373651 ], [ 43.4775681, 37.2509586 ], [ 43.462399, 37.2691258 ], [ 43.4188906, 37.2800832 ], [ 43.3750966, 37.3054959 ], [ 43.3638893, 37.3257689 ], [ 43.3307315, 37.3234846 ], [ 43.3093521, 37.3008916 ], [ 43.2731248, 37.3120275 ], [ 43.2441287, 37.3434241 ], [ 43.1757857, 37.354481 ], [ 43.1461741, 37.3707271 ], [ 43.0742905, 37.3653019 ], [ 43.0256782, 37.3518818 ], [ 43.0135786, 37.3299669 ], [ 42.9630388, 37.3106219 ], [ 42.9005522, 37.3265899 ], [ 42.8523145, 37.3464672 ], [ 42.8276839, 37.3687543 ], [ 42.7816928, 37.3735223 ], [ 42.7359513, 37.3202838 ], [ 42.7106698, 37.3052555 ], [ 42.6857214, 37.2697577 ], [ 42.6376383, 37.2277821 ], [ 42.6079148, 37.1832895 ], [ 42.5678641, 37.1481619 ], [ 42.5089725, 37.1299132 ], [ 42.4586685, 37.1363539 ], [ 42.3974607, 37.1081489 ], [ 42.3681933, 37.1163938 ], [ 42.3537738, 37.0975841 ], [ 42.35631, 37.13974 ], [ 42.33707, 37.17487 ], [ 42.35742, 37.22753 ], [ 42.3073, 37.26131 ], [ 42.21881, 37.28396 ], [ 42.19395, 37.28218 ], [ 42.12243, 37.2354 ], [ 42.10611, 37.21285 ], [ 42.05733, 37.18888 ], [ 41.97514, 37.15957 ], [ 41.75864, 37.11747 ], [ 41.65735, 37.11242 ], [ 41.55814, 37.08523 ], [ 41.50085, 37.07955 ], [ 41.28598, 37.08014 ], [ 41.21841, 37.0636 ], [ 41.16974, 37.09224 ], [ 41.11454, 37.09505 ], [ 40.92108, 37.1271 ], [ 40.88593, 37.12426 ], [ 40.8581, 37.10836 ], [ 40.78173, 37.12058 ], [ 40.70782, 37.09766 ], [ 40.67482, 37.07845 ], [ 40.6022493, 37.0540696 ], [ 40.54627, 37.02671 ], [ 40.46183, 37.01487 ], [ 40.39754, 36.98134 ], [ 40.32593, 36.95197 ], [ 40.23828, 36.90321 ], [ 40.18086, 36.87868 ], [ 40.087, 36.86069 ], [ 40.05192, 36.83605 ], [ 39.96324, 36.79845 ], [ 39.89047, 36.77708 ], [ 39.84183, 36.75532 ], [ 39.72273, 36.74382 ], [ 39.66477, 36.72581 ], [ 39.59664, 36.71961 ], [ 39.54573, 36.70783 ], [ 39.43045, 36.69454 ], [ 39.34484, 36.6896 ], [ 39.22735, 36.665 ], [ 39.08549, 36.69711 ], [ 39.02023, 36.70331 ], [ 38.96968, 36.69885 ], [ 38.84706, 36.69668 ], [ 38.77739, 36.6993 ], [ 38.73147, 36.70748 ], [ 38.6389479, 36.7737722 ], [ 38.5634, 36.83882 ], [ 38.40784, 36.89539 ], [ 38.34252, 36.90043 ], [ 38.26524, 36.91347 ], [ 38.20047, 36.90801 ], [ 38.07052, 36.85856 ], [ 38.04086, 36.82859 ], [ 37.9979873, 36.8237993 ], [ 37.90803, 36.7857 ], [ 37.79121, 36.74859 ], [ 37.73375, 36.7495 ], [ 37.65514, 36.73141 ], [ 37.53434, 36.67635 ], [ 37.5020379, 36.649289 ], [ 37.46114, 36.63815 ], [ 37.37267, 36.65355 ], [ 37.26645, 36.66493 ], [ 37.19624, 36.65425 ], [ 37.12684, 36.66166 ], [ 37.09099, 36.62365 ], [ 37.04847, 36.65315 ], [ 37.03324, 36.67845 ], [ 37.05665, 36.71269 ], [ 36.98883, 36.76201 ], [ 36.94435, 36.78124 ], [ 36.90267, 36.77769 ], [ 36.80418, 36.79857 ], [ 36.73903, 36.82418 ], [ 36.66835, 36.83625 ], [ 36.6782, 36.81119 ], [ 36.6328, 36.7663 ], [ 36.62397, 36.74709 ], [ 36.63869, 36.71157 ], [ 36.59185, 36.65011 ], [ 36.58795, 36.63053 ], [ 36.60416, 36.57907 ], [ 36.59133, 36.53751 ], [ 36.55303, 36.50111 ], [ 36.56855, 36.44505 ], [ 36.59323, 36.39423 ], [ 36.62352, 36.38801 ], [ 36.6394, 36.33561 ], [ 36.6692, 36.32617 ], [ 36.6711, 36.30236 ], [ 36.70604, 36.25517 ], [ 36.67485, 36.22928 ], [ 36.60926, 36.21754 ], [ 36.58386, 36.23211 ], [ 36.5426, 36.23806 ], [ 36.4923693, 36.2327971 ], [ 36.4816988, 36.2054893 ], [ 36.43534, 36.21129 ], [ 36.40315, 36.19955 ], [ 36.37671, 36.1694 ], [ 36.39199, 36.14263 ], [ 36.38118, 36.11876 ], [ 36.39784, 36.08376 ], [ 36.39249, 36.03981 ], [ 36.36837, 35.99479 ], [ 36.3172, 36.0041 ], [ 36.26342, 35.96171 ], [ 36.21272, 35.9515 ], [ 36.18092, 35.90174 ], [ 36.18915, 35.88436 ], [ 36.18305, 35.83557 ], [ 36.15484, 35.82018 ], [ 36.11645, 35.86551 ], [ 36.01482, 35.88987 ], [ 36.0227393, 35.9244909 ], [ 35.99365, 35.93931 ], [ 35.9358, 35.91867 ], [ 35.9217186, 35.9304924 ], [ 35.9276085, 35.9535141 ], [ 35.9834099, 35.9991798 ], [ 35.9877205, 36.0197144 ], [ 35.9447479, 36.0962563 ], [ 35.8578377, 36.2171402 ], [ 35.7973251, 36.2874527 ], [ 35.7943192, 36.3273163 ], [ 35.8277626, 36.3626022 ], [ 35.8662643, 36.3780327 ], [ 35.8696976, 36.3990097 ], [ 35.9040375, 36.4200592 ], [ 35.9416046, 36.4611511 ], [ 35.9931335, 36.4791489 ], [ 36.0472374, 36.5357475 ], [ 36.0897827, 36.5528069 ], [ 36.1461143, 36.590126 ], [ 36.2018547, 36.6051445 ], [ 36.2189674, 36.6688652 ], [ 36.200264, 36.7074661 ], [ 36.1950607, 36.750267 ], [ 36.2132874, 36.774765 ], [ 36.194088, 36.8103676 ], [ 36.1449318, 36.8700829 ], [ 36.0388718, 36.9305229 ], [ 36.0202065, 36.9335251 ], [ 35.9392624, 36.8859215 ], [ 35.9033432, 36.8485527 ], [ 35.8445168, 36.8005028 ], [ 35.7950516, 36.7691879 ], [ 35.7711716, 36.7750015 ], [ 35.7160759, 36.7639351 ], [ 35.7046356, 36.7719002 ], [ 35.6484451, 36.7600822 ], [ 35.6084595, 36.7358246 ], [ 35.6030426, 36.6959686 ], [ 35.6480751, 36.7215118 ], [ 35.6529999, 36.6991501 ], [ 35.6238632, 36.6680679 ], [ 35.6446114, 36.6550827 ], [ 35.6378632, 36.6126671 ], [ 35.5900116, 36.5881882 ], [ 35.5562515, 36.5801506 ], [ 35.4455833, 36.595417 ], [ 35.4141388, 36.5740852 ], [ 35.3461494, 36.550766 ], [ 35.2971191, 36.5787048 ], [ 35.1839447, 36.6331482 ], [ 35.1152039, 36.6604118 ], [ 35.0253868, 36.7096939 ], [ 34.9834595, 36.7223549 ], [ 34.9117699, 36.7319641 ], [ 34.8984337, 36.7586174 ], [ 34.8358116, 36.8008537 ], [ 34.725193, 36.8168526 ], [ 34.6711426, 36.8092461 ], [ 34.5776939, 36.7772598 ], [ 34.5435257, 36.7411346 ], [ 34.5108299, 36.7298546 ], [ 34.4284096, 36.6623192 ], [ 34.352375, 36.6289482 ], [ 34.2869759, 36.589962 ], [ 34.2352219, 36.5282631 ], [ 34.1908569, 36.4959984 ], [ 34.1805153, 36.4744644 ], [ 34.1281357, 36.4487534 ], [ 34.0870819, 36.4101448 ], [ 34.0906487, 36.347805 ], [ 34.0837479, 36.3172073 ], [ 34.0064468, 36.2888298 ], [ 33.9596367, 36.2405205 ], [ 33.9336472, 36.2929802 ], [ 33.8787613, 36.3136826 ], [ 33.8214264, 36.2713089 ], [ 33.8005066, 36.2272339 ], [ 33.7452316, 36.2023659 ], [ 33.7027206, 36.1690636 ], [ 33.6639061, 36.1655464 ], [ 33.64991, 36.1886024 ], [ 33.6027756, 36.1741333 ], [ 33.5735741, 36.1333237 ], [ 33.4833183, 36.1541138 ], [ 33.4523392, 36.1520271 ], [ 33.4005814, 36.1276131 ], [ 33.3597527, 36.1489525 ], [ 33.3015099, 36.1285629 ], [ 33.21315, 36.12603 ], [ 33.147274, 36.1332397 ], [ 33.093605, 36.0863037 ], [ 32.9626579, 36.1015167 ], [ 32.8734779, 36.0694962 ], [ 32.8172264, 36.0328712 ], [ 32.8081245, 36.0190773 ], [ 32.6711617, 36.0428619 ], [ 32.5622368, 36.0999374 ], [ 32.5122986, 36.0982132 ], [ 32.4087601, 36.1630325 ], [ 32.3882103, 36.1683617 ], [ 32.3473549, 36.2132874 ], [ 32.2981262, 36.2358933 ], [ 32.2726936, 36.2650795 ], [ 32.2764969, 36.280468 ], [ 32.2253761, 36.3344498 ], [ 32.1681442, 36.4156685 ], [ 32.0977097, 36.4935951 ], [ 32.0261421, 36.5440521 ], [ 31.9635582, 36.5583534 ], [ 31.789032, 36.6066666 ], [ 31.7534657, 36.6365166 ], [ 31.6703491, 36.6538773 ], [ 31.5739231, 36.70961 ], [ 31.4970055, 36.7409782 ], [ 31.3888588, 36.7714539 ], [ 31.3673878, 36.801796 ], [ 31.2994881, 36.8196754 ], [ 31.1575108, 36.8326569 ], [ 31.0573311, 36.8548241 ], [ 31.0087147, 36.8612061 ], [ 30.8063431, 36.8508606 ], [ 30.7566776, 36.8509903 ], [ 30.7026386, 36.8885231 ], [ 30.6793995, 36.8871117 ], [ 30.6302567, 36.8554649 ], [ 30.5966778, 36.8214569 ], [ 30.5736637, 36.783268 ], [ 30.5656052, 36.7227783 ], [ 30.5769157, 36.6859512 ], [ 30.5597916, 36.6497765 ], [ 30.5580978, 36.614254 ], [ 30.588459, 36.5735359 ], [ 30.5093403, 36.4608002 ], [ 30.5122356, 36.4335594 ], [ 30.4819431, 36.4025879 ], [ 30.5046158, 36.3780975 ], [ 30.5300217, 36.3284302 ], [ 30.4951077, 36.3158264 ], [ 30.4822578, 36.270256 ], [ 30.4619255, 36.2631645 ], [ 30.4173107, 36.2082634 ], [ 30.4060287, 36.2659836 ], [ 30.3688889, 36.2614899 ], [ 30.2986984, 36.2998276 ], [ 30.2711296, 36.3070412 ], [ 30.1873856, 36.3050346 ], [ 30.1509705, 36.2901039 ], [ 30.1248169, 36.2457771 ], [ 30.10396, 36.2386475 ], [ 30.0387764, 36.2552528 ], [ 30.0222435, 36.2272568 ], [ 29.9764042, 36.2099228 ], [ 29.9231987, 36.2234268 ], [ 29.8869915, 36.2012939 ], [ 29.883091, 36.1842346 ], [ 29.8442154, 36.1824074 ], [ 29.8087921, 36.1448326 ], [ 29.7783756, 36.1329918 ], [ 29.7289429, 36.161644 ], [ 29.6767941, 36.1221809 ], [ 29.5834255, 36.1975288 ], [ 29.4719028, 36.2163239 ], [ 29.4514866, 36.230423 ], [ 29.4157066, 36.2283401 ], [ 29.4192638, 36.2610359 ], [ 29.3795166, 36.2641411 ], [ 29.3640366, 36.2305145 ], [ 29.3135052, 36.2583389 ], [ 29.2315426, 36.3283768 ], [ 29.1458588, 36.3580856 ], [ 29.1499882, 36.3769913 ], [ 29.1096268, 36.3857651 ], [ 29.1354389, 36.4390259 ], [ 29.1076679, 36.4824753 ], [ 29.1350403, 36.5271873 ], [ 29.1287327, 36.5473824 ], [ 29.0927925, 36.5608101 ], [ 29.0639858, 36.5588341 ], [ 29.0286846, 36.5848465 ], [ 29.0437164, 36.6221962 ], [ 29.0809212, 36.6158562 ], [ 29.0798931, 36.6448097 ], [ 29.1272373, 36.6417732 ], [ 29.0999146, 36.6790009 ], [ 29.0617695, 36.6842308 ], [ 29.0362148, 36.7071495 ], [ 28.9968891, 36.7119446 ], [ 28.9325104, 36.7558975 ], [ 28.9152679, 36.7192955 ], [ 28.8699989, 36.6967049 ], [ 28.8665218, 36.6557388 ], [ 28.8976822, 36.6418495 ], [ 28.8519325, 36.5914993 ], [ 28.8344078, 36.6049309 ], [ 28.8317089, 36.6421967 ], [ 28.7882557, 36.6840096 ], [ 28.727705, 36.7089081 ], [ 28.6807384, 36.6970863 ], [ 28.6668549, 36.7223091 ], [ 28.6182785, 36.7185478 ], [ 28.6298447, 36.7585754 ], [ 28.6205807, 36.8219681 ], [ 28.5662441, 36.8243294 ], [ 28.5336647, 36.8163719 ], [ 28.5326538, 36.7881813 ], [ 28.502985, 36.793663 ], [ 28.4896698, 36.8204498 ], [ 28.4517612, 36.8268585 ], [ 28.4617825, 36.8784142 ], [ 28.3953266, 36.8592606 ], [ 28.4235592, 36.8400803 ], [ 28.4018402, 36.7874832 ], [ 28.3168659, 36.8188438 ], [ 28.2840214, 36.790638 ], [ 28.2699184, 36.8006706 ], [ 28.3007107, 36.8342171 ], [ 28.2623558, 36.8506737 ], [ 28.234808, 36.806015 ], [ 28.2530689, 36.7931137 ], [ 28.2836494, 36.7353516 ], [ 28.2602329, 36.7337189 ], [ 28.2166061, 36.6913414 ], [ 28.1794395, 36.6802025 ], [ 28.1471443, 36.6558456 ], [ 28.1370239, 36.6308823 ], [ 28.09515, 36.5865784 ], [ 28.064703, 36.5926666 ], [ 28.0339928, 36.5634193 ], [ 27.988348, 36.5584145 ], [ 27.9648876, 36.6055946 ], [ 27.9785004, 36.6121292 ], [ 28.0404301, 36.6040916 ], [ 28.0690422, 36.6159554 ], [ 28.0954151, 36.6425552 ], [ 28.0701332, 36.6716805 ], [ 28.0232849, 36.6667175 ], [ 27.9694824, 36.6802711 ], [ 28.0071144, 36.7040787 ], [ 28.0823345, 36.7275658 ], [ 28.0877781, 36.7496758 ], [ 28.1291199, 36.7928467 ], [ 28.1048889, 36.8065758 ], [ 28.064003, 36.7675133 ], [ 28.0163937, 36.7591286 ], [ 27.8733425, 36.7565727 ], [ 27.8531818, 36.7428474 ], [ 27.8237839, 36.7639885 ], [ 27.7950878, 36.7580338 ], [ 27.7224979, 36.758625 ], [ 27.6888294, 36.7243156 ], [ 27.6673565, 36.6635628 ], [ 27.6040401, 36.6833649 ], [ 27.5136375, 36.6764336 ], [ 27.4835796, 36.6530037 ], [ 27.3983288, 36.6818886 ], [ 27.3741817, 36.6828499 ], [ 27.3664646, 36.7091599 ], [ 27.4142151, 36.7074738 ], [ 27.4343357, 36.749485 ], [ 27.4703732, 36.7633934 ], [ 27.5252705, 36.7530251 ], [ 27.5827847, 36.7698708 ], [ 27.6130676, 36.76437 ], [ 27.6429424, 36.8130074 ], [ 27.6950569, 36.787941 ], [ 27.7737846, 36.7908936 ], [ 27.8195095, 36.8180046 ], [ 27.8619251, 36.8091621 ], [ 27.9096394, 36.812561 ], [ 27.9214878, 36.8019371 ], [ 27.986824, 36.8041725 ], [ 28.0340919, 36.7889481 ], [ 28.0655403, 36.8273544 ], [ 28.022913, 36.8305359 ], [ 28.0474377, 36.8881683 ], [ 28.0423508, 36.9252357 ], [ 28.0819244, 36.944149 ], [ 28.1533012, 36.9305382 ], [ 28.1719551, 36.9536591 ], [ 28.1967449, 36.9456406 ], [ 28.2225666, 37.0029716 ], [ 28.2480946, 36.9919395 ], [ 28.2663193, 37.0173531 ], [ 28.3258934, 37.0271416 ], [ 28.3271084, 37.0550957 ], [ 28.2489777, 37.0396309 ], [ 28.2027855, 37.0422859 ], [ 28.1620178, 37.0310135 ], [ 28.1050186, 37.0348396 ], [ 28.077795, 37.0259285 ], [ 27.9878216, 37.0342407 ], [ 27.9549675, 37.0197105 ], [ 27.9280567, 37.0332375 ], [ 27.8207245, 37.0131874 ], [ 27.803093, 36.999855 ], [ 27.7395973, 36.9974747 ], [ 27.7302055, 37.0064125 ], [ 27.6520557, 37.0015793 ], [ 27.628788, 36.9812393 ], [ 27.6038246, 36.9944191 ], [ 27.567379, 36.9807854 ], [ 27.5233307, 36.9957504 ], [ 27.485981, 36.9889946 ], [ 27.4275017, 37.0356522 ], [ 27.4168148, 37.023037 ], [ 27.3358765, 37.0201225 ], [ 27.3393497, 37.0030785 ], [ 27.3062592, 36.9668236 ], [ 27.2651901, 36.9681015 ], [ 27.2474861, 37.0354195 ], [ 27.2246876, 37.0569649 ], [ 27.2330894, 37.0801926 ], [ 27.2731094, 37.1371994 ], [ 27.306736, 37.123455 ], [ 27.3369484, 37.1570168 ], [ 27.3686638, 37.1554527 ], [ 27.4101143, 37.1360168 ], [ 27.4771919, 37.0873489 ], [ 27.4885597, 37.1026993 ], [ 27.5552673, 37.138855 ], [ 27.544384, 37.1812935 ], [ 27.5885868, 37.2266426 ], [ 27.6101341, 37.2784462 ], [ 27.558445, 37.2757034 ], [ 27.5254288, 37.2310181 ], [ 27.5074539, 37.2765884 ], [ 27.4561939, 37.2602615 ], [ 27.4985275, 37.3187485 ], [ 27.4372616, 37.3042336 ], [ 27.3880272, 37.3249855 ], [ 27.3832912, 37.3567276 ], [ 27.4297924, 37.3841934 ], [ 27.4098492, 37.4157982 ], [ 27.3720341, 37.4002991 ], [ 27.3556061, 37.370594 ], [ 27.2825584, 37.3557854 ], [ 27.2509956, 37.3364563 ], [ 27.1907291, 37.3550453 ], [ 27.2064552, 37.37286 ], [ 27.2196636, 37.4219055 ], [ 27.2246056, 37.4823418 ], [ 27.1835461, 37.5033073 ], [ 27.17313, 37.5507355 ], [ 27.216814, 37.5886498 ], [ 27.1866875, 37.6114616 ], [ 27.0897293, 37.6439819 ], [ 27.0225468, 37.6513748 ], [ 27.0233288, 37.691021 ], [ 27.0972595, 37.686718 ], [ 27.1627941, 37.7013245 ], [ 27.2398129, 37.7328682 ], [ 27.2648697, 37.7798347 ], [ 27.2710285, 37.8118057 ], [ 27.2433109, 37.8306847 ], [ 27.2422104, 37.8614235 ], [ 27.2604694, 37.8732185 ], [ 27.2772541, 37.9313431 ], [ 27.2702103, 37.9564667 ], [ 27.2382355, 37.9894028 ], [ 27.1705132, 37.9881706 ], [ 27.1236, 37.996376 ], [ 27.0783043, 38.021492 ], [ 27.0453396, 38.053936 ], [ 26.9799652, 38.0775375 ], [ 26.9553738, 38.0784149 ], [ 26.8617668, 38.0522385 ], [ 26.8487663, 38.0765114 ], [ 26.8464203, 38.1219215 ], [ 26.8248158, 38.1623726 ], [ 26.7785854, 38.1685944 ], [ 26.7806797, 38.2075195 ], [ 26.7661724, 38.219429 ], [ 26.723362, 38.2122917 ], [ 26.6537304, 38.2114868 ], [ 26.6348686, 38.1980095 ], [ 26.6162415, 38.1155548 ], [ 26.5897293, 38.1085968 ], [ 26.579874, 38.1353149 ], [ 26.5448589, 38.1236534 ], [ 26.503212, 38.1840172 ], [ 26.4250278, 38.2040482 ], [ 26.3953171, 38.2277908 ], [ 26.3422699, 38.2300415 ], [ 26.3152161, 38.2420464 ], [ 26.2525272, 38.2917976 ], [ 26.2796726, 38.2999649 ], [ 26.2911835, 38.3761215 ], [ 26.3307037, 38.359623 ], [ 26.3173447, 38.3439751 ], [ 26.3552837, 38.3217583 ], [ 26.3854141, 38.3177261 ], [ 26.3928719, 38.3432922 ], [ 26.4446793, 38.3479118 ], [ 26.4827576, 38.37743 ], [ 26.5153008, 38.4331284 ], [ 26.4716415, 38.4607315 ], [ 26.426012, 38.4784966 ], [ 26.3864079, 38.5234299 ], [ 26.3588791, 38.5775909 ], [ 26.3555679, 38.650238 ], [ 26.4156971, 38.682251 ], [ 26.4785919, 38.6752663 ], [ 26.5230618, 38.6387215 ], [ 26.5706024, 38.5842514 ], [ 26.5747375, 38.5596848 ], [ 26.6271114, 38.5300903 ], [ 26.6419182, 38.4758186 ], [ 26.6057491, 38.4589195 ], [ 26.6002846, 38.435173 ], [ 26.6455803, 38.3793182 ], [ 26.6521797, 38.3366089 ], [ 26.6726799, 38.3182106 ], [ 26.7028522, 38.3292236 ], [ 26.6774216, 38.3861885 ], [ 26.7075863, 38.4333954 ], [ 26.7396851, 38.4129791 ], [ 26.7749081, 38.3659325 ], [ 26.8128281, 38.3596153 ], [ 26.8442936, 38.3744659 ], [ 26.9084072, 38.3807564 ], [ 26.9826984, 38.3976059 ], [ 27.0212593, 38.4148102 ], [ 27.084589, 38.4017792 ], [ 27.1257916, 38.4189034 ], [ 27.1592007, 38.4675484 ], [ 27.108942, 38.450367 ], [ 27.0624981, 38.4649467 ], [ 26.9991894, 38.4591827 ], [ 26.9544353, 38.4395561 ], [ 26.8738613, 38.5089264 ], [ 26.8869419, 38.5194817 ], [ 26.8469658, 38.551281 ], [ 26.8507633, 38.5981789 ], [ 26.7591076, 38.6177101 ], [ 26.7322731, 38.6545334 ], [ 26.7301617, 38.7267151 ], [ 26.7437172, 38.7434578 ], [ 26.7856846, 38.7396088 ], [ 26.8283005, 38.7620735 ], [ 26.8862953, 38.7336617 ], [ 26.8998604, 38.7387085 ], [ 26.9223499, 38.7834587 ], [ 26.8976669, 38.8122635 ], [ 26.9427319, 38.8360214 ], [ 26.9469147, 38.806179 ], [ 26.9769402, 38.8139191 ], [ 26.9748955, 38.8467026 ], [ 27.0168743, 38.8736954 ], [ 27.030159, 38.8567467 ], [ 27.065361, 38.8810921 ], [ 27.0467434, 38.8956184 ], [ 27.0520897, 38.9404068 ], [ 27.0062923, 38.9148674 ], [ 26.952528, 38.9407425 ], [ 26.9164753, 38.9395065 ], [ 26.8555603, 38.9162216 ], [ 26.852459, 38.9325294 ], [ 26.8021984, 38.9605675 ], [ 26.8069935, 39.0124702 ], [ 26.8001862, 39.0336418 ], [ 26.8880177, 39.0741463 ], [ 26.8884182, 39.0897102 ], [ 26.8324261, 39.1503563 ], [ 26.7691975, 39.1707916 ], [ 26.7430859, 39.1965981 ], [ 26.7350903, 39.243412 ], [ 26.6883869, 39.2706528 ], [ 26.615572, 39.276268 ], [ 26.6901169, 39.3198395 ], [ 26.7030582, 39.3445969 ], [ 26.7803116, 39.3736496 ], [ 26.8807526, 39.4768944 ], [ 26.9237041, 39.4839783 ], [ 26.9453754, 39.5444908 ], [ 26.9259777, 39.581192 ], [ 26.8805332, 39.5826149 ], [ 26.8397579, 39.5585518 ], [ 26.7656136, 39.5690727 ], [ 26.6350365, 39.5531311 ], [ 26.5596428, 39.5340347 ], [ 26.4827881, 39.528183 ], [ 26.3686199, 39.4836082 ], [ 26.2920074, 39.4872475 ], [ 26.2225266, 39.4772644 ], [ 26.2073212, 39.4673576 ], [ 26.1402168, 39.4566154 ], [ 26.0756416, 39.4753304 ], [ 26.0634193, 39.4862022 ], [ 26.0855618, 39.5262604 ], [ 26.1009197, 39.5842209 ], [ 26.1334515, 39.6058617 ], [ 26.1593456, 39.6721687 ], [ 26.1557617, 39.7245865 ], [ 26.138876, 39.7599831 ], [ 26.1548157, 39.7756042 ], [ 26.16148, 39.8210487 ], [ 26.1375408, 39.8430214 ], [ 26.1573849, 39.8967896 ], [ 26.1487484, 39.9128876 ], [ 26.1828384, 40.0 ], [ 26.2354221, 40.0043144 ], [ 26.2847767, 39.9956474 ], [ 26.324234, 40.021347 ], [ 26.3611698, 40.0627441 ], [ 26.372242, 40.1083183 ], [ 26.4101086, 40.1263847 ], [ 26.4042568, 40.1723175 ], [ 26.4152279, 40.2041664 ], [ 26.4420853, 40.1986046 ], [ 26.5270367, 40.2221451 ], [ 26.5787468, 40.2878571 ], [ 26.6069565, 40.2881355 ], [ 26.6513996, 40.3292465 ], [ 26.6971626, 40.3591385 ], [ 26.6982727, 40.3726349 ], [ 26.7580948, 40.4094086 ], [ 26.8901615, 40.4037323 ], [ 26.9158325, 40.4104004 ], [ 26.9582977, 40.390316 ], [ 27.0413189, 40.3981285 ], [ 27.0616131, 40.4367828 ], [ 27.1222973, 40.4598579 ], [ 27.1524963, 40.4596024 ], [ 27.187748, 40.4410362 ], [ 27.2048035, 40.4513054 ], [ 27.2936573, 40.4717216 ], [ 27.3219852, 40.4494667 ], [ 27.3332291, 40.4194717 ], [ 27.3178787, 40.3888626 ], [ 27.4331551, 40.3331604 ], [ 27.5070286, 40.3138886 ], [ 27.5514565, 40.3111725 ], [ 27.6307182, 40.3361588 ], [ 27.6955948, 40.3177185 ], [ 27.781847, 40.3210526 ], [ 27.8823261, 40.3873367 ], [ 27.8359547, 40.4057541 ], [ 27.7922802, 40.4005775 ], [ 27.7200394, 40.4653282 ], [ 27.6875381, 40.5064697 ], [ 27.7308903, 40.5325127 ], [ 27.8649292, 40.5270042 ], [ 27.928236, 40.5157547 ], [ 28.0391026, 40.485054 ], [ 28.0282898, 40.4620476 ], [ 27.9962921, 40.4410591 ], [ 27.9263229, 40.4169502 ], [ 27.9050903, 40.3924179 ], [ 27.9602127, 40.361084 ], [ 27.9935398, 40.3742905 ], [ 28.0443687, 40.3786354 ], [ 28.1504917, 40.4029922 ], [ 28.2168064, 40.4025192 ], [ 28.2575798, 40.410305 ], [ 28.3424339, 40.4102325 ], [ 28.4002132, 40.4012871 ], [ 28.5242043, 40.4017181 ], [ 28.5894432, 40.3811302 ], [ 28.6751518, 40.3688889 ], [ 28.6829548, 40.382267 ], [ 28.7454643, 40.3968582 ], [ 28.8086662, 40.402935 ], [ 28.8753872, 40.3956451 ], [ 28.9235611, 40.367363 ], [ 28.9802151, 40.3645325 ], [ 29.0598392, 40.3706245 ], [ 29.0992622, 40.4268494 ], [ 29.1551647, 40.4452171 ], [ 29.0977612, 40.482933 ], [ 29.036869, 40.4875069 ], [ 28.971756, 40.4712982 ], [ 28.9279156, 40.4757347 ], [ 28.8524799, 40.5166054 ], [ 28.7902203, 40.5276947 ], [ 28.8010159, 40.5613823 ], [ 28.8253994, 40.5765419 ], [ 28.8811665, 40.5884247 ], [ 28.9549732, 40.6217003 ], [ 28.9961433, 40.6543732 ], [ 29.1101341, 40.6540909 ], [ 29.1461201, 40.6627808 ], [ 29.253212, 40.6707191 ], [ 29.2740784, 40.6666298 ], [ 29.3448677, 40.6825447 ], [ 29.384964, 40.7118988 ], [ 29.4205036, 40.6985359 ], [ 29.4710293, 40.7086296 ], [ 29.4835167, 40.7289505 ], [ 29.5210991, 40.745266 ], [ 29.5643063, 40.6980324 ], [ 29.7017155, 40.7169533 ], [ 29.7996483, 40.7380867 ], [ 29.8708019, 40.7367134 ], [ 29.9104633, 40.7233086 ], [ 29.9380493, 40.728756 ], [ 29.9365978, 40.7695465 ], [ 29.8705692, 40.7653351 ], [ 29.7806587, 40.7507019 ], [ 29.7411842, 40.7766418 ], [ 29.6895466, 40.7856941 ], [ 29.5785351, 40.7766724 ], [ 29.5208035, 40.7764015 ], [ 29.4984226, 40.7885857 ], [ 29.433403, 40.7785912 ], [ 29.3941059, 40.7645721 ], [ 29.3583927, 40.7660255 ], [ 29.3454456, 40.8155098 ], [ 29.325407, 40.8271484 ], [ 29.2757549, 40.8268089 ], [ 29.2918968, 40.8580627 ], [ 29.160181, 40.9071732 ], [ 29.1139793, 40.9501762 ], [ 29.0421009, 40.9746399 ], [ 29.0176678, 41.0329971 ], [ 29.0624256, 41.0644531 ], [ 29.0753651, 41.1104546 ], [ 29.097456, 41.1208 ], [ 29.0812798, 41.1632271 ], [ 29.1571217, 41.2247429 ], [ 29.2662334, 41.2367744 ], [ 29.4212666, 41.2119865 ], [ 29.5713482, 41.1797676 ], [ 29.6281376, 41.1848488 ], [ 29.7301884, 41.1578865 ], [ 29.7839394, 41.1627312 ], [ 29.825613, 41.1472511 ], [ 29.894619, 41.1482162 ], [ 29.9917126, 41.1417427 ], [ 30.0775738, 41.140995 ], [ 30.1403103, 41.149765 ], [ 30.2285995, 41.1728745 ], [ 30.2728462, 41.2155495 ], [ 30.3311863, 41.2076263 ], [ 30.3590794, 41.190979 ], [ 30.492178, 41.1502037 ], [ 30.6588516, 41.1335831 ], [ 30.7537956, 41.0916786 ], [ 30.9421825, 41.0775414 ], [ 31.0646973, 41.0836258 ], [ 31.137064, 41.0992622 ], [ 31.2332554, 41.104084 ], [ 31.2905216, 41.1190529 ], [ 31.3400211, 41.1439247 ], [ 31.4135857, 41.2225914 ], [ 31.404707, 41.2387581 ], [ 31.4229603, 41.2788277 ], [ 31.3980846, 41.2963219 ], [ 31.4048481, 41.3237877 ], [ 31.4696865, 41.3349342 ], [ 31.4915924, 41.3569679 ], [ 31.6240139, 41.3900146 ], [ 31.6981487, 41.4224205 ], [ 31.7600212, 41.4605827 ], [ 31.8314648, 41.4875183 ], [ 31.8714371, 41.5162621 ], [ 31.9939365, 41.5552864 ], [ 32.0276222, 41.5801353 ], [ 32.084404, 41.5922203 ], [ 32.1644821, 41.620163 ], [ 32.178978, 41.6442604 ], [ 32.2292709, 41.6873131 ], [ 32.3047867, 41.7348785 ], [ 32.3408318, 41.730854 ], [ 32.3866196, 41.7584648 ], [ 32.4166183, 41.7480545 ], [ 32.4443779, 41.7753754 ], [ 32.4904251, 41.7910004 ], [ 32.5219383, 41.815136 ], [ 32.5765343, 41.819519 ], [ 32.6214523, 41.8388214 ], [ 32.6749458, 41.8374786 ], [ 32.7856178, 41.8680229 ], [ 32.8657379, 41.8658829 ], [ 32.9870033, 41.9027901 ], [ 33.0413933, 41.9354286 ], [ 33.1735611, 41.9619102 ], [ 33.2206383, 41.9843102 ], [ 33.267662, 41.9936066 ], [ 33.3394279, 42.0253601 ], [ 33.3872108, 42.0235405 ], [ 33.5528717, 42.0051689 ], [ 33.6007423, 41.9926872 ], [ 33.9083633, 41.9776459 ], [ 34.0043144, 41.9888649 ], [ 34.0998573, 41.985321 ], [ 34.1810951, 41.9644623 ], [ 34.3250389, 41.9440155 ], [ 34.4340439, 41.9687119 ], [ 34.5029907, 41.9665947 ], [ 34.5588951, 41.95084 ], [ 34.6099586, 41.9459648 ], [ 34.716774, 41.9468536 ], [ 34.782177, 41.9558487 ], [ 34.8273239, 41.9699173 ], [ 34.9126549, 42.0358467 ], [ 34.9491844, 42.0780907 ], [ 34.985939, 42.0977631 ], [ 35.0250778, 42.0821152 ], [ 35.0523567, 42.0571404 ], [ 35.0619812, 42.0302162 ], [ 35.1339073, 42.0222015 ], [ 35.0994453, 41.9661598 ], [ 35.0920677, 41.9177856 ], [ 35.1321297, 41.8566742 ], [ 35.2022972, 41.8070984 ], [ 35.2124367, 41.7703171 ], [ 35.259861, 41.7444229 ], [ 35.2685776, 41.7236404 ], [ 35.3179512, 41.701313 ], [ 35.4031754, 41.6837196 ], [ 35.4730415, 41.648243 ], [ 35.5216866, 41.6358986 ], [ 35.5798759, 41.6306076 ], [ 35.6522903, 41.6395645 ], [ 35.8251762, 41.6828194 ], [ 35.9815216, 41.7360039 ], [ 36.019249, 41.7002335 ], [ 36.0678978, 41.6842041 ], [ 36.1186981, 41.6289978 ], [ 36.1343689, 41.5978012 ], [ 36.1351585, 41.5516663 ], [ 36.1181793, 41.5060425 ], [ 36.1297951, 41.4697762 ], [ 36.2336044, 41.3732491 ], [ 36.2496834, 41.3512611 ], [ 36.3464127, 41.3120995 ], [ 36.3424835, 41.2946396 ], [ 36.4031487, 41.2500458 ], [ 36.4344788, 41.2411194 ], [ 36.4817009, 41.2429962 ], [ 36.5607224, 41.2816086 ], [ 36.5852509, 41.3213806 ], [ 36.6134834, 41.3429871 ], [ 36.6319351, 41.3741302 ], [ 36.6640854, 41.3603592 ], [ 36.7317696, 41.3685722 ], [ 36.8122215, 41.3586273 ], [ 36.8741951, 41.3411789 ], [ 36.9125824, 41.3187294 ], [ 37.0003738, 41.2817421 ], [ 37.0325928, 41.2465286 ], [ 37.0334053, 41.1898842 ], [ 37.0713196, 41.1675949 ], [ 37.1400337, 41.1464729 ], [ 37.2931595, 41.1434631 ], [ 37.3151093, 41.1152229 ], [ 37.40242, 41.1013222 ], [ 37.4278259, 41.0778275 ], [ 37.4665413, 41.0680695 ], [ 37.5153732, 41.0253105 ], [ 37.5443878, 41.0187187 ], [ 37.5875359, 41.0307045 ], [ 37.6143112, 41.0503616 ], [ 37.6571045, 41.1171188 ], [ 37.6882401, 41.125267 ], [ 37.7218933, 41.1105919 ], [ 37.7637634, 41.1171646 ], [ 37.7907562, 41.1094933 ], [ 37.7757263, 41.06773 ], [ 37.8114243, 41.0237694 ], [ 37.860611, 41.0141411 ], [ 37.8780861, 40.9888077 ], [ 38.000309, 40.9801788 ], [ 38.0822983, 40.9597778 ], [ 38.1451378, 40.9520073 ], [ 38.2011261, 40.9347305 ], [ 38.2899666, 40.942215 ], [ 38.3549385, 40.9087372 ], [ 38.4811554, 40.9123535 ], [ 38.5446014, 40.9201965 ], [ 38.6149216, 40.9642563 ], [ 38.6513481, 40.9705009 ], [ 38.6761818, 40.9474068 ], [ 38.7180481, 40.949028 ], [ 38.794445, 40.9993896 ], [ 38.8753548, 41.0099831 ], [ 38.9222603, 41.0373802 ], [ 39.0572166, 41.0358276 ], [ 39.1159515, 41.0493469 ], [ 39.1606331, 41.0756416 ], [ 39.2123795, 41.0703087 ], [ 39.2327576, 41.0531273 ], [ 39.2883492, 41.0488052 ], [ 39.3324699, 41.0617638 ], [ 39.425766, 41.105526 ], [ 39.4914246, 41.0892792 ], [ 39.5680084, 41.0265923 ], [ 39.6621666, 40.9943924 ], [ 39.7089767, 41.0063171 ], [ 39.7592011, 41.0048065 ], [ 39.8311157, 40.9800644 ], [ 39.8793488, 40.9507256 ], [ 39.9287682, 40.9523239 ], [ 39.9864922, 40.9635086 ], [ 40.0370331, 40.9540939 ], [ 40.0709038, 40.9261246 ], [ 40.1350479, 40.9083138 ], [ 40.2260551, 40.9238853 ], [ 40.3038635, 40.9674568 ], [ 40.3265381, 40.9883766 ], [ 40.3911133, 41.026535 ], [ 40.4961205, 41.0376129 ], [ 40.5210686, 41.025341 ], [ 40.6018677, 41.0458603 ], [ 40.647316, 41.0674248 ], [ 40.7033234, 41.0820847 ], [ 40.7323532, 41.0991554 ], [ 40.7986565, 41.1593094 ], [ 40.8730202, 41.1808739 ], [ 40.9382477, 41.1770363 ], [ 40.9701538, 41.1927223 ], [ 41.0111961, 41.1975632 ], [ 41.0552139, 41.2143517 ], [ 41.1153755, 41.2501602 ], [ 41.1530075, 41.2805405 ], [ 41.1985168, 41.2908821 ], [ 41.2502556, 41.329464 ], [ 41.3453827, 41.3723106 ], [ 41.4014282, 41.3779068 ], [ 41.4813881, 41.4662247 ], [ 41.5202217, 41.4841309 ], [ 41.5470001, 41.5264899 ] ] ], [ [ [ 28.0313416, 41.9870377 ], [ 28.0565166, 41.9510918 ], [ 28.0558414, 41.888588 ], [ 28.017168, 41.9006119 ], [ 27.9880466, 41.8761368 ], [ 27.9886074, 41.8307953 ], [ 28.0172977, 41.7872734 ], [ 28.0441914, 41.768486 ], [ 28.0524483, 41.730175 ], [ 28.1101379, 41.675602 ], [ 28.0932159, 41.6661491 ], [ 28.1199589, 41.6244507 ], [ 28.2239761, 41.5320358 ], [ 28.2751923, 41.5060616 ], [ 28.3359146, 41.4863625 ], [ 28.3993931, 41.4551506 ], [ 28.562624, 41.3941765 ], [ 28.6370697, 41.3608398 ], [ 28.6983376, 41.348484 ], [ 28.7763367, 41.3166008 ], [ 28.9563541, 41.2636948 ], [ 29.0289936, 41.2518692 ], [ 29.0849323, 41.2583961 ], [ 29.117939, 41.23946 ], [ 29.1139984, 41.2113724 ], [ 29.050499, 41.1653976 ], [ 29.0758858, 41.1363144 ], [ 29.0635509, 41.0905304 ], [ 29.0327454, 41.0519524 ], [ 28.9969711, 41.037262 ], [ 28.9923878, 41.0155983 ], [ 28.9556866, 41.0091515 ], [ 28.9119453, 40.9886246 ], [ 28.815382, 40.9648323 ], [ 28.7796555, 40.9814301 ], [ 28.6216354, 40.9687271 ], [ 28.600811, 40.9802399 ], [ 28.6034164, 41.0131607 ], [ 28.591917, 41.0492592 ], [ 28.5626736, 41.063633 ], [ 28.5634251, 41.0187607 ], [ 28.5468521, 40.9938164 ], [ 28.4453144, 41.0400276 ], [ 28.3862343, 41.0581665 ], [ 28.2636032, 41.0708199 ], [ 28.2496605, 41.0842476 ], [ 28.1800842, 41.0776711 ], [ 28.0889397, 41.0621033 ], [ 28.0218735, 41.0389252 ], [ 27.9944477, 41.0206299 ], [ 27.966301, 40.9712105 ], [ 27.880127, 40.9744225 ], [ 27.8520489, 40.9956894 ], [ 27.7539978, 41.0201721 ], [ 27.5923519, 40.989521 ], [ 27.5311108, 40.9850082 ], [ 27.5014267, 40.9643135 ], [ 27.478878, 40.9252739 ], [ 27.4567528, 40.8505363 ], [ 27.4099751, 40.8221016 ], [ 27.3547573, 40.7785721 ], [ 27.3181496, 40.7111778 ], [ 27.1610565, 40.6274986 ], [ 27.0720253, 40.6133728 ], [ 27.035471, 40.5994225 ], [ 26.9965706, 40.5621223 ], [ 26.9010868, 40.5455666 ], [ 26.8774986, 40.5267754 ], [ 26.7490368, 40.4821205 ], [ 26.6986847, 40.4508629 ], [ 26.6860828, 40.4112511 ], [ 26.6585846, 40.4129868 ], [ 26.6339397, 40.3918495 ], [ 26.63381, 40.3685226 ], [ 26.5914574, 40.3253517 ], [ 26.5005512, 40.2833061 ], [ 26.4553699, 40.2398415 ], [ 26.3657894, 40.2045517 ], [ 26.3845329, 40.1527596 ], [ 26.3034801, 40.0904884 ], [ 26.2132912, 40.0562134 ], [ 26.172863, 40.0577202 ], [ 26.2087383, 40.1057968 ], [ 26.2406979, 40.1616097 ], [ 26.2731838, 40.2039261 ], [ 26.2841702, 40.2531738 ], [ 26.2437458, 40.2897034 ], [ 26.2343597, 40.3221092 ], [ 26.2700386, 40.3546219 ], [ 26.3349056, 40.371994 ], [ 26.3736782, 40.4019775 ], [ 26.4180202, 40.4178009 ], [ 26.443491, 40.4399033 ], [ 26.4929848, 40.45298 ], [ 26.5993023, 40.5058517 ], [ 26.6336422, 40.5155983 ], [ 26.7114372, 40.5176964 ], [ 26.7238579, 40.5431252 ], [ 26.7935505, 40.5568047 ], [ 26.8410263, 40.5914497 ], [ 26.8200855, 40.6536331 ], [ 26.7702541, 40.6626663 ], [ 26.7061825, 40.6430397 ], [ 26.6437778, 40.6476288 ], [ 26.591095, 40.6355248 ], [ 26.5350552, 40.5982132 ], [ 26.4604778, 40.6243744 ], [ 26.4133053, 40.6064949 ], [ 26.3601704, 40.6141777 ], [ 26.3069954, 40.5998726 ], [ 26.1969395, 40.6052399 ], [ 26.1586914, 40.5976143 ], [ 26.1193333, 40.6041451 ], [ 26.0803337, 40.625309 ], [ 26.0695152, 40.6821823 ], [ 26.041151, 40.7455292 ], [ 26.10036, 40.74332 ], [ 26.13282, 40.7619 ], [ 26.15494, 40.80967 ], [ 26.2231696, 40.8546003 ], [ 26.22297, 40.89053 ], [ 26.29023, 40.89976 ], [ 26.2952, 40.94002 ], [ 26.35771, 40.95393 ], [ 26.33079, 40.98717 ], [ 26.3683287, 41.0260871 ], [ 26.33236, 41.05629 ], [ 26.31804, 41.0919 ], [ 26.338, 41.11423 ], [ 26.33691, 41.15404 ], [ 26.31177, 41.18249 ], [ 26.3355099, 41.2240306 ], [ 26.32569, 41.24294 ], [ 26.3629, 41.25904 ], [ 26.4071068, 41.2604499 ], [ 26.46825, 41.29329 ], [ 26.50755, 41.33538 ], [ 26.55717, 41.34774 ], [ 26.5922, 41.32867 ], [ 26.63687, 41.35608 ], [ 26.63391, 41.4284 ], [ 26.59781, 41.53859 ], [ 26.5961381, 41.6154708 ], [ 26.55104, 41.62256 ], [ 26.51877, 41.6389 ], [ 26.49696, 41.66906 ], [ 26.44389, 41.69494 ], [ 26.41261, 41.69236 ], [ 26.3618884, 41.7196898 ], [ 26.33835, 41.74776 ], [ 26.34539, 41.78275 ], [ 26.38148, 41.83607 ], [ 26.53501, 41.83626 ], [ 26.581718, 41.8795887 ], [ 26.5869499, 41.9073798 ], [ 26.57036, 41.92969 ], [ 26.62385, 41.96848 ], [ 26.67118, 41.97224 ], [ 26.74919, 41.96741 ], [ 26.79025, 41.9878 ], [ 26.84389, 41.97403 ], [ 26.8708, 41.99237 ], [ 26.97127, 42.00445 ], [ 26.98587, 42.03474 ], [ 27.01623, 42.04649 ], [ 27.03394, 42.08493 ], [ 27.08228, 42.09672 ], [ 27.14094, 42.07536 ], [ 27.2127591, 42.0697087 ], [ 27.2314, 42.10172 ], [ 27.27434, 42.1076 ], [ 27.33293, 42.08673 ], [ 27.34311, 42.06522 ], [ 27.38135, 42.05361 ], [ 27.40007, 42.01872 ], [ 27.4491676, 41.977432 ], [ 27.5146, 41.96228 ], [ 27.54645, 41.92387 ], [ 27.57571, 41.913 ], [ 27.58241, 41.94732 ], [ 27.61948, 41.94896 ], [ 27.70436, 41.9848899 ], [ 27.74144, 41.98535 ], [ 27.80854, 41.95858 ], [ 27.82765, 41.99371 ], [ 27.8729, 42.00963 ], [ 27.9602, 41.98376 ], [ 27.98702, 41.99475 ], [ 28.0313416, 41.9870377 ] ] ], [ [ [ 27.6650829, 40.6687965 ], [ 27.7168922, 40.6597939 ], [ 27.7469902, 40.6410751 ], [ 27.6382828, 40.5886498 ], [ 27.5813484, 40.5873451 ], [ 27.5356617, 40.6088371 ], [ 27.5347824, 40.6539078 ], [ 27.6248798, 40.668335 ], [ 27.6650829, 40.6687965 ] ] ], [ [ [ 27.6266193, 40.520771 ], [ 27.644104, 40.4671478 ], [ 27.603138, 40.4673653 ], [ 27.6101189, 40.5160522 ], [ 27.6266193, 40.520771 ] ] ], [ [ [ 27.5024529, 40.4808769 ], [ 27.4843693, 40.5065727 ], [ 27.5193462, 40.5457687 ], [ 27.5536556, 40.5291443 ], [ 27.5420647, 40.4990044 ], [ 27.5024529, 40.4808769 ] ] ], [ [ [ 26.7518101, 38.4826698 ], [ 26.6993332, 38.4791031 ], [ 26.699379, 38.5189629 ], [ 26.7248554, 38.5373688 ], [ 26.7518101, 38.4826698 ] ] ], [ [ [ 26.6277084, 39.3978577 ], [ 26.6253128, 39.3830147 ], [ 26.6822281, 39.3350601 ], [ 26.6279926, 39.3317146 ], [ 26.6144562, 39.3451767 ], [ 26.6148262, 39.3881989 ], [ 26.6277084, 39.3978577 ] ] ], [ [ [ 26.0523052, 39.8500252 ], [ 26.0815334, 39.8234482 ], [ 26.078825, 39.8012886 ], [ 26.0388165, 39.7993774 ], [ 25.9696369, 39.8295059 ], [ 25.9743099, 39.845932 ], [ 26.0523052, 39.8500252 ] ] ], [ [ [ 25.949913, 40.2457161 ], [ 25.9792233, 40.222683 ], [ 25.9677372, 40.1649361 ], [ 25.9964771, 40.1380043 ], [ 25.9042168, 40.1240311 ], [ 25.8498402, 40.1060562 ], [ 25.8179626, 40.109127 ], [ 25.7376041, 40.0983467 ], [ 25.7188091, 40.115036 ], [ 25.6685104, 40.1299553 ], [ 25.6791439, 40.1600494 ], [ 25.7872009, 40.2167168 ], [ 25.8458824, 40.2167015 ], [ 25.8818626, 40.2356224 ], [ 25.949913, 40.2457161 ] ] ] ] } }
]
}
