{
"type": "FeatureCollection",
"name": "TUV_GAUL1999_ADM0",
"crs": { "type": "name", "properties": { "name": "urn:ogc:def:crs:OGC:1.3:CRS84" } },
"features": [
{ "type": "Feature", "properties": { "POLYGON_ID": "TUV_GAUL1999_ADM0_252", "ADM0_ISO3": "TUV", "ADM0_NAME": "Tuvalu", "ADM0_CODE": 252, "GEOSET": "GAUL", "GEOSET_YEAR": 1999.0, "GEOSET_VERSION": "GAUL_v1", "GEOSET_UNIT": "ADM0", "CENTROID_LONG": 177.33880496918835, "CENTROID_LAT": -7.3392949304815565 }, "geometry": { "type": "MultiPolygon", "coordinates": [ [ [ [ 179.188278700000012, -8.4691197 ], [ 179.1927987, -8.4789999 ], [ 179.195754599999987, -8.5006305 ], [ 179.2028467, -8.5184809 ], [ 179.2017736, -8.5227026 ], [ 179.189994899999988, -8.531763 ], [ 179.1992372, -8.5137637 ], [ 179.1920764, -8.4883575 ], [ 179.1916654, -8.4788364 ], [ 179.188278700000012, -8.4691197 ] ] ], [ [ [ 177.1616611, -7.2558738 ], [ 177.1395948, -7.2397536 ], [ 177.1396886, -7.1862706 ], [ 177.1635585, -7.2032183 ], [ 177.1616611, -7.2558738 ] ] ] ] } }
]
}
