{
"type": "FeatureCollection",
"name": "TWN_GAUL2005_ADM1",
"crs": { "type": "name", "properties": { "name": "urn:ogc:def:crs:OGC:1.3:CRS84" } },
"features": [
{ "type": "Feature", "properties": { "POLYGON_ID": "TWN_GAUL2005_ADM1_925", "ADM0_ISO3": "TWN", "ADM0_NAME": "Taiwan", "ADM0_CODE": 147296, "ADM1_NAME": "Taiwan Sheng", "ADM1_CODE": 925, "GEOSET": "GAUL", "GEOSET_YEAR": 2005.0, "GEOSET_VERSION": "GAUL_v1", "GEOSET_UNIT": "ADM1", "CENTROID_LONG": 120.96807571050765, "CENTROID_LAT": 23.748272980705174 }, "geometry": { "type": "MultiPolygon", "coordinates": [ [ [ [ 121.5788879, 25.2930069 ], [ 121.623703, 25.2661686 ], [ 121.6553268, 25.2095184 ], [ 121.7536697, 25.1426334 ], [ 121.8172073, 25.1251335 ], [ 121.908493, 25.1242981 ], [ 121.9115524, 25.0857944 ], [ 121.9377213, 25.0206432 ], [ 122.0004425, 25.0101757 ], [ 121.9250565, 24.9691448 ], [ 121.827507, 24.8594532 ], [ 121.8115311, 24.766264 ], [ 121.8349991, 24.6609135 ], [ 121.8606567, 24.6133499 ], [ 121.8665771, 24.5365925 ], [ 121.8356628, 24.5239391 ], [ 121.8447266, 24.4874077 ], [ 121.7879715, 24.4198055 ], [ 121.7628784, 24.305563 ], [ 121.738533, 24.262064 ], [ 121.6740036, 24.2127609 ], [ 121.6496429, 24.1753044 ], [ 121.6485138, 24.1210709 ], [ 121.6194916, 24.0970669 ], [ 121.6104813, 24.0542717 ], [ 121.6396713, 24.0 ], [ 121.602417, 23.9626255 ], [ 121.5920029, 23.8584175 ], [ 121.5664368, 23.8018036 ], [ 121.5684509, 23.7598248 ], [ 121.5481033, 23.6990242 ], [ 121.5175171, 23.5669861 ], [ 121.4983978, 23.524044 ], [ 121.5108871, 23.4842491 ], [ 121.4691086, 23.3887482 ], [ 121.4574127, 23.3161316 ], [ 121.416893, 23.2637234 ], [ 121.3931122, 23.1957874 ], [ 121.4075089, 23.1226959 ], [ 121.3533401, 23.0875931 ], [ 121.307373, 22.9746075 ], [ 121.2778778, 22.946846 ], [ 121.2426071, 22.8826332 ], [ 121.1891022, 22.8532047 ], [ 121.1926727, 22.8079605 ], [ 121.1664734, 22.7555904 ], [ 121.1280899, 22.7225857 ], [ 121.0252075, 22.6617737 ], [ 121.0064163, 22.5966988 ], [ 120.971489, 22.5533028 ], [ 120.9429016, 22.4609528 ], [ 120.8884506, 22.334301 ], [ 120.8939209, 22.2325382 ], [ 120.8813477, 22.1239834 ], [ 120.8938217, 22.0380096 ], [ 120.835701, 21.9630051 ], [ 120.8551178, 21.9210892 ], [ 120.7574081, 21.9615898 ], [ 120.7200089, 21.9218102 ], [ 120.7060928, 21.9838982 ], [ 120.681488, 22.0333996 ], [ 120.7106628, 22.0959606 ], [ 120.6633682, 22.2365093 ], [ 120.6355896, 22.3009357 ], [ 120.5691071, 22.3806725 ], [ 120.4437485, 22.4488792 ], [ 120.4204407, 22.4898262 ], [ 120.3833771, 22.4844322 ], [ 120.3232574, 22.5323639 ], [ 120.2494125, 22.6337929 ], [ 120.256012, 22.693924 ], [ 120.1886063, 22.849926 ], [ 120.1544495, 22.9702511 ], [ 120.0819473, 23.0339336 ], [ 120.0589523, 23.0656319 ], [ 120.0697784, 23.1707077 ], [ 120.0862579, 23.2342377 ], [ 120.1163788, 23.2805367 ], [ 120.1104736, 23.3053226 ], [ 120.1414566, 23.4066639 ], [ 120.1358719, 23.470438 ], [ 120.1424866, 23.542675 ], [ 120.1259613, 23.6160889 ], [ 120.1484833, 23.674984 ], [ 120.1791382, 23.6953373 ], [ 120.187767, 23.763649 ], [ 120.2617264, 23.8487759 ], [ 120.3516769, 24.0151024 ], [ 120.4292297, 24.0876064 ], [ 120.4318695, 24.1295109 ], [ 120.5407486, 24.2948475 ], [ 120.5471878, 24.3289871 ], [ 120.5965576, 24.4136848 ], [ 120.6671219, 24.4928589 ], [ 120.685173, 24.5500031 ], [ 120.7185974, 24.6111031 ], [ 120.7476807, 24.6163177 ], [ 120.7758865, 24.6637058 ], [ 120.8259277, 24.6775684 ], [ 120.8581009, 24.7259254 ], [ 120.8957672, 24.74893 ], [ 120.9100876, 24.8305473 ], [ 120.9347229, 24.8510342 ], [ 120.9676819, 24.9242096 ], [ 121.0057831, 24.964304 ], [ 121.0401382, 25.0341053 ], [ 121.1128693, 25.0721264 ], [ 121.2402191, 25.1197758 ], [ 121.3337173, 25.127018 ], [ 121.4076386, 25.1692486 ], [ 121.4449234, 25.2524815 ], [ 121.5024185, 25.2847538 ], [ 121.5788879, 25.2930069 ] ] ], [ [ [ 121.5667572, 22.0852566 ], [ 121.563942, 22.0442867 ], [ 121.5305481, 22.0255508 ], [ 121.5031509, 22.0466404 ], [ 121.4955063, 22.084341 ], [ 121.5667572, 22.0852566 ] ] ], [ [ [ 119.6487732, 23.5990391 ], [ 119.6764221, 23.5655804 ], [ 119.5961075, 23.5492115 ], [ 119.5585098, 23.5748463 ], [ 119.6487732, 23.5990391 ] ] ] ] } }
]
}
