{
"type": "FeatureCollection",
"name": "TZA_GAUL2014_ADM0",
"crs": { "type": "name", "properties": { "name": "urn:ogc:def:crs:OGC:1.3:CRS84" } },
"features": [
{ "type": "Feature", "properties": { "POLYGON_ID": "TZA_GAUL2014_ADM0_257", "ADM0_ISO3": "TZA", "ADM0_NAME": "United Republic of Tanzania", "ADM0_CODE": 257, "GEOSET": "GAUL", "GEOSET_YEAR": 2014.0, "GEOSET_VERSION": "GAUL_v1", "GEOSET_UNIT": "ADM0", "CENTROID_LONG": 34.815215711594057, "CENTROID_LAT": -6.263145726528351 }, "geometry": { "type": "MultiPolygon", "coordinates": [ [ [ [ 30.800118, -0.9998993 ], [ 30.8089007, -0.9998992 ], [ 30.9023976, -0.999898 ], [ 30.9087538, -0.9998979 ], [ 30.9781279, -0.999897 ], [ 31.0485381, -0.9998961 ], [ 31.1842938, -0.9998943 ], [ 31.2715537, -0.9998932 ], [ 31.3101675, -0.9998927 ], [ 31.4713273, -0.9998906 ], [ 31.4765713, -0.9998906 ], [ 31.622426, -0.9998887 ], [ 31.6824878, -0.9998879 ], [ 31.6990037, -0.9998877 ], [ 31.771243, -0.9998868 ], [ 31.7898506, -0.9998865 ], [ 31.8435235, -0.9998867 ], [ 31.9999517, -0.9998873 ], [ 32.4027977, -0.9998887 ], [ 32.7417154, -0.99989 ], [ 32.8743945, -0.9998904 ], [ 33.4255028, -0.9998924 ], [ 33.933979, -0.9998943 ], [ 34.0279516, -1.0000344 ], [ 34.0296201, -1.0088052 ], [ 34.0364162, -1.0174761 ], [ 34.0364162, -1.0291532 ], [ 34.0439969, -1.0386261 ], [ 34.0715636, -1.0280249 ], [ 34.0803928, -1.0237174 ], [ 34.0818669, -1.0245214 ], [ 34.098325, -1.033498 ], [ 34.206103, -1.095435 ], [ 34.655547, -1.346796 ], [ 35.013047, -1.550941 ], [ 35.2482173, -1.6831702 ], [ 35.5911093, -1.8759682 ], [ 35.8457456, -2.0191426 ], [ 36.1543209, -2.1926453 ], [ 36.461381, -2.365296 ], [ 36.900547, -2.613602 ], [ 37.2342784, -2.8004552 ], [ 37.515381, -2.957842 ], [ 37.600214, -3.012919 ], [ 37.670964, -3.061164 ], [ 37.7102878, -3.3102552 ], [ 37.7076, -3.3130018 ], [ 37.684208, -3.323274 ], [ 37.6837731, -3.33735 ], [ 37.683325, -3.351855 ], [ 37.679158, -3.357132 ], [ 37.662631, -3.358743 ], [ 37.645269, -3.381296 ], [ 37.640269, -3.381296 ], [ 37.617644, -3.403057 ], [ 37.6036495, -3.4186756 ], [ 37.583686, -3.440956 ], [ 37.5837719, -3.4585567 ], [ 37.6027691, -3.4623107 ], [ 37.6201884, -3.4821326 ], [ 37.6144821, -3.5010535 ], [ 37.6093764, -3.5046575 ], [ 37.6075745, -3.5085618 ], [ 37.6107671, -3.5199641 ], [ 37.6117791, -3.5235784 ], [ 37.6282974, -3.5247797 ], [ 37.6430136, -3.520575 ], [ 37.6582309, -3.5068496 ], [ 37.6654032, -3.5048357 ], [ 37.6871624, -3.5142681 ], [ 37.699476, -3.525981 ], [ 37.7063837, -3.529585 ], [ 37.7126906, -3.529585 ], [ 37.7160455, -3.5262301 ], [ 37.7277072, -3.52508 ], [ 37.7401797, -3.5314343 ], [ 37.7457668, -3.5421786 ], [ 37.7494067, -3.5650356 ], [ 37.7569984, -3.5946432 ], [ 37.7585168, -3.6098266 ], [ 37.7607943, -3.6166592 ], [ 37.7691452, -3.6288059 ], [ 37.7759777, -3.642471 ], [ 37.7812919, -3.6576544 ], [ 37.7842972, -3.6771801 ], [ 37.9638002, -3.8025549 ], [ 38.3377673, -4.0637542 ], [ 38.4572734, -4.1472238 ], [ 38.8004915, -4.3869463 ], [ 39.2060539, -4.6702135 ], [ 39.2058731, -4.6703686 ], [ 39.1827465, -4.6900056 ], [ 39.1894339, -4.712435 ], [ 39.1672283, -4.7430224 ], [ 39.1760817, -4.7642046 ], [ 39.1622126, -4.7941739 ], [ 39.2203027, -4.8093695 ], [ 39.2109377, -4.8601648 ], [ 39.159141, -4.8475453 ], [ 39.1468097, -4.8769406 ], [ 39.1363207, -4.9405608 ], [ 39.1416302, -4.9739633 ], [ 39.129787, -4.9926561 ], [ 39.1313449, -5.0247165 ], [ 39.107704, -5.0228538 ], [ 39.0866263, -5.0584062 ], [ 39.1271653, -5.0587582 ], [ 39.1333604, -5.101254 ], [ 39.1049937, -5.1337885 ], [ 39.0849025, -5.1935644 ], [ 39.0631749, -5.2229592 ], [ 39.0883314, -5.2333476 ], [ 39.0706182, -5.2627572 ], [ 39.0606115, -5.3088156 ], [ 39.025119, -5.4000885 ], [ 38.9929618, -5.413238 ], [ 38.9824137, -5.4315434 ], [ 39.0020944, -5.4547478 ], [ 38.9921891, -5.4916168 ], [ 38.9510155, -5.56922 ], [ 38.9346694, -5.6161423 ], [ 38.8722539, -5.656223 ], [ 38.8963155, -5.6658966 ], [ 38.8957921, -5.7138515 ], [ 38.8436474, -5.7994364 ], [ 38.8199059, -5.8621918 ], [ 38.8196609, -5.93538 ], [ 38.8058659, -5.9519344 ], [ 38.7801024, -6.0226866 ], [ 38.7839414, -6.0830175 ], [ 38.8231543, -6.1193675 ], [ 38.8412125, -6.1553477 ], [ 38.8579713, -6.1569067 ], [ 38.8653462, -6.2231121 ], [ 38.8426004, -6.3024404 ], [ 38.843363, -6.3369879 ], [ 38.8727323, -6.3924079 ], [ 38.9011155, -6.407068 ], [ 38.910531, -6.441176 ], [ 39.0179513, -6.4946653 ], [ 39.0528785, -6.4981439 ], [ 39.0790477, -6.5320427 ], [ 39.1364977, -6.5753638 ], [ 39.1509173, -6.578945 ], [ 39.1777823, -6.6257535 ], [ 39.1933753, -6.6278412 ], [ 39.2160981, -6.6585903 ], [ 39.2423623, -6.7446444 ], [ 39.2596538, -6.759842 ], [ 39.2852755, -6.7391602 ], [ 39.2822559, -6.7963767 ], [ 39.3493416, -6.8319493 ], [ 39.3733932, -6.8555517 ], [ 39.4712787, -6.8730041 ], [ 39.4952507, -6.8941661 ], [ 39.5058376, -6.9415495 ], [ 39.5512025, -7.0195318 ], [ 39.5451301, -7.0330566 ], [ 39.5425401, -7.1088437 ], [ 39.5263405, -7.1289115 ], [ 39.5191177, -7.1648128 ], [ 39.4880159, -7.1652332 ], [ 39.431633, -7.1824337 ], [ 39.4104879, -7.2061708 ], [ 39.350811, -7.3126929 ], [ 39.3355817, -7.3190202 ], [ 39.3304521, -7.3658155 ], [ 39.3415883, -7.4076994 ], [ 39.3011709, -7.4086314 ], [ 39.3187522, -7.435946 ], [ 39.2806105, -7.5659035 ], [ 39.2681197, -7.628557 ], [ 39.2870391, -7.7136186 ], [ 39.2769751, -7.736827 ], [ 39.2875924, -7.7669825 ], [ 39.2421188, -7.79872 ], [ 39.2343904, -7.8459016 ], [ 39.2195365, -7.8683379 ], [ 39.2543161, -7.8778567 ], [ 39.29076, -7.8623654 ], [ 39.3289512, -7.8841612 ], [ 39.3579911, -7.8770078 ], [ 39.3832248, -7.9058584 ], [ 39.3696749, -7.9326811 ], [ 39.3957949, -7.9367818 ], [ 39.4065459, -7.9576527 ], [ 39.3984361, -7.9942671 ], [ 39.3758824, -8.0317558 ], [ 39.3760084, -8.0721414 ], [ 39.3883534, -8.1334842 ], [ 39.3563867, -8.1136635 ], [ 39.3155141, -8.1143413 ], [ 39.3407701, -8.1549236 ], [ 39.3284957, -8.1722059 ], [ 39.2885166, -8.165018 ], [ 39.2739214, -8.197768 ], [ 39.2534877, -8.2091242 ], [ 39.2381184, -8.2545052 ], [ 39.2403424, -8.2936885 ], [ 39.2641815, -8.3367245 ], [ 39.2634147, -8.3511613 ], [ 39.2906154, -8.3807882 ], [ 39.2750057, -8.4545273 ], [ 39.2940645, -8.4916352 ], [ 39.2803659, -8.5261889 ], [ 39.2908707, -8.5491243 ], [ 39.3161323, -8.5622516 ], [ 39.332092, -8.5996173 ], [ 39.3642288, -8.6199533 ], [ 39.3570274, -8.6743528 ], [ 39.3773035, -8.7220384 ], [ 39.3921938, -8.7352836 ], [ 39.4341823, -8.7472252 ], [ 39.4466795, -8.7974778 ], [ 39.4739352, -8.8332757 ], [ 39.5009006, -8.8422631 ], [ 39.524834, -8.9052562 ], [ 39.5518268, -8.928159 ], [ 39.5059529, -8.9355714 ], [ 39.4976199, -8.9080007 ], [ 39.4579063, -8.8652604 ], [ 39.4314722, -8.8682559 ], [ 39.3897051, -8.8331151 ], [ 39.3691326, -8.8653585 ], [ 39.3851171, -8.9071029 ], [ 39.3628446, -8.9281341 ], [ 39.3457771, -8.9728759 ], [ 39.3673103, -8.9865175 ], [ 39.3943433, -8.929778 ], [ 39.4219929, -8.9648056 ], [ 39.4453302, -8.9678715 ], [ 39.4787575, -8.9544253 ], [ 39.4927248, -9.0268422 ], [ 39.4666903, -9.0462094 ], [ 39.5079488, -9.0654876 ], [ 39.4754455, -9.0982687 ], [ 39.4673629, -9.1647851 ], [ 39.4858397, -9.2083245 ], [ 39.5066955, -9.1884474 ], [ 39.5337994, -9.1845417 ], [ 39.5342302, -9.1255113 ], [ 39.5491405, -9.0924032 ], [ 39.5777161, -9.1071025 ], [ 39.5991233, -9.1555691 ], [ 39.6379432, -9.178702 ], [ 39.6396117, -9.2410786 ], [ 39.6304389, -9.2621022 ], [ 39.645918, -9.2846297 ], [ 39.653732, -9.3699354 ], [ 39.621059, -9.386749 ], [ 39.6068222, -9.4091994 ], [ 39.58527, -9.4048537 ], [ 39.5669266, -9.3785914 ], [ 39.5427862, -9.377598 ], [ 39.5263404, -9.4012083 ], [ 39.5594471, -9.4082464 ], [ 39.5605274, -9.4342793 ], [ 39.5884573, -9.4476376 ], [ 39.6021753, -9.4239 ], [ 39.6286523, -9.4233381 ], [ 39.6544141, -9.4565426 ], [ 39.6534864, -9.4811084 ], [ 39.6892558, -9.499958 ], [ 39.6994179, -9.5425784 ], [ 39.7288057, -9.593951 ], [ 39.7203787, -9.6359169 ], [ 39.7492724, -9.6579114 ], [ 39.7379866, -9.6908567 ], [ 39.7573008, -9.7062283 ], [ 39.7180811, -9.7286497 ], [ 39.7300225, -9.7462568 ], [ 39.7575393, -9.7447057 ], [ 39.7624513, -9.7841563 ], [ 39.7839306, -9.7895702 ], [ 39.803178, -9.8139973 ], [ 39.8092918, -9.8491356 ], [ 39.7986671, -9.8872708 ], [ 39.7822939, -9.8957207 ], [ 39.7885462, -9.9270353 ], [ 39.7133612, -9.9550561 ], [ 39.705388, -9.9715497 ], [ 39.7281367, -9.9964455 ], [ 39.7565673, -9.9757104 ], [ 39.8200267, -9.9830351 ], [ 39.8299664, -10.0064653 ], [ 39.8773217, -10.0179421 ], [ 39.9166826, -10.0521152 ], [ 39.9415876, -10.0968441 ], [ 39.9735103, -10.1333212 ], [ 39.9962354, -10.1289473 ], [ 40.0728125, -10.1604065 ], [ 40.1214997, -10.1726142 ], [ 40.1363774, -10.1867374 ], [ 40.1230735, -10.2135864 ], [ 40.1106764, -10.2770282 ], [ 40.1539912, -10.2737842 ], [ 40.1886506, -10.2538724 ], [ 40.2056197, -10.2703885 ], [ 40.2240034, -10.3111533 ], [ 40.2490514, -10.2614482 ], [ 40.2909629, -10.26631 ], [ 40.3211819, -10.3427135 ], [ 40.3369797, -10.3589684 ], [ 40.367535, -10.3551393 ], [ 40.3881799, -10.3660626 ], [ 40.4154364, -10.3472215 ], [ 40.3866846, -10.3190002 ], [ 40.4014164, -10.2955614 ], [ 40.4454614, -10.351406 ], [ 40.4209669, -10.3722601 ], [ 40.4186594, -10.4270912 ], [ 40.4298836, -10.4623444 ], [ 40.3944244, -10.5107233 ], [ 40.3916649, -10.5111976 ], [ 40.3876261, -10.5137528 ], [ 40.38334, -10.5182861 ], [ 40.3808672, -10.5218304 ], [ 40.3787242, -10.5265286 ], [ 40.376746, -10.5281771 ], [ 40.374026, -10.5300729 ], [ 40.3710587, -10.5383153 ], [ 40.3719654, -10.5401287 ], [ 40.3706466, -10.5449093 ], [ 40.3706466, -10.5484536 ], [ 40.3689156, -10.5514209 ], [ 40.3672671, -10.5530694 ], [ 40.3624865, -10.5613943 ], [ 40.3619972, -10.5640852 ], [ 40.3403967, -10.5730986 ], [ 40.3377591, -10.5726865 ], [ 40.3343796, -10.5715325 ], [ 40.3292693, -10.5699665 ], [ 40.3118777, -10.5698016 ], [ 40.3088279, -10.5714501 ], [ 40.3064376, -10.5709556 ], [ 40.3040473, -10.5701313 ], [ 40.2903648, -10.5700489 ], [ 40.289046, -10.5722744 ], [ 40.2883991, -10.5756706 ], [ 40.2538506, -10.5901606 ], [ 40.2519548, -10.592386 ], [ 40.2427232, -10.5973315 ], [ 40.2405802, -10.5960951 ], [ 40.2332444, -10.6003812 ], [ 40.2333268, -10.6026067 ], [ 40.232585, -10.6040903 ], [ 40.2307716, -10.6057388 ], [ 40.2282989, -10.6064807 ], [ 40.2254965, -10.6069752 ], [ 40.2230237, -10.6066455 ], [ 40.2084345, -10.6222238 ], [ 40.2081048, -10.6233778 ], [ 40.2085994, -10.6250263 ], [ 40.1905483, -10.6468688 ], [ 40.1880756, -10.6471161 ], [ 40.1850259, -10.6481052 ], [ 40.1776076, -10.652721 ], [ 40.1767834, -10.6561004 ], [ 40.1757943, -10.6598919 ], [ 40.150325, -10.6846194 ], [ 40.1471896, -10.6860564 ], [ 40.1423298, -10.6883285 ], [ 40.1373019, -10.6883285 ], [ 40.1317794, -10.6940158 ], [ 40.1312025, -10.6972304 ], [ 40.1290594, -10.6980546 ], [ 40.1055684, -10.7168475 ], [ 40.1029308, -10.7201445 ], [ 40.0817476, -10.734981 ], [ 40.07911, -10.7360525 ], [ 40.078533, -10.7373713 ], [ 40.0786979, -10.739267 ], [ 40.0784506, -10.7400089 ], [ 40.07639, -10.7402561 ], [ 40.0722687, -10.7414925 ], [ 40.069796, -10.7423168 ], [ 40.0534759, -10.7588017 ], [ 40.0476237, -10.7621811 ], [ 40.039134, -10.77438 ], [ 40.0386394, -10.775534 ], [ 40.0375679, -10.7763582 ], [ 40.0366612, -10.7775122 ], [ 40.0356721, -10.7780891 ], [ 40.0055046, -10.8022396 ], [ 40.0049277, -10.8057839 ], [ 39.9987767, -10.8105598 ], [ 39.9964379, -10.8120482 ], [ 39.9490436, -10.8211973 ], [ 39.9466925, -10.8233073 ], [ 39.9458291, -10.8240822 ], [ 39.9415727, -10.8242183 ], [ 39.938246, -10.8234228 ], [ 39.935526, -10.822681 ], [ 39.9326411, -10.8224337 ], [ 39.9267889, -10.8231755 ], [ 39.9260471, -10.8243295 ], [ 39.9245635, -10.826967 ], [ 39.9199461, -10.8305631 ], [ 39.9148373, -10.8299343 ], [ 39.9105512, -10.8296046 ], [ 39.9062652, -10.8316653 ], [ 39.9033803, -10.8337259 ], [ 39.8990942, -10.834715 ], [ 39.8958796, -10.8366932 ], [ 39.8944784, -10.8384241 ], [ 39.8922529, -10.8411441 ], [ 39.887225, -10.8418035 ], [ 39.8848347, -10.8441938 ], [ 39.8817026, -10.8454302 ], [ 39.8498042, -10.8633164 ], [ 39.8470841, -10.8656243 ], [ 39.8457653, -10.8681795 ], [ 39.8446114, -10.8707346 ], [ 39.8408198, -10.8733722 ], [ 39.8390889, -10.8741965 ], [ 39.837358, -10.8769989 ], [ 39.834061, -10.8747734 ], [ 39.8166694, -10.886725 ], [ 39.8162573, -10.8894451 ], [ 39.8149385, -10.8924123 ], [ 39.8043057, -10.899336 ], [ 39.8003493, -10.8972754 ], [ 39.7975468, -10.896616 ], [ 39.7799079, -10.9046112 ], [ 39.7778473, -10.9054355 ], [ 39.7747151, -10.9081555 ], [ 39.7724197, -10.9100106 ], [ 39.7693647, -10.9103161 ], [ 39.7636621, -10.9100106 ], [ 39.7583641, -10.9129661 ], [ 39.755312, -10.9155095 ], [ 39.747515, -10.9192004 ], [ 39.744218, -10.9192004 ], [ 39.7416628, -10.9190356 ], [ 39.7383658, -10.9181289 ], [ 39.7227875, -10.9238986 ], [ 39.721139, -10.9253823 ], [ 39.7187487, -10.9262065 ], [ 39.7156123, -10.9261261 ], [ 39.7155341, -10.9261241 ], [ 39.7131438, -10.9263714 ], [ 39.7107535, -10.9283496 ], [ 39.708528, -10.9302453 ], [ 39.7023462, -10.9319763 ], [ 39.7006152, -10.931729 ], [ 39.6696821, -10.9377996 ], [ 39.6678926, -10.9396418 ], [ 39.6606838, -10.9401671 ], [ 39.6587434, -10.9401363 ], [ 39.6477809, -10.9407957 ], [ 39.643907, -10.9422794 ], [ 39.64061, -10.9412078 ], [ 39.6323675, -10.9431036 ], [ 39.6318729, -10.9455764 ], [ 39.6297299, -10.9459061 ], [ 39.6254438, -10.9442576 ], [ 39.6217347, -10.9442576 ], [ 39.6185201, -10.9459061 ], [ 39.6103601, -10.9478843 ], [ 39.6063589, -10.9494517 ], [ 39.5919793, -10.956374 ], [ 39.5914848, -10.9597534 ], [ 39.5863744, -10.9627207 ], [ 39.583572, -10.9632977 ], [ 39.5821708, -10.9643692 ], [ 39.5799453, -10.9667595 ], [ 39.5731865, -10.9693147 ], [ 39.5708786, -10.9685729 ], [ 39.568818, -10.9687377 ], [ 39.5645319, -10.9703862 ], [ 39.5627185, -10.9721171 ], [ 39.5585149, -10.9732711 ], [ 39.5500251, -10.9726117 ], [ 39.5384856, -10.9752493 ], [ 39.5360953, -10.9771451 ], [ 39.5313147, -10.9787936 ], [ 39.5244734, -10.9805245 ], [ 39.5224128, -10.9811015 ], [ 39.5148297, -10.9894264 ], [ 39.5142527, -10.991487 ], [ 39.5126042, -10.9948664 ], [ 39.512357, -10.9972567 ], [ 39.5041145, -11.0053343 ], [ 39.5011472, -11.006241 ], [ 39.4992514, -11.0070653 ], [ 39.4968611, -11.0073125 ], [ 39.4843325, -11.0142362 ], [ 39.4816125, -11.0164617 ], [ 39.4788925, -11.0176981 ], [ 39.4676003, -11.0236327 ], [ 39.4683421, -11.0267648 ], [ 39.4568026, -11.0378097 ], [ 39.4544123, -11.038634 ], [ 39.4517747, -11.0384691 ], [ 39.424657, -11.0538826 ], [ 39.4225963, -11.0537177 ], [ 39.4174036, -11.0554486 ], [ 39.4154254, -11.0577565 ], [ 39.4130351, -11.0598171 ], [ 39.4059465, -11.0700378 ], [ 39.404875, -11.072016 ], [ 39.3939125, -11.0706148 ], [ 39.3902034, -11.0707796 ], [ 39.38295, -11.0730051 ], [ 39.3798179, -11.0728403 ], [ 39.3762736, -11.0735821 ], [ 39.374213, -11.0756427 ], [ 39.3309399, -11.1011944 ], [ 39.3191532, -11.1218006 ], [ 39.3179992, -11.1241909 ], [ 39.3156914, -11.1264988 ], [ 39.3129713, -11.1250976 ], [ 39.2756329, -11.1533281 ], [ 39.2719238, -11.157779 ], [ 39.2682147, -11.1586033 ], [ 39.2662365, -11.1590978 ], [ 39.2644231, -11.1604991 ], [ 39.2627746, -11.16223 ], [ 39.2604667, -11.1638785 ], [ 39.2572522, -11.1656094 ], [ 39.2414266, -11.1740992 ], [ 39.2051597, -11.1679997 ], [ 39.2002142, -11.1679173 ], [ 39.194939, -11.1671755 ], [ 39.1927135, -11.1662688 ], [ 39.1911475, -11.1635488 ], [ 39.1890868, -11.1604991 ], [ 39.1421047, -11.1454153 ], [ 39.1372416, -11.1464044 ], [ 39.1304828, -11.1465693 ], [ 39.1283397, -11.1454977 ], [ 39.1260319, -11.1445086 ], [ 39.11441, -11.1460747 ], [ 39.1085578, -11.1495366 ], [ 39.0828412, -11.1562954 ], [ 39.0770715, -11.1587681 ], [ 39.0656969, -11.15951 ], [ 39.0630593, -11.1572845 ], [ 39.0466748, -11.1611216 ], [ 39.0434106, -11.1629495 ], [ 39.0399505, -11.1654956 ], [ 39.0274159, -11.1670625 ], [ 39.0236947, -11.1664749 ], [ 39.0220626, -11.167193 ], [ 39.0199734, -11.1662138 ], [ 39.0167092, -11.1669972 ], [ 39.0148813, -11.1683681 ], [ 39.0086792, -11.1696086 ], [ 39.0056109, -11.1688904 ], [ 38.9972545, -11.1622967 ], [ 38.9958182, -11.1622967 ], [ 38.9667666, -11.1707837 ], [ 38.9618703, -11.1723505 ], [ 38.9576268, -11.1727422 ], [ 38.9548849, -11.1728075 ], [ 38.9525346, -11.1724158 ], [ 38.9454186, -11.1711101 ], [ 38.9388249, -11.1646469 ], [ 38.9330799, -11.1655609 ], [ 38.9305338, -11.1658873 ], [ 38.9176075, -11.1666708 ], [ 38.9152572, -11.166736 ], [ 38.9100345, -11.1675847 ], [ 38.9074884, -11.1684987 ], [ 38.9045506, -11.1701961 ], [ 38.9009599, -11.1705225 ], [ 38.887446, -11.1716324 ], [ 38.8864577, -11.171186 ], [ 38.8824191, -11.1721546 ], [ 38.8790896, -11.1733298 ], [ 38.8770005, -11.1750924 ], [ 38.8741142, -11.1776474 ], [ 38.8698617, -11.1813133 ], [ 38.8675889, -11.1818265 ], [ 38.8632631, -11.1835128 ], [ 38.8627499, -11.1845393 ], [ 38.8626033, -11.1861523 ], [ 38.86209, -11.1882052 ], [ 38.8153067, -11.2275158 ], [ 38.8132176, -11.2288215 ], [ 38.8097576, -11.2315635 ], [ 38.8077337, -11.2335873 ], [ 38.7880179, -11.2418131 ], [ 38.7839702, -11.2427271 ], [ 38.780249, -11.2426618 ], [ 38.7723496, -11.248211 ], [ 38.7710439, -11.2508224 ], [ 38.7696729, -11.2534338 ], [ 38.7457788, -11.2714523 ], [ 38.7455177, -11.2702119 ], [ 38.7431674, -11.269559 ], [ 38.7412742, -11.2694285 ], [ 38.7112434, -11.265642 ], [ 38.7086973, -11.2662295 ], [ 38.7015813, -11.2679922 ], [ 38.700145, -11.2685145 ], [ 38.6770996, -11.2763486 ], [ 38.6716157, -11.2753693 ], [ 38.6692002, -11.2746512 ], [ 38.6548376, -11.2769362 ], [ 38.6517692, -11.2785683 ], [ 38.6492884, -11.2803962 ], [ 38.6470688, -11.2819631 ], [ 38.6340772, -11.2885568 ], [ 38.6321186, -11.2894055 ], [ 38.6302254, -11.2909723 ], [ 38.6290503, -11.292735 ], [ 38.6227829, -11.2978272 ], [ 38.6189964, -11.2997857 ], [ 38.6104442, -11.3068364 ], [ 38.6087468, -11.3097742 ], [ 38.6033282, -11.3157151 ], [ 38.5994764, -11.3172819 ], [ 38.5917076, -11.3245938 ], [ 38.5894879, -11.3261606 ], [ 38.5896185, -11.327858 ], [ 38.5884433, -11.3290984 ], [ 38.5883128, -11.3311875 ], [ 38.5868112, -11.3313834 ], [ 38.5864848, -11.3329502 ], [ 38.5776061, -11.3404579 ], [ 38.5706207, -11.3415678 ], [ 38.5681399, -11.3426123 ], [ 38.5675523, -11.3460071 ], [ 38.5434624, -11.3624588 ], [ 38.5396106, -11.3635686 ], [ 38.5381743, -11.3644173 ], [ 38.5369339, -11.3659188 ], [ 38.5353671, -11.3674857 ], [ 38.5334086, -11.3693136 ], [ 38.5317112, -11.3694442 ], [ 38.5227672, -11.3775395 ], [ 38.5206781, -11.3807384 ], [ 38.5155206, -11.3864182 ], [ 38.5143455, -11.387071 ], [ 38.5063155, -11.3950357 ], [ 38.5042917, -11.3958191 ], [ 38.5042917, -11.3978429 ], [ 38.5044875, -11.3986916 ], [ 38.5052057, -11.400389 ], [ 38.5001788, -11.4041102 ], [ 38.4982855, -11.4069175 ], [ 38.497698, -11.4086149 ], [ 38.4962617, -11.4099206 ], [ 38.4961964, -11.4120749 ], [ 38.4946949, -11.4132501 ], [ 38.4924099, -11.4133806 ], [ 38.4907125, -11.4153392 ], [ 38.4906472, -11.417363 ], [ 38.4780474, -11.4189298 ], [ 38.4760235, -11.4180158 ], [ 38.4734774, -11.4181464 ], [ 38.4698868, -11.4179505 ], [ 38.4671449, -11.4190604 ], [ 38.4601729, -11.418098 ], [ 38.4596371, -11.4174283 ], [ 38.4555895, -11.4148169 ], [ 38.4546755, -11.4137071 ], [ 38.4356778, -11.3949051 ], [ 38.4343721, -11.3952968 ], [ 38.4339921, -11.3954868 ], [ 38.4112614, -11.3894865 ], [ 38.4084541, -11.3892254 ], [ 38.401077, -11.386614 ], [ 38.4000977, -11.3857653 ], [ 38.3741145, -11.3779965 ], [ 38.3717643, -11.3779965 ], [ 38.3606007, -11.3693789 ], [ 38.3591644, -11.3649396 ], [ 38.3467604, -11.3481615 ], [ 38.3451282, -11.3480309 ], [ 38.3205813, -11.3271399 ], [ 38.2897018, -11.3304694 ], [ 38.2862417, -11.3288373 ], [ 38.284022, -11.3287067 ], [ 38.2823899, -11.3275316 ], [ 38.2723776, -11.2948145 ], [ 38.2705566, -11.2932536 ], [ 38.2643132, -11.2872703 ], [ 38.2626223, -11.2875955 ], [ 38.2522756, -11.2858276 ], [ 38.2508575, -11.284705 ], [ 38.246614, -11.2838563 ], [ 38.2437415, -11.2839216 ], [ 38.2374742, -11.280331 ], [ 38.2370172, -11.2797434 ], [ 38.2286608, -11.2778501 ], [ 38.226637, -11.2768056 ], [ 38.225723, -11.2770667 ], [ 38.223895, -11.2788947 ], [ 38.2233453, -11.2791946 ], [ 38.2206566, -11.278399 ], [ 38.2199127, -11.2779154 ], [ 38.2191293, -11.2770014 ], [ 38.2175625, -11.2753041 ], [ 38.2148205, -11.2742595 ], [ 38.2122744, -11.2747165 ], [ 38.2107729, -11.2739331 ], [ 38.2079004, -11.2729538 ], [ 38.2064641, -11.2742595 ], [ 38.2051584, -11.2744554 ], [ 38.2032652, -11.2737372 ], [ 38.2003274, -11.2744554 ], [ 38.1814112, -11.2775237 ], [ 38.1807257, -11.2765445 ], [ 38.1788651, -11.275859 ], [ 38.1769066, -11.2746838 ], [ 38.1548731, -11.2724315 ], [ 38.1528656, -11.274439 ], [ 38.1508581, -11.2751245 ], [ 38.1187871, -11.2603866 ], [ 38.1160452, -11.2581342 ], [ 38.1143804, -11.2561267 ], [ 38.1120302, -11.2560778 ], [ 38.109582, -11.2562247 ], [ 38.1071338, -11.2568612 ], [ 38.1048815, -11.2574488 ], [ 38.1036085, -11.2586239 ], [ 38.0979287, -11.2604355 ], [ 38.0963129, -11.2602397 ], [ 38.0884788, -11.2639609 ], [ 38.0865203, -11.2652829 ], [ 38.0640037, -11.2765395 ], [ 38.0128207, -11.270231 ], [ 38.0114549, -11.2675646 ], [ 38.0065122, -11.2635974 ], [ 38.0040409, -11.2641177 ], [ 37.971263, -11.2721821 ], [ 37.9462893, -11.2591099 ], [ 37.945639, -11.2589799 ], [ 37.9131212, -11.2650282 ], [ 37.8705879, -11.2857095 ], [ 37.8586864, -11.305025 ], [ 37.8333876, -11.3077565 ], [ 37.8272092, -11.3554276 ], [ 37.8270141, -11.3573787 ], [ 37.8272092, -11.3615409 ], [ 37.8274693, -11.3623864 ], [ 37.8095195, -11.4027085 ], [ 37.8081538, -11.4045295 ], [ 37.8072433, -11.4078463 ], [ 37.8063978, -11.4099924 ], [ 37.804837, -11.4123337 ], [ 37.7872123, -11.4232597 ], [ 37.7778472, -11.4544768 ], [ 37.7885781, -11.4831574 ], [ 37.7872123, -11.4867344 ], [ 37.7863669, -11.4912219 ], [ 37.7856515, -11.4962946 ], [ 37.7775871, -11.517171 ], [ 37.7741402, -11.5197725 ], [ 37.7572309, -11.5403237 ], [ 37.7548897, -11.5431202 ], [ 37.7527435, -11.544486 ], [ 37.7380454, -11.5514448 ], [ 37.7367447, -11.5539812 ], [ 37.656686, -11.5772639 ], [ 37.6029015, -11.6186265 ], [ 37.6015358, -11.6190167 ], [ 37.5806594, -11.6270161 ], [ 37.5009258, -11.614074 ], [ 37.4433693, -11.6379421 ], [ 37.4418085, -11.6384624 ], [ 37.4411581, -11.6408687 ], [ 37.428151, -11.6571926 ], [ 37.426395, -11.6573227 ], [ 37.4241188, -11.6624605 ], [ 37.4252894, -11.6635011 ], [ 37.3966738, -11.6867188 ], [ 37.3943325, -11.6863285 ], [ 37.3925765, -11.6866537 ], [ 37.3906255, -11.6873691 ], [ 37.3392474, -11.6783292 ], [ 37.3175905, -11.6631108 ], [ 37.3177856, -11.6610947 ], [ 37.3170702, -11.6594689 ], [ 37.3156395, -11.6582982 ], [ 37.3048944, -11.6473807 ], [ 37.3045834, -11.6461366 ], [ 37.3034128, -11.6440554 ], [ 37.3015267, -11.6419093 ], [ 37.3005512, -11.6408687 ], [ 37.2990554, -11.6413239 ], [ 37.2714803, -11.6339099 ], [ 37.2205575, -11.6553066 ], [ 37.2094364, -11.650559 ], [ 37.2085259, -11.6494534 ], [ 37.2082657, -11.6485429 ], [ 37.208656, -11.6480226 ], [ 37.2053391, -11.6472422 ], [ 37.2051759, -11.6473619 ], [ 37.1850481, -11.6410638 ], [ 37.1834872, -11.6410638 ], [ 37.181341, -11.6401533 ], [ 37.1793249, -11.6390477 ], [ 37.1771137, -11.6383323 ], [ 37.1750976, -11.6380071 ], [ 37.1674234, -11.6354057 ], [ 37.1657325, -11.6344302 ], [ 37.1635863, -11.6351456 ], [ 37.1594891, -11.6333246 ], [ 37.1586436, -11.6320238 ], [ 37.1511645, -11.6310483 ], [ 37.1496687, -11.6307231 ], [ 37.1486281, -11.6305931 ], [ 37.1477827, -11.6316987 ], [ 37.1229391, -11.630528 ], [ 37.1220936, -11.6292273 ], [ 37.1213132, -11.6282518 ], [ 37.1193621, -11.6270811 ], [ 37.1037536, -11.6239594 ], [ 37.1029081, -11.6246748 ], [ 37.1024529, -11.6258455 ], [ 37.0802155, -11.6241109 ], [ 37.0800807, -11.6235042 ], [ 37.0787149, -11.6223336 ], [ 37.0787149, -11.6207727 ], [ 37.0722764, -11.6127083 ], [ 37.0707806, -11.6126433 ], [ 37.0694148, -11.6118628 ], [ 37.0537413, -11.5997662 ], [ 37.0524405, -11.5983354 ], [ 37.0499692, -11.5958641 ], [ 37.0486685, -11.5951487 ], [ 37.0467174, -11.5952788 ], [ 37.044051, -11.5942382 ], [ 37.0430754, -11.5931326 ], [ 37.0406041, -11.5924822 ], [ 37.0392383, -11.5925473 ], [ 37.0305236, -11.5886451 ], [ 37.0292228, -11.5872143 ], [ 37.0277921, -11.5856535 ], [ 37.0261011, -11.5858486 ], [ 37.0063954, -11.5840276 ], [ 37.0041842, -11.5835073 ], [ 37.0007373, -11.5827919 ], [ 36.9982659, -11.5821416 ], [ 36.994689, -11.5805807 ], [ 36.989356, -11.5799304 ], [ 36.9864294, -11.5796052 ], [ 36.9843483, -11.5803206 ], [ 36.9751783, -11.5844178 ], [ 36.9723818, -11.5857185 ], [ 36.9712111, -11.5874745 ], [ 36.9650978, -11.5914417 ], [ 36.963602, -11.5914417 ], [ 36.9624964, -11.5924172 ], [ 36.9426605, -11.59749 ], [ 36.9389535, -11.5966445 ], [ 36.9359397, -11.59751 ], [ 36.9351164, -11.5977501 ], [ 36.9341204, -11.5977501 ], [ 36.9331653, -11.5978151 ], [ 36.932515, -11.5982054 ], [ 36.9316045, -11.5982054 ], [ 36.9306289, -11.599311 ], [ 36.9287429, -11.6021725 ], [ 36.9278974, -11.6039935 ], [ 36.8909572, -11.5890353 ], [ 36.8894614, -11.5880598 ], [ 36.8883558, -11.5878647 ], [ 36.8871852, -11.5881248 ], [ 36.8763893, -11.595799 ], [ 36.8750235, -11.5959291 ], [ 36.8617563, -11.5876046 ], [ 36.8620815, -11.5866941 ], [ 36.8622766, -11.5862388 ], [ 36.8625367, -11.5853934 ], [ 36.8580492, -11.5842877 ], [ 36.855773, -11.5853283 ], [ 36.8527163, -11.5846129 ], [ 36.8510254, -11.5844829 ], [ 36.8471883, -11.584808 ], [ 36.844782, -11.5837675 ], [ 36.8440258, -11.5838235 ], [ 36.843026, -11.5838975 ], [ 36.8296287, -11.5752478 ], [ 36.8278001, -11.5727257 ], [ 36.8214993, -11.5699799 ], [ 36.8197433, -11.5696547 ], [ 36.8001026, -11.5781744 ], [ 36.7993872, -11.5798653 ], [ 36.7976962, -11.5859787 ], [ 36.7970459, -11.5880598 ], [ 36.7956151, -11.5988557 ], [ 36.7962004, -11.5997662 ], [ 36.794965, -11.6051923 ], [ 36.7944445, -11.6069852 ], [ 36.775324, -11.6348204 ], [ 36.7749004, -11.6354134 ], [ 36.7740233, -11.6366414 ], [ 36.7723324, -11.6411288 ], [ 36.7525616, -11.6533555 ], [ 36.7505695, -11.653281 ], [ 36.7452304, -11.6566667 ], [ 36.7447095, -11.6578387 ], [ 36.7432771, -11.6587503 ], [ 36.7410633, -11.6596618 ], [ 36.736766, -11.66155 ], [ 36.7361737, -11.6638114 ], [ 36.7109821, -11.6778277 ], [ 36.7089637, -11.6792602 ], [ 36.7083126, -11.6804322 ], [ 36.6839611, -11.7077136 ], [ 36.6486711, -11.7249028 ], [ 36.6480332, -11.7248391 ], [ 36.6463494, -11.7255591 ], [ 36.64509, -11.7265306 ], [ 36.6207385, -11.7360368 ], [ 36.6053724, -11.7189778 ], [ 36.6047213, -11.7189778 ], [ 36.6050468, -11.7162431 ], [ 36.6051107, -11.7152001 ], [ 36.6046562, -11.7147456 ], [ 36.6036144, -11.7148758 ], [ 36.5781561, -11.698533 ], [ 36.5763981, -11.6984679 ], [ 36.5749656, -11.6985981 ], [ 36.5729472, -11.6991841 ], [ 36.5662408, -11.7081694 ], [ 36.5647432, -11.7105134 ], [ 36.5617181, -11.7154867 ], [ 36.5607064, -11.718522 ], [ 36.5446891, -11.7343439 ], [ 36.5430613, -11.7350601 ], [ 36.5303647, -11.7499054 ], [ 36.5293881, -11.7514681 ], [ 36.5202074, -11.7612347 ], [ 36.518775, -11.7612347 ], [ 36.5172124, -11.7609742 ], [ 36.5115477, -11.7592814 ], [ 36.510571, -11.7590209 ], [ 36.5089433, -11.7571978 ], [ 36.507576, -11.7545283 ], [ 36.5070687, -11.7530629 ], [ 36.5057528, -11.7493845 ], [ 36.505157, -11.7486695 ], [ 36.5047762, -11.7482125 ], [ 36.5043204, -11.7465196 ], [ 36.5045158, -11.7451034 ], [ 36.5048413, -11.7427432 ], [ 36.5051669, -11.7409201 ], [ 36.504439, -11.7399843 ], [ 36.5045964, -11.7355686 ], [ 36.5048413, -11.7343439 ], [ 36.5046764, -11.7333218 ], [ 36.5056226, -11.7298513 ], [ 36.5067946, -11.7280282 ], [ 36.5114744, -11.718228 ], [ 36.5113524, -11.716764 ], [ 36.511157, -11.7152665 ], [ 36.510571, -11.7142247 ], [ 36.512329, -11.7083647 ], [ 36.5138266, -11.7072578 ], [ 36.5148174, -11.7062329 ], [ 36.5184495, -11.7018536 ], [ 36.5179937, -11.7002259 ], [ 36.5172124, -11.6994445 ], [ 36.5164961, -11.6986632 ], [ 36.5159752, -11.6976865 ], [ 36.4930562, -11.6813437 ], [ 36.4303545, -11.6851853 ], [ 36.3920043, -11.6814088 ], [ 36.3910276, -11.6793253 ], [ 36.3900509, -11.6783486 ], [ 36.3876418, -11.6775673 ], [ 36.3863396, -11.6778928 ], [ 36.3845816, -11.6795857 ], [ 36.3841259, -11.6810182 ], [ 36.3742193, -11.6897087 ], [ 36.3731873, -11.6904592 ], [ 36.3692806, -11.6961239 ], [ 36.3686295, -11.6983376 ], [ 36.3328186, -11.707974 ], [ 36.3293026, -11.7073229 ], [ 36.3198484, -11.7150842 ], [ 36.3191453, -11.7157873 ], [ 36.2880874, -11.7210613 ], [ 36.2686844, -11.6901337 ], [ 36.2662102, -11.6905243 ], [ 36.2641918, -11.6913708 ], [ 36.2415332, -11.6972959 ], [ 36.240817, -11.6965796 ], [ 36.2398403, -11.6964494 ], [ 36.2063734, -11.6983376 ], [ 36.2056571, -11.6968401 ], [ 36.2047456, -11.696189 ], [ 36.2040294, -11.6948868 ], [ 36.2025318, -11.693845 ], [ 36.2020109, -11.6933892 ], [ 36.1995367, -11.690329 ], [ 36.1991461, -11.6892872 ], [ 36.1962812, -11.6849899 ], [ 36.1946534, -11.6847295 ], [ 36.1906166, -11.6804973 ], [ 36.1907468, -11.67913 ], [ 36.186189, -11.6705353 ], [ 36.185603, -11.669754 ], [ 36.1849519, -11.6689076 ], [ 36.1849519, -11.6680611 ], [ 36.185603, -11.6675402 ], [ 36.1846915, -11.66448 ], [ 36.1837148, -11.6633731 ], [ 36.1829986, -11.6623314 ], [ 36.1824777, -11.660964 ], [ 36.1831288, -11.6597269 ], [ 36.1841706, -11.6440352 ], [ 36.1835195, -11.6428632 ], [ 36.1828033, -11.6414959 ], [ 36.1824126, -11.6404541 ], [ 36.1821521, -11.6394775 ], [ 36.1822173, -11.6382404 ], [ 36.187947, -11.6134332 ], [ 36.186775, -11.6125216 ], [ 36.1863844, -11.6096567 ], [ 36.1868401, -11.6087452 ], [ 36.1872959, -11.6078987 ], [ 36.1872959, -11.6056199 ], [ 36.1865797, -11.6031456 ], [ 36.1869052, -11.6019736 ], [ 36.1929605, -11.5943557 ], [ 36.1938721, -11.5929232 ], [ 36.194393, -11.5920768 ], [ 36.1950441, -11.5914908 ], [ 36.1999274, -11.5812684 ], [ 36.1994716, -11.5800964 ], [ 36.1988205, -11.5788593 ], [ 36.1972579, -11.577492 ], [ 36.1842357, -11.5718925 ], [ 36.183845, -11.571046 ], [ 36.1846915, -11.5632327 ], [ 36.1857332, -11.5625816 ], [ 36.1863192, -11.5608236 ], [ 36.1864495, -11.5565263 ], [ 36.1859937, -11.5541172 ], [ 36.1856681, -11.552229 ], [ 36.1854077, -11.5508617 ], [ 36.1844961, -11.5493641 ], [ 36.1821521, -11.5453272 ], [ 36.1815662, -11.5448715 ], [ 36.1803942, -11.5450017 ], [ 36.1790919, -11.5459784 ], [ 36.1779851, -11.5471504 ], [ 36.1770084, -11.5491688 ], [ 36.1613167, -11.5710135 ], [ 36.1594936, -11.5706879 ], [ 36.1518756, -11.5677579 ], [ 36.1514198, -11.5656744 ], [ 36.1471876, -11.5598144 ], [ 36.1461459, -11.5590331 ], [ 36.1309751, -11.5528475 ], [ 36.1307146, -11.5516104 ], [ 36.1298682, -11.5503082 ], [ 36.1292171, -11.5490711 ], [ 36.1283055, -11.5484851 ], [ 36.1267429, -11.5458807 ], [ 36.1258964, -11.5441227 ], [ 36.128566, -11.5281054 ], [ 36.12798, -11.5265428 ], [ 36.12798, -11.5214641 ], [ 36.1281753, -11.5195759 ], [ 36.1274591, -11.5163204 ], [ 36.1266777, -11.5154088 ], [ 36.1253104, -11.5146926 ], [ 36.1221851, -11.5126091 ], [ 36.1208829, -11.5121533 ], [ 36.1195807, -11.5118929 ], [ 36.1087723, -11.5253708 ], [ 36.1072747, -11.5260219 ], [ 36.1058423, -11.526673 ], [ 36.1054772, -11.5268878 ], [ 36.0613065, -11.5335747 ], [ 36.0615018, -11.5327283 ], [ 36.0619576, -11.5318819 ], [ 36.0623483, -11.5309052 ], [ 36.0619576, -11.529603 ], [ 36.0613716, -11.5283659 ], [ 36.0605903, -11.527845 ], [ 36.0417733, -11.5003682 ], [ 36.0420337, -11.4991311 ], [ 36.0426197, -11.4982847 ], [ 36.042815, -11.497308 ], [ 36.0429452, -11.4963965 ], [ 36.042815, -11.4952245 ], [ 36.0417081, -11.4940525 ], [ 36.0335042, -11.4912527 ], [ 36.0314857, -11.490211 ], [ 36.0272535, -11.4891041 ], [ 36.0258862, -11.4891041 ], [ 36.0053763, -11.4836348 ], [ 36.0043345, -11.482593 ], [ 36.0024463, -11.481421 ], [ 36.0014046, -11.4811606 ], [ 35.9980188, -11.4787515 ], [ 35.997563, -11.4776446 ], [ 35.9974328, -11.4769935 ], [ 35.9966515, -11.4762121 ], [ 35.9951539, -11.4762121 ], [ 35.9903357, -11.4728264 ], [ 35.9902706, -11.4715893 ], [ 35.9902706, -11.4701568 ], [ 35.9885777, -11.4627993 ], [ 35.9877964, -11.4614971 ], [ 35.9872755, -11.4605204 ], [ 35.9867546, -11.459088 ], [ 35.9853222, -11.4574602 ], [ 35.98431, -11.4574602 ], [ 35.9833037, -11.4575904 ], [ 35.9824573, -11.4583067 ], [ 35.9726256, -11.4590229 ], [ 35.9728209, -11.4576555 ], [ 35.967026, -11.4525769 ], [ 35.9661145, -11.4530327 ], [ 35.9648774, -11.4536838 ], [ 35.964031, -11.4544651 ], [ 35.9644216, -11.4581113 ], [ 35.9650727, -11.4590229 ], [ 35.9659843, -11.46026 ], [ 35.956999, -11.4615622 ], [ 35.9575199, -11.46026 ], [ 35.9561525, -11.4530978 ], [ 35.955241, -11.4519258 ], [ 35.9521808, -11.4454798 ], [ 35.9523761, -11.4436567 ], [ 35.9493159, -11.4295277 ], [ 35.9484695, -11.428551 ], [ 35.9447582, -11.4237979 ], [ 35.9444326, -11.4230166 ], [ 35.9435862, -11.4226259 ], [ 35.9426746, -11.4224306 ], [ 35.9382471, -11.4288115 ], [ 35.9374006, -11.4293323 ], [ 35.9362937, -11.4297881 ], [ 35.9356426, -11.4309601 ], [ 35.9287409, -11.4391641 ], [ 35.9284153, -11.4383828 ], [ 35.9273085, -11.4375363 ], [ 35.925876, -11.4368201 ], [ 35.9192736, -11.4362964 ], [ 35.9189743, -11.4364294 ], [ 35.9104448, -11.4370154 ], [ 35.909403, -11.4359737 ], [ 35.908231, -11.4349319 ], [ 35.9056917, -11.4336948 ], [ 35.9045848, -11.4334994 ], [ 35.902957, -11.4330437 ], [ 35.8890233, -11.4294626 ], [ 35.888242, -11.4287464 ], [ 35.8873955, -11.4272488 ], [ 35.8862886, -11.426793 ], [ 35.8853771, -11.4264024 ], [ 35.8842051, -11.425621 ], [ 35.8807542, -11.4255559 ], [ 35.8799078, -11.4265977 ], [ 35.8744385, -11.4299183 ], [ 35.8728107, -11.429723 ], [ 35.8704016, -11.429723 ], [ 35.8683181, -11.4309601 ], [ 35.8534728, -11.419696 ], [ 35.8531472, -11.4186542 ], [ 35.852431, -11.4175473 ], [ 35.8171743, -11.4180083 ], [ 35.816063, -11.418244 ], [ 35.8116517, -11.4195573 ], [ 35.8111803, -11.4203655 ], [ 35.7813787, -11.4626266 ], [ 35.7481086, -11.4744125 ], [ 35.7474014, -11.4744462 ], [ 35.7464586, -11.4738737 ], [ 35.7457851, -11.4733686 ], [ 35.7451453, -11.4730319 ], [ 35.7445391, -11.4727288 ], [ 35.744034, -11.4724594 ], [ 35.7429564, -11.4722574 ], [ 35.7391176, -11.4696981 ], [ 35.7388819, -11.4689236 ], [ 35.738141, -11.4672399 ], [ 35.7379053, -11.4670715 ], [ 35.7369961, -11.4702032 ], [ 35.7365247, -11.4713818 ], [ 35.7359859, -11.4736717 ], [ 35.7355818, -11.4761299 ], [ 35.7354814, -11.4767322 ], [ 35.7354134, -11.4771401 ], [ 35.7291837, -11.4767024 ], [ 35.7283755, -11.4762983 ], [ 35.723156, -11.4753891 ], [ 35.7218427, -11.4754227 ], [ 35.7152089, -11.4774095 ], [ 35.7146028, -11.4775779 ], [ 35.7141314, -11.4775779 ], [ 35.7135252, -11.4774095 ], [ 35.709619, -11.5086254 ], [ 35.6508576, -11.5505834 ], [ 35.621056, -11.5552642 ], [ 35.6194396, -11.5552642 ], [ 35.6185978, -11.5551295 ], [ 35.6072833, -11.5587663 ], [ 35.6064414, -11.5590357 ], [ 35.5926013, -11.5588673 ], [ 35.5917258, -11.5584632 ], [ 35.5889645, -11.5571162 ], [ 35.58819, -11.5567121 ], [ 35.5685964, -11.5618041 ], [ 35.5683896, -11.5624704 ], [ 35.5674804, -11.563447 ], [ 35.5669416, -11.563447 ], [ 35.5402717, -11.559204 ], [ 35.5396596, -11.559204 ], [ 35.5382849, -11.5616286 ], [ 35.5389247, -11.5622347 ], [ 35.5389921, -11.5629419 ], [ 35.5392154, -11.5634163 ], [ 35.5375441, -11.565299 ], [ 35.536938, -11.5651307 ], [ 35.5362645, -11.5649623 ], [ 35.5355237, -11.5640868 ], [ 35.523502, -11.5627735 ], [ 35.5224581, -11.5641878 ], [ 35.5213468, -11.5667134 ], [ 35.5211785, -11.5676562 ], [ 35.5212795, -11.5688012 ], [ 35.5215826, -11.5703838 ], [ 35.4975392, -11.5605173 ], [ 35.4963943, -11.560652 ], [ 35.4954177, -11.5603153 ], [ 35.4948116, -11.5596755 ], [ 35.4742704, -11.5786003 ], [ 35.4736642, -11.5787014 ], [ 35.4484423, -11.5757717 ], [ 35.4482739, -11.5750309 ], [ 35.4480382, -11.574189 ], [ 35.4479035, -11.5736839 ], [ 35.4448055, -11.5757044 ], [ 35.4443004, -11.5767819 ], [ 35.444031, -11.578533 ], [ 35.4436606, -11.5807218 ], [ 35.4436606, -11.5818331 ], [ 35.4334573, -11.5796779 ], [ 35.4329859, -11.5794759 ], [ 35.4317399, -11.5794422 ], [ 35.4308981, -11.5794759 ], [ 35.4296184, -11.5794422 ], [ 35.4232079, -11.5761621 ], [ 35.4235696, -11.5758004 ], [ 35.4241483, -11.5751132 ], [ 35.4154254, -11.5704643 ], [ 35.116336, -11.5723451 ], [ 35.0003396, -11.5730746 ], [ 34.9595702, -11.5733309 ], [ 34.9579185, -11.5712741 ], [ 34.94888, -11.516 ], [ 34.93631, -11.4831 ], [ 34.9331175, -11.4626461 ], [ 34.93105, -11.4494 ], [ 34.9294387, -11.4390321 ], [ 34.92571, -11.41508 ], [ 34.922, -11.40196 ], [ 34.915008, -11.3876987 ], [ 34.91015, -11.37779 ], [ 34.9014106, -11.3710599 ], [ 34.86882, -11.34855 ], [ 34.83354, -11.33163 ], [ 34.80488, -11.32122 ], [ 34.7990894, -11.3213538 ], [ 34.79579, -11.32143 ], [ 34.78342, -11.32646 ], [ 34.7818521, -11.3173645 ], [ 34.77809, -11.31196 ], [ 34.79052, -11.28347 ], [ 34.76307, -11.25972 ], [ 34.74707, -11.22449 ], [ 34.73803, -11.21317 ], [ 34.73312, -11.19842 ], [ 34.7311999, -11.1922838 ], [ 34.70373, -11.15897 ], [ 34.69792, -11.15068 ], [ 34.646, -11.1262 ], [ 34.63972, -11.12159 ], [ 34.62834, -11.10204 ], [ 34.6372592, -11.0804512 ], [ 34.6344657, -11.0746976 ], [ 34.6372816, -11.0685193 ], [ 34.6382198, -11.0682693 ], [ 34.63454, -11.05262 ], [ 34.6229829, -11.0491254 ], [ 34.62012, -11.04752 ], [ 34.61336, -11.0498 ], [ 34.6027, -11.03067 ], [ 34.60422, -10.98952 ], [ 34.6071393, -10.9836553 ], [ 34.62131, -10.96082 ], [ 34.6297116, -10.9530825 ], [ 34.64963, -10.91192 ], [ 34.64083, -10.89626 ], [ 34.64776, -10.83212 ], [ 34.65037, -10.81534 ], [ 34.6505025, -10.7520328 ], [ 34.6494, -10.74774 ], [ 34.6396971, -10.7324011 ], [ 34.63759, -10.72907 ], [ 34.61649, -10.70552 ], [ 34.62538, -10.68116 ], [ 34.60733, -10.63076 ], [ 34.58691, -10.60473 ], [ 34.59151, -10.59129 ], [ 34.5917745, -10.5905322 ], [ 34.56577, -10.56376 ], [ 34.55563, -10.53567 ], [ 34.5528697, -10.5278496 ], [ 34.5502873, -10.5244632 ], [ 34.55823, -10.52212 ], [ 34.5604032, -10.5201751 ], [ 34.5532, -10.49796 ], [ 34.57115, -10.47985 ], [ 34.574, -10.46192 ], [ 34.5684357, -10.4566154 ], [ 34.56843, -10.45661 ], [ 34.56798, -10.45363 ], [ 34.5679818, -10.453626 ], [ 34.57056, -10.44789 ], [ 34.56941, -10.44397 ], [ 34.56315, -10.43912 ], [ 34.54162, -10.4148 ], [ 34.54193, -10.38755 ], [ 34.5591, -10.32507 ], [ 34.5698389, -10.3076319 ], [ 34.56488, -10.26187 ], [ 34.55258, -10.23146 ], [ 34.55588, -10.20871 ], [ 34.55068, -10.17468 ], [ 34.5483, -10.16661 ], [ 34.5475168, -10.1652299 ], [ 34.54321, -10.15764 ], [ 34.54205, -10.15763 ], [ 34.53581, -10.1436 ], [ 34.5213688, -10.1139234 ], [ 34.52129, -10.11279 ], [ 34.53018, -10.07968 ], [ 34.53898, -10.0642 ], [ 34.53512, -10.06084 ], [ 34.53513, -10.05716 ], [ 34.53585, -10.04843 ], [ 34.5263428, -10.0224798 ], [ 34.5184327, -10.0075048 ], [ 34.51447, -10.00129 ], [ 34.5066, -9.9832701 ], [ 34.47099, -9.95028 ], [ 34.4580399, -9.9412698 ], [ 34.42873, -9.9007 ], [ 34.39592, -9.86751 ], [ 34.39384, -9.8654 ], [ 34.3622484, -9.8190789 ], [ 34.34454, -9.8065 ], [ 34.3417003, -9.8030167 ], [ 34.30602, -9.74021 ], [ 34.27018, -9.71044 ], [ 34.2535459, -9.6926204 ], [ 34.24575, -9.68184 ], [ 34.23819, -9.67465 ], [ 34.2163598, -9.653893 ], [ 34.19636, -9.63795 ], [ 34.1747, -9.61211 ], [ 34.1729192, -9.6111485 ], [ 34.16568, -9.60724 ], [ 34.1553, -9.59731 ], [ 34.1459546, -9.5908531 ], [ 34.13569, -9.58067 ], [ 34.1231076, -9.5685538 ], [ 34.0818578, -9.532829 ], [ 34.07573, -9.5266 ], [ 34.0358545, -9.4919848 ], [ 34.01508, -9.49454 ], [ 34.01436, -9.49495 ], [ 33.9982117, -9.5042716 ], [ 33.98614, -9.51124 ], [ 33.9731026, -9.5216918 ], [ 33.96476, -9.52838 ], [ 33.95472, -9.54626 ], [ 33.95405, -9.54811 ], [ 33.9479536, -9.5649837 ], [ 33.94535, -9.57219 ], [ 33.94623, -9.58139 ], [ 33.95555, -9.59668 ], [ 33.96665, -9.62176 ], [ 33.9669617, -9.6252683 ], [ 33.96712, -9.62705 ], [ 33.9583381, -9.6417405 ], [ 33.95737, -9.64336 ], [ 33.95494, -9.66416 ], [ 33.95039, -9.67783 ], [ 33.9465695, -9.6929456 ], [ 33.9397785, -9.7106081 ], [ 33.9391249, -9.7114537 ], [ 33.93895, -9.71168 ], [ 33.93133, -9.70659 ], [ 33.9190894, -9.6950409 ], [ 33.91702, -9.69112 ], [ 33.9012365, -9.6855546 ], [ 33.88816, -9.67668 ], [ 33.86225, -9.65754 ], [ 33.8153381, -9.6251548 ], [ 33.81468, -9.62145 ], [ 33.8086193, -9.6138969 ], [ 33.80339, -9.60738 ], [ 33.7955554, -9.6055435 ], [ 33.77615, -9.58771 ], [ 33.76389, -9.58259 ], [ 33.75482, -9.58343 ], [ 33.7468854, -9.584162 ], [ 33.73867, -9.58492 ], [ 33.7353885, -9.5856392 ], [ 33.73032, -9.58675 ], [ 33.72337, -9.59041 ], [ 33.72111, -9.5925889 ], [ 33.71362, -9.59981 ], [ 33.7055812, -9.6124279 ], [ 33.67468, -9.60778 ], [ 33.66934, -9.60938 ], [ 33.6670873, -9.6090578 ], [ 33.66123, -9.60822 ], [ 33.6533846, -9.6036704 ], [ 33.65128, -9.60245 ], [ 33.6457194, -9.6022101 ], [ 33.6419333, -9.6030242 ], [ 33.6287939, -9.6058492 ], [ 33.62186, -9.59802 ], [ 33.6184532, -9.5977083 ], [ 33.61421, -9.59732 ], [ 33.609656, -9.5935734 ], [ 33.60496, -9.58971 ], [ 33.5994363, -9.5880569 ], [ 33.59801, -9.58763 ], [ 33.5969352, -9.586314 ], [ 33.59293, -9.58141 ], [ 33.58783, -9.58094 ], [ 33.5867223, -9.5813681 ], [ 33.5825, -9.583 ], [ 33.5784175, -9.5859492 ], [ 33.55258, -9.59143 ], [ 33.54213, -9.61376 ], [ 33.5321348, -9.617808 ], [ 33.51311, -9.62672 ], [ 33.5030147, -9.6226585 ], [ 33.4976, -9.62048 ], [ 33.4885493, -9.6252798 ], [ 33.47359, -9.62165 ], [ 33.46044, -9.61973 ], [ 33.44028, -9.6127 ], [ 33.41885, -9.59348 ], [ 33.42306, -9.58684 ], [ 33.4230186, -9.5846583 ], [ 33.42289, -9.57788 ], [ 33.4203863, -9.5720448 ], [ 33.4098, -9.55849 ], [ 33.39781, -9.54945 ], [ 33.38933, -9.53583 ], [ 33.38284, -9.53556 ], [ 33.37064, -9.52399 ], [ 33.36201, -9.52281 ], [ 33.35841, -9.52232 ], [ 33.35352, -9.51803 ], [ 33.3491989, -9.5105689 ], [ 33.3446308, -9.5058872 ], [ 33.33966, -9.50282 ], [ 33.3392852, -9.5023939 ], [ 33.3163204, -9.4907561 ], [ 33.31306, -9.48895 ], [ 33.28245, -9.50126 ], [ 33.26763, -9.49776 ], [ 33.2649632, -9.4940242 ], [ 33.25563, -9.48623 ], [ 33.2535089, -9.4878631 ], [ 33.2500287, -9.4889585 ], [ 33.24519, -9.48941 ], [ 33.238, -9.49329 ], [ 33.2339781, -9.4936718 ], [ 33.22873, -9.49417 ], [ 33.2270564, -9.4949473 ], [ 33.22479, -9.496 ], [ 33.22133, -9.50339 ], [ 33.2141205, -9.506959 ], [ 33.21024, -9.50888 ], [ 33.18661, -9.49701 ], [ 33.174689, -9.4976288 ], [ 33.17428, -9.49765 ], [ 33.1732892, -9.4968171 ], [ 33.16989, -9.49396 ], [ 33.1587626, -9.4943736 ], [ 33.15321, -9.49458 ], [ 33.1476344, -9.4918539 ], [ 33.14327, -9.48972 ], [ 33.1417262, -9.4885277 ], [ 33.13519, -9.48348 ], [ 33.12731, -9.48253 ], [ 33.1267392, -9.4821611 ], [ 33.12338, -9.47999 ], [ 33.12132, -9.47515 ], [ 33.1111, -9.46427 ], [ 33.10393, -9.46283 ], [ 33.09636, -9.45403 ], [ 33.0892004, -9.4520809 ], [ 33.07961, -9.44947 ], [ 33.04668, -9.41896 ], [ 33.0349196, -9.4135797 ], [ 33.01065, -9.37777 ], [ 33.00123, -9.36896 ], [ 32.99591, -9.36754 ], [ 32.9934402, -9.3681889 ], [ 32.99081, -9.36888 ], [ 32.9766234, -9.3816175 ], [ 32.96772, -9.38961 ], [ 32.9674918, -9.3944611 ], [ 32.95351, -9.40145 ], [ 32.9535061, -9.4014497 ], [ 32.9315283, -9.3996593 ], [ 32.9110887, -9.3788121 ], [ 32.9038168, -9.3906994 ], [ 32.9025219, -9.3904625 ], [ 32.89595, -9.38926 ], [ 32.8935322, -9.3851106 ], [ 32.89244, -9.36579 ], [ 32.88271, -9.36709 ], [ 32.8791543, -9.3686569 ], [ 32.873424, -9.3711821 ], [ 32.86137, -9.37197 ], [ 32.80953, -9.3428 ], [ 32.79979, -9.32846 ], [ 32.7939855, -9.3245404 ], [ 32.79049, -9.32218 ], [ 32.783808, -9.3184502 ], [ 32.77639, -9.31931 ], [ 32.76085, -9.29642 ], [ 32.7560848, -9.2902392 ], [ 32.75193, -9.28485 ], [ 32.7471549, -9.2819865 ], [ 32.74571, -9.28112 ], [ 32.7425008, -9.280852 ], [ 32.73589, -9.2803 ], [ 32.7278544, -9.2769032 ], [ 32.6862666, -9.2736232 ], [ 32.66152, -9.27485 ], [ 32.65411, -9.27363 ], [ 32.6497274, -9.2729114 ], [ 32.59557, -9.24851 ], [ 32.57385, -9.24646 ], [ 32.55109, -9.2536 ], [ 32.545739, -9.2541572 ], [ 32.54091, -9.25466 ], [ 32.53852, -9.24804 ], [ 32.5355, -9.23966 ], [ 32.48663, -9.17233 ], [ 32.4935183, -9.1530988 ], [ 32.48203, -9.14502 ], [ 32.4814887, -9.144639 ], [ 32.47629, -9.14098 ], [ 32.46086, -9.13371 ], [ 32.44769, -9.1322 ], [ 32.4418747, -9.1272201 ], [ 32.4314, -9.11825 ], [ 32.41194, -9.12081 ], [ 32.40869, -9.12239 ], [ 32.4047198, -9.1217655 ], [ 32.399809, -9.1220288 ], [ 32.38738, -9.12493 ], [ 32.3813355, -9.1254441 ], [ 32.3728, -9.12617 ], [ 32.3667401, -9.1280204 ], [ 32.3619, -9.1295 ], [ 32.32648, -9.13212 ], [ 32.25756, -9.13118 ], [ 32.24675, -9.12532 ], [ 32.24282, -9.12482 ], [ 32.24057, -9.12301 ], [ 32.22631, -9.11155 ], [ 32.209958, -9.1040931 ], [ 32.1468, -9.06381 ], [ 32.13636, -9.06253 ], [ 32.12209, -9.06078 ], [ 32.10943, -9.05559 ], [ 32.09144, -9.05148 ], [ 32.06091, -9.05137 ], [ 32.0272683, -9.0586288 ], [ 32.01593, -9.06235 ], [ 32.01531, -9.06594 ], [ 32.00934, -9.07169 ], [ 32.0030004, -9.073824 ], [ 31.99612, -9.07614 ], [ 31.97335, -9.06462 ], [ 31.93666, -9.01801 ], [ 31.93693, -9.00058 ], [ 31.9317546, -8.9840445 ], [ 31.93129, -8.98256 ], [ 31.9345967, -8.9711214 ], [ 31.93804, -8.95921 ], [ 31.94726, -8.94163 ], [ 31.9471998, -8.9400143 ], [ 31.8891643, -8.9111525 ], [ 31.86842, -8.90394 ], [ 31.82972, -8.89291 ], [ 31.8297258, -8.8925748 ], [ 31.80411, -8.88938 ], [ 31.7796, -8.89069 ], [ 31.77136, -8.89359 ], [ 31.76637, -8.89535 ], [ 31.7568, -8.90304 ], [ 31.7536463, -8.9082444 ], [ 31.74948, -8.91512 ], [ 31.73928, -8.91861 ], [ 31.7347493, -8.9232592 ], [ 31.72861, -8.91606 ], [ 31.6769432, -8.9082375 ], [ 31.67352, -8.90475 ], [ 31.66895, -8.89715 ], [ 31.6504034, -8.8766422 ], [ 31.6292, -8.86807 ], [ 31.59819, -8.84595 ], [ 31.5954651, -8.8445064 ], [ 31.58475, -8.83883 ], [ 31.57482, -8.82009 ], [ 31.56988, -8.80923 ], [ 31.57895, -8.78684 ], [ 31.5803925, -8.7776289 ], [ 31.58297, -8.76117 ], [ 31.58202, -8.74553 ], [ 31.5808707, -8.7419467 ], [ 31.57048, -8.70955 ], [ 31.55157, -8.68978 ], [ 31.50408, -8.68272 ], [ 31.4969, -8.68469 ], [ 31.45873, -8.64034 ], [ 31.4115175, -8.6373336 ], [ 31.40481, -8.63312 ], [ 31.39814, -8.63141 ], [ 31.39226, -8.62237 ], [ 31.38606, -8.60506 ], [ 31.3776, -8.59919 ], [ 31.3754769, -8.5893696 ], [ 31.37501, -8.58721 ], [ 31.3719, -8.58777 ], [ 31.3643645, -8.5891192 ], [ 31.3625639, -8.5924014 ], [ 31.36199, -8.59345 ], [ 31.3636807, -8.6024297 ], [ 31.36318, -8.60679 ], [ 31.3589231, -8.6081895 ], [ 31.35739, -8.60808 ], [ 31.3533255, -8.6122652 ], [ 31.34965, -8.61605 ], [ 31.3468, -8.61628 ], [ 31.3380244, -8.6133472 ], [ 31.33531, -8.61244 ], [ 31.3331077, -8.6140752 ], [ 31.3283166, -8.6176251 ], [ 31.32447, -8.61206 ], [ 31.3199, -8.60878 ], [ 31.3103775, -8.6125527 ], [ 31.29397, -8.63001 ], [ 31.2898201, -8.6303528 ], [ 31.28138, -8.63105 ], [ 31.25259, -8.60094 ], [ 31.248, -8.59904 ], [ 31.23669, -8.59842 ], [ 31.22735, -8.58956 ], [ 31.21145, -8.5875 ], [ 31.20986, -8.58806 ], [ 31.2068876, -8.5891096 ], [ 31.19335, -8.59389 ], [ 31.1891631, -8.5964798 ], [ 31.1867397, -8.599293 ], [ 31.18369, -8.60625 ], [ 31.13646, -8.6328 ], [ 31.07797, -8.62184 ], [ 31.02808, -8.59215 ], [ 30.9781, -8.53834 ], [ 30.8835744, -8.4142077 ], [ 30.87831, -8.40867 ], [ 30.80741, -8.31065 ], [ 30.7750719, -8.2263464 ], [ 30.7712422, -8.1922476 ], [ 30.75944, -8.1450004 ], [ 30.7072231, -7.9950002 ], [ 30.6505517, -7.8804165 ], [ 30.5775011, -7.7780567 ], [ 30.50972, -7.6794456 ], [ 30.4558291, -7.5802787 ], [ 30.4397221, -7.5300005 ], [ 30.4261105, -7.4277781 ], [ 30.4094426, -7.3643063 ], [ 30.354443, -7.2202778 ], [ 30.3149976, -7.1437503 ], [ 30.2794722, -7.0916882 ], [ 30.2466665, -7.0436117 ], [ 30.1883319, -6.9625006 ], [ 30.0648543, -6.8457674 ], [ 30.0371534, -6.8226392 ], [ 30.0024986, -6.8022223 ], [ 29.988535, -6.7950292 ], [ 29.9147208, -6.7661113 ], [ 29.8854172, -6.7508344 ], [ 29.7391642, -6.6345847 ], [ 29.7038884, -6.5863897 ], [ 29.6130519, -6.3997234 ], [ 29.567222, -6.3312502 ], [ 29.5408327, -6.2630562 ], [ 29.4983319, -6.0563895 ], [ 29.494999, -6.0088896 ], [ 29.5047203, -5.9458342 ], [ 29.5383297, -5.8900002 ], [ 29.5699999, -5.8519453 ], [ 29.6087506, -5.8072224 ], [ 29.6299992, -5.7548622 ], [ 29.6261121, -5.6855566 ], [ 29.5974996, -5.5791672 ], [ 29.5622218, -5.4963894 ], [ 29.534442, -5.4480564 ], [ 29.4872203, -5.2936112 ], [ 29.4761102, -5.2366663 ], [ 29.4543048, -5.1766677 ], [ 29.4299977, -5.1475002 ], [ 29.4033326, -5.1013897 ], [ 29.3630519, -4.9952781 ], [ 29.3513848, -4.9513895 ], [ 29.3419419, -4.8838892 ], [ 29.3413898, -4.7977786 ], [ 29.358747, -4.7297232 ], [ 29.3977781, -4.6380555 ], [ 29.4297223, -4.5450695 ], [ 29.423334, -4.4475006 ], [ 29.6562928, -4.4486884 ], [ 29.6619469, -4.4487173 ], [ 29.6678269, -4.4497745 ], [ 29.6709596, -4.4484524 ], [ 29.6733091, -4.4474609 ], [ 29.6909628, -4.4513336 ], [ 29.6954279, -4.4560893 ], [ 29.7319536, -4.4609401 ], [ 29.7327462, -4.4596239 ], [ 29.7347701, -4.4562626 ], [ 29.7386429, -4.4580229 ], [ 29.7490038, -4.4700436 ], [ 29.757628, -4.4685781 ], [ 29.7615353, -4.4660373 ], [ 29.768844, -4.4566033 ], [ 29.7681052, -4.4525401 ], [ 29.767897, -4.4513946 ], [ 29.7656908, -4.4502135 ], [ 29.7639904, -4.4493032 ], [ 29.764948, -4.4444923 ], [ 29.7656477, -4.4409771 ], [ 29.7639436, -4.4366341 ], [ 29.7638833, -4.4362904 ], [ 29.7632777, -4.4328385 ], [ 29.7645873, -4.428022 ], [ 29.7684025, -4.4216534 ], [ 29.7706199, -4.4199815 ], [ 29.773962, -4.4174615 ], [ 29.7800269, -4.4141318 ], [ 29.7830593, -4.4136264 ], [ 29.7888864, -4.4082453 ], [ 29.7903566, -4.4067271 ], [ 29.7952783, -4.4016452 ], [ 29.7957303, -4.3994847 ], [ 29.7960899, -4.3977657 ], [ 29.7996189, -4.3904073 ], [ 29.8019675, -4.3871073 ], [ 29.8018189, -4.3831235 ], [ 29.8142162, -4.3639477 ], [ 29.8187649, -4.3664747 ], [ 29.8205807, -4.3652037 ], [ 29.8211433, -4.3648099 ], [ 29.8219758, -4.3615396 ], [ 29.8241511, -4.3611239 ], [ 29.8266433, -4.3606477 ], [ 29.8295866, -4.3622828 ], [ 29.8313602, -4.3644311 ], [ 29.8316974, -4.3648396 ], [ 29.8340164, -4.367991 ], [ 29.8391596, -4.3693288 ], [ 29.8406885, -4.3691962 ], [ 29.8456705, -4.3687639 ], [ 29.84903, -4.3760775 ], [ 29.8491611, -4.3777261 ], [ 29.8492381, -4.3786937 ], [ 29.8514975, -4.3814289 ], [ 29.8564624, -4.3807154 ], [ 29.8601916, -4.3801035 ], [ 29.8640051, -4.3813538 ], [ 29.8676937, -4.3833857 ], [ 29.8740079, -4.3807912 ], [ 29.8753208, -4.3781967 ], [ 29.8736953, -4.3772902 ], [ 29.8711008, -4.3752584 ], [ 29.8717885, -4.3727577 ], [ 29.8736015, -4.3707572 ], [ 29.8742892, -4.3701633 ], [ 29.8854485, -4.3616609 ], [ 29.8903562, -4.3567846 ], [ 29.8924192, -4.3551904 ], [ 29.8936889, -4.3545771 ], [ 29.8961077, -4.3534086 ], [ 29.9010779, -4.3528772 ], [ 29.9093301, -4.3482822 ], [ 29.9114592, -4.3486493 ], [ 29.9138626, -4.3490637 ], [ 29.9178012, -4.349345 ], [ 29.9276164, -4.3463129 ], [ 29.9424643, -4.339186 ], [ 29.9511892, -4.3288653 ], [ 29.9523645, -4.3298728 ], [ 29.9582016, -4.328398 ], [ 29.961189, -4.3255631 ], [ 29.9656853, -4.3188468 ], [ 29.9678494, -4.3116454 ], [ 29.9690994, -4.3029514 ], [ 29.9726628, -4.3007686 ], [ 29.9846917, -4.2989079 ], [ 29.9863998, -4.2986436 ], [ 29.9896335, -4.2981434 ], [ 29.9932694, -4.2988633 ], [ 29.9966737, -4.2995373 ], [ 30.0053863, -4.2942202 ], [ 30.0071773, -4.2896307 ], [ 30.0055144, -4.287915 ], [ 30.0021401, -4.2868322 ], [ 30.0019432, -4.2841714 ], [ 30.0107812, -4.2825598 ], [ 30.0134695, -4.2841344 ], [ 30.0137492, -4.2838503 ], [ 30.0158338, -4.2817331 ], [ 30.0151174, -4.2781509 ], [ 30.0197128, -4.2736426 ], [ 30.0233943, -4.2756187 ], [ 30.0247371, -4.2763394 ], [ 30.0305371, -4.2765241 ], [ 30.0365958, -4.276635 ], [ 30.042285, -4.2757114 ], [ 30.0431347, -4.2726451 ], [ 30.0466274, -4.2597692 ], [ 30.0432338, -4.2555818 ], [ 30.0458469, -4.2547297 ], [ 30.0508148, -4.2587174 ], [ 30.0525613, -4.2584991 ], [ 30.0534345, -4.2564947 ], [ 30.0536925, -4.2536965 ], [ 30.0510133, -4.2438133 ], [ 30.0511721, -4.2416898 ], [ 30.0544268, -4.2403998 ], [ 30.0555957, -4.2342722 ], [ 30.0561915, -4.2304992 ], [ 30.0547794, -4.2267925 ], [ 30.0522861, -4.2227988 ], [ 30.0563832, -4.2172052 ], [ 30.0608204, -4.2100153 ], [ 30.0628746, -4.2029487 ], [ 30.0688525, -4.1940743 ], [ 30.0725913, -4.1866584 ], [ 30.0715641, -4.1821185 ], [ 30.0721155, -4.1805197 ], [ 30.0745951, -4.1733287 ], [ 30.0750564, -4.171991 ], [ 30.0780145, -4.1676976 ], [ 30.0867862, -4.1600558 ], [ 30.0913466, -4.1592547 ], [ 30.094446, -4.1584594 ], [ 30.1038224, -4.1514113 ], [ 30.1077601, -4.1509349 ], [ 30.1106448, -4.147528 ], [ 30.112526, -4.1453063 ], [ 30.1163674, -4.1388765 ], [ 30.1279329, -4.1320563 ], [ 30.1318069, -4.1333428 ], [ 30.1363759, -4.130187 ], [ 30.1416964, -4.1241885 ], [ 30.1465444, -4.1209634 ], [ 30.1521525, -4.1181901 ], [ 30.160082, -4.1126436 ], [ 30.1621568, -4.1096239 ], [ 30.163718, -4.1070355 ], [ 30.1645397, -4.1028448 ], [ 30.168073, -4.0983666 ], [ 30.1713598, -4.0955522 ], [ 30.1746813, -4.0920281 ], [ 30.1774199, -4.0891224 ], [ 30.183295, -4.0778446 ], [ 30.1843633, -4.0753178 ], [ 30.1831923, -4.0728322 ], [ 30.185945, -4.0667105 ], [ 30.1873214, -4.0646152 ], [ 30.1879582, -4.0628896 ], [ 30.1881437, -4.061674 ], [ 30.1885539, -4.0589865 ], [ 30.1889237, -4.0562543 ], [ 30.1890675, -4.0536249 ], [ 30.1909678, -4.050683 ], [ 30.1961136, -4.0458187 ], [ 30.1986403, -4.0467842 ], [ 30.2001521, -4.0471423 ], [ 30.2017628, -4.0475238 ], [ 30.204269, -4.0479757 ], [ 30.2048853, -4.0445451 ], [ 30.2052881, -4.0440544 ], [ 30.2080899, -4.040642 ], [ 30.2117482, -4.0382211 ], [ 30.2150744, -4.0360199 ], [ 30.2157795, -4.0323669 ], [ 30.2167793, -4.0271869 ], [ 30.2199823, -4.0254201 ], [ 30.2207646, -4.0249886 ], [ 30.2221204, -4.0259952 ], [ 30.2236611, -4.0242491 ], [ 30.2288173, -4.0150871 ], [ 30.229865, -4.0112867 ], [ 30.2229422, -4.0100131 ], [ 30.2186693, -4.0060689 ], [ 30.2181061, -4.0043134 ], [ 30.2152505, -3.9954123 ], [ 30.2149499, -3.9894165 ], [ 30.220316, -3.9846036 ], [ 30.2264404, -3.9750415 ], [ 30.2271562, -3.973924 ], [ 30.2281889, -3.9673489 ], [ 30.2311893, -3.9411107 ], [ 30.2482121, -3.9198452 ], [ 30.2496125, -3.918493 ], [ 30.2511644, -3.9138536 ], [ 30.2517656, -3.9086727 ], [ 30.2563024, -3.8839416 ], [ 30.2764251, -3.8730073 ], [ 30.2790442, -3.8736513 ], [ 30.2842108, -3.8684561 ], [ 30.2860284, -3.8654363 ], [ 30.2878746, -3.8616579 ], [ 30.2890768, -3.8601981 ], [ 30.2906082, -3.8597258 ], [ 30.2920251, -3.8619155 ], [ 30.2963044, -3.8591533 ], [ 30.2985084, -3.8567203 ], [ 30.3082119, -3.8451705 ], [ 30.3100725, -3.8416927 ], [ 30.311289, -3.8383437 ], [ 30.3104303, -3.8338211 ], [ 30.3124531, -3.8274294 ], [ 30.3160549, -3.8176343 ], [ 30.3193753, -3.8179778 ], [ 30.321224, -3.8151704 ], [ 30.3243988, -3.8103495 ], [ 30.3231823, -3.8090471 ], [ 30.3222043, -3.8026947 ], [ 30.3216223, -3.7989143 ], [ 30.3233397, -3.7957227 ], [ 30.3236387, -3.79548 ], [ 30.3275188, -3.7923307 ], [ 30.3308392, -3.7875935 ], [ 30.3318124, -3.7849887 ], [ 30.3388735, -3.7793771 ], [ 30.339412, -3.7789491 ], [ 30.3442952, -3.7755478 ], [ 30.3472407, -3.7734962 ], [ 30.3584326, -3.7756001 ], [ 30.3866129, -3.7795072 ], [ 30.3844088, -3.7824555 ], [ 30.3853558, -3.784874 ], [ 30.386527, -3.7878654 ], [ 30.3906202, -3.7880085 ], [ 30.3967171, -3.7896258 ], [ 30.3976617, -3.7941341 ], [ 30.3948995, -3.7945777 ], [ 30.3973898, -3.7969535 ], [ 30.4008676, -3.7957227 ], [ 30.4008974, -3.7956522 ], [ 30.4023561, -3.7922019 ], [ 30.4034008, -3.7892537 ], [ 30.4040592, -3.7875362 ], [ 30.4094405, -3.7843733 ], [ 30.4098412, -3.7748558 ], [ 30.4096122, -3.7647945 ], [ 30.405104, -3.7628052 ], [ 30.4047339, -3.7621404 ], [ 30.4026423, -3.7583828 ], [ 30.40383, -3.7569299 ], [ 30.4041164, -3.7565795 ], [ 30.4042595, -3.7522 ], [ 30.4006458, -3.7429129 ], [ 30.3979686, -3.7310787 ], [ 30.3954901, -3.7301774 ], [ 30.3929711, -3.7292614 ], [ 30.3909411, -3.7285232 ], [ 30.3887811, -3.7242641 ], [ 30.3887182, -3.7229347 ], [ 30.3885681, -3.7197616 ], [ 30.3889332, -3.7130079 ], [ 30.3912149, -3.7093876 ], [ 30.3938446, -3.7073158 ], [ 30.3972385, -3.7046418 ], [ 30.3986987, -3.7029381 ], [ 30.4034142, -3.6935072 ], [ 30.4032012, -3.6898261 ], [ 30.4044181, -3.6852932 ], [ 30.4059392, -3.6848673 ], [ 30.4088598, -3.6876662 ], [ 30.4091336, -3.6843501 ], [ 30.4091032, -3.6729722 ], [ 30.4081601, -3.6694432 ], [ 30.4109285, -3.6656709 ], [ 30.4118412, -3.6646365 ], [ 30.4156135, -3.665032 ], [ 30.4158873, -3.657974 ], [ 30.4164653, -3.6523459 ], [ 30.4189904, -3.6539887 ], [ 30.4223673, -3.6418503 ], [ 30.4244664, -3.6393252 ], [ 30.4265351, -3.6373782 ], [ 30.4306421, -3.6364959 ], [ 30.4331672, -3.631598 ], [ 30.4321632, -3.6277648 ], [ 30.428543, -3.6240837 ], [ 30.435388, -3.6180905 ], [ 30.4429935, -3.6177863 ], [ 30.4525157, -3.6101503 ], [ 30.457292, -3.5954259 ], [ 30.4573528, -3.5933876 ], [ 30.454554, -3.5912276 ], [ 30.4536413, -3.5875161 ], [ 30.4549799, -3.5854474 ], [ 30.4566531, -3.5828615 ], [ 30.456714, -3.5786937 ], [ 30.4563793, -3.5758644 ], [ 30.4525461, -3.5745867 ], [ 30.4528199, -3.5773551 ], [ 30.4495039, -3.5769596 ], [ 30.4457011, -3.5673462 ], [ 30.4467963, -3.5660989 ], [ 30.4471708, -3.5657356 ], [ 30.4539151, -3.559193 ], [ 30.461399, -3.5559987 ], [ 30.4652626, -3.5491537 ], [ 30.4788614, -3.5365284 ], [ 30.4850371, -3.528862 ], [ 30.4891745, -3.5270976 ], [ 30.4915474, -3.5198571 ], [ 30.5104413, -3.522659 ], [ 30.5107256, -3.5298305 ], [ 30.5143318, -3.5294091 ], [ 30.5212149, -3.5208302 ], [ 30.5238085, -3.513149 ], [ 30.5270007, -3.5099236 ], [ 30.5350477, -3.5031734 ], [ 30.5683327, -3.4897397 ], [ 30.5836618, -3.4844194 ], [ 30.5846594, -3.4824908 ], [ 30.5960315, -3.4751422 ], [ 30.5970623, -3.472881 ], [ 30.6087337, -3.467461 ], [ 30.6166595, -3.4667405 ], [ 30.6178779, -3.4666297 ], [ 30.6367982, -3.4534952 ], [ 30.6388598, -3.4474102 ], [ 30.6454104, -3.4427217 ], [ 30.6488353, -3.4422894 ], [ 30.6551532, -3.4350072 ], [ 30.6609723, -3.4318483 ], [ 30.6660265, -3.4233359 ], [ 30.6717458, -3.4193789 ], [ 30.674007, -3.4135266 ], [ 30.6727766, -3.4076077 ], [ 30.6767004, -3.4029192 ], [ 30.6776647, -3.3983305 ], [ 30.6736744, -3.3929104 ], [ 30.6677224, -3.3889867 ], [ 30.6621278, -3.3867992 ], [ 30.6465077, -3.3856948 ], [ 30.6474055, -3.3799422 ], [ 30.6460388, -3.3773167 ], [ 30.6345789, -3.3594965 ], [ 30.6383278, -3.3534738 ], [ 30.6427835, -3.3495168 ], [ 30.6442133, -3.3500821 ], [ 30.6475053, -3.3476547 ], [ 30.6487356, -3.3436313 ], [ 30.6594427, -3.3331902 ], [ 30.6609057, -3.3284684 ], [ 30.6668582, -3.3194925 ], [ 30.6671903, -3.3189917 ], [ 30.6743062, -3.3195902 ], [ 30.6844148, -3.3170631 ], [ 30.70267, -3.3095814 ], [ 30.7072255, -3.3094817 ], [ 30.7142084, -3.3041614 ], [ 30.7189302, -3.3032968 ], [ 30.7196238, -3.3022471 ], [ 30.730269, -3.2861389 ], [ 30.7301693, -3.2743677 ], [ 30.7355561, -3.2708763 ], [ 30.7413419, -3.2672851 ], [ 30.7451326, -3.2681829 ], [ 30.7463296, -3.2817497 ], [ 30.7483248, -3.2864714 ], [ 30.7532302, -3.2899386 ], [ 30.7548397, -3.2910761 ], [ 30.7742977, -3.2853734 ], [ 30.7894522, -3.2791426 ], [ 30.7980063, -3.2785882 ], [ 30.8014994, -3.2737934 ], [ 30.8182808, -3.2654802 ], [ 30.8284209, -3.2635657 ], [ 30.8351005, -3.2579157 ], [ 30.8365542, -3.2547253 ], [ 30.8367616, -3.2542701 ], [ 30.8368055, -3.2532612 ], [ 30.8252263, -3.2464574 ], [ 30.812844, -3.2239105 ], [ 30.820078, -3.2128218 ], [ 30.8274969, -3.2138251 ], [ 30.8351669, -3.2098809 ], [ 30.837703, -3.2085767 ], [ 30.8414105, -3.2066702 ], [ 30.8473509, -3.2067758 ], [ 30.8412525, -3.1996068 ], [ 30.8404337, -3.1986441 ], [ 30.8379255, -3.1927038 ], [ 30.8385856, -3.1858394 ], [ 30.8455556, -3.1666718 ], [ 30.845186, -3.1622099 ], [ 30.8410277, -3.1564676 ], [ 30.8339257, -3.1433196 ], [ 30.8210153, -3.1508968 ], [ 30.8178207, -3.1472006 ], [ 30.8198536, -3.1435572 ], [ 30.8249227, -3.1389897 ], [ 30.8294902, -3.1296436 ], [ 30.8335561, -3.1147795 ], [ 30.8328432, -3.1088655 ], [ 30.8315495, -3.1038756 ], [ 30.8337299, -3.1006684 ], [ 30.8356418, -3.097856 ], [ 30.8360378, -3.0945558 ], [ 30.8333184, -3.0881138 ], [ 30.8299126, -3.0845496 ], [ 30.8156598, -3.0819416 ], [ 30.8134644, -3.0815399 ], [ 30.8020106, -3.0683067 ], [ 30.8012933, -3.0641148 ], [ 30.7944272, -3.0534085 ], [ 30.8006434, -3.0513618 ], [ 30.8073902, -3.0455752 ], [ 30.8140612, -3.0429725 ], [ 30.8173461, -3.0329912 ], [ 30.8161838, -3.0279122 ], [ 30.8178263, -3.0253095 ], [ 30.8211365, -3.0242734 ], [ 30.8246741, -3.0162632 ], [ 30.8253059, -3.0107545 ], [ 30.8339226, -3.0035276 ], [ 30.8372075, -2.9981959 ], [ 30.8373844, -2.9919292 ], [ 30.8398355, -2.9884168 ], [ 30.8457232, -2.9814426 ], [ 30.8459506, -2.9794716 ], [ 30.8443635, -2.978757 ], [ 30.8242698, -2.9814931 ], [ 30.8111047, -2.9858899 ], [ 30.7996579, -2.9891749 ], [ 30.7843196, -2.9904888 ], [ 30.7473879, -2.997651 ], [ 30.7435751, -2.9969024 ], [ 30.7432172, -2.9964954 ], [ 30.7388031, -2.9914755 ], [ 30.7317154, -2.9897913 ], [ 30.7264288, -2.9908907 ], [ 30.7196452, -2.9855574 ], [ 30.7183495, -2.9844489 ], [ 30.7134931, -2.9802942 ], [ 30.7120428, -2.9755222 ], [ 30.709189, -2.9725983 ], [ 30.7047679, -2.9713117 ], [ 30.6865222, -2.9795924 ], [ 30.6859141, -2.9830544 ], [ 30.6701916, -2.9935291 ], [ 30.666407, -2.9916947 ], [ 30.6559898, -2.9785207 ], [ 30.648561, -2.9751114 ], [ 30.6452149, -2.9671565 ], [ 30.6470247, -2.9609904 ], [ 30.6467933, -2.9536879 ], [ 30.6431454, -2.9516219 ], [ 30.6406622, -2.9502155 ], [ 30.636807, -2.9453027 ], [ 30.63115, -2.9380937 ], [ 30.6246963, -2.9345302 ], [ 30.5982902, -2.9213629 ], [ 30.5956545, -2.914692 ], [ 30.5885274, -2.9135977 ], [ 30.5870402, -2.906723 ], [ 30.5794523, -2.8978313 ], [ 30.577079, -2.8950502 ], [ 30.5702605, -2.8943487 ], [ 30.566566, -2.8960065 ], [ 30.5658832, -2.8963129 ], [ 30.5656371, -2.8975956 ], [ 30.5571785, -2.9094042 ], [ 30.5518534, -2.9144956 ], [ 30.5490751, -2.918956 ], [ 30.5394791, -2.9343618 ], [ 30.5342459, -2.9325976 ], [ 30.5320714, -2.9318645 ], [ 30.5259914, -2.9399146 ], [ 30.5049938, -2.9542 ], [ 30.5025452, -2.9529912 ], [ 30.4938971, -2.948722 ], [ 30.4883116, -2.9489289 ], [ 30.4823391, -2.9456364 ], [ 30.4794485, -2.9351718 ], [ 30.4719247, -2.9271988 ], [ 30.4694542, -2.9249904 ], [ 30.4648876, -2.9224076 ], [ 30.461369, -2.9248406 ], [ 30.4578504, -2.9220333 ], [ 30.4578504, -2.9206109 ], [ 30.4586696, -2.9205431 ], [ 30.463278, -2.9201617 ], [ 30.4640267, -2.9188141 ], [ 30.4630909, -2.9154079 ], [ 30.4578504, -2.9100551 ], [ 30.4530217, -2.9112904 ], [ 30.4459269, -2.9094005 ], [ 30.4444499, -2.9090071 ], [ 30.4374127, -2.9030929 ], [ 30.4376955, -2.9024721 ], [ 30.4391346, -2.8993123 ], [ 30.4346802, -2.8746822 ], [ 30.426595, -2.8692921 ], [ 30.4197881, -2.8740094 ], [ 30.4185472, -2.8748694 ], [ 30.4178948, -2.8738706 ], [ 30.4119218, -2.8647254 ], [ 30.4112831, -2.8640189 ], [ 30.4099932, -2.8625922 ], [ 30.4070931, -2.8580626 ], [ 30.4134565, -2.8502393 ], [ 30.4191087, -2.8428279 ], [ 30.4207557, -2.835641 ], [ 30.4212423, -2.8319727 ], [ 30.4242742, -2.8267697 ], [ 30.4272688, -2.818909 ], [ 30.42521, -2.8174118 ], [ 30.4275308, -2.8138558 ], [ 30.4289813, -2.8116712 ], [ 30.4321727, -2.8068646 ], [ 30.4336696, -2.8046102 ], [ 30.4384608, -2.803038 ], [ 30.4398861, -2.7962099 ], [ 30.4400704, -2.7953271 ], [ 30.4420917, -2.7850708 ], [ 30.4425035, -2.7778465 ], [ 30.4440382, -2.7624995 ], [ 30.4406921, -2.7609235 ], [ 30.4388726, -2.7600665 ], [ 30.4366818, -2.7565246 ], [ 30.4366267, -2.7564356 ], [ 30.4372256, -2.7545266 ], [ 30.4404353, -2.7531373 ], [ 30.4422414, -2.7523556 ], [ 30.4406339, -2.746344 ], [ 30.4403458, -2.7452668 ], [ 30.4539151, -2.7417522 ], [ 30.4622278, -2.7350287 ], [ 30.463542, -2.7306584 ], [ 30.4621056, -2.7264714 ], [ 30.4663231, -2.7192895 ], [ 30.4741515, -2.7157764 ], [ 30.4777225, -2.7155304 ], [ 30.4809091, -2.7190324 ], [ 30.483896, -2.7223151 ], [ 30.4915669, -2.7146136 ], [ 30.4974347, -2.7087763 ], [ 30.503761, -2.703153 ], [ 30.5044333, -2.6972852 ], [ 30.5102706, -2.6927926 ], [ 30.5141824, -2.6915702 ], [ 30.5212422, -2.6875972 ], [ 30.5210159, -2.6827946 ], [ 30.5209671, -2.6817599 ], [ 30.5245122, -2.6769006 ], [ 30.5252104, -2.6752155 ], [ 30.5258213, -2.673741 ], [ 30.5265671, -2.6719411 ], [ 30.5282418, -2.6678991 ], [ 30.5293197, -2.6643554 ], [ 30.5268044, -2.6539184 ], [ 30.5242775, -2.6543847 ], [ 30.5125627, -2.6565466 ], [ 30.5045556, -2.6653789 ], [ 30.4999408, -2.6669376 ], [ 30.494769, -2.6704372 ], [ 30.4867076, -2.6758921 ], [ 30.4786673, -2.6789806 ], [ 30.4720687, -2.6815154 ], [ 30.4710845, -2.6830039 ], [ 30.4696237, -2.6852134 ], [ 30.4591106, -2.6919369 ], [ 30.4521731, -2.6888807 ], [ 30.4431574, -2.6785204 ], [ 30.4371368, -2.6777869 ], [ 30.4350028, -2.6790673 ], [ 30.4331638, -2.6801707 ], [ 30.4311162, -2.6798345 ], [ 30.4292836, -2.6768716 ], [ 30.4203891, -2.6594194 ], [ 30.4223145, -2.654224 ], [ 30.4252505, -2.6507111 ], [ 30.4306671, -2.6442304 ], [ 30.434809, -2.6392747 ], [ 30.4378703, -2.635612 ], [ 30.443394, -2.6215694 ], [ 30.4465498, -2.6135466 ], [ 30.4508118, -2.6078086 ], [ 30.4551987, -2.6019026 ], [ 30.457338, -2.5960959 ], [ 30.4660175, -2.5869886 ], [ 30.4704902, -2.5757632 ], [ 30.4738389, -2.5732432 ], [ 30.4760416, -2.5715856 ], [ 30.4792695, -2.5612244 ], [ 30.4844155, -2.5569161 ], [ 30.4838654, -2.5409935 ], [ 30.483761, -2.540082 ], [ 30.4828569, -2.5321918 ], [ 30.4829712, -2.5317464 ], [ 30.4848739, -2.5243375 ], [ 30.495487, -2.5235101 ], [ 30.4959688, -2.5219374 ], [ 30.495601, -2.519906 ], [ 30.4972448, -2.5177722 ], [ 30.5071838, -2.5048698 ], [ 30.5133127, -2.4837962 ], [ 30.5432535, -2.4132367 ], [ 30.5738834, -2.4185597 ], [ 30.5847785, -2.4135192 ], [ 30.6095541, -2.3991346 ], [ 30.6578259, -2.4131315 ], [ 30.6800038, -2.3940554 ], [ 30.683881, -2.3899455 ], [ 30.6898908, -2.3818033 ], [ 30.6912081, -2.3700061 ], [ 30.6962642, -2.3631788 ], [ 30.7038644, -2.3623737 ], [ 30.7104663, -2.3572854 ], [ 30.7170359, -2.3553853 ], [ 30.7228997, -2.3596107 ], [ 30.7278485, -2.3615952 ], [ 30.7332346, -2.3634686 ], [ 30.7387094, -2.3731621 ], [ 30.7479198, -2.3796995 ], [ 30.7640541, -2.3825013 ], [ 30.7664694, -2.3855607 ], [ 30.7663406, -2.3887598 ], [ 30.7662762, -2.3903591 ], [ 30.7764849, -2.3885879 ], [ 30.7787829, -2.3863084 ], [ 30.7804782, -2.3846268 ], [ 30.783441, -2.3796351 ], [ 30.786758, -2.3766401 ], [ 30.7877265, -2.3775279 ], [ 30.816869, -2.364789 ], [ 30.8526317, -2.3211362 ], [ 30.8515046, -2.2673551 ], [ 30.8458689, -2.2580159 ], [ 30.8468672, -2.2511242 ], [ 30.8440934, -2.2447503 ], [ 30.8423264, -2.2406901 ], [ 30.8432802, -2.2359035 ], [ 30.8466418, -2.2235896 ], [ 30.8461587, -2.2187268 ], [ 30.8459716, -2.2170171 ], [ 30.8456244, -2.2138456 ], [ 30.8454502, -2.2122537 ], [ 30.844001, -2.2059739 ], [ 30.8466763, -2.2027103 ], [ 30.850152, -2.1984703 ], [ 30.8525351, -2.1863294 ], [ 30.8601031, -2.1794054 ], [ 30.860554, -2.1734477 ], [ 30.8687016, -2.1393434 ], [ 30.8753917, -2.1351621 ], [ 30.8864462, -2.1028238 ], [ 30.8868004, -2.0931948 ], [ 30.8917599, -2.09371 ], [ 30.8992059, -2.0747704 ], [ 30.8982329, -2.0701044 ], [ 30.8777832, -2.0502022 ], [ 30.8569802, -2.0169947 ], [ 30.825304, -1.9664306 ], [ 30.8076036, -1.9381758 ], [ 30.8082851, -1.9336921 ], [ 30.813648, -1.8984103 ], [ 30.814223, -1.894627 ], [ 30.8161223, -1.8857004 ], [ 30.8183445, -1.8752559 ], [ 30.824579, -1.845954 ], [ 30.8316426, -1.8127551 ], [ 30.8279196, -1.7701339 ], [ 30.8255337, -1.7428191 ], [ 30.8215392, -1.6970893 ], [ 30.8440293, -1.660784 ], [ 30.8459266, -1.6577211 ], [ 30.8387969, -1.6475666 ], [ 30.8280191, -1.6322165 ], [ 30.799939, -1.5922236 ], [ 30.7462868, -1.520455 ], [ 30.7439602, -1.4951079 ], [ 30.7396674, -1.4483381 ], [ 30.721964, -1.4319793 ], [ 30.6846216, -1.397473 ], [ 30.6712233, -1.3958864 ], [ 30.6316662, -1.391202 ], [ 30.6233667, -1.3768666 ], [ 30.6086723, -1.3514854 ], [ 30.6018123, -1.3492535 ], [ 30.5970925, -1.3477179 ], [ 30.5932308, -1.3464615 ], [ 30.5784306, -1.3376052 ], [ 30.5731407, -1.3390599 ], [ 30.5694819, -1.3376934 ], [ 30.5672435, -1.3264054 ], [ 30.563847, -1.324244 ], [ 30.5618334, -1.3201305 ], [ 30.5588856, -1.3141085 ], [ 30.5552013, -1.3065821 ], [ 30.5599564, -1.296516 ], [ 30.5598947, -1.286944 ], [ 30.5566217, -1.2736049 ], [ 30.5521136, -1.2708877 ], [ 30.5514343, -1.2504468 ], [ 30.5464939, -1.2458769 ], [ 30.5411829, -1.2338347 ], [ 30.5332165, -1.2248802 ], [ 30.5215449, -1.2051804 ], [ 30.5225329, -1.2006105 ], [ 30.5149371, -1.1923971 ], [ 30.5125286, -1.1816518 ], [ 30.5092556, -1.175044 ], [ 30.5099349, -1.1715857 ], [ 30.5011657, -1.1637428 ], [ 30.4979848, -1.1624469 ], [ 30.4777606, -1.1610256 ], [ 30.4593576, -1.1173649 ], [ 30.4526881, -1.081794 ], [ 30.4735151, -1.0574108 ], [ 30.4969108, -1.0615842 ], [ 30.500839, -1.066433 ], [ 30.5084767, -1.0719741 ], [ 30.5326328, -1.0739825 ], [ 30.5386985, -1.0754704 ], [ 30.5395318, -1.0753007 ], [ 30.549389, -1.0683358 ], [ 30.5598846, -1.0644076 ], [ 30.5634476, -1.0641849 ], [ 30.5659581, -1.064028 ], [ 30.5885481, -1.0608476 ], [ 30.5960976, -1.0652669 ], [ 30.6065812, -1.0646769 ], [ 30.6102759, -1.0644689 ], [ 30.6159227, -1.0669854 ], [ 30.6264797, -1.0682744 ], [ 30.631881, -1.068213 ], [ 30.6331958, -1.066823 ], [ 30.6340292, -1.065942 ], [ 30.6495578, -1.065942 ], [ 30.6688919, -1.0512727 ], [ 30.6693215, -1.0437846 ], [ 30.6733725, -1.0361123 ], [ 30.6827019, -1.0276421 ], [ 30.7186081, -1.0142617 ], [ 30.7268327, -1.009106 ], [ 30.7279978, -1.0088918 ], [ 30.7350107, -1.0076027 ], [ 30.7421772, -1.0038889 ], [ 30.753348, -0.9916133 ], [ 30.7742779, -0.9861506 ], [ 30.7787585, -0.9892809 ], [ 30.7888859, -0.9928408 ], [ 30.800118, -0.9998993 ] ] ], [ [ [ 39.9060799, -7.6385175 ], [ 39.9045685, -7.718172 ], [ 39.8806029, -7.8123087 ], [ 39.8512115, -7.8492304 ], [ 39.8489688, -7.8904785 ], [ 39.8353111, -7.9124167 ], [ 39.8075204, -7.9140181 ], [ 39.777896, -7.9024744 ], [ 39.7425191, -7.9265121 ], [ 39.7327584, -7.9628761 ], [ 39.7484254, -7.975737 ], [ 39.688336, -7.9947876 ], [ 39.6428179, -7.9921547 ], [ 39.6083804, -7.9628194 ], [ 39.6193269, -7.9341891 ], [ 39.6680199, -7.9049845 ], [ 39.6974286, -7.8660115 ], [ 39.7556069, -7.8140012 ], [ 39.7970832, -7.7959766 ], [ 39.7804414, -7.7769245 ], [ 39.8305856, -7.7456463 ], [ 39.8666795, -7.7027841 ], [ 39.8718002, -7.6795742 ], [ 39.9060799, -7.6385175 ] ] ], [ [ [ 39.6867258, -4.8820198 ], [ 39.7026896, -4.908944 ], [ 39.7476726, -4.9100557 ], [ 39.810317, -4.9562318 ], [ 39.8152936, -4.9269916 ], [ 39.8387806, -4.9374768 ], [ 39.8606352, -4.9073417 ], [ 39.8726252, -4.9361995 ], [ 39.8761552, -4.9820832 ], [ 39.8673429, -5.0243741 ], [ 39.8427245, -5.0117315 ], [ 39.8202862, -5.1490409 ], [ 39.8392357, -5.1564047 ], [ 39.8465117, -5.1172095 ], [ 39.864508, -5.1161542 ], [ 39.8530641, -5.2105241 ], [ 39.8197803, -5.3216803 ], [ 39.802427, -5.3272454 ], [ 39.7947984, -5.3949286 ], [ 39.7632099, -5.4354441 ], [ 39.7265081, -5.4374833 ], [ 39.6752221, -5.4283304 ], [ 39.6471183, -5.4400744 ], [ 39.6328856, -5.4049037 ], [ 39.6446296, -5.3754199 ], [ 39.6428534, -5.3492182 ], [ 39.6675824, -5.3026277 ], [ 39.6938327, -5.2787811 ], [ 39.6886495, -5.2622857 ], [ 39.7174041, -5.2447823 ], [ 39.7017346, -5.2153516 ], [ 39.7386114, -5.1936536 ], [ 39.7342717, -5.1622003 ], [ 39.6972807, -5.1403342 ], [ 39.6856906, -5.1223002 ], [ 39.7061833, -5.051509 ], [ 39.6742983, -5.0466445 ], [ 39.6946807, -5.0195975 ], [ 39.6746619, -4.9810152 ], [ 39.688722, -4.9682813 ], [ 39.6693481, -4.9401253 ], [ 39.6867258, -4.8820198 ] ] ], [ [ [ 39.8105928, -7.9642779 ], [ 39.8058555, -7.9882601 ], [ 39.7779133, -8.0281368 ], [ 39.7578475, -8.0185824 ], [ 39.7691654, -7.9844853 ], [ 39.7930513, -7.9859649 ], [ 39.8105928, -7.9642779 ] ] ], [ [ [ 39.5659924, -9.035887 ], [ 39.6283407, -9.063889 ], [ 39.6146706, -9.113209 ], [ 39.5761585, -9.069253 ], [ 39.5659924, -9.035887 ] ] ], [ [ [ 39.5846814, -5.4105939 ], [ 39.599266, -5.4119491 ], [ 39.6231362, -5.4438914 ], [ 39.6004814, -5.4525058 ], [ 39.5773891, -5.4230807 ], [ 39.5846814, -5.4105939 ] ] ], [ [ [ 39.3042997, -5.7223277 ], [ 39.3506942, -5.7837739 ], [ 39.3608083, -5.8272681 ], [ 39.3545466, -5.870153 ], [ 39.3570911, -5.9178572 ], [ 39.3839467, -6.0017779 ], [ 39.4005366, -6.0186928 ], [ 39.4149716, -6.057072 ], [ 39.4321772, -6.0642895 ], [ 39.4259388, -6.1354327 ], [ 39.4537317, -6.1949628 ], [ 39.4812446, -6.1952158 ], [ 39.5111435, -6.1812125 ], [ 39.49056, -6.1270579 ], [ 39.509676, -6.1268177 ], [ 39.5360985, -6.1944497 ], [ 39.5380251, -6.2862027 ], [ 39.5540471, -6.3348927 ], [ 39.5803349, -6.3841097 ], [ 39.567814, -6.431315 ], [ 39.5365905, -6.4648164 ], [ 39.4901531, -6.4750931 ], [ 39.4655078, -6.4489216 ], [ 39.434136, -6.3736968 ], [ 39.4315357, -6.3458554 ], [ 39.3472996, -6.3027005 ], [ 39.3375848, -6.2715275 ], [ 39.3126779, -6.2374014 ], [ 39.2797107, -6.2559825 ], [ 39.2995863, -6.3206829 ], [ 39.2717637, -6.3156951 ], [ 39.2493174, -6.2743027 ], [ 39.2152983, -6.2526612 ], [ 39.2005728, -6.2208398 ], [ 39.2056108, -6.1871797 ], [ 39.185896, -6.1639836 ], [ 39.2146567, -6.1327405 ], [ 39.2156213, -6.096682 ], [ 39.2043599, -6.0354086 ], [ 39.187924, -6.015692 ], [ 39.1819597, -5.9484487 ], [ 39.184274, -5.9077295 ], [ 39.211775, -5.9186741 ], [ 39.2350043, -5.8797259 ], [ 39.2752717, -5.8669858 ], [ 39.2965457, -5.7907136 ], [ 39.2869245, -5.7542444 ], [ 39.3042997, -5.7223277 ] ] ], [ [ [ 39.5351491, -8.9576992 ], [ 39.5191277, -8.9945838 ], [ 39.495097, -8.9593015 ], [ 39.5351491, -8.9576992 ] ] ], [ [ [ 39.2034316, -4.6840699 ], [ 39.2146329, -4.7596106 ], [ 39.1868729, -4.7459536 ], [ 39.2034316, -4.6840699 ] ] ] ] } }
]
}
