{
"type": "FeatureCollection",
"name": "UKR_GAUL2008_ADM0",
"crs": { "type": "name", "properties": { "name": "urn:ogc:def:crs:OGC:1.3:CRS84" } },
"features": [
{ "type": "Feature", "properties": { "POLYGON_ID": "UKR_GAUL2008_ADM0_254", "ADM0_ISO3": "UKR", "ADM0_NAME": "Ukraine", "ADM0_CODE": 254, "GEOSET": "GAUL", "GEOSET_YEAR": 2008.0, "GEOSET_VERSION": "GAUL_v1", "GEOSET_UNIT": "ADM0", "CENTROID_LONG": 31.409846663152507, "CENTROID_LAT": 49.008691065059431 }, "geometry": { "type": "MultiPolygon", "coordinates": [ [ [ [ 38.2343585, 47.1153526 ], [ 38.1999817, 47.0973282 ], [ 38.1589546, 47.059536 ], [ 38.1088257, 47.1015205 ], [ 38.0630531, 47.111599 ], [ 38.0287704, 47.0896034 ], [ 37.9682655, 47.0880547 ], [ 37.9009323, 47.1104736 ], [ 37.841507, 47.1004334 ], [ 37.8016891, 47.0850105 ], [ 37.6729088, 47.0863037 ], [ 37.6363602, 47.0971336 ], [ 37.5905228, 47.0962677 ], [ 37.5200005, 47.0697632 ], [ 37.4487991, 46.9923134 ], [ 37.3429375, 46.8955574 ], [ 37.3001328, 46.929554 ], [ 37.2398529, 46.9505615 ], [ 37.1535683, 46.9113884 ], [ 37.1258698, 46.9077644 ], [ 37.0297356, 46.87146 ], [ 37.0017509, 46.8675613 ], [ 36.9150696, 46.8190117 ], [ 36.8881187, 46.7901421 ], [ 36.8509979, 46.7288742 ], [ 36.8089714, 46.7292633 ], [ 36.7373314, 46.7719193 ], [ 36.7091599, 46.7794113 ], [ 36.6085205, 46.7725525 ], [ 36.5886002, 46.7627869 ], [ 36.4555969, 46.7359619 ], [ 36.3862839, 46.7097168 ], [ 36.3467331, 46.6830025 ], [ 36.3029022, 46.6390533 ], [ 36.2223244, 46.5407028 ], [ 36.1744728, 46.4987602 ], [ 36.1483727, 46.5087585 ], [ 36.2252617, 46.5495911 ], [ 36.257328, 46.6048546 ], [ 36.2452621, 46.6395264 ], [ 36.1851959, 46.6687469 ], [ 36.1064262, 46.6534996 ], [ 36.0208282, 46.6644135 ], [ 35.9379082, 46.6589355 ], [ 35.8763618, 46.6422424 ], [ 35.8264389, 46.6154137 ], [ 35.730072, 46.5825615 ], [ 35.6586914, 46.5189934 ], [ 35.5918388, 46.478157 ], [ 35.4544373, 46.4342537 ], [ 35.4027863, 46.3905716 ], [ 35.3465195, 46.3323174 ], [ 35.3312721, 46.3074493 ], [ 35.1830902, 46.142292 ], [ 35.1419563, 46.1168404 ], [ 35.0401878, 46.0836716 ], [ 34.9885216, 46.0830307 ], [ 34.993351, 46.1084518 ], [ 35.0691872, 46.1513481 ], [ 35.1328125, 46.1548576 ], [ 35.2141838, 46.1836205 ], [ 35.2269897, 46.2161713 ], [ 35.2660828, 46.2428284 ], [ 35.3304787, 46.3159027 ], [ 35.3050156, 46.3452911 ], [ 35.2714539, 46.3458939 ], [ 35.2601051, 46.3957176 ], [ 35.2746849, 46.4403114 ], [ 35.2268066, 46.4505539 ], [ 35.1887627, 46.4421158 ], [ 35.2193298, 46.4052658 ], [ 35.2031364, 46.372963 ], [ 35.128849, 46.3292809 ], [ 35.113369, 46.2995338 ], [ 35.077343, 46.2700386 ], [ 35.0061188, 46.2487564 ], [ 34.9842262, 46.2550087 ], [ 34.8956375, 46.2409172 ], [ 34.8353996, 46.2088165 ], [ 34.8104477, 46.1709328 ], [ 34.838932, 46.1106911 ], [ 34.8482399, 46.018837 ], [ 34.8965721, 45.8949585 ], [ 34.976799, 45.7635956 ], [ 35.0045242, 45.7331619 ], [ 35.0404129, 45.6723328 ], [ 35.1088638, 45.5952721 ], [ 35.1663132, 45.5501022 ], [ 35.2643623, 45.4443398 ], [ 35.3429527, 45.377491 ], [ 35.4150429, 45.3267326 ], [ 35.5054665, 45.2842331 ], [ 35.5657997, 45.2908096 ], [ 35.615593, 45.311409 ], [ 35.7324715, 45.3347549 ], [ 35.7560921, 45.3596497 ], [ 35.7527351, 45.386795 ], [ 35.8523521, 45.4436455 ], [ 35.8725395, 45.4117699 ], [ 35.9642906, 45.3697014 ], [ 36.0225601, 45.3699379 ], [ 36.0678368, 45.3946571 ], [ 36.0739594, 45.4365997 ], [ 36.1319695, 45.4590454 ], [ 36.1982269, 45.4670029 ], [ 36.346962, 45.4754448 ], [ 36.3933754, 45.4456558 ], [ 36.4281158, 45.4381714 ], [ 36.4808998, 45.4500427 ], [ 36.5264969, 45.4208527 ], [ 36.599617, 45.4314842 ], [ 36.6081352, 45.4041557 ], [ 36.6479836, 45.375988 ], [ 36.6087189, 45.3449402 ], [ 36.5533638, 45.3394127 ], [ 36.483799, 45.3565025 ], [ 36.463253, 45.3305664 ], [ 36.4792824, 45.3004456 ], [ 36.4341698, 45.2880707 ], [ 36.4218864, 45.2322617 ], [ 36.4058228, 45.2162056 ], [ 36.4023361, 45.1748924 ], [ 36.4194298, 45.15839 ], [ 36.4391518, 45.0832253 ], [ 36.3733368, 45.0577164 ], [ 36.3051224, 45.0596008 ], [ 36.2463722, 45.0465927 ], [ 36.2222557, 45.0282021 ], [ 36.0424309, 45.0487175 ], [ 35.9983788, 45.0378304 ], [ 35.9585495, 45.0133858 ], [ 35.9333572, 45.0183105 ], [ 35.8403358, 45.0 ], [ 35.8189888, 45.0322914 ], [ 35.7347794, 45.0900993 ], [ 35.6573486, 45.1156311 ], [ 35.6010628, 45.1272774 ], [ 35.5349884, 45.1237907 ], [ 35.442421, 45.0916634 ], [ 35.4093361, 45.066536 ], [ 35.3842697, 45.0322571 ], [ 35.4221725, 45.0096436 ], [ 35.3631287, 44.9878769 ], [ 35.3329391, 44.9635963 ], [ 35.2574997, 44.9588661 ], [ 35.2474823, 44.9193344 ], [ 35.1747627, 44.901844 ], [ 35.1387138, 44.8568687 ], [ 35.1157494, 44.8086205 ], [ 35.090641, 44.7935791 ], [ 35.0578842, 44.7971077 ], [ 35.0302315, 44.8274345 ], [ 34.9512024, 44.8415451 ], [ 34.8920479, 44.8191261 ], [ 34.8324623, 44.8247681 ], [ 34.7318726, 44.8179359 ], [ 34.6527367, 44.7921333 ], [ 34.5891228, 44.7636566 ], [ 34.5455208, 44.7527008 ], [ 34.4524422, 44.7092819 ], [ 34.4091911, 44.6644669 ], [ 34.371376, 44.6059532 ], [ 34.3532867, 44.5921593 ], [ 34.3430634, 44.5509682 ], [ 34.3030434, 44.5544205 ], [ 34.2703476, 44.5390091 ], [ 34.2641182, 44.5168724 ], [ 34.1841965, 44.5004883 ], [ 34.1259003, 44.4312325 ], [ 34.095562, 44.4319534 ], [ 33.9747581, 44.3956413 ], [ 33.8662148, 44.4117966 ], [ 33.7885742, 44.390419 ], [ 33.7444572, 44.3907089 ], [ 33.7098274, 44.424202 ], [ 33.6713448, 44.4206848 ], [ 33.6471863, 44.4365501 ], [ 33.6200676, 44.492321 ], [ 33.552681, 44.4943161 ], [ 33.5254364, 44.5059624 ], [ 33.4882584, 44.5000114 ], [ 33.4688301, 44.5277443 ], [ 33.4207916, 44.5520058 ], [ 33.3817596, 44.5888405 ], [ 33.4231529, 44.5888519 ], [ 33.4573059, 44.6138306 ], [ 33.541893, 44.6327477 ], [ 33.5504265, 44.7308083 ], [ 33.5335388, 44.7937737 ], [ 33.5559845, 44.8395958 ], [ 33.5979919, 44.8521538 ], [ 33.6158371, 44.9081039 ], [ 33.6125984, 44.9918938 ], [ 33.5849648, 45.0543175 ], [ 33.5479431, 45.1085281 ], [ 33.4770851, 45.1680412 ], [ 33.4312248, 45.1903152 ], [ 33.3882828, 45.1979446 ], [ 33.3489075, 45.175518 ], [ 33.3130379, 45.1795197 ], [ 33.2631874, 45.1525803 ], [ 33.2334785, 45.1780396 ], [ 33.1888504, 45.1882095 ], [ 33.1142998, 45.2382584 ], [ 33.0180321, 45.312088 ], [ 33.0285912, 45.3423042 ], [ 33.0649719, 45.3769264 ], [ 32.9603386, 45.3453217 ], [ 32.8723946, 45.3692513 ], [ 32.7580757, 45.3668671 ], [ 32.6565781, 45.3183289 ], [ 32.5710945, 45.3380089 ], [ 32.4961281, 45.3491058 ], [ 32.5211411, 45.3733978 ], [ 32.4836082, 45.3891449 ], [ 32.4961548, 45.4156303 ], [ 32.5551338, 45.4617271 ], [ 32.6484299, 45.5079994 ], [ 32.7944145, 45.561264 ], [ 32.8411369, 45.5621758 ], [ 32.8267975, 45.5885811 ], [ 32.9124565, 45.6421471 ], [ 33.0050278, 45.6849785 ], [ 33.0604248, 45.6991348 ], [ 33.1536179, 45.7365494 ], [ 33.1651688, 45.7685356 ], [ 33.2460556, 45.7564964 ], [ 33.3455162, 45.7801285 ], [ 33.4195786, 45.8342056 ], [ 33.4502335, 45.8268013 ], [ 33.4765701, 45.8425827 ], [ 33.5294075, 45.8488655 ], [ 33.552002, 45.8398132 ], [ 33.6125107, 45.893383 ], [ 33.6585236, 45.8738213 ], [ 33.6817322, 45.9016724 ], [ 33.7323112, 45.9302673 ], [ 33.753624, 45.95821 ], [ 33.6621094, 45.9597054 ], [ 33.6232338, 46.0107727 ], [ 33.6184502, 46.0640602 ], [ 33.639843, 46.0956879 ], [ 33.594532, 46.1636162 ], [ 33.563591, 46.1524696 ], [ 33.5105324, 46.1115494 ], [ 33.5128555, 46.0852585 ], [ 33.4662743, 46.0572777 ], [ 33.4213524, 46.0438728 ], [ 33.3690186, 46.0827103 ], [ 33.3707199, 46.0982246 ], [ 33.3183212, 46.1099625 ], [ 33.3108101, 46.1257324 ], [ 33.250164, 46.1438408 ], [ 33.1945267, 46.17519 ], [ 33.1230965, 46.1325378 ], [ 33.0480614, 46.1634903 ], [ 33.0171318, 46.1590347 ], [ 33.0248909, 46.1258392 ], [ 32.9380188, 46.1104698 ], [ 32.8480492, 46.122715 ], [ 32.77211, 46.127327 ], [ 32.7381554, 46.1136017 ], [ 32.6267967, 46.109272 ], [ 32.5313301, 46.0745277 ], [ 32.4817848, 46.0793343 ], [ 32.2261696, 46.1375656 ], [ 32.2386131, 46.1514626 ], [ 32.2118874, 46.1950378 ], [ 32.1102066, 46.2154694 ], [ 32.0831337, 46.2489357 ], [ 32.0533333, 46.2628021 ], [ 32.0058708, 46.2556267 ], [ 31.9608326, 46.2728539 ], [ 31.9403763, 46.3000526 ], [ 31.9040947, 46.3042908 ], [ 31.8804722, 46.2745476 ], [ 31.8255787, 46.2770004 ], [ 31.7729015, 46.2944603 ], [ 31.7706871, 46.3117332 ], [ 31.8277721, 46.3392372 ], [ 31.9675961, 46.3481941 ], [ 31.999176, 46.3581123 ], [ 32.0447655, 46.4112015 ], [ 32.0247078, 46.4507675 ], [ 31.9940777, 46.437149 ], [ 31.8203564, 46.484787 ], [ 31.7609367, 46.4910469 ], [ 31.7012272, 46.473465 ], [ 31.6924667, 46.4470024 ], [ 31.6244679, 46.4988861 ], [ 31.5647316, 46.5309372 ], [ 31.5894756, 46.5421371 ], [ 31.6657066, 46.5421906 ], [ 31.7477741, 46.5527306 ], [ 31.7927113, 46.5349159 ], [ 32.0113449, 46.4914207 ], [ 32.0811882, 46.5022392 ], [ 32.1597633, 46.4991264 ], [ 32.2065048, 46.4810715 ], [ 32.2700157, 46.4801369 ], [ 32.3440475, 46.464035 ], [ 32.4125061, 46.4772415 ], [ 32.4150124, 46.5005074 ], [ 32.3312759, 46.4799576 ], [ 32.3514938, 46.5147247 ], [ 32.3026085, 46.5192146 ], [ 32.312294, 46.5582542 ], [ 32.2615852, 46.5914192 ], [ 32.1818314, 46.5753975 ], [ 32.1428223, 46.5582809 ], [ 32.125843, 46.5949745 ], [ 32.0908966, 46.6163902 ], [ 32.0290413, 46.626545 ], [ 31.9883404, 46.6550369 ], [ 31.9721031, 46.6825104 ], [ 31.9646931, 46.7277107 ], [ 31.9342442, 46.7488861 ], [ 31.932785, 46.7901764 ], [ 31.9572735, 46.8155136 ], [ 31.9528904, 46.8381386 ], [ 31.9861908, 46.8532639 ], [ 31.9750767, 46.8789139 ], [ 31.9105625, 46.834137 ], [ 31.877018, 46.7999916 ], [ 31.8744183, 46.7613907 ], [ 31.9141998, 46.7284012 ], [ 31.8993092, 46.6783829 ], [ 31.9044819, 46.6493111 ], [ 31.8789539, 46.6340828 ], [ 31.7952518, 46.6130981 ], [ 31.6766434, 46.6489601 ], [ 31.6183453, 46.6507454 ], [ 31.5823193, 46.6360855 ], [ 31.5603981, 46.6064529 ], [ 31.4570484, 46.6430626 ], [ 31.5044174, 46.6630592 ], [ 31.5216255, 46.7430267 ], [ 31.4922829, 46.754879 ], [ 31.4894772, 46.7016296 ], [ 31.4600468, 46.6690559 ], [ 31.4278831, 46.6567268 ], [ 31.4102345, 46.6255417 ], [ 31.3579826, 46.6235466 ], [ 31.3485661, 46.6041908 ], [ 31.2773743, 46.623909 ], [ 31.2458916, 46.6154022 ], [ 31.1824646, 46.6329536 ], [ 31.0692482, 46.6132355 ], [ 30.9530487, 46.5825157 ], [ 30.9274082, 46.5808334 ], [ 30.8293419, 46.5514717 ], [ 30.8084641, 46.5615196 ], [ 30.7510738, 46.5399628 ], [ 30.7373047, 46.5163498 ], [ 30.7640686, 46.4898796 ], [ 30.7742786, 46.4430847 ], [ 30.748167, 46.3763542 ], [ 30.6797619, 46.3232841 ], [ 30.6125011, 46.2225151 ], [ 30.5258026, 46.1389923 ], [ 30.4721069, 46.0762138 ], [ 30.3755341, 46.0075264 ], [ 30.2805176, 45.9213142 ], [ 30.2591019, 45.8953362 ], [ 30.1685104, 45.8361702 ], [ 30.0847111, 45.7971382 ], [ 29.9701519, 45.7219543 ], [ 29.8900127, 45.6781197 ], [ 29.7908325, 45.6495628 ], [ 29.7701263, 45.624855 ], [ 29.7400551, 45.6157036 ], [ 29.7231216, 45.6731071 ], [ 29.6796608, 45.7075195 ], [ 29.6919785, 45.7273941 ], [ 29.6971092, 45.8048973 ], [ 29.6568451, 45.810833 ], [ 29.6281376, 45.7601776 ], [ 29.6288776, 45.7324562 ], [ 29.6031876, 45.6897469 ], [ 29.613409, 45.6176262 ], [ 29.5994034, 45.5725899 ], [ 29.6400127, 45.5190315 ], [ 29.6075802, 45.4817352 ], [ 29.6529903, 45.4447746 ], [ 29.7010365, 45.473011 ], [ 29.744503, 45.4779129 ], [ 29.7648087, 45.4323845 ], [ 29.7540379, 45.4099617 ], [ 29.7680454, 45.3335991 ], [ 29.7356472, 45.269989 ], [ 29.7408772, 45.2355118 ], [ 29.6757312, 45.2169136 ], [ 29.66146, 45.25473 ], [ 29.68064, 45.27142 ], [ 29.65741, 45.3438 ], [ 29.57072, 45.40696 ], [ 29.48729, 45.42394 ], [ 29.42979, 45.44407 ], [ 29.33679, 45.44454 ], [ 29.31375, 45.43279 ], [ 29.24919, 45.42986 ], [ 29.13104, 45.38358 ], [ 29.09058, 45.38698 ], [ 29.04998, 45.36544 ], [ 28.99679, 45.35597 ], [ 28.95839, 45.31925 ], [ 28.95965, 45.29635 ], [ 28.93145, 45.28487 ], [ 28.90044, 45.30842 ], [ 28.82684, 45.33632 ], [ 28.7728, 45.2896 ], [ 28.79501, 45.24746 ], [ 28.73659, 45.22992 ], [ 28.68517, 45.23595 ], [ 28.63909, 45.25101 ], [ 28.57324, 45.25535 ], [ 28.35446, 45.32363 ], [ 28.33113, 45.34307 ], [ 28.28564, 45.40807 ], [ 28.27881, 45.45523 ], [ 28.21632, 45.4689 ], [ 28.26891, 45.53105 ], [ 28.31025, 45.54561 ], [ 28.40616, 45.51966 ], [ 28.43553, 45.48762 ], [ 28.51629, 45.50547 ], [ 28.50103, 45.56753 ], [ 28.54778, 45.5836 ], [ 28.5276082, 45.6647022 ], [ 28.49601, 45.67532 ], [ 28.54789, 45.73716 ], [ 28.60032, 45.73582 ], [ 28.60573, 45.76879 ], [ 28.71773, 45.79196 ], [ 28.71186, 45.81926 ], [ 28.79045, 45.84645 ], [ 28.76508, 45.92227 ], [ 28.76946, 45.9573 ], [ 28.7942, 45.97723 ], [ 28.9780992, 46.0125097 ], [ 29.0103695, 46.0649086 ], [ 28.95815, 46.10687 ], [ 29.0581395, 46.1996114 ], [ 28.94741, 46.28032 ], [ 28.99285, 46.33089 ], [ 28.93682, 46.46199 ], [ 28.99671, 46.46864 ], [ 29.0008, 46.48674 ], [ 29.04658, 46.50015 ], [ 29.06152, 46.52057 ], [ 29.16666, 46.51908 ], [ 29.1951, 46.54919 ], [ 29.242207, 46.563329 ], [ 29.24176, 46.47587 ], [ 29.2342, 46.42647 ], [ 29.21674, 46.40281 ], [ 29.25788, 46.38402 ], [ 29.26833, 46.41192 ], [ 29.32344, 46.41848 ], [ 29.31448, 46.47144 ], [ 29.35031, 46.50635 ], [ 29.4013, 46.46095 ], [ 29.45276, 46.49722 ], [ 29.50892, 46.46488 ], [ 29.49858, 46.44361 ], [ 29.52853, 46.4142 ], [ 29.56053, 46.40868 ], [ 29.59343, 46.36434 ], [ 29.68043, 46.36354 ], [ 29.6727, 46.43879 ], [ 29.73698, 46.43426 ], [ 29.75419, 46.47519 ], [ 29.79636, 46.45537 ], [ 29.79318, 46.43645 ], [ 29.82906, 46.38208 ], [ 29.88554, 46.36442 ], [ 29.94687, 46.40275 ], [ 30.01038, 46.3824 ], [ 30.07457, 46.40327 ], [ 30.10125, 46.38699 ], [ 30.14867, 46.40572 ], [ 30.10468, 46.43726 ], [ 30.06196, 46.43259 ], [ 30.02192, 46.45761 ], [ 30.02592, 46.47463 ], [ 29.99422, 46.50467 ], [ 29.94617, 46.50133 ], [ 29.89378, 46.54371 ], [ 29.91046, 46.55973 ], [ 29.95351, 46.56306 ], [ 29.96719, 46.59309 ], [ 29.94784, 46.65216 ], [ 29.97286, 46.69187 ], [ 29.97921, 46.76361 ], [ 29.94013, 46.80594 ], [ 29.97173, 46.82879 ], [ 29.88286, 46.84548 ], [ 29.87348, 46.88401 ], [ 29.79607, 46.86278 ], [ 29.74938, 46.86876 ], [ 29.73461, 46.91968 ], [ 29.65303, 46.92592 ], [ 29.643, 46.95252 ], [ 29.60511, 46.96949 ], [ 29.60803, 47.03055 ], [ 29.62753, 47.06889 ], [ 29.61986, 47.10266 ], [ 29.58967, 47.10248 ], [ 29.5522773, 47.0803719 ], [ 29.5164, 47.11174 ], [ 29.515, 47.13092 ], [ 29.591198, 47.1418694 ], [ 29.56068, 47.24401 ], [ 29.6044487, 47.2634797 ], [ 29.58986, 47.36605 ], [ 29.57916, 47.37817 ], [ 29.50361, 47.36467 ], [ 29.49114, 47.31572 ], [ 29.44327, 47.30026 ], [ 29.39292, 47.31917 ], [ 29.38636, 47.34386 ], [ 29.40758, 47.37207 ], [ 29.38786, 47.38613 ], [ 29.33934, 47.38365 ], [ 29.32738, 47.43842 ], [ 29.30636, 47.4467 ], [ 29.2518698, 47.4262028 ], [ 29.2487894, 47.4620301 ], [ 29.2081, 47.43987 ], [ 29.17876, 47.47211 ], [ 29.19498, 47.48171 ], [ 29.13371, 47.549 ], [ 29.2011567, 47.5715198 ], [ 29.2278398, 47.6036411 ], [ 29.24186, 47.63993 ], [ 29.22197, 47.65287 ], [ 29.2383194, 47.6945406 ], [ 29.22216, 47.72405 ], [ 29.26775, 47.75804 ], [ 29.2901, 47.80106 ], [ 29.24013, 47.79784 ], [ 29.21724, 47.81949 ], [ 29.22792, 47.8504 ], [ 29.26985, 47.88445 ], [ 29.20927, 47.88752 ], [ 29.2059495, 47.9337964 ], [ 29.18855, 47.99401 ], [ 29.10968, 47.98392 ], [ 29.07667, 47.94212 ], [ 29.02903, 47.94889 ], [ 28.98904, 47.97902 ], [ 28.94376, 47.95612 ], [ 28.8556, 48.03298 ], [ 28.85447, 48.12167 ], [ 28.76025, 48.13814 ], [ 28.73504, 48.13022 ], [ 28.65559, 48.14526 ], [ 28.62918, 48.16206 ], [ 28.57718, 48.17215 ], [ 28.5445999, 48.1616795 ], [ 28.53309, 48.12709 ], [ 28.50091, 48.11096 ], [ 28.4967, 48.06413 ], [ 28.44949, 48.08844 ], [ 28.42976, 48.13046 ], [ 28.44122, 48.14743 ], [ 28.42637, 48.17577 ], [ 28.38118, 48.17557 ], [ 28.35423, 48.13693 ], [ 28.31101, 48.15653 ], [ 28.35766, 48.18509 ], [ 28.3717298, 48.2248783 ], [ 28.34627, 48.24935 ], [ 28.2989171, 48.2388689 ], [ 28.21793, 48.20869 ], [ 28.19573, 48.21356 ], [ 28.1886, 48.25544 ], [ 28.1440682, 48.2502989 ], [ 28.10763, 48.23411 ], [ 28.08338, 48.25344 ], [ 28.09649, 48.30175 ], [ 28.0500192, 48.32706 ], [ 27.98615, 48.32544 ], [ 27.93683, 48.34072 ], [ 27.8908, 48.37418 ], [ 27.87266, 48.40975 ], [ 27.82814, 48.42163 ], [ 27.76365, 48.45857 ], [ 27.6826, 48.44354 ], [ 27.64239, 48.44858 ], [ 27.56609, 48.47384 ], [ 27.47164, 48.44889 ], [ 27.46419, 48.42336 ], [ 27.38126, 48.41063 ], [ 27.34953, 48.45208 ], [ 27.32388, 48.44143 ], [ 27.28478, 48.38408 ], [ 27.2295393, 48.3745306 ], [ 27.19716, 48.39617 ], [ 27.15061, 48.3828 ], [ 27.09411, 48.40908 ], [ 27.07611, 48.43711 ], [ 27.03725, 48.42289 ], [ 27.05539, 48.39999 ], [ 27.00289, 48.36539 ], [ 26.92827, 48.37053 ], [ 26.90545, 48.38246 ], [ 26.88107, 48.4259 ], [ 26.80166, 48.41635 ], [ 26.72648, 48.39499 ], [ 26.78948, 48.35421 ], [ 26.8287697, 48.3406903 ], [ 26.82015, 48.29317 ], [ 26.77267, 48.27746 ], [ 26.75258, 48.31863 ], [ 26.6905, 48.34767 ], [ 26.67446, 48.30825 ], [ 26.61889, 48.26505 ], [ 26.62361, 48.2505 ], [ 26.59016, 48.24729 ], [ 26.55509, 48.21777 ], [ 26.47875, 48.22282 ], [ 26.39858, 48.19061 ], [ 26.32182, 48.18796 ], [ 26.32465, 48.15562 ], [ 26.27249, 48.07542 ], [ 26.23892, 48.04894 ], [ 26.19963, 48.00007 ], [ 26.14428, 47.98842 ], [ 26.07315, 47.99106 ], [ 25.98476, 47.97388 ], [ 25.9212, 47.97823 ], [ 25.78523, 47.94157 ], [ 25.72713, 47.93397 ], [ 25.64182, 47.94554 ], [ 25.61159, 47.93914 ], [ 25.32818, 47.92186 ], [ 25.24329, 47.888 ], [ 25.15483, 47.78839 ], [ 25.1206688, 47.7579196 ], [ 25.05569, 47.73927 ], [ 24.91005, 47.72233 ], [ 24.82298, 47.81838 ], [ 24.72739, 47.84134 ], [ 24.68286, 47.87195 ], [ 24.67113, 47.91162 ], [ 24.63347, 47.94676 ], [ 24.57831, 47.96524 ], [ 24.52842, 47.95706 ], [ 24.47678, 47.96987 ], [ 24.4095699, 47.9559599 ], [ 24.38415, 47.93075 ], [ 24.33963, 47.93272 ], [ 24.23471, 47.9059 ], [ 24.21116, 47.91801 ], [ 24.14677, 47.91368 ], [ 24.11031, 47.9228 ], [ 24.07749, 47.94737 ], [ 24.01106, 47.96529 ], [ 23.97452, 47.96428 ], [ 23.89077, 47.93468 ], [ 23.85047, 47.95195 ], [ 23.82367, 47.98234 ], [ 23.76645, 47.99733 ], [ 23.6683, 47.98822 ], [ 23.62018, 48.0 ], [ 23.53011, 48.0 ], [ 23.51119, 47.98112 ], [ 23.43562, 48.0 ], [ 23.40315, 48.0 ], [ 23.30337, 48.04624 ], [ 23.27864, 48.08739 ], [ 23.20501, 48.09649 ], [ 23.1866477, 48.1184195 ], [ 23.12964, 48.08795 ], [ 23.11323, 48.02704 ], [ 23.03814, 47.9915 ], [ 22.9389, 48.01701 ], [ 22.95028, 47.96945 ], [ 22.9059895, 47.9590498 ], [ 22.85896, 47.98235 ], [ 22.85654, 48.0 ], [ 22.88949, 48.04349 ], [ 22.81152, 48.11998 ], [ 22.7331895, 48.1173396 ], [ 22.6796, 48.09198 ], [ 22.60148, 48.11383 ], [ 22.6004, 48.14345 ], [ 22.57218, 48.18617 ], [ 22.5339, 48.21647 ], [ 22.5232, 48.24034 ], [ 22.41356, 48.25326 ], [ 22.3944487, 48.2417503 ], [ 22.34544, 48.28251 ], [ 22.32294, 48.32583 ], [ 22.32725, 48.36194 ], [ 22.28256, 48.35797 ], [ 22.26447, 48.38157 ], [ 22.27772, 48.4134 ], [ 22.21341, 48.42349 ], [ 22.1303581, 48.3818996 ], [ 22.15727, 48.4082 ], [ 22.17854, 48.58846 ], [ 22.2353069, 48.6260088 ], [ 22.25946, 48.65598 ], [ 22.35705, 48.69934 ], [ 22.37131, 48.7322 ], [ 22.36065, 48.77075 ], [ 22.39222, 48.79509 ], [ 22.3943, 48.86127 ], [ 22.43062, 48.889 ], [ 22.44261, 48.94123 ], [ 22.48464, 48.973 ], [ 22.50242, 49.00012 ], [ 22.53219, 48.99714 ], [ 22.55997, 49.03687 ], [ 22.57044, 49.08673 ], [ 22.59073, 49.09602 ], [ 22.63712, 49.07785 ], [ 22.65871, 49.05172 ], [ 22.69677, 49.04197 ], [ 22.78403, 49.05384 ], [ 22.82752, 49.02757 ], [ 22.88797, 49.00637 ], [ 22.8732798, 49.0786668 ], [ 22.89602, 49.09502 ], [ 22.83618, 49.11425 ], [ 22.79666, 49.15688 ], [ 22.74745, 49.15907 ], [ 22.75764, 49.18463 ], [ 22.7344, 49.19981 ], [ 22.7338199, 49.2318384 ], [ 22.75892, 49.2858 ], [ 22.74294, 49.31878 ], [ 22.72914, 49.40545 ], [ 22.69707, 49.45147 ], [ 22.70014, 49.48845 ], [ 22.6711, 49.5238 ], [ 22.68042, 49.56676 ], [ 22.7626696, 49.6356597 ], [ 22.80335, 49.6954 ], [ 22.84993, 49.71693 ], [ 22.8968987, 49.7507494 ], [ 22.91608, 49.78309 ], [ 22.97014, 49.83081 ], [ 23.0227574, 49.8668982 ], [ 23.1807, 50.00176 ], [ 23.22425, 50.04548 ], [ 23.27671, 50.07203 ], [ 23.29228, 50.09554 ], [ 23.40044, 50.15585 ], [ 23.45537, 50.20406 ], [ 23.6018374, 50.2751089 ], [ 23.62727, 50.30962 ], [ 23.69035, 50.33762 ], [ 23.72086, 50.38668 ], [ 23.76617, 50.41068 ], [ 23.82122, 50.42037 ], [ 23.93705, 50.41228 ], [ 24.04214, 50.44585 ], [ 24.07194, 50.49552 ], [ 24.07629, 50.52959 ], [ 24.1088598, 50.6359292 ], [ 24.05537, 50.69614 ], [ 24.0713, 50.72207 ], [ 24.02011, 50.72598 ], [ 24.02614, 50.76537 ], [ 23.9835, 50.77364 ], [ 23.96477, 50.80078 ], [ 23.9931196, 50.8432694 ], [ 24.10545, 50.84031 ], [ 24.1486075, 50.8603786 ], [ 24.08723, 50.89312 ], [ 24.0633489, 50.8950804 ], [ 23.9765498, 50.9558016 ], [ 23.96819, 50.98666 ], [ 23.92731, 51.0098 ], [ 23.93563, 51.03777 ], [ 23.91919, 51.07225 ], [ 23.86466, 51.10308 ], [ 23.87651, 51.13679 ], [ 23.78751, 51.19943 ], [ 23.74613, 51.21403 ], [ 23.72, 51.26971 ], [ 23.65505, 51.29144 ], [ 23.64095, 51.322 ], [ 23.68298, 51.39231 ], [ 23.7062, 51.40444 ], [ 23.67928, 51.47406 ], [ 23.63085, 51.49686 ], [ 23.66825, 51.5046 ], [ 23.68866, 51.53523 ], [ 23.64143, 51.57335 ], [ 23.66209, 51.5991 ], [ 23.6496493, 51.6291086 ], [ 23.73909, 51.66004 ], [ 23.7672, 51.6625 ], [ 23.8296398, 51.63435 ], [ 23.86179, 51.65149 ], [ 23.92835, 51.63507 ], [ 23.92318, 51.60961 ], [ 23.9444, 51.58948 ], [ 24.0574, 51.58252 ], [ 24.27861, 51.70182 ], [ 24.3505775, 51.7554381 ], [ 24.37607, 51.83963 ], [ 24.36956, 51.89318 ], [ 24.41894, 51.92599 ], [ 24.46768, 51.93048 ], [ 24.64621, 51.91981 ], [ 24.71453, 51.90002 ], [ 24.75387, 51.90236 ], [ 24.79278, 51.9232 ], [ 24.84161, 51.92559 ], [ 24.94585, 51.91768 ], [ 25.02783, 51.9183 ], [ 25.14209, 51.96977 ], [ 25.29784, 51.97497 ], [ 25.39955, 51.92773 ], [ 25.44153, 51.92373 ], [ 25.50509, 51.93506 ], [ 25.68046, 51.91418 ], [ 25.77177, 51.92634 ], [ 25.78447, 51.94533 ], [ 25.83168, 51.93378 ], [ 25.96347, 51.91709 ], [ 26.0017, 51.93233 ], [ 26.04396, 51.92131 ], [ 26.09091, 51.92793 ], [ 26.19521, 51.87972 ], [ 26.37704, 51.86012 ], [ 26.40599, 51.87059 ], [ 26.48986, 51.8105 ], [ 26.51949, 51.80532 ], [ 26.6306, 51.83199 ], [ 26.71052, 51.82085 ], [ 26.79438, 51.78396 ], [ 26.82968, 51.79428 ], [ 26.8937, 51.76138 ], [ 26.9727494, 51.759 ], [ 27.0025, 51.78851 ], [ 27.06358, 51.79073 ], [ 27.12163, 51.78222 ], [ 27.19182, 51.78484 ], [ 27.20017, 51.75933 ], [ 27.19877, 51.68084 ], [ 27.22205, 51.66928 ], [ 27.27398, 51.67432 ], [ 27.24552, 51.63455 ], [ 27.28402, 51.61771 ], [ 27.43691, 51.63101 ], [ 27.46733, 51.61874 ], [ 27.55146, 51.63621 ], [ 27.57184, 51.64721 ], [ 27.62541, 51.62382 ], [ 27.72064, 51.62236 ], [ 27.73634, 51.60686 ], [ 27.72551, 51.56409 ], [ 27.68668, 51.54493 ], [ 27.68229, 51.5032 ], [ 27.74991, 51.47501 ], [ 27.80182, 51.52557 ], [ 27.8406793, 51.5446997 ], [ 27.8325, 51.56518 ], [ 27.84507, 51.60394 ], [ 27.89055, 51.62689 ], [ 27.92082, 51.61394 ], [ 27.9245, 51.57489 ], [ 27.95728, 51.55849 ], [ 28.02604, 51.56269 ], [ 28.12679, 51.61079 ], [ 28.16061, 51.61787 ], [ 28.19008, 51.65181 ], [ 28.28639, 51.68141 ], [ 28.26598, 51.63957 ], [ 28.3099, 51.62021 ], [ 28.40425, 51.54617 ], [ 28.46824, 51.57989 ], [ 28.52403, 51.58638 ], [ 28.60078, 51.5596 ], [ 28.65867, 51.56895 ], [ 28.64602, 51.53413 ], [ 28.6697, 51.48474 ], [ 28.67763, 51.44347 ], [ 28.74938, 51.46315 ], [ 28.75496, 51.43086 ], [ 28.79973, 51.43093 ], [ 28.78669, 51.49497 ], [ 28.82065, 51.5477 ], [ 28.9113893, 51.5906296 ], [ 28.96793, 51.59272 ], [ 28.99952, 51.56567 ], [ 29.07377, 51.61319 ], [ 29.11175, 51.64873 ], [ 29.16256, 51.6457 ], [ 29.22864, 51.62713 ], [ 29.22056, 51.58809 ], [ 29.264009, 51.5685305 ], [ 29.27687, 51.54448 ], [ 29.26, 51.50354 ], [ 29.30718, 51.44351 ], [ 29.32265, 51.39784 ], [ 29.36225, 51.38697 ], [ 29.40589, 51.4174 ], [ 29.48034, 51.40113 ], [ 29.52618, 51.41476 ], [ 29.5421978, 51.474537 ], [ 29.58267, 51.46357 ], [ 29.63526, 51.50547 ], [ 29.71579, 51.51953 ], [ 29.74739, 51.47542 ], [ 29.78471, 51.44833 ], [ 29.81999, 51.45791 ], [ 29.87689, 51.44843 ], [ 29.90418, 51.48409 ], [ 30.0, 51.48946 ], [ 30.02617, 51.49888 ], [ 30.1616, 51.51041 ], [ 30.25636, 51.48222 ], [ 30.32717, 51.43458 ], [ 30.3639, 51.38932 ], [ 30.34322, 51.35723 ], [ 30.41009, 51.30804 ], [ 30.4583882, 51.30997 ], [ 30.45819, 51.28202 ], [ 30.5066875, 51.2861198 ], [ 30.53009, 51.26709 ], [ 30.57419, 51.26256 ], [ 30.58972, 51.31128 ], [ 30.63585, 51.33407 ], [ 30.66345, 51.38008 ], [ 30.63384, 51.42352 ], [ 30.59314, 51.42847 ], [ 30.59749, 51.47926 ], [ 30.58465, 51.5259 ], [ 30.556169, 51.5448803 ], [ 30.52268, 51.6051 ], [ 30.56714, 51.62634 ], [ 30.59099, 51.66119 ], [ 30.57749, 51.71119 ], [ 30.621788, 51.7094002 ], [ 30.6595783, 51.7569885 ], [ 30.6795095, 51.8019991 ], [ 30.66449, 51.82589 ], [ 30.70291, 51.83934 ], [ 30.71402, 51.86931 ], [ 30.75469, 51.90293 ], [ 30.79579, 51.90121 ], [ 30.83103, 51.92339 ], [ 30.81731, 51.94425 ], [ 30.86509, 51.96114 ], [ 30.89449, 52.0028 ], [ 30.9475489, 52.0238095 ], [ 30.95283, 52.05995 ], [ 30.9971, 52.0755 ], [ 31.13743, 52.09405 ], [ 31.16861, 52.0781 ], [ 31.28003, 52.04247 ], [ 31.30573, 52.05002 ], [ 31.32123, 52.09006 ], [ 31.37677, 52.10931 ], [ 31.395359, 52.1353688 ], [ 31.46627, 52.13493 ], [ 31.49058, 52.12141 ], [ 31.70468, 52.10373 ], [ 31.7474, 52.09539 ], [ 31.7968, 52.10737 ], [ 31.86708, 52.10656 ], [ 31.93733, 52.09008 ], [ 31.92811, 52.0496 ], [ 31.97409, 52.0256 ], [ 32.0541683, 52.0490293 ], [ 32.1415978, 52.0549898 ], [ 32.17219, 52.0728 ], [ 32.22548, 52.08372 ], [ 32.33492, 52.11999 ], [ 32.3678194, 52.1440391 ], [ 32.3429, 52.16049 ], [ 32.33599, 52.23368 ], [ 32.39614, 52.26097 ], [ 32.36039, 52.30473 ], [ 32.38804, 52.3351 ], [ 32.48697, 52.31927 ], [ 32.53942, 52.32667 ], [ 32.6444, 52.29097 ], [ 32.7063, 52.25464 ], [ 32.74541, 52.26229 ], [ 32.8113494, 52.25714 ], [ 32.82795, 52.27341 ], [ 32.8734, 52.27202 ], [ 32.90549, 52.24381 ], [ 32.97704, 52.27402 ], [ 33.01031, 52.27978 ], [ 33.0310086, 52.3035382 ], [ 33.07991, 52.31006 ], [ 33.17583, 52.36283 ], [ 33.24295, 52.36816 ], [ 33.34275, 52.34982 ], [ 33.38093, 52.36726 ], [ 33.42221, 52.34478 ], [ 33.45843, 52.35886 ], [ 33.5207198, 52.3522601 ], [ 33.48698, 52.31991 ], [ 33.5459, 52.3023 ], [ 33.61913, 52.33463 ], [ 33.67077, 52.33987 ], [ 33.70628, 52.35738 ], [ 33.81449, 52.3629 ], [ 33.8425499, 52.3505082 ], [ 33.86011, 52.3079 ], [ 33.91114, 52.30568 ], [ 33.93693, 52.29217 ], [ 33.94111, 52.25417 ], [ 34.0214, 52.19333 ], [ 34.0714, 52.18664 ], [ 34.08563, 52.15183 ], [ 34.12926, 52.14016 ], [ 34.1190999, 52.0810924 ], [ 34.07634, 52.0704 ], [ 34.109489, 52.0377622 ], [ 34.0954, 52.02325 ], [ 34.13868, 51.96969 ], [ 34.18718, 51.95689 ], [ 34.22279, 51.91695 ], [ 34.25801, 51.90985 ], [ 34.26501, 51.85507 ], [ 34.33354, 51.85641 ], [ 34.4091494, 51.8380802 ], [ 34.45163, 51.76831 ], [ 34.43678, 51.72575 ], [ 34.33864, 51.72302 ], [ 34.25477, 51.70155 ], [ 34.1303374, 51.6846491 ], [ 34.09163, 51.66339 ], [ 34.17979, 51.63045 ], [ 34.2143992, 51.5882108 ], [ 34.25792, 51.58026 ], [ 34.30232, 51.50511 ], [ 34.26963, 51.47577 ], [ 34.26198, 51.44081 ], [ 34.22447, 51.40585 ], [ 34.34142, 51.35432 ], [ 34.31586, 51.30884 ], [ 34.27601, 51.27328 ], [ 34.27358, 51.25559 ], [ 34.32549, 51.23931 ], [ 34.37726, 51.26783 ], [ 34.45734, 51.24088 ], [ 34.54257, 51.24338 ], [ 34.58688, 51.2354 ], [ 34.65614, 51.24712 ], [ 34.68066, 51.19735 ], [ 34.72613, 51.17596 ], [ 34.78152, 51.18513 ], [ 34.82221, 51.1768 ], [ 34.85647, 51.19788 ], [ 34.8986071, 51.2015797 ], [ 34.96283, 51.23516 ], [ 35.12802, 51.22185 ], [ 35.14093, 51.1466 ], [ 35.16532, 51.12884 ], [ 35.16738, 51.08197 ], [ 35.2388, 51.04499 ], [ 35.31951, 51.07201 ], [ 35.41616, 51.06048 ], [ 35.42046, 51.02719 ], [ 35.34469, 51.01325 ], [ 35.35781, 50.94846 ], [ 35.40517, 50.92622 ], [ 35.39085, 50.88425 ], [ 35.41458, 50.84031 ], [ 35.42344, 50.80061 ], [ 35.48997, 50.77513 ], [ 35.48184, 50.69479 ], [ 35.49427, 50.66874 ], [ 35.44049, 50.66745 ], [ 35.41199, 50.65513 ], [ 35.44366, 50.61918 ], [ 35.40844, 50.59075 ], [ 35.44394, 50.56698 ], [ 35.46726, 50.51705 ], [ 35.5092, 50.48177 ], [ 35.58874, 50.45936 ], [ 35.59221, 50.40813 ], [ 35.61791, 50.37847 ], [ 35.68049, 50.3661 ], [ 35.72446, 50.36816 ], [ 35.80604, 50.40614 ], [ 35.82428, 50.43934 ], [ 35.85998, 50.43487 ], [ 35.98129, 50.44312 ], [ 36.08672, 50.45625 ], [ 36.13073, 50.45071 ], [ 36.2310788, 50.4186878 ], [ 36.23305, 50.389 ], [ 36.29581, 50.35768 ], [ 36.3153893, 50.2940122 ], [ 36.35817, 50.29577 ], [ 36.45283, 50.33402 ], [ 36.57366, 50.27608 ], [ 36.57951, 50.25035 ], [ 36.61325, 50.23288 ], [ 36.65674, 50.23754 ], [ 36.72945, 50.29294 ], [ 36.93196, 50.35375 ], [ 37.07544, 50.35085 ], [ 37.17494, 50.35522 ], [ 37.28144, 50.38812 ], [ 37.34329, 50.42542 ], [ 37.41731, 50.42012 ], [ 37.47427, 50.44074 ], [ 37.4931296, 50.4289936 ], [ 37.47485, 50.38645 ], [ 37.50135, 50.34904 ], [ 37.53622, 50.32913 ], [ 37.61193, 50.30743 ], [ 37.64912, 50.28686 ], [ 37.6253, 50.22102 ], [ 37.65234, 50.17692 ], [ 37.76139, 50.09198 ], [ 37.86491, 50.05431 ], [ 37.91085, 50.04595 ], [ 37.9703387, 49.9861411 ], [ 38.00519, 49.97281 ], [ 38.01365, 49.94716 ], [ 38.0497, 49.92196 ], [ 38.16323, 49.94915 ], [ 38.1952, 49.95199 ], [ 38.21813, 49.976 ], [ 38.20001, 50.01836 ], [ 38.1926, 50.0686 ], [ 38.20642, 50.08033 ], [ 38.28202, 50.0753 ], [ 38.32026, 50.0858 ], [ 38.35026, 50.07439 ], [ 38.3665, 50.00295 ], [ 38.42802, 49.98686 ], [ 38.46169, 49.99637 ], [ 38.5382098, 49.96744 ], [ 38.61254, 49.98593 ], [ 38.69832, 49.95502 ], [ 38.77558, 49.90218 ], [ 38.82969, 49.88857 ], [ 38.84965, 49.87073 ], [ 38.92108, 49.86885 ], [ 38.94669, 49.81108 ], [ 39.04651, 49.81162 ], [ 39.0826, 49.81955 ], [ 39.164, 49.87803 ], [ 39.21891, 49.85239 ], [ 39.23578, 49.79873 ], [ 39.28227, 49.76163 ], [ 39.36882, 49.73918 ], [ 39.45983, 49.76359 ], [ 39.51134, 49.74884 ], [ 39.61168, 49.73999 ], [ 39.60733, 49.70421 ], [ 39.64275, 49.63993 ], [ 39.68898, 49.61604 ], [ 39.73292, 49.60841 ], [ 39.80256, 49.57475 ], [ 39.86976, 49.55955 ], [ 39.92411, 49.56623 ], [ 39.97999, 49.60336 ], [ 40.10074, 49.60872 ], [ 40.14237, 49.61943 ], [ 40.18577, 49.58043 ], [ 40.17297, 49.55502 ], [ 40.125, 49.54917 ], [ 40.07889, 49.53083 ], [ 40.05333, 49.485 ], [ 40.05805, 49.46084 ], [ 40.10139, 49.41222 ], [ 40.17083, 49.355 ], [ 40.20032, 49.27058 ], [ 40.19964, 49.24311 ], [ 40.15106, 49.24041 ], [ 40.07601, 49.18803 ], [ 40.0334179, 49.1809878 ], [ 39.94778, 49.08446 ], [ 39.94147, 49.05906 ], [ 39.89596, 49.06449 ], [ 39.81371, 49.06145 ], [ 39.7594685, 49.0450603 ], [ 39.70432, 49.05904 ], [ 39.68453, 49.03471 ], [ 39.6888, 49.01035 ], [ 39.74931, 48.98581 ], [ 39.78959, 48.93535 ], [ 39.8464, 48.89958 ], [ 39.93183, 48.89716 ], [ 39.98926, 48.88456 ], [ 40.05628, 48.9175 ], [ 40.10636, 48.90055 ], [ 40.0953, 48.86519 ], [ 40.02682, 48.80367 ], [ 39.96717, 48.78721 ], [ 39.80222, 48.83661 ], [ 39.76978, 48.77942 ], [ 39.7204, 48.73182 ], [ 39.70974, 48.65607 ], [ 39.66655, 48.61906 ], [ 39.68103, 48.59319 ], [ 39.72779, 48.58762 ], [ 39.7837, 48.59315 ], [ 39.85005, 48.5708 ], [ 39.86976, 48.51975 ], [ 39.84862, 48.4998 ], [ 39.8518899, 48.4721104 ], [ 39.89591, 48.44854 ], [ 39.89784, 48.42974 ], [ 39.94077, 48.38678 ], [ 39.93802, 48.36015 ], [ 39.86702, 48.33888 ], [ 39.85029, 48.32209 ], [ 39.91616, 48.30021 ], [ 39.9863679, 48.3154892 ], [ 40.01489, 48.26658 ], [ 39.99643, 48.22307 ], [ 39.94242, 48.21714 ], [ 39.94217, 48.18525 ], [ 39.87903, 48.1147 ], [ 39.87951, 48.08859 ], [ 39.81895, 48.04904 ], [ 39.82062, 47.95818 ], [ 39.78106, 47.89984 ], [ 39.74767, 47.82976 ], [ 39.65488, 47.83302 ], [ 39.63003, 47.84035 ], [ 39.5296, 47.82915 ], [ 39.45601, 47.86182 ], [ 39.40646, 47.84555 ], [ 39.37944, 47.87585 ], [ 39.31611, 47.8628 ], [ 39.22594, 47.86605 ], [ 39.21028, 47.85118 ], [ 39.14444, 47.85122 ], [ 39.12621, 47.83968 ], [ 39.03826, 47.86503 ], [ 38.93004, 47.86863 ], [ 38.83941, 47.85421 ], [ 38.82512, 47.81282 ], [ 38.79312, 47.80511 ], [ 38.79469, 47.76539 ], [ 38.76479, 47.68413 ], [ 38.67515, 47.69681 ], [ 38.6631, 47.6637 ], [ 38.60553, 47.63789 ], [ 38.45743, 47.63735 ], [ 38.466729, 47.6095698 ], [ 38.37161, 47.61107 ], [ 38.35765, 47.57899 ], [ 38.31075, 47.56167 ], [ 38.29052, 47.52018 ], [ 38.31134, 47.45143 ], [ 38.29832, 47.3759 ], [ 38.25249, 47.36819 ], [ 38.22441, 47.31311 ], [ 38.3256487, 47.3007502 ], [ 38.33423, 47.25303 ], [ 38.24589, 47.22836 ], [ 38.23614, 47.19205 ], [ 38.24445, 47.15645 ], [ 38.2343585, 47.1153526 ] ] ], [ [ [ 32.6589355, 46.0573044 ], [ 32.7907677, 46.0401917 ], [ 32.8663216, 46.0688362 ], [ 32.8884163, 46.0498543 ], [ 32.9413605, 46.0497475 ], [ 33.0103226, 46.032753 ], [ 33.0161514, 46.0191536 ], [ 32.9343414, 46.0163803 ], [ 32.8717155, 46.0277405 ], [ 32.7674065, 46.0367355 ], [ 32.6589355, 46.0573044 ] ] ], [ [ [ 31.6174755, 46.2528877 ], [ 31.6678638, 46.2603302 ], [ 31.6606121, 46.2356377 ], [ 31.5610447, 46.2733765 ], [ 31.51437, 46.3223305 ], [ 31.5354176, 46.3297844 ], [ 31.5511723, 46.2863503 ], [ 31.6174755, 46.2528877 ] ] ] ] } }
]
}
