{
"type": "FeatureCollection",
"name": "URY_GAUL2012_ADM0",
"crs": { "type": "name", "properties": { "name": "urn:ogc:def:crs:OGC:1.3:CRS84" } },
"features": [
{ "type": "Feature", "properties": { "POLYGON_ID": "URY_GAUL2012_ADM0_260", "ADM0_ISO3": "URY", "ADM0_NAME": "Uruguay", "ADM0_CODE": 260, "GEOSET": "GAUL", "GEOSET_YEAR": 2012.0, "GEOSET_VERSION": "GAUL_v1", "GEOSET_UNIT": "ADM0", "CENTROID_LONG": -56.0162277281106, "CENTROID_LAT": -32.798519607083243 }, "geometry": { "type": "MultiPolygon", "coordinates": [ [ [ [ -53.3779534, -33.7504003 ], [ -53.423456, -33.7908436 ], [ -53.4775431, -33.8501118 ], [ -53.5032759, -33.8876639 ], [ -53.5071072, -33.9331086 ], [ -53.5297606, -33.9707582 ], [ -53.5364181, -34.045848 ], [ -53.6942519, -34.1793485 ], [ -53.77828, -34.27694 ], [ -53.7908343, -34.3101764 ], [ -53.7830299, -34.3460699 ], [ -53.7639643, -34.3581771 ], [ -53.7806534, -34.3998515 ], [ -53.8624075, -34.4300272 ], [ -54.0073655, -34.5074148 ], [ -54.1065399, -34.57279 ], [ -54.1523659, -34.6299139 ], [ -54.1472273, -34.655308 ], [ -54.2165556, -34.6646881 ], [ -54.2898789, -34.6879634 ], [ -54.4560483, -34.7508739 ], [ -54.6170699, -34.8252201 ], [ -54.6309698, -34.8375415 ], [ -54.7000492, -34.8510194 ], [ -54.8045941, -34.9036505 ], [ -54.8615692, -34.9170052 ], [ -54.9378884, -34.9596841 ], [ -54.956356, -34.9394493 ], [ -55.0541267, -34.8884811 ], [ -55.1037903, -34.8833275 ], [ -55.1857452, -34.8896751 ], [ -55.2326851, -34.9089546 ], [ -55.2771759, -34.8931923 ], [ -55.2750206, -34.8710442 ], [ -55.3290062, -34.8178825 ], [ -55.4053802, -34.799202 ], [ -55.4867592, -34.8049202 ], [ -55.5338097, -34.8029747 ], [ -55.6031799, -34.7799873 ], [ -55.6523247, -34.7847328 ], [ -55.7025719, -34.7719383 ], [ -55.7538643, -34.786335 ], [ -55.782444, -34.780632 ], [ -55.8971901, -34.8155594 ], [ -56.018898, -34.8836517 ], [ -56.0644951, -34.9026108 ], [ -56.1147118, -34.9037819 ], [ -56.1467323, -34.9205322 ], [ -56.2125168, -34.9172707 ], [ -56.2109108, -34.8818359 ], [ -56.2412033, -34.8865509 ], [ -56.257267, -34.9125328 ], [ -56.2931671, -34.900074 ], [ -56.3123436, -34.9127159 ], [ -56.3348312, -34.8812065 ], [ -56.3845444, -34.8556747 ], [ -56.4235268, -34.8458824 ], [ -56.3954735, -34.8103714 ], [ -56.356144, -34.8001137 ], [ -56.4490433, -34.7626076 ], [ -56.4860344, -34.7583046 ], [ -56.5532608, -34.7700272 ], [ -56.63908, -34.7299385 ], [ -56.8154259, -34.6971893 ], [ -56.8489037, -34.6765823 ], [ -56.8809242, -34.6699219 ], [ -56.929142, -34.6171684 ], [ -57.0111656, -34.5623093 ], [ -57.0441895, -34.5475655 ], [ -57.0715485, -34.5029449 ], [ -57.1264725, -34.4613838 ], [ -57.1755867, -34.4502983 ], [ -57.2791328, -34.4459 ], [ -57.3231812, -34.45364 ], [ -57.3485794, -34.4427643 ], [ -57.3976936, -34.4412956 ], [ -57.4329872, -34.4538269 ], [ -57.4669456, -34.4402084 ], [ -57.5319786, -34.4659805 ], [ -57.5578308, -34.4463959 ], [ -57.6139297, -34.4404526 ], [ -57.6633186, -34.4618721 ], [ -57.7665291, -34.4836502 ], [ -57.8562965, -34.4849892 ], [ -57.8610458, -34.4616508 ], [ -57.8981361, -34.4381142 ], [ -57.9019432, -34.3898849 ], [ -57.992897, -34.2720375 ], [ -58.0648041, -34.2321014 ], [ -58.0749969, -34.1940384 ], [ -58.1097641, -34.1740837 ], [ -58.2077446, -34.1669006 ], [ -58.2208862, -34.1530151 ], [ -58.2130585, -34.1169319 ], [ -58.2312164, -34.0710258 ], [ -58.3062477, -33.9977112 ], [ -58.3624649, -33.9493904 ], [ -58.3826065, -33.9466782 ], [ -58.4150009, -33.9110794 ], [ -58.4170456, -33.8590927 ], [ -58.4338989, -33.8161507 ], [ -58.4201126, -33.7315102 ], [ -58.4427223, -33.6765747 ], [ -58.4226723, -33.6273804 ], [ -58.4367714, -33.5513916 ], [ -58.4296265, -33.5144653 ], [ -58.3916664, -33.4751053 ], [ -58.3769875, -33.4379845 ], [ -58.3795624, -33.4039345 ], [ -58.4186668, -33.418148 ], [ -58.4081154, -33.3659248 ], [ -58.364666, -33.343399 ], [ -58.346756, -33.3241005 ], [ -58.3457527, -33.2884712 ], [ -58.3603897, -33.1536255 ], [ -58.3533516, -33.1354828 ], [ -58.3103676, -33.1122169 ], [ -58.2804489, -33.1247864 ], [ -58.2599831, -33.1148376 ], [ -58.2124443, -33.1231842 ], [ -58.1739235, -33.1190186 ], [ -58.105484, -33.0741196 ], [ -58.0722885, -33.0385475 ], [ -58.0766525, -33.0154343 ], [ -58.0525398, -32.9743347 ], [ -58.0353813, -32.9248161 ], [ -58.061676, -32.9257774 ], [ -58.068325, -32.9684143 ], [ -58.094101, -33.0134735 ], [ -58.1302711, -33.0264534 ], [ -58.1177688, -32.9898254 ], [ -58.1143867, -32.9295825 ], [ -58.1148735, -32.920033 ], [ -58.1200378, -32.9074091 ], [ -58.1137258, -32.8861781 ], [ -58.1148735, -32.8747019 ], [ -58.1248957, -32.83684 ], [ -58.1217592, -32.816747 ], [ -58.1263497, -32.8041231 ], [ -58.1320878, -32.7955159 ], [ -58.1361045, -32.7834659 ], [ -58.1424164, -32.749611 ], [ -58.1470069, -32.7048538 ], [ -58.1487283, -32.6928037 ], [ -58.1468636, -32.6835514 ], [ -58.1429902, -32.673868 ], [ -58.1527371, -32.640488 ], [ -58.1515974, -32.6262417 ], [ -58.1584831, -32.6084535 ], [ -58.1613522, -32.5941082 ], [ -58.1630736, -32.5619748 ], [ -58.1745498, -32.549351 ], [ -58.1820094, -32.5350057 ], [ -58.1860261, -32.5252509 ], [ -58.1888951, -32.5109056 ], [ -58.1936959, -32.5013041 ], [ -58.1975023, -32.4936913 ], [ -58.2038142, -32.4678698 ], [ -58.1986499, -32.436884 ], [ -58.191126, -32.4047893 ], [ -58.1897289, -32.4027832 ], [ -58.1860554, -32.3975085 ], [ -58.1843046, -32.3921267 ], [ -58.184488, -32.3880923 ], [ -58.1848784, -32.3795029 ], [ -58.1808617, -32.3720433 ], [ -58.1693855, -32.3588457 ], [ -58.1493021, -32.3536814 ], [ -58.1143793, -32.3289325 ], [ -58.1120044, -32.3261384 ], [ -58.1083241, -32.3138707 ], [ -58.0999011, -32.2959629 ], [ -58.0991272, -32.2910613 ], [ -58.0982329, -32.2853978 ], [ -58.0994337, -32.2819671 ], [ -58.1015485, -32.2699484 ], [ -58.0988068, -32.254412 ], [ -58.1039711, -32.2446573 ], [ -58.1188901, -32.2297382 ], [ -58.1470069, -32.1953095 ], [ -58.1688117, -32.1752261 ], [ -58.1775656, -32.1648048 ], [ -58.1728284, -32.1161236 ], [ -58.1665165, -32.087433 ], [ -58.1464331, -32.0644806 ], [ -58.1383997, -32.0214447 ], [ -58.1685025, -31.9317221 ], [ -58.1767066, -31.9250416 ], [ -58.1970347, -31.9049512 ], [ -58.1892852, -31.8570453 ], [ -58.1533557, -31.8352058 ], [ -58.1195398, -31.8285131 ], [ -58.1142561, -31.8256951 ], [ -58.1085601, -31.8254438 ], [ -58.0991519, -31.8250287 ], [ -58.0705771, -31.8105484 ], [ -58.0589529, -31.7834252 ], [ -58.0448629, -31.7612334 ], [ -58.0378179, -31.73094 ], [ -58.0271762, -31.7090654 ], [ -58.012456, -31.6788071 ], [ -58.0050588, -31.6597856 ], [ -57.984276, -31.60096 ], [ -57.9846283, -31.5703143 ], [ -58.0029453, -31.5446001 ], [ -58.003584, -31.5365091 ], [ -58.010613, -31.5254737 ], [ -58.0339432, -31.5090229 ], [ -58.0614187, -31.4998644 ], [ -58.0762131, -31.4903537 ], [ -58.0825536, -31.4797862 ], [ -58.0825539, -31.4797785 ], [ -58.0829059, -31.4685142 ], [ -58.0807924, -31.4572422 ], [ -58.0737474, -31.4480837 ], [ -58.0487377, -31.430119 ], [ -57.9899221, -31.3968043 ], [ -57.9835715, -31.3917238 ], [ -57.9877985, -31.3448747 ], [ -57.9832193, -31.3343072 ], [ -57.9811058, -31.3202172 ], [ -57.9772311, -31.3152857 ], [ -57.9603231, -31.3004913 ], [ -57.9405971, -31.2782995 ], [ -57.9386595, -31.2738003 ], [ -57.9198144, -31.2300414 ], [ -57.9110082, -31.2173604 ], [ -57.9088947, -31.2067929 ], [ -57.9119555, -31.19591 ], [ -57.9138262, -31.1352863 ], [ -57.9127948, -31.1295107 ], [ -57.9120649, -31.1254233 ], [ -57.9071334, -31.1109811 ], [ -57.8986794, -31.1042884 ], [ -57.8743742, -31.0768129 ], [ -57.8706983, -31.0625885 ], [ -57.8662725, -31.0454627 ], [ -57.8649343, -31.0223795 ], [ -57.8800408, -30.989383 ], [ -57.8979749, -30.9697291 ], [ -57.9018497, -30.9556391 ], [ -57.9039632, -30.9306294 ], [ -57.889521, -30.9214709 ], [ -57.851478, -30.9207664 ], [ -57.8342178, -30.9253457 ], [ -57.8137873, -30.9281637 ], [ -57.8066462, -30.8703541 ], [ -57.8044451, -30.8152272 ], [ -57.8004019, -30.7805712 ], [ -57.8095604, -30.757675 ], [ -57.8095604, -30.7539069 ], [ -57.8095604, -30.732313 ], [ -57.8072375, -30.7139884 ], [ -57.8086712, -30.6943634 ], [ -57.8144918, -30.6847593 ], [ -57.8324566, -30.6703171 ], [ -57.8398538, -30.6625676 ], [ -57.8453545, -30.6269357 ], [ -57.847251, -30.6202977 ], [ -57.8532393, -30.6129005 ], [ -57.869795, -30.6005717 ], [ -57.8814192, -30.595288 ], [ -57.8898732, -30.588243 ], [ -57.8936928, -30.5091984 ], [ -57.8662725, -30.479398 ], [ -57.841615, -30.4688305 ], [ -57.8376288, -30.4665526 ], [ -57.8120261, -30.4519225 ], [ -57.7937091, -30.4462865 ], [ -57.7813804, -30.4321965 ], [ -57.7627112, -30.4166976 ], [ -57.6940226, -30.3811204 ], [ -57.6609111, -30.3589287 ], [ -57.6601899, -30.3581754 ], [ -57.6450599, -30.342373 ], [ -57.6158232, -30.2546629 ], [ -57.6473493, -30.194528 ], [ -57.64499, -30.184536 ], [ -57.6265035, -30.1745119 ], [ -57.6189762, -30.1758977 ], [ -57.55584, -30.21529 ], [ -57.55072, -30.26652 ], [ -57.49993, -30.28203 ], [ -57.4774718, -30.2659011 ], [ -57.39561, -30.30255 ], [ -57.3784014, -30.2763029 ], [ -57.35052, -30.28241 ], [ -57.31305, -30.25974 ], [ -57.28574, -30.28853 ], [ -57.20678, -30.28145 ], [ -57.15783, -30.23191 ], [ -57.16611, -30.20188 ], [ -57.1101, -30.11473 ], [ -57.06833, -30.08774 ], [ -57.03357, -30.10036 ], [ -56.9903, -30.08307 ], [ -56.97966, -30.09636 ], [ -56.91725, -30.09429 ], [ -56.8993209, -30.1097 ], [ -56.87761, -30.08829 ], [ -56.8357903, -30.0911 ], [ -56.78109, -30.13091 ], [ -56.78086, -30.16238 ], [ -56.75189, -30.16397 ], [ -56.70073, -30.202 ], [ -56.65942, -30.20014 ], [ -56.60607, -30.28551 ], [ -56.53607, -30.32992 ], [ -56.52399, -30.35861 ], [ -56.48867, -30.39412 ], [ -56.4592316, -30.3873993 ], [ -56.43322, -30.43518 ], [ -56.4162706, -30.4296 ], [ -56.3839302, -30.4952698 ], [ -56.34794, -30.50162 ], [ -56.32098, -30.53104 ], [ -56.29098, -30.52407 ], [ -56.27873, -30.55113 ], [ -56.2195413, -30.6009485 ], [ -56.19051, -30.60379 ], [ -56.16836, -30.64128 ], [ -56.1683, -30.66308 ], [ -56.1427706, -30.6793397 ], [ -56.131, -30.7355 ], [ -56.07503, -30.74245 ], [ -56.06716, -30.76245 ], [ -56.03759, -30.77217 ], [ -55.98701, -30.85966 ], [ -56.00848, -30.90024 ], [ -56.01556, -30.93992 ], [ -56.00298, -30.9681 ], [ -56.01157, -30.99396 ], [ -56.00781, -31.06264 ], [ -55.95106, -31.08779 ], [ -55.8697922, -31.0795607 ], [ -55.81315, -31.04352 ], [ -55.69761, -30.95828 ], [ -55.65109, -30.95131 ], [ -55.6348, -30.91108 ], [ -55.63539, -30.85745 ], [ -55.60112, -30.84663 ], [ -55.5727603, -30.8807594 ], [ -55.51634, -30.91387 ], [ -55.49274, -30.94971 ], [ -55.44601, -30.97215 ], [ -55.43152, -31.00895 ], [ -55.38253, -31.0308 ], [ -55.35048, -31.07533 ], [ -55.34015, -31.12609 ], [ -55.29596, -31.1603 ], [ -55.2451, -31.25673 ], [ -55.17426, -31.28353 ], [ -55.11588, -31.32183 ], [ -55.06228, -31.32365 ], [ -55.01445, -31.28486 ], [ -54.95197, -31.36175 ], [ -54.94468, -31.39202 ], [ -54.90103, -31.39726 ], [ -54.82868, -31.44803 ], [ -54.78422, -31.44135 ], [ -54.71518, -31.44248 ], [ -54.67367, -31.45762 ], [ -54.62056, -31.4652 ], [ -54.5053703, -31.5160898 ], [ -54.48322, -31.56173 ], [ -54.4212809, -31.6323886 ], [ -54.4614, -31.66499 ], [ -54.36918, -31.72427 ], [ -54.21528, -31.82747 ], [ -54.14919, -31.87497 ], [ -54.09551, -31.90558 ], [ -54.0567, -31.89026 ], [ -54.02247, -31.8928 ], [ -54.00227, -31.91596 ], [ -53.95951, -31.92295 ], [ -53.94802, -31.95728 ], [ -53.91673, -31.96221 ], [ -53.88447, -31.99325 ], [ -53.85767, -31.99556 ], [ -53.82962, -32.0542 ], [ -53.79824, -32.07056 ], [ -53.74218, -32.08203 ], [ -53.73382, -32.13082 ], [ -53.71132, -32.1641 ], [ -53.69985, -32.20317 ], [ -53.6677804, -32.236131 ], [ -53.67025, -32.26144 ], [ -53.63528, -32.29457 ], [ -53.64457, -32.32018 ], [ -53.62325, -32.35134 ], [ -53.63242, -32.38453 ], [ -53.57298, -32.45237 ], [ -53.52046, -32.48717 ], [ -53.45967, -32.47991 ], [ -53.45013, -32.51284 ], [ -53.419071, -32.5641482 ], [ -53.38982, -32.58253 ], [ -53.35863, -32.5761 ], [ -53.30566, -32.59897 ], [ -53.28233, -32.61723 ], [ -53.24374, -32.60533 ], [ -53.2269, -32.63152 ], [ -53.18725, -32.64296 ], [ -53.16975, -32.66362 ], [ -53.08625, -32.72737 ], [ -53.07416, -32.76306 ], [ -53.09459, -32.78374 ], [ -53.13248, -32.7865 ], [ -53.1583201, -32.8006505 ], [ -53.17132, -32.84154 ], [ -53.19675, -32.86025 ], [ -53.28075, -32.89935 ], [ -53.27841, -32.92933 ], [ -53.24313, -32.93585 ], [ -53.43384, -33.05384 ], [ -53.45134, -33.06912 ], [ -53.50828, -33.14942 ], [ -53.51748, -33.17919 ], [ -53.51878, -33.27253 ], [ -53.50512, -33.35503 ], [ -53.51295, -33.49484 ], [ -53.52161, -33.56221 ], [ -53.51923, -33.63632 ], [ -53.52446, -33.68903 ], [ -53.45016, -33.69596 ], [ -53.4305707, -33.7041595 ], [ -53.42521, -33.73667 ], [ -53.3779534, -33.7504003 ] ] ] ] } }
]
}
