{
"type": "FeatureCollection",
"name": "UZB_GAUL1992_ADM1",
"crs": { "type": "name", "properties": { "name": "urn:ogc:def:crs:OGC:1.3:CRS84" } },
"features": [
{ "type": "Feature", "properties": { "POLYGON_ID": "UZB_GAUL1992_ADM1_3284", "ADM0_ISO3": "UZB", "ADM0_NAME": "Uzbekistan", "ADM0_CODE": 261, "ADM1_NAME": "Andijan", "ADM1_CODE": 3284, "GEOSET": "GAUL", "GEOSET_YEAR": 1992.0, "GEOSET_VERSION": "GAUL_v1", "GEOSET_UNIT": "ADM1", "CENTROID_LONG": 72.29094012664325, "CENTROID_LAT": 40.7611494555604 }, "geometry": { "type": "MultiPolygon", "coordinates": [ [ [ [ 72.50093, 41.00077 ], [ 72.48424, 40.97739 ], [ 72.49059, 40.96892 ], [ 72.4933659, 40.9722006 ], [ 72.53524, 40.96382 ], [ 72.5399, 40.95687 ], [ 72.5441436, 40.9522951 ], [ 72.55002, 40.94596 ], [ 72.5731517, 40.910431 ], [ 72.57287, 40.90298 ], [ 72.57549, 40.89047 ], [ 72.58171, 40.88581 ], [ 72.68081, 40.85561 ], [ 72.73207, 40.85401 ], [ 72.83479, 40.86949 ], [ 72.8682, 40.86172 ], [ 72.8752971, 40.8549348 ], [ 72.90924, 40.81706 ], [ 72.95227, 40.81679 ], [ 72.9972699, 40.8380546 ], [ 72.99837, 40.83855 ], [ 72.9988902, 40.8395209 ], [ 72.99869, 40.84078 ], [ 73.00142, 40.88521 ], [ 73.05889, 40.85111 ], [ 73.1312, 40.84263 ], [ 73.1322307, 40.8349333 ], [ 73.09492, 40.78914 ], [ 73.06849, 40.77858 ], [ 73.0029591, 40.7642084 ], [ 72.99977, 40.76088 ], [ 72.96698, 40.73957 ], [ 72.865618, 40.7000087 ], [ 72.85309, 40.69184 ], [ 72.768959, 40.6771291 ], [ 72.76711, 40.6755 ], [ 72.76907, 40.66297 ], [ 72.77716, 40.65537 ], [ 72.7597, 40.63282 ], [ 72.7612339, 40.6145954 ], [ 72.7226839, 40.5837369 ], [ 72.71854, 40.58611 ], [ 72.71613, 40.5875 ], [ 72.70004, 40.5903 ], [ 72.67556, 40.57447 ], [ 72.65678, 40.56421 ], [ 72.61308, 40.51748 ], [ 72.5829767, 40.5359805 ], [ 72.58002, 40.5364 ], [ 72.5766385, 40.5368856 ], [ 72.57062, 40.53775 ], [ 72.5611794, 40.5374102 ], [ 72.55117, 40.53705 ], [ 72.53623, 40.54333 ], [ 72.508957, 40.5597345 ], [ 72.50554, 40.56065 ], [ 72.4907472, 40.5559504 ], [ 72.48623, 40.55653 ], [ 72.40605, 40.62297 ], [ 72.35419, 40.6043 ], [ 72.35562, 40.60219 ], [ 72.39438, 40.57612 ], [ 72.3953621, 40.5752253 ], [ 72.39674, 40.57397 ], [ 72.41994, 40.54368 ], [ 72.41687, 40.54278 ], [ 72.39235, 40.52304 ], [ 72.3988527, 40.5229282 ], [ 72.42104, 40.51095 ], [ 72.422, 40.50281 ], [ 72.42505, 40.49443 ], [ 72.4355459, 40.4649247 ], [ 72.42625, 40.45039 ], [ 72.41704, 40.40232 ], [ 72.41245, 40.40156 ], [ 72.3353, 40.43842 ], [ 72.2482995, 40.4631105 ], [ 72.24454, 40.4669 ], [ 72.24441, 40.46964 ], [ 72.2516387, 40.4883538 ], [ 72.1856294, 40.498576 ], [ 72.1656342, 40.5377464 ], [ 72.1736221, 40.5842018 ], [ 72.0859909, 40.6269264 ], [ 71.9097672, 40.6355133 ], [ 71.8489609, 40.6433067 ], [ 71.7987518, 40.6914558 ], [ 71.6811676, 40.7266502 ], [ 71.642746, 40.7550621 ], [ 71.6217422, 40.7082977 ], [ 71.6461945, 40.6872787 ], [ 71.5975723, 40.6509247 ], [ 71.5679626, 40.656044 ], [ 71.5223236, 40.7167587 ], [ 71.4736176, 40.7344131 ], [ 71.5635223, 40.7692947 ], [ 71.5410156, 40.8166618 ], [ 71.6268997, 40.8587723 ], [ 71.6768723, 40.8993454 ], [ 71.8533325, 40.932106 ], [ 71.9267578, 40.9090843 ], [ 72.0343475, 40.9057503 ], [ 72.0970917, 40.8937225 ], [ 72.1870568, 41.0086889 ], [ 72.2148, 41.00275 ], [ 72.27646, 41.02486 ], [ 72.2840087, 41.0262076 ], [ 72.29293, 41.02781 ], [ 72.3055736, 41.0350845 ], [ 72.3436, 41.0632 ], [ 72.49758, 41.03065 ], [ 72.50093, 41.00077 ] ] ] ] } },
{ "type": "Feature", "properties": { "POLYGON_ID": "UZB_GAUL1992_ADM1_3285", "ADM0_ISO3": "UZB", "ADM0_NAME": "Uzbekistan", "ADM0_CODE": 261, "ADM1_NAME": "Bukhara", "ADM1_CODE": 3285, "GEOSET": "GAUL", "GEOSET_YEAR": 1992.0, "GEOSET_VERSION": "GAUL_v1", "GEOSET_UNIT": "ADM1", "CENTROID_LONG": 63.715980710131539, "CENTROID_LAT": 40.142437571363033 }, "geometry": { "type": "MultiPolygon", "coordinates": [ [ [ [ 65.1281281, 39.4179611 ], [ 64.997963, 39.3424149 ], [ 64.8436661, 39.2074928 ], [ 64.9112396, 39.1113052 ], [ 64.6636276, 39.0525246 ], [ 64.4964676, 39.0175629 ], [ 64.3971969, 38.9298923 ], [ 64.33103, 38.98588 ], [ 64.22965, 38.95656 ], [ 64.17711, 38.95919 ], [ 63.88582, 39.12907 ], [ 63.74538, 39.20674 ], [ 63.66013, 39.28929 ], [ 63.53913, 39.38358 ], [ 63.35847, 39.47477 ], [ 63.17042, 39.57411 ], [ 62.79797, 39.77576 ], [ 62.48795, 39.95139 ], [ 62.44266, 39.9911 ], [ 62.42701, 40.06486 ], [ 62.39649, 40.09928 ], [ 62.41378, 40.17351 ], [ 62.38974, 40.24455 ], [ 62.39317, 40.31078 ], [ 62.33325, 40.38345 ], [ 62.34946, 40.4383 ], [ 62.29747, 40.45646 ], [ 62.20772, 40.50851 ], [ 62.1388067, 40.5617623 ], [ 62.3974113, 40.7144394 ], [ 62.4184532, 40.769928 ], [ 62.1826935, 40.959198 ], [ 62.4084854, 41.0267944 ], [ 62.122036, 41.3394012 ], [ 62.5431175, 41.4243889 ], [ 62.6059875, 41.3042679 ], [ 62.7769775, 41.1907768 ], [ 62.9274254, 40.9799461 ], [ 63.0378914, 40.9794769 ], [ 63.3470688, 40.8799896 ], [ 63.4530792, 40.8380203 ], [ 63.6892204, 40.6942635 ], [ 63.6830826, 40.6561813 ], [ 63.8129425, 40.6723785 ], [ 63.9630127, 40.88908 ], [ 63.9966469, 40.9012756 ], [ 64.0780258, 40.8651543 ], [ 64.0545502, 40.7388763 ], [ 64.3937378, 40.708004 ], [ 64.4291382, 40.8238182 ], [ 64.5797653, 40.8183708 ], [ 64.7258606, 40.8386765 ], [ 64.7348709, 40.902607 ], [ 64.768631, 40.900753 ], [ 64.8066177, 40.6879463 ], [ 64.8850327, 40.6495399 ], [ 65.0373611, 40.622757 ], [ 65.2770386, 40.6132164 ], [ 65.3753433, 40.583828 ], [ 65.3549194, 40.5554962 ], [ 65.3682938, 40.4317703 ], [ 65.2343674, 40.4493408 ], [ 65.2430573, 40.4164238 ], [ 65.210083, 40.33284 ], [ 65.1687546, 40.324501 ], [ 65.1460114, 40.2520599 ], [ 65.0112, 40.2555351 ], [ 64.936676, 40.3026314 ], [ 64.8708725, 40.2960548 ], [ 64.8417664, 40.2278938 ], [ 64.8729401, 40.2130508 ], [ 64.8438797, 40.1466179 ], [ 64.8972015, 40.1091957 ], [ 64.8015442, 40.0733185 ], [ 64.7404251, 39.9853706 ], [ 64.6417007, 39.9398575 ], [ 64.5875626, 39.8517952 ], [ 64.6474686, 39.7963142 ], [ 64.648613, 39.773838 ], [ 64.7404861, 39.7182198 ], [ 64.8034973, 39.6937714 ], [ 64.8222656, 39.659977 ], [ 64.8786545, 39.6882553 ], [ 65.0144119, 39.6391335 ], [ 65.0150833, 39.5189514 ], [ 65.1164932, 39.5157242 ], [ 65.1281281, 39.4179611 ] ] ] ] } },
{ "type": "Feature", "properties": { "POLYGON_ID": "UZB_GAUL1992_ADM1_3286", "ADM0_ISO3": "UZB", "ADM0_NAME": "Uzbekistan", "ADM0_CODE": 261, "ADM1_NAME": "Fergana", "ADM1_CODE": 3286, "GEOSET": "GAUL", "GEOSET_YEAR": 1992.0, "GEOSET_VERSION": "GAUL_v1", "GEOSET_UNIT": "ADM1", "CENTROID_LONG": 71.280256094320421, "CENTROID_LAT": 40.443295467737457 }, "geometry": { "type": "MultiPolygon", "coordinates": [ [ [ [ 71.4736176, 40.7344131 ], [ 71.5223236, 40.7167587 ], [ 71.5679626, 40.656044 ], [ 71.5975723, 40.6509247 ], [ 71.6461945, 40.6872787 ], [ 71.6217422, 40.7082977 ], [ 71.642746, 40.7550621 ], [ 71.6811676, 40.7266502 ], [ 71.7987518, 40.6914558 ], [ 71.8489609, 40.6433067 ], [ 71.9097672, 40.6355133 ], [ 72.0859909, 40.6269264 ], [ 72.1736221, 40.5842018 ], [ 72.1656342, 40.5377464 ], [ 72.1856294, 40.498576 ], [ 72.18351, 40.49826 ], [ 72.17265, 40.47541 ], [ 72.13448, 40.45224 ], [ 72.12174, 40.45555 ], [ 72.10119, 40.41791 ], [ 72.0999466, 40.4156159 ], [ 72.0975478, 40.4128124 ], [ 72.0854, 40.4024 ], [ 72.0766886, 40.3860429 ], [ 72.07077, 40.38347 ], [ 72.05063, 40.38007 ], [ 72.04793, 40.37962 ], [ 72.04485, 40.37762 ], [ 72.03802, 40.36836 ], [ 72.02541, 40.35748 ], [ 72.0204254, 40.3546516 ], [ 72.01436, 40.35121 ], [ 72.01418, 40.35102 ], [ 71.99706, 40.33242 ], [ 71.9667255, 40.321218 ], [ 71.96006, 40.31741 ], [ 71.98333, 40.26269 ], [ 71.9699646, 40.2532033 ], [ 71.96996, 40.2532 ], [ 71.96236, 40.2394 ], [ 71.93947, 40.22464 ], [ 71.84794, 40.24403 ], [ 71.84466, 40.24146 ], [ 71.84291, 40.22906 ], [ 71.85674, 40.21276 ], [ 71.74268, 40.15682 ], [ 71.72908, 40.14939 ], [ 71.724, 40.14877 ], [ 71.68054, 40.18717 ], [ 71.682721, 40.205905 ], [ 71.68019, 40.23198 ], [ 71.63748, 40.25437 ], [ 71.61104, 40.25237 ], [ 71.61249, 40.2104 ], [ 71.6104126, 40.2031546 ], [ 71.5510564, 40.1996308 ], [ 71.4928, 40.22238 ], [ 71.48691, 40.26242 ], [ 71.42561, 40.26949 ], [ 71.34304, 40.31213 ], [ 71.3366993, 40.3159461 ], [ 71.32852, 40.31505 ], [ 71.3031, 40.30569 ], [ 71.2500353, 40.3247958 ], [ 71.24396, 40.32484 ], [ 71.18268, 40.33017 ], [ 71.11821, 40.31932 ], [ 71.0433654, 40.2878908 ], [ 71.0396265, 40.2875298 ], [ 71.03217, 40.28681 ], [ 71.0241391, 40.2848986 ], [ 70.96846, 40.26548 ], [ 70.96615, 40.26437 ], [ 70.96761, 40.22851 ], [ 70.86801, 40.22301 ], [ 70.77789, 40.18395 ], [ 70.64562, 40.16502 ], [ 70.62763, 40.17067 ], [ 70.5709988, 40.2447092 ], [ 70.5805399, 40.2821702 ], [ 70.55053, 40.34589 ], [ 70.43078, 40.37965 ], [ 70.38523, 40.37651 ], [ 70.33268, 40.44924 ], [ 70.37334, 40.47954 ], [ 70.49483, 40.51138 ], [ 70.51409, 40.55329 ], [ 70.5873583, 40.5660395 ], [ 70.63033, 40.62092 ], [ 70.69889, 40.6591 ], [ 70.7355, 40.65758 ], [ 70.7753093, 40.7104959 ], [ 70.8438263, 40.7268257 ], [ 70.8913498, 40.7536011 ], [ 70.9631042, 40.7260437 ], [ 71.0449753, 40.7464142 ], [ 71.1416245, 40.6860466 ], [ 71.2429504, 40.640934 ], [ 71.269249, 40.6454163 ], [ 71.3622589, 40.6987114 ], [ 71.3971024, 40.6982956 ], [ 71.4736176, 40.7344131 ] ] ], [ [ [ 71.80751, 39.96248 ], [ 71.775, 39.90306 ], [ 71.71667, 39.91917 ], [ 71.71917, 39.96167 ], [ 71.7223409, 39.9613272 ], [ 71.7655481, 39.978546 ], [ 71.76889, 39.98167 ], [ 71.77105, 39.98319 ], [ 71.77361, 39.985 ], [ 71.80889, 39.96472 ], [ 71.80751, 39.96248 ] ] ], [ [ [ 71.05206, 40.18234 ], [ 71.0658555, 40.1657505 ], [ 71.06832, 40.16122 ], [ 71.0716105, 40.1585816 ], [ 71.0903103, 40.0918898 ], [ 71.09053, 40.0907 ], [ 71.11607, 40.02908 ], [ 71.1197598, 40.0174706 ], [ 71.12622, 40.01405 ], [ 71.13514, 40.01415 ], [ 71.1699551, 40.0275581 ], [ 71.18035, 40.02756 ], [ 71.18192, 40.02687 ], [ 71.16765, 40.00462 ], [ 71.16844, 40.0 ], [ 71.19155, 39.95817 ], [ 71.21121, 39.95773 ], [ 71.22269, 39.93409 ], [ 71.2248543, 39.9314616 ], [ 71.22684, 39.92905 ], [ 71.22934, 39.91975 ], [ 71.22782, 39.91677 ], [ 71.2271481, 39.9154649 ], [ 71.18045, 39.8758 ], [ 71.14112, 39.87931 ], [ 71.1347075, 39.8898134 ], [ 71.13264, 39.8932 ], [ 71.11489, 39.91293 ], [ 71.1101806, 39.9156303 ], [ 71.10932, 39.91575 ], [ 71.09648, 39.90674 ], [ 71.08875, 39.89447 ], [ 71.05611, 39.8948 ], [ 71.05685, 39.90589 ], [ 71.0655689, 39.914924 ], [ 71.06764, 39.91707 ], [ 71.0705026, 39.9213589 ], [ 71.09785, 39.98309 ], [ 71.0976228, 39.9867024 ], [ 71.09724, 39.99279 ], [ 71.0885515, 39.999067 ], [ 71.00769, 40.03953 ], [ 70.99454, 40.16825 ], [ 71.00394, 40.17479 ], [ 71.0319009, 40.1770519 ], [ 71.0344, 40.17987 ], [ 71.04119, 40.18445 ], [ 71.05206, 40.18234 ] ] ] ] } },
{ "type": "Feature", "properties": { "POLYGON_ID": "UZB_GAUL1992_ADM1_3287", "ADM0_ISO3": "UZB", "ADM0_NAME": "Uzbekistan", "ADM0_CODE": 261, "ADM1_NAME": "Karakalpakstan", "ADM1_CODE": 3287, "GEOSET": "GAUL", "GEOSET_YEAR": 1992.0, "GEOSET_VERSION": "GAUL_v1", "GEOSET_UNIT": "ADM1", "CENTROID_LONG": 58.827101862350645, "CENTROID_LAT": 43.413962435399647 }, "geometry": { "type": "MultiPolygon", "coordinates": [ [ [ [ 59.0288777, 45.3640489 ], [ 60.7267616, 44.4723922 ], [ 61.13133, 44.25993 ], [ 61.41359, 44.01646 ], [ 61.58815, 43.85959 ], [ 61.97563, 43.51229 ], [ 62.0035741, 43.4917361 ], [ 61.9860573, 43.4182243 ], [ 62.2226486, 43.2157898 ], [ 62.4626579, 43.1644592 ], [ 62.1522064, 42.8062477 ], [ 61.8904533, 42.5004501 ], [ 61.8318558, 42.1619987 ], [ 61.9727669, 41.9262505 ], [ 61.6527405, 41.8242531 ], [ 62.122036, 41.3394012 ], [ 62.4084854, 41.0267944 ], [ 62.1826935, 40.959198 ], [ 62.1443062, 40.9539604 ], [ 61.8008118, 41.2368584 ], [ 61.6817741, 41.3133202 ], [ 61.5457382, 41.3107681 ], [ 61.3960953, 41.3337097 ], [ 61.3246765, 41.2750893 ], [ 61.3382072, 41.2108307 ], [ 61.3015556, 41.175518 ], [ 61.218647, 41.2167435 ], [ 61.1989708, 41.30159 ], [ 61.1129913, 41.3137207 ], [ 61.063488, 41.3514137 ], [ 61.0214958, 41.3560181 ], [ 60.9746208, 41.4125633 ], [ 60.8624687, 41.4787407 ], [ 60.802784, 41.4914131 ], [ 60.7854156, 41.5270653 ], [ 60.6931496, 41.5734177 ], [ 60.6917152, 41.5965233 ], [ 60.6232758, 41.6247559 ], [ 60.5964279, 41.6875687 ], [ 60.5724792, 41.7041664 ], [ 60.4996758, 41.7090263 ], [ 60.4481773, 41.7955933 ], [ 60.4147186, 41.8103905 ], [ 60.3824844, 41.9207268 ], [ 60.2962456, 41.9221115 ], [ 60.2131081, 41.9390793 ], [ 60.1709747, 41.8964615 ], [ 60.1064766, 41.8973504 ], [ 60.04504, 41.91641 ], [ 60.0065, 41.95185 ], [ 59.94927, 41.97351 ], [ 59.96139, 41.99924 ], [ 60.03, 42.00972 ], [ 59.97019, 42.12823 ], [ 59.99684, 42.1561 ], [ 60.04933, 42.16652 ], [ 60.03914, 42.19593 ], [ 59.93949, 42.2336 ], [ 59.90693, 42.27353 ], [ 59.8279671, 42.3063163 ], [ 59.79286, 42.26864 ], [ 59.71763, 42.28598 ], [ 59.64113, 42.28063 ], [ 59.4192475, 42.2765615 ], [ 59.27063, 42.39285 ], [ 59.27743, 42.43883 ], [ 59.20372, 42.51006 ], [ 59.16948, 42.52804 ], [ 59.10412, 42.50808 ], [ 59.04784, 42.51073 ], [ 58.90965, 42.55877 ], [ 58.7025, 42.72653 ], [ 58.63976, 42.74041 ], [ 58.59536, 42.66594 ], [ 58.47267, 42.6503 ], [ 58.39221, 42.67337 ], [ 58.29717, 42.68945 ], [ 58.22447, 42.67031 ], [ 58.15172, 42.63283 ], [ 58.15477, 42.60973 ], [ 58.22762, 42.57374 ], [ 58.30648, 42.54826 ], [ 58.36421, 42.44894 ], [ 58.42904, 42.36634 ], [ 58.51783, 42.32175 ], [ 58.49242, 42.28918 ], [ 58.40638, 42.29118 ], [ 58.39692, 42.37102 ], [ 58.3697, 42.41876 ], [ 58.32343, 42.44809 ], [ 58.20119, 42.46739 ], [ 58.13472, 42.44252 ], [ 58.05328, 42.50448 ], [ 57.97719, 42.48424 ], [ 57.96864, 42.45488 ], [ 57.91515, 42.45721 ], [ 57.90419, 42.42622 ], [ 57.94731, 42.37163 ], [ 57.92852, 42.24514 ], [ 57.85673, 42.24798 ], [ 57.8338, 42.21871 ], [ 57.83548, 42.17295 ], [ 57.7692, 42.18127 ], [ 57.67562, 42.15197 ], [ 57.5217, 42.17408 ], [ 57.40983, 42.16951 ], [ 57.3128, 42.1378 ], [ 57.21411, 42.06843 ], [ 57.167527, 41.9750469 ], [ 57.12997, 41.94359 ], [ 57.03826, 41.91811 ], [ 57.00154, 41.896 ], [ 56.96758, 41.80457 ], [ 56.9722, 41.67236 ], [ 57.0199, 41.58641 ], [ 57.03163, 41.44587 ], [ 57.08655, 41.3749 ], [ 57.14855, 41.38432 ], [ 57.1517, 41.35783 ], [ 57.0889, 41.33466 ], [ 57.04242, 41.26322 ], [ 56.78748, 41.28075 ], [ 56.55974, 41.28887 ], [ 56.4293763, 41.3000784 ], [ 56.0005984, 41.3180499 ], [ 56.0000222, 43.6057278 ], [ 55.999819, 44.4104498 ], [ 55.99967, 45.00022 ], [ 56.6949679, 45.1583495 ], [ 56.9775368, 45.2226124 ], [ 57.6916923, 45.3850299 ], [ 58.59691, 45.5909 ], [ 59.0288777, 45.3640489 ] ] ] ] } },
{ "type": "Feature", "properties": { "POLYGON_ID": "UZB_GAUL1992_ADM1_3288", "ADM0_ISO3": "UZB", "ADM0_NAME": "Uzbekistan", "ADM0_CODE": 261, "ADM1_NAME": "Kashkadarya", "ADM1_CODE": 3288, "GEOSET": "GAUL", "GEOSET_YEAR": 1992.0, "GEOSET_VERSION": "GAUL_v1", "GEOSET_UNIT": "ADM1", "CENTROID_LONG": 66.139002358307678, "CENTROID_LAT": 38.823441422903656 }, "geometry": { "type": "MultiPolygon", "coordinates": [ [ [ [ 67.3933021, 39.2708548 ], [ 67.42549, 39.22469 ], [ 67.53203, 39.18513 ], [ 67.61693, 39.17738 ], [ 67.63115, 39.1494 ], [ 67.67786, 39.14401 ], [ 67.67154, 39.07888 ], [ 67.7036023, 39.0036651 ], [ 67.6079483, 38.962368 ], [ 67.5693359, 38.9833603 ], [ 67.4894562, 38.9283791 ], [ 67.5343781, 38.9011803 ], [ 67.5393372, 38.8594818 ], [ 67.5778961, 38.8385048 ], [ 67.5548172, 38.804615 ], [ 67.5754089, 38.7732315 ], [ 67.5370865, 38.6885719 ], [ 67.4264526, 38.6945305 ], [ 67.3492203, 38.6273575 ], [ 67.3566742, 38.597084 ], [ 67.3051758, 38.5585442 ], [ 67.2738266, 38.5541878 ], [ 67.1794205, 38.4730263 ], [ 67.1758118, 38.4204712 ], [ 67.1270142, 38.3704987 ], [ 67.0088043, 38.3295975 ], [ 66.9718094, 38.2905579 ], [ 66.8732681, 38.2716446 ], [ 66.8602219, 38.2094994 ], [ 66.8815994, 38.2000122 ], [ 66.8489532, 38.1427994 ], [ 66.7832489, 38.1125755 ], [ 66.7131577, 38.0560684 ], [ 66.6570146, 37.9793873 ], [ 66.6201863, 38.014032 ], [ 66.56563, 38.0359 ], [ 66.49654, 38.04185 ], [ 66.40001, 38.03249 ], [ 66.31305, 38.0788 ], [ 66.24552, 38.15404 ], [ 66.11863, 38.17864 ], [ 66.094116, 38.2019807 ], [ 65.95625, 38.24121 ], [ 65.91504, 38.27474 ], [ 65.85149, 38.27408 ], [ 65.79745, 38.23585 ], [ 65.69631, 38.2521 ], [ 65.48137, 38.319 ], [ 65.30055, 38.40849 ], [ 65.20211, 38.4767 ], [ 65.02504, 38.61246 ], [ 64.82664, 38.67949 ], [ 64.77599, 38.71197 ], [ 64.52283, 38.83823 ], [ 64.3971969, 38.9298923 ], [ 64.4964676, 39.0175629 ], [ 64.6636276, 39.0525246 ], [ 64.9112396, 39.1113052 ], [ 64.8436661, 39.2074928 ], [ 64.997963, 39.3424149 ], [ 65.1281281, 39.4179611 ], [ 65.1489792, 39.4057083 ], [ 65.2415543, 39.4240532 ], [ 65.2680817, 39.4394073 ], [ 65.3193588, 39.4293365 ], [ 65.5116882, 39.4189377 ], [ 65.5871506, 39.4469376 ], [ 65.6813126, 39.4286194 ], [ 65.7089462, 39.4390907 ], [ 65.7887878, 39.5100708 ], [ 65.8201599, 39.4607506 ], [ 65.904335, 39.3949051 ], [ 65.923851, 39.3557854 ], [ 65.9592209, 39.3373146 ], [ 65.9758911, 39.2953606 ], [ 66.0194397, 39.2753105 ], [ 66.077034, 39.2759056 ], [ 66.122261, 39.2982483 ], [ 66.1248016, 39.3356209 ], [ 66.1762314, 39.3448982 ], [ 66.2381134, 39.3726807 ], [ 66.3152313, 39.3419075 ], [ 66.4363861, 39.3577766 ], [ 66.5030365, 39.3148384 ], [ 66.5265427, 39.3402939 ], [ 66.5737534, 39.3264503 ], [ 66.615303, 39.3414726 ], [ 66.6562195, 39.4003601 ], [ 66.7807159, 39.401825 ], [ 66.7853622, 39.3828735 ], [ 66.8740387, 39.3811226 ], [ 66.9005432, 39.2529144 ], [ 66.9754334, 39.2561874 ], [ 67.0373993, 39.2317162 ], [ 67.0672073, 39.2643662 ], [ 67.0657043, 39.3146248 ], [ 67.1785965, 39.3098755 ], [ 67.2037277, 39.2800331 ], [ 67.3498764, 39.2858162 ], [ 67.3933021, 39.2708548 ] ] ] ] } },
{ "type": "Feature", "properties": { "POLYGON_ID": "UZB_GAUL1992_ADM1_3289", "ADM0_ISO3": "UZB", "ADM0_NAME": "Uzbekistan", "ADM0_CODE": 261, "ADM1_NAME": "Khorezm", "ADM1_CODE": 3289, "GEOSET": "GAUL", "GEOSET_YEAR": 1992.0, "GEOSET_VERSION": "GAUL_v1", "GEOSET_UNIT": "ADM1", "CENTROID_LONG": 60.952079661983099, "CENTROID_LAT": 41.329519957641544 }, "geometry": { "type": "MultiPolygon", "coordinates": [ [ [ [ 62.1826935, 40.959198 ], [ 62.4184532, 40.769928 ], [ 62.3974113, 40.7144394 ], [ 62.1388067, 40.5617623 ], [ 62.09101, 40.65696 ], [ 62.04546, 40.71211 ], [ 62.04207, 40.75774 ], [ 62.0001, 40.82032 ], [ 62.00012, 40.89241 ], [ 61.97088, 41.01914 ], [ 61.90095, 41.05342 ], [ 61.88041, 41.10939 ], [ 61.81323, 41.1536 ], [ 61.75675, 41.17574 ], [ 61.71283, 41.21514 ], [ 61.6606, 41.22589 ], [ 61.62689, 41.26499 ], [ 61.42154, 41.28588 ], [ 61.3799, 41.16488 ], [ 61.29981, 41.14522 ], [ 61.23853, 41.14912 ], [ 61.17133, 41.17324 ], [ 61.11795, 41.21214 ], [ 61.07453, 41.20916 ], [ 61.04605, 41.23469 ], [ 60.9386979, 41.2378255 ], [ 60.86107, 41.23076 ], [ 60.68372, 41.22753 ], [ 60.505578, 41.2164801 ], [ 60.39926, 41.25308 ], [ 60.33633, 41.29538 ], [ 60.13125, 41.39482 ], [ 60.09373, 41.4321 ], [ 60.1119, 41.54813 ], [ 60.15827, 41.58075 ], [ 60.16376, 41.60952 ], [ 60.13334, 41.65679 ], [ 60.06857, 41.72849 ], [ 60.0602, 41.75284 ], [ 60.08363, 41.80933 ], [ 60.13673, 41.80367 ], [ 60.23128, 41.76634 ], [ 60.29146, 41.75228 ], [ 60.31934, 41.76837 ], [ 60.25838, 41.81541 ], [ 60.16573, 41.84474 ], [ 60.1064766, 41.8973504 ], [ 60.1709747, 41.8964615 ], [ 60.2131081, 41.9390793 ], [ 60.2962456, 41.9221115 ], [ 60.3824844, 41.9207268 ], [ 60.4147186, 41.8103905 ], [ 60.4481773, 41.7955933 ], [ 60.4996758, 41.7090263 ], [ 60.5724792, 41.7041664 ], [ 60.5964279, 41.6875687 ], [ 60.6232758, 41.6247559 ], [ 60.6917152, 41.5965233 ], [ 60.6931496, 41.5734177 ], [ 60.7854156, 41.5270653 ], [ 60.802784, 41.4914131 ], [ 60.8624687, 41.4787407 ], [ 60.9746208, 41.4125633 ], [ 61.0214958, 41.3560181 ], [ 61.063488, 41.3514137 ], [ 61.1129913, 41.3137207 ], [ 61.1989708, 41.30159 ], [ 61.218647, 41.2167435 ], [ 61.3015556, 41.175518 ], [ 61.3382072, 41.2108307 ], [ 61.3246765, 41.2750893 ], [ 61.3960953, 41.3337097 ], [ 61.5457382, 41.3107681 ], [ 61.6817741, 41.3133202 ], [ 61.8008118, 41.2368584 ], [ 62.1443062, 40.9539604 ], [ 62.1826935, 40.959198 ] ] ] ] } },
{ "type": "Feature", "properties": { "POLYGON_ID": "UZB_GAUL1992_ADM1_3291", "ADM0_ISO3": "UZB", "ADM0_NAME": "Uzbekistan", "ADM0_CODE": 261, "ADM1_NAME": "Namangan", "ADM1_CODE": 3291, "GEOSET": "GAUL", "GEOSET_YEAR": 1992.0, "GEOSET_VERSION": "GAUL_v1", "GEOSET_UNIT": "ADM1", "CENTROID_LONG": 71.241569074995468, "CENTROID_LAT": 41.05156812312071 }, "geometry": { "type": "MultiPolygon", "coordinates": [ [ [ [ 71.7166282, 41.4197609 ], [ 71.7238377, 41.4323429 ], [ 71.71504, 41.44305 ], [ 71.7169624, 41.4476951 ], [ 71.74618, 41.45203 ], [ 71.74831, 41.44088 ], [ 71.7523344, 41.4350263 ], [ 71.77668, 41.46738 ], [ 71.79576, 41.43706 ], [ 71.83932, 41.3781 ], [ 71.8381966, 41.3738189 ], [ 71.83747, 41.37105 ], [ 71.83885, 41.36788 ], [ 71.8866694, 41.3609883 ], [ 71.88559, 41.35692 ], [ 71.88654, 41.34875 ], [ 71.8923182, 41.3385831 ], [ 71.9318245, 41.3022198 ], [ 71.92619, 41.29203 ], [ 71.92295, 41.28617 ], [ 71.9127194, 41.2728295 ], [ 71.90347, 41.26567 ], [ 71.86905, 41.22073 ], [ 71.86416, 41.20691 ], [ 71.89036, 41.17217 ], [ 71.95312, 41.15868 ], [ 72.02374, 41.16277 ], [ 72.08354, 41.1409 ], [ 72.1455771, 41.1613298 ], [ 72.16074, 41.15746 ], [ 72.16328, 41.15681 ], [ 72.17266, 41.16057 ], [ 72.20366, 41.1412 ], [ 72.21867, 41.06588 ], [ 72.21214, 41.03116 ], [ 72.2068, 41.02896 ], [ 72.2032355, 41.0283262 ], [ 72.18363, 41.02484 ], [ 72.1817492, 41.0124104 ], [ 72.18598, 41.00919 ], [ 72.1870568, 41.0086889 ], [ 72.0970917, 40.8937225 ], [ 72.0343475, 40.9057503 ], [ 71.9267578, 40.9090843 ], [ 71.8533325, 40.932106 ], [ 71.6768723, 40.8993454 ], [ 71.6268997, 40.8587723 ], [ 71.5410156, 40.8166618 ], [ 71.5635223, 40.7692947 ], [ 71.4736176, 40.7344131 ], [ 71.3971024, 40.6982956 ], [ 71.3622589, 40.6987114 ], [ 71.269249, 40.6454163 ], [ 71.2429504, 40.640934 ], [ 71.1416245, 40.6860466 ], [ 71.0449753, 40.7464142 ], [ 70.9631042, 40.7260437 ], [ 70.8913498, 40.7536011 ], [ 70.8438263, 40.7268257 ], [ 70.7753093, 40.7104959 ], [ 70.75364, 40.75001 ], [ 70.65471, 40.76154 ], [ 70.67382, 40.84839 ], [ 70.53456, 40.9921 ], [ 70.4518196, 41.041768 ], [ 70.4618073, 41.0872383 ], [ 70.3913116, 41.1491547 ], [ 70.3821793, 41.20084 ], [ 70.4029617, 41.2439957 ], [ 70.3494034, 41.2416267 ], [ 70.3545761, 41.2882195 ], [ 70.447113, 41.3327484 ], [ 70.4791113, 41.4019293 ], [ 70.4834, 41.3996 ], [ 70.5040468, 41.3990316 ], [ 70.51936, 41.39861 ], [ 70.5369533, 41.4042923 ], [ 70.5477, 41.4101 ], [ 70.55197, 41.41314 ], [ 70.5587772, 41.4179992 ], [ 70.567594, 41.4261255 ], [ 70.57361, 41.43431 ], [ 70.58366, 41.44252 ], [ 70.59482, 41.44802 ], [ 70.68808, 41.4686 ], [ 70.7118, 41.46356 ], [ 70.71594, 41.46098 ], [ 70.7206518, 41.4509418 ], [ 70.727558, 41.4388264 ], [ 70.73321, 41.43233 ], [ 70.74081, 41.42359 ], [ 70.7522682, 41.410421 ], [ 70.7585463, 41.4032055 ], [ 70.77255, 41.38605 ], [ 70.78008, 41.37538 ], [ 70.7764375, 41.3051072 ], [ 70.77748, 41.28386 ], [ 70.77774, 41.27866 ], [ 70.79661, 41.2517 ], [ 70.77906, 41.22078 ], [ 70.77849, 41.2029 ], [ 70.826, 41.18211 ], [ 70.8788072, 41.2289816 ], [ 70.88547, 41.22423 ], [ 70.9020314, 41.2080831 ], [ 70.90476, 41.20678 ], [ 70.91782, 41.20057 ], [ 70.9317259, 41.190778 ], [ 70.934079, 41.1891214 ], [ 70.93769, 41.18658 ], [ 70.9451754, 41.1737691 ], [ 70.94664, 41.17127 ], [ 70.96168, 41.16309 ], [ 70.99529, 41.18034 ], [ 71.03603, 41.19088 ], [ 71.04637, 41.18478 ], [ 71.07934, 41.17141 ], [ 71.0859063, 41.1640445 ], [ 71.09807, 41.15427 ], [ 71.12426, 41.14722 ], [ 71.13493, 41.14861 ], [ 71.136476, 41.1492839 ], [ 71.20239, 41.18554 ], [ 71.22416, 41.18104 ], [ 71.2256334, 41.1843368 ], [ 71.2321768, 41.1894208 ], [ 71.23711, 41.19057 ], [ 71.2402473, 41.1911918 ], [ 71.24172, 41.19103 ], [ 71.2590713, 41.1853336 ], [ 71.26694, 41.18029 ], [ 71.27251, 41.17339 ], [ 71.2779184, 41.151167 ], [ 71.2782, 41.15001 ], [ 71.27335, 41.11094 ], [ 71.325016, 41.146243 ], [ 71.32668, 41.15404 ], [ 71.3874291, 41.1409914 ], [ 71.39101, 41.12058 ], [ 71.4488407, 41.1522374 ], [ 71.45102, 41.15597 ], [ 71.4578899, 41.1884795 ], [ 71.44853, 41.28017 ], [ 71.47192, 41.30544 ], [ 71.48077, 41.31489 ], [ 71.54813, 41.31551 ], [ 71.57268, 41.29968 ], [ 71.57642, 41.29835 ], [ 71.5951, 41.31496 ], [ 71.5964988, 41.3189166 ], [ 71.59741, 41.31906 ], [ 71.5993319, 41.3193661 ], [ 71.6001064, 41.3194894 ], [ 71.60018, 41.32361 ], [ 71.60382, 41.32899 ], [ 71.61673, 41.33696 ], [ 71.6230904, 41.3476708 ], [ 71.63162, 41.35142 ], [ 71.63702, 41.34859 ], [ 71.64389, 41.3543 ], [ 71.64766, 41.36472 ], [ 71.65553, 41.37619 ], [ 71.6630992, 41.3823927 ], [ 71.67104, 41.40453 ], [ 71.6619731, 41.4150856 ], [ 71.669779, 41.4395184 ], [ 71.67541, 41.45464 ], [ 71.6464605, 41.4862127 ], [ 71.63784, 41.48682 ], [ 71.69344, 41.55293 ], [ 71.73355, 41.54388 ], [ 71.7310781, 41.5399399 ], [ 71.72499, 41.52264 ], [ 71.7255498, 41.5173651 ], [ 71.7232479, 41.508353 ], [ 71.72453, 41.49737 ], [ 71.72802, 41.48924 ], [ 71.69648, 41.44316 ], [ 71.69872, 41.43568 ], [ 71.70757, 41.42406 ], [ 71.7166282, 41.4197609 ] ], [ [ 70.6575, 40.94111 ], [ 70.66472, 40.975 ], [ 70.59472, 41.0325 ], [ 70.58222, 41.00278 ], [ 70.6575, 40.94111 ] ] ] ] } },
{ "type": "Feature", "properties": { "POLYGON_ID": "UZB_GAUL1992_ADM1_3292", "ADM0_ISO3": "UZB", "ADM0_NAME": "Uzbekistan", "ADM0_CODE": 261, "ADM1_NAME": "Samarkand", "ADM1_CODE": 3292, "GEOSET": "GAUL", "GEOSET_YEAR": 1992.0, "GEOSET_VERSION": "GAUL_v1", "GEOSET_UNIT": "ADM1", "CENTROID_LONG": 66.416365537039226, "CENTROID_LAT": 39.79331363057409 }, "geometry": { "type": "MultiPolygon", "coordinates": [ [ [ [ 66.6679153, 40.4752693 ], [ 66.6537933, 40.4287605 ], [ 66.723053, 40.4422569 ], [ 66.7526245, 40.41819 ], [ 66.8867035, 40.4084969 ], [ 66.9138184, 40.3690071 ], [ 66.8861008, 40.1827965 ], [ 66.9385986, 40.1909218 ], [ 66.9873886, 40.1517639 ], [ 66.9729691, 40.0768585 ], [ 67.0489655, 40.0421333 ], [ 67.0635834, 39.9927559 ], [ 67.0350571, 39.9511566 ], [ 67.0822296, 39.9348297 ], [ 67.0959702, 39.892231 ], [ 67.1258163, 39.8779945 ], [ 67.2220078, 39.8714027 ], [ 67.2475357, 39.8580818 ], [ 67.3248672, 39.8696289 ], [ 67.4199677, 39.8637505 ], [ 67.4814987, 39.8037796 ], [ 67.5321198, 39.7711143 ], [ 67.4730759, 39.754982 ], [ 67.4427567, 39.6983223 ], [ 67.3943024, 39.6742554 ], [ 67.4067383, 39.6037674 ], [ 67.489212, 39.5880318 ], [ 67.5001369, 39.5360873 ], [ 67.4435, 39.53415 ], [ 67.42549, 39.49696 ], [ 67.51897, 39.33869 ], [ 67.39228, 39.29983 ], [ 67.3933021, 39.2708548 ], [ 67.3498764, 39.2858162 ], [ 67.2037277, 39.2800331 ], [ 67.1785965, 39.3098755 ], [ 67.0657043, 39.3146248 ], [ 67.0672073, 39.2643662 ], [ 67.0373993, 39.2317162 ], [ 66.9754334, 39.2561874 ], [ 66.9005432, 39.2529144 ], [ 66.8740387, 39.3811226 ], [ 66.7853622, 39.3828735 ], [ 66.7807159, 39.401825 ], [ 66.6562195, 39.4003601 ], [ 66.615303, 39.3414726 ], [ 66.5737534, 39.3264503 ], [ 66.5265427, 39.3402939 ], [ 66.5030365, 39.3148384 ], [ 66.4363861, 39.3577766 ], [ 66.3152313, 39.3419075 ], [ 66.2381134, 39.3726807 ], [ 66.1762314, 39.3448982 ], [ 66.1248016, 39.3356209 ], [ 66.122261, 39.2982483 ], [ 66.077034, 39.2759056 ], [ 66.0194397, 39.2753105 ], [ 65.9758911, 39.2953606 ], [ 65.9592209, 39.3373146 ], [ 65.923851, 39.3557854 ], [ 65.904335, 39.3949051 ], [ 65.8201599, 39.4607506 ], [ 65.7887878, 39.5100708 ], [ 65.7089462, 39.4390907 ], [ 65.6813126, 39.4286194 ], [ 65.5871506, 39.4469376 ], [ 65.5116882, 39.4189377 ], [ 65.3193588, 39.4293365 ], [ 65.2680817, 39.4394073 ], [ 65.2364731, 39.4889297 ], [ 65.2149735, 39.571228 ], [ 65.2476578, 39.6703873 ], [ 65.1754303, 39.7876358 ], [ 65.1424637, 39.8284988 ], [ 65.2610168, 39.8379822 ], [ 65.3090668, 39.8911819 ], [ 65.3708878, 39.8629837 ], [ 65.4504776, 39.8466873 ], [ 65.4749298, 39.9078217 ], [ 65.4729767, 39.9860687 ], [ 65.4422531, 40.0200729 ], [ 65.4873505, 40.0844612 ], [ 65.5455322, 40.0700302 ], [ 65.6421585, 40.0236015 ], [ 65.641304, 40.0015678 ], [ 65.7047806, 39.9757652 ], [ 65.7662659, 39.9702606 ], [ 65.8130493, 39.9463348 ], [ 65.9217148, 39.9448967 ], [ 65.9730682, 39.964489 ], [ 66.0289993, 39.9602203 ], [ 66.0722275, 39.9872398 ], [ 66.1249924, 39.9903183 ], [ 66.1590118, 40.0800896 ], [ 66.1091537, 40.0869217 ], [ 66.1232986, 40.1545372 ], [ 66.1865005, 40.2235336 ], [ 66.1729507, 40.267395 ], [ 66.245903, 40.3167572 ], [ 66.2085571, 40.3938408 ], [ 66.2387238, 40.4456215 ], [ 66.2379913, 40.5130386 ], [ 66.2799454, 40.5624504 ], [ 66.3366089, 40.6621361 ], [ 66.4485168, 40.6566544 ], [ 66.4449005, 40.6027222 ], [ 66.5050507, 40.5700569 ], [ 66.5520554, 40.5704498 ], [ 66.603241, 40.4998932 ], [ 66.6679153, 40.4752693 ] ] ] ] } },
{ "type": "Feature", "properties": { "POLYGON_ID": "UZB_GAUL1992_ADM1_3293", "ADM0_ISO3": "UZB", "ADM0_NAME": "Uzbekistan", "ADM0_CODE": 261, "ADM1_NAME": "Surkhandarya", "ADM1_CODE": 3293, "GEOSET": "GAUL", "GEOSET_YEAR": 1992.0, "GEOSET_VERSION": "GAUL_v1", "GEOSET_UNIT": "ADM1", "CENTROID_LONG": 67.493299385691387, "CENTROID_LAT": 38.026945100901663 }, "geometry": { "type": "MultiPolygon", "coordinates": [ [ [ [ 68.2004939, 38.9169794 ], [ 68.19698, 38.85132 ], [ 68.15697, 38.82513 ], [ 68.07296, 38.8035 ], [ 68.127699, 38.7411911 ], [ 68.05813, 38.70587 ], [ 68.0859899, 38.6478461 ], [ 68.06848, 38.54065 ], [ 68.14241, 38.47225 ], [ 68.11436, 38.42857 ], [ 68.1967483, 38.4060607 ], [ 68.22732, 38.36522 ], [ 68.2336, 38.32863 ], [ 68.32032, 38.29252 ], [ 68.40264, 38.19499 ], [ 68.36993, 38.07847 ], [ 68.3201, 38.03715 ], [ 68.28455, 37.98403 ], [ 68.27027, 37.90939 ], [ 68.2009876, 37.8869608 ], [ 68.12875, 37.87729 ], [ 68.04272, 37.73659 ], [ 67.93875, 37.64028 ], [ 67.88844, 37.55652 ], [ 67.8540283, 37.5301456 ], [ 67.82837, 37.46329 ], [ 67.833, 37.34988 ], [ 67.82077, 37.2348 ], [ 67.8053965, 37.1927582 ], [ 67.7786575, 37.1796326 ], [ 67.77581, 37.182298 ], [ 67.758665, 37.193473 ], [ 67.753646, 37.20311 ], [ 67.713445, 37.224151 ], [ 67.704189, 37.223905 ], [ 67.686793, 37.228073 ], [ 67.6780573, 37.232242 ], [ 67.663853, 37.230311 ], [ 67.657869, 37.228193 ], [ 67.65203, 37.223581 ], [ 67.645055, 37.222874 ], [ 67.635354, 37.227963 ], [ 67.612667, 37.239205 ], [ 67.604438, 37.23655 ], [ 67.589753, 37.225988 ], [ 67.575676, 37.223031 ], [ 67.5693943, 37.2258285 ], [ 67.558046, 37.237219 ], [ 67.535481, 37.259251 ], [ 67.5353787, 37.2616894 ], [ 67.535159, 37.266925 ], [ 67.532289, 37.270194 ], [ 67.520559, 37.272946 ], [ 67.515413, 37.278203 ], [ 67.498992, 37.281413 ], [ 67.493355, 37.275294 ], [ 67.480938, 37.269295 ], [ 67.471767, 37.257939 ], [ 67.4691672, 37.2526035 ], [ 67.466565, 37.247263 ], [ 67.459015, 37.240272 ], [ 67.448974, 37.234633 ], [ 67.4159012, 37.2256562 ], [ 67.415547, 37.2255122 ], [ 67.403132, 37.219256 ], [ 67.3863215, 37.2184267 ], [ 67.3774433, 37.2172347 ], [ 67.34851, 37.207419 ], [ 67.325682, 37.202971 ], [ 67.310814, 37.191437 ], [ 67.304564, 37.18845 ], [ 67.2942054, 37.18722 ], [ 67.283046, 37.185895 ], [ 67.273499, 37.18218 ], [ 67.266886, 37.18227 ], [ 67.260195, 37.184339 ], [ 67.25535, 37.18884 ], [ 67.249335, 37.199143 ], [ 67.2492324, 37.2000542 ], [ 67.248146, 37.2097 ], [ 67.240858, 37.223591 ], [ 67.230522, 37.233955 ], [ 67.222172, 37.238816 ], [ 67.212252, 37.241914 ], [ 67.208649, 37.24897 ], [ 67.183209, 37.260338 ], [ 67.177468, 37.258805 ], [ 67.162623, 37.258618 ], [ 67.143055, 37.264655 ], [ 67.1415634, 37.267321 ], [ 67.130228, 37.270816 ], [ 67.1286459, 37.2715817 ], [ 67.125228, 37.273236 ], [ 67.122155, 37.281934 ], [ 67.11, 37.289925 ], [ 67.1105, 37.304167 ], [ 67.1113271, 37.3069916 ], [ 67.113629, 37.314853 ], [ 67.112424, 37.327069 ], [ 67.104648, 37.333193 ], [ 67.096486, 37.33488 ], [ 67.087263, 37.34096 ], [ 67.087632, 37.349389 ], [ 67.069148, 37.360166 ], [ 67.059192, 37.372518 ], [ 67.048087, 37.379429 ], [ 66.979374, 37.38594 ], [ 66.962553, 37.394076 ], [ 66.935311, 37.39395 ], [ 66.923322, 37.386269 ], [ 66.841091, 37.356302 ], [ 66.823928, 37.355969 ], [ 66.800872, 37.363255 ], [ 66.769011, 37.360855 ], [ 66.732868, 37.363732 ], [ 66.710597, 37.356372 ], [ 66.692621, 37.357019 ], [ 66.671647, 37.341628 ], [ 66.671842, 37.336408 ], [ 66.6718156, 37.3363645 ], [ 66.667155, 37.328693 ], [ 66.655365, 37.323028 ], [ 66.652244, 37.323554 ], [ 66.630618, 37.328589 ], [ 66.622888, 37.332032 ], [ 66.610232, 37.349054 ], [ 66.610345, 37.355182 ], [ 66.553732, 37.354753 ], [ 66.52128, 37.36942 ], [ 66.53076, 37.40298 ], [ 66.63959, 37.43952 ], [ 66.63706, 37.48395 ], [ 66.53828, 37.57946 ], [ 66.53272, 37.6051 ], [ 66.54823, 37.79178 ], [ 66.62433, 37.8922 ], [ 66.67916, 37.91869 ], [ 66.68371, 37.94827 ], [ 66.6570146, 37.9793873 ], [ 66.7131577, 38.0560684 ], [ 66.7832489, 38.1125755 ], [ 66.8489532, 38.1427994 ], [ 66.8815994, 38.2000122 ], [ 66.8602219, 38.2094994 ], [ 66.8732681, 38.2716446 ], [ 66.9718094, 38.2905579 ], [ 67.0088043, 38.3295975 ], [ 67.1270142, 38.3704987 ], [ 67.1758118, 38.4204712 ], [ 67.1794205, 38.4730263 ], [ 67.2738266, 38.5541878 ], [ 67.3051758, 38.5585442 ], [ 67.3566742, 38.597084 ], [ 67.3492203, 38.6273575 ], [ 67.4264526, 38.6945305 ], [ 67.5370865, 38.6885719 ], [ 67.5754089, 38.7732315 ], [ 67.5548172, 38.804615 ], [ 67.5778961, 38.8385048 ], [ 67.5393372, 38.8594818 ], [ 67.5343781, 38.9011803 ], [ 67.4894562, 38.9283791 ], [ 67.5693359, 38.9833603 ], [ 67.6079483, 38.962368 ], [ 67.7036023, 39.0036651 ], [ 67.7485979, 39.0011306 ], [ 67.81537, 39.01652 ], [ 67.87648, 39.0003 ], [ 67.89917, 39.02298 ], [ 67.97571, 39.03334 ], [ 68.0218491, 39.0096002 ], [ 68.06165, 39.02624 ], [ 68.11535, 39.01002 ], [ 68.14108, 38.96163 ], [ 68.2004939, 38.9169794 ] ] ] ] } },
{ "type": "Feature", "properties": { "POLYGON_ID": "UZB_GAUL1992_ADM1_3294", "ADM0_ISO3": "UZB", "ADM0_NAME": "Uzbekistan", "ADM0_CODE": 261, "ADM1_NAME": "Sirdarya", "ADM1_CODE": 3294, "GEOSET": "GAUL", "GEOSET_YEAR": 1992.0, "GEOSET_VERSION": "GAUL_v1", "GEOSET_UNIT": "ADM1", "CENTROID_LONG": 68.634652245136124, "CENTROID_LAT": 40.45877211187679 }, "geometry": { "type": "MultiPolygon", "coordinates": [ [ [ [ 68.6161979, 40.9308423 ], [ 68.6836472, 40.8792114 ], [ 68.7278976, 40.8317909 ], [ 68.8202896, 40.7903481 ], [ 68.8762207, 40.7494698 ], [ 68.9026413, 40.6906662 ], [ 68.940361, 40.6866379 ], [ 68.9565125, 40.6452675 ], [ 68.994812, 40.6187668 ], [ 69.0484314, 40.6182022 ], [ 69.0681229, 40.582077 ], [ 69.0542374, 40.5497513 ], [ 69.0712128, 40.5186539 ], [ 69.0801392, 40.4470139 ], [ 69.1016083, 40.4020958 ], [ 69.0600357, 40.3660774 ], [ 69.0782089, 40.2699394 ], [ 69.1343689, 40.2106894 ], [ 68.99946, 40.22053 ], [ 68.88428, 40.20707 ], [ 68.82696, 40.18657 ], [ 68.77532, 40.19772 ], [ 68.5889335, 40.1519167 ], [ 68.5790787, 40.2198524 ], [ 68.5153885, 40.2095146 ], [ 68.4185944, 40.2307281 ], [ 68.3109665, 40.212532 ], [ 68.1918488, 40.2241974 ], [ 68.1263046, 40.2196121 ], [ 68.1005173, 40.2703171 ], [ 68.2060089, 40.3732758 ], [ 68.1743698, 40.3946152 ], [ 68.1759949, 40.4477921 ], [ 68.1285324, 40.459507 ], [ 68.135025, 40.501545 ], [ 68.1653442, 40.5174332 ], [ 68.2501091, 40.6842508 ], [ 68.38028, 40.62834 ], [ 68.42306, 40.62194 ], [ 68.48444, 40.59111 ], [ 68.5375, 40.62555 ], [ 68.60806, 40.59972 ], [ 68.65195, 40.67167 ], [ 68.62834, 40.725 ], [ 68.58972, 40.73028 ], [ 68.56805, 40.86139 ], [ 68.59361, 40.87389 ], [ 68.6161979, 40.9308423 ] ] ] ] } },
{ "type": "Feature", "properties": { "POLYGON_ID": "UZB_GAUL1992_ADM1_3295", "ADM0_ISO3": "UZB", "ADM0_NAME": "Uzbekistan", "ADM0_CODE": 261, "ADM1_NAME": "Tashkent", "ADM1_CODE": 3295, "GEOSET": "GAUL", "GEOSET_YEAR": 1992.0, "GEOSET_VERSION": "GAUL_v1", "GEOSET_UNIT": "ADM1", "CENTROID_LONG": 69.784715421269027, "CENTROID_LAT": 41.235476691684831 }, "geometry": { "type": "MultiPolygon", "coordinates": [ [ [ [ 71.15647, 42.26342 ], [ 71.1727628, 42.2525149 ], [ 71.2269, 42.21628 ], [ 71.25059, 42.20633 ], [ 71.2579278, 42.2020562 ], [ 71.25345, 42.18606 ], [ 71.25234, 42.17938 ], [ 71.2526489, 42.1779097 ], [ 71.25305, 42.176 ], [ 71.2527095, 42.1681672 ], [ 71.25172, 42.16283 ], [ 71.24119, 42.15457 ], [ 71.23736, 42.15344 ], [ 71.23618, 42.1518 ], [ 71.22985, 42.14831 ], [ 71.22222, 42.14466 ], [ 71.21718, 42.13692 ], [ 71.17756, 42.13953 ], [ 71.16841, 42.13932 ], [ 71.1449833, 42.1326414 ], [ 71.14002, 42.12911 ], [ 71.1338289, 42.1246973 ], [ 71.12794, 42.1205 ], [ 71.0930959, 42.0956603 ], [ 71.08726, 42.0915 ], [ 71.06975, 42.08651 ], [ 71.06963, 42.08641 ], [ 71.0671401, 42.0845035 ], [ 71.03173, 42.05739 ], [ 71.017, 42.0525 ], [ 71.0124055, 42.0499803 ], [ 70.98052, 42.03304 ], [ 70.96623, 42.02632 ], [ 70.91091, 42.03802 ], [ 70.898, 42.04481 ], [ 70.89175, 42.0464 ], [ 70.87453, 42.04643 ], [ 70.8571962, 42.0334916 ], [ 70.85696, 42.03241 ], [ 70.85542, 42.0253 ], [ 70.85413, 42.02373 ], [ 70.84858, 42.01894 ], [ 70.8449064, 42.0167543 ], [ 70.84972, 41.98206 ], [ 70.85372, 41.97462 ], [ 70.85025, 41.94517 ], [ 70.84377, 41.9369 ], [ 70.82454, 41.92241 ], [ 70.75905, 41.93335 ], [ 70.75437, 41.93019 ], [ 70.74695, 41.91386 ], [ 70.7402315, 41.9137693 ], [ 70.67924, 41.90886 ], [ 70.66032, 41.89432 ], [ 70.65134, 41.88334 ], [ 70.6406, 41.86675 ], [ 70.63251, 41.86001 ], [ 70.6168, 41.85295 ], [ 70.6159505, 41.8523693 ], [ 70.60119, 41.82758 ], [ 70.57853, 41.81568 ], [ 70.52327, 41.79085 ], [ 70.5141, 41.78434 ], [ 70.50776, 41.76276 ], [ 70.5092996, 41.7543576 ], [ 70.50697, 41.74051 ], [ 70.50038, 41.73073 ], [ 70.4933, 41.72023 ], [ 70.40002, 41.67962 ], [ 70.38094, 41.66139 ], [ 70.3609, 41.6469 ], [ 70.34826, 41.63775 ], [ 70.30771, 41.633 ], [ 70.30168, 41.63205 ], [ 70.2848493, 41.6203482 ], [ 70.26578, 41.60709 ], [ 70.21493, 41.60445 ], [ 70.20631, 41.60172 ], [ 70.18065, 41.57682 ], [ 70.1813058, 41.5317997 ], [ 70.18223, 41.52683 ], [ 70.19976, 41.51251 ], [ 70.27625, 41.51639 ], [ 70.29721, 41.51731 ], [ 70.314781, 41.5151147 ], [ 70.36234, 41.49473 ], [ 70.3664, 41.48644 ], [ 70.3741021, 41.4745623 ], [ 70.38171, 41.46854 ], [ 70.3828994, 41.4685484 ], [ 70.39449, 41.46863 ], [ 70.40713, 41.46666 ], [ 70.41322, 41.46257 ], [ 70.41704, 41.45809 ], [ 70.42225, 41.45197 ], [ 70.44108, 41.4404 ], [ 70.4516079, 41.4339813 ], [ 70.4520446, 41.4335028 ], [ 70.46564, 41.4174 ], [ 70.47243, 41.40872 ], [ 70.4738503, 41.4069076 ], [ 70.4791113, 41.4019293 ], [ 70.447113, 41.3327484 ], [ 70.3545761, 41.2882195 ], [ 70.3494034, 41.2416267 ], [ 70.4029617, 41.2439957 ], [ 70.3821793, 41.20084 ], [ 70.3913116, 41.1491547 ], [ 70.4618073, 41.0872383 ], [ 70.4518196, 41.041768 ], [ 70.42053, 41.03371 ], [ 70.4119, 40.99189 ], [ 70.37046, 40.92894 ], [ 70.36549, 40.89117 ], [ 70.31679, 40.88102 ], [ 70.21491, 40.82631 ], [ 70.15519, 40.83435 ], [ 70.08028, 40.76516 ], [ 70.00864, 40.73524 ], [ 69.96479, 40.73041 ], [ 69.92273, 40.7039 ], [ 69.88375, 40.72034 ], [ 69.8301, 40.69276 ], [ 69.76756, 40.68877 ], [ 69.73724, 40.63893 ], [ 69.66768, 40.62995 ], [ 69.65018, 40.65815 ], [ 69.58368, 40.69279 ], [ 69.54788, 40.75349 ], [ 69.43654, 40.78527 ], [ 69.40097, 40.78203 ], [ 69.34835, 40.7121 ], [ 69.34375, 40.65434 ], [ 69.3633787, 40.6155221 ], [ 69.3337, 40.5711 ], [ 69.26903, 40.56876 ], [ 69.23071, 40.53528 ], [ 69.27393, 40.49535 ], [ 69.27435, 40.45406 ], [ 69.3074, 40.36977 ], [ 69.33901, 40.34789 ], [ 69.332, 40.30374 ], [ 69.3076567, 40.2860598 ], [ 69.25185, 40.289 ], [ 69.25925, 40.2482 ], [ 69.29793, 40.23675 ], [ 69.3161389, 40.2015917 ], [ 69.1343689, 40.2106894 ], [ 69.0782089, 40.2699394 ], [ 69.0600357, 40.3660774 ], [ 69.1016083, 40.4020958 ], [ 69.0801392, 40.4470139 ], [ 69.0712128, 40.5186539 ], [ 69.0542374, 40.5497513 ], [ 69.0681229, 40.582077 ], [ 69.0484314, 40.6182022 ], [ 68.994812, 40.6187668 ], [ 68.9565125, 40.6452675 ], [ 68.940361, 40.6866379 ], [ 68.9026413, 40.6906662 ], [ 68.8762207, 40.7494698 ], [ 68.8202896, 40.7903481 ], [ 68.7278976, 40.8317909 ], [ 68.6836472, 40.8792114 ], [ 68.6161979, 40.9308423 ], [ 68.71597, 40.96765 ], [ 68.7448, 40.98746 ], [ 68.76736, 41.04518 ], [ 68.82952, 41.11621 ], [ 68.9882, 41.25321 ], [ 68.99043, 41.29208 ], [ 69.03324, 41.34217 ], [ 69.07433, 41.33253 ], [ 69.1132298, 41.3862697 ], [ 69.17105, 41.41488 ], [ 69.18483, 41.44589 ], [ 69.23146, 41.46171 ], [ 69.30744, 41.45087 ], [ 69.43929, 41.47477 ], [ 69.40638, 41.50445 ], [ 69.45718, 41.54561 ], [ 69.51998, 41.56305 ], [ 69.53081, 41.58835 ], [ 69.62107, 41.65802 ], [ 69.69163, 41.6723 ], [ 69.72893, 41.69661 ], [ 69.79666, 41.70197 ], [ 69.8328, 41.71907 ], [ 69.88141, 41.69779 ], [ 69.95211, 41.71879 ], [ 69.98455, 41.78081 ], [ 70.06171, 41.80295 ], [ 70.15974, 41.8443 ], [ 70.19803, 41.9056 ], [ 70.2403, 41.94116 ], [ 70.33089, 41.97561 ], [ 70.32262, 42.03436 ], [ 70.39586, 42.08884 ], [ 70.4333, 42.13008 ], [ 70.54646, 42.06952 ], [ 70.55916, 42.01873 ], [ 70.62696, 42.00082 ], [ 70.69358, 42.12683 ], [ 70.80096, 42.20987 ], [ 70.83904, 42.19394 ], [ 70.90734, 42.22634 ], [ 70.9402168, 42.2591968 ], [ 70.94556, 42.26237 ], [ 70.954769, 42.2629499 ], [ 71.005597, 42.2688526 ], [ 71.00857, 42.27089 ], [ 71.0657571, 42.2879956 ], [ 71.07028, 42.28784 ], [ 71.0780816, 42.2845355 ], [ 71.08369, 42.28216 ], [ 71.10493, 42.27533 ], [ 71.11407, 42.27386 ], [ 71.1503068, 42.2664619 ], [ 71.15476, 42.26456 ], [ 71.15647, 42.26342 ] ], [ [ 69.1587372, 41.3386726 ], [ 69.1004639, 41.2536583 ], [ 69.1458206, 41.1833076 ], [ 69.1748123, 41.1610107 ], [ 69.2341766, 41.1555595 ], [ 69.3342972, 41.2037544 ], [ 69.3534851, 41.3043556 ], [ 69.2861786, 41.3517036 ], [ 69.2021027, 41.3659019 ], [ 69.1587372, 41.3386726 ] ] ] ] } },
{ "type": "Feature", "properties": { "POLYGON_ID": "UZB_GAUL1992_ADM1_39696", "ADM0_ISO3": "UZB", "ADM0_NAME": "Uzbekistan", "ADM0_CODE": 261, "ADM1_NAME": "Jizzakh", "ADM1_CODE": 39696, "GEOSET": "GAUL", "GEOSET_YEAR": 1992.0, "GEOSET_VERSION": "GAUL_v1", "GEOSET_UNIT": "ADM1", "CENTROID_LONG": 67.651810690294155, "CENTROID_LAT": 40.39314696580157 }, "geometry": { "type": "MultiPolygon", "coordinates": [ [ [ [ 68.2501091, 40.6842508 ], [ 68.1653442, 40.5174332 ], [ 68.135025, 40.501545 ], [ 68.1285324, 40.459507 ], [ 68.1759949, 40.4477921 ], [ 68.1743698, 40.3946152 ], [ 68.2060089, 40.3732758 ], [ 68.1005173, 40.2703171 ], [ 68.1263046, 40.2196121 ], [ 68.1918488, 40.2241974 ], [ 68.3109665, 40.212532 ], [ 68.4185944, 40.2307281 ], [ 68.5153885, 40.2095146 ], [ 68.5790787, 40.2198524 ], [ 68.5889335, 40.1519167 ], [ 68.55179, 40.11742 ], [ 68.60841, 40.09178 ], [ 68.68163, 40.0997 ], [ 68.87286, 40.14635 ], [ 68.97739, 40.15166 ], [ 69.0142196, 40.0802134 ], [ 68.88938, 40.06802 ], [ 68.81238, 40.0 ], [ 68.91294, 39.90434 ], [ 68.86317, 39.87191 ], [ 68.81952, 39.97061 ], [ 68.78416, 39.95797 ], [ 68.82411, 39.8929 ], [ 68.77191, 39.82598 ], [ 68.71624, 39.86933 ], [ 68.65195, 39.80934 ], [ 68.62252, 39.74859 ], [ 68.59188, 39.72429 ], [ 68.6325685, 39.6793716 ], [ 68.62663, 39.65074 ], [ 68.5439495, 39.589128 ], [ 68.51488, 39.53409 ], [ 68.33684, 39.54511 ], [ 68.25669, 39.55805 ], [ 68.03414, 39.57611 ], [ 67.99006, 39.59692 ], [ 67.94047, 39.59671 ], [ 67.79677, 39.65437 ], [ 67.75556, 39.64247 ], [ 67.7137, 39.65644 ], [ 67.64854, 39.62566 ], [ 67.62816, 39.60003 ], [ 67.49871, 39.57187 ], [ 67.5001369, 39.5360873 ], [ 67.489212, 39.5880318 ], [ 67.4067383, 39.6037674 ], [ 67.3943024, 39.6742554 ], [ 67.4427567, 39.6983223 ], [ 67.4730759, 39.754982 ], [ 67.5321198, 39.7711143 ], [ 67.4814987, 39.8037796 ], [ 67.4199677, 39.8637505 ], [ 67.3248672, 39.8696289 ], [ 67.2475357, 39.8580818 ], [ 67.2220078, 39.8714027 ], [ 67.1258163, 39.8779945 ], [ 67.0959702, 39.892231 ], [ 67.0822296, 39.9348297 ], [ 67.0350571, 39.9511566 ], [ 67.0635834, 39.9927559 ], [ 67.0489655, 40.0421333 ], [ 66.9729691, 40.0768585 ], [ 66.9873886, 40.1517639 ], [ 66.9385986, 40.1909218 ], [ 66.8861008, 40.1827965 ], [ 66.9138184, 40.3690071 ], [ 66.8867035, 40.4084969 ], [ 66.7526245, 40.41819 ], [ 66.723053, 40.4422569 ], [ 66.6537933, 40.4287605 ], [ 66.6679153, 40.4752693 ], [ 66.701355, 40.5298729 ], [ 66.7123413, 40.6118011 ], [ 66.771759, 40.6566925 ], [ 66.7717056, 40.7283936 ], [ 66.7222595, 40.8741493 ], [ 66.6478653, 40.8670502 ], [ 66.6331635, 41.0194054 ], [ 66.7212296, 41.026226 ], [ 66.7399977, 41.2437724 ], [ 67.31117, 41.21179 ], [ 67.34834, 41.20059 ], [ 67.40283, 41.21059 ], [ 67.74348, 41.20195 ], [ 67.80345, 41.19342 ], [ 67.84636, 41.16024 ], [ 67.93472, 41.19645 ], [ 67.98944, 41.13056 ], [ 68.02055, 41.05417 ], [ 68.07611, 41.04472 ], [ 68.09833, 41.065 ], [ 68.1438892, 41.0519457 ], [ 68.135, 40.93556 ], [ 68.07445, 40.85194 ], [ 68.02028, 40.82722 ], [ 68.2501091, 40.6842508 ] ] ] ] } },
{ "type": "Feature", "properties": { "POLYGON_ID": "UZB_GAUL1992_ADM1_39697", "ADM0_ISO3": "UZB", "ADM0_NAME": "Uzbekistan", "ADM0_CODE": 261, "ADM1_NAME": "Navoiy", "ADM1_CODE": 39697, "GEOSET": "GAUL", "GEOSET_YEAR": 1992.0, "GEOSET_VERSION": "GAUL_v1", "GEOSET_UNIT": "ADM1", "CENTROID_LONG": 64.335409310040461, "CENTROID_LAT": 41.971830451114585 }, "geometry": { "type": "MultiPolygon", "coordinates": [ [ [ [ 66.106686, 42.4022512 ], [ 66.1056673, 42.3473206 ], [ 66.01643, 42.37842 ], [ 66.00855, 41.9435 ], [ 66.53076, 41.89629 ], [ 66.55721, 41.68575 ], [ 66.6061, 41.25141 ], [ 66.7399977, 41.2437724 ], [ 66.7212296, 41.026226 ], [ 66.6331635, 41.0194054 ], [ 66.6478653, 40.8670502 ], [ 66.7222595, 40.8741493 ], [ 66.7717056, 40.7283936 ], [ 66.771759, 40.6566925 ], [ 66.7123413, 40.6118011 ], [ 66.701355, 40.5298729 ], [ 66.6679153, 40.4752693 ], [ 66.603241, 40.4998932 ], [ 66.5520554, 40.5704498 ], [ 66.5050507, 40.5700569 ], [ 66.4449005, 40.6027222 ], [ 66.4485168, 40.6566544 ], [ 66.3366089, 40.6621361 ], [ 66.2799454, 40.5624504 ], [ 66.2379913, 40.5130386 ], [ 66.2387238, 40.4456215 ], [ 66.2085571, 40.3938408 ], [ 66.245903, 40.3167572 ], [ 66.1729507, 40.267395 ], [ 66.1865005, 40.2235336 ], [ 66.1232986, 40.1545372 ], [ 66.1091537, 40.0869217 ], [ 66.1590118, 40.0800896 ], [ 66.1249924, 39.9903183 ], [ 66.0722275, 39.9872398 ], [ 66.0289993, 39.9602203 ], [ 65.9730682, 39.964489 ], [ 65.9217148, 39.9448967 ], [ 65.8130493, 39.9463348 ], [ 65.7662659, 39.9702606 ], [ 65.7047806, 39.9757652 ], [ 65.641304, 40.0015678 ], [ 65.6421585, 40.0236015 ], [ 65.5455322, 40.0700302 ], [ 65.4873505, 40.0844612 ], [ 65.4422531, 40.0200729 ], [ 65.4729767, 39.9860687 ], [ 65.4749298, 39.9078217 ], [ 65.4504776, 39.8466873 ], [ 65.3708878, 39.8629837 ], [ 65.3090668, 39.8911819 ], [ 65.2610168, 39.8379822 ], [ 65.1424637, 39.8284988 ], [ 65.1754303, 39.7876358 ], [ 65.2476578, 39.6703873 ], [ 65.2149735, 39.571228 ], [ 65.2364731, 39.4889297 ], [ 65.2680817, 39.4394073 ], [ 65.2415543, 39.4240532 ], [ 65.1489792, 39.4057083 ], [ 65.1281281, 39.4179611 ], [ 65.1164932, 39.5157242 ], [ 65.0150833, 39.5189514 ], [ 65.0144119, 39.6391335 ], [ 64.8786545, 39.6882553 ], [ 64.8222656, 39.659977 ], [ 64.8034973, 39.6937714 ], [ 64.7404861, 39.7182198 ], [ 64.648613, 39.773838 ], [ 64.6474686, 39.7963142 ], [ 64.5875626, 39.8517952 ], [ 64.6417007, 39.9398575 ], [ 64.7404251, 39.9853706 ], [ 64.8015442, 40.0733185 ], [ 64.8972015, 40.1091957 ], [ 64.8438797, 40.1466179 ], [ 64.8729401, 40.2130508 ], [ 64.8417664, 40.2278938 ], [ 64.8708725, 40.2960548 ], [ 64.936676, 40.3026314 ], [ 65.0112, 40.2555351 ], [ 65.1460114, 40.2520599 ], [ 65.1687546, 40.324501 ], [ 65.210083, 40.33284 ], [ 65.2430573, 40.4164238 ], [ 65.2343674, 40.4493408 ], [ 65.3682938, 40.4317703 ], [ 65.3549194, 40.5554962 ], [ 65.3753433, 40.583828 ], [ 65.2770386, 40.6132164 ], [ 65.0373611, 40.622757 ], [ 64.8850327, 40.6495399 ], [ 64.8066177, 40.6879463 ], [ 64.768631, 40.900753 ], [ 64.7348709, 40.902607 ], [ 64.7258606, 40.8386765 ], [ 64.5797653, 40.8183708 ], [ 64.4291382, 40.8238182 ], [ 64.3937378, 40.708004 ], [ 64.0545502, 40.7388763 ], [ 64.0780258, 40.8651543 ], [ 63.9966469, 40.9012756 ], [ 63.9630127, 40.88908 ], [ 63.8129425, 40.6723785 ], [ 63.6830826, 40.6561813 ], [ 63.6892204, 40.6942635 ], [ 63.4530792, 40.8380203 ], [ 63.3470688, 40.8799896 ], [ 63.0378914, 40.9794769 ], [ 62.9274254, 40.9799461 ], [ 62.7769775, 41.1907768 ], [ 62.6059875, 41.3042679 ], [ 62.5431175, 41.4243889 ], [ 62.122036, 41.3394012 ], [ 61.6527405, 41.8242531 ], [ 61.9727669, 41.9262505 ], [ 61.8318558, 42.1619987 ], [ 61.8904533, 42.5004501 ], [ 62.1522064, 42.8062477 ], [ 62.4626579, 43.1644592 ], [ 62.2226486, 43.2157898 ], [ 61.9860573, 43.4182243 ], [ 62.0035741, 43.4917361 ], [ 62.0287, 43.48652 ], [ 62.58513, 43.56628 ], [ 63.20807, 43.65249 ], [ 63.38889, 43.67286 ], [ 63.45664, 43.66276 ], [ 63.91188, 43.62808 ], [ 64.21875, 43.61089 ], [ 64.51385, 43.60033 ], [ 64.53653, 43.60331 ], [ 64.76398, 43.68455 ], [ 65.01026, 43.76685 ], [ 65.11442, 43.77559 ], [ 65.17024, 43.74355 ], [ 65.29413, 43.54528 ], [ 65.41565, 43.45627 ], [ 65.65107, 43.30351 ], [ 65.68355, 43.20759 ], [ 65.82719, 42.86813 ], [ 66.0992, 42.96219 ], [ 66.106686, 42.4022512 ] ] ] ] } },
{ "type": "Feature", "properties": { "POLYGON_ID": "UZB_GAUL1992_ADM1_39698", "ADM0_ISO3": "UZB", "ADM0_NAME": "Uzbekistan", "ADM0_CODE": 261, "ADM1_NAME": "Tashkent city", "ADM1_CODE": 39698, "GEOSET": "GAUL", "GEOSET_YEAR": 1992.0, "GEOSET_VERSION": "GAUL_v1", "GEOSET_UNIT": "ADM1", "CENTROID_LONG": 69.230247848203263, "CENTROID_LAT": 41.260145306829202 }, "geometry": { "type": "MultiPolygon", "coordinates": [ [ [ [ 69.1587372, 41.3386726 ], [ 69.2021027, 41.3659019 ], [ 69.2861786, 41.3517036 ], [ 69.3534851, 41.3043556 ], [ 69.3342972, 41.2037544 ], [ 69.2341766, 41.1555595 ], [ 69.1748123, 41.1610107 ], [ 69.1458206, 41.1833076 ], [ 69.1004639, 41.2536583 ], [ 69.1587372, 41.3386726 ] ] ] ] } }
]
}
