{
"type": "FeatureCollection",
"name": "UZB_GAUL2006_ADM0",
"crs": { "type": "name", "properties": { "name": "urn:ogc:def:crs:OGC:1.3:CRS84" } },
"features": [
{ "type": "Feature", "properties": { "POLYGON_ID": "UZB_GAUL2006_ADM0_261", "ADM0_ISO3": "UZB", "ADM0_NAME": "Uzbekistan", "ADM0_CODE": 261, "GEOSET": "GAUL", "GEOSET_YEAR": 2006.0, "GEOSET_VERSION": "GAUL_v1", "GEOSET_UNIT": "ADM0", "CENTROID_LONG": 63.162818303746626, "CENTROID_LAT": 41.761169814890856 }, "geometry": { "type": "MultiPolygon", "coordinates": [ [ [ [ 70.94022, 42.2592 ], [ 70.98993, 42.25808 ], [ 71.01705, 42.27673 ], [ 71.07028, 42.28784 ], [ 71.15476, 42.26456 ], [ 71.2269, 42.21628 ], [ 71.25799, 42.20202 ], [ 71.25135, 42.1608 ], [ 71.21362, 42.13474 ], [ 71.1451495, 42.1327597 ], [ 71.03173, 42.05739 ], [ 70.96623, 42.02632 ], [ 70.898, 42.04481 ], [ 70.86164, 42.04181 ], [ 70.83414, 42.0002 ], [ 70.85372, 41.97462 ], [ 70.85025, 41.94517 ], [ 70.82454, 41.92241 ], [ 70.75905, 41.93335 ], [ 70.73806, 41.91374 ], [ 70.70494, 41.91814 ], [ 70.65659, 41.89145 ], [ 70.60119, 41.82758 ], [ 70.53871, 41.79911 ], [ 70.50888, 41.77633 ], [ 70.50697, 41.74051 ], [ 70.49238, 41.71886 ], [ 70.40002, 41.67962 ], [ 70.34826, 41.63775 ], [ 70.30168, 41.63205 ], [ 70.26578, 41.60709 ], [ 70.19556, 41.59831 ], [ 70.18065, 41.57682 ], [ 70.18618, 41.51855 ], [ 70.24719, 41.51005 ], [ 70.32029, 41.51443 ], [ 70.34872, 41.50536 ], [ 70.38171, 41.46854 ], [ 70.40713, 41.46666 ], [ 70.46204, 41.42481 ], [ 70.4834, 41.3996 ], [ 70.5284, 41.39967 ], [ 70.59482, 41.44802 ], [ 70.65429, 41.45481 ], [ 70.67886, 41.46863 ], [ 70.71594, 41.46098 ], [ 70.78008, 41.37538 ], [ 70.79063, 41.34191 ], [ 70.7763, 41.30791 ], [ 70.77774, 41.27866 ], [ 70.79661, 41.2517 ], [ 70.77906, 41.22078 ], [ 70.78316, 41.1882 ], [ 70.81243, 41.17242 ], [ 70.85413, 41.22694 ], [ 70.87536, 41.23144 ], [ 70.96168, 41.16309 ], [ 71.01929, 41.19266 ], [ 71.07601, 41.17699 ], [ 71.12426, 41.14722 ], [ 71.20239, 41.18554 ], [ 71.25747, 41.18636 ], [ 71.2782, 41.15001 ], [ 71.27335, 41.11094 ], [ 71.29572, 41.10623 ], [ 71.32175, 41.13094 ], [ 71.32668, 41.15404 ], [ 71.36523, 41.16266 ], [ 71.3874291, 41.1409914 ], [ 71.39249, 41.1121 ], [ 71.43508, 41.12362 ], [ 71.4578899, 41.1884795 ], [ 71.4771798, 41.2211608 ], [ 71.4521891, 41.2388614 ], [ 71.44853, 41.28017 ], [ 71.48769, 41.31603 ], [ 71.54813, 41.31551 ], [ 71.591, 41.3034 ], [ 71.60382, 41.32899 ], [ 71.67616, 41.39858 ], [ 71.65892, 41.41864 ], [ 71.67678, 41.45834 ], [ 71.6632881, 41.4821706 ], [ 71.6234, 41.50403 ], [ 71.6603, 41.51916 ], [ 71.69344, 41.55293 ], [ 71.72601, 41.55371 ], [ 71.73132, 41.45684 ], [ 71.79929, 41.43146 ], [ 71.84302, 41.39227 ], [ 71.83747, 41.37105 ], [ 71.88914, 41.3703 ], [ 71.8862998, 41.349162 ], [ 71.93517, 41.30827 ], [ 71.87595, 41.23353 ], [ 71.86201, 41.20085 ], [ 71.89036, 41.17217 ], [ 71.95312, 41.15868 ], [ 71.97253, 41.17 ], [ 72.02374, 41.16277 ], [ 72.08354, 41.1409 ], [ 72.12423, 41.16307 ], [ 72.19273, 41.15486 ], [ 72.20366, 41.1412 ], [ 72.21867, 41.06588 ], [ 72.22836, 41.05241 ], [ 72.18598, 41.00919 ], [ 72.2148, 41.00275 ], [ 72.29293, 41.02781 ], [ 72.3436, 41.0632 ], [ 72.40692, 41.0458 ], [ 72.49758, 41.03065 ], [ 72.5108, 40.98202 ], [ 72.52993, 40.97173 ], [ 72.57114, 40.9233 ], [ 72.57549, 40.89047 ], [ 72.68081, 40.85561 ], [ 72.73207, 40.85401 ], [ 72.83479, 40.86949 ], [ 72.8682, 40.86172 ], [ 72.90924, 40.81706 ], [ 72.95227, 40.81679 ], [ 72.99577, 40.8476 ], [ 72.97569, 40.8623 ], [ 73.00142, 40.88521 ], [ 73.02107, 40.86525 ], [ 73.05889, 40.85111 ], [ 73.10953, 40.85846 ], [ 73.12725, 40.85056 ], [ 73.12775, 40.81582 ], [ 73.11364, 40.79612 ], [ 73.04168, 40.77098 ], [ 73.00572, 40.76709 ], [ 72.96698, 40.73957 ], [ 72.87025, 40.70468 ], [ 72.84859, 40.68891 ], [ 72.76711, 40.6755 ], [ 72.77798, 40.64967 ], [ 72.7597, 40.63282 ], [ 72.76207, 40.56999 ], [ 72.68353, 40.59317 ], [ 72.65363, 40.56025 ], [ 72.6366682, 40.5193997 ], [ 72.5829767, 40.5359805 ], [ 72.55117, 40.53705 ], [ 72.51646, 40.55771 ], [ 72.47632, 40.56406 ], [ 72.44479, 40.60055 ], [ 72.40605, 40.62297 ], [ 72.36102, 40.61582 ], [ 72.42744, 40.55027 ], [ 72.41446, 40.5248 ], [ 72.44093, 40.47333 ], [ 72.41051, 40.40124 ], [ 72.36877, 40.41207 ], [ 72.3353, 40.43842 ], [ 72.29771, 40.4427 ], [ 72.24441, 40.46964 ], [ 72.24046, 40.49697 ], [ 72.18351, 40.49826 ], [ 72.17265, 40.47541 ], [ 72.13448, 40.45224 ], [ 72.09247, 40.4481 ], [ 72.10221, 40.41979 ], [ 72.07077, 40.38347 ], [ 72.04793, 40.37962 ], [ 71.99706, 40.33242 ], [ 71.94859, 40.30533 ], [ 71.99556, 40.27842 ], [ 71.96011, 40.23531 ], [ 71.93947, 40.22464 ], [ 71.85506, 40.24795 ], [ 71.84291, 40.22906 ], [ 71.85925, 40.20143 ], [ 71.77758, 40.16737 ], [ 71.71619, 40.1508 ], [ 71.68054, 40.18717 ], [ 71.68019, 40.23198 ], [ 71.65427, 40.25309 ], [ 71.61104, 40.25237 ], [ 71.6137299, 40.2147297 ], [ 71.5510564, 40.1996308 ], [ 71.4928, 40.22238 ], [ 71.48691, 40.26242 ], [ 71.42561, 40.26949 ], [ 71.38838, 40.29816 ], [ 71.3031, 40.30569 ], [ 71.27732, 40.32672 ], [ 71.18268, 40.33017 ], [ 71.11821, 40.31932 ], [ 71.06304, 40.2898 ], [ 71.03217, 40.28681 ], [ 70.96316, 40.25991 ], [ 70.96761, 40.22851 ], [ 70.86801, 40.22301 ], [ 70.77789, 40.18395 ], [ 70.64562, 40.16502 ], [ 70.62763, 40.17067 ], [ 70.5709988, 40.2447092 ], [ 70.5805399, 40.2821702 ], [ 70.57172, 40.32574 ], [ 70.55053, 40.34589 ], [ 70.48763, 40.36746 ], [ 70.43078, 40.37965 ], [ 70.38523, 40.37651 ], [ 70.33268, 40.44924 ], [ 70.37334, 40.47954 ], [ 70.49483, 40.51138 ], [ 70.51409, 40.55329 ], [ 70.5873583, 40.5660395 ], [ 70.63033, 40.62092 ], [ 70.69889, 40.6591 ], [ 70.7355, 40.65758 ], [ 70.7896697, 40.725139 ], [ 70.75364, 40.75001 ], [ 70.68304, 40.75263 ], [ 70.65471, 40.76154 ], [ 70.66231, 40.80695 ], [ 70.69155, 40.81089 ], [ 70.67382, 40.84839 ], [ 70.53456, 40.9921 ], [ 70.48378, 41.03299 ], [ 70.4405296, 41.0412098 ], [ 70.40455, 41.01309 ], [ 70.4119, 40.99189 ], [ 70.37046, 40.92894 ], [ 70.36549, 40.89117 ], [ 70.31679, 40.88102 ], [ 70.26566, 40.84805 ], [ 70.21491, 40.82631 ], [ 70.15519, 40.83435 ], [ 70.13174, 40.80327 ], [ 70.08028, 40.76516 ], [ 70.00864, 40.73524 ], [ 69.96479, 40.73041 ], [ 69.92273, 40.7039 ], [ 69.88375, 40.72034 ], [ 69.8301, 40.69276 ], [ 69.79257, 40.69893 ], [ 69.76756, 40.68877 ], [ 69.73724, 40.63893 ], [ 69.71704, 40.62922 ], [ 69.66768, 40.62995 ], [ 69.65018, 40.65815 ], [ 69.62657, 40.66337 ], [ 69.58368, 40.69279 ], [ 69.54788, 40.75349 ], [ 69.43654, 40.78527 ], [ 69.40097, 40.78203 ], [ 69.3612, 40.73936 ], [ 69.34835, 40.7121 ], [ 69.34375, 40.65434 ], [ 69.3633787, 40.6155221 ], [ 69.3337, 40.5711 ], [ 69.26903, 40.56876 ], [ 69.23071, 40.53528 ], [ 69.27393, 40.49535 ], [ 69.27435, 40.45406 ], [ 69.3074, 40.3697709 ], [ 69.33901, 40.34789 ], [ 69.332, 40.30374 ], [ 69.3076567, 40.2860598 ], [ 69.25185, 40.289 ], [ 69.25925, 40.2482 ], [ 69.29793, 40.23675 ], [ 69.3161389, 40.2015917 ], [ 69.21084, 40.21094 ], [ 69.1706498, 40.2053901 ], [ 68.99946, 40.22053 ], [ 68.88428, 40.20707 ], [ 68.82696, 40.18657 ], [ 68.77532, 40.19772 ], [ 68.66034, 40.16707 ], [ 68.53832, 40.14061 ], [ 68.55179, 40.11742 ], [ 68.60841, 40.09178 ], [ 68.68163, 40.0997 ], [ 68.79867, 40.13163 ], [ 68.87286, 40.14635 ], [ 68.97739, 40.15166 ], [ 68.99563, 40.14093 ], [ 69.0142196, 40.0802134 ], [ 68.88938, 40.06802 ], [ 68.84618, 40.03841 ], [ 68.82399, 40.07825 ], [ 68.79146, 40.06304 ], [ 68.81939, 40.03795 ], [ 68.81238, 40.0 ], [ 68.84466, 39.97677 ], [ 68.91294, 39.90434 ], [ 68.89414, 39.86834 ], [ 68.86317, 39.87191 ], [ 68.84868, 39.91728 ], [ 68.81952, 39.97061 ], [ 68.78416, 39.95797 ], [ 68.82411, 39.8929 ], [ 68.78932, 39.86011 ], [ 68.77191, 39.82598 ], [ 68.71624, 39.86933 ], [ 68.68442, 39.84891 ], [ 68.64736, 39.85639 ], [ 68.65195, 39.80934 ], [ 68.62252, 39.74859 ], [ 68.59188, 39.72429 ], [ 68.6325685, 39.6793716 ], [ 68.62663, 39.65074 ], [ 68.5755, 39.60576 ], [ 68.5439495, 39.589128 ], [ 68.53262, 39.54621 ], [ 68.51488, 39.53409 ], [ 68.40246, 39.54391 ], [ 68.3624, 39.53027 ], [ 68.33684, 39.54511 ], [ 68.25669, 39.55805 ], [ 68.20941, 39.55119 ], [ 68.17135, 39.56333 ], [ 68.10694, 39.5644 ], [ 68.03414, 39.57611 ], [ 67.99006, 39.59692 ], [ 67.94047, 39.59671 ], [ 67.87918, 39.6254 ], [ 67.84946, 39.62679 ], [ 67.79677, 39.65437 ], [ 67.75556, 39.64247 ], [ 67.7137, 39.65644 ], [ 67.64854, 39.62566 ], [ 67.62816, 39.60003 ], [ 67.58472, 39.59673 ], [ 67.49871, 39.57187 ], [ 67.5004585, 39.5335086 ], [ 67.4435, 39.53415 ], [ 67.42549, 39.49696 ], [ 67.48078, 39.41007 ], [ 67.51897, 39.33869 ], [ 67.48531, 39.32278 ], [ 67.39228, 39.29983 ], [ 67.3953799, 39.2652802 ], [ 67.42549, 39.22469 ], [ 67.46209, 39.20319 ], [ 67.53203, 39.18513 ], [ 67.57155, 39.18849 ], [ 67.61693, 39.17738 ], [ 67.63115, 39.1494 ], [ 67.67786, 39.14401 ], [ 67.67154, 39.07888 ], [ 67.68388, 39.02309 ], [ 67.71536, 38.99966 ], [ 67.81537, 39.01652 ], [ 67.87648, 39.0003 ], [ 67.89917, 39.02298 ], [ 67.97571, 39.03334 ], [ 68.0218491, 39.0096002 ], [ 68.06165, 39.02624 ], [ 68.11535, 39.01002 ], [ 68.14108, 38.96163 ], [ 68.19909, 38.92611 ], [ 68.19064, 38.88788 ], [ 68.19698, 38.85132 ], [ 68.15697, 38.82513 ], [ 68.08057, 38.81297 ], [ 68.07296, 38.8035 ], [ 68.127699, 38.7411911 ], [ 68.08563, 38.72653 ], [ 68.05813, 38.70587 ], [ 68.08599, 38.64785 ], [ 68.07575, 38.63074 ], [ 68.06848, 38.54065 ], [ 68.12079, 38.48605 ], [ 68.14241, 38.47225 ], [ 68.11436, 38.42857 ], [ 68.16058, 38.42204 ], [ 68.1967483, 38.4060607 ], [ 68.22732, 38.36522 ], [ 68.2336, 38.32863 ], [ 68.32032, 38.29252 ], [ 68.3629, 38.2495 ], [ 68.40264, 38.19499 ], [ 68.36993, 38.07847 ], [ 68.3201, 38.03715 ], [ 68.28455, 37.98403 ], [ 68.28621, 37.95711 ], [ 68.27027, 37.90939 ], [ 68.21635, 37.88922 ], [ 68.12875, 37.87729 ], [ 68.04272, 37.73659 ], [ 67.98835, 37.69136 ], [ 67.93875, 37.64028 ], [ 67.88844, 37.55652 ], [ 67.85403, 37.53015 ], [ 67.82837, 37.46329 ], [ 67.833, 37.34988 ], [ 67.82077, 37.2348 ], [ 67.8054, 37.19276 ], [ 67.7786575, 37.1796326 ], [ 67.736966, 37.214547 ], [ 67.663853, 37.230311 ], [ 67.645055, 37.222874 ], [ 67.612667, 37.239205 ], [ 67.570956, 37.224261 ], [ 67.532289, 37.270194 ], [ 67.498992, 37.281413 ], [ 67.448974, 37.234633 ], [ 67.403132, 37.219256 ], [ 67.325682, 37.202971 ], [ 67.304564, 37.18845 ], [ 67.260195, 37.184339 ], [ 67.240858, 37.223591 ], [ 67.208649, 37.24897 ], [ 67.125228, 37.273236 ], [ 67.11, 37.289925 ], [ 67.112424, 37.327069 ], [ 67.059192, 37.372518 ], [ 67.01107, 37.373407 ], [ 66.946443, 37.398389 ], [ 66.851211, 37.35349 ], [ 66.800872, 37.363255 ], [ 66.751191, 37.35381 ], [ 66.732868, 37.363732 ], [ 66.692621, 37.357019 ], [ 66.655365, 37.323028 ], [ 66.630618, 37.328589 ], [ 66.604041, 37.363671 ], [ 66.575097, 37.36917 ], [ 66.553732, 37.354753 ], [ 66.52128, 37.36942 ], [ 66.53076, 37.40298 ], [ 66.57375, 37.42387 ], [ 66.63959, 37.43952 ], [ 66.63706, 37.48395 ], [ 66.53828, 37.57946 ], [ 66.53272, 37.6051 ], [ 66.54478, 37.70184 ], [ 66.5385, 37.72805 ], [ 66.54823, 37.79178 ], [ 66.56422, 37.82245 ], [ 66.62433, 37.8922 ], [ 66.67916, 37.91869 ], [ 66.67663, 37.96197 ], [ 66.62019, 38.01403 ], [ 66.56563, 38.0359 ], [ 66.49654, 38.04185 ], [ 66.43958, 38.02782 ], [ 66.40001, 38.03249 ], [ 66.31305, 38.0788 ], [ 66.27353, 38.11416 ], [ 66.24552, 38.15404 ], [ 66.11863, 38.17864 ], [ 66.09412, 38.20198 ], [ 66.0501, 38.21109 ], [ 66.02339, 38.22759 ], [ 65.9938, 38.22644 ], [ 65.95625, 38.24121 ], [ 65.91504, 38.27474 ], [ 65.85149, 38.27408 ], [ 65.83566, 38.25015 ], [ 65.79745, 38.23585 ], [ 65.69631, 38.2521 ], [ 65.48137, 38.319 ], [ 65.30055, 38.40849 ], [ 65.20211, 38.4767 ], [ 65.08872, 38.56746 ], [ 65.02504, 38.61246 ], [ 64.82664, 38.67949 ], [ 64.77599, 38.71197 ], [ 64.67489, 38.75924 ], [ 64.52283, 38.83823 ], [ 64.40307, 38.92486 ], [ 64.33103, 38.98588 ], [ 64.29686, 38.98142 ], [ 64.22965, 38.95656 ], [ 64.17711, 38.95919 ], [ 64.03281, 39.04111 ], [ 63.88582, 39.12907 ], [ 63.74538, 39.20674 ], [ 63.69206, 39.2518 ], [ 63.66013, 39.28929 ], [ 63.53913, 39.38358 ], [ 63.4532, 39.43072 ], [ 63.35847, 39.47477 ], [ 63.17042, 39.57411 ], [ 62.94858, 39.69612 ], [ 62.79797, 39.77576 ], [ 62.48795, 39.95139 ], [ 62.44266, 39.9911 ], [ 62.42701, 40.06486 ], [ 62.39649, 40.09928 ], [ 62.41192, 40.12987 ], [ 62.41378, 40.17351 ], [ 62.38974, 40.24455 ], [ 62.38431, 40.28614 ], [ 62.39317, 40.31078 ], [ 62.33325, 40.38345 ], [ 62.34946, 40.4383 ], [ 62.29747, 40.45646 ], [ 62.26367, 40.48478 ], [ 62.20772, 40.50851 ], [ 62.18854, 40.53108 ], [ 62.1443, 40.55648 ], [ 62.11307, 40.59611 ], [ 62.09101, 40.65696 ], [ 62.04546, 40.71211 ], [ 62.04207, 40.75774 ], [ 62.0001, 40.82032 ], [ 62.00012, 40.89241 ], [ 61.9914, 40.94691 ], [ 61.97088, 41.01914 ], [ 61.95472, 41.03448 ], [ 61.90095, 41.05342 ], [ 61.88041, 41.10939 ], [ 61.81323, 41.1536 ], [ 61.75675, 41.17574 ], [ 61.71283, 41.21514 ], [ 61.6606, 41.22589 ], [ 61.62689, 41.26499 ], [ 61.59824, 41.27557 ], [ 61.57023, 41.2662 ], [ 61.5159, 41.27214 ], [ 61.48103, 41.28673 ], [ 61.42154, 41.28588 ], [ 61.40387, 41.26181 ], [ 61.40508, 41.21858 ], [ 61.3799, 41.16488 ], [ 61.36187, 41.15317 ], [ 61.29981, 41.14522 ], [ 61.23853, 41.14912 ], [ 61.17133, 41.17324 ], [ 61.11795, 41.21214 ], [ 61.07453, 41.20916 ], [ 61.04605, 41.23469 ], [ 60.93979, 41.23831 ], [ 60.86107, 41.23076 ], [ 60.68372, 41.22753 ], [ 60.505578, 41.2164801 ], [ 60.46936, 41.22138 ], [ 60.39926, 41.25308 ], [ 60.33633, 41.29538 ], [ 60.20407, 41.36349 ], [ 60.13125, 41.39482 ], [ 60.09373, 41.4321001 ], [ 60.09763, 41.50482 ], [ 60.1119, 41.54813 ], [ 60.15827, 41.58075 ], [ 60.16376, 41.60952 ], [ 60.13334, 41.65679 ], [ 60.06857, 41.72849 ], [ 60.0602, 41.75284 ], [ 60.08363, 41.80933 ], [ 60.13673, 41.80367 ], [ 60.20354, 41.78339 ], [ 60.23128, 41.76634 ], [ 60.29146, 41.75228 ], [ 60.31934, 41.76837 ], [ 60.25838, 41.81541 ], [ 60.16573, 41.84474 ], [ 60.11505, 41.89478 ], [ 60.04504, 41.91641 ], [ 60.0065, 41.95185 ], [ 59.976499, 41.9535407 ], [ 59.94927, 41.97351 ], [ 59.96139, 41.99924 ], [ 60.03, 42.00972 ], [ 60.0008099, 42.0652225 ], [ 59.99736, 42.10186 ], [ 59.97019, 42.12823 ], [ 59.99684, 42.1561 ], [ 60.04933, 42.16652 ], [ 60.03914, 42.19593 ], [ 60.00749, 42.21458 ], [ 59.93949, 42.2336 ], [ 59.90693, 42.27353 ], [ 59.82797, 42.30632 ], [ 59.79286, 42.26864 ], [ 59.71763, 42.28598 ], [ 59.64113, 42.28063 ], [ 59.4192475, 42.2765615 ], [ 59.36725, 42.32078 ], [ 59.27063, 42.39285 ], [ 59.27743, 42.43883 ], [ 59.20372, 42.51006 ], [ 59.16948, 42.52804 ], [ 59.10412, 42.50808 ], [ 59.04784, 42.51073 ], [ 58.9347, 42.54364 ], [ 58.90965, 42.55877 ], [ 58.7025, 42.72653 ], [ 58.63587, 42.7887 ], [ 58.62046, 42.75457 ], [ 58.63976, 42.74041 ], [ 58.60452, 42.70075 ], [ 58.59536, 42.66594 ], [ 58.47267, 42.6503 ], [ 58.39221, 42.67337 ], [ 58.29717, 42.68945 ], [ 58.22447, 42.67031 ], [ 58.15172, 42.63283 ], [ 58.15477, 42.60973 ], [ 58.22762, 42.57374 ], [ 58.30648, 42.54826 ], [ 58.36421, 42.44894 ], [ 58.40469, 42.40516 ], [ 58.40803, 42.37061 ], [ 58.42904, 42.36634 ], [ 58.51783, 42.32175 ], [ 58.49242, 42.28918 ], [ 58.44677, 42.29728 ], [ 58.40638, 42.29118 ], [ 58.39692, 42.37102 ], [ 58.3697, 42.41876 ], [ 58.32343, 42.44809 ], [ 58.20119, 42.46739 ], [ 58.13472, 42.44252 ], [ 58.09174, 42.47063 ], [ 58.08594, 42.48982 ], [ 58.05328, 42.50448 ], [ 57.97719, 42.48424 ], [ 57.96864, 42.45488 ], [ 57.91515, 42.45721 ], [ 57.90419, 42.42622 ], [ 57.94731, 42.37163 ], [ 57.93873, 42.34615 ], [ 57.92852, 42.24514 ], [ 57.89262, 42.23684 ], [ 57.85673, 42.24798 ], [ 57.8338, 42.21871 ], [ 57.8584096, 42.1816108 ], [ 57.83548, 42.17295 ], [ 57.7692, 42.18127 ], [ 57.67562, 42.15197 ], [ 57.64677, 42.14938 ], [ 57.6117, 42.16525 ], [ 57.5217, 42.17408 ], [ 57.40983, 42.16951 ], [ 57.3128, 42.1378 ], [ 57.23831, 42.09442 ], [ 57.21411, 42.06843 ], [ 57.16753, 41.97505 ], [ 57.12997, 41.94359 ], [ 57.03826, 41.91811 ], [ 57.00154, 41.896 ], [ 56.98403, 41.86732 ], [ 56.96758, 41.80457 ], [ 56.97514, 41.71658 ], [ 56.9722, 41.67236 ], [ 56.99306, 41.61778 ], [ 57.0199, 41.58641 ], [ 57.02692, 41.55471 ], [ 57.02253, 41.49698 ], [ 57.03163, 41.44587 ], [ 57.04643, 41.41796 ], [ 57.08655, 41.3749 ], [ 57.14855, 41.38432 ], [ 57.1517, 41.35783 ], [ 57.0889, 41.33466 ], [ 57.06085, 41.30745 ], [ 57.04242, 41.26322 ], [ 57.00193, 41.25844 ], [ 56.96292, 41.26556 ], [ 56.78748, 41.28075 ], [ 56.55974, 41.28887 ], [ 56.43252, 41.2999 ], [ 56.20447, 41.31163 ], [ 56.0005984, 41.3180499 ], [ 56.0000222, 43.6057278 ], [ 55.999819, 44.4104498 ], [ 55.99967, 45.00022 ], [ 56.694968, 45.1583489 ], [ 56.9775368, 45.2226124 ], [ 57.6916923, 45.3850299 ], [ 58.59691, 45.5909 ], [ 59.0288777, 45.3640489 ], [ 60.7267616, 44.4723922 ], [ 61.13133, 44.25993 ], [ 61.41359, 44.01646 ], [ 61.58815, 43.85959 ], [ 61.97563, 43.51229 ], [ 62.0287, 43.48652 ], [ 62.58513, 43.56628 ], [ 62.93894, 43.61675 ], [ 63.20807, 43.65249 ], [ 63.38889, 43.67286 ], [ 63.45664, 43.66276 ], [ 63.73174, 43.64063 ], [ 63.86003, 43.63454 ], [ 63.91188, 43.62808 ], [ 64.21875, 43.61089 ], [ 64.51385, 43.60033 ], [ 64.53653, 43.60331 ], [ 64.76398, 43.68455 ], [ 64.90544, 43.72937 ], [ 65.01026, 43.76685 ], [ 65.11442, 43.77559 ], [ 65.17024, 43.74355 ], [ 65.29413, 43.54528 ], [ 65.41565, 43.45627 ], [ 65.65107, 43.30351 ], [ 65.68355, 43.20759 ], [ 65.82719, 42.86813 ], [ 66.0992, 42.96219 ], [ 66.10672, 42.46283 ], [ 66.1056673, 42.3473206 ], [ 66.01643, 42.37842 ], [ 66.00919, 42.05061 ], [ 66.00855, 41.9435 ], [ 66.53076, 41.89629 ], [ 66.55721, 41.68575 ], [ 66.59315, 41.35481 ], [ 66.6061, 41.25141 ], [ 66.9314, 41.23408 ], [ 67.0, 41.2278 ], [ 67.15176, 41.22053 ], [ 67.25221, 41.21194 ], [ 67.31117, 41.21179 ], [ 67.34834, 41.20059 ], [ 67.40283, 41.21059 ], [ 67.74348, 41.20195 ], [ 67.80345, 41.19342 ], [ 67.84636, 41.16024 ], [ 67.93472, 41.1964482 ], [ 67.95167, 41.16277 ], [ 67.98944, 41.13056 ], [ 68.01083, 41.095 ], [ 68.02055, 41.05417 ], [ 68.07611, 41.04472 ], [ 68.09833, 41.065 ], [ 68.14389, 41.05195 ], [ 68.14417, 40.97972 ], [ 68.135, 40.93556 ], [ 68.12139, 40.92694 ], [ 68.10333, 40.87944 ], [ 68.07445, 40.85194 ], [ 68.02028, 40.82722 ], [ 68.075, 40.80111 ], [ 68.11, 40.77278 ], [ 68.22778, 40.69445 ], [ 68.38028, 40.62834 ], [ 68.42306, 40.62194 ], [ 68.44306, 40.60306 ], [ 68.48444, 40.59111 ], [ 68.5238894, 40.6063898 ], [ 68.5375, 40.62555 ], [ 68.60806, 40.59972 ], [ 68.6491685, 40.6216683 ], [ 68.62388, 40.63639 ], [ 68.65195, 40.67167 ], [ 68.62834, 40.725 ], [ 68.58972, 40.73028 ], [ 68.56805, 40.86139 ], [ 68.59361, 40.87389 ], [ 68.59361, 40.92 ], [ 68.6452595, 40.9363299 ], [ 68.71597, 40.96765 ], [ 68.7448, 40.98746 ], [ 68.76736, 41.04518 ], [ 68.82952, 41.11621 ], [ 68.90715, 41.18579 ], [ 68.94735, 41.19656 ], [ 68.9487, 41.21659 ], [ 68.9882, 41.25321 ], [ 68.99043, 41.29208 ], [ 69.03324, 41.34217 ], [ 69.07433, 41.33253 ], [ 69.1132298, 41.3862697 ], [ 69.17105, 41.41488 ], [ 69.18483, 41.44589 ], [ 69.23146, 41.46171 ], [ 69.27374, 41.4626 ], [ 69.30744, 41.45087 ], [ 69.37538, 41.46066 ], [ 69.42314, 41.4549 ], [ 69.43929, 41.47477 ], [ 69.40638, 41.50445 ], [ 69.45718, 41.54561 ], [ 69.51998, 41.56305 ], [ 69.53081, 41.58835 ], [ 69.62107, 41.65802 ], [ 69.69163, 41.6723 ], [ 69.72893, 41.69661 ], [ 69.79666, 41.70197 ], [ 69.8328, 41.71907 ], [ 69.88141, 41.69779 ], [ 69.95211, 41.71879 ], [ 69.98455, 41.78081 ], [ 70.01335, 41.78788 ], [ 70.04589, 41.76831 ], [ 70.06171, 41.80295 ], [ 70.15974, 41.8443 ], [ 70.19803, 41.9056 ], [ 70.2403, 41.94116 ], [ 70.33089, 41.97561 ], [ 70.32262, 42.03436 ], [ 70.3635, 42.0579 ], [ 70.39586, 42.08884 ], [ 70.4105, 42.13048 ], [ 70.4333, 42.13008 ], [ 70.49158, 42.09198 ], [ 70.54646, 42.06952 ], [ 70.55916, 42.01873 ], [ 70.60191, 41.99707 ], [ 70.62696, 42.00082 ], [ 70.65446, 42.05996 ], [ 70.69358, 42.12683 ], [ 70.80096, 42.20987 ], [ 70.83904, 42.19394 ], [ 70.90734, 42.22634 ], [ 70.94022, 42.2592 ] ], [ [ 70.6575, 40.94111 ], [ 70.66472, 40.975 ], [ 70.63055, 41.00973 ], [ 70.59472, 41.0325 ], [ 70.58222, 41.00278 ], [ 70.6575, 40.94111 ] ] ], [ [ [ 71.80751, 39.96248 ], [ 71.78944, 39.9125 ], [ 71.775, 39.90306 ], [ 71.695, 39.93139 ], [ 71.70472, 39.96139 ], [ 71.742228, 39.9602797 ], [ 71.79083, 39.99444 ], [ 71.80751, 39.96248 ] ] ], [ [ [ 71.05206, 40.18234 ], [ 71.08144, 40.15069 ], [ 71.09583, 40.10591 ], [ 71.09003, 40.07741 ], [ 71.1197598, 40.0174706 ], [ 71.1699551, 40.0275581 ], [ 71.16701, 39.96436 ], [ 71.22061, 39.95735 ], [ 71.22934, 39.91975 ], [ 71.18045, 39.8758 ], [ 71.14112, 39.87931 ], [ 71.11277, 39.91527 ], [ 71.07458, 39.88923 ], [ 71.05685, 39.90589 ], [ 71.09512, 39.97063 ], [ 71.08546, 40.00978 ], [ 71.03441, 40.01745 ], [ 71.00769, 40.03953 ], [ 71.00065, 40.12022 ], [ 71.00394, 40.17479 ], [ 71.05206, 40.18234 ] ] ] ] } }
]
}
