{
"type": "FeatureCollection",
"name": "VAT_GAUL1992_ADM2",
"crs": { "type": "name", "properties": { "name": "urn:ogc:def:crs:OGC:1.3:CRS84" } },
"features": [
{ "type": "Feature", "properties": { "POLYGON_ID": "VAT_GAUL1992_ADM2_17208", "ADM0_ISO3": "VAT", "ADM0_NAME": "Holy See", "ADM0_CODE": 110, "ADM1_NAME": "Administrative unit not available", "ADM1_CODE": 1419, "ADM2_NAME": "Administrative unit not available", "ADM2_CODE": 17208, "GEOSET": "GAUL", "GEOSET_YEAR": 1992.0, "GEOSET_VERSION": "GAUL_v1", "GEOSET_UNIT": "ADM2", "CENTROID_LONG": 12.451697640846287, "CENTROID_LAT": 41.90407907571003 }, "geometry": { "type": "MultiPolygon", "coordinates": [ [ [ [ 12.44577, 41.90192 ], [ 12.4481207, 41.9042014 ], [ 12.45052, 41.90653 ], [ 12.4514623, 41.9065783 ], [ 12.4575596, 41.9039911 ], [ 12.4575171, 41.903347 ], [ 12.44577, 41.90192 ] ] ] ] } }
]
}
