{
"type": "FeatureCollection",
"name": "VIR_GAUL2000_ADM2",
"crs": { "type": "name", "properties": { "name": "urn:ogc:def:crs:OGC:1.3:CRS84" } },
"features": [
{ "type": "Feature", "properties": { "POLYGON_ID": "VIR_GAUL2000_ADM2_68760", "ADM0_ISO3": "VIR", "ADM0_NAME": "United States Virgin Islands", "ADM0_CODE": 258, "ADM1_NAME": "Saint Croix (County Equivalent)", "ADM1_CODE": 39508, "ADM2_NAME": "Administrative unit not available", "ADM2_CODE": 68760, "GEOSET": "GAUL", "GEOSET_YEAR": 2000.0, "GEOSET_VERSION": "GAUL_v1", "GEOSET_UNIT": "ADM2", "CENTROID_LONG": -64.778910305351246, "CENTROID_LAT": 17.731077169070815 }, "geometry": { "type": "MultiPolygon", "coordinates": [ [ [ [ -64.7803444, 17.7838254 ], [ -64.698051, 17.7463562 ], [ -64.6166684, 17.7614729 ], [ -64.6019211, 17.7457128 ], [ -64.7176891, 17.698304 ], [ -64.7355086, 17.7043321 ], [ -64.9038729, 17.6807405 ], [ -64.8943002, 17.7453026 ], [ -64.7803444, 17.7838254 ] ] ] ] } },
{ "type": "Feature", "properties": { "POLYGON_ID": "VIR_GAUL2000_ADM2_68761", "ADM0_ISO3": "VIR", "ADM0_NAME": "United States Virgin Islands", "ADM0_CODE": 258, "ADM1_NAME": "Saint John (County Equivalent)", "ADM1_CODE": 39509, "ADM2_NAME": "Administrative unit not available", "ADM2_CODE": 68761, "GEOSET": "GAUL", "GEOSET_YEAR": 2000.0, "GEOSET_VERSION": "GAUL_v1", "GEOSET_UNIT": "ADM2", "CENTROID_LONG": -64.74563413333334, "CENTROID_LAT": 18.337943333333332 }, "geometry": { "type": "MultiPolygon", "coordinates": [ [ [ [ -64.7465996, 18.3728575 ], [ -64.6994262, 18.3267816 ], [ -64.7908766, 18.3141909 ], [ -64.7465996, 18.3728575 ] ] ] ] } },
{ "type": "Feature", "properties": { "POLYGON_ID": "VIR_GAUL2000_ADM2_68762", "ADM0_ISO3": "VIR", "ADM0_NAME": "United States Virgin Islands", "ADM0_CODE": 258, "ADM1_NAME": "Saint Thomas (County Equivalent)", "ADM1_CODE": 39510, "ADM2_NAME": "Administrative unit not available", "ADM2_CODE": 68762, "GEOSET": "GAUL", "GEOSET_YEAR": 2000.0, "GEOSET_VERSION": "GAUL_v1", "GEOSET_UNIT": "ADM2", "CENTROID_LONG": -64.91835707267883, "CENTROID_LAT": 18.346555179075448 }, "geometry": { "type": "MultiPolygon", "coordinates": [ [ [ [ -64.9411612, 18.3832906 ], [ -64.8447877, 18.3305586 ], [ -64.8863417, 18.3089253 ], [ -64.99525, 18.3612598 ], [ -64.9411612, 18.3832906 ] ] ] ] } }
]
}
