{
"type": "FeatureCollection",
"name": "VNM_GAUL1999_ADM0",
"crs": { "type": "name", "properties": { "name": "urn:ogc:def:crs:OGC:1.3:CRS84" } },
"features": [
{ "type": "Feature", "properties": { "POLYGON_ID": "VNM_GAUL1999_ADM0_264", "ADM0_ISO3": "VNM", "ADM0_NAME": "Viet Nam", "ADM0_CODE": 264, "GEOSET": "GAUL", "GEOSET_YEAR": 1999.0, "GEOSET_VERSION": "GAUL_v1", "GEOSET_UNIT": "ADM0", "CENTROID_LONG": 106.30644781740827, "CENTROID_LAT": 16.633249527311584 }, "geometry": { "type": "MultiPolygon", "coordinates": [ [ [ [ 108.0235805, 21.5488719 ], [ 108.0455021, 21.5082566 ], [ 108.0351905, 21.4819293 ], [ 107.9963362, 21.4603688 ], [ 107.9702577, 21.4820365 ], [ 107.9502371, 21.4708193 ], [ 107.9521389, 21.4454554 ], [ 107.9165524, 21.4461381 ], [ 107.952397, 21.495966 ], [ 107.9137764, 21.5216222 ], [ 107.8696197, 21.5091898 ], [ 107.8327205, 21.4795751 ], [ 107.7974828, 21.4993778 ], [ 107.757147, 21.4297995 ], [ 107.7481135, 21.4001521 ], [ 107.6763046, 21.3821992 ], [ 107.6230489, 21.3223157 ], [ 107.6042854, 21.290687 ], [ 107.5777033, 21.2829242 ], [ 107.508252, 21.2938338 ], [ 107.4507283, 21.2817969 ], [ 107.4090882, 21.281324 ], [ 107.3803693, 21.2707428 ], [ 107.3654193, 21.1964132 ], [ 107.391554, 21.1740656 ], [ 107.3902764, 21.1258206 ], [ 107.3637074, 21.0793467 ], [ 107.3616601, 21.0416837 ], [ 107.3716606, 21.0274102 ], [ 107.3439857, 21.0013921 ], [ 107.2557282, 21.0012673 ], [ 107.2036875, 20.9627275 ], [ 107.1934325, 20.9409896 ], [ 107.1147513, 20.9382492 ], [ 107.0948012, 20.9531651 ], [ 107.0837199, 20.9935761 ], [ 107.0629039, 21.0082328 ], [ 107.0471656, 20.9802608 ], [ 107.0634426, 20.9625134 ], [ 107.0291026, 20.9462648 ], [ 106.9892892, 20.9593961 ], [ 106.9719299, 20.9526451 ], [ 106.9156793, 20.9686917 ], [ 106.8891018, 20.9685526 ], [ 106.8784551, 20.928479 ], [ 106.8797549, 20.8923754 ], [ 106.8533262, 20.9028502 ], [ 106.8296715, 20.9281972 ], [ 106.8062269, 20.9343392 ], [ 106.7795553, 20.9351031 ], [ 106.7647428, 20.9158638 ], [ 106.7501544, 20.8765909 ], [ 106.7755316, 20.8084508 ], [ 106.7575293, 20.7783425 ], [ 106.7989082, 20.7175519 ], [ 106.7680035, 20.714944 ], [ 106.7186304, 20.686915 ], [ 106.7018255, 20.6527587 ], [ 106.6563372, 20.6235172 ], [ 106.583335, 20.5533589 ], [ 106.5761871, 20.5214989 ], [ 106.5994918, 20.4419554 ], [ 106.5796818, 20.37232 ], [ 106.580232, 20.290659 ], [ 106.4966879, 20.2188657 ], [ 106.3832376, 20.2037065 ], [ 106.1751886, 19.978652 ], [ 106.1016151, 19.9567574 ], [ 106.0841424, 19.9263995 ], [ 106.0555962, 19.9260571 ], [ 106.0250163, 19.9680705 ], [ 105.9694605, 19.935319 ], [ 105.9525334, 19.9179107 ], [ 105.9515909, 19.8742593 ], [ 105.9312081, 19.8180921 ], [ 105.9345922, 19.7809568 ], [ 105.8959235, 19.7207181 ], [ 105.8788031, 19.7294098 ], [ 105.8472232, 19.6898389 ], [ 105.8337137, 19.6537043 ], [ 105.8131346, 19.5634409 ], [ 105.8065776, 19.5149292 ], [ 105.8097803, 19.4361617 ], [ 105.7841708, 19.4005355 ], [ 105.8006639, 19.3390261 ], [ 105.8259588, 19.3327418 ], [ 105.8019098, 19.2761089 ], [ 105.778202, 19.267645 ], [ 105.7704787, 19.2338726 ], [ 105.7385176, 19.2212928 ], [ 105.7308952, 19.1777634 ], [ 105.7306836, 19.1159465 ], [ 105.6960674, 19.0878936 ], [ 105.6744026, 19.097462 ], [ 105.6492377, 19.0798662 ], [ 105.6269964, 19.0396885 ], [ 105.6188563, 18.9863805 ], [ 105.6376823, 18.8970706 ], [ 105.6909627, 18.8741104 ], [ 105.7198991, 18.8336168 ], [ 105.7311388, 18.7981463 ], [ 105.759425, 18.764595 ], [ 105.7766253, 18.7617609 ], [ 105.7987339, 18.6701173 ], [ 105.8312072, 18.5896347 ], [ 105.8879109, 18.4989921 ], [ 105.9295057, 18.4509702 ], [ 105.9682073, 18.4162415 ], [ 106.0144594, 18.3581361 ], [ 106.0679246, 18.3022475 ], [ 106.122049, 18.2659782 ], [ 106.1588285, 18.2679122 ], [ 106.2354972, 18.2160344 ], [ 106.2508177, 18.2153824 ], [ 106.3413367, 18.1164907 ], [ 106.4048747, 18.0997349 ], [ 106.4210807, 18.1028398 ], [ 106.4377279, 18.0536237 ], [ 106.4591569, 18.0133048 ], [ 106.5112089, 17.942344 ], [ 106.483127, 17.9210168 ], [ 106.4496943, 17.8680307 ], [ 106.4442469, 17.8366622 ], [ 106.4679643, 17.7498118 ], [ 106.5041807, 17.6779699 ], [ 106.5449259, 17.6222983 ], [ 106.5936593, 17.5385553 ], [ 106.6492937, 17.4586143 ], [ 106.7073009, 17.3945394 ], [ 106.8188528, 17.2936251 ], [ 107.0108594, 17.1503773 ], [ 107.1132849, 17.0853315 ], [ 107.1127804, 17.0125097 ], [ 107.1434817, 16.9624479 ], [ 107.2307023, 16.8695224 ], [ 107.3263932, 16.7883508 ], [ 107.4024148, 16.7331175 ], [ 107.4942059, 16.6607056 ], [ 107.5371549, 16.615369 ], [ 107.4328486, 16.6709951 ], [ 107.4313743, 16.6327726 ], [ 107.4623453, 16.6268091 ], [ 107.5014031, 16.5975364 ], [ 107.5183702, 16.602692 ], [ 107.5478272, 16.5814932 ], [ 107.6218499, 16.5592495 ], [ 107.6320376, 16.5076843 ], [ 107.6537777, 16.4924675 ], [ 107.6841658, 16.5185365 ], [ 107.7002522, 16.4928849 ], [ 107.7534469, 16.4545201 ], [ 107.7651083, 16.430745 ], [ 107.7904392, 16.411251 ], [ 107.7761083, 16.3590408 ], [ 107.7926268, 16.3475262 ], [ 107.7960728, 16.3103839 ], [ 107.8163682, 16.290677 ], [ 107.8505627, 16.2892208 ], [ 107.8861146, 16.2752438 ], [ 107.9127658, 16.290243 ], [ 107.9228846, 16.3167044 ], [ 107.9220397, 16.3554124 ], [ 107.9511872, 16.3441579 ], [ 107.9750927, 16.3195491 ], [ 108.0394781, 16.3055398 ], [ 108.057095, 16.2621461 ], [ 108.0345495, 16.2556551 ], [ 108.041008, 16.2288801 ], [ 108.119312, 16.2123599 ], [ 108.1693049, 16.2089815 ], [ 108.1231793, 16.1352259 ], [ 108.1323322, 16.1119043 ], [ 108.169743, 16.0802637 ], [ 108.1957794, 16.0728282 ], [ 108.2438772, 16.1009427 ], [ 108.2207816, 16.129011 ], [ 108.2577585, 16.1529681 ], [ 108.3001414, 16.12494 ], [ 108.3238975, 16.1406871 ], [ 108.337895, 16.1212023 ], [ 108.2681869, 16.0952763 ], [ 108.2467144, 16.062681 ], [ 108.2552936, 16.0347849 ], [ 108.292964, 15.9606986 ], [ 108.3251229, 15.9251549 ], [ 108.3906092, 15.8846029 ], [ 108.4004641, 15.8724914 ], [ 108.4129889, 15.8176963 ], [ 108.4307029, 15.7793258 ], [ 108.5033272, 15.6623144 ], [ 108.5640712, 15.577331 ], [ 108.6050411, 15.5274849 ], [ 108.6301044, 15.5062111 ], [ 108.6914043, 15.4826011 ], [ 108.695792, 15.4424883 ], [ 108.7177646, 15.4164208 ], [ 108.7550219, 15.3890708 ], [ 108.7909872, 15.3899091 ], [ 108.821319, 15.4112454 ], [ 108.828345, 15.3758682 ], [ 108.8806998, 15.3201765 ], [ 108.8690171, 15.300913 ], [ 108.9081984, 15.2484477 ], [ 108.9372974, 15.2451147 ], [ 108.9354142, 15.2162776 ], [ 108.8963528, 15.195802 ], [ 108.9024074, 15.0832825 ], [ 108.93722, 14.9649326 ], [ 108.9774243, 14.8734828 ], [ 109.0099792, 14.8082559 ], [ 109.0777841, 14.6993224 ], [ 109.059184, 14.6915162 ], [ 109.0707027, 14.6103167 ], [ 109.0817878, 14.5778896 ], [ 109.0661597, 14.5681966 ], [ 109.0953765, 14.4947374 ], [ 109.1246663, 14.4424212 ], [ 109.1160147, 14.4208319 ], [ 109.1208148, 14.3749601 ], [ 109.1387031, 14.3424082 ], [ 109.185859, 14.2783832 ], [ 109.1994632, 14.232574 ], [ 109.1819858, 14.2109203 ], [ 109.2054212, 14.1608802 ], [ 109.2267299, 14.130908 ], [ 109.2062039, 14.1235818 ], [ 109.2138635, 14.083943 ], [ 109.2545582, 14.0158478 ], [ 109.2413521, 13.948794 ], [ 109.2765551, 13.890217 ], [ 109.2976551, 13.8836689 ], [ 109.291529, 13.8511025 ], [ 109.298566, 13.825802 ], [ 109.2850405, 13.8013151 ], [ 109.2940587, 13.7724651 ], [ 109.268726, 13.7571983 ], [ 109.2466017, 13.7713903 ], [ 109.2140148, 13.7453292 ], [ 109.2176707, 13.7147459 ], [ 109.2350704, 13.6775648 ], [ 109.226035, 13.643064 ], [ 109.2547674, 13.5930472 ], [ 109.2759334, 13.5735844 ], [ 109.2871958, 13.5028737 ], [ 109.316361, 13.456197 ], [ 109.3107949, 13.4135903 ], [ 109.2692726, 13.4123522 ], [ 109.2599071, 13.4237669 ], [ 109.2953719, 13.4527075 ], [ 109.2472157, 13.4892051 ], [ 109.2216529, 13.4431097 ], [ 109.2218642, 13.4144139 ], [ 109.2584275, 13.3577515 ], [ 109.292081, 13.3651554 ], [ 109.2815679, 13.3320812 ], [ 109.2861219, 13.3096315 ], [ 109.3142498, 13.2677281 ], [ 109.2931184, 13.2168864 ], [ 109.30749, 13.1858914 ], [ 109.293457, 13.1681008 ], [ 109.302542, 13.1246342 ], [ 109.3318176, 13.0864585 ], [ 109.3671578, 13.0207757 ], [ 109.4266332, 12.9498695 ], [ 109.4513335, 12.8988333 ], [ 109.4530429, 12.8586614 ], [ 109.4245522, 12.8726218 ], [ 109.4003366, 12.8669556 ], [ 109.390251, 12.8429766 ], [ 109.3567706, 12.8188523 ], [ 109.3623422, 12.7863598 ], [ 109.3944733, 12.7148049 ], [ 109.4372803, 12.6466551 ], [ 109.4335145, 12.6251067 ], [ 109.4401964, 12.5672637 ], [ 109.4173195, 12.5826832 ], [ 109.3911337, 12.6258112 ], [ 109.4109414, 12.6395459 ], [ 109.406931, 12.6703931 ], [ 109.336376, 12.6575243 ], [ 109.3799079, 12.7065844 ], [ 109.3508602, 12.7690692 ], [ 109.354691, 12.7964414 ], [ 109.3257495, 12.7923484 ], [ 109.3186225, 12.7645597 ], [ 109.2981876, 12.7596455 ], [ 109.2551886, 12.705315 ], [ 109.2304022, 12.6965411 ], [ 109.2121973, 12.6524145 ], [ 109.1908944, 12.634095 ], [ 109.203814, 12.5973523 ], [ 109.1936046, 12.5711221 ], [ 109.2332577, 12.5645445 ], [ 109.229526, 12.5406039 ], [ 109.2399675, 12.5086249 ], [ 109.2981046, 12.4774285 ], [ 109.2870443, 12.4567901 ], [ 109.293113, 12.4219099 ], [ 109.3194172, 12.4182476 ], [ 109.3419397, 12.3968606 ], [ 109.3026259, 12.3808323 ], [ 109.283913, 12.3469586 ], [ 109.2372193, 12.4110288 ], [ 109.180701, 12.4556221 ], [ 109.1413608, 12.4099103 ], [ 109.2018537, 12.3878373 ], [ 109.2017171, 12.3366563 ], [ 109.2370006, 12.3061164 ], [ 109.2073833, 12.2902964 ], [ 109.1974131, 12.2543569 ], [ 109.2176506, 12.2100047 ], [ 109.2012281, 12.1936349 ], [ 109.2028927, 12.1630329 ], [ 109.2214335, 12.153108 ], [ 109.2123882, 12.12435 ], [ 109.1959159, 12.1161117 ], [ 109.1996161, 12.0716514 ], [ 109.2252429, 12.0177642 ], [ 109.2767245, 11.9453775 ], [ 109.2584022, 11.923739 ], [ 109.27518, 11.8822258 ], [ 109.2505391, 11.8619837 ], [ 109.2285592, 11.8814589 ], [ 109.201845, 11.8817684 ], [ 109.2160181, 11.942607 ], [ 109.1901807, 11.9563134 ], [ 109.1540744, 11.907768 ], [ 109.1186724, 11.8998809 ], [ 109.1058274, 11.8610518 ], [ 109.1225793, 11.8257681 ], [ 109.1401231, 11.8163173 ], [ 109.1627287, 11.8485123 ], [ 109.178791, 11.8428761 ], [ 109.1878837, 11.7893612 ], [ 109.2307436, 11.7459302 ], [ 109.2339257, 11.7260308 ], [ 109.2005272, 11.7114724 ], [ 109.1731728, 11.6639443 ], [ 109.1674275, 11.6231812 ], [ 109.1545285, 11.6212539 ], [ 109.1402649, 11.5838877 ], [ 109.1228328, 11.5722604 ], [ 109.0911985, 11.5873597 ], [ 109.0645672, 11.580008 ], [ 109.038316, 11.5879624 ], [ 109.0244129, 11.5644312 ], [ 109.0342473, 11.545366 ], [ 109.0112459, 11.5055107 ], [ 109.014677, 11.4309196 ], [ 109.0097171, 11.3773165 ], [ 108.99441, 11.3480365 ], [ 108.9626525, 11.3152953 ], [ 108.9308155, 11.3069444 ], [ 108.8849594, 11.3362719 ], [ 108.8529893, 11.3341281 ], [ 108.8288712, 11.319126 ], [ 108.7834033, 11.3082674 ], [ 108.7545472, 11.2803126 ], [ 108.7301025, 11.1844819 ], [ 108.7127386, 11.1752634 ], [ 108.6491514, 11.1929422 ], [ 108.5915804, 11.185311 ], [ 108.5622323, 11.1621209 ], [ 108.5211637, 11.1512644 ], [ 108.48444, 11.0859307 ], [ 108.4750948, 11.0466447 ], [ 108.4457149, 11.0481589 ], [ 108.4109455, 11.0325922 ], [ 108.3725102, 11.0319839 ], [ 108.3526508, 11.0112195 ], [ 108.3341523, 10.9498163 ], [ 108.3136233, 10.9596166 ], [ 108.2953739, 10.9258897 ], [ 108.2662067, 10.9464549 ], [ 108.2124778, 10.9511648 ], [ 108.1902571, 10.9367625 ], [ 108.1231528, 10.9288815 ], [ 108.0800047, 10.9083988 ], [ 108.0602512, 10.878509 ], [ 108.0323492, 10.8113636 ], [ 108.0152819, 10.7344963 ], [ 107.992806, 10.6992267 ], [ 107.9123489, 10.7205429 ], [ 107.8920185, 10.7211022 ], [ 107.8190612, 10.6984801 ], [ 107.7782657, 10.6541454 ], [ 107.7283674, 10.6311075 ], [ 107.7010796, 10.631715 ], [ 107.6638896, 10.6092545 ], [ 107.5993899, 10.5840582 ], [ 107.5677653, 10.5653847 ], [ 107.5163611, 10.5035988 ], [ 107.4679476, 10.4959911 ], [ 107.4456156, 10.4691672 ], [ 107.3690038, 10.4674535 ], [ 107.3320643, 10.4507128 ], [ 107.2944604, 10.4221372 ], [ 107.2554409, 10.3787706 ], [ 107.2181956, 10.4046556 ], [ 107.1792255, 10.3999365 ], [ 107.1123867, 10.3616186 ], [ 107.0868803, 10.3236109 ], [ 107.0559768, 10.3736734 ], [ 107.1046167, 10.3952566 ], [ 107.1145921, 10.4339563 ], [ 107.0733311, 10.4330431 ], [ 107.0352708, 10.4761239 ], [ 106.9882284, 10.4945375 ], [ 106.9667907, 10.4630151 ], [ 106.9441864, 10.4719683 ], [ 106.9346053, 10.4440495 ], [ 106.9718089, 10.4072238 ], [ 106.900546, 10.3773731 ], [ 106.8817301, 10.3769611 ], [ 106.8724426, 10.4111247 ], [ 106.8358767, 10.4003794 ], [ 106.7839148, 10.4448532 ], [ 106.7641311, 10.4758926 ], [ 106.7422143, 10.4604005 ], [ 106.7843059, 10.4085204 ], [ 106.7831788, 10.3016799 ], [ 106.7763286, 10.2819077 ], [ 106.7477447, 10.2587889 ], [ 106.772762, 10.2409529 ], [ 106.7778517, 10.2174298 ], [ 106.7457956, 10.201916 ], [ 106.7905565, 10.1515796 ], [ 106.7913762, 10.1112023 ], [ 106.7759579, 10.0857105 ], [ 106.7369644, 10.046053 ], [ 106.7122937, 10.0398916 ], [ 106.6475371, 9.9745134 ], [ 106.6025033, 9.9562268 ], [ 106.660654, 9.929321 ], [ 106.6889959, 9.8761148 ], [ 106.6631558, 9.8371427 ], [ 106.6199956, 9.8008966 ], [ 106.6010819, 9.8085187 ], [ 106.5680436, 9.8470053 ], [ 106.5469804, 9.8476288 ], [ 106.5178327, 9.8060339 ], [ 106.5186159, 9.7639837 ], [ 106.5684219, 9.7406679 ], [ 106.5793481, 9.669575 ], [ 106.5684259, 9.6346515 ], [ 106.5294081, 9.5768499 ], [ 106.4940394, 9.5525535 ], [ 106.3946677, 9.5259537 ], [ 106.3711764, 9.5387298 ], [ 106.3456397, 9.5708638 ], [ 106.2888868, 9.6064886 ], [ 106.2876145, 9.5456371 ], [ 106.2610713, 9.5040633 ], [ 106.2330871, 9.4920561 ], [ 106.2112564, 9.5045367 ], [ 106.2054467, 9.4597022 ], [ 106.1771813, 9.4342624 ], [ 106.1890656, 9.3781921 ], [ 106.1563875, 9.3471144 ], [ 106.0820628, 9.3066721 ], [ 106.0641116, 9.2916907 ], [ 106.0092443, 9.2820006 ], [ 105.9764883, 9.2830487 ], [ 105.8892197, 9.2550405 ], [ 105.8086709, 9.2112013 ], [ 105.6843176, 9.1513763 ], [ 105.6770744, 9.1421365 ], [ 105.5315251, 9.0934994 ], [ 105.3985072, 8.9926791 ], [ 105.3873885, 8.9491359 ], [ 105.3632646, 8.892682 ], [ 105.3282399, 8.8285757 ], [ 105.2746173, 8.7711843 ], [ 105.2123818, 8.7520344 ], [ 105.1810053, 8.7362081 ], [ 105.1299763, 8.6714184 ], [ 105.1094299, 8.6335493 ], [ 105.0638998, 8.6240832 ], [ 105.0109489, 8.5989718 ], [ 104.8349513, 8.5606055 ], [ 104.8165739, 8.572961 ], [ 104.7489504, 8.5902469 ], [ 104.7180698, 8.6055506 ], [ 104.7265105, 8.6424288 ], [ 104.7576978, 8.6373382 ], [ 104.8093917, 8.656024 ], [ 104.781397, 8.693026 ], [ 104.8009732, 8.7230407 ], [ 104.867391, 8.7428165 ], [ 104.8822689, 8.7586647 ], [ 104.8864253, 8.7947946 ], [ 104.8136872, 8.7707596 ], [ 104.7885576, 8.7934938 ], [ 104.7835067, 8.8350326 ], [ 104.7987139, 8.8963542 ], [ 104.8042601, 8.9735582 ], [ 104.8025022, 9.0201167 ], [ 104.8093272, 9.1186194 ], [ 104.8073337, 9.1762536 ], [ 104.8167023, 9.2164028 ], [ 104.8244917, 9.3116209 ], [ 104.8361804, 9.5334057 ], [ 104.8580536, 9.718943 ], [ 104.8842085, 9.8158055 ], [ 104.9022428, 9.8509337 ], [ 104.9377861, 9.8461061 ], [ 104.9654012, 9.8606645 ], [ 105.0118779, 9.9123933 ], [ 105.0464022, 9.9399065 ], [ 105.1053741, 9.9521226 ], [ 105.0738979, 10.0129529 ], [ 104.9947275, 10.0944174 ], [ 104.9719264, 10.0993379 ], [ 104.8947985, 10.0858999 ], [ 104.8731973, 10.0988673 ], [ 104.8119015, 10.1877395 ], [ 104.7692943, 10.2188361 ], [ 104.7418576, 10.226973 ], [ 104.6883156, 10.199929 ], [ 104.6469421, 10.1465726 ], [ 104.614654, 10.1482537 ], [ 104.5902734, 10.2042239 ], [ 104.5826069, 10.2531298 ], [ 104.5513121, 10.2896255 ], [ 104.5341444, 10.2901978 ], [ 104.5202993, 10.3340222 ], [ 104.4386115, 10.4245465 ], [ 104.478102, 10.4300939 ], [ 104.4995347, 10.4050891 ], [ 104.5194364, 10.4423412 ], [ 104.5528612, 10.4581605 ], [ 104.5589848, 10.4938817 ], [ 104.5822036, 10.5048532 ], [ 104.5865411, 10.528327 ], [ 104.6460794, 10.5290962 ], [ 104.6946398, 10.537991 ], [ 104.7581881, 10.5175205 ], [ 104.8670175, 10.5210077 ], [ 104.9000233, 10.5509495 ], [ 104.9467342, 10.6328443 ], [ 105.0978841, 10.7231101 ], [ 105.0921523, 10.7569442 ], [ 105.0645383, 10.783531 ], [ 105.058852, 10.8214423 ], [ 105.0289186, 10.8931025 ], [ 105.0453032, 10.8995461 ], [ 105.0524301, 10.9285088 ], [ 105.0773068, 10.9353817 ], [ 105.0812302, 10.9571141 ], [ 105.1123268, 10.9615657 ], [ 105.1094457, 10.9191073 ], [ 105.1562961, 10.9244485 ], [ 105.2393197, 10.8897776 ], [ 105.2627883, 10.8943184 ], [ 105.3389479, 10.8594443 ], [ 105.3843129, 10.9176128 ], [ 105.4067584, 10.9361065 ], [ 105.4268328, 10.9726199 ], [ 105.4650849, 10.9653488 ], [ 105.496224, 10.9479615 ], [ 105.5381116, 10.9520713 ], [ 105.6666196, 10.9870039 ], [ 105.7282277, 11.0247468 ], [ 105.7797711, 11.0322407 ], [ 105.8094025, 10.971766 ], [ 105.849169, 10.9241057 ], [ 105.8643547, 10.8959037 ], [ 105.8497889, 10.8618134 ], [ 105.9041799, 10.8407095 ], [ 105.9346221, 10.8377107 ], [ 105.9300787, 10.8647738 ], [ 105.9765008, 10.8892689 ], [ 106.0100828, 10.8489705 ], [ 106.0827969, 10.8059466 ], [ 106.1527282, 10.8061729 ], [ 106.1971084, 10.7879451 ], [ 106.1655342, 10.888605 ], [ 106.1420419, 10.9151736 ], [ 106.1573747, 10.9409585 ], [ 106.1463404, 10.9754782 ], [ 106.1595181, 10.9844875 ], [ 106.2108991, 10.976412 ], [ 106.1900285, 11.0312626 ], [ 106.1906375, 11.0498718 ], [ 106.1577577, 11.1032422 ], [ 106.1071558, 11.0734065 ], [ 106.0931703, 11.101886 ], [ 106.0255316, 11.1463004 ], [ 106.0189203, 11.1875787 ], [ 105.9607747, 11.200208 ], [ 105.9283962, 11.2157191 ], [ 105.9075328, 11.2553703 ], [ 105.9095689, 11.2842157 ], [ 105.8769906, 11.2852337 ], [ 105.8673189, 11.3144185 ], [ 105.8863229, 11.3651524 ], [ 105.871196, 11.3768196 ], [ 105.8803712, 11.4069359 ], [ 105.9010425, 11.4282008 ], [ 105.9001789, 11.4518405 ], [ 105.8744343, 11.4612855 ], [ 105.8845811, 11.5372779 ], [ 105.8629923, 11.5617812 ], [ 105.8272025, 11.5645561 ], [ 105.8091221, 11.6000971 ], [ 105.8359494, 11.6224947 ], [ 105.852311, 11.6599377 ], [ 105.88744, 11.6769024 ], [ 105.9549562, 11.6398884 ], [ 105.9832766, 11.6929793 ], [ 106.015966, 11.7252749 ], [ 106.0147845, 11.7670228 ], [ 106.0674186, 11.7776078 ], [ 106.1082269, 11.7454169 ], [ 106.1559435, 11.7359448 ], [ 106.1972828, 11.7391468 ], [ 106.2679086, 11.7196087 ], [ 106.2710084, 11.7050265 ], [ 106.3038465, 11.6741653 ], [ 106.3883376, 11.6964623 ], [ 106.417004, 11.6768319 ], [ 106.4508274, 11.6705769 ], [ 106.414216, 11.766893 ], [ 106.4455691, 11.8224243 ], [ 106.4370388, 11.8525203 ], [ 106.4675656, 11.8690982 ], [ 106.4132399, 11.9725951 ], [ 106.4551573, 11.9885791 ], [ 106.4941087, 11.9685191 ], [ 106.6225187, 11.9742795 ], [ 106.6588904, 11.9643851 ], [ 106.6961325, 11.9648858 ], [ 106.743723, 11.9835121 ], [ 106.7514123, 12.0216662 ], [ 106.79095, 12.0843954 ], [ 106.8198096, 12.0836537 ], [ 106.8621551, 12.0627507 ], [ 106.9313341, 12.0647625 ], [ 106.9838823, 12.0881072 ], [ 107.0236409, 12.1271771 ], [ 107.0807715, 12.1691159 ], [ 107.1124191, 12.2186514 ], [ 107.1356858, 12.2285334 ], [ 107.1523227, 12.2760675 ], [ 107.2078624, 12.2999596 ], [ 107.2300426, 12.29537 ], [ 107.270028, 12.3249725 ], [ 107.3138894, 12.3308833 ], [ 107.3652098, 12.3168537 ], [ 107.3965116, 12.2556991 ], [ 107.434756, 12.2499683 ], [ 107.4455159, 12.2898501 ], [ 107.467993, 12.3092788 ], [ 107.5455865, 12.3524737 ], [ 107.555055, 12.3781126 ], [ 107.5467647, 12.4133465 ], [ 107.5689488, 12.4566317 ], [ 107.5797903, 12.4969274 ], [ 107.5552747, 12.5184089 ], [ 107.5903489, 12.5590659 ], [ 107.5799116, 12.5820038 ], [ 107.5857468, 12.6130938 ], [ 107.569791, 12.6429021 ], [ 107.5827732, 12.6795279 ], [ 107.5601212, 12.7100871 ], [ 107.568588, 12.7279978 ], [ 107.5516543, 12.8235755 ], [ 107.5273935, 12.8398579 ], [ 107.4990621, 12.8781216 ], [ 107.4969454, 12.9194789 ], [ 107.4853849, 12.9432513 ], [ 107.4953172, 12.9738622 ], [ 107.4955806, 13.0276561 ], [ 107.5554403, 13.1809025 ], [ 107.6097209, 13.3062077 ], [ 107.6313071, 13.3651547 ], [ 107.6282629, 13.4836023 ], [ 107.6238349, 13.523177 ], [ 107.5765113, 13.6222523 ], [ 107.5732219, 13.6620773 ], [ 107.5314226, 13.7441919 ], [ 107.4977853, 13.7686779 ], [ 107.448566, 13.7931639 ], [ 107.4723099, 13.8579652 ], [ 107.4732993, 13.9173252 ], [ 107.4556395, 13.935972 ], [ 107.4603574, 13.9668529 ], [ 107.4462037, 13.9947314 ], [ 107.3981668, 13.9934447 ], [ 107.3608525, 14.0221811 ], [ 107.3694305, 14.061211 ], [ 107.3402652, 14.0976676 ], [ 107.3372629, 14.130264 ], [ 107.3741484, 14.1744408 ], [ 107.3943067, 14.2237644 ], [ 107.4067449, 14.234058 ], [ 107.4157518, 14.2743747 ], [ 107.4067449, 14.3151203 ], [ 107.4088894, 14.3610126 ], [ 107.4573551, 14.4081917 ], [ 107.4830892, 14.3957536 ], [ 107.5049631, 14.4605176 ], [ 107.5083943, 14.5008343 ], [ 107.5328417, 14.5248527 ], [ 107.5225481, 14.5780364 ], [ 107.5328417, 14.5994815 ], [ 107.5547156, 14.6041994 ], [ 107.5508555, 14.6526651 ], [ 107.5561321, 14.6866018 ], [ 107.53439, 14.7436357 ], [ 107.5014579, 14.7940318 ], [ 107.5917717, 14.8678795 ], [ 107.5768025, 14.8913311 ], [ 107.5049507, 14.9287539 ], [ 107.4795032, 14.9571953 ], [ 107.468552, 15.0001914 ], [ 107.4794632, 15.0256509 ], [ 107.5067412, 15.0244386 ], [ 107.5425057, 15.0456548 ], [ 107.5825135, 15.0286818 ], [ 107.5946371, 15.0408054 ], [ 107.5861506, 15.1105159 ], [ 107.5528108, 15.1693152 ], [ 107.5831197, 15.2238713 ], [ 107.5928185, 15.2778211 ], [ 107.6237336, 15.2899447 ], [ 107.6831391, 15.2832767 ], [ 107.7061739, 15.3032806 ], [ 107.674561, 15.3473957 ], [ 107.6067606, 15.3954197 ], [ 107.5594787, 15.3960259 ], [ 107.5237142, 15.4148174 ], [ 107.523108, 15.4596746 ], [ 107.5121968, 15.4766476 ], [ 107.478857, 15.4766476 ], [ 107.4497604, 15.4960453 ], [ 107.4273318, 15.4869527 ], [ 107.3812623, 15.5039257 ], [ 107.3685325, 15.5645435 ], [ 107.3479798, 15.5788501 ], [ 107.3532381, 15.6043325 ], [ 107.3362498, 15.6209163 ], [ 107.28927, 15.6252752 ], [ 107.2642519, 15.6573198 ], [ 107.285285, 15.7099025 ], [ 107.2561622, 15.7333625 ], [ 107.2517129, 15.7503508 ], [ 107.2145005, 15.757227 ], [ 107.2294664, 15.7940349 ], [ 107.2197588, 15.8183039 ], [ 107.2246126, 15.8458087 ], [ 107.307127, 15.8668418 ], [ 107.3318005, 15.8935377 ], [ 107.3912594, 15.8919197 ], [ 107.4224046, 15.9161887 ], [ 107.4393929, 15.9647266 ], [ 107.4592776, 15.9993028 ], [ 107.4720438, 16.0450485 ], [ 107.4725757, 16.084943 ], [ 107.4316173, 16.1498382 ], [ 107.3848077, 16.114199 ], [ 107.3502325, 16.1110075 ], [ 107.3060825, 16.1306888 ], [ 107.2855578, 16.1156982 ], [ 107.2403789, 16.1430514 ], [ 107.1859798, 16.1498128 ], [ 107.1530945, 16.1765514 ], [ 107.1448393, 16.2121238 ], [ 107.1570537, 16.2566703 ], [ 107.088797, 16.3109163 ], [ 107.0424544, 16.3004982 ], [ 107.0079668, 16.3123533 ], [ 106.9691683, 16.3022944 ], [ 106.9655758, 16.3511518 ], [ 106.9210294, 16.373425 ], [ 106.8772014, 16.4233602 ], [ 106.8865418, 16.4481481 ], [ 106.8764829, 16.4686251 ], [ 106.8890565, 16.5178417 ], [ 106.8635501, 16.5404742 ], [ 106.8322957, 16.5472999 ], [ 106.829781, 16.5228712 ], [ 106.8021191, 16.4621587 ], [ 106.7766127, 16.4700621 ], [ 106.7720558, 16.4324071 ], [ 106.738594, 16.4123808 ], [ 106.7335241, 16.4400121 ], [ 106.7015833, 16.4359561 ], [ 106.6468276, 16.5216386 ], [ 106.6470811, 16.5406509 ], [ 106.671924, 16.5601703 ], [ 106.6486021, 16.5936321 ], [ 106.5973954, 16.606307 ], [ 106.5857345, 16.60073 ], [ 106.5691706, 16.6616693 ], [ 106.5546546, 16.6918784 ], [ 106.5515159, 17.0033855 ], [ 106.5131672, 16.9707342 ], [ 106.4253262, 17.0062099 ], [ 106.4210474, 17.0308128 ], [ 106.4009907, 17.052474 ], [ 106.406874, 17.0877737 ], [ 106.3751551, 17.1086418 ], [ 106.3544928, 17.1355655 ], [ 106.355745, 17.156854 ], [ 106.3250646, 17.1818993 ], [ 106.3100374, 17.2107014 ], [ 106.3150464, 17.2488955 ], [ 106.3006454, 17.293977 ], [ 106.2774785, 17.2958554 ], [ 106.279983, 17.265801 ], [ 106.2499287, 17.2445125 ], [ 106.1992119, 17.2733146 ], [ 106.1516259, 17.3108826 ], [ 106.1259544, 17.3421892 ], [ 106.0783684, 17.3666083 ], [ 105.8652852, 17.6186673 ], [ 105.779881, 17.6746339 ], [ 105.7503562, 17.6729627 ], [ 105.745064, 17.7119578 ], [ 105.730023, 17.7451037 ], [ 105.7066259, 17.7590305 ], [ 105.6776581, 17.7921764 ], [ 105.684343, 17.8233724 ], [ 105.6751513, 17.8459339 ], [ 105.6425625, 17.857911 ], [ 105.6113665, 17.8854861 ], [ 105.6241791, 17.9425861 ], [ 105.6425625, 17.9665402 ], [ 105.6431196, 17.9899373 ], [ 105.6133635, 18.0124496 ], [ 105.579045, 18.0255929 ], [ 105.5809435, 18.0602035 ], [ 105.5667779, 18.0821089 ], [ 105.5298308, 18.0886805 ], [ 105.5323134, 18.1162814 ], [ 105.5155037, 18.1264628 ], [ 105.5019549, 18.1810143 ], [ 105.4466903, 18.1988416 ], [ 105.4135315, 18.1585519 ], [ 105.3272474, 18.1856494 ], [ 105.3226123, 18.2359224 ], [ 105.2944451, 18.2444795 ], [ 105.2577209, 18.2687246 ], [ 105.2438156, 18.295109 ], [ 105.2174312, 18.299031 ], [ 105.1864117, 18.3182845 ], [ 105.1895395, 18.3486834 ], [ 105.117423, 18.4377076 ], [ 105.1005154, 18.440468 ], [ 105.1260494, 18.5246615 ], [ 105.1336753, 18.5796083 ], [ 105.1584169, 18.6077002 ], [ 105.192952, 18.6133702 ], [ 105.1906324, 18.6430085 ], [ 105.1540355, 18.6754818 ], [ 105.1056503, 18.7033872 ], [ 105.0502178, 18.7071353 ], [ 105.038579, 18.7221277 ], [ 104.9960409, 18.7363942 ], [ 104.9415229, 18.7412628 ], [ 104.9161819, 18.7855381 ], [ 104.854752, 18.7763236 ], [ 104.8418517, 18.7855381 ], [ 104.8000793, 18.7830809 ], [ 104.7822646, 18.8021242 ], [ 104.7619927, 18.7941383 ], [ 104.7361921, 18.8144102 ], [ 104.6686192, 18.8445109 ], [ 104.6182466, 18.8930406 ], [ 104.5807743, 18.9022551 ], [ 104.5451449, 18.9710566 ], [ 104.4917009, 19.0036145 ], [ 104.4474713, 18.9870284 ], [ 104.4072167, 19.0344478 ], [ 104.4025755, 19.054084 ], [ 104.3493794, 19.0705069 ], [ 104.308679, 19.0908571 ], [ 104.2785508, 19.1205344 ], [ 104.2475073, 19.1133051 ], [ 104.208146, 19.1162334 ], [ 104.2261078, 19.146841 ], [ 104.1983905, 19.1643356 ], [ 104.183294, 19.1989937 ], [ 104.1482106, 19.2006947 ], [ 104.0986977, 19.2215671 ], [ 104.0595452, 19.2468347 ], [ 104.0110663, 19.2345024 ], [ 103.9583349, 19.2553398 ], [ 103.9521687, 19.2785161 ], [ 103.8766277, 19.3191868 ], [ 103.9077371, 19.3297469 ], [ 103.9531061, 19.3579654 ], [ 103.9574545, 19.3830621 ], [ 103.9929876, 19.4054256 ], [ 104.0141086, 19.4021953 ], [ 104.0501386, 19.4259254 ], [ 104.0742414, 19.4164831 ], [ 104.0736997, 19.4574167 ], [ 104.0947717, 19.4954503 ], [ 104.1233433, 19.5027545 ], [ 104.0928628, 19.5725563 ], [ 104.0316812, 19.6195298 ], [ 104.04096, 19.632868 ], [ 104.0287274, 19.6776476 ], [ 104.0390386, 19.700385 ], [ 104.1077795, 19.6607268 ], [ 104.1580133, 19.6718311 ], [ 104.164623, 19.6964192 ], [ 104.1995223, 19.6924534 ], [ 104.2366841, 19.7075263 ], [ 104.2870662, 19.6939311 ], [ 104.3050598, 19.6973299 ], [ 104.339668, 19.6774418 ], [ 104.3492753, 19.6904399 ], [ 104.394486, 19.7062637 ], [ 104.4541077, 19.6517282 ], [ 104.4936672, 19.6537062 ], [ 104.5044047, 19.6212109 ], [ 104.5586576, 19.6104734 ], [ 104.6109326, 19.6313833 ], [ 104.6442755, 19.6226238 ], [ 104.646536, 19.6545539 ], [ 104.6677286, 19.6785721 ], [ 104.6711194, 19.7045683 ], [ 104.7250897, 19.7551478 ], [ 104.7530639, 19.7506267 ], [ 104.7937536, 19.7901861 ], [ 104.8364212, 19.7983806 ], [ 104.8446157, 19.8455693 ], [ 104.8222929, 19.8650665 ], [ 104.7664676, 19.8775035 ], [ 104.7988398, 19.9244056 ], [ 104.891822, 19.9767941 ], [ 104.9029922, 20.0003756 ], [ 104.9327794, 19.9885849 ], [ 104.9784411, 20.0112675 ], [ 104.95643, 20.0684964 ], [ 104.9940935, 20.0958881 ], [ 104.9324623, 20.131595 ], [ 104.9290384, 20.1589866 ], [ 104.8796356, 20.1438234 ], [ 104.7681126, 20.1990958 ], [ 104.7255577, 20.2005632 ], [ 104.669307, 20.2186613 ], [ 104.6761549, 20.2450746 ], [ 104.7294708, 20.2719771 ], [ 104.7818084, 20.2807816 ], [ 104.758819, 20.3893698 ], [ 104.6991443, 20.3986634 ], [ 104.6839811, 20.4113809 ], [ 104.6257739, 20.4285007 ], [ 104.6076759, 20.4211637 ], [ 104.5323489, 20.4138266 ], [ 104.5000659, 20.3962177 ], [ 104.460935, 20.4015982 ], [ 104.4403913, 20.4578489 ], [ 104.4780548, 20.490621 ], [ 104.5020224, 20.5248606 ], [ 104.5352837, 20.5189909 ], [ 104.5998497, 20.5351324 ], [ 104.5890887, 20.5762199 ], [ 104.5621862, 20.6226878 ], [ 104.5333272, 20.6941017 ], [ 104.4945993, 20.7153737 ], [ 104.4820256, 20.763513 ], [ 104.4399935, 20.776446 ], [ 104.4108944, 20.776446 ], [ 104.4105638, 20.8042738 ], [ 104.3886573, 20.8267644 ], [ 104.3685034, 20.8258881 ], [ 104.3369582, 20.8580175 ], [ 104.3281956, 20.8898549 ], [ 104.2887641, 20.9129296 ], [ 104.2525455, 20.9012462 ], [ 104.2136981, 20.9392173 ], [ 104.1841975, 20.9576187 ], [ 104.1292854, 20.9491482 ], [ 104.1024135, 20.9780647 ], [ 104.0510065, 20.9497324 ], [ 104.0477935, 20.914098 ], [ 104.0276396, 20.8959887 ], [ 103.9675898, 20.8780898 ], [ 103.9228376, 20.8424537 ], [ 103.8209019, 20.7852703 ], [ 103.755431, 20.7753253 ], [ 103.6427217, 20.792729 ], [ 103.6170306, 20.8051602 ], [ 103.5813945, 20.8068177 ], [ 103.5516713, 20.7859446 ], [ 103.4965198, 20.7742869 ], [ 103.4422884, 20.8438669 ], [ 103.3875453, 20.8469366 ], [ 103.3287977, 20.8148981 ], [ 103.3113142, 20.8228906 ], [ 103.2575944, 20.8239138 ], [ 103.2294554, 20.8418204 ], [ 103.1199692, 20.8858195 ], [ 103.1061555, 20.9221444 ], [ 103.0872257, 20.9395394 ], [ 103.0836444, 20.9697248 ], [ 103.0595004, 20.9996129 ], [ 103.0416628, 21.0463021 ], [ 103.0228674, 21.0600694 ], [ 102.993537, 21.0601891 ], [ 102.9613334, 21.0780268 ], [ 102.967798, 21.0940687 ], [ 102.9346367, 21.1590745 ], [ 102.9087781, 21.1609899 ], [ 102.9032264, 21.1914252 ], [ 102.923982, 21.2130663 ], [ 102.8821937, 21.2440069 ], [ 102.8263761, 21.2499392 ], [ 102.8074061, 21.2634311 ], [ 102.8657202, 21.3003987 ], [ 102.8902748, 21.3345926 ], [ 102.8961474, 21.3844206 ], [ 102.9180361, 21.4080888 ], [ 102.94264, 21.4654485 ], [ 102.9669384, 21.5018962 ], [ 102.996484, 21.5750936 ], [ 102.978928, 21.6573002 ], [ 102.9899023, 21.6829541 ], [ 102.9411104, 21.7770499 ], [ 102.9314276, 21.7851836 ], [ 102.8481547, 21.7948665 ], [ 102.8059374, 21.8184927 ], [ 102.7300235, 21.8239151 ], [ 102.676574, 21.8579989 ], [ 102.6341944, 21.8597313 ], [ 102.6090261, 21.8735192 ], [ 102.620688, 21.9009753 ], [ 102.6106507, 21.9224344 ], [ 102.5822693, 21.9279722 ], [ 102.5047784, 21.973441 ], [ 102.4874089, 22.0081799 ], [ 102.5224952, 22.0224229 ], [ 102.483602, 22.0422939 ], [ 102.4319573, 22.0944243 ], [ 102.4099394, 22.1246989 ], [ 102.3582947, 22.1671156 ], [ 102.3353054, 22.1661442 ], [ 102.3178207, 22.2045135 ], [ 102.283175, 22.2064563 ], [ 102.2715185, 22.2373784 ], [ 102.2402726, 22.2383498 ], [ 102.2394631, 22.2692719 ], [ 102.1765822, 22.3083032 ], [ 102.1963065, 22.3184002 ], [ 102.1671897, 22.3503348 ], [ 102.1702422, 22.3705287 ], [ 102.1438851, 22.4006941 ], [ 102.1534168, 22.4420491 ], [ 102.1863386, 22.444346 ], [ 102.2341498, 22.4317713 ], [ 102.2642029, 22.432172 ], [ 102.2445682, 22.4674343 ], [ 102.2882723, 22.5045484 ], [ 102.32067, 22.5572518 ], [ 102.3578651, 22.5671826 ], [ 102.4031854, 22.6394061 ], [ 102.4071576, 22.6856291 ], [ 102.4356859, 22.7026016 ], [ 102.4522973, 22.7569498 ], [ 102.4669226, 22.7771723 ], [ 102.5015898, 22.7802418 ], [ 102.5860913, 22.7231853 ], [ 102.6057722, 22.7336577 ], [ 102.6547036, 22.6912264 ], [ 102.6877459, 22.7029627 ], [ 102.7112185, 22.6816568 ], [ 102.7827197, 22.6428367 ], [ 102.7870532, 22.6265864 ], [ 102.8377902, 22.616114 ], [ 102.8654156, 22.6005859 ], [ 102.8776936, 22.5583352 ], [ 102.8953884, 22.5456961 ], [ 102.8997218, 22.5122927 ], [ 102.9217499, 22.5070565 ], [ 102.933733, 22.4805326 ], [ 102.9865525, 22.4802947 ], [ 103.0205758, 22.4384198 ], [ 103.0562647, 22.4519815 ], [ 103.0825439, 22.5106736 ], [ 103.1190071, 22.5184424 ], [ 103.1380788, 22.5415058 ], [ 103.1567956, 22.5393768 ], [ 103.1814557, 22.5600452 ], [ 103.1566182, 22.5884309 ], [ 103.1681499, 22.6186795 ], [ 103.1954712, 22.6508795 ], [ 103.2319291, 22.658863 ], [ 103.2831121, 22.6846763 ], [ 103.2851523, 22.7370124 ], [ 103.3201085, 22.7826584 ], [ 103.3156613, 22.8021876 ], [ 103.3661276, 22.8006407 ], [ 103.3817324, 22.7850863 ], [ 103.4415371, 22.7565552 ], [ 103.4284407, 22.7341979 ], [ 103.4286224, 22.7045736 ], [ 103.4582467, 22.6798564 ], [ 103.4549753, 22.6584106 ], [ 103.4882345, 22.6195173 ], [ 103.5302174, 22.5946184 ], [ 103.5528369, 22.6369997 ], [ 103.5798311, 22.6638635 ], [ 103.5642933, 22.7058116 ], [ 103.6039438, 22.7489889 ], [ 103.6176238, 22.7826544 ], [ 103.6402812, 22.7976169 ], [ 103.7683534, 22.6906147 ], [ 103.8117531, 22.6419561 ], [ 103.8249261, 22.6169885 ], [ 103.8933955, 22.5678703 ], [ 103.9611991, 22.5068598 ], [ 103.9809533, 22.5079822 ], [ 104.0055287, 22.5385468 ], [ 104.0110917, 22.5793145 ], [ 104.0344231, 22.6382657 ], [ 104.0219686, 22.6657486 ], [ 104.0408289, 22.7246633 ], [ 104.0902437, 22.7718172 ], [ 104.1154355, 22.8108969 ], [ 104.1354598, 22.8047604 ], [ 104.2439785, 22.8389955 ], [ 104.2756298, 22.8341509 ], [ 104.2588352, 22.7656808 ], [ 104.2804744, 22.7411349 ], [ 104.3411932, 22.7211106 ], [ 104.3527727, 22.6903767 ], [ 104.3949594, 22.6917398 ], [ 104.4238402, 22.7369924 ], [ 104.4727719, 22.7575953 ], [ 104.5108503, 22.7888674 ], [ 104.5381838, 22.826976 ], [ 104.6006174, 22.846161 ], [ 104.6182392, 22.8188053 ], [ 104.6548253, 22.8347488 ], [ 104.6729506, 22.8184696 ], [ 104.7362211, 22.8261057 ], [ 104.7393259, 22.8587479 ], [ 104.8118269, 22.919585 ], [ 104.8622587, 22.9483672 ], [ 104.8622587, 22.9662407 ], [ 104.8310679, 23.0011543 ], [ 104.8396878, 23.0222252 ], [ 104.8272369, 23.0742638 ], [ 104.8144667, 23.0852781 ], [ 104.821171, 23.1184807 ], [ 104.8746463, 23.1285372 ], [ 104.8933228, 23.1794585 ], [ 104.9177458, 23.1874399 ], [ 104.9504695, 23.1743504 ], [ 104.9571738, 23.1939846 ], [ 105.0242175, 23.2190462 ], [ 105.0478424, 23.2452251 ], [ 105.0832797, 23.2677326 ], [ 105.1102812, 23.2485702 ], [ 105.1549094, 23.2665049 ], [ 105.1722184, 23.2896532 ], [ 105.2197662, 23.2704672 ], [ 105.250422, 23.3009145 ], [ 105.2614748, 23.3442914 ], [ 105.3231593, 23.3927642 ], [ 105.3507569, 23.3658237 ], [ 105.3706884, 23.3202658 ], [ 105.4107706, 23.2878497 ], [ 105.4353018, 23.3027436 ], [ 105.4672799, 23.2539003 ], [ 105.4929062, 23.2309023 ], [ 105.499258, 23.2026477 ], [ 105.5566434, 23.1807449 ], [ 105.5726324, 23.1268639 ], [ 105.5702231, 23.0913814 ], [ 105.6177522, 23.0692595 ], [ 105.6435976, 23.0819632 ], [ 105.6920028, 23.0626887 ], [ 105.7272663, 23.0659741 ], [ 105.7373416, 23.0318057 ], [ 105.779395, 23.0239207 ], [ 105.7940699, 23.0017989 ], [ 105.8310271, 22.9842564 ], [ 105.8807251, 22.9190331 ], [ 105.890789, 22.9387235 ], [ 105.9315789, 22.9375852 ], [ 105.9560528, 22.9506759 ], [ 105.9964633, 22.9436562 ], [ 106.0023311, 22.9928361 ], [ 106.0679879, 22.9943116 ], [ 106.1510854, 22.9889994 ], [ 106.2006024, 22.9781853 ], [ 106.2372185, 22.9531422 ], [ 106.2609335, 22.9100757 ], [ 106.2487914, 22.8937597 ], [ 106.2709887, 22.8757363 ], [ 106.3552245, 22.860369 ], [ 106.3738171, 22.8768746 ], [ 106.4218164, 22.8931906 ], [ 106.4557764, 22.8912934 ], [ 106.496756, 22.9062813 ], [ 106.5013092, 22.9354982 ], [ 106.5223682, 22.9506759 ], [ 106.5663833, 22.9197514 ], [ 106.6052713, 22.9266361 ], [ 106.6274452, 22.8807444 ], [ 106.6628113, 22.8752711 ], [ 106.7061769, 22.8890245 ], [ 106.7092644, 22.8665699 ], [ 106.774191, 22.8174617 ], [ 106.8266631, 22.8161909 ], [ 106.8261717, 22.7817892 ], [ 106.7715683, 22.7445596 ], [ 106.7749604, 22.7061718 ], [ 106.7578348, 22.6753126 ], [ 106.7211016, 22.6398204 ], [ 106.7141521, 22.5805013 ], [ 106.6816382, 22.5715662 ], [ 106.6487935, 22.5771092 ], [ 106.6187616, 22.607472 ], [ 106.6011396, 22.5765301 ], [ 106.6008087, 22.5528687 ], [ 106.5821112, 22.5201894 ], [ 106.5850257, 22.4770305 ], [ 106.5631212, 22.4638719 ], [ 106.5814932, 22.3734387 ], [ 106.5601743, 22.3492197 ], [ 106.6209436, 22.3340091 ], [ 106.6512394, 22.3403396 ], [ 106.6624308, 22.3067655 ], [ 106.6864616, 22.2884039 ], [ 106.6803299, 22.2714393 ], [ 106.6983728, 22.2271125 ], [ 106.6828845, 22.2042737 ], [ 106.6776186, 22.1706353 ], [ 106.6935071, 22.1615978 ], [ 106.6996293, 22.105915 ], [ 106.7118737, 22.0993555 ], [ 106.7150941, 22.0503824 ], [ 106.6830721, 21.9958879 ], [ 106.6896525, 21.9601068 ], [ 106.7165912, 21.9693605 ], [ 106.7340468, 22.0107642 ], [ 106.7840836, 22.0049908 ], [ 106.806536, 21.9796516 ], [ 106.8804852, 21.9816988 ], [ 106.9061901, 21.9720338 ], [ 106.9298385, 21.929261 ], [ 106.9598617, 21.9161001 ], [ 106.992147, 21.95147 ], [ 107.0482864, 21.9307005 ], [ 107.0635036, 21.8967701 ], [ 107.0065417, 21.8488563 ], [ 107.0368129, 21.816436 ], [ 107.0853024, 21.8098889 ], [ 107.1356828, 21.7797617 ], [ 107.1646861, 21.7515787 ], [ 107.1871918, 21.7456454 ], [ 107.1994677, 21.7229351 ], [ 107.2405917, 21.7059535 ], [ 107.264207, 21.728352 ], [ 107.3038634, 21.7419816 ], [ 107.3603488, 21.6622889 ], [ 107.361583, 21.5984582 ], [ 107.3825537, 21.5965518 ], [ 107.4161622, 21.6381849 ], [ 107.4613621, 21.6634399 ], [ 107.4974961, 21.6322273 ], [ 107.4880417, 21.6014033 ], [ 107.5433436, 21.5894882 ], [ 107.5584966, 21.613448 ], [ 107.5927222, 21.6046441 ], [ 107.6517426, 21.6047305 ], [ 107.7170926, 21.6220431 ], [ 107.7410639, 21.6389751 ], [ 107.8056411, 21.6588203 ], [ 107.8331081, 21.6439572 ], [ 107.8571269, 21.6550154 ], [ 107.8888745, 21.6254081 ], [ 107.8907769, 21.5984167 ], [ 107.9301344, 21.578084 ], [ 107.9552978, 21.5364412 ], [ 108.0235805, 21.5488719 ] ] ], [ [ [ 108.0035949, 21.3980465 ], [ 107.9413908, 21.3555206 ], [ 107.8844876, 21.3583767 ], [ 107.8892645, 21.3829986 ], [ 107.9128486, 21.3825425 ], [ 107.9743598, 21.3974934 ], [ 108.0035949, 21.3980465 ] ] ], [ [ [ 107.6389011, 16.5674924 ], [ 107.6895683, 16.5390902 ], [ 107.7730392, 16.4760841 ], [ 107.8990601, 16.3678083 ], [ 107.8892382, 16.3429875 ], [ 107.8479725, 16.3567021 ], [ 107.7721866, 16.4354304 ], [ 107.739491, 16.4908844 ], [ 107.6389011, 16.5674924 ] ] ], [ [ [ 107.7546991, 21.0126649 ], [ 107.7811991, 20.9907384 ], [ 107.762463, 20.9735217 ], [ 107.7362062, 20.9918922 ], [ 107.7546991, 21.0126649 ] ] ], [ [ [ 107.498411, 21.2444883 ], [ 107.5501105, 21.1959783 ], [ 107.6058367, 21.204148 ], [ 107.5641327, 21.1597432 ], [ 107.5327735, 21.1361195 ], [ 107.4527141, 21.0884373 ], [ 107.4116736, 21.0510747 ], [ 107.3832201, 21.0557613 ], [ 107.3677251, 21.0758724 ], [ 107.4154022, 21.1304437 ], [ 107.4161207, 21.1847584 ], [ 107.4354344, 21.1984064 ], [ 107.4508281, 21.23139 ], [ 107.453484, 21.2636393 ], [ 107.4755001, 21.2701209 ], [ 107.498411, 21.2444883 ] ] ], [ [ [ 107.5809391, 21.1115655 ], [ 107.5692675, 21.0825008 ], [ 107.5462607, 21.0708724 ], [ 107.5268877, 21.0863529 ], [ 107.549399, 21.11391 ], [ 107.5809391, 21.1115655 ] ] ], [ [ [ 107.5365348, 21.0354166 ], [ 107.548027, 20.9944172 ], [ 107.5119079, 20.9195757 ], [ 107.4756791, 20.9122244 ], [ 107.4333823, 20.9205713 ], [ 107.4776044, 20.9491558 ], [ 107.4794561, 20.9815069 ], [ 107.5365348, 21.0354166 ] ] ], [ [ [ 107.4336448, 21.2587861 ], [ 107.4387877, 21.2388443 ], [ 107.3852084, 21.1835697 ], [ 107.3676364, 21.2007158 ], [ 107.3934915, 21.2545564 ], [ 107.4336448, 21.2587861 ] ] ], [ [ [ 107.3334116, 20.8943438 ], [ 107.3866557, 20.885707 ], [ 107.371343, 20.8585911 ], [ 107.3300346, 20.8754695 ], [ 107.3334116, 20.8943438 ] ] ], [ [ [ 107.335566, 20.8540813 ], [ 107.3687131, 20.8236144 ], [ 107.3440463, 20.8040908 ], [ 107.335566, 20.8540813 ] ] ], [ [ [ 106.950067, 20.8776848 ], [ 106.9592343, 20.855027 ], [ 107.0351639, 20.8616711 ], [ 107.0613955, 20.8316277 ], [ 107.1034388, 20.80668 ], [ 107.0485005, 20.7552382 ], [ 107.0736147, 20.7443523 ], [ 107.0581997, 20.7185374 ], [ 107.0136536, 20.7472674 ], [ 106.9926448, 20.7375666 ], [ 106.9679756, 20.7774209 ], [ 106.9471481, 20.7937849 ], [ 106.9184091, 20.7973056 ], [ 106.9175873, 20.8338663 ], [ 106.9479879, 20.8502891 ], [ 106.950067, 20.8776848 ] ] ], [ [ [ 106.9068739, 20.9522858 ], [ 106.9286727, 20.936363 ], [ 106.9397543, 20.9086987 ], [ 106.8974837, 20.9065312 ], [ 106.885179, 20.9369665 ], [ 106.9068739, 20.9522858 ] ] ], [ [ [ 106.8059464, 20.9315158 ], [ 106.8295332, 20.9184463 ], [ 106.846568, 20.9008843 ], [ 106.8452054, 20.880624 ], [ 106.8740261, 20.8252172 ], [ 106.9023452, 20.7993307 ], [ 106.8599608, 20.7900585 ], [ 106.8194312, 20.8530448 ], [ 106.8220759, 20.8657735 ], [ 106.7956495, 20.882076 ], [ 106.7774063, 20.9310143 ], [ 106.8059464, 20.9315158 ] ] ], [ [ [ 106.7741087, 20.9063082 ], [ 106.7935289, 20.8815989 ], [ 106.8199041, 20.8644276 ], [ 106.8138255, 20.8400197 ], [ 106.7690425, 20.8505492 ], [ 106.758415, 20.8850227 ], [ 106.7741087, 20.9063082 ] ] ], [ [ [ 106.7436461, 8.7118398 ], [ 106.7210524, 8.6524032 ], [ 106.6611538, 8.5983428 ], [ 106.6478683, 8.6335003 ], [ 106.6761282, 8.6578059 ], [ 106.6793355, 8.6769462 ], [ 106.7436461, 8.7118398 ] ] ], [ [ [ 103.9998325, 10.4506465 ], [ 104.0220527, 10.4224024 ], [ 104.0573077, 10.4021998 ], [ 104.0791965, 10.3705751 ], [ 104.0729137, 10.3423263 ], [ 104.0809678, 10.2454452 ], [ 104.0526338, 10.1906971 ], [ 104.030501, 10.1313259 ], [ 104.0275666, 10.0788386 ], [ 104.0432733, 10.0694304 ], [ 104.0308271, 10.0297481 ], [ 104.0147716, 10.0161241 ], [ 103.9924226, 10.0469803 ], [ 103.9618019, 10.202895 ], [ 103.9498682, 10.2388639 ], [ 103.9172932, 10.2861262 ], [ 103.8611898, 10.3047532 ], [ 103.8367479, 10.3775448 ], [ 103.9217437, 10.3592887 ], [ 103.9496941, 10.4036597 ], [ 103.9667488, 10.4092122 ], [ 103.973096, 10.4396683 ], [ 103.9998325, 10.4506465 ] ] ] ] } }
]
}
