{
"type": "FeatureCollection",
"name": "WLF_GAUL2005_ADM2",
"crs": { "type": "name", "properties": { "name": "urn:ogc:def:crs:OGC:1.3:CRS84" } },
"features": [
{ "type": "Feature", "properties": { "POLYGON_ID": "WLF_GAUL2005_ADM2_32677", "ADM0_ISO3": "WLF", "ADM0_NAME": "Wallis and Futuna", "ADM0_CODE": 266, "ADM1_NAME": "Administrative unit not available", "ADM1_CODE": 3392, "ADM2_NAME": "Administrative unit not available", "ADM2_CODE": 32677, "GEOSET": "GAUL", "GEOSET_YEAR": 2005.0, "GEOSET_VERSION": "GAUL_v1", "GEOSET_UNIT": "ADM2", "CENTROID_LONG": -176.55342342710497, "CENTROID_LAT": -13.466896440868846 }, "geometry": { "type": "MultiPolygon", "coordinates": [ [ [ [ -176.1925516, -13.2223411 ], [ -176.1618938, -13.2652762 ], [ -176.1842366, -13.349355 ], [ -176.2456631, -13.3142416 ], [ -176.2177767, -13.230408 ], [ -176.1925516, -13.2223411 ] ] ], [ [ [ -178.1615477, -14.2486172 ], [ -178.099560700000012, -14.2895084 ], [ -178.137713, -14.3108422 ], [ -178.1615477, -14.2486172 ] ] ] ] } }
]
}
